{"version": 0.6, "generator": "Overpass API 0.7.62.8 e802775f", "osm3s": {"timestamp_osm_base": "2025-10-06T08:51:34Z", "copyright": "The data included in this document is from www.openstreetmap.org. The data is made available under ODbL."}, "elements": [{"type": "node", "id": 282520277, "lat": 53.1506151, "lon": 23.1236458, "tags": {"addr:city": "Bia\u0142ystok", "addr:housenumber": "8", "addr:postcode": "15-814", "addr:street": "Genera\u0142a J\u00f3zefa Hallera", "amenity": "pharmacy", "brand": "Cef@Rm 36,6", "dispensing": "yes", "healthcare": "pharmacy", "name": "Cef@Rm 36,6", "ref:csioz": "1022541"}}, {"type": "node", "id": 444964384, "lat": 53.1241288, "lon": 23.0993524, "tags": {"addr:city": "Bia\u0142ystok", "addr:housenumber": "20", "addr:postcode": "15-644", "addr:street": "Wroc\u0142awska", "amenity": "pharmacy", "healthcare": "pharmacy", "name": "Hebeapteka", "ref:csioz": "1213984", "source:disused": "Rejestr aptek MZ"}}, {"type": "node", "id": 469057604, "lat": 53.1275768, "lon": 23.0969667, "tags": {"addr:city": "Bia\u0142ystok", "addr:housenumber": "1C", "addr:postcode": "15-661", "addr:street": "Armii Krajowej", "amenity": "pharmacy", "dispensing": "yes", "name": "Twoja Apteka Izyda", "ref:csioz": "1019869"}}, {"type": "node", "id": 911062712, "lat": 53.1281934, "lon": 23.1539628, "tags": {"addr:city": "Bia\u0142ystok", "addr:housenumber": "9/1", "addr:postcode": "15-281", "addr:street": "Legionowa", "amenity": "pharmacy", "check_date:opening_hours": "2020-09-25", "dispensing": "yes", "email": "biuro@aquavitae.com.pl", "fax": "+48857441671", "healthcare": "pharmacy", "name": "Aqua Vitae", "opening_hours": "Mo-Fr 08:00-19:00; Sa 09:00-15:00; PH off", "payment:american_express": "no", "payment:coins": "yes", "payment:jcb": "yes", "payment:maestro": "yes", "payment:mastercard": "yes", "payment:notes": "yes", "payment:visa": "yes", "payment:visa_debit": "yes", "payment:visa_electron": "yes", "phone": "+48857441671", "ref:csioz": "1024603", "website": "https://www.aquavitae.com.pl/", "wheelchair": "limited"}}, {"type": "node", "id": 911063437, "lat": 53.1285106, "lon": 23.1529793, "tags": {"addr:city": "Bia\u0142ystok", "addr:country": "PL", "addr:housenumber": "30", "addr:postcode": "15-281", "addr:street": "Legionowa", "amenity": "pharmacy", "dispensing": "yes", "email": "apteka@podgryfem.pl", "fax": "+48857423095", "healthcare": "pharmacy", "name": "Pod Gryfem", "opening_hours": "Mo-Fr 08:00-20:00; Sa 09:00-16:00; Su 10:00-13:00", "payment:american_express": "yes", "payment:coins": "yes", "payment:diners_club": "yes", "payment:discover_card": "yes", "payment:jcb": "yes", "payment:maestro": "yes", "payment:mastercard": "yes", "payment:notes": "yes", "payment:visa_debit": "yes", "payment:visa_electron": "yes", "phone": "+48857423095", "ref:csioz": "1021727", "website": "https://aptekapodgryfem.pl/", "wheelchair": "yes"}}, {"type": "node", "id": 1067680771, "lat": 53.1134977, "lon": 23.1473812, "tags": {"addr:city": "Bia\u0142ystok", "addr:flats": "4", "addr:housenumber": "71", "addr:postcode": "15-351", "addr:street": "Wiejska", "amenity": "pharmacy", "healthcare": "pharmacy", "name": "Spo\u0142eczna", "operator": "Grupa Nowa Farmacja", "ref:csioz": "1202584"}}, {"type": "node", "id": 1239169957, "lat": 52.9913432, "lon": 22.8846582, "tags": {"addr:city": "\u0141apy", "addr:housenumber": "13C", "addr:postcode": "18-100", "addr:street": "Sikorskiego gen. W\u0142adys\u0142awa", "amenity": "pharmacy", "dispensing": "yes", "name": "Pogodna", "opening_hours": "Mo-Fr 07:00-21:00; Sa 08:00-16:00", "phone": "85 715 25 22", "ref:csioz": "1024728"}}, {"type": "node", "id": 1239169965, "lat": 52.9910194, "lon": 22.8795152, "tags": {"addr:city": "\u0141apy", "addr:housenumber": "21", "addr:postcode": "18-100", "addr:street": "G\u0142\u00f3wna", "amenity": "pharmacy", "dispensing": "yes", "name": "Dbam o Zdrowie (Doz)", "opening_hours": "Mo-Fr 08:00-19:00; Sa 08:00-16:00", "phone": "85 715 44 70", "ref:csioz": "1023407"}}, {"type": "node", "id": 1295141947, "lat": 53.1255114, "lon": 23.1616965, "tags": {"amenity": "pharmacy", "healthcare": "pharmacy", "ref:csioz": "1016198", "source:disused": "Rejestr aptek MZ"}}, {"type": "node", "id": 1606917492, "lat": 53.1336541, "lon": 23.1908572, "tags": {"addr:city": "Bia\u0142ystok", "addr:housenumber": "14", "addr:postcode": "15-054", "addr:street": "Mieszka I", "amenity": "pharmacy", "brand": "Dbam o Zdrowie", "brand:wikidata": "Q62563833", "dispensing": "yes", "healthcare": "pharmacy", "name": "Dbam o Zdrowie", "opening_hours": "Mo-Fr 08:00-20:00,Sa 08:00-16:00;PH off", "ref:csioz": "1019944", "short_name": "DOZ", "website": "https://www.doz.pl/", "wheelchair": "yes"}}, {"type": "node", "id": 1606917493, "lat": 53.1364196, "lon": 23.183468, "tags": {"addr:city": "Bia\u0142ystok", "addr:housenumber": "6", "addr:postcode": "15-034", "addr:street": "Dobra", "amenity": "pharmacy", "contact:phone": "+48 85 732 16 16", "name": "Apteka od Serca", "ref:csioz": "1017645"}}, {"type": "node", "id": 1792229827, "lat": 53.1446273, "lon": 23.1920824, "tags": {"addr:city": "Bia\u0142ystok", "addr:housenumber": "2", "addr:postcode": "15-183", "addr:street": "Siewna", "amenity": "pharmacy", "healthcare": "pharmacy", "name": "Apteka Cef@Rm 36,6", "ref:csioz": "1022483"}}, {"type": "node", "id": 1805984639, "lat": 53.1250008, "lon": 23.2572013, "tags": {"addr:city": "Sobolewo", "addr:housenumber": "80", "addr:postcode": "15-509", "addr:street": "Baranowicka", "amenity": "pharmacy", "healthcare": "pharmacy", "name": "Apteka (J. Sacharczuk)", "ref:csioz": "1183782"}}, {"type": "node", "id": 2111532829, "lat": 53.1537398, "lon": 22.6657772, "tags": {"addr:city": "Zawady", "addr:housenumber": "7", "addr:postcode": "16-075", "addr:street": "Sienkiewicza", "amenity": "pharmacy", "name": "Tw\u00f3j Punkt Apteczny", "ref:csioz": "1229661"}}, {"type": "node", "id": 2168903188, "lat": 53.0131963, "lon": 23.0552968, "tags": {"addr:city": "Turo\u015b\u0144 Ko\u015bcielna", "addr:housenumber": "7", "addr:postcode": "18-106", "addr:street": "Bia\u0142ostocka", "amenity": "pharmacy", "name": "Twoja Apteka", "ref:csioz": "1024688"}}, {"type": "node", "id": 2229796434, "lat": 53.145282, "lon": 23.1507626, "tags": {"addr:city": "Bia\u0142ystok", "addr:housenumber": "16", "addr:street": "Radzymi\u0144ska", "amenity": "pharmacy", "brand": "Cef@Rm 36,6", "dispensing": "yes", "healthcare": "pharmacy", "name": "Cef@Rm 36,6", "ref:csioz": "1022529"}}, {"type": "node", "id": 2360851290, "lat": 53.1453879, "lon": 23.1819705}, {"type": "node", "id": 2379041359, "lat": 53.1461383, "lon": 22.9909303, "tags": {"addr:city": "Choroszcz", "addr:housenumber": "6D", "addr:postcode": "16-070", "addr:street": "Powstania Styczniowego", "amenity": "pharmacy", "healthcare": "pharmacy", "name": "Tas", "opening_hours": "Mo-Fr 08:00-18:30; Sa 08:00-14:00", "phone": "0048857193310", "ref:csioz": "1023654"}}, {"type": "node", "id": 2412353495, "lat": 52.8425887, "lon": 22.9801608, "tags": {"amenity": "pharmacy", "dispensing": "yes", "healthcare": "pharmacy", "ref:csioz": "1023464"}}, {"type": "node", "id": 2448457815, "lat": 53.1091144, "lon": 23.1891175}, {"type": "node", "id": 2448457817, "lat": 53.1091146, "lon": 23.1889203}, {"type": "node", "id": 2448457837, "lat": 53.1092622, "lon": 23.189118}, {"type": "node", "id": 2448457838, "lat": 53.1092624, "lon": 23.1889207}, {"type": "node", "id": 2495132878, "lat": 52.9910617, "lon": 22.8835112, "tags": {"addr:city": "\u0141apy", "addr:housenumber": "54", "addr:postcode": "18-100", "addr:street": "gen. W\u0142adys\u0142awa Sikorskiego", "amenity": "pharmacy", "brand": "Dr. Max", "brand:wikidata": "Q56317371", "dispensing": "yes", "healthcare": "pharmacy", "name": "Dr. Max", "opening_hours": "Mo-Fr 07:00-20:00; Sa 08:00-16:00", "phone": "85 688 00 74", "ref:csioz": "1117855", "self_service": "yes", "website": "https://drmax.pl/"}}, {"type": "node", "id": 2595391257, "lat": 53.145448, "lon": 23.1821284}, {"type": "node", "id": 2622599255, "lat": 53.1411878, "lon": 23.1707754, "tags": {"addr:city": "Bia\u0142ystok", "addr:housenumber": "22", "addr:postcode": "15-950", "addr:street": "Fabryczna", "amenity": "pharmacy", "check_date:opening_hours": "2025-07-19", "name": "Dr. Max", "opening_hours": "Mo-Fr 07:00-20:00; Sa 07:00-20:00; Su 08:00-16:00", "ref:csioz": "1016903"}}, {"type": "node", "id": 2670483183, "lat": 53.1203534, "lon": 23.1505235, "tags": {"addr:city": "Bia\u0142ystok", "addr:housenumber": "11A", "addr:postcode": "15-312", "addr:street": "Zwierzyniecka", "amenity": "pharmacy", "dispensing": "yes", "name": "Nowa Farmacja", "operator": "Nowa Farmacja", "ref:csioz": "1019339"}}, {"type": "node", "id": 2683381629, "lat": 52.9892044, "lon": 22.8674619, "tags": {"addr:city": "\u0141apy", "addr:housenumber": "18", "addr:postcode": "18-100", "addr:street": "Kossaka", "amenity": "pharmacy", "name": "Salus", "opening_hours": "Mo-Fr 08:30-18:00; Sa 08:30-14:00", "phone": "85 715 69 35", "ref:csioz": "1021644"}}, {"type": "node", "id": 2688190309, "lat": 52.9826152, "lon": 22.8922681, "tags": {"addr:city": "\u0141apy", "addr:housenumber": "25", "addr:postcode": "18-100", "addr:street": "\u017bwirki i Wigury", "amenity": "pharmacy", "healthcare": "pharmacy", "name": "Apteka Rodzinna", "ref:csioz": "1017109"}}, {"type": "node", "id": 2768174580, "lat": 52.951614, "lon": 22.9556087, "tags": {"addr:city": "Sura\u017c", "addr:housenumber": "16", "addr:postcode": "18-105", "addr:street": "11 Listopada", "amenity": "pharmacy", "dispensing": "yes", "name": "Na Zdrowie", "ref:csioz": "1221057"}}, {"type": "node", "id": 2781812379, "lat": 53.1475507, "lon": 23.1175215, "tags": {"addr:city": "Bia\u0142ystok", "addr:housenumber": "30", "addr:street": "Blokowa", "amenity": "pharmacy", "healthcare": "pharmacy", "ref:csioz": "1021224", "source:disused": "Rejestr aptek MZ"}}, {"type": "node", "id": 2915695351, "lat": 53.1816649, "lon": 23.06439, "tags": {"addr:city": "Dobrzyniewo Fabryczne", "addr:housenumber": "3", "addr:postcode": "16-002", "addr:street": "Kr\u00f3lewska", "amenity": "pharmacy", "name": "Pharmico", "ref:csioz": "1184826", "source:addr": "dobrzyniewoduze.e-mapa.net"}}, {"type": "node", "id": 2989219765, "lat": 52.9927622, "lon": 22.6997467, "tags": {"addr:city": "Soko\u0142y", "addr:housenumber": "6", "addr:postcode": "18-218", "addr:street": "Rynek Mickiewicza", "amenity": "pharmacy", "dispensing": "yes", "name": "Apteka prywatna (W. Zaleska)", "opening_hours": "Mo-Fr 08:00-18:00; Sa 08:00-14:00", "ref:csioz": "1017271"}}, {"type": "node", "id": 3021943612, "lat": 53.2063329, "lon": 23.2008028, "tags": {"addr:city": "Wasilk\u00f3w", "addr:housenumber": "15", "addr:postcode": "16-010", "addr:street": "\u017burawia", "amenity": "pharmacy", "healthcare": "pharmacy", "name": "S\u0142oneczna", "opening_hours": "Mo-Fr 09:00-18:00; Sa 08:00-14:00", "ref:csioz": "1016969"}}, {"type": "node", "id": 3021953598, "lat": 53.2051457, "lon": 23.207571, "tags": {"addr:city": "Wasilk\u00f3w", "addr:flats": "3", "addr:housenumber": "2/3", "addr:postcode": "16-010", "addr:street": "Polna", "amenity": "pharmacy", "healthcare": "pharmacy", "name": "S\u0142oneczna", "ref:csioz": "1020701"}}, {"type": "node", "id": 3027623677, "lat": 53.1337858, "lon": 23.1491977, "tags": {"addr:city": "Bia\u0142ystok", "addr:country": "PL", "addr:housenumber": "37", "addr:postcode": "15-424", "addr:street": "Lipowa", "amenity": "pharmacy", "contact:phone": "+48856633238", "contact:website": "http://www.nowafarmacja.com.pl/", "dispensing": "yes", "healthcare": "pharmacy", "name": "Apteka Spo\u0142eczna", "opening_hours": "Mo-Fr 07:00-20:00; Sa 08:00-16:00", "operator": "Nowa Farmacja", "payment:american_express": "yes", "payment:coins": "yes", "payment:contactless": "yes", "payment:diners_club": "yes", "payment:discover_card": "yes", "payment:jcb": "yes", "payment:maestro": "yes", "payment:mastercard": "yes", "payment:notes": "yes", "payment:visa": "yes", "payment:visa_debit": "yes", "payment:visa_electron": "yes", "phone": "+48856633238", "ref:csioz": "1117829", "website": "http://www.nowafarmacja.com.pl/", "wheelchair": "yes"}}, {"type": "node", "id": 3027644012, "lat": 53.1339704, "lon": 23.1496621, "tags": {"addr:city": "Bia\u0142ystok", "addr:country": "PL", "addr:housenumber": "20", "addr:postcode": "15-427", "addr:street": "Lipowa", "amenity": "pharmacy", "healthcare": "pharmacy", "name": "Przy Ratuszu", "ref:csioz": "1021049", "source:disused": "Rejestr aptek MZ"}}, {"type": "node", "id": 3027727051, "lat": 53.1336196, "lon": 23.1524187, "tags": {"addr:city": "Bia\u0142ystok", "addr:country": "PL", "addr:housenumber": "16", "addr:postcode": "15-427", "addr:street": "Lipowa", "amenity": "pharmacy", "check_date:opening_hours": "2024-07-08", "contact:phone": "+48857451067", "contact:website": "http://www.nowafarmacja.com.pl/", "dispensing": "yes", "name": "Apteka Spo\u0142eczna", "opening_hours": "Mo-Fr 07:30-21:00; Sa 08:00-16:00", "operator": "Nowa Farmacja", "payment:american_express": "yes", "payment:coins": "yes", "payment:contactless": "yes", "payment:diners_club": "yes", "payment:discover_card": "yes", "payment:jcb": "yes", "payment:maestro": "yes", "payment:mastercard": "yes", "payment:notes": "yes", "payment:visa": "yes", "payment:visa_debit": "yes", "payment:visa_electron": "yes", "phone": "+48857451067", "ref:csioz": "1020305", "website": "http://www.nowafarmacja.com.pl/", "wheelchair": "yes"}}, {"type": "node", "id": 3034407018, "lat": 53.1315041, "lon": 23.1565614, "tags": {"addr:city": "Bia\u0142ystok", "addr:flats": "20", "addr:housenumber": "4", "addr:postcode": "15-422", "addr:street": "Suraska", "alt_name": "Apteka Na Suraskiej", "amenity": "pharmacy", "contact:email": "aptekanasuraskiej@gmail.com", "contact:facebook": "https://www.facebook.com/AptekaNaSuraskiej", "contact:phone": "+48856632552", "dispensing": "yes", "email": "aptekanasuraskiej@gmail.com", "healthcare": "pharmacy", "level": "0", "name": "Na Suraskiej", "opening_hours": "24/7", "payment:american_express": "yes", "payment:cash": "yes", "payment:contactless": "yes", "payment:diners_club": "yes", "payment:discover_card": "yes", "payment:jcb": "yes", "payment:maestro": "yes", "payment:mastercard": "yes", "payment:visa": "yes", "payment:visa_debit": "yes", "payment:visa_electron": "yes", "phone": "+48856632552", "ref:csioz": "1114870", "wheelchair": "yes"}}, {"type": "node", "id": 3034656734, "lat": 53.1249386, "lon": 23.1531825, "tags": {"addr:city": "Bia\u0142ystok", "addr:housenumber": "9", "addr:street": "\u017belazna", "amenity": "pharmacy", "dispensing": "yes", "healthcare": "pharmacy", "name": "Mi\u0119towa", "opening_hours": "Mo-Fr 08:00-19:00; Sa 09:00-15:00", "ref:csioz": "1023894"}}, {"type": "node", "id": 3040948943, "lat": 53.1412055, "lon": 23.1373554, "tags": {"addr:city": "Bia\u0142ystok", "addr:flats": "1", "addr:housenumber": "22", "addr:postcode": "15-845", "addr:street": "Antoniukowska", "amenity": "pharmacy", "dispensing": "yes", "healthcare": "pharmacy", "name": "Apteka \u015aw. Brunona", "ref:csioz": "1175116"}}, {"type": "node", "id": 3041067387, "lat": 53.1448844, "lon": 23.1320745, "tags": {"addr:city": "Bia\u0142ystok", "addr:flats": "16 i 17", "addr:housenumber": "56", "addr:postcode": "15-845", "addr:street": "Antoniukowska", "amenity": "pharmacy", "dispensing": "yes", "healthcare": "pharmacy", "name": "Pod Lwem", "ref:csioz": "1020040"}}, {"type": "node", "id": 3042480468, "lat": 53.1144253, "lon": 23.1429473, "tags": {"addr:city": "Bia\u0142ystok", "addr:housenumber": "11A", "addr:postcode": "15-354", "addr:street": "Pogodna", "addr:unit": "2", "amenity": "pharmacy", "check_date:opening_hours": "2024-05-06", "dispensing": "yes", "email": "pogodna@pogodnaapteka.pl", "healthcare": "pharmacy", "level": "0", "name": "Pogodna", "opening_hours": "Mo-Fr 07:00-21:00, Sa 08:00-20:00, Su 10:00-18:00", "operator": "Pogodna Apteka Sakowicz-Truszkowska sp.j.", "payment:cash": "yes", "payment:credit_cards": "yes", "phone": "85 719 92 17", "ref:csioz": "1115368", "source": "uwaga #321415", "website": "https://pogodnaapteka.pl/", "wheelchair": "yes"}}, {"type": "node", "id": 3052042159, "lat": 53.2061652, "lon": 22.7688222, "tags": {"addr:city": "Tykocin", "addr:housenumber": "1", "addr:postcode": "16-080", "addr:street": "Choroszcza\u0144ska", "amenity": "pharmacy", "dispensing": "yes", "healthcare": "pharmacy", "name": "Na Starym Rynku", "opening_hours": "Mo-Fr 07:30-18:00; Sa 08:00-14:00", "phone": "+48857187077", "ref:csioz": "1016988"}}, {"type": "node", "id": 3064151243, "lat": 53.1330467, "lon": 23.1886416, "tags": {"addr:city": "Bia\u0142ystok", "addr:country": "PL", "addr:housenumber": "8C", "addr:postcode": "15-054", "addr:street": "Mieszka I", "alt_name": "Apteka \"Dbam o Zdrowie\"", "amenity": "pharmacy", "name": "Apteka DOZ", "opening_hours": "Mo-Fr 07:00-19:00;PH off", "ref:csioz": "1019966", "website": "https://www.doz.pl/"}}, {"type": "node", "id": 3093753944, "lat": 53.1276429, "lon": 23.1815989, "tags": {"addr:city": "Bia\u0142ystok", "addr:housenumber": "81", "addr:postcode": "15-201", "addr:street": "Warszawska", "amenity": "pharmacy", "dispensing": "yes", "healthcare": "pharmacy", "name": "Apteka Polonia", "ref:csioz": "1021485"}}, {"type": "node", "id": 3093753945, "lat": 53.1281995, "lon": 23.1817812, "tags": {"addr:city": "Bia\u0142ystok", "addr:housenumber": "79", "addr:postcode": "15-201", "addr:street": "Warszawska", "amenity": "pharmacy", "dispensing": "yes", "healthcare": "pharmacy", "name": "Cefarm", "ref:csioz": "1022460"}}, {"type": "node", "id": 3094227026, "lat": 53.1326791, "lon": 23.1691074, "tags": {"addr:city": "Bia\u0142ystok", "addr:housenumber": "4", "addr:street": "Pa\u0142acowa", "amenity": "pharmacy", "brand": "Dbam o Zdrowie", "brand:wikidata": "Q62563833", "dispensing": "yes", "healthcare": "pharmacy", "name": "Dbam o Zdrowie", "ref:csioz": "1019472", "short_name": "DOZ"}}, {"type": "node", "id": 3097726949, "lat": 53.1519737, "lon": 23.1262343, "tags": {"addr:city": "Bia\u0142ystok", "addr:housenumber": "31", "addr:postcode": "15-811", "addr:street": "Leszczynowa", "amenity": "pharmacy", "healthcare": "pharmacy", "name": "Na Leszczynowej", "operator": "Nowa Farmacja", "ref:csioz": "1017377"}}, {"type": "node", "id": 3097726951, "lat": 53.1524521, "lon": 23.124872, "tags": {"addr:city": "Bia\u0142ystok", "addr:housenumber": "17B", "addr:postcode": "15-814", "addr:street": "Genera\u0142a J\u00f3zefa Hallera", "amenity": "pharmacy", "healthcare": "pharmacy", "name": "Viola", "opening_hours": "Mo-Fr 08:00-20:00; Sa 08-00:16-00; Su 09:00-13:00", "ref:csioz": "1184839"}}, {"type": "node", "id": 3097748732, "lat": 53.1304992, "lon": 23.1038, "tags": {"addr:city": "Bia\u0142ystok", "addr:housenumber": "26", "addr:postcode": "15-662", "addr:street": "Stroma", "amenity": "pharmacy", "name": "Na Stromej", "operator": "Nowa Farmacja", "ref:csioz": "1017621"}}, {"type": "node", "id": 3098262128, "lat": 53.1449827, "lon": 23.1324829, "tags": {"addr:city": "Bia\u0142ystok", "addr:housenumber": "56", "addr:postcode": "15-845", "addr:street": "Antoniukowska", "amenity": "pharmacy", "dispensing": "yes", "healthcare": "pharmacy", "name": "Rodzinna", "ref:csioz": "1110834"}}, {"type": "node", "id": 3099156626, "lat": 53.1535164, "lon": 23.1212554, "tags": {"addr:city": "Bia\u0142ystok", "addr:housenumber": "59C", "addr:postcode": "15-794", "addr:street": "Gajowa", "amenity": "pharmacy", "brand": "Gemini", "brand:wikidata": "Q130243797", "healthcare": "pharmacy", "name": "Gemini", "opening_hours": "Mo-Fr 07:00-20:00; Sa 08:00-17:00", "ref:csioz": "1017443"}}, {"type": "node", "id": 3099614837, "lat": 53.1134826, "lon": 23.1428298, "tags": {"addr:city": "Bia\u0142ystok", "addr:flats": "1U", "addr:housenumber": "11D", "addr:postcode": "15-354", "addr:street": "Pogodna", "amenity": "pharmacy", "dispensing": "yes", "healthcare": "pharmacy", "name": "Malwa", "ref:csioz": "1116205"}}, {"type": "node", "id": 3099614838, "lat": 53.1135277, "lon": 23.143031, "tags": {"addr:city": "Bia\u0142ystok", "addr:housenumber": "11C", "addr:postcode": "15-345", "addr:street": "Pogodna", "amenity": "pharmacy", "brand": "Cef@Rm 36,6", "dispensing": "yes", "healthcare": "pharmacy", "name": "Cef@Rm 36,6", "ref:csioz": "1023996"}}, {"type": "node", "id": 3099614839, "lat": 53.1496244, "lon": 23.1154605, "tags": {"addr:city": "Bia\u0142ystok", "addr:country": "PL", "addr:housenumber": "2", "addr:postcode": "15-820", "addr:street": "Zag\u00f3rna", "amenity": "pharmacy", "brand": "Dbam o Zdrowie", "brand:wikidata": "Q62563833", "dispensing": "yes", "healthcare": "pharmacy", "name": "Dbam o Zdrowie", "opening_hours": "Mo-Fr 08:00-20:00; Sa 08:00-16:00", "ref:csioz": "1017729", "short_name": "DOZ"}}, {"type": "node", "id": 3109511030, "lat": 53.1331169, "lon": 23.1985675, "tags": {"addr:city": "Bia\u0142ystok", "addr:flats": "2U", "addr:housenumber": "4", "addr:postcode": "15-204", "addr:street": "Ksi\u0119dza Stanis\u0142awa Andrukiewicza", "amenity": "pharmacy", "healthcare": "pharmacy", "name": "Apteka GRAP", "ref:csioz": "1021306"}}, {"type": "node", "id": 3144100278, "lat": 53.1506697, "lon": 23.0845886, "tags": {"addr:city": "Bia\u0142ystok", "addr:housenumber": "50", "addr:postcode": "15-687", "addr:street": "Komisji Edukacji Narodowej", "amenity": "pharmacy", "dispensing": "no", "healthcare": "pharmacy", "name": "Apteka Centrum", "opening_hours": "Mo-Fr 08:00-20:00; Sa 08:30-16:30", "ref:csioz": "1022225"}}, {"type": "node", "id": 3144123213, "lat": 53.1500202, "lon": 23.0848187, "tags": {"addr:city": "Bia\u0142ystok", "addr:door": "4,5", "addr:flats": "lok. 4,5", "addr:housenumber": "5", "addr:postcode": "15-687", "addr:street": "Komisji Edukacji Narodowej", "amenity": "pharmacy", "dispensing": "yes", "drive_through": "no", "healthcare": "pharmacy", "level": "0", "name": "Apteka DOZ Dbam O Zdrowie", "opening_hours": "Mo-Fr 08:00-20:00; Sa 08:00-16:00", "phone": "+48 800110110", "ref:csioz": "1019763", "website": "https://www.doz.pl/apteki/a25838-DOZ_Apteka_Dbam_o_Zdrowie", "wheelchair": "yes"}}, {"type": "node", "id": 3154006271, "lat": 53.125624, "lon": 23.1715556, "tags": {"addr:city": "Bia\u0142ystok", "addr:housenumber": "15", "addr:postcode": "15-213", "addr:street": "Adama Mickiewicza", "amenity": "pharmacy", "healthcare": "pharmacy", "name": "Fikus", "opening_hours": "Mo-Su 08:00-20:00", "ref:csioz": "1023202"}}, {"type": "node", "id": 3154006272, "lat": 53.1253993, "lon": 23.1710656, "tags": {"addr:city": "Bia\u0142ystok", "addr:housenumber": "14", "addr:postcode": "15-222", "addr:street": "Adama Mickiewicza", "amenity": "pharmacy", "healthcare": "pharmacy", "name": "Apteka Nowa Farmacja", "opening_hours": "Mo-Fr 07:30-20:00; Sa 08:00-16:00, Su Off", "ref:csioz": "1019199"}}, {"type": "node", "id": 3271925746, "lat": 53.1303692, "lon": 23.183525, "tags": {"addr:city": "Bia\u0142ystok", "addr:housenumber": "10A", "addr:postcode": "15-057", "addr:street": "Boles\u0142awa Chrobrego", "amenity": "pharmacy", "healthcare": "pharmacy", "name": "Apteka Rodzinny Przejazd", "opening_hours": "Mo-Fr 07:00-20:00, Sa 08:00-16:00; PH off", "operator": "Apteki Rodzinne", "phone": "+48 85 733 32 66", "ref:csioz": "1181241", "website": "https://www.apteki-rodzinne.pl/"}}, {"type": "node", "id": 3451123258, "lat": 53.1453265, "lon": 23.1820639}, {"type": "node", "id": 3451123259, "lat": 53.1453301, "lon": 23.1820585}, {"type": "node", "id": 3451123265, "lat": 53.1453982, "lon": 23.1819549}, {"type": "node", "id": 3451123266, "lat": 53.1454009, "lon": 23.1822}, {"type": "node", "id": 3451123270, "lat": 53.1454726, "lon": 23.182091}, {"type": "node", "id": 3491626954, "lat": 53.1358359, "lon": 23.1503739, "tags": {"addr:city": "Bia\u0142ystok", "addr:country": "PL", "addr:housenumber": "8/1", "addr:postcode": "15-445", "addr:street": "Aleja J\u00f3zefa Pi\u0142sudskiego", "amenity": "pharmacy", "check_date": "2024-11-15", "contact:email": "aptekapodlwem.info@gmail.com", "contact:fax": "+48857421422", "contact:mobile": "+48734191213", "contact:phone": "+48856537856", "contact:website": "https://www.podlwem-apteka.pl/", "dispensing": "yes", "email": "aptekapodlwem.info@gmail.com", "fax": "+48857421422", "name": "Apteka Pod Lwem", "opening_hours": "Mo-Fr 07:00-20:00; Sa 08:00-16:00", "payment:coins": "yes", "payment:jcb": "yes", "payment:maestro": "yes", "payment:mastercard": "yes", "payment:notes": "yes", "payment:visa": "yes", "payment:visa_debit": "yes", "payment:visa_electron": "yes", "phone": "+48856537856", "ref:csioz": "1181264", "website": "https://www.podlwem-apteka.pl/", "wheelchair": "limited"}}, {"type": "node", "id": 3520837262, "lat": 53.1282815, "lon": 23.1593385, "tags": {"addr:city": "Bia\u0142ystok", "addr:country": "PL", "addr:housenumber": "7", "addr:postcode": "15-096", "addr:street": "Marii Sk\u0142odowskiej-Curie", "amenity": "pharmacy", "contact:email": "aptekabocian@wp.pl", "contact:phone": "+48856632754", "dispensing": "yes", "email": "aptekabocian@wp.pl", "healthcare": "pharmacy", "name": "Bocian", "opening_hours": "Mo-Fr 08:00-19:00; Sa 09:00-16:00; Su,PH off", "payment:american_express": "yes", "payment:cash": "yes", "payment:contactless": "yes", "payment:diners_club": "yes", "payment:discover_card": "yes", "payment:jcb": "yes", "payment:maestro": "yes", "payment:mastercard": "yes", "payment:visa": "yes", "payment:visa_debit": "yes", "payment:visa_electron": "yes", "phone": "+48856632754", "ref:csioz": "1181502", "wheelchair": "limited"}}, {"type": "node", "id": 3566544083, "lat": 53.1265606, "lon": 23.0782369, "tags": {"addr:city": "Bia\u0142ystok", "addr:housenumber": "34", "addr:postcode": "15-617", "addr:street": "Nowosielska", "amenity": "pharmacy", "healthcare": "pharmacy", "name": "Na Nowosielskiej", "ref:csioz": "1023266"}}, {"type": "node", "id": 3594214607, "lat": 53.1342597, "lon": 23.1741035, "tags": {"addr:city": "Bia\u0142ystok", "addr:housenumber": "5", "addr:postcode": "15-028", "addr:street": "S\u0142onimska", "amenity": "pharmacy", "ref:csioz": "1022447"}}, {"type": "node", "id": 3623573446, "lat": 53.1363146, "lon": 23.1650926, "tags": {"addr:city": "Bia\u0142ystok", "addr:housenumber": "49", "addr:postcode": "15-002", "addr:street": "Henryka Sienkiewicza", "amenity": "pharmacy", "dispensing": "yes", "healthcare": "pharmacy", "name": "Od Serca", "ref:csioz": "1022249"}}, {"type": "node", "id": 3623585014, "lat": 53.1370654, "lon": 23.1667474, "tags": {"addr:city": "Bia\u0142ystok", "addr:housenumber": "55A", "addr:postcode": "15-002", "addr:street": "Henryka Sienkiewicza", "amenity": "pharmacy", "name": "Nowa Farmacja", "ref:csioz": "1017741"}}, {"type": "node", "id": 3630633519, "lat": 52.9934966, "lon": 22.8775166, "tags": {"addr:city": "\u0141apy", "addr:housenumber": "7", "addr:postcode": "18-100", "addr:street": "Piaskowa", "amenity": "pharmacy", "dispensing": "yes", "name": "Nasze Zdrowie", "opening_hours": "Mo-Sa 08:00-18:00", "ref:csioz": "1176800"}}, {"type": "node", "id": 3752893923, "lat": 53.001571, "lon": 22.9128798, "tags": {"addr:city": "Uhowo", "addr:housenumber": "8A", "addr:postcode": "18-100", "addr:street": "Ko\u015bcielna", "amenity": "pharmacy", "name": "Punkt Apteczny Natura", "opening_hours": "8:30 - 16:30", "ref:csioz": "1174823"}}, {"type": "node", "id": 3780850290, "lat": 53.143763, "lon": 23.1060891, "tags": {"addr:city": "Bia\u0142ystok", "addr:housenumber": "54", "addr:postcode": "15-754", "addr:street": "Wysoki Stoczek", "amenity": "pharmacy", "dispensing": "yes", "healthcare": "pharmacy", "name": "Bellis", "ref:csioz": "1023527"}}, {"type": "node", "id": 3801914280, "lat": 53.136173, "lon": 23.1626468, "tags": {"addr:city": "Bia\u0142ystok", "addr:flats": "lok. 0.05", "addr:housenumber": "1", "addr:postcode": "15-101", "addr:street": "Jurowiecka", "amenity": "pharmacy", "healthcare": "pharmacy", "name": "Cefarm", "operator": "Apteka Cef@rm 36,6", "ref:csioz": "1197434"}}, {"type": "node", "id": 3825123559, "lat": 53.1476812, "lon": 23.1093596, "tags": {"addr:city": "Bia\u0142ystok", "addr:housenumber": "27", "addr:postcode": "15-756", "addr:street": "Swobodna", "amenity": "pharmacy", "name": "Apteka Grzegorz Kucharewicz", "opening_hours": "Mo-Fr 08:00-20:00, Sa 09:00-18:00", "ref:csioz": "1019827"}}, {"type": "node", "id": 3885146591, "lat": 53.1305379, "lon": 23.0842594, "tags": {"addr:city": "Bia\u0142ystok", "addr:housenumber": "85", "addr:postcode": "15-649", "addr:street": "\u015bw. Andrzeja Boboli", "amenity": "pharmacy", "name": "Apteka Bliska", "ref:csioz": "1192083"}}, {"type": "node", "id": 3925616564, "lat": 53.1217988, "lon": 23.1397839, "tags": {"addr:city": "Bia\u0142ystok", "addr:housenumber": "92", "addr:postcode": "15-370", "addr:street": "Genera\u0142a J\u00f3zefa Bema", "amenity": "pharmacy", "name": "Apteka Dbam O Zdrowie", "opening_hours": "Mo-Fr 07:00-19:00; Sa 08:00-15:00", "ref:csioz": "1019641"}}, {"type": "node", "id": 4144576911, "lat": 52.9864883, "lon": 22.8876215, "tags": {"addr:city": "\u0141apy", "addr:housenumber": "28", "addr:postcode": "18-100", "addr:street": "Cmentarna", "amenity": "pharmacy", "name": "Rodzinna", "ref:csioz": "1201648"}}, {"type": "node", "id": 4168947580, "lat": 53.1409164, "lon": 23.173871, "tags": {"addr:city": "Bia\u0142ystok", "addr:housenumber": "112", "addr:street": "Henryka Sienkiewicza", "amenity": "pharmacy", "healthcare": "pharmacy", "name": "Bliska", "ref:csioz": "1207005", "source:disused": "Rejestr aptek MZ"}}, {"type": "node", "id": 4303204716, "lat": 52.9906079, "lon": 22.876056, "tags": {"addr:city": "\u0141apy", "addr:housenumber": "53A/6", "addr:postcode": "18-100", "addr:street": "G\u0142\u00f3wna", "amenity": "pharmacy", "dispensing": "yes", "healthcare": "pharmacy", "name": "Dbam o Zdrowie (Doz)", "opening_hours": "Mo-Fr 07:30-19:00; Sa 08:00-16:00", "phone": "85 674 50 52", "ref:csioz": "1205821", "website": "https://www.doz.pl/apteki/a150245-DOZ_Apteka_Dbam_o_Zdrowie"}}, {"type": "node", "id": 4634421293, "lat": 53.121841, "lon": 23.1739785, "tags": {"addr:city": "Bia\u0142ystok", "addr:housenumber": "39", "addr:postcode": "15-213", "addr:street": "Adama Mickiewicza", "amenity": "pharmacy", "dispensing": "yes", "drive_through": "no", "healthcare": "pharmacy", "name": "Aqua Vitae", "ref:csioz": "1019259"}}, {"type": "node", "id": 4634450589, "lat": 53.124144, "lon": 23.1725539, "tags": {"addr:city": "Bia\u0142ystok", "addr:housenumber": "27", "addr:street": "Adama Mickiewicza", "amenity": "pharmacy", "healthcare": "pharmacy", "name": "Salus", "ref:csioz": "1017707", "source:disused": "Rejestr aptek MZ"}}, {"type": "node", "id": 4635306832, "lat": 52.9916568, "lon": 22.702432, "tags": {"addr:city": "Soko\u0142y", "addr:housenumber": "8", "addr:postcode": "18-218", "addr:street": "gen. W\u0142adys\u0142awa Sikorskiego", "amenity": "pharmacy", "dispensing": "yes", "name": "Bliska", "ref:csioz": "1111126"}}, {"type": "node", "id": 4641687999, "lat": 53.1493571, "lon": 22.9869773, "tags": {"addr:city": "Choroszcz", "addr:housenumber": "28", "addr:postcode": "16-070", "addr:street": "Henryka Sienkiewicza", "amenity": "pharmacy", "healthcare": "pharmacy", "name": "Zdrowie", "opening_hours": "Mo-Sa 08:00-19:00", "ref:csioz": "1199810"}}, {"type": "node", "id": 4649093689, "lat": 53.143895, "lon": 23.177614, "tags": {"addr:city": "Bia\u0142ystok", "addr:housenumber": "1", "addr:postcode": "15-117", "addr:street": "Wasilkowska", "amenity": "pharmacy", "brand": "Dbam o Zdrowie", "brand:wikidata": "Q62563833", "healthcare": "pharmacy", "name": "Dbam o Zdrowie", "name:pl": "DOZ", "opening_hours": "Mo-Fr 08:00-20:00; Sa-Su 08:00-15:00", "phone": "+48856752264", "ref:csioz": "1019438", "short_name": "DOZ", "website": "https://www.doz.pl/"}}, {"type": "node", "id": 4666852393, "lat": 53.124096, "lon": 23.1719116, "tags": {"addr:city": "Bia\u0142ystok", "addr:housenumber": "38", "addr:postcode": "15-213", "addr:street": "Adama Mickiewicza", "amenity": "pharmacy", "drive_through": "no", "name": "Apteka Cefarm 36,6", "ref:csioz": "1022426"}}, {"type": "node", "id": 4781465021, "lat": 53.1311849, "lon": 23.1970341, "tags": {"addr:city": "Bia\u0142ystok", "addr:housenumber": "4/U5", "addr:postcode": "15-204", "addr:street": "Sybirak\u00f3w", "amenity": "pharmacy", "drive_through": "no", "name": "Apteka Anika", "opening_hours": "Mo-Sa 08:00-20:00; Su 08:00-20:00", "operator": "Apteka Anika", "ref:csioz": "1217192"}}, {"type": "node", "id": 5253430422, "lat": 53.1573184, "lon": 23.0890419, "tags": {"addr:city": "Bia\u0142ystok", "addr:housenumber": "34", "addr:postcode": "15-691", "addr:street": "Genera\u0142a Franciszka Kleeberga", "amenity": "pharmacy", "name": "CEF@RM 36,6", "ref:csioz": "1187015"}}, {"type": "node", "id": 5262097303, "lat": 53.130107, "lon": 23.0844181, "tags": {"addr:city": "Bia\u0142ystok", "addr:housenumber": "67", "addr:postcode": "15-649", "addr:street": "\u015bw. Andrzeja Boboli", "amenity": "pharmacy", "dispensing": "yes", "name": "Pod Jod\u0142\u0105", "opening_hours": "Mo-Fr 08:00-19:00; Sa 09:00-17:00", "phone": "85 662 43 71", "ref:csioz": "1024421", "wheelchair": "yes"}}, {"type": "node", "id": 5747648865, "lat": 53.1225417, "lon": 23.0909143, "tags": {"addr:city": "Bia\u0142ystok", "addr:door": "1", "addr:housenumber": "9", "addr:postcode": "15-644", "addr:street": "Wroc\u0142awska", "amenity": "pharmacy", "dispensing": "yes", "drive_through": "no", "email": "wroclawska@pogodnaapteka.pl", "healthcare": "pharmacy", "level": "0", "name": "Pogodna Apteka", "operator": "Pogodna Apteka Sakowicz-Truszkowska Sp. j.", "payment:cash": "yes", "payment:credit_cards": "yes", "phone": "85 722 26 64", "ref:csioz": "1199829", "website": "https://pogodnaapteka.pl/", "wheelchair": "yes"}}, {"type": "node", "id": 5747661835, "lat": 53.1404943, "lon": 23.1012459, "tags": {"addr:city": "Bia\u0142ystok", "addr:housenumber": "59", "addr:postcode": "15-753", "addr:street": "Aleja Jana Paw\u0142a II", "addr:unit": "U9", "amenity": "pharmacy", "dispensing": "yes", "healthcare": "pharmacy", "name": "Pogodna", "operator": "Pogodna Apteka Sakowicz-Truszkowska Sp.j.", "payment:cash": "yes", "payment:credit_cards": "yes", "ref:csioz": "1195906"}}, {"type": "node", "id": 5760925512, "lat": 53.1317579, "lon": 23.1570495, "tags": {"addr:city": "Bia\u0142ystok", "addr:housenumber": "2", "addr:postcode": "15-422", "addr:street": "Suraska", "amenity": "pharmacy", "check_date": "2025-08-30", "contact:phone": "+48857420453", "contact:website": "https://www.aptekicefarm.pl/", "dispensing": "yes", "healthcare": "pharmacy", "level": "0", "name": "Cef@rm 36,6", "opening_hours": "24/7", "operator": "Cefarm Warszawa S.A.", "payment:american_express": "yes", "payment:cash": "yes", "payment:contactless": "yes", "payment:diners_club": "yes", "payment:discover_card": "yes", "payment:jcb": "yes", "payment:maestro": "yes", "payment:mastercard": "yes", "payment:visa": "yes", "payment:visa_debit": "yes", "payment:visa_electron": "yes", "phone": "+48857420453", "ref:csioz": "1022367", "website": "https://www.aptekicefarm.pl/", "wheelchair": "yes"}}, {"type": "node", "id": 5760925793, "lat": 53.1309047, "lon": 23.1393614, "tags": {"addr:city": "Bia\u0142ystok", "addr:country": "PL", "addr:housenumber": "2", "addr:postcode": "15-888", "addr:street": "Kardyna\u0142a Stefana Wyszy\u0144skiego", "amenity": "pharmacy", "healthcare": "pharmacy", "name": "Galena", "ref:csioz": "1024236", "source:disused": "Rejestr aptek MZ"}}, {"type": "node", "id": 5765973771, "lat": 53.1250939, "lon": 23.1528807, "tags": {"addr:city": "Bia\u0142ystok", "addr:housenumber": "9", "addr:postcode": "15-297", "addr:street": "\u017belazna", "addr:unit": "14", "amenity": "pharmacy", "fixme": "Wed\u0142ug rejestru nieczynna tymczasowo. Do sprawdzenia czy dzia\u0142a.", "healthcare": "pharmacy", "name": "Viola", "opening_hours": "Mo-Fr 07:30-20:00; Sa 08:00-18:00; Su 09:00-15:00", "ref:csioz": "1023818"}}, {"type": "node", "id": 5774021867, "lat": 53.1393289, "lon": 23.1750764, "tags": {"addr:city": "Bia\u0142ystok", "addr:housenumber": "13", "addr:postcode": "15-013", "addr:street": "Jana III Sobieskiego", "addr:unit": "7", "amenity": "pharmacy", "brand": "Dbam o Zdrowie", "brand:wikidata": "Q62563833", "dispensing": "yes", "healthcare": "pharmacy", "name": "Dbam o Zdrowie", "opening_hours": "Mo-Fr 08:00-20:00; Sa 08:00-16:00", "ref:csioz": "1175020", "short_name": "DOZ"}}, {"type": "node", "id": 6079838439, "lat": 53.1255165, "lon": 23.1502305, "tags": {"addr:city": "Bia\u0142ystok", "addr:flats": "8a", "addr:housenumber": "7", "addr:postcode": "15-375", "addr:street": "Prezydenta Ryszarda Kaczorowskiego", "amenity": "pharmacy", "check_date:opening_hours": "2024-07-20", "contact:phone": "+48857440440", "contact:website": "https://www.apteki-rodzinne.pl/", "dispensing": "yes", "healthcare": "pharmacy", "name": "Apteka Rodzinna", "opening_hours": "Mo-Fr 07:00-21:00; Sa 08:00-16:00; Su,PH off", "operator": "Grofarm", "payment:american_express": "yes", "payment:cash": "yes", "payment:contactless": "yes", "payment:diners_club": "yes", "payment:discover_card": "yes", "payment:jcb": "yes", "payment:maestro": "yes", "payment:mastercard": "yes", "payment:visa": "yes", "payment:visa_debit": "yes", "payment:visa_electron": "yes", "phone": "+48857440440", "ref:csioz": "1209692", "website": "https://www.apteki-rodzinne.pl/", "wheelchair": "limited"}}, {"type": "node", "id": 6321435082, "lat": 53.1362692, "lon": 23.1172541, "tags": {"addr:city": "Bia\u0142ystok", "addr:housenumber": "16", "addr:postcode": "15-727", "addr:street": "Hetma\u0144ska", "amenity": "pharmacy", "dispensing": "yes", "drive_through": "no", "healthcare": "pharmacy", "level": "0", "opening_hours": "Mo-Sa 09:00-21:00; Su 9:30-19:30", "operator": "Medicus Tur i Wsp\u00f3lnicy Sp.j.", "payment:american_express": "yes", "payment:cash": "yes", "payment:credit_cards": "yes", "payment:discover_card": "yes", "payment:mastercard": "yes", "payment:visa": "yes", "phone": "+48 85 876 20 33", "ref:csioz": "1020725", "start_date": "12-2008", "wheelchair": "yes"}}, {"type": "node", "id": 6355167887, "lat": 53.2057963, "lon": 22.7701096, "tags": {"addr:city": "Tykocin", "addr:housenumber": "5/1", "addr:postcode": "16-080", "addr:street": "Choroszcza\u0144ska", "amenity": "pharmacy", "dispensing": "yes", "healthcare": "pharmacy", "name": "Melissa", "opening_hours": "Mo-Fr 07:30-18:00; Sa 08:00-13:00", "ref:csioz": "1219005"}}, {"type": "node", "id": 7101734579, "lat": 53.1611278, "lon": 23.0970871, "tags": {"addr:city": "Bia\u0142ystok", "addr:housenumber": "84", "addr:postcode": "15-680", "addr:street": "Produkcyjna", "amenity": "pharmacy", "dispensing": "yes", "healthcare": "pharmacy", "ref:csioz": "1024110"}}, {"type": "node", "id": 7650806934, "lat": 53.1342335, "lon": 23.1546481, "tags": {"addr:city": "Bia\u0142ystok", "addr:country": "PL", "addr:housenumber": "6", "addr:postcode": "15-453", "addr:street": "Nowy \u015awiat", "amenity": "pharmacy", "check_date:opening_hours": "2021-07-24", "contact:phone": "+48857460602", "dispensing": "yes", "healthcare": "pharmacy", "level": "0", "name": "Nowy \u015awiat", "opening_hours": "Mo-Fr 08:00-19:00; Sa 09:00-14:00", "payment:american_express": "yes", "payment:coins": "yes", "payment:contactless": "yes", "payment:diners_club": "yes", "payment:discover_card": "yes", "payment:jcb": "yes", "payment:maestro": "yes", "payment:mastercard": "yes", "payment:notes": "yes", "payment:postfinance_card": "no", "payment:visa": "yes", "payment:visa_debit": "yes", "payment:visa_electron": "yes", "phone": "+48857460602", "ref:csioz": "1023373", "wheelchair": "yes"}}, {"type": "node", "id": 8765668898, "lat": 53.1369843, "lon": 23.1518001, "tags": {"addr:city": "Bia\u0142ystok", "addr:housenumber": "3", "addr:postcode": "15-450", "addr:street": "Bohater\u00f3w Getta", "amenity": "pharmacy", "contact:phone": "+48856523557", "dispensing": "yes", "healthcare": "pharmacy", "name": "Lobelia", "opening_hours": "Mo-Fr 07:30-19:00, Sa 08:00-15:00", "payment:american_express": "yes", "payment:coins": "yes", "payment:contactless": "yes", "payment:diners_club": "yes", "payment:discover_card": "yes", "payment:jcb": "yes", "payment:maestro": "yes", "payment:mastercard": "yes", "payment:notes": "yes", "payment:visa": "yes", "payment:visa_debit": "yes", "payment:visa_electron": "yes", "phone": "+48856523557", "ref:csioz": "1024052", "wheelchair": "limited"}}, {"type": "node", "id": 8936029981, "lat": 53.1082976, "lon": 23.1245582, "tags": {"addr:city": "Bia\u0142ystok", "addr:housenumber": "3", "addr:postcode": "15-349", "addr:street": "Stanis\u0142awa Dubois", "amenity": "pharmacy", "brand": "Gemini", "brand:wikidata": "Q130243797", "dispensing": "yes", "drive_through": "no", "healthcare": "pharmacy", "name": "Gemini", "opening_hours": "Mo-Fr 08:00-20:00; Sa 08:00-17:00", "ref:csioz": "1024071"}}, {"type": "node", "id": 8936035733, "lat": 53.1084386, "lon": 23.1244268, "tags": {"addr:city": "Bia\u0142ystok", "addr:flats": "lok. 4;7", "addr:housenumber": "3", "addr:postcode": "15-349", "addr:street": "Stanis\u0142awa Dubois", "amenity": "pharmacy", "brand": "Dbam o Zdrowie", "brand:wikidata": "Q62563833", "dispensing": "yes", "healthcare": "pharmacy", "name": "Dbam o Zdrowie", "ref:csioz": "1225226", "short_name": "DOZ"}}, {"type": "node", "id": 9178190029, "lat": 53.1347866, "lon": 23.1490255, "tags": {"addr:city": "Bia\u0142ystok", "addr:flats": "4", "addr:housenumber": "2A", "addr:postcode": "15-430", "addr:street": "Przejazd", "amenity": "pharmacy", "contact:phone": "+48857440400", "contact:website": "https://www.apteki-rodzinne.pl/", "dispensing": "yes", "name": "Apteka Rodzinna", "opening_hours": "Mo-Fr 07:00-20:00; Sa 08:00-16:00; Su,PH off", "operator": "Grofarm", "payment:american_express": "yes", "payment:cash": "yes", "payment:contactless": "yes", "payment:diners_club": "yes", "payment:discover_card": "yes", "payment:jcb": "yes", "payment:maestro": "yes", "payment:mastercard": "yes", "payment:visa": "yes", "payment:visa_debit": "yes", "payment:visa_electron": "yes", "phone": "+48857440400", "ref:csioz": "1020782", "website": "https://www.apteki-rodzinne.pl/", "wheelchair": "limited"}}, {"type": "node", "id": 9310779028, "lat": 53.1219481, "lon": 23.1530639, "tags": {"addr:city": "Bia\u0142ystok", "addr:housenumber": "18", "addr:postcode": "15-306", "addr:street": "Weso\u0142a", "amenity": "pharmacy", "contact:phone": "+4885420384", "contact:website": "https://www.aptekicefarm.pl/", "dispensing": "yes", "healthcare": "pharmacy", "name": "Cef@rm 36,6", "opening_hours": "Mo-Fr 07:30-19:00; Sa 07:00-15:00; Su,PH off", "operator": "CEFARM SA", "payment:american_express": "yes", "payment:cash": "yes", "payment:contactless": "yes", "payment:diners_club": "yes", "payment:discover_card": "yes", "payment:jcb": "yes", "payment:maestro": "yes", "payment:mastercard": "yes", "payment:visa": "yes", "payment:visa_debit": "yes", "payment:visa_electron": "yes", "phone": "+4885420384", "ref:csioz": "1022346", "website": "https://www.aptekicefarm.pl/", "wheelchair": "yes"}}, {"type": "node", "id": 9318681103, "lat": 53.1404733, "lon": 23.1761026, "tags": {"addr:city": "Bia\u0142ystok", "addr:flats": "U1", "addr:housenumber": "3", "addr:postcode": "15-017", "addr:street": "\u0141\u0105kowa", "amenity": "pharmacy", "name": "Pod Lwem", "operator": "Apteka Pod Lwem", "ref:csioz": "1230167"}}, {"type": "node", "id": 9373918223, "lat": 53.1356899, "lon": 23.1565099, "tags": {"addr:city": "Bia\u0142ystok", "addr:flats": "1", "addr:housenumber": "17", "addr:postcode": "15-453", "addr:street": "Nowy \u015awiat", "amenity": "pharmacy", "contact:email": "bialystok-nowy_swiat@apteka-sloneczna.com.pl", "contact:phone": "+48856759165", "dispensing": "yes", "email": "bialystok-nowy_swiat@apteka-sloneczna.com.pl", "healthcare": "pharmacy", "level": "0", "name": "Apteka S\u0142oneczna", "opening_hours": "Mo-Fr 07:00-21:00; Sa 08:00-15:00", "operator": "Apteka Sp. z o.o. Apteka S\u0142oneczna", "payment:cash": "yes", "payment:contactless": "yes", "payment:credit_cards": "yes", "payment:debit_cards": "yes", "phone": "+48856759165", "ref:csioz": "1204802", "wheelchair": "yes"}}, {"type": "node", "id": 9405228693, "lat": 53.1352347, "lon": 23.159854, "tags": {"addr:city": "Bia\u0142ystok", "addr:housenumber": "12", "addr:postcode": "15-440", "addr:street": "Icchoka Malmeda", "amenity": "pharmacy", "check_date:opening_hours": "2025-08-01", "contact:phone": "+48857327529", "contact:website": "https://www.aptekicefarm.pl/", "dispensing": "yes", "healthcare": "pharmacy", "level": "0", "name": "Cefarm", "opening_hours": "Mo-Fr 07:30-18:30; Sa,Su,PH off", "operator": "Cefarm Bia\u0142ystok S.A.", "payment:american_express": "yes", "payment:cash": "yes", "payment:contactless": "yes", "payment:diners_club": "yes", "payment:discover_card": "yes", "payment:jcb": "yes", "payment:maestro": "yes", "payment:mastercard": "yes", "payment:visa": "yes", "payment:visa_debit": "yes", "payment:visa_electron": "yes", "phone": "+48857327529", "ref:csioz": "1022380", "website": "https://www.aptekicefarm.pl/", "wheelchair": "limited"}}, {"type": "node", "id": 9440409764, "lat": 53.1056306, "lon": 23.1419465, "tags": {"addr:city": "Bia\u0142ystok", "addr:housenumber": "1A", "addr:postcode": "15-325", "addr:street": "Gra\u017cyny", "amenity": "pharmacy", "healthcare": "pharmacy", "name": "Oliwkowa", "ref:csioz": "1228097"}}, {"type": "node", "id": 9442267185, "lat": 53.1264449, "lon": 23.1601793, "tags": {"addr:city": "Bia\u0142ystok", "addr:housenumber": "4", "addr:postcode": "15-270", "addr:street": "Wojskowa", "amenity": "pharmacy", "contact:phone": "+48856632874", "contact:website": "https://www.geminipolska.com.pl/", "dispensing": "yes", "name": "Apteka Gemini", "opening_hours": "Mo-Fr 08:00-21:00; Sa 09:00-18:00; Su 08:00-15:00; PH off", "operator": "Gemini Polska", "payment:american_express": "yes", "payment:cash": "yes", "payment:contactless": "yes", "payment:diners_club": "yes", "payment:discover_card": "yes", "payment:jcb": "yes", "payment:maestro": "yes", "payment:mastercard": "yes", "payment:visa": "yes", "payment:visa_debit": "yes", "payment:visa_electron": "yes", "phone": "+48856632874", "ref:csioz": "1201115", "website": "https://www.geminipolska.com.pl/", "wheelchair": "limited"}}, {"type": "node", "id": 9554269628, "lat": 53.090617, "lon": 22.6730196, "tags": {"addr:city": "Kobylin-Borzymy", "addr:housenumber": "4A", "addr:postcode": "18-204", "addr:street": "Lipowa", "amenity": "pharmacy", "name": "Dbam o Zdrowie (Doz)", "ref:csioz": "1231244"}}, {"type": "node", "id": 9558278204, "lat": 53.1320724, "lon": 23.105764, "tags": {"addr:city": "Bia\u0142ystok", "addr:housenumber": "13", "addr:postcode": "15-660", "addr:street": "Wincentego Witosa", "amenity": "pharmacy", "name": "Apteka Na Witosa", "ref:csioz": "1021500"}}, {"type": "node", "id": 9558278205, "lat": 53.1360033, "lon": 23.1694464, "tags": {"addr:city": "Bia\u0142ystok", "addr:housenumber": "19", "addr:postcode": "15-027", "addr:street": "Ogrodowa", "amenity": "pharmacy", "healthcare": "pharmacy", "name": "Apteka Pod Lwem", "opening_hours": "Mo-Sa 07:00-20:00; Su 08:00-20:00", "phone": "+48 85 740 44 28", "ref:csioz": "1021742", "website": "https://podlwem-apteka.pl/"}}, {"type": "node", "id": 9558278206, "lat": 53.1360996, "lon": 23.1298889, "tags": {"addr:city": "Bia\u0142ystok", "addr:housenumber": "10A", "addr:postcode": "15-703", "addr:street": "Zwyci\u0119stwa", "amenity": "pharmacy", "healthcare": "pharmacy", "name": "Apteka Nowa Farmacja", "opening_hours": "Mo-Fr 08:00-18:00; Sa 08:00-14:00", "ref:csioz": "1216182"}}, {"type": "node", "id": 9558278207, "lat": 53.1047465, "lon": 23.1404494, "tags": {"addr:city": "Bia\u0142ystok", "addr:flats": "1", "addr:housenumber": "52", "addr:postcode": "15-325", "addr:street": "Kawaleryjska", "amenity": "pharmacy", "dispensing": "yes", "healthcare": "pharmacy", "name": "Na Kawaleryjskiej", "ref:csioz": "1217486"}}, {"type": "node", "id": 9558278208, "lat": 53.1400813, "lon": 23.1718722, "tags": {"addr:city": "Bia\u0142ystok", "addr:flats": "1", "addr:housenumber": "79A", "addr:postcode": "15-003", "addr:street": "Henryka Sienkiewicza", "amenity": "pharmacy", "name": "Sanitas", "ref:csioz": "1024299"}}, {"type": "node", "id": 9558278211, "lat": 53.1455258, "lon": 23.1515078, "tags": {"addr:city": "Bia\u0142ystok", "addr:housenumber": "14", "addr:postcode": "15-863", "addr:street": "Radzymi\u0144ska", "amenity": "pharmacy", "healthcare": "pharmacy", "name": "Apteka Na Zdrowie", "ref:csioz": "1226284"}}, {"type": "node", "id": 9558278212, "lat": 53.1065864, "lon": 23.1165463, "tags": {"addr:city": "Bia\u0142ystok", "addr:housenumber": "10", "addr:postcode": "15-348", "addr:street": "Aleja Ignacego Jana Paderewskiego", "amenity": "pharmacy", "brand": "Dbam o Zdrowie", "brand:wikidata": "Q62563833", "healthcare": "pharmacy", "name": "Dbam o Zdrowie", "ref:csioz": "1019607", "short_name": "DOZ"}}, {"type": "node", "id": 9560436732, "lat": 53.1262115, "lon": 23.2432262, "tags": {"addr:city": "Za\u015bcianki", "addr:housenumber": "3", "addr:postcode": "15-521", "addr:street": "Egipska", "amenity": "pharmacy", "healthcare": "pharmacy", "name": "Apteka (J. Sacharczuk)", "ref:csioz": "1231225"}}, {"type": "node", "id": 9560436734, "lat": 53.1982752, "lon": 23.0203808, "tags": {"addr:city": "Dobrzyniewo Du\u017ce", "addr:housenumber": "23", "addr:postcode": "16-002", "addr:street": "Bia\u0142ostocka", "amenity": "pharmacy", "dispensing": "yes", "drive_through": "no", "healthcare": "pharmacy", "name": "Zdrowie 2", "ref:csioz": "1230645"}}, {"type": "node", "id": 9560436737, "lat": 53.1821355, "lon": 23.1867357, "tags": {"addr:city": "Wasilk\u00f3w", "addr:flats": "\"U3,U4,U5\"", "addr:housenumber": "104", "addr:postcode": "16-010", "addr:street": "Bia\u0142ostocka", "amenity": "pharmacy", "name": "Dolina Cis\u00f3w", "ref:csioz": "1224216"}}, {"type": "node", "id": 9560436739, "lat": 52.9214975, "lon": 22.8328457, "tags": {"addr:housenumber": "11", "addr:place": "Po\u015bwi\u0119tne", "addr:postcode": "18-112", "amenity": "pharmacy", "name": "Apteka (M. Lipi\u0144ska)", "ref:csioz": "1192363"}}, {"type": "node", "id": 9560436740, "lat": 53.0693262, "lon": 23.0814438, "tags": {"addr:city": "Niewodnica Korycka", "addr:housenumber": "3", "addr:postcode": "18-106", "addr:street": "Tadeusza Ko\u015bciuszki", "amenity": "pharmacy", "healthcare": "pharmacy", "name": "Punkt Apteczny Zdrowie", "ref:csioz": "1180463"}}, {"type": "node", "id": 9560436741, "lat": 52.992343, "lon": 22.881606, "tags": {"addr:city": "\u0141apy", "addr:housenumber": "2A", "addr:postcode": "18-100", "addr:street": "Miko\u0142aja Kopernika", "amenity": "pharmacy", "name": "Cefarm", "ref:csioz": "1022761", "wheelchair": "no"}}, {"type": "node", "id": 9560436742, "lat": 53.200687, "lon": 23.2078899, "tags": {"addr:city": "Wasilk\u00f3w", "addr:housenumber": "1A", "addr:postcode": "16-010", "addr:street": "Grodzie\u0144ska", "amenity": "pharmacy", "name": "Cefarm", "ref:csioz": "1022608"}}, {"type": "node", "id": 9560436744, "lat": 53.0156749, "lon": 23.3390382, "tags": {"addr:city": "Zab\u0142ud\u00f3w", "addr:housenumber": "3", "addr:postcode": "16-060", "addr:street": "Grzegorza Chodkiewicza", "amenity": "pharmacy", "name": "Apotheca", "ref:csioz": "1019749"}}, {"type": "node", "id": 9560436745, "lat": 53.0968384, "lon": 23.1242457, "tags": {"addr:city": "Kleosin", "addr:housenumber": "18", "addr:postcode": "16-001", "addr:street": "Zambrowska", "amenity": "pharmacy", "healthcare": "pharmacy", "name": "Bliska", "ref:csioz": "1215931"}}, {"type": "node", "id": 9560436746, "lat": 53.0976349, "lon": 23.1259581, "tags": {"addr:city": "Kleosin", "addr:housenumber": "14", "addr:postcode": "16-001", "addr:street": "Zambrowska", "amenity": "pharmacy", "healthcare": "pharmacy", "name": "Dbam o Zdrowie (Doz)", "ref:csioz": "1213188"}}, {"type": "node", "id": 9560436747, "lat": 53.202716, "lon": 23.2083144, "tags": {"addr:city": "Wasilk\u00f3w", "addr:housenumber": "33", "addr:postcode": "16-010", "addr:street": "Grodzie\u0144ska", "amenity": "pharmacy", "name": "Super Apteka", "ref:csioz": "1024522"}}, {"type": "node", "id": 9560436749, "lat": 53.0160751, "lon": 23.1383361, "tags": {"addr:city": "Juchnowiec G\u00f3rny", "addr:housenumber": "2", "addr:postcode": "16-061", "addr:street": "Bia\u0142ostocka", "amenity": "pharmacy", "name": "Apteka (A. Geresz)", "ref:csioz": "1021568"}}, {"type": "node", "id": 9569462149, "lat": 53.1514176, "lon": 23.1551, "tags": {"addr:city": "Bia\u0142ystok", "addr:flats": "4a i 5a", "addr:housenumber": "10", "addr:postcode": "15-111", "addr:street": "Aleja Tysi\u0105clecia Pa\u0144stwa Polskiego", "amenity": "pharmacy", "healthcare": "pharmacy", "name": "Apteka Bliska", "ref:csioz": "1207018"}}, {"type": "node", "id": 9569462150, "lat": 53.1324505, "lon": 23.1452751, "tags": {"addr:city": "Bia\u0142ystok", "addr:flats": "5/1", "addr:housenumber": "7", "addr:postcode": "15-879", "addr:street": "Sto\u0142eczna", "amenity": "pharmacy", "name": "Apteka Aqua Vitae Na Sto\u0142ecznej", "ref:csioz": "1113441"}}, {"type": "node", "id": 9569487755, "lat": 53.1329453, "lon": 23.1022802, "tags": {"addr:city": "Bia\u0142ystok", "addr:housenumber": "34", "addr:postcode": "15-660", "addr:street": "Wincentego Witosa", "amenity": "pharmacy", "dispensing": "yes", "drive_through": "no", "healthcare": "pharmacy", "name": "Apteka Cefarm 36,6", "opening_hours": "Mo-Fr 07:30-19:30; Sa 07:30-15:30", "operator": "\"SK-Farm II\" sp. z o.o.", "phone": "+48 85 6546533", "ref:csioz": "1224523", "website": "https://www.aptekicefarm.pl/"}}, {"type": "node", "id": 9569576740, "lat": 53.1531886, "lon": 23.087739, "tags": {"addr:city": "Bia\u0142ystok", "addr:flats": "lok. 88", "addr:housenumber": "67", "addr:postcode": "15-774", "addr:street": "Hugo Ko\u0142\u0142\u0105taja", "amenity": "pharmacy", "name": "Apteka Provita", "ref:csioz": "1019803"}}, {"type": "node", "id": 9569576741, "lat": 53.1519307, "lon": 23.0921942, "tags": {"addr:city": "Bia\u0142ystok", "addr:housenumber": "36", "addr:postcode": "15-687", "addr:street": "Komisji Edukacji Narodowej", "amenity": "pharmacy", "healthcare": "pharmacy", "name": "Apteka Centrum", "ref:csioz": "1214287"}}, {"type": "node", "id": 9569576742, "lat": 53.1301605, "lon": 23.0902818, "tags": {"addr:city": "Bia\u0142ystok", "addr:housenumber": "6", "addr:postcode": "15-666", "addr:street": "Szarych Szereg\u00f3w", "amenity": "pharmacy", "brand": "Cef@Rm 36,6", "dispensing": "yes", "healthcare": "pharmacy", "name": "Cef@Rm 36,6", "ref:csioz": "1021420"}}, {"type": "node", "id": 9569576743, "lat": 53.1344575, "lon": 23.1791964, "tags": {"addr:city": "Bia\u0142ystok", "addr:housenumber": "16", "addr:postcode": "15-044", "addr:street": "Piasta", "amenity": "pharmacy", "healthcare": "pharmacy", "name": "Apteka Socjalna Piasta 16", "ref:csioz": "1220785"}}, {"type": "node", "id": 9569576745, "lat": 53.1204906, "lon": 23.0998331, "tags": {"addr:city": "Bia\u0142ystok", "addr:housenumber": "2", "addr:postcode": "15-674", "addr:street": "Konwaliowa", "amenity": "pharmacy", "brand": "Cef@Rm 36,6", "dispensing": "yes", "healthcare": "pharmacy", "name": "Cef@Rm 36,6", "ref:csioz": "1193867"}}, {"type": "node", "id": 9575288422, "lat": 53.1213437, "lon": 23.0950212, "tags": {"addr:city": "Bia\u0142ystok", "addr:housenumber": "7", "addr:postcode": "15-644", "addr:street": "Storczykowa", "amenity": "pharmacy", "name": "Apteka Na Zielonych Wzg\u00f3rzach", "ref:csioz": "1020148"}}, {"type": "node", "id": 9575288424, "lat": 53.1376255, "lon": 23.1647667, "tags": {"addr:city": "Bia\u0142ystok", "addr:flats": "2A", "addr:housenumber": "4", "addr:postcode": "15-483", "addr:street": "Fabryczna", "amenity": "pharmacy", "dispensing": "yes", "healthcare": "pharmacy", "name": "Rodzinna", "opening_hours": "Mo-Fr 08:00-20:00; Sa 08:00-16:00", "ref:csioz": "1226079"}}, {"type": "node", "id": 9575288425, "lat": 53.1423088, "lon": 23.2215478, "tags": {"addr:city": "Bia\u0142ystok", "addr:door": "U1-2", "addr:housenumber": "131", "addr:postcode": "15-181", "addr:street": "42 Pu\u0142ku Piechoty", "amenity": "pharmacy", "dispensing": "yes", "healthcare": "pharmacy", "name": "Vita", "opening_hours": "Mo-Fr 08:00-19:30; Sa 08:00-15:00", "ref:csioz": "1214279"}}, {"type": "node", "id": 9575288426, "lat": 53.128321, "lon": 23.077324, "tags": {"addr:city": "Bia\u0142ystok", "addr:housenumber": "50", "addr:postcode": "15-617", "addr:street": "Nowosielska", "amenity": "pharmacy", "healthcare": "pharmacy", "name": "Primula", "ref:csioz": "1024273"}}, {"type": "node", "id": 9575288427, "lat": 53.1350967, "lon": 23.1755805, "tags": {"addr:city": "Bia\u0142ystok", "addr:housenumber": "15/1", "addr:postcode": "15-028", "addr:street": "S\u0142onimska", "amenity": "pharmacy", "ref:csioz": "1021208"}}, {"type": "node", "id": 9575288428, "lat": 53.1215787, "lon": 23.2106191, "tags": {"addr:city": "Bia\u0142ystok", "addr:flats": "U1", "addr:housenumber": "3", "addr:postcode": "15-560", "addr:street": "Sowla\u0144ska", "amenity": "pharmacy", "name": "Twoja Apteka Na Sowla\u0144skiej", "ref:csioz": "1225548"}}, {"type": "node", "id": 9575312488, "lat": 53.1253403, "lon": 23.1680417, "tags": {"addr:city": "Bia\u0142ystok", "addr:flats": "H9", "addr:housenumber": "15", "addr:postcode": "15-277", "addr:street": "\u015awi\u0119toja\u0144ska", "amenity": "pharmacy", "brand": "Dbam o Zdrowie", "brand:wikidata": "Q62563833", "healthcare": "pharmacy", "name": "Dbam o Zdrowie", "ref:csioz": "1182992", "short_name": "DOZ"}}, {"type": "node", "id": 9575314209, "lat": 53.1232652, "lon": 23.1793271, "tags": {"addr:city": "Bia\u0142ystok", "addr:housenumber": "2", "addr:postcode": "15-265", "addr:street": "Czes\u0142awa Mi\u0142osza", "amenity": "pharmacy", "brand": "Super-Pharm", "brand:en": "Super-Pharm", "brand:he": "\u05e1\u05d5\u05e4\u05e8-\u05e4\u05d0\u05e8\u05dd", "brand:wikidata": "Q13220217", "healthcare": "pharmacy", "level": "0", "name": "Super-Pharm", "name:ar": "\u0633\u0648\u0628\u064a\u0631 \u0641\u0627\u0631\u0645", "name:en": "Super-Pharm", "name:he": "\u05e1\u05d5\u05e4\u05e8-\u05e4\u05d0\u05e8\u05dd", "name:ru": "\u0421\u0443\u043f\u0435\u0440-\u0424\u0430\u0440\u043c", "ref:csioz": "1021262"}}, {"type": "node", "id": 9575314210, "lat": 53.1351493, "lon": 23.1349511, "tags": {"addr:city": "Bia\u0142ystok", "addr:housenumber": "16", "addr:postcode": "15-701", "addr:street": "Kolejowa", "amenity": "pharmacy", "name": "Apteka Dbam O Zdrowie", "ref:csioz": "1019664"}}, {"type": "node", "id": 9575314211, "lat": 53.1275259, "lon": 23.1485957, "tags": {"addr:city": "Bia\u0142ystok", "addr:housenumber": "17", "addr:postcode": "15-404", "addr:street": "M\u0142ynowa", "amenity": "pharmacy", "name": "Apteka Przy M\u0142ynowej", "opening_hours": "Mo-Fr 08:00-18:00", "ref:csioz": "1020842"}}, {"type": "node", "id": 9575314212, "lat": 53.1361468, "lon": 23.1255662, "tags": {"addr:city": "Bia\u0142ystok", "addr:housenumber": "25A", "addr:postcode": "15-703", "addr:street": "Zwyci\u0119stwa", "amenity": "pharmacy", "healthcare": "pharmacy", "name": "Apteka Provita", "ref:csioz": "1019902"}}, {"type": "node", "id": 9575314213, "lat": 53.1091263, "lon": 23.1240642, "tags": {"addr:city": "Bia\u0142ystok", "addr:housenumber": "69", "addr:postcode": "15-337", "addr:street": "Kazimierza Pu\u0142askiego", "amenity": "pharmacy", "healthcare": "pharmacy", "ref:csioz": "1024257"}}, {"type": "node", "id": 9575314214, "lat": 53.1060428, "lon": 23.125931, "tags": {"addr:city": "Bia\u0142ystok", "addr:housenumber": "7", "addr:postcode": "15-349", "addr:street": "Stanis\u0142awa Dubois", "amenity": "pharmacy", "ref:csioz": "1021160"}}, {"type": "node", "id": 9575314215, "lat": 53.12046, "lon": 23.143993, "tags": {"addr:city": "Bia\u0142ystok", "addr:housenumber": "3A", "addr:postcode": "15-377", "addr:street": "Miko\u0142aja Kopernika", "amenity": "pharmacy", "name": "Astra", "ref:csioz": "1023244"}}, {"type": "node", "id": 9575314216, "lat": 53.1407856, "lon": 23.133629, "tags": {"addr:city": "Bia\u0142ystok", "addr:housenumber": "4", "addr:postcode": "15-748", "addr:street": "W\u0142adys\u0142awa Broniewskiego", "amenity": "pharmacy", "healthcare": "pharmacy", "name": "Apteka Cef@Rm 36,6", "ref:csioz": "1022507"}}, {"type": "node", "id": 9575337217, "lat": 53.162118, "lon": 23.1849015, "tags": {"addr:city": "Bia\u0142ystok", "addr:flats": "A5-A6", "addr:housenumber": "67", "addr:postcode": "15-168", "addr:street": "W\u0142adys\u0142awa Wysockiego", "amenity": "pharmacy", "healthcare": "pharmacy", "name": "Bliska", "ref:csioz": "1210703"}}, {"type": "node", "id": 9575337218, "lat": 53.1330861, "lon": 23.138524, "tags": {"addr:city": "Bia\u0142ystok", "addr:housenumber": "5", "addr:postcode": "15-873", "addr:street": "Bohater\u00f3w Monte Cassino", "amenity": "pharmacy", "level": "0", "name": "Remedium", "opening_hours": "Mo-Fr 08:00-20:00; Sa 08:00-16:00", "ref:csioz": "1020161"}}, {"type": "node", "id": 10268552455, "lat": 53.1623062, "lon": 23.2001729, "tags": {"addr:city": "Bia\u0142ystok", "addr:housenumber": "87", "addr:street": "W\u0142adys\u0142awa Raginisa", "amenity": "pharmacy", "dispensing": "yes", "healthcare": "pharmacy", "name": "\u015aw. Kosmy I Damiana", "ref:csioz": "1022122"}}, {"type": "node", "id": 10268552456, "lat": 53.1130929, "lon": 23.1242121, "tags": {"addr:city": "Bia\u0142ystok", "addr:housenumber": "4", "addr:postcode": "15-399", "addr:street": "Transportowa", "amenity": "pharmacy", "dispensing": "yes", "healthcare": "pharmacy", "name": "Na Transportowej", "ref:csioz": "1023738"}}, {"type": "node", "id": 10268552503, "lat": 53.1125149, "lon": 23.2007763, "tags": {"amenity": "pharmacy", "dispensing": "yes", "healthcare": "pharmacy", "ref:csioz": "1024132"}}, {"type": "node", "id": 10268556635, "lat": 53.1238619, "lon": 23.1556474, "tags": {"addr:city": "Bia\u0142ystok", "addr:housenumber": "17", "addr:postcode": "15-274", "addr:street": "Jerzego Waszyngtona", "amenity": "pharmacy", "dispensing": "yes", "healthcare": "pharmacy", "name": "Akademicka Fundacji Uniwersytetu Medycznego", "ref:csioz": "1020944"}}, {"type": "node", "id": 10268556636, "lat": 53.1244496, "lon": 23.1574952, "tags": {"addr:city": "Bia\u0142ystok", "addr:housenumber": "15A", "addr:street": "Jerzego Waszyngtona", "amenity": "pharmacy", "dispensing": "yes", "healthcare": "pharmacy", "name": "Uczelniana Fundacji Uniwersytetu Medycznego", "ref:csioz": "1020928"}}, {"type": "node", "id": 10268556637, "lat": 53.1262708, "lon": 23.1493225, "tags": {"addr:city": "Bia\u0142ystok", "addr:housenumber": "2", "addr:street": "Genera\u0142a J\u00f3zefa Bema", "amenity": "pharmacy", "brand": "Dr. Max", "brand:wikidata": "Q56317371", "dispensing": "yes", "healthcare": "pharmacy", "name": "Dr. Max", "opening_hours": "Mo-Fr 07:00-18:00", "ref:csioz": "1021880"}}, {"type": "node", "id": 10268556638, "lat": 53.1400993, "lon": 23.1360915, "tags": {"addr:city": "Bia\u0142ystok", "addr:housenumber": "11\u0410", "addr:street": "Antoniukowska", "amenity": "pharmacy", "dispensing": "yes", "healthcare": "pharmacy", "name": "Nowa Farmacja", "ref:csioz": "1021964"}}, {"type": "node", "id": 10268556647, "lat": 53.0876958, "lon": 23.1092812, "tags": {"addr:housenumber": "14E", "addr:place": "Horodniany", "addr:postcode": "16-001", "amenity": "pharmacy", "dispensing": "yes", "healthcare": "pharmacy", "name": "Od Serca", "ref:csioz": "1231313"}}, {"type": "node", "id": 10274222998, "lat": 53.2451794, "lon": 22.9934217, "tags": {"addr:housenumber": "9", "addr:place": "Kozi\u0144ce", "addr:postcode": "16-002", "amenity": "pharmacy", "healthcare": "pharmacy", "name": "Punkt Apteczny", "ref:csioz": "1211761", "source:disused": "Rejestr aptek MZ"}}, {"type": "node", "id": 12736139580, "lat": 53.1699101, "lon": 23.2218431, "tags": {"addr:city": "Nowodworce", "addr:postcode": "16-010", "addr:street": "Stokrotki", "amenity": "pharmacy", "dispensing": "yes", "drive_through": "no", "healthcare": "pharmacy", "name": "Apteka Miodova"}}, {"type": "way", "id": 236884715, "nodes": [2448457838, 2448457837, 2448457815, 2448457817, 2448457838], "tags": {"addr:city": "Bia\u0142ystok", "addr:housenumber": "14", "addr:postcode": "15-540", "addr:street": "\u017burawia", "amenity": "pharmacy", "building": "yes", "dispensing": "yes", "healthcare": "pharmacy", "name": "Uniwersytecka", "ref:csioz": "1119076"}}, {"type": "way", "id": 338051558, "nodes": [3451123265, 3451123270, 2595391257, 3451123266, 3451123258, 3451123259, 2360851290, 3451123265], "tags": {"addr:city": "Bia\u0142ystok", "addr:country": "PL", "addr:housenumber": "22C", "addr:street": "Wasilkowska", "amenity": "pharmacy", "building": "yes", "healthcare": "pharmacy", "name": "Apteka przy Topolance", "ref:csioz": "1201636"}}]}