{"version": 0.6, "generator": "Overpass API 0.7.62.8 e802775f", "osm3s": {"timestamp_osm_base": "2025-10-06T08:36:15Z", "copyright": "The data included in this document is from www.openstreetmap.org. The data is made available under ODbL."}, "elements": [{"type": "node", "id": 1313848332, "lat": 43.750184, "lon": 24.8690713, "tags": {"amenity": "pharmacy", "name": "C.blue"}}, {"type": "node", "id": 1678335579, "lat": 43.7523065, "lon": 24.8700516, "tags": {"amenity": "pharmacy", "name": "Farmacia Murgu"}}, {"type": "node", "id": 1678335594, "lat": 43.7497781, "lon": 24.8685782, "tags": {"amenity": "pharmacy"}}, {"type": "node", "id": 2345665862, "lat": 43.8082482, "lon": 25.1651848, "tags": {"amenity": "pharmacy", "healthcare": "pharmacy", "name": "farmacie"}}, {"type": "node", "id": 3202489208, "lat": 43.7505471, "lon": 24.8730305, "tags": {"amenity": "pharmacy", "name": "Farmacia Dona"}}, {"type": "node", "id": 3202489209, "lat": 43.7488034, "lon": 24.8689964, "tags": {"amenity": "pharmacy", "name": "Catena;Munu G", "opening_hours": "Mo-Fr 06:00-20:00; Sa, Su 06:00-14:00", "shop": "convenience"}}, {"type": "node", "id": 3202489210, "lat": 43.7486359, "lon": 24.871157, "tags": {"amenity": "pharmacy", "name": "catena"}}, {"type": "node", "id": 3202495177, "lat": 43.748944, "lon": 24.870768, "tags": {"amenity": "pharmacy"}}, {"type": "node", "id": 6155428487, "lat": 43.7193852, "lon": 24.7634994, "tags": {"amenity": "pharmacy", "dispensing": "yes", "healthcare": "pharmacy", "name": "Farmacie"}}, {"type": "node", "id": 9773080065, "lat": 44.0436768, "lon": 25.0871648, "tags": {"addr:city": "Peretu", "amenity": "pharmacy", "dispensing": "yes", "healthcare": "pharmacy", "name": "Farmacie veterinar\u0103"}}, {"type": "node", "id": 10570818353, "lat": 43.7558725, "lon": 24.8747321, "tags": {"amenity": "pharmacy", "brand": "Dr. Max", "brand:wikidata": "Q56317371", "healthcare": "pharmacy", "name": "Dr. Max"}}, {"type": "node", "id": 12909622838, "lat": 43.7577295, "lon": 24.8706138, "tags": {"amenity": "pharmacy", "brand": "Catena", "brand:wikidata": "Q24035728", "healthcare": "pharmacy", "name": "Catena"}}]}