{"version": 0.6, "generator": "Overpass API 0.7.62.8 e802775f", "osm3s": {"timestamp_osm_base": "2025-10-06T08:35:15Z", "copyright": "The data included in this document is from www.openstreetmap.org. The data is made available under ODbL."}, "elements": [{"type": "node", "id": 560182679, "lat": 49.7833321, "lon": 22.772326, "tags": {"addr:city": "Przemy\u015bl", "addr:housenumber": "21", "addr:postcode": "37-700", "addr:street": "Jagiello\u0144ska", "amenity": "pharmacy", "dispensing": "yes", "healthcare": "pharmacy", "name": "Pogodna", "official_name": "Apteka Pogodna", "opening_hours": "Mo-Fr 08:00-17:30; Sa 08:00-13:00; Su,PH off", "phone": "+48 16 678 45 34", "ref:csioz": "1141014"}}, {"type": "node", "id": 560182742, "lat": 49.7830056, "lon": 22.7737287, "tags": {"addr:city": "Przemy\u015bl", "addr:housenumber": "6", "addr:postcode": "37-700", "addr:street": "Jagiello\u0144ska", "amenity": "pharmacy", "brand": "Dr. Max", "brand:wikidata": "Q56317371", "brand:wikipedia": "fr:Dr.Max", "dispensing": "yes", "healthcare": "pharmacy", "mobile": "+48 502 577 359", "name": "Dr. Max", "opening_hours": "Mo-Fr 08:00-20:00; Sa 08:00-16:00; Su,PH off", "phone": "+48 16 676 93 70", "ref:csioz": "1141009", "source": "http://ump.waw.pl/ retrieved 01:32:52 09/02/09 (UMP-Przemysl/src/POI-Przemysl.pnt-converted.txt)"}}, {"type": "node", "id": 560182759, "lat": 49.7835757, "lon": 22.7724008, "tags": {"addr:city": "Przemy\u015bl", "addr:housenumber": "12", "addr:postcode": "37-700", "addr:street": "Jagiello\u0144ska", "amenity": "pharmacy", "dispensing": "yes", "healthcare": "pharmacy", "name": "S\u0142oneczna", "opening_hours": "Mo-Fr 07:00-21:00; Sa 08:00-15:00; Su,PH off", "phone": "+48 16 676 85 29", "ref:csioz": "1171444", "source": "http://ump.waw.pl/ retrieved 01:32:52 09/02/09 (UMP-Przemysl/src/POI-Przemysl.pnt-converted.txt)"}}, {"type": "node", "id": 560182805, "lat": 49.7862611, "lon": 22.7663984, "tags": {"addr:city": "Przemy\u015bl", "addr:housenumber": "1", "addr:postcode": "37-700", "addr:street": "3 Maja", "amenity": "pharmacy", "dispensing": "yes", "healthcare": "pharmacy", "name": "Pod Or\u0142em", "opening_hours": "Mo-Fr 08:00-18:00; Sa 08:00-15:00; Su,PH off", "phone": "+48 16 677 01 47", "ref:csioz": "1141240", "source": "http://ump.waw.pl/ retrieved 01:32:52 09/02/09 (UMP-Przemysl/src/POI-Przemysl.pnt-converted.txt)"}}, {"type": "node", "id": 560182826, "lat": 49.7880959, "lon": 22.7662002, "tags": {"addr:city": "Przemy\u015bl", "addr:housenumber": "21", "addr:postcode": "37-700", "addr:street": "3 Maja", "amenity": "pharmacy", "dispensing": "yes", "healthcare": "pharmacy", "name": "Niezapominajka", "opening_hours": "Mo-Fr 07:00-21:00; Sa 07:30-16:00; Su,PH off", "phone": "+48 728 777 810", "ref:csioz": "1141265", "source": "http://ump.waw.pl/ retrieved 01:32:52 09/02/09 (UMP-Przemysl/src/POI-Przemysl.pnt-converted.txt)"}}, {"type": "node", "id": 560183011, "lat": 49.7871031, "lon": 22.7755363}, {"type": "node", "id": 2427904451, "lat": 49.7847764, "lon": 22.7530541, "tags": {"addr:city": "Przemy\u015bl", "addr:housenumber": "97", "addr:postcode": "37-700", "addr:street": "Grunwaldzka", "amenity": "pharmacy", "dispensing": "yes", "healthcare": "pharmacy", "name": "Rodzinna", "opening_hours": "Mo-Fr 07:30-20:15; Sa 08:00-16:00; Su,PH off", "phone": "+48 16 670 29 00", "ref:csioz": "1140996"}}, {"type": "node", "id": 2437778345, "lat": 49.7854489, "lon": 22.7536922, "tags": {"addr:city": "Przemy\u015bl", "addr:housenumber": "58", "addr:postcode": "37-700", "addr:street": "Grunwaldzka", "amenity": "pharmacy", "dispensing": "yes", "healthcare": "pharmacy", "opening_hours": "Mo-Fr 07:30-20:00; Sa 08:00-14:00; Su,PH off", "phone": "+48 16 670 04 60", "ref:csioz": "1140982"}}, {"type": "node", "id": 2449748995, "lat": 49.7806032, "lon": 22.7844703}, {"type": "node", "id": 2449749040, "lat": 49.7805854, "lon": 22.7844354}, {"type": "node", "id": 2449749115, "lat": 49.780483, "lon": 22.7844342}, {"type": "node", "id": 2793822291, "lat": 49.8143186, "lon": 22.234234, "tags": {"amenity": "pharmacy", "dispensing": "yes", "healthcare": "pharmacy", "name": "Pod Zegarem", "ref:csioz": "1141474"}}, {"type": "node", "id": 3020041706, "lat": 49.9876111, "lon": 22.5372312, "tags": {"addr:city": "Zarzecze", "addr:housenumber": "12", "addr:postcode": "37-205", "addr:street": "\u015awi\u0119tego Jana Paw\u0142a II", "amenity": "pharmacy", "dispensing": "yes", "drive_through": "no", "healthcare": "pharmacy", "name": "Apteka Medex", "opening_hours": "Mo-Fr 08:00-18:00; Sa 08:00-14:00", "ref:csioz": "1221549", "wheelchair": "yes"}}, {"type": "node", "id": 3211405153, "lat": 50.0075588, "lon": 22.6755876}, {"type": "node", "id": 3218941971, "lat": 49.7837632, "lon": 22.7720387, "tags": {"addr:city": "Przemy\u015bl", "addr:housenumber": "2", "addr:postcode": "37-700", "addr:street": "Kamienny Most", "amenity": "pharmacy", "dispensing": "yes", "healthcare": "pharmacy", "name": "Przy Kamiennym Mo\u015bcie", "opening_hours": "Mo-Fr 07:30-17:30; Sa 08:00-15:00", "phone": "+48 16 678 81 02", "ref:csioz": "1141023"}}, {"type": "node", "id": 3224237162, "lat": 49.7822945, "lon": 22.7742355, "tags": {"addr:city": "Przemy\u015bl", "addr:housenumber": "12", "addr:postcode": "37-700", "addr:street": "Plac Na Bramie", "amenity": "pharmacy", "check_date": "2025-08-03", "dispensing": "yes", "healthcare": "pharmacy", "name": "R\u00f3\u017cana", "opening_hours": "Mo-Fr 07:00-21:00; Sa 08:00-19:00; Su,PH off", "operator": "Kraso\u0144 B.", "phone": "+48 16 678 98 76", "ref:csioz": "1216783", "wheelchair": "yes"}}, {"type": "node", "id": 3298885878, "lat": 49.8851551, "lon": 22.7553714}, {"type": "node", "id": 3298885879, "lat": 49.8851694, "lon": 22.7552017}, {"type": "node", "id": 3298885880, "lat": 49.8853026, "lon": 22.7552288}, {"type": "node", "id": 3298885881, "lat": 49.8852883, "lon": 22.7553985}, {"type": "node", "id": 3298900228, "lat": 49.8852496, "lon": 22.755218}, {"type": "node", "id": 3298900232, "lat": 49.8852953, "lon": 22.7553159}, {"type": "node", "id": 3612891055, "lat": 49.9241483, "lon": 22.1635616, "tags": {"amenity": "pharmacy", "dispensing": "yes", "healthcare": "pharmacy", "name": "Apteka W Hy\u017cnem", "ref:csioz": "1183213"}}, {"type": "node", "id": 3744184282, "lat": 49.6754743, "lon": 22.8083337, "tags": {"amenity": "pharmacy"}}, {"type": "node", "id": 3964452029, "lat": 49.9072568, "lon": 22.5115766, "tags": {"amenity": "pharmacy", "dispensing": "yes", "healthcare": "pharmacy", "name": "Medex", "opening_hours": "Mo-Fr 08:00-18:00; Sa 08:00-13:00", "ref:csioz": "1180449"}}, {"type": "node", "id": 4026942688, "lat": 49.7872877, "lon": 22.7755394}, {"type": "node", "id": 4057391402, "lat": 49.9092819, "lon": 22.1993062, "tags": {"amenity": "pharmacy", "dispensing": "yes", "name": "Punkt apteczny", "ref:csioz": "1125753"}}, {"type": "node", "id": 4057392029, "lat": 49.8242071, "lon": 22.393834, "tags": {"addr:city": "Dubiecko", "addr:housenumber": "16", "addr:postcode": "37-750", "addr:street": "Przemyska", "amenity": "pharmacy", "brand": "Dbam o Zdrowie", "brand:wikidata": "Q62563833", "check_date": "2025-08-08", "dispensing": "yes", "healthcare": "pharmacy", "name": "Dbam o Zdrowie", "opening_hours": "Mo-Fr 08:00-18:00; Sa 08:00-13:00", "ref:csioz": "1199316", "short_name": "DOZ"}}, {"type": "node", "id": 6133224512, "lat": 49.7906036, "lon": 22.7835623}, {"type": "node", "id": 6133245772, "lat": 49.7852919, "lon": 22.7746393, "tags": {"addr:city": "Przemy\u015bl", "addr:housenumber": "6", "addr:postcode": "37-700", "addr:street": "Sportowa", "amenity": "pharmacy", "brand": "Dr. Max", "brand:wikidata": "Q56317371", "brand:wikipedia": "fr:Dr.Max", "dispensing": "yes", "healthcare": "pharmacy", "name": "Dr. Max", "opening_hours": "Mo-Fr 07:00-19:00; Sa,Su,PH off", "phone": "+48 16 678 68 08", "ref:csioz": "1141206"}}, {"type": "node", "id": 6540927412, "lat": 49.9860158, "lon": 22.5374206, "tags": {"addr:city": "Zarzecze", "addr:housenumber": "2", "addr:postcode": "37-205", "addr:street": "D\u0142uga", "amenity": "pharmacy", "dispensing": "yes", "drive_through": "no", "healthcare": "pharmacy", "name": "Apteka Rupfarm", "opening_hours": "Mo-Fr 08:00-18:00; Sa 08:00-13:00", "ref:csioz": "1165233"}}, {"type": "node", "id": 6899645686, "lat": 49.7919376, "lon": 22.7725282, "tags": {"addr:city": "Przemy\u015bl", "addr:housenumber": "10", "addr:postcode": "37-700", "addr:street": "Pu\u0142kownika Marcina Borelowskiego", "amenity": "pharmacy", "dispensing": "yes", "healthcare": "pharmacy", "name": "Ca\u0142odobowa", "opening_hours": "Mo-Sa 07:00-22:00; Su,PH 09:00-22:00", "phone": "+48166703859", "ref:csioz": "1151296"}}, {"type": "node", "id": 8241806247, "lat": 49.6981264, "lon": 22.7466305, "tags": {"amenity": "pharmacy", "dispensing": "yes", "healthcare": "pharmacy", "name": "Punkt Apteczny mgr farm. Artur Cie\u0107ko", "opening_hours": "Mo-Fr 09:00-18:00", "ref:csioz": "1231206", "wheelchair": "yes"}}, {"type": "node", "id": 9022948500, "lat": 49.7893813, "lon": 22.7647535, "tags": {"addr:city": "Przemy\u015bl", "addr:housenumber": "32", "addr:postcode": "37-700", "addr:street": "\u015awi\u0119tego Jana Nepomucena", "amenity": "pharmacy", "brand": "Dr. Max", "brand:wikidata": "Q56317371", "brand:wikipedia": "fr:Dr.Max", "dispensing": "yes", "healthcare": "pharmacy", "name": "Dr. Max", "opening_hours": "Mo-Fr 08:00-19:00; Sa,Su,PH off", "phone": "+48 16 677 82 60", "ref:csioz": "1141233"}}, {"type": "node", "id": 9046863177, "lat": 49.7905406, "lon": 22.7834751}, {"type": "node", "id": 9046863178, "lat": 49.7906115, "lon": 22.7834942}, {"type": "node", "id": 9046863180, "lat": 49.790548, "lon": 22.7834098}, {"type": "node", "id": 9046863181, "lat": 49.7904339, "lon": 22.7835158}, {"type": "node", "id": 9046863182, "lat": 49.7904549, "lon": 22.7833324}, {"type": "node", "id": 9046863183, "lat": 49.7905229, "lon": 22.783351}, {"type": "node", "id": 9046863184, "lat": 49.7905171, "lon": 22.7834019}, {"type": "node", "id": 9048791331, "lat": 49.7836641, "lon": 22.8102191}, {"type": "node", "id": 9048791333, "lat": 49.7836678, "lon": 22.8103659}, {"type": "node", "id": 9048791334, "lat": 49.7837993, "lon": 22.8103589}, {"type": "node", "id": 9048791335, "lat": 49.7837964, "lon": 22.8102127}, {"type": "node", "id": 9064592812, "lat": 49.7805761, "lon": 22.784627}, {"type": "node", "id": 9064815715, "lat": 49.7804557, "lon": 22.7845851}, {"type": "node", "id": 9155864117, "lat": 49.791444, "lon": 22.7521243, "tags": {"addr:city": "Przemy\u015bl", "addr:housenumber": "1b", "addr:postcode": "37-700", "addr:street": "Genera\u0142a W\u0142adys\u0142awa Sikorskiego", "amenity": "pharmacy", "brand": "S\u0142oneczna", "dispensing": "yes", "healthcare": "pharmacy", "name": "S\u0142oneczna", "opening_hours": "Mo-Fr 07:00-21:00; Sa 08:00-15:00; Su,PH off", "phone": "+48 16 679 96 79", "ref:csioz": "1174194"}}, {"type": "node", "id": 9167072339, "lat": 49.6916567, "lon": 22.4801439, "tags": {"amenity": "pharmacy", "dispensing": "yes", "healthcare": "pharmacy", "opening_hours": "Mo-Fr 09:00-18:00", "ref:csioz": "1140019"}}, {"type": "node", "id": 9533487100, "lat": 49.7831551, "lon": 22.7769963, "tags": {"addr:city": "Przemy\u015bl", "addr:housenumber": "6", "addr:postcode": "37-700", "addr:street": "Plac Legion\u00f3w", "amenity": "pharmacy", "dispensing": "yes", "healthcare": "pharmacy", "name": "Przy Dworcu", "opening_hours": "Mo-Fr 07:00-19:00; Sa 08:00-14:00; Su,PH off", "phone": "+48 16 678 84 19", "ref:csioz": "1141131"}}, {"type": "node", "id": 9533958640, "lat": 49.7880572, "lon": 22.7625788, "tags": {"addr:city": "Przemy\u015bl", "addr:housenumber": "13", "addr:postcode": "37-700", "addr:street": "\u015awi\u0119tego Jana Nepomucena", "addr:unit": "2/3", "amenity": "pharmacy", "dispensing": "yes", "healthcare": "pharmacy", "name": "R\u00f3\u017cana", "opening_hours": "24/7", "phone": "+48 884 620 206", "ref:csioz": "1165547"}}, {"type": "node", "id": 9534020312, "lat": 49.8087416, "lon": 22.782047, "tags": {"addr:city": "Przemy\u015bl", "addr:housenumber": "18", "addr:postcode": "37-700", "addr:street": "Monte Cassino", "amenity": "pharmacy", "dispensing": "yes", "healthcare": "pharmacy", "name": "Szpitalna", "opening_hours": "Mo-Fr 08:00-16:00; Sa,Su,PH off", "phone": "+48 16 677 89 30", "ref:csioz": "1141095"}}, {"type": "node", "id": 9534040916, "lat": 49.7852927, "lon": 22.7740359, "tags": {"addr:city": "Przemy\u015bl", "addr:housenumber": "4", "addr:postcode": "37-700", "addr:street": "Sportowa", "amenity": "pharmacy", "dispensing": "yes", "healthcare": "pharmacy", "name": "Z\u0142oty Li\u015b\u0107", "opening_hours": "Mo-Fr 08:00-15:00; Sa 08:00-13:00; Su,PH off", "phone": "+48 16 675 13 27", "ref:csioz": "1141190"}}, {"type": "node", "id": 9534044686, "lat": 49.7893701, "lon": 22.7660697, "tags": {"addr:city": "Przemy\u015bl", "addr:housenumber": "31", "addr:postcode": "37-700", "addr:street": "3 Maja", "addr:unit": "S1", "amenity": "pharmacy", "dispensing": "yes", "healthcare": "pharmacy", "name": "Farmacja 24", "opening_hours": "Mo-Fr 08:00-20:00; Sa 08:00-15:00; Su,PH off", "phone": "+48 16 670 00 60", "ref:csioz": "1165177"}}, {"type": "node", "id": 9534121056, "lat": 49.7916171, "lon": 22.7776412, "tags": {"addr:city": "Przemy\u015bl", "addr:housenumber": "33", "addr:postcode": "37-700", "addr:street": "Wybrze\u017ce Marsza\u0142ka Ferdynanda Focha", "amenity": "pharmacy", "brand": "S\u0142oneczna", "dispensing": "yes", "healthcare": "pharmacy", "name": "S\u0142oneczna", "opening_hours": "Mo-Fr 07:00-21:00; Sa,Su,PH 08:00-21:00", "phone": "+48 16 679 39 02", "ref:csioz": "1140974"}}, {"type": "node", "id": 9534148429, "lat": 49.7846066, "lon": 22.7516532, "tags": {"addr:city": "Przemy\u015bl", "addr:housenumber": "28", "addr:postcode": "37-700", "addr:street": "Henryka Wieniawskiego", "addr:unit": "3", "amenity": "pharmacy", "dispensing": "yes", "healthcare": "pharmacy", "name": "Lafarma", "opening_hours": "Mo-Fr 07:30-19:00; Sa 08:00-14:00; Su,PH off", "phone": "+48 16 670 50 00", "ref:csioz": "1224291"}}, {"type": "node", "id": 9536721857, "lat": 49.8895099, "lon": 22.2844952, "tags": {"addr:housenumber": "215", "addr:place": "Jawornik Polski", "addr:postcode": "37-232", "amenity": "pharmacy", "name": "Kraina Lek\u00f3w", "opening_hours": "Mo-Fr 08:00-15:00; Sa 09:00-12:00", "phone": "166514177", "ref:csioz": "1141316"}}, {"type": "node", "id": 9537509285, "lat": 49.8732404, "lon": 22.8104335, "tags": {"amenity": "pharmacy", "dispensing": "yes", "healthcare": "pharmacy", "name": "Punkt apteczny", "opening_hours": "Mo-Fr 08:00-18:00; Sa 08:00-13:00", "ref:csioz": "1192731"}}, {"type": "node", "id": 9537579093, "lat": 49.8741859, "lon": 22.8111684, "tags": {"amenity": "pharmacy", "dispensing": "yes", "healthcare": "pharmacy", "name": "Medika", "opening_hours": "Mo-Fr 08:00-17:00; Sa 08:00-13:00", "ref:csioz": "1190845"}}, {"type": "node", "id": 9537668519, "lat": 49.5771843, "lon": 22.3673084, "tags": {"amenity": "pharmacy", "dispensing": "yes", "mobile": "603 773 799", "name": "Danfarm Punkt Apteczny", "opening_hours": "Mo-Fr 08:00-16:00", "ref:csioz": "1226276"}}, {"type": "node", "id": 9537836408, "lat": 49.7743428, "lon": 22.206915, "tags": {"amenity": "pharmacy", "name": "Punkt apteczny", "opening_hours": "Mo-Fr 08:00-16:00; Sa 09:00-13:00", "phone": "134397209"}}, {"type": "node", "id": 9538447680, "lat": 49.8706802, "lon": 22.1819919, "tags": {"amenity": "pharmacy", "dispensing": "yes", "email": "danfarmharta@wp.pl", "name": "Danfarm Punkt Apteczny", "opening_hours": "Mo-Fr 08:00-18:00; Sa 08:00-14:00", "phone": "17 230 52 33", "ref:csioz": "1227973"}}, {"type": "node", "id": 9538634589, "lat": 49.7748263, "lon": 22.7826557, "tags": {"addr:city": "Przemy\u015bl", "addr:housenumber": "85", "addr:postcode": "37-700", "addr:street": "Juliusza S\u0142owackiego", "amenity": "pharmacy", "dispensing": "yes", "fixme": "Lokalizacja do sprecyzowania", "healthcare": "pharmacy", "opening_hours": "Mo-Fr 15:00-17:00", "ref:csioz": "1228019"}}, {"type": "node", "id": 9545960938, "lat": 49.9651425, "lon": 22.4886658, "tags": {"addr:housenumber": "227", "addr:place": "Sienn\u00f3w", "addr:postcode": "37-205", "amenity": "pharmacy", "dispensing": "yes", "drive_through": "no", "healthcare": "pharmacy", "name": "Apteka Rupfarm", "ref:csioz": "1186445", "wheelchair": "yes"}}, {"type": "node", "id": 9545960942, "lat": 49.9346777, "lon": 22.348978, "tags": {"addr:housenumber": "139", "addr:place": "Manasterz", "addr:postcode": "37-232", "amenity": "pharmacy", "name": "Twoje Zdrowie", "ref:csioz": "1141430"}}, {"type": "node", "id": 9552644966, "lat": 50.018926, "lon": 22.6847921, "tags": {"amenity": "pharmacy", "brand": "Dr. Max", "brand:wikidata": "Q56317371", "dispensing": "yes", "healthcare": "pharmacy", "name": "Dr. Max", "opening_hours": "Mo-Fr 08:00-19:00; Sa 08:00-14:00", "ref:csioz": "1151002"}}, {"type": "node", "id": 9552644968, "lat": 49.9048498, "lon": 22.5123988, "tags": {"amenity": "pharmacy", "dispensing": "yes", "healthcare": "pharmacy", "name": "Apteka Lafarma", "opening_hours": "Mo-Fr 07:30-19:00; Sa 08:00-13:00", "ref:csioz": "1220044"}}, {"type": "node", "id": 9552644969, "lat": 49.9398038, "lon": 22.73119, "tags": {"amenity": "pharmacy", "dispensing": "yes", "healthcare": "pharmacy", "name": "Punkt Apteczny Medika", "opening_hours": "Mo-Fr 08:00-16:00", "ref:csioz": "1218275"}}, {"type": "node", "id": 9552644970, "lat": 50.0135935, "lon": 22.6941101, "tags": {"addr:city": "Jaros\u0142aw", "addr:housenumber": "47B", "addr:postcode": "37-500", "addr:street": "3 Maja", "amenity": "pharmacy", "dispensing": "yes", "healthcare": "pharmacy", "name": "Nova", "opening_hours": "Mo-Fr 08:00-20:00; Sa 08:00-14:00", "ref:csioz": "1216936"}}, {"type": "node", "id": 9552644972, "lat": 50.0145981, "lon": 22.6892596, "tags": {"amenity": "pharmacy", "dispensing": "yes", "healthcare": "pharmacy", "name": "Apteka Galicja", "opening_hours": "Mo-Fr 07:30-19:00; Sa 08:00-13:00", "ref:csioz": "1197794"}}, {"type": "node", "id": 9552644973, "lat": 50.0089577, "lon": 22.6752451, "tags": {"amenity": "pharmacy", "dispensing": "yes", "healthcare": "pharmacy", "name": "Medex", "ref:csioz": "1189291"}}, {"type": "node", "id": 9552644975, "lat": 50.0160719, "lon": 22.6785396, "tags": {"amenity": "pharmacy", "check_date": "2024-06-22", "contact:housenumber": "11", "contact:street": "Grunwaldzka", "dispensing": "yes", "healthcare": "pharmacy", "level": "0", "name": "Apteka S\u0142oneczna", "opening_hours": "Mo-Fr 07:00-21:00; Sa 08:00-21:00", "ref:csioz": "1173908"}}, {"type": "node", "id": 9552644977, "lat": 49.9521893, "lon": 22.6001326, "tags": {"amenity": "pharmacy", "dispensing": "yes", "healthcare": "pharmacy", "name": "Lawenda", "opening_hours": "Mo-Fr 08:00-18:00", "ref:csioz": "1151187"}}, {"type": "node", "id": 9552644978, "lat": 50.0092013, "lon": 22.6727727, "tags": {"amenity": "pharmacy", "dispensing": "yes", "healthcare": "pharmacy", "name": "Alexmed", "ref:csioz": "1151015"}}, {"type": "node", "id": 9552644979, "lat": 50.0133834, "lon": 22.695029, "tags": {"amenity": "pharmacy", "brand": "Dr. Max", "brand:wikidata": "Q56317371", "dispensing": "yes", "healthcare": "pharmacy", "name": "Dr. Max", "opening_hours": "24/7", "ref:csioz": "1150978"}}, {"type": "node", "id": 9552644980, "lat": 50.015541, "lon": 22.6839509, "tags": {"addr:city": "Jaros\u0142aw", "addr:housenumber": "10", "addr:postcode": "37-500", "addr:street": "Ksi\u0119dza Mieczys\u0142awa Lisi\u0144skiego", "amenity": "pharmacy", "dispensing": "yes", "healthcare": "pharmacy", "name": "APTEKA JAROS\u0141AWSKA", "note": "Oficjalny adres to Lisi\u0144skiego 10, apteka fizycznie znajduje si\u0119 tutaj", "opening_hours": "Mo-Fr 08:00-20:00; Sa 08:00-14:00", "ref:csioz": "1150964", "source:addr": "emuia.gugik.gov.pl"}}, {"type": "node", "id": 9552644981, "lat": 50.0175369, "lon": 22.6678469, "tags": {"amenity": "pharmacy", "dispensing": "yes", "healthcare": "pharmacy", "name": "Medex", "ref:csioz": "1143566"}}, {"type": "node", "id": 9552644982, "lat": 50.0184642, "lon": 22.6729517, "tags": {"amenity": "pharmacy", "dispensing": "yes", "healthcare": "pharmacy", "opening_hours": "Mo-Fr 08:00-17:00; Sa 08:00-13:00", "ref:csioz": "1143553"}}, {"type": "node", "id": 9552644983, "lat": 50.0103166, "lon": 22.6985787, "tags": {"amenity": "pharmacy", "dispensing": "yes", "healthcare": "pharmacy", "opening_hours": "Mo-Fr 07:00-20:30; Sa 08:00-15:00", "ref:csioz": "1143531"}}, {"type": "node", "id": 9552644984, "lat": 50.0162636, "lon": 22.6778299, "tags": {"amenity": "pharmacy", "check_date": "2024-06-22", "dispensing": "yes", "healthcare": "pharmacy", "name": "Apteka Medex", "opening_hours": "Mo-Fr 07:30-20:00; Sa 08:00-14:00", "ref:csioz": "1143515"}}, {"type": "node", "id": 9552644985, "lat": 50.0167207, "lon": 22.6807763, "tags": {"amenity": "pharmacy", "check_date:opening_hours": "2023-03-25", "dispensing": "yes", "healthcare": "pharmacy", "name": "Apteka Vademecum Blisko I Tanio!", "opening_hours": "Mo-Fr 07:30-19:00; Sa 08:00-13:00", "ref:csioz": "1143502"}}, {"type": "node", "id": 9552644986, "lat": 50.0176731, "lon": 22.6828785, "tags": {"addr:city": "Jaros\u0142aw", "addr:housenumber": "3", "addr:postcode": "37-500", "addr:street": "Grodzka", "amenity": "pharmacy", "check_date": "2024-06-20", "dispensing": "yes", "healthcare": "pharmacy", "name": "Medex", "opening_hours": "Mo-Sa 07:30-19:00", "ref:csioz": "1143491", "wheelchair": "no"}}, {"type": "node", "id": 9552644987, "lat": 50.0174686, "lon": 22.6771701, "tags": {"addr:city": "Jaros\u0142aw", "addr:housenumber": "5", "addr:postcode": "37-500", "addr:street": "Ignacego Kraszewskiego", "amenity": "pharmacy", "brand": "Dr. Max", "brand:wikidata": "Q56317371", "dispensing": "yes", "healthcare": "pharmacy", "name": "Dr. Max", "opening_hours": "Mo-Fr 08:00-20:00; Sa 08:00-14:00", "ref:csioz": "1143577"}}, {"type": "node", "id": 9552644988, "lat": 50.0137229, "lon": 22.692972, "tags": {"amenity": "pharmacy", "dispensing": "yes", "healthcare": "pharmacy", "name": "Medex", "ref:csioz": "1211813"}}, {"type": "node", "id": 9552644991, "lat": 49.9010818, "lon": 22.6408367, "tags": {"amenity": "pharmacy", "dispensing": "yes", "healthcare": "pharmacy", "opening_hours": "Mo-Fr 08:00-17:00", "ref:csioz": "1151179"}}, {"type": "node", "id": 9552644993, "lat": 49.9479607, "lon": 22.6744252, "tags": {"amenity": "pharmacy", "dispensing": "yes", "healthcare": "pharmacy", "opening_hours": "Mo-We 08:00-16:30; Th,Fr 08:00-15:00", "ref:csioz": "1151106"}}, {"type": "node", "id": 9552644994, "lat": 50.0197479, "lon": 22.6669203, "tags": {"amenity": "pharmacy", "brand": "Dr. Max", "brand:wikidata": "Q56317371", "dispensing": "yes", "healthcare": "pharmacy", "name": "Dr. Max", "opening_hours": "Mo-Fr 08:00-20:00; Sa 08:00-16:00", "ref:csioz": "1151090"}}, {"type": "node", "id": 9552644995, "lat": 50.009784, "lon": 22.7004242, "tags": {"amenity": "pharmacy", "dispensing": "yes", "healthcare": "pharmacy", "name": "Nova", "ref:csioz": "1151089"}}, {"type": "node", "id": 9552644996, "lat": 50.0077789, "lon": 22.6739046, "tags": {"amenity": "pharmacy", "dispensing": "yes", "healthcare": "pharmacy", "name": "Medex", "opening_hours": "Mo-Sa 08:00-21:00; Su 11:00-19:00", "ref:csioz": "1151053"}}, {"type": "node", "id": 9552644998, "lat": 50.0143892, "lon": 22.6783454, "tags": {"amenity": "pharmacy", "dispensing": "yes", "healthcare": "pharmacy", "name": "Optical", "opening_hours": "24/7", "ref:csioz": "1151031"}}, {"type": "node", "id": 9552644999, "lat": 50.0196434, "lon": 22.6768775, "tags": {"addr:city": "Jaros\u0142aw", "addr:housenumber": "24", "addr:postcode": "37-500", "addr:street": "Ignacego Kraszewskiego", "amenity": "pharmacy", "dispensing": "yes", "healthcare": "pharmacy", "name": "Medex", "opening_hours": "Mo-Fr 08:00-20:00; Sa 08:00-15:00", "ref:csioz": "1143609"}}, {"type": "node", "id": 9553084893, "lat": 49.7760716, "lon": 22.6529488, "tags": {"addr:housenumber": "138", "addr:place": "Krasiczyn", "addr:postcode": "37-741", "amenity": "pharmacy", "dispensing": "yes", "healthcare": "pharmacy", "name": "Danfarm Punkt Apteczny Krasiczyn", "opening_hours": "Mo-Fr 08:00-16:00; Sa 09:00-15:00", "ref:csioz": "1229878", "source:addr": "emuia.gugik.gov.pl"}}, {"type": "node", "id": 9553084894, "lat": 49.8257818, "lon": 22.390923, "tags": {"amenity": "pharmacy", "dispensing": "yes", "healthcare": "pharmacy", "name": "Animed", "opening_hours": "Mo-Fr 07:30-20:00; Sa 08:00-18:00; Su 08:00-15:00", "ref:csioz": "1190372"}}, {"type": "node", "id": 9553084895, "lat": 49.7980997, "lon": 22.5439963, "tags": {"addr:city": "Krzywcza", "addr:housenumber": "67", "addr:place": "Krzywcza", "addr:postcode": "37-754", "amenity": "pharmacy", "dispensing": "yes", "healthcare": "pharmacy", "opening_hours": "Mo-Fr 08:00-15:00; Sa 08:00-13:00", "ref:csioz": "1140062"}}, {"type": "node", "id": 9553084896, "lat": 49.8217135, "lon": 22.813429, "tags": {"amenity": "pharmacy", "dispensing": "yes", "email": "zurawica@oleszek.com.pl", "healthcare": "pharmacy", "name": "Punkt apteczny", "opening_hours": "Mo-Fr 08:00-18:00", "phone": "+48 16 736 21 78", "ref:csioz": "1229924"}}, {"type": "node", "id": 9569874327, "lat": 49.8147703, "lon": 22.2341217, "tags": {"addr:city": "Dyn\u00f3w", "addr:housenumber": "6", "addr:postcode": "36-065", "addr:street": "Rynek", "amenity": "pharmacy", "dispensing": "yes", "healthcare": "pharmacy", "name": "R\u00f3\u017cana", "ref:csioz": "1203726"}}, {"type": "node", "id": 9569874328, "lat": 49.814036, "lon": 22.2329314, "tags": {"amenity": "pharmacy", "dispensing": "yes", "healthcare": "pharmacy", "name": "Apteka Lafarma", "ref:csioz": "1196693"}}, {"type": "node", "id": 9569874330, "lat": 49.8144976, "lon": 22.232, "tags": {"amenity": "pharmacy", "dispensing": "yes", "healthcare": "pharmacy", "name": "Animed", "ref:csioz": "1180526"}}, {"type": "node", "id": 9639893523, "lat": 49.7871942, "lon": 22.7756845}, {"type": "node", "id": 9639893524, "lat": 49.7871998, "lon": 22.7753947}, {"type": "node", "id": 9639893531, "lat": 49.7871443, "lon": 22.7756038, "tags": {"entrance": "shop"}}, {"type": "node", "id": 9657470317, "lat": 49.6169035, "lon": 22.8593474, "tags": {"amenity": "pharmacy", "healthcare": "pharmacy", "name": "\u0410\u043f\u0442\u0435\u043a\u0430", "name:en": "Drugstore", "name:uk": "\u0410\u043f\u0442\u0435\u043a\u0430"}}, {"type": "node", "id": 9663767256, "lat": 49.6202646, "lon": 22.2751504, "tags": {"amenity": "pharmacy", "name": "Punkt Apteczny", "opening_hours": "Mo-Fr 09:00-16:00"}}, {"type": "node", "id": 9871067042, "lat": 49.8234179, "lon": 22.7892293, "tags": {"addr:city": "\u017burawica", "addr:housenumber": "2", "addr:postcode": "37-710", "addr:street": "Rzeszowska", "amenity": "pharmacy", "dispensing": "yes", "healthcare": "pharmacy", "mobile": "661 153 040", "name": "Danfam Punkt Apteczny", "opening_hours": "Mo-Fr 08:00-20:00; Sa 08:00-16:00", "ref:csioz": "1230823", "source:addr": "EMUiA (emuia.gugik.gov.pl)"}}, {"type": "node", "id": 10187253251, "lat": 50.0110438, "lon": 22.6771289, "tags": {"amenity": "pharmacy", "healthcare": "pharmacy"}}, {"type": "node", "id": 12568356856, "lat": 49.7883842, "lon": 22.766824}, {"type": "node", "id": 12568356857, "lat": 49.7882947, "lon": 22.7668445}, {"type": "node", "id": 12568356858, "lat": 49.7883012, "lon": 22.7669419}, {"type": "node", "id": 12568356859, "lat": 49.788354, "lon": 22.7669382}, {"type": "node", "id": 12568356860, "lat": 49.7883958, "lon": 22.7669295}, {"type": "node", "id": 12865574429, "lat": 50.0076484, "lon": 22.6755995}, {"type": "node", "id": 12865574430, "lat": 50.0075688, "lon": 22.6754068}, {"type": "node", "id": 12865574431, "lat": 50.0076574, "lon": 22.6754265}, {"type": "way", "id": 323095666, "nodes": [3298885878, 3298885879, 3298900228, 3298885880, 3298900232, 3298885881, 3298885878], "tags": {"addr:city:simc": "0607647", "addr:housenumber": "55", "addr:place": "Wac\u0142awice", "addr:postcode": "37-714", "amenity": "pharmacy", "building": "yes", "dispensing": "yes", "healthcare": "pharmacy", "opening_hours": "Mo-Fr 10:00-18:00", "ref:csioz": "1166097", "source:addr": "orly.e-mapa.net"}}, {"type": "way", "id": 977738884, "nodes": [9046863178, 6133224512, 9046863181, 9046863182, 9046863183, 9046863184, 9046863180, 9046863177, 9046863178], "tags": {"addr:city": "Przemy\u015bl", "addr:housenumber": "1", "addr:postcode": "37-700", "addr:street": "Wojciecha Brudzewskiego", "amenity": "pharmacy", "dispensing": "yes", "healthcare": "pharmacy", "indoor": "area", "level": "0", "name": "Farmacja 24", "opening_hours": "Mo-Sa 09:00-21:00; Su 10:00-20:00 \"W niedziele handlowe\"", "phone": "+48 733 13 19", "ref:csioz": "1165189"}}, {"type": "way", "id": 977926250, "nodes": [9048791333, 9048791334, 9048791335, 9048791331, 9048791333], "tags": {"amenity": "pharmacy", "dispensing": "yes", "healthcare": "pharmacy", "indoor": "area", "ref:csioz": "1231419"}}, {"type": "way", "id": 979893515, "nodes": [9064592812, 9064815715, 2449749115, 2449749040, 2449748995, 9064592812], "tags": {"addr:city": "Przemy\u015bl", "addr:housenumber": "52", "addr:postcode": "37-700", "addr:street": "Aleksandra Dworskiego", "amenity": "pharmacy", "dispensing": "yes", "healthcare": "pharmacy", "indoor": "area", "name": "Belissa", "opening_hours": "Mo-Fr 08:00-19:00; Sa 08:00-14:00; Su,PH off", "phone": "+48 16 675 12 05", "ref:csioz": "1151314"}}, {"type": "way", "id": 1048804877, "nodes": [560183011, 9639893531, 9639893523, 4026942688, 9639893524, 560183011], "tags": {"addr:city": "Przemy\u015bl", "addr:housenumber": "11", "addr:postcode": "37-700", "addr:street": "Sportowa", "amenity": "pharmacy", "brand": "Dr. Max", "brand:wikidata": "Q56317371", "brand:wikipedia": "fr:Dr.Max", "dispensing": "yes", "healthcare": "pharmacy", "indoor": "area", "name": "Dr. Max", "opening_hours": "Mo-Sa 08:00-20:00; Su 11:00-19:00 \"W niedziele handlowe\"", "phone": "+48 16 676 95 95", "ref:csioz": "1141211", "source": "http://ump.waw.pl/ retrieved 01:32:52 09/02/09 (UMP-Przemysl/src/POI-Przemysl.pnt-converted.txt)"}}, {"type": "way", "id": 1358118203, "nodes": [12568356856, 12568356857, 12568356858, 12568356859, 12568356860, 12568356856], "tags": {"addr:city": "Przemy\u015bl", "addr:housenumber": "18", "addr:postcode": "37-700", "addr:street": "3-go Maja - os. Hoffmanowej", "amenity": "pharmacy", "building": "yes", "building:levels": "2", "healthcare": "pharmacy", "name": "Emka", "opening_hours": "zamkni\u0119te", "roof:levels": "1", "roof:shape": "mansard"}}, {"type": "way", "id": 1389934270, "nodes": [12865574429, 3211405153, 12865574430, 12865574431, 12865574429], "tags": {"amenity": "pharmacy", "check_date": "2025-05-24", "healthcare": "pharmacy", "indoor": "room", "level": "0", "level:ref": "0", "name": "Apteka Medex"}}]}