{"version": 0.6, "generator": "Overpass API 0.7.62.8 e802775f", "osm3s": {"timestamp_osm_base": "2025-10-06T09:06:59Z", "copyright": "The data included in this document is from www.openstreetmap.org. The data is made available under ODbL."}, "elements": [{"type": "node", "id": 530783917, "lat": 56.6632466, "lon": 22.49144, "tags": {"addr:city": "Saldus", "addr:country": "LV", "addr:district": "Saldus novads", "addr:housenumber": "15", "addr:postcode": "LV-3801", "addr:street": "Liel\u0101 iela", "amenity": "pharmacy", "healthcare": "pharmacy", "name": "Za\u013c\u0101 aptieka", "opening_hours": "Mo-Su 08:00-21:00; Su 08:00-18:00", "operator": "Mana aptieka", "ref:LV:addr": "102099593"}}, {"type": "node", "id": 3266772961, "lat": 56.6660094, "lon": 22.4922156, "tags": {"addr:city": "Saldus", "addr:country": "LV", "addr:district": "Saldus novads", "addr:housenumber": "1A", "addr:postcode": "LV-3801", "addr:street": "Liel\u0101 iela", "amenity": "pharmacy", "brand": "M\u0113ness aptieka", "brand:wikidata": "Q57583051", "healthcare": "pharmacy", "name": "M\u0113ness aptieka", "opening_hours": "Mo-Fr 08:00-19:00; Sa 08:00-15:00", "opening_hours:url": "http://www.menessaptieka.lv/lv/contacts/?city=25", "operator": "M\u0113ness aptieka", "phone": "+371 20 377 434;+371 67 617 805", "ref:LV:addr": "102099624", "website": "https://www.menessaptieka.lv"}}, {"type": "node", "id": 3623144541, "lat": 56.6682236, "lon": 22.489869, "tags": {"addr:city": "Saldus", "addr:country": "LV", "addr:district": "Saldus novads", "addr:housenumber": "30", "addr:postcode": "LV-3801", "addr:street": "Br\u012bv\u012bbas iela", "amenity": "pharmacy", "brand": "M\u0113ness aptieka", "brand:wikidata": "Q57583051", "healthcare": "pharmacy", "name": "M\u0113ness aptieka", "opening_hours": "Mo-Sa 08:00-21:00; Su 09:00-20:00", "operator": "M\u0113ness aptieka", "phone": "+371 20 377 562;+371 67 617 805", "ref:LV:addr": "102098253", "website": "https://www.menessaptieka.lv"}}, {"type": "node", "id": 3623151462, "lat": 56.6658543, "lon": 22.4985755, "tags": {"addr:city": "Saldus", "addr:country": "LV", "addr:district": "Saldus novads", "addr:housenumber": "20", "addr:postcode": "LV-3801", "addr:street": "R\u012bgas iela", "amenity": "pharmacy", "healthcare": "pharmacy", "name": "Za\u013c\u0101 aptieka", "opening_hours": "Mo-Fr 08:00-20:00; Sa 08:00-16:00", "operator": "Mana aptieka", "ref:LV:addr": "102100391"}}, {"type": "node", "id": 10870875605, "lat": 56.6952046, "lon": 22.4494207, "tags": {"addr:city": "Druva", "addr:country": "LV", "addr:district": "Saldus novads", "addr:housenumber": "15/17", "addr:postcode": "LV-3862", "addr:street": "Vien\u012bbas iela", "addr:subdistrict": "Saldus pagasts", "amenity": "pharmacy", "brand": "M\u0113ness aptieka", "brand:wikidata": "Q57583051", "healthcare": "pharmacy", "name": "M\u0113ness aptieka", "opening_hours": "Mo-Fr 08:00-16:00", "phone": "+371 20 377 430;+371 67 617 805", "ref:LV:addr": "101267937", "website": "https://www.menessaptieka.lv"}}, {"type": "node", "id": 12350682222, "lat": 56.6837207, "lon": 22.5665398, "tags": {"addr:city": "Broc\u0113ni", "addr:country": "LV", "addr:district": "Saldus novads", "addr:housenumber": "1A", "addr:postcode": "LV-3851", "addr:street": "Lielcieceres iela", "amenity": "pharmacy", "healthcare": "pharmacy", "name": "Apotheka", "opening_hours": "Mo-Sa 08:00-19:00", "phone": "+371 63 822 544", "ref:LV:addr": "106195944", "website": "https://www.apotheka.lv"}}, {"type": "node", "id": 12902056242, "lat": 56.6716355, "lon": 22.4915033, "tags": {"addr:city": "Saldus", "addr:country": "LV", "addr:district": "Saldus novads", "addr:housenumber": "3", "addr:postcode": "LV-3801", "addr:street": "Slimn\u012bcas iela", "amenity": "pharmacy", "brand": "M\u0113ness aptieka", "brand:wikidata": "Q57583051", "healthcare": "pharmacy", "name": "M\u0113ness aptieka", "opening_hours": "Mo-Fr 08:00-16:00", "phone": "+371 20 377 433;+371 67 617 805", "ref:LV:addr": "101261725", "website": "https://www.menessaptieka.lv"}}]}