{"version": 0.6, "generator": "Overpass API 0.7.62.8 e802775f", "osm3s": {"timestamp_osm_base": "2025-10-06T09:01:48Z", "copyright": "The data included in this document is from www.openstreetmap.org. The data is made available under ODbL."}, "elements": [{"type": "node", "id": 3826113586, "lat": 40.2161593, "lon": 28.3595404, "tags": {"addr:city": "Karacabey/Bursa", "amenity": "pharmacy", "healthcare": "pharmacy", "name": "Karacabey Eczanesi", "phone": "+90 224 676 7727"}}, {"type": "node", "id": 3826438937, "lat": 40.2159755, "lon": 28.3586108, "tags": {"addr:city": "Karacabey/Bursa", "amenity": "pharmacy", "healthcare": "pharmacy", "name": "Funda Eczanesi"}}, {"type": "node", "id": 3826496142, "lat": 40.2154864, "lon": 28.358944, "tags": {"addr:city": "Karacabey/Bursa", "addr:street": "Bursa Cad.", "amenity": "pharmacy", "healthcare": "pharmacy", "name": "\u015eifa Eczanesi", "operator": "Ecz. Oray \u00d6ZER", "phone": "+90 224 676 1147"}}, {"type": "node", "id": 3826496567, "lat": 40.215133, "lon": 28.3587697, "tags": {"addr:city": "Karacabey/Bursa", "addr:street": "Bursa Cad.", "amenity": "pharmacy", "healthcare": "pharmacy", "name": "Derman Eczanesi", "phone": "+90 224 676 1573"}}, {"type": "node", "id": 3828082718, "lat": 40.2090852, "lon": 28.3668991, "tags": {"addr:city": "Karacabey/Bursa", "amenity": "pharmacy", "healthcare": "pharmacy", "name": "G\u00fcne\u015f Eczanesi", "phone": "+90 224 676 2088"}}, {"type": "node", "id": 3828082740, "lat": 40.2093844, "lon": 28.3665167, "tags": {"addr:city": "Karacabey/Bursa", "amenity": "pharmacy", "healthcare": "pharmacy", "name": "Yeni Eczane", "phone": "+90 224 676 1067"}}, {"type": "node", "id": 3828143523, "lat": 40.2142651, "lon": 28.3547801, "tags": {"addr:city": "Karacabey/Bursa", "amenity": "pharmacy", "healthcare": "pharmacy", "name": "Garaj Eczanesi"}}, {"type": "node", "id": 3828143529, "lat": 40.2142004, "lon": 28.3543998, "tags": {"addr:city": "Karacabey/Bursa", "amenity": "pharmacy", "healthcare": "pharmacy", "name": "Yal\u00e7\u0131n Eczanesi"}}, {"type": "node", "id": 3830303397, "lat": 40.2162482, "lon": 28.3595881, "tags": {"addr:city": "Karacabey/Bursa", "addr:street": "Panay\u0131r Cad.", "amenity": "pharmacy", "healthcare": "pharmacy", "name": "Sa\u011fl\u0131k Eczanesi", "phone": "+90 224 676 3010"}}, {"type": "node", "id": 9357650954, "lat": 40.0373017, "lon": 28.4083834, "tags": {"addr:city": "Bursa", "addr:district": "Mustafakemalpa\u015fa", "amenity": "pharmacy", "dispensing": "yes", "healthcare": "pharmacy", "name": "Durumbey Eczanesi", "phone": "+90 224 614 1574"}}, {"type": "node", "id": 11455095469, "lat": 40.1190221, "lon": 28.4283204, "tags": {"amenity": "pharmacy", "name": "\u00d6zman Eczanesi", "phone": "+90 224 635 2278"}}, {"type": "node", "id": 11455110870, "lat": 40.217087, "lon": 28.3686992, "tags": {"amenity": "pharmacy", "healthcare": "pharmacy", "name": "Sezer Eczanesi", "phone": "+90 224 662 1000"}}, {"type": "node", "id": 11455110871, "lat": 40.2109673, "lon": 28.3610712, "tags": {"addr:housenumber": "76", "addr:street": "Ortaokul Caddesi", "amenity": "pharmacy", "healthcare": "pharmacy", "name": "Hayat Eczanesi", "phone": "+90 224 660 0006"}}, {"type": "node", "id": 11455110872, "lat": 40.2123322, "lon": 28.3591239, "tags": {"amenity": "pharmacy", "healthcare": "pharmacy", "name": "Or\u00e7un Eczanesi", "phone": "+90 224 676 8380"}}, {"type": "node", "id": 11455110873, "lat": 40.2072243, "lon": 28.3487898, "tags": {"amenity": "pharmacy", "healthcare": "pharmacy", "name": "Ay\u00e7a Eczanesi", "phone": "+90 224 676 6525"}}, {"type": "node", "id": 11455110874, "lat": 40.2171282, "lon": 28.3587764, "tags": {"amenity": "pharmacy", "healthcare": "pharmacy", "name": "Babada\u011fl\u0131 Eczanesi", "phone": "+90 224 676 1992"}}, {"type": "node", "id": 11455110969, "lat": 40.2281475, "lon": 28.3675251, "tags": {"amenity": "pharmacy", "healthcare": "pharmacy", "name": "Tar\u00e7\u0131n Eczanesi", "phone": "+90 224 676 3535"}}, {"type": "node", "id": 11455110970, "lat": 40.2119107, "lon": 28.3588655, "tags": {"amenity": "pharmacy", "healthcare": "pharmacy", "name": "M\u00fcberra Eczanesi", "phone": "+90 224 662 2127"}}, {"type": "node", "id": 11455110971, "lat": 40.2072294, "lon": 28.348522, "tags": {"amenity": "pharmacy", "healthcare": "pharmacy", "name": "Yeni Garaj Eczanesi", "phone": "+90 224 676 2981"}}, {"type": "node", "id": 11455110972, "lat": 40.2160391, "lon": 28.3580366, "tags": {"amenity": "pharmacy", "healthcare": "pharmacy", "name": "Seher Eczanesi", "phone": "+90 224 677 0500"}}, {"type": "node", "id": 11455110973, "lat": 40.2172371, "lon": 28.3584305, "tags": {"amenity": "pharmacy", "healthcare": "pharmacy", "name": "Esen Eczanesi", "phone": "+90 224 677 0237"}}, {"type": "node", "id": 11455110974, "lat": 40.2174484, "lon": 28.3587856, "tags": {"amenity": "pharmacy", "healthcare": "pharmacy", "name": "I\u015f\u0131l Eczanesi", "phone": "+90 224 676 6081"}}, {"type": "node", "id": 11455111069, "lat": 40.2171121, "lon": 28.3689852, "tags": {"amenity": "pharmacy", "healthcare": "pharmacy", "name": "Erol Eczanesi", "phone": "+90 224 676 5555"}}, {"type": "node", "id": 11455111070, "lat": 40.2045506, "lon": 28.3590437, "tags": {"amenity": "pharmacy", "healthcare": "pharmacy", "name": "Asl\u0131 Eczanesi", "phone": "+90 224 676 1615"}}, {"type": "node", "id": 11455111071, "lat": 40.2154142, "lon": 28.3577674, "tags": {"amenity": "pharmacy", "healthcare": "pharmacy", "name": "Erdem Eczanesi", "phone": "+90 224 676 3425"}}, {"type": "node", "id": 11455111169, "lat": 40.2115858, "lon": 28.3615446, "tags": {"addr:housenumber": "43/A", "addr:street": "Ortaokul Caddesi", "amenity": "pharmacy", "healthcare": "pharmacy", "name": "\u00c7\u0131nar Eczanesi", "phone": "+90 224 662 2062"}}, {"type": "node", "id": 11455111269, "lat": 40.2072357, "lon": 28.3483104, "tags": {"amenity": "pharmacy", "healthcare": "pharmacy", "name": "Yeni Cem Eczanesi", "phone": "+90 224 676 0097"}}, {"type": "node", "id": 11455111469, "lat": 40.2156964, "lon": 28.3580192, "tags": {"amenity": "pharmacy", "healthcare": "pharmacy", "name": "G\u00fcng\u00f6rm\u00fc\u015f Eczanesi", "phone": "+90 224 676 2907"}}, {"type": "node", "id": 11658166169, "lat": 40.0183545, "lon": 28.3980568, "tags": {"amenity": "pharmacy", "healthcare": "pharmacy", "name": "Yal\u0131n Eczanesi", "phone": "+90 224 647 2121"}}, {"type": "node", "id": 11658166170, "lat": 40.0299709, "lon": 28.3655493, "tags": {"amenity": "pharmacy", "healthcare": "pharmacy", "name": "Ergin Eczanesi", "phone": "+90 224 614 3589"}}, {"type": "node", "id": 11658166171, "lat": 40.0369409, "lon": 28.383803, "tags": {"amenity": "pharmacy", "healthcare": "pharmacy", "name": "Karaman Sa\u011fl\u0131k Eczanesi", "phone": "+90 224 613 8000"}}, {"type": "node", "id": 11658166172, "lat": 40.0300074, "lon": 28.3954456, "tags": {"amenity": "pharmacy", "healthcare": "pharmacy", "name": "Hilal Eczanesi", "phone": "+90 224 612 1266"}}, {"type": "node", "id": 11658166173, "lat": 40.0328525, "lon": 28.3986882, "tags": {"addr:housenumber": "22", "addr:street": "Yal\u0131nta\u015f Caddesi", "amenity": "pharmacy", "healthcare": "pharmacy", "name": "Karaman Eczanesi", "phone": "+90 224 613 2030"}}, {"type": "node", "id": 11658166174, "lat": 40.0336149, "lon": 28.4053791, "tags": {"amenity": "pharmacy", "healthcare": "pharmacy", "name": "\u00d6zkocaman Eczanesi", "phone": "+90 224 613 1300"}}, {"type": "node", "id": 11658166175, "lat": 40.0346479, "lon": 28.4134541, "tags": {"amenity": "pharmacy", "healthcare": "pharmacy", "name": "Azim Eczanesi", "phone": "+90 224 613 1129"}}, {"type": "node", "id": 11658166176, "lat": 40.0360744, "lon": 28.4146271, "tags": {"amenity": "pharmacy", "healthcare": "pharmacy", "name": "Nergis Eczanesi", "phone": "+90 224 613 0809"}}, {"type": "node", "id": 11658166177, "lat": 40.0378271, "lon": 28.4111052, "tags": {"amenity": "pharmacy", "healthcare": "pharmacy", "name": "Yeni Eczanesi", "phone": "+90 224 613 1109"}}, {"type": "node", "id": 11658166178, "lat": 40.0360498, "lon": 28.4113079, "tags": {"amenity": "pharmacy", "healthcare": "pharmacy", "name": "Ayhan Eczanesi", "phone": "+90 224 613 1927"}}, {"type": "node", "id": 11658166179, "lat": 40.036374, "lon": 28.410673, "tags": {"amenity": "pharmacy", "healthcare": "pharmacy", "name": "G\u00fcltekin Eczanesi", "phone": "+90 224 613 1337"}}, {"type": "node", "id": 11658166180, "lat": 40.0363701, "lon": 28.4101289, "tags": {"amenity": "pharmacy", "healthcare": "pharmacy", "name": "\u00c7ar\u015f\u0131 Eczanesi", "phone": "+90 224 613 1188"}}, {"type": "node", "id": 11658166181, "lat": 40.0348657, "lon": 28.4105268, "tags": {"amenity": "pharmacy", "healthcare": "pharmacy", "name": "Bozkurt Eczanesi", "phone": "+90 224 614 1781"}}, {"type": "node", "id": 11658166182, "lat": 40.0346549, "lon": 28.41002, "tags": {"amenity": "pharmacy", "healthcare": "pharmacy", "name": "\u015eifa Eczanesi", "phone": "+90 224 613 1747"}}, {"type": "node", "id": 11658166183, "lat": 40.0388278, "lon": 28.4077736, "tags": {"amenity": "pharmacy", "healthcare": "pharmacy", "name": "G\u00fclser Eczanesi", "phone": "+90 224 613 4210"}}, {"type": "node", "id": 11658166184, "lat": 40.0391679, "lon": 28.4082249, "tags": {"amenity": "pharmacy", "healthcare": "pharmacy", "name": "Karaca Sa\u011fl\u0131k Eczanesi", "phone": "+90 224 618 0041"}}, {"type": "node", "id": 11658166269, "lat": 40.0302093, "lon": 28.3656435, "tags": {"amenity": "pharmacy", "healthcare": "pharmacy", "name": "\u00c7al\u0131\u015fkan Eczanesi", "phone": "+90 224 618 1211"}}, {"type": "node", "id": 11658166270, "lat": 40.0327801, "lon": 28.3847587, "tags": {"amenity": "pharmacy", "healthcare": "pharmacy", "name": "Erdem Eczanesi", "phone": "+90 224 618 0025"}}, {"type": "node", "id": 11658166271, "lat": 40.0382799, "lon": 28.4065901, "tags": {"amenity": "pharmacy", "healthcare": "pharmacy", "name": "Sel Eczanesi", "phone": "+90 224 614 1319"}}, {"type": "node", "id": 11658166469, "lat": 40.030965, "lon": 28.3653848, "tags": {"amenity": "pharmacy", "healthcare": "pharmacy", "name": "\u00c7\u0131rpan Eczanesi", "phone": "+90 224 613 2548"}}, {"type": "node", "id": 11658166470, "lat": 40.0334564, "lon": 28.3884213, "tags": {"amenity": "pharmacy", "healthcare": "pharmacy", "name": "Ersin Eczanesi", "phone": "+90 224 614 2424"}}, {"type": "node", "id": 11658166471, "lat": 40.0347698, "lon": 28.4101515, "tags": {"amenity": "pharmacy", "healthcare": "pharmacy", "name": "Erdo\u011fan Eczanesi", "phone": "+90 224 613 1755"}}, {"type": "node", "id": 11658166569, "lat": 40.0341183, "lon": 28.4139167, "tags": {"amenity": "pharmacy", "healthcare": "pharmacy", "name": "Merkez Eczanesi", "phone": "+90 224 612 2960"}}, {"type": "node", "id": 11658166570, "lat": 40.0351488, "lon": 28.4136756, "tags": {"amenity": "pharmacy", "healthcare": "pharmacy", "name": "Uluta\u015f Eczanesi", "phone": "+90 224 613 1643"}}, {"type": "node", "id": 11658166571, "lat": 40.0375051, "lon": 28.4117278, "tags": {"amenity": "pharmacy", "healthcare": "pharmacy", "name": "\u00c7elebi Eczanesi", "phone": "+90 224 613 8236"}}, {"type": "node", "id": 11658166572, "lat": 40.034417, "lon": 28.4095042, "tags": {"amenity": "pharmacy", "healthcare": "pharmacy", "name": "Trakyal\u0131 Eczanesi", "phone": "+90 224 613 9795"}}, {"type": "node", "id": 11658166573, "lat": 40.0405838, "lon": 28.406628, "tags": {"amenity": "pharmacy", "healthcare": "pharmacy", "name": "Sava\u015f Eczanesi", "phone": "+90 224 613 9594"}}, {"type": "node", "id": 11658166574, "lat": 40.0407067, "lon": 28.4067134, "tags": {"amenity": "pharmacy", "healthcare": "pharmacy", "name": "Derman Eczanesi", "phone": "+90 224 613 9130"}}, {"type": "node", "id": 11658166669, "lat": 40.0397917, "lon": 28.4065994, "tags": {"amenity": "pharmacy", "healthcare": "pharmacy", "name": "Beyza Altay Eczanesi", "phone": "+90 224 614 1414"}}]}