{"version": 0.6, "generator": "Overpass API 0.7.62.8 e802775f", "osm3s": {"timestamp_osm_base": "2025-10-06T08:47:24Z", "copyright": "The data included in this document is from www.openstreetmap.org. The data is made available under ODbL."}, "elements": [{"type": "node", "id": 10823581206, "lat": 39.1869716, "lon": 27.6229914, "tags": {"amenity": "pharmacy", "healthcare": "pharmacy", "name": "Saliha Bet\u00fcl Eczanesi", "phone": "+90 236 612 2855"}}, {"type": "node", "id": 10823581207, "lat": 39.1918985, "lon": 27.6161893, "tags": {"amenity": "pharmacy", "healthcare": "pharmacy", "name": "Nur Eczanesi", "phone": "+90 236 613 2566"}}, {"type": "node", "id": 10823581208, "lat": 39.191424, "lon": 27.6150186, "tags": {"amenity": "pharmacy", "healthcare": "pharmacy", "name": "Can Eczanesi", "phone": "+90 236 613 7781"}}, {"type": "node", "id": 10823581209, "lat": 39.1799308, "lon": 27.6110132, "tags": {"amenity": "pharmacy", "healthcare": "pharmacy", "name": "\u00d6ktem Eczanesi", "phone": "+90 236 613 1316"}}, {"type": "node", "id": 10823581210, "lat": 39.1848591, "lon": 27.609262, "tags": {"amenity": "pharmacy", "healthcare": "pharmacy", "name": "\u00c7ak\u0131r Eczanesi", "phone": "+90 236 613 1121"}}, {"type": "node", "id": 10823581211, "lat": 39.1827869, "lon": 27.6058994, "tags": {"amenity": "pharmacy", "healthcare": "pharmacy", "name": "Toprak Eczanesi", "phone": "+90 236 612 8799"}}, {"type": "node", "id": 10823581212, "lat": 39.1832129, "lon": 27.6003921, "tags": {"amenity": "pharmacy", "healthcare": "pharmacy", "name": "G\u00fcven Eczanesi", "phone": "+90 236 612 2662"}}, {"type": "node", "id": 10823581213, "lat": 39.1904564, "lon": 27.5938147, "tags": {"amenity": "pharmacy", "healthcare": "pharmacy", "name": "Ece Eczanesi", "phone": "+90 236 612 9247"}}, {"type": "node", "id": 10823581214, "lat": 39.1860143, "lon": 27.592981, "tags": {"amenity": "pharmacy", "healthcare": "pharmacy", "name": "U\u00e7ar Eczanesi", "phone": "+90 236 613 6018"}}, {"type": "node", "id": 10823581215, "lat": 39.1860958, "lon": 27.5930403, "tags": {"amenity": "pharmacy", "healthcare": "pharmacy", "name": "Ya\u015fam Eczanesi", "phone": "+90 236 612 9860"}}, {"type": "node", "id": 10823581216, "lat": 39.1858923, "lon": 27.5929236, "tags": {"amenity": "pharmacy", "healthcare": "pharmacy", "name": "Yaz\u0131c\u0131 Eczanesi", "phone": "+90 236 613 6181"}}, {"type": "node", "id": 10823581217, "lat": 39.1857946, "lon": 27.5612039, "tags": {"amenity": "pharmacy", "healthcare": "pharmacy", "name": "Er\u015fan Eczanesi", "phone": "+90 552 507 2645"}}, {"type": "node", "id": 10823583106, "lat": 39.18152, "lon": 27.6085287, "tags": {"amenity": "pharmacy", "healthcare": "pharmacy", "name": "Hayat Eczanesi", "phone": "+90 236 613 2654"}}, {"type": "node", "id": 10823583107, "lat": 39.1821528, "lon": 27.6068368, "tags": {"amenity": "pharmacy", "healthcare": "pharmacy", "name": "Sa\u011fl\u0131k Eczanesi", "phone": "+90 236 613 5917"}}, {"type": "node", "id": 10823583108, "lat": 39.1813915, "lon": 27.6029352, "tags": {"amenity": "pharmacy", "healthcare": "pharmacy", "name": "G\u00fcng\u00f6r Eczanesi", "phone": "+90 236 613 4446"}}, {"type": "node", "id": 10823583109, "lat": 39.1892206, "lon": 27.586814, "tags": {"amenity": "pharmacy", "healthcare": "pharmacy", "name": "Duygu Eczanesi", "phone": "+90 236 615 0703"}}, {"type": "node", "id": 10823584605, "lat": 39.204019, "lon": 27.6248572, "tags": {"amenity": "pharmacy", "healthcare": "pharmacy", "name": "Acil \u015eifalar Eczanesi", "phone": "+90 236 613 8322"}}, {"type": "node", "id": 10823584606, "lat": 39.1974835, "lon": 27.6230517, "tags": {"amenity": "pharmacy", "healthcare": "pharmacy", "name": "Bay\u0131rlar Eczanesi", "phone": "+90 236 612 2612"}}, {"type": "node", "id": 10823584607, "lat": 39.1800843, "lon": 27.6112704, "tags": {"amenity": "pharmacy", "healthcare": "pharmacy", "name": "Burcu Eczanesi", "phone": "+90 236 614 0228"}}, {"type": "node", "id": 10823584608, "lat": 39.184769, "lon": 27.6085203, "tags": {"amenity": "pharmacy", "healthcare": "pharmacy", "name": "Cihan Eczanesi", "phone": "+90 236 613 1266"}}, {"type": "node", "id": 10823584609, "lat": 39.1849756, "lon": 27.6090497, "tags": {"amenity": "pharmacy", "healthcare": "pharmacy", "name": "Be\u015fyol Eczanesi", "phone": "+90 236 612 6253"}}, {"type": "node", "id": 10823584610, "lat": 39.184924, "lon": 27.6091816, "tags": {"amenity": "pharmacy", "healthcare": "pharmacy", "name": "Nihato\u011flu Eczanesi", "phone": "+90 236 613 5917"}}, {"type": "node", "id": 10823584611, "lat": 39.1830302, "lon": 27.6061833, "tags": {"amenity": "pharmacy", "healthcare": "pharmacy", "name": "Sevde Tilki Eczanesi", "phone": "+90 236 613 9568"}}, {"type": "node", "id": 10823584612, "lat": 39.1830009, "lon": 27.6045636, "tags": {"amenity": "pharmacy", "healthcare": "pharmacy", "name": "Bedirhan Eczanesi", "phone": "+90 236 612 6264"}}, {"type": "node", "id": 10823584613, "lat": 39.1815408, "lon": 27.6030712, "tags": {"amenity": "pharmacy", "healthcare": "pharmacy", "name": "Bilge Eczanesi", "phone": "+90 236 613 1094"}}, {"type": "node", "id": 10823584614, "lat": 39.1868982, "lon": 27.602617, "tags": {"amenity": "pharmacy", "healthcare": "pharmacy", "name": "Bar\u0131\u015f Eczanesi", "phone": "+90 236 614 1313"}}, {"type": "node", "id": 10823584615, "lat": 39.1871106, "lon": 27.6026919, "tags": {"amenity": "pharmacy", "healthcare": "pharmacy", "name": "Derin Eczanesi", "phone": "+90 236 613 5421"}}, {"type": "node", "id": 10823584616, "lat": 39.1858095, "lon": 27.5936909, "tags": {"amenity": "pharmacy", "healthcare": "pharmacy", "name": "Karadeniz Eczanesi", "phone": "+90 236 612 6262"}}, {"type": "node", "id": 10823584617, "lat": 39.185901, "lon": 27.5601539, "tags": {"amenity": "pharmacy", "healthcare": "pharmacy", "name": "G\u00f6zde Eczanesi", "phone": "+90 236 615 0576"}}, {"type": "node", "id": 10823584805, "lat": 39.1871127, "lon": 27.6029554, "tags": {"amenity": "pharmacy", "healthcare": "pharmacy", "name": "G\u00fclg\u00fczeli Eczanesi", "phone": "+90 236 612 1072"}}, {"type": "node", "id": 11147865206, "lat": 38.9369118, "lon": 27.7021471, "tags": {"amenity": "pharmacy", "name": "Ball\u0131ca Eczanesi", "phone": "+90 236 437 4037"}}, {"type": "node", "id": 11147865207, "lat": 39.0802431, "lon": 27.7042663, "tags": {"amenity": "pharmacy", "name": "Bak\u0131r Eczanesi", "phone": "+90 236 591 7227"}}, {"type": "node", "id": 11147865208, "lat": 38.9189983, "lon": 27.8080828, "tags": {"amenity": "pharmacy", "healthcare": "pharmacy", "name": "Ece Eczanesi", "phone": "+90 236 414 4849"}}, {"type": "node", "id": 11147865209, "lat": 38.9067745, "lon": 27.8254945, "tags": {"amenity": "pharmacy", "healthcare": "pharmacy", "name": "Evim Eczanesi", "phone": "+90 236 412 1001"}}, {"type": "node", "id": 11147867706, "lat": 38.9851112, "lon": 27.776874, "tags": {"amenity": "pharmacy", "name": "S\u0131hhat Eczanesi", "phone": "+90 236 431 2490"}}, {"type": "node", "id": 11147867707, "lat": 38.9860486, "lon": 27.7756705, "tags": {"amenity": "pharmacy", "name": "Can Eczanesi", "phone": "+90 236 431 2134"}}, {"type": "node", "id": 11147867708, "lat": 38.9911462, "lon": 27.6784215, "tags": {"amenity": "pharmacy", "name": "F\u0131rat Eczanesi", "phone": "+90 236 433 1011"}}, {"type": "node", "id": 11147867709, "lat": 38.885353, "lon": 27.7690909, "tags": {"amenity": "pharmacy", "healthcare": "pharmacy", "name": "Kayal\u0131o\u011flu Eczanesi", "phone": "+90 236 427 2371"}}, {"type": "node", "id": 11147867710, "lat": 38.9122503, "lon": 27.8261065, "tags": {"amenity": "pharmacy", "healthcare": "pharmacy", "name": "Baysal Eczanesi", "phone": "+90 236 413 8985"}}, {"type": "node", "id": 11147871805, "lat": 38.9187626, "lon": 27.8254315, "tags": {"amenity": "pharmacy", "name": "Halk Eczanesi", "phone": "+90 236 413 0009"}}, {"type": "node", "id": 11147872305, "lat": 38.9104104, "lon": 27.8442888, "tags": {"amenity": "pharmacy", "healthcare": "pharmacy", "name": "\u015eafak Eczanesi", "phone": "+90 226 413 1707"}}, {"type": "node", "id": 11147872805, "lat": 38.9134874, "lon": 27.8315553, "tags": {"amenity": "pharmacy", "healthcare": "pharmacy", "name": "Esra Eczanesi", "phone": "+90 236 412 1983"}}, {"type": "node", "id": 11148515505, "lat": 38.9133323, "lon": 27.8367289, "tags": {"amenity": "pharmacy", "healthcare": "pharmacy", "name": "\u0130\u015f\u00e7i Eczanesi", "phone": "+90 236 414 2804"}}, {"type": "node", "id": 11148515605, "lat": 38.9133689, "lon": 27.8356219, "tags": {"amenity": "pharmacy", "healthcare": "pharmacy", "name": "H\u00fcrriyet Eczanesi", "phone": "+90 236 414 7557"}}, {"type": "node", "id": 11148515606, "lat": 38.9138432, "lon": 27.8313953, "tags": {"amenity": "pharmacy", "healthcare": "pharmacy", "name": "Co\u015fan Eczanesi", "phone": "+90 236 414 7582"}}, {"type": "node", "id": 11148515607, "lat": 38.9145076, "lon": 27.8311135, "tags": {"amenity": "pharmacy", "healthcare": "pharmacy", "name": "Ahsen Eczanesi", "phone": "+90 236 414 3344"}}, {"type": "node", "id": 11148515608, "lat": 38.9146428, "lon": 27.831078, "tags": {"amenity": "pharmacy", "healthcare": "pharmacy", "name": "Ahsen Eczanesi", "phone": "+90 236 412 1222"}}, {"type": "node", "id": 11148515609, "lat": 38.915259, "lon": 27.830814, "tags": {"amenity": "pharmacy", "healthcare": "pharmacy", "name": "Yi\u011fit Eczanesi", "phone": "+90 236 412 0101"}}, {"type": "node", "id": 11148515610, "lat": 38.9170958, "lon": 27.8452977, "tags": {"amenity": "pharmacy", "healthcare": "pharmacy", "name": "Bilgi\u00e7 Eczanesi", "phone": "+90 236 412 2434"}}, {"type": "node", "id": 11148515611, "lat": 38.9171293, "lon": 27.8449428, "tags": {"amenity": "pharmacy", "healthcare": "pharmacy", "name": "Hisar Eczanesi", "phone": "+90 236 413 3332"}}, {"type": "node", "id": 11148515612, "lat": 38.9222807, "lon": 27.8410569, "tags": {"amenity": "pharmacy", "healthcare": "pharmacy", "name": "Arel Eczanesi", "phone": "+90 236 414 7683"}}, {"type": "node", "id": 11148515705, "lat": 38.9131187, "lon": 27.8362045, "tags": {"amenity": "pharmacy", "healthcare": "pharmacy", "name": "G\u00fclin Eczanesi", "phone": "+90 236 413 4813"}}, {"type": "node", "id": 11148515706, "lat": 38.9131015, "lon": 27.8359967, "tags": {"amenity": "pharmacy", "healthcare": "pharmacy", "name": "Ergun Eczanesi", "phone": "+90 236 414 5862"}}, {"type": "node", "id": 11148515707, "lat": 38.9148508, "lon": 27.8310028, "tags": {"amenity": "pharmacy", "healthcare": "pharmacy", "name": "Yeni Dutlulu Eczanesi", "phone": "+90 236 414 6221"}}, {"type": "node", "id": 11148515709, "lat": 38.9196105, "lon": 27.8398249, "tags": {"amenity": "pharmacy", "healthcare": "pharmacy", "name": "Kahya Eczanesi", "phone": "+90 236 414 7371"}}, {"type": "node", "id": 11148515805, "lat": 38.9140307, "lon": 27.8313325, "tags": {"amenity": "pharmacy", "healthcare": "pharmacy", "name": "Sa\u011fl\u0131k Eczanesi", "phone": "+90 236 414 4051"}}, {"type": "node", "id": 11148515806, "lat": 38.9147387, "lon": 27.8310411, "tags": {"amenity": "pharmacy", "healthcare": "pharmacy", "name": "Elmas Eczanesi", "phone": "+90 236 412 1222"}}, {"type": "node", "id": 11148515807, "lat": 38.914944, "lon": 27.8309385, "tags": {"amenity": "pharmacy", "healthcare": "pharmacy", "name": "Candan Eczanesi", "phone": "+90 236 414 2427"}}, {"type": "node", "id": 11148515808, "lat": 38.921152, "lon": 27.8412152, "tags": {"amenity": "pharmacy", "healthcare": "pharmacy", "name": "Yeni Co\u015fkun Eczanesi", "phone": "+90 236 414 2521"}}, {"type": "node", "id": 11148515905, "lat": 38.9142457, "lon": 27.8314141, "tags": {"amenity": "pharmacy", "healthcare": "pharmacy", "name": "Kaptano\u011flu Eczanesi", "phone": "+90 236 413 5552"}}, {"type": "node", "id": 11148515906, "lat": 38.9143268, "lon": 27.8311855, "tags": {"amenity": "pharmacy", "healthcare": "pharmacy", "name": "Murat Eczanesi", "phone": "+90 236 414 8687"}}, {"type": "node", "id": 11148515907, "lat": 38.915028, "lon": 27.830865, "tags": {"amenity": "pharmacy", "healthcare": "pharmacy", "name": "Ba\u015fyi\u011fit Eczanesi", "phone": "+90 236 412 9595"}}, {"type": "node", "id": 11148515908, "lat": 38.9151112, "lon": 27.8310456, "tags": {"amenity": "pharmacy", "healthcare": "pharmacy", "name": "Merkez Eczanesi", "phone": "+90 236 413 4723"}}, {"type": "node", "id": 11148515909, "lat": 38.9199817, "lon": 27.8418588, "tags": {"amenity": "pharmacy", "healthcare": "pharmacy", "name": "Efe Eczanesi", "phone": "+90 236 412 0019"}}, {"type": "node", "id": 11148515910, "lat": 38.920747, "lon": 27.8412784, "tags": {"amenity": "pharmacy", "healthcare": "pharmacy", "name": "Tetiker Eczanesi", "phone": "+90 236 414 5033"}}, {"type": "node", "id": 11148516005, "lat": 38.9186645, "lon": 27.8389454, "tags": {"amenity": "pharmacy", "healthcare": "pharmacy", "name": "Bilge Eczanesi", "phone": "+90 236 414 3481"}}, {"type": "node", "id": 11148516105, "lat": 38.9209187, "lon": 27.8422427, "tags": {"amenity": "pharmacy", "healthcare": "pharmacy", "name": "G\u00fcne\u015fli Eczanesi", "phone": "+90 236 413 2660"}}, {"type": "node", "id": 11148670806, "lat": 38.9217558, "lon": 27.8395056, "tags": {"amenity": "pharmacy", "healthcare": "pharmacy", "name": "Serap Eczanesi", "phone": "+90 236 412 0094"}}, {"type": "node", "id": 11148670807, "lat": 38.9205175, "lon": 27.8379224, "tags": {"amenity": "pharmacy", "healthcare": "pharmacy", "name": "\u00d6merci Eczanesi", "phone": "+90 236 413 2856"}}, {"type": "node", "id": 11148670808, "lat": 38.920675, "lon": 27.8377215, "tags": {"amenity": "pharmacy", "healthcare": "pharmacy", "name": "Kuzulu Eczanesi", "phone": "+90 236 414 2523"}}, {"type": "node", "id": 11148670809, "lat": 38.9203645, "lon": 27.8385632, "tags": {"amenity": "pharmacy", "healthcare": "pharmacy", "name": "Nebio\u011flu Eczanesi", "phone": "+90 236 413 9039"}}, {"type": "node", "id": 11148692505, "lat": 38.9205938, "lon": 27.8395222, "tags": {"amenity": "pharmacy", "healthcare": "pharmacy", "name": "Asl\u0131 Eczanesi", "phone": "+90 236 414 7683"}}, {"type": "node", "id": 11148692506, "lat": 38.921282, "lon": 27.8396266, "tags": {"amenity": "pharmacy", "healthcare": "pharmacy", "name": "Birlik Eczanesi", "phone": "+90 236 414 1720"}}, {"type": "node", "id": 11148692507, "lat": 38.9252969, "lon": 27.8287986, "tags": {"amenity": "pharmacy", "healthcare": "pharmacy", "name": "Erdem Eczanesi", "phone": "+90 236 413 0422"}}, {"type": "node", "id": 11148692508, "lat": 38.928745, "lon": 27.8351278, "tags": {"amenity": "pharmacy", "healthcare": "pharmacy", "name": "Cansu Eczanesi", "phone": "+90 236 413 3413"}}, {"type": "node", "id": 11148692605, "lat": 38.9205342, "lon": 27.8392753, "tags": {"amenity": "pharmacy", "healthcare": "pharmacy", "name": "Dutlulu Eczanesi", "phone": "+90 236 414 2522"}}, {"type": "node", "id": 11148692606, "lat": 38.925666, "lon": 27.8352365, "tags": {"amenity": "pharmacy", "healthcare": "pharmacy", "name": "De\u011firmenci Eczanesi", "phone": "+90 236 414 6703"}}, {"type": "node", "id": 11148692607, "lat": 38.9262726, "lon": 27.8339103, "tags": {"amenity": "pharmacy", "healthcare": "pharmacy", "name": "Zeytin Eczanesi", "phone": "+90 236 414 3797"}}, {"type": "node", "id": 11148692608, "lat": 38.9286383, "lon": 27.8352729, "tags": {"amenity": "pharmacy", "healthcare": "pharmacy", "name": "Sidan Eczanesi", "phone": "+90 236 414 3511"}}, {"type": "node", "id": 11148692705, "lat": 38.9211933, "lon": 27.839347, "tags": {"amenity": "pharmacy", "healthcare": "pharmacy", "name": "Nezih Eczanesi", "phone": "+90 236 414 9539"}}, {"type": "node", "id": 11148692706, "lat": 38.9205863, "lon": 27.8384143, "tags": {"amenity": "pharmacy", "healthcare": "pharmacy", "name": "Ya\u015fam Eczanesi", "phone": "+90 236 414 3407"}}, {"type": "node", "id": 11148692707, "lat": 38.9207266, "lon": 27.8384675, "tags": {"amenity": "pharmacy", "healthcare": "pharmacy", "name": "Ege Eczanesi", "phone": "+90 236 414 5024"}}, {"type": "node", "id": 11148692708, "lat": 38.9255568, "lon": 27.8277052, "tags": {"amenity": "pharmacy", "healthcare": "pharmacy", "name": "Yeliz Eczanesi", "phone": "+90 236 412 9911"}}, {"type": "node", "id": 11148692709, "lat": 38.9287875, "lon": 27.8348257, "tags": {"amenity": "pharmacy", "healthcare": "pharmacy", "name": "Deva Eczanesi", "phone": "+90 236 413 7181"}}, {"type": "node", "id": 11148692805, "lat": 38.9205493, "lon": 27.8386062, "tags": {"amenity": "pharmacy", "healthcare": "pharmacy", "name": "Ozan Eczanesi", "phone": "+90 236 414 4730"}}, {"type": "node", "id": 11148692806, "lat": 38.9253472, "lon": 27.8267577, "tags": {"amenity": "pharmacy", "healthcare": "pharmacy", "name": "Ak\u0131n Eczanesi", "phone": "+90 236 414 1643"}}, {"type": "node", "id": 11148692905, "lat": 38.9207206, "lon": 27.8386598, "tags": {"amenity": "pharmacy", "healthcare": "pharmacy", "name": "Hekimo\u011flu Eczanesi", "phone": "+90 236 414 3529"}}, {"type": "node", "id": 11148692906, "lat": 38.9239471, "lon": 27.8353645, "tags": {"amenity": "pharmacy", "healthcare": "pharmacy", "name": "\u0130ldeniz Eczanesi", "phone": "+90 236 412 8080"}}, {"type": "node", "id": 11148692907, "lat": 38.9242201, "lon": 27.8353946, "tags": {"amenity": "pharmacy", "healthcare": "pharmacy", "name": "Var\u0131c\u0131 Eczanesi", "phone": "+90 236 413 3430"}}, {"type": "node", "id": 11148692908, "lat": 38.9226977, "lon": 27.8267199, "tags": {"amenity": "pharmacy", "healthcare": "pharmacy", "name": "Akhisar Eczanesi", "phone": "+90 236 412 8478"}}, {"type": "node", "id": 11148692909, "lat": 38.9253531, "lon": 27.8270304, "tags": {"amenity": "pharmacy", "healthcare": "pharmacy", "name": "Y\u0131ld\u0131r\u0131m Eczanesi", "phone": "+90 236 412 0018"}}, {"type": "node", "id": 11148692910, "lat": 38.9286294, "lon": 27.8350586, "tags": {"amenity": "pharmacy", "healthcare": "pharmacy", "name": "G\u00fcl\u015fah Eczanesi", "phone": "+90 236 414 3511"}}, {"type": "node", "id": 11148693005, "lat": 38.9218058, "lon": 27.8353032, "tags": {"amenity": "pharmacy", "healthcare": "pharmacy", "name": "Alk\u0131m Eczanesi", "phone": "+90 236 414 9731"}}, {"type": "node", "id": 11148693006, "lat": 38.9230936, "lon": 27.8309753, "tags": {"amenity": "pharmacy", "healthcare": "pharmacy", "name": "Gen\u00e7 Eczanesi", "phone": "+90 236 414 4174"}}, {"type": "node", "id": 11148693605, "lat": 38.9232197, "lon": 27.8244234, "tags": {"amenity": "pharmacy", "healthcare": "pharmacy", "name": "Sena Eczanesi", "phone": "+90 236 412 0065"}}, {"type": "node", "id": 11149432607, "lat": 39.1120275, "lon": 27.6749158, "tags": {"amenity": "pharmacy", "healthcare": "pharmacy", "name": "Erta\u015f Eczanesi", "phone": "+90 236 588 4545"}}, {"type": "node", "id": 11149433805, "lat": 39.1093142, "lon": 27.6776027, "tags": {"amenity": "pharmacy", "healthcare": "pharmacy", "name": "Ege Eczanesi", "phone": "+90 236 588 4141"}}, {"type": "node", "id": 11149434705, "lat": 39.1046653, "lon": 27.6713129, "tags": {"amenity": "pharmacy", "healthcare": "pharmacy", "name": "\u015eifa Eczanesi", "phone": "+90 236 588 1073"}}, {"type": "node", "id": 11149438105, "lat": 39.1049383, "lon": 27.6714564, "tags": {"amenity": "pharmacy", "healthcare": "pharmacy", "name": "Derya Eczanesi", "phone": "+90 236 588 2732"}}, {"type": "node", "id": 11149438106, "lat": 39.1052057, "lon": 27.6723802, "tags": {"amenity": "pharmacy", "healthcare": "pharmacy", "name": "K\u0131rka\u011fa\u00e7 Eczanesi", "phone": "+90 236 588 1670"}}, {"type": "node", "id": 11149438107, "lat": 39.105519, "lon": 27.6723431, "tags": {"amenity": "pharmacy", "healthcare": "pharmacy", "name": "S\u0131hhat Eczanesi", "phone": "+90 236 588 1601"}}, {"type": "node", "id": 11149438205, "lat": 39.1055034, "lon": 27.6712147, "tags": {"amenity": "pharmacy", "healthcare": "pharmacy", "name": "Merkez Eczanesi", "phone": "+90 236 588 1662"}}, {"type": "node", "id": 11149438206, "lat": 39.1050265, "lon": 27.6718644, "tags": {"amenity": "pharmacy", "healthcare": "pharmacy", "name": "Var\u0131c\u0131 Eczanesi", "phone": "+90 236 588 1527"}}, {"type": "node", "id": 11149438207, "lat": 39.1054532, "lon": 27.6721056, "tags": {"amenity": "pharmacy", "healthcare": "pharmacy", "name": "Derman Eczanesi", "phone": "+90 236 588 1961"}}, {"type": "node", "id": 11496175769, "lat": 39.1529777, "lon": 27.4821539, "tags": {"amenity": "pharmacy", "healthcare": "pharmacy", "name": "Gen\u00e7 Eczanesi", "phone": "+90 236 626 8544"}}, {"type": "node", "id": 11496175869, "lat": 39.1739748, "lon": 27.5106365, "tags": {"amenity": "pharmacy", "healthcare": "pharmacy", "name": "Olgu Eczanesi", "phone": "+90 236 624 1160"}}, {"type": "node", "id": 11523321206, "lat": 38.943238, "lon": 27.8339903, "tags": {"amenity": "pharmacy", "brand": "Watsons", "brand:wikidata": "Q7974785", "healthcare": "pharmacy", "name": "Watsons"}}, {"type": "node", "id": 11663593269, "lat": 39.2227844, "lon": 27.4038865, "tags": {"amenity": "pharmacy", "name": "Melike Eczanesi", "phone": "+90 232 643 5656"}}, {"type": "node", "id": 11663593369, "lat": 39.1860655, "lon": 27.3333198, "tags": {"amenity": "pharmacy", "name": "Ayaskent Eczanesi", "phone": "+90 232 644 1028"}}, {"type": "node", "id": 11663593370, "lat": 39.0913201, "lon": 27.3497612, "tags": {"amenity": "pharmacy", "name": "Yazgan Eczanesi", "phone": "+90 232 688 0607"}}, {"type": "node", "id": 11663593371, "lat": 39.0871156, "lon": 27.3832394, "tags": {"amenity": "pharmacy", "name": "\u00d6z\u00e7imenli Eczanesi", "phone": "+90 232 687 4342"}}, {"type": "node", "id": 11663593469, "lat": 39.0906533, "lon": 27.3481846, "tags": {"amenity": "pharmacy", "name": "\u00c7al\u0131ku\u015fu Eczanesi", "phone": "+90 232 688 0030"}}, {"type": "node", "id": 11663593569, "lat": 39.0907105, "lon": 27.349173, "tags": {"amenity": "pharmacy", "name": "Sera Eczanesi", "phone": "+90 232 688 0151"}}, {"type": "node", "id": 11663593570, "lat": 39.0871773, "lon": 27.3839389, "tags": {"amenity": "pharmacy", "name": "Toker Eczanesi", "phone": "+90 232 687 1166"}}, {"type": "node", "id": 11663593571, "lat": 39.0868338, "lon": 27.383085, "tags": {"amenity": "pharmacy", "name": "Tansu Eczanesi", "phone": "+90 232 687 2612"}}, {"type": "node", "id": 11663593572, "lat": 39.0869059, "lon": 27.3827135, "tags": {"amenity": "pharmacy", "name": "K\u0131n\u0131k Eczanesi", "phone": "+90 232 687 1073"}}, {"type": "node", "id": 11663593669, "lat": 39.0871548, "lon": 27.3828384, "tags": {"amenity": "pharmacy", "name": "Savran Eczanesi", "phone": "+90 232 687 1097"}}, {"type": "node", "id": 11846275313, "lat": 38.918236, "lon": 27.836606, "tags": {"amenity": "pharmacy", "name": "Mehmet Eczanesi", "phone": "+90 236 414 5619"}}]}