{"version": 0.6, "generator": "Overpass API 0.7.62.8 e802775f", "osm3s": {"timestamp_osm_base": "2025-10-06T08:30:13Z", "copyright": "The data included in this document is from www.openstreetmap.org. The data is made available under ODbL."}, "elements": [{"type": "node", "id": 1778863103, "lat": 54.1543329, "lon": 19.4121958, "tags": {"addr:city": "Elbl\u0105g", "addr:housenumber": "27", "addr:postcode": "82-300", "addr:street": "Aleja Grunwaldzka", "amenity": "pharmacy", "dispensing": "yes", "name": "Dom Lek\u00f3w", "ref:csioz": "1195328", "wheelchair": "yes"}}, {"type": "node", "id": 1778944872, "lat": 54.1537198, "lon": 19.4197127, "tags": {"amenity": "pharmacy", "dispensing": "yes", "name": "Centrum", "official_name": "Apteka W Elbl\u0105gu", "ref:csioz": "1040240", "wheelchair": "yes"}}, {"type": "node", "id": 2165311326, "lat": 54.032504, "lon": 19.0339609, "tags": {"addr:city": "Malbork", "addr:housenumber": "37", "addr:postcode": "82-200", "addr:street": "Henryka Sienkiewicza", "amenity": "pharmacy", "dispensing": "yes", "healthcare": "pharmacy", "name": "Akacjowa", "ref:csioz": "1195741", "start_date": "2015-10-09"}}, {"type": "node", "id": 2165311610, "lat": 54.0315234, "lon": 19.0346208, "tags": {"addr:city": "Malbork", "addr:housenumber": "12", "addr:postcode": "82-200", "addr:street": "Marii Konopnickiej", "amenity": "pharmacy", "healthcare": "pharmacy", "name": "Farmacja24", "opening_hours": "Mo-Fr 08:00-20:00; Sa 08:00-16:00", "ref:csioz": "1199745", "start_date": "2015-12-15"}}, {"type": "node", "id": 2178342142, "lat": 54.0219867, "lon": 19.0426332, "tags": {"addr:city": "Malbork", "addr:housenumber": "23C", "addr:postcode": "82-200", "addr:street": "Kazimierza Micha\u0142owskiego", "amenity": "pharmacy", "healthcare": "pharmacy", "name": "Melisa", "ref:csioz": "1028251", "start_date": "1996-09-25"}}, {"type": "node", "id": 2178343975, "lat": 54.0229484, "lon": 19.0410736, "tags": {"addr:city": "Malbork", "addr:housenumber": "10", "addr:postcode": "82-200", "addr:street": "Tadeusza Kotarbi\u0144skiego", "amenity": "pharmacy", "dispensing": "yes", "healthcare": "pharmacy", "name": "Gemini", "ref:csioz": "1225151", "start_date": "2017-11-30"}}, {"type": "node", "id": 2251195704, "lat": 54.1592907, "lon": 19.4040709, "tags": {"addr:city": "Elbl\u0105g", "addr:housenumber": "6", "addr:postcode": "82-300", "addr:street": "Hetma\u0144ska", "amenity": "pharmacy", "dispensing": "yes", "name": "Dom Lek\u00f3w", "ref:csioz": "1195331"}}, {"type": "node", "id": 2296994851, "lat": 54.3208091, "lon": 19.5257734, "tags": {"addr:city": "Tolkmicko", "addr:housenumber": "21", "addr:street": "\u015awi\u0119toja\u0144ska", "amenity": "pharmacy", "dispensing": "yes", "healthcare": "pharmacy", "name": "Nowa", "opening_hours": "Mo-Fr 09:00-16:00; Sa 09:00-14:00", "ref:csioz": "1041117"}}, {"type": "node", "id": 2358280290, "lat": 54.0478839, "lon": 19.3847829}, {"type": "node", "id": 3420463622, "lat": 54.1847603, "lon": 19.4060291, "tags": {"amenity": "pharmacy", "dispensing": "yes", "name": "Centrum", "official_name": "Apteki Centrum - Elbl\u0105skie Centrum Lek\u00f3w", "ref:csioz": "1040279"}}, {"type": "node", "id": 3542566083, "lat": 54.1659372, "lon": 19.4057398, "tags": {"amenity": "pharmacy", "dispensing": "yes", "name": "Dom Lek\u00f3w", "ref:csioz": "1118671"}}, {"type": "node", "id": 3649228775, "lat": 54.1352501, "lon": 19.0109748}, {"type": "node", "id": 3649228782, "lat": 54.1352944, "lon": 19.0108717}, {"type": "node", "id": 3649228784, "lat": 54.1353145, "lon": 19.0110552}, {"type": "node", "id": 3649228787, "lat": 54.1353587, "lon": 19.010952}, {"type": "node", "id": 3711687786, "lat": 54.2119214, "lon": 19.109452, "tags": {"addr:city": "Nowy Dw\u00f3r Gda\u0144ski", "addr:housenumber": "1", "addr:postcode": "82-100", "addr:street": "Morska", "amenity": "pharmacy", "name": "Wracam Do Zdrowia", "ref:csioz": "1032705"}}, {"type": "node", "id": 4155926391, "lat": 54.0365221, "lon": 19.0347402, "tags": {"addr:city": "Malbork", "addr:housenumber": "16", "addr:postcode": "82-200", "addr:street": "Tadeusza Ko\u015bciuszki", "amenity": "pharmacy", "brand": "Dr. Max", "brand:wikidata": "Q56317371", "brand:wikipedia": "fr:Dr.Max", "healthcare": "pharmacy", "name": "Dr. Max", "opening_hours": "Mo-Sa 08:00-21:00; Su 10:00-20:00", "ref:csioz": "1032747", "start_date": "2010-08-17"}}, {"type": "node", "id": 4278800483, "lat": 54.0341457, "lon": 19.0334712, "tags": {"addr:city": "Malbork", "addr:housenumber": "10", "addr:postcode": "82-200", "addr:street": "Jasna", "amenity": "pharmacy", "brand": "Dbam o Zdrowie", "brand:wikidata": "Q62563833", "contact:phone": "+48552722212", "healthcare": "pharmacy", "name": "Dbam o Zdrowie", "opening_hours": "Mo-Fr 08:00-20:00; Sa 09:00-14:00", "ref:csioz": "1028238", "short_name": "DOZ", "source": "https://powiat.malbork.pl/index.php?option=com_content&view=article&id=130:rozklad-godzin-pracy-aptek&catid=22&Itemid=142", "start_date": "1997-08-20"}}, {"type": "node", "id": 5486336512, "lat": 54.1600755, "lon": 19.418774, "tags": {"amenity": "pharmacy", "dispensing": "yes", "name": "Rac\u0142awicka", "ref:csioz": "1040190"}}, {"type": "node", "id": 5673253859, "lat": 54.1655964, "lon": 19.4067043, "tags": {"amenity": "pharmacy", "check_date": "2025-03-17", "dispensing": "yes", "name": "Gemini", "official_name": "Apteka Gemini", "opening_hours": "Mo-Fr 08:00-20:00, Sa 08:00-16:00, Su 08:00-14:00", "ref:csioz": "1208352"}}, {"type": "node", "id": 5696556015, "lat": 54.1498192, "lon": 19.4259704, "tags": {"amenity": "pharmacy", "dispensing": "yes", "name": "Sadowa", "ref:csioz": "1040222"}}, {"type": "node", "id": 5713667123, "lat": 54.1502346, "lon": 19.433648, "tags": {"amenity": "pharmacy", "dispensing": "yes", "name": "Za Politechnik\u0105", "ref:csioz": "1040254"}}, {"type": "node", "id": 6126606124, "lat": 54.1713826, "lon": 19.4018319, "tags": {"amenity": "pharmacy", "dispensing": "yes", "name": "Dy\u017curna", "official_name": "Dy\u017curna 1", "ref:csioz": "1040046"}}, {"type": "node", "id": 6138890517, "lat": 54.1761798, "lon": 19.4042617, "tags": {"amenity": "pharmacy", "dispensing": "yes", "name": "Przy Rynku", "official_name": "Apteka Przy Rynku", "ref:csioz": "1040189"}}, {"type": "node", "id": 6154196928, "lat": 54.1657486, "lon": 19.4015591, "tags": {"amenity": "pharmacy", "brand": "Dbam o Zdrowie", "brand:wikidata": "Q62563833", "dispensing": "yes", "name": "Dbam o Zdrowie", "ref:csioz": "1039992"}}, {"type": "node", "id": 6236625792, "lat": 54.1664478, "lon": 19.4108441, "tags": {"amenity": "pharmacy", "dispensing": "yes", "name": "Bios", "ref:csioz": "1039984"}}, {"type": "node", "id": 6239244516, "lat": 54.2093429, "lon": 19.1193697}, {"type": "node", "id": 6239244517, "lat": 54.2094639, "lon": 19.119365}, {"type": "node", "id": 6239244518, "lat": 54.2094671, "lon": 19.1196044}, {"type": "node", "id": 6239244519, "lat": 54.2093134, "lon": 19.1196104}, {"type": "node", "id": 6239244520, "lat": 54.2093125, "lon": 19.1195408}, {"type": "node", "id": 6239244528, "lat": 54.2093451, "lon": 19.1195395}, {"type": "node", "id": 6357831444, "lat": 54.1849733, "lon": 19.4043749, "tags": {"amenity": "pharmacy", "check_date": "2025-03-13", "dispensing": "yes", "name": "Apteka Centrum", "official_name": "Apteki Centrum Elbl\u0105skie Centrum Lek\u00f3w", "ref:csioz": "1121780"}}, {"type": "node", "id": 6418069135, "lat": 54.1801343, "lon": 19.4053561, "tags": {"amenity": "pharmacy", "dispensing": "yes", "name": "Przy Gildii", "ref:csioz": "1040177"}}, {"type": "node", "id": 6501903345, "lat": 54.183438, "lon": 19.4201696, "tags": {"amenity": "pharmacy", "dispensing": "yes", "name": "Dy\u017curna", "official_name": "Apteka Dy\u017curna", "ref:csioz": "1040014"}}, {"type": "node", "id": 6509053868, "lat": 53.9225952, "lon": 19.170417, "tags": {"addr:city": "Stary Targ", "addr:housenumber": "1", "addr:postcode": "82-410", "addr:street": "Nowotarska", "amenity": "pharmacy", "dispensing": "yes", "healthcare": "pharmacy", "name": "Akacjowa", "ref:csioz": "1028295", "start_date": "1995-05-16"}}, {"type": "node", "id": 6620396170, "lat": 54.1792899, "lon": 19.4260345, "tags": {"addr:city": "Elbl\u0105g", "addr:housenumber": "195C", "addr:postcode": "82-300", "addr:street": "Kr\u00f3lewiecka", "amenity": "pharmacy", "dispensing": "yes", "name": "Dy\u017curna", "official_name": "Apteka Dy\u017curna", "ref:csioz": "1177294"}}, {"type": "node", "id": 6677227719, "lat": 54.187277, "lon": 19.4163544, "tags": {"amenity": "pharmacy", "dispensing": "yes", "name": "Centrum Lek\u00f3w", "official_name": "Apteka Centrum Lek\u00f3w", "opening_hours": "Mo-Fr 08:00-19:00; Sa 09:00-14:00", "ref:csioz": "1196842"}}, {"type": "node", "id": 6780662375, "lat": 54.1887867, "lon": 19.4256747, "tags": {"addr:city": "Elbl\u0105g", "addr:housenumber": "20", "addr:postcode": "82-300", "addr:street": "Jana Myliusa", "amenity": "pharmacy", "dispensing": "yes", "name": "Regenium", "opening_hours": "Mo-Fr 08:00-20:00; Sa 08:00-14:00", "ref:csioz": "1040206"}}, {"type": "node", "id": 7463558787, "lat": 54.0312573, "lon": 19.0238261, "tags": {"addr:city": "Malbork", "addr:housenumber": "71", "addr:postcode": "82-200", "addr:street": "Juliusza S\u0142owackiego", "amenity": "pharmacy", "dispensing": "yes", "healthcare": "pharmacy", "name": "Alba", "ref:csioz": "1032680", "start_date": "2010-06-15"}}, {"type": "node", "id": 8633528498, "lat": 54.0479017, "lon": 19.3846939}, {"type": "node", "id": 8633533280, "lat": 54.0478704, "lon": 19.3847111}, {"type": "node", "id": 8633533919, "lat": 54.0478829, "lon": 19.3848418}, {"type": "node", "id": 8633543021, "lat": 54.0478931, "lon": 19.3846485}, {"type": "node", "id": 8633548440, "lat": 54.0478729, "lon": 19.3847889}, {"type": "node", "id": 8633549080, "lat": 54.0479369, "lon": 19.3846246}, {"type": "node", "id": 8633555600, "lat": 54.0479549, "lon": 19.3847205}, {"type": "node", "id": 8991454469, "lat": 54.1598492, "lon": 19.3960228, "tags": {"amenity": "pharmacy", "check_date:opening_hours": "2025-06-14", "dispensing": "yes", "email": "mjaroszewska@op.pl", "healthcare": "pharmacy", "name": "Na Star\u00f3wce", "official_name": "Apteka Na Star\u00f3wce", "opening_hours": "Mo-Fr 09:00-19:00; Sa 09:00-14:00; Su off", "phone": "+48 55 232 83 81", "ref:csioz": "1040128"}}, {"type": "node", "id": 9178826290, "lat": 53.9202644, "lon": 19.0308657, "tags": {"addr:city": "Sztum", "addr:housenumber": "50", "addr:postcode": "82-400", "addr:street": "Adama Mickiewicza", "amenity": "pharmacy", "dispensing": "yes", "healthcare": "pharmacy", "name": "Centralna", "ref:csioz": "1032427", "start_date": "2009-09-11"}}, {"type": "node", "id": 9179224043, "lat": 53.9151948, "lon": 19.0380359, "tags": {"addr:city": "Sztum", "addr:housenumber": "12", "addr:postcode": "82-400", "addr:street": "Galla Anonima", "amenity": "pharmacy", "dispensing": "yes", "healthcare": "pharmacy", "name": "\u015aw. Anny", "ref:csioz": "1028831", "start_date": "1999-12-02"}}, {"type": "node", "id": 9179243954, "lat": 53.9211866, "lon": 19.3479282, "tags": {"addr:city": "Dzierzgo\u0144", "addr:housenumber": "5", "addr:postcode": "82-440", "addr:street": "Odrodzenia", "amenity": "pharmacy", "brand": "Dbam o Zdrowie", "brand:wikidata": "Q62563833", "dispensing": "yes", "healthcare": "pharmacy", "name": "Dbam o Zdrowie", "ref:csioz": "1181985", "start_date": "2014-12-17"}}, {"type": "node", "id": 9179260830, "lat": 53.9213108, "lon": 19.3470115, "tags": {"addr:city": "Dzierzgo\u0144", "addr:housenumber": "1", "addr:postcode": "82-440", "addr:street": "Juliusza S\u0142owackiego", "amenity": "pharmacy", "dispensing": "yes", "healthcare": "pharmacy", "name": "Herbowa", "ref:csioz": "1029397", "start_date": "2001-07-26"}}, {"type": "node", "id": 9179269974, "lat": 53.9167424, "lon": 19.0347702, "tags": {"addr:city": "Sztum", "addr:housenumber": "1", "addr:postcode": "82-400", "addr:street": "Krzysztofa Kamila Baczy\u0144skiego", "amenity": "pharmacy", "dispensing": "yes", "healthcare": "pharmacy", "name": "Centrum Zdrowia", "ref:csioz": "1195764", "start_date": "2015-10-09"}}, {"type": "node", "id": 9179279562, "lat": 53.985622, "lon": 19.1523161, "tags": {"addr:housenumber": "9c", "addr:place": "Szropy", "addr:postcode": "82-410", "amenity": "pharmacy", "dispensing": "yes", "healthcare": "pharmacy", "name": "Punkt Apteczny", "ref:csioz": "1033778", "source": "Rejestr Aptek MZ", "start_date": "2005-10-31"}}, {"type": "node", "id": 9180997034, "lat": 54.0440042, "lon": 19.0212125, "tags": {"addr:city": "Malbork", "addr:housenumber": "1", "addr:postcode": "82-200", "addr:street": "Ludwika Solskiego", "amenity": "pharmacy", "dispensing": "yes", "healthcare": "pharmacy", "ref:csioz": "1028246", "start_date": "14-12-1994"}}, {"type": "node", "id": 9181004408, "lat": 54.031802, "lon": 19.0237795, "tags": {"addr:city": "Malbork", "addr:housenumber": "75", "addr:postcode": "82-200", "addr:street": "Juliusza S\u0142owackiego", "amenity": "pharmacy", "dispensing": "yes", "healthcare": "pharmacy", "name": "Malborska", "ref:csioz": "1030522", "start_date": "2004-10-21"}}, {"type": "node", "id": 9181011803, "lat": 54.1142368, "lon": 18.9150635, "tags": {"addr:city": "Lichnowy", "addr:housenumber": "29c", "addr:street": "Lachowicza", "amenity": "pharmacy", "dispensing": "yes", "healthcare": "pharmacy", "name": "Punkt apteczny", "ref:csioz": "1033732", "start_date": "2004-07-22"}}, {"type": "node", "id": 9181013514, "lat": 54.05394, "lon": 19.2012772, "tags": {"addr:city": "Stare Pole", "addr:housenumber": "6", "addr:postcode": "82-220", "addr:street": "Marynarki Wojennej", "amenity": "pharmacy", "dispensing": "yes", "healthcare": "pharmacy", "name": "Rodzinna", "ref:csioz": "1031054", "start_date": "2006-09-22"}}, {"type": "node", "id": 9181025796, "lat": 54.0316475, "lon": 19.0335351, "tags": {"addr:city": "Malbork", "addr:housenumber": "4", "addr:postcode": "82-200", "addr:street": "Marii Konopnickiej", "amenity": "pharmacy", "dispensing": "yes", "healthcare": "pharmacy", "name": "Centrum Zdrowia", "ref:csioz": "1201878", "start_date": "2016-02-05"}}, {"type": "node", "id": 9181028920, "lat": 54.0362649, "lon": 19.0626219, "tags": {"addr:city": "Malbork", "addr:housenumber": "2", "addr:postcode": "82-200", "addr:street": "Koszykowa", "amenity": "pharmacy", "brand": "Dbam o Zdrowie", "brand:wikidata": "Q62563833", "dispensing": "yes", "healthcare": "pharmacy", "name": "Dbam o Zdrowie", "ref:csioz": "1196543", "start_date": "2015-10-21"}}, {"type": "node", "id": 9181035126, "lat": 54.0366583, "lon": 19.0355551, "tags": {"addr:city": "Malbork", "addr:housenumber": "48", "addr:postcode": "82-200", "addr:street": "Tadeusza Ko\u015bciuszki", "amenity": "pharmacy", "brand": "Gemini", "brand:wikidata": "Q130243797", "dispensing": "yes", "healthcare": "pharmacy", "name": "Gemini", "ref:csioz": "1031827", "start_date": "208-07-08"}}, {"type": "node", "id": 9183723777, "lat": 54.0358533, "lon": 19.0426496, "tags": {"addr:city": "Malbork", "addr:housenumber": "17", "addr:postcode": "82-200", "addr:street": "Dworcowa", "amenity": "pharmacy", "dispensing": "yes", "healthcare": "pharmacy", "name": "Medical", "ref:csioz": "1033557", "start_date": "2012-05-09", "wheelchair": "yes"}}, {"type": "node", "id": 9183865034, "lat": 53.9215891, "lon": 19.0296465, "tags": {"addr:city": "Sztum", "addr:housenumber": "10", "addr:postcode": "82-400", "addr:street": "Henryka Sienkiewicza", "amenity": "pharmacy", "dispensing": "yes", "healthcare": "pharmacy", "name": "Apteka Alfa", "ref:csioz": "1028310", "start_date": "1991-04-29"}}, {"type": "node", "id": 9450336607, "lat": 54.0894798, "lon": 19.3088873}, {"type": "node", "id": 9450336608, "lat": 54.0895576, "lon": 19.3090181}, {"type": "node", "id": 9450336609, "lat": 54.089561, "lon": 19.3090239}, {"type": "node", "id": 9450336610, "lat": 54.0896015, "lon": 19.3089546}, {"type": "node", "id": 9450336611, "lat": 54.0896186, "lon": 19.3089243}, {"type": "node", "id": 9450336612, "lat": 54.0895257, "lon": 19.308768}, {"type": "node", "id": 9450336613, "lat": 54.0895104, "lon": 19.3087946}, {"type": "node", "id": 9552994906, "lat": 54.2095311, "lon": 19.111206, "tags": {"addr:city": "Nowy Dw\u00f3r Gda\u0144ski", "addr:housenumber": "2E", "addr:postcode": "82-100", "addr:street": "Warszawska", "amenity": "pharmacy", "brand": "Dbam o Zdrowie", "brand:wikidata": "Q62563833", "healthcare": "pharmacy", "name": "Dbam o Zdrowie", "opening_hours": "Mo-Fr 08:00-18:00; Sa 15:00-18:00", "ref:csioz": "1032760"}}, {"type": "node", "id": 9552994907, "lat": 54.2144335, "lon": 18.9498169, "tags": {"addr:city": "Ostaszewo", "addr:housenumber": "34", "addr:postcode": "82-112", "addr:street": "Tadeusza Ko\u015bciuszki", "amenity": "pharmacy", "healthcare": "pharmacy", "name": "Punkt Apteczny", "ref:csioz": "1033801"}}, {"type": "node", "id": 9552994908, "lat": 54.2115581, "lon": 19.1210693, "tags": {"addr:city": "Nowy Dw\u00f3r Gda\u0144ski", "addr:housenumber": "18", "addr:postcode": "82-100", "addr:street": "Dworcowa", "amenity": "pharmacy", "name": "Medfarm", "ref:csioz": "1032811"}}, {"type": "node", "id": 9552994909, "lat": 54.2141744, "lon": 19.1141383, "tags": {"addr:city": "Nowy Dw\u00f3r Gda\u0144ski", "addr:housenumber": "24", "addr:postcode": "82-100", "addr:street": "Genera\u0142a W\u0142adys\u0142awa Sikorskiego", "amenity": "pharmacy", "name": "Nowa", "ref:csioz": "1029229"}}, {"type": "node", "id": 9552994910, "lat": 54.2102091, "lon": 19.1132597, "tags": {"addr:city": "Nowy Dw\u00f3r Gda\u0144ski", "addr:housenumber": "4", "addr:postcode": "82-100", "addr:street": "Marii Konopnickiej", "amenity": "pharmacy", "name": "Morska", "ref:csioz": "1028267"}}, {"type": "node", "id": 9588727175, "lat": 54.0632599, "lon": 19.6579437, "tags": {"addr:city": "Pas\u0142\u0119k", "addr:housenumber": "27", "addr:street": "W\u0142adys\u0142awa Jagie\u0142\u0142y", "amenity": "pharmacy", "brand": "Dbam o Zdrowie", "brand:wikidata": "Q62563833", "dispensing": "yes", "healthcare": "pharmacy", "name": "Dbam o Zdrowie", "ref:csioz": "1041068"}}, {"type": "node", "id": 9588727176, "lat": 54.0632171, "lon": 19.6591343, "tags": {"addr:city": "Pas\u0142\u0119k", "addr:housenumber": "24", "addr:street": "W\u0142adys\u0142awa Jagie\u0142\u0142y", "amenity": "pharmacy", "dispensing": "yes", "name": "Verbena", "ref:csioz": "1041059"}}, {"type": "node", "id": 9588727177, "lat": 54.0597729, "lon": 19.6699042, "tags": {"addr:city": "Pas\u0142\u0119k", "addr:housenumber": "60", "addr:street": "3 Maja", "amenity": "pharmacy", "dispensing": "yes", "email": "paslek@wdoz.pl", "name": "Wracam Do Zdrowia", "ref:csioz": "1041045"}}, {"type": "node", "id": 9588727178, "lat": 54.0586731, "lon": 19.6659332, "tags": {"addr:city": "Pas\u0142\u0119k", "addr:housenumber": "6", "addr:street": "Plac Grunwaldzki", "amenity": "pharmacy", "brand": "Dbam o Zdrowie", "brand:wikidata": "Q62563833", "dispensing": "yes", "healthcare": "pharmacy", "name": "Dbam o Zdrowie", "ref:csioz": "1041037"}}, {"type": "node", "id": 9588727179, "lat": 54.0567914, "lon": 19.6679171, "tags": {"addr:city": "Pas\u0142\u0119k", "addr:housenumber": "15A", "addr:street": "Ogrodowa", "amenity": "pharmacy", "dispensing": "yes", "ref:csioz": "1041021"}}, {"type": "node", "id": 9668256222, "lat": 54.1566523, "lon": 19.4102303, "tags": {"addr:city": "Elbl\u0105g", "addr:housenumber": "9C", "addr:postcode": "82-300", "addr:street": "Zwi\u0105zku Jaszczurczego", "amenity": "pharmacy", "dispensing": "yes", "name": "Zio\u0142owa", "opening_hours": "Mo-Fr 09:00-19:00", "ref:csioz": "1040265"}}, {"type": "node", "id": 9668256223, "lat": 54.169861, "lon": 19.4100602, "tags": {"amenity": "pharmacy", "brand": "Dbam o Zdrowie", "brand:wikidata": "Q62563833", "dispensing": "yes", "name": "Dbam o Zdrowie", "official_name": "Apteka Dbam O Zdrowie", "ref:csioz": "1040115"}}, {"type": "node", "id": 9668256224, "lat": 54.1582833, "lon": 19.4134939, "tags": {"amenity": "pharmacy", "dispensing": "yes", "name": "Ojca Klimuszki", "official_name": "Apteka Im. Ojca Klimuszki Micha\u0142 Meszko", "opening_hours": "Mo-Fr 08:00-18:00, Sa 09:00-14:00", "ref:csioz": "1040102", "source:amenity": "survey"}}, {"type": "node", "id": 9668256225, "lat": 54.1697936, "lon": 19.4033194, "tags": {"addr:city": "Elbl\u0105g", "addr:housenumber": "23", "addr:postcode": "82-300", "addr:street": "Gwiezdna", "amenity": "pharmacy", "dispensing": "yes", "name": "Dy\u017curna", "official_name": "Dy\u017curna 2", "ref:csioz": "1040051"}}, {"type": "node", "id": 9668256226, "lat": 54.1566822, "lon": 19.4041206, "tags": {"addr:city": "Elbl\u0105g", "addr:housenumber": "30-34", "addr:postcode": "82-300", "addr:street": "Hetma\u0144ska", "amenity": "pharmacy", "dispensing": "yes", "name": "Apteka Dy\u017curna", "ref:csioz": "1040023"}}, {"type": "node", "id": 9668417936, "lat": 54.15453, "lon": 19.4014326, "tags": {"addr:city": "Elbl\u0105g", "addr:housenumber": "23", "addr:postcode": "82-300", "addr:street": "Malborska", "amenity": "pharmacy", "dispensing": "yes", "healthcare": "pharmacy", "name": "Apteka Centrum Lek\u00f3w", "ref:csioz": "1173482"}}, {"type": "node", "id": 9668417937, "lat": 54.1580749, "lon": 19.4333162, "tags": {"amenity": "pharmacy", "dispensing": "yes", "name": "Novum", "official_name": "Apteka Novum", "ref:csioz": "1224269"}}, {"type": "node", "id": 9668417938, "lat": 54.154127, "lon": 19.4128058, "tags": {"amenity": "pharmacy", "dispensing": "yes", "name": "Apteka Gemini", "ref:csioz": "1211494"}}, {"type": "node", "id": 9668417939, "lat": 54.1595767, "lon": 19.4037315, "tags": {"addr:city": "Elbl\u0105g", "addr:housenumber": "44", "addr:postcode": "82-300", "addr:street": "1 Maja", "amenity": "pharmacy", "dispensing": "yes", "name": "Apteka Spo\u0142eczna", "official_name": "Apteka Spo\u0142eczna Na 1 Maja 44 Grupa Nowa Farmacja", "ref:csioz": "1202791"}}, {"type": "node", "id": 9668417940, "lat": 54.1634745, "lon": 19.4073541, "tags": {"amenity": "pharmacy", "dispensing": "yes", "name": "Dom Lek\u00f3w", "ref:csioz": "1201144"}}, {"type": "node", "id": 9668417941, "lat": 54.1530927, "lon": 19.4181664, "tags": {"addr:city": "Elbl\u0105g", "addr:housenumber": "1", "addr:postcode": "82-300", "addr:street": "Stefana \u017beromskiego", "amenity": "pharmacy", "dispensing": "yes", "name": "Dom Lekow", "official_name": "Apteka Dom Lek\u00f3w", "ref:csioz": "1181278"}}, {"type": "node", "id": 9668417942, "lat": 54.1792507, "lon": 19.4289248, "tags": {"amenity": "pharmacy", "dispensing": "yes", "name": "Apteka Farmacja 24", "ref:csioz": "1114702"}}, {"type": "node", "id": 9668417943, "lat": 54.1870074, "lon": 19.403694, "tags": {"amenity": "pharmacy", "dispensing": "yes", "name": "Przy Alei", "official_name": "Apteka Przy Alei", "ref:csioz": "1040166"}}, {"type": "node", "id": 9668417944, "lat": 54.186634, "lon": 19.398691, "tags": {"amenity": "pharmacy", "dispensing": "yes", "name": "Apteka Dbam O Zdrowie", "ref:csioz": "1040131"}}, {"type": "node", "id": 11138441437, "lat": 54.1836026, "lon": 19.4331705, "tags": {"amenity": "pharmacy", "brand": "Gemini", "brand:wikidata": "Q130243797", "check_date": "2025-08-17", "healthcare": "pharmacy", "name": "Gemini"}}, {"type": "node", "id": 12290038608, "lat": 54.0894681, "lon": 19.3088677}, {"type": "node", "id": 12959170187, "lat": 54.047969, "lon": 19.3847948}, {"type": "way", "id": 360369718, "nodes": [3649228787, 3649228784, 3649228775, 3649228782, 3649228787], "tags": {"addr:city": "Nowy Staw", "addr:city:simc": "0932904", "addr:housenumber": "4a", "addr:postcode": "82-230", "addr:street": "Obro\u0144c\u00f3w Westerplatte", "amenity": "pharmacy", "building": "yes", "dispensing": "yes", "healthcare": "pharmacy", "name": "Apteka Medfarm", "opening_hours": "Mo-Fr 08:00-18:00; Sa 08:00-14:00", "operator": "Medfarm", "source:addr": "nowystaw.e-mapa.net", "wheelchair": "yes"}}, {"type": "way", "id": 666414176, "nodes": [6239244520, 6239244519, 6239244518, 6239244517, 6239244516, 6239244528, 6239244520], "tags": {"addr:city": "Nowy Dw\u00f3r Gda\u0144ski", "addr:city:simc": "0932880", "addr:housenumber": "17", "addr:postcode": "82-100", "addr:street": "Henryka Sienkiewicza", "addr:street:sym_ul": "19834", "amenity": "pharmacy", "building": "yes", "dispensing": "yes", "healthcare": "pharmacy", "name": "Centrum Lek\u00f3w", "ref:csioz": "1029475", "source:addr": "gugik.gov.pl"}}, {"type": "way", "id": 1328368809, "nodes": [9450336607, 12290038608, 9450336613, 9450336612, 9450336611, 9450336610, 9450336609, 9450336608, 9450336607], "tags": {"addr:city": "Gronowo Elbl\u0105skie", "addr:housenumber": "11A", "addr:postcode": "82-335", "addr:street": "Elbl\u0105ska", "amenity": "pharmacy", "building": "yes", "healthcare": "pharmacy", "name": "Verbena"}}, {"type": "way", "id": 1410331782, "nodes": [8633549080, 8633555600, 12959170187, 8633533919, 8633548440, 2358280290, 8633533280, 8633528498, 8633543021, 8633549080], "tags": {"addr:housenumber": "70", "addr:place": "Markusy", "addr:postcode": "82-325", "amenity": "pharmacy", "building": "yes", "healthcare": "pharmacy", "name": "Verbena"}}]}