{"version": 0.6, "generator": "Overpass API 0.7.62.8 e802775f", "osm3s": {"timestamp_osm_base": "2025-10-06T08:52:35Z", "copyright": "The data included in this document is from www.openstreetmap.org. The data is made available under ODbL."}, "elements": [{"type": "node", "id": 445474820, "lat": 46.0006147, "lon": 26.1369801, "tags": {"addr:city": "T\u00e2rgu Secuiesc", "addr:postcode": "525400", "amenity": "pharmacy", "healthcare": "pharmacy", "name": "Farmacia Richter", "name:hu": "Richter Patika", "name:ro": "Farmacia Richter"}}, {"type": "node", "id": 891872915, "lat": 45.9940509, "lon": 26.1366, "tags": {"amenity": "pharmacy", "healthcare": "pharmacy", "name": "Salix gy\u00f3gyszert\u00e1r"}}, {"type": "node", "id": 1517735409, "lat": 45.9944884, "lon": 26.1300077, "tags": {"amenity": "pharmacy", "healthcare": "pharmacy", "name": "Ambrosia II gy\u00f3gyszert\u00e1r"}}, {"type": "node", "id": 1518416292, "lat": 46.000852, "lon": 26.1365114, "tags": {"amenity": "pharmacy", "healthcare": "pharmacy", "name": "Ambrosia"}}, {"type": "node", "id": 1905336924, "lat": 45.9956697, "lon": 26.1307127}, {"type": "node", "id": 1905336934, "lat": 45.995655, "lon": 26.1308187}, {"type": "node", "id": 1905336940, "lat": 45.9956978, "lon": 26.130831}, {"type": "node", "id": 1905336942, "lat": 45.9957125, "lon": 26.1307251}, {"type": "node", "id": 1905341680, "lat": 46.002066, "lon": 26.1324434, "tags": {"amenity": "pharmacy", "healthcare": "pharmacy", "name": "Richter Gedeon gy\u00f3gyszert\u00e1r"}}, {"type": "node", "id": 1905347067, "lat": 45.999169, "lon": 26.1297927, "tags": {"addr:city": "T\u00e2rgu Secuiesc", "amenity": "pharmacy", "healthcare": "pharmacy", "name": "Salvator gy\u00f3gyszert\u00e1r"}}, {"type": "node", "id": 3982192883, "lat": 45.8454663, "lon": 26.1663685, "tags": {"addr:city": "Covasna", "addr:housenumber": "2", "addr:postcode": "525200", "addr:street": "Strada \u0218colii", "amenity": "pharmacy", "healthcare": "pharmacy", "name": "Farmacia VIPERA", "opening_hours": "09:00-18:00"}}, {"type": "node", "id": 3982218726, "lat": 45.8448865, "lon": 26.1699531, "tags": {"addr:city": "Covasna", "addr:postcode": "525200", "addr:street": "Strada Libert\u0103\u021bii", "amenity": "pharmacy", "healthcare": "pharmacy", "name": "Farmacie nr.90", "opening_hours": "08:00-20:00"}}, {"type": "node", "id": 3982222661, "lat": 45.8442755, "lon": 26.1730859, "tags": {"addr:city": "Covasna", "addr:postcode": "525200", "addr:street": "Strada Unirii", "amenity": "pharmacy", "healthcare": "pharmacy", "name": "Farmacia ZARNESCU", "opening_hours": "08:00-18:00"}}, {"type": "node", "id": 4314130299, "lat": 45.8900508, "lon": 26.1870161, "tags": {"amenity": "pharmacy", "healthcare": "pharmacy"}}, {"type": "node", "id": 4938652923, "lat": 45.8445649, "lon": 26.1688167, "tags": {"addr:postcode": "525200", "addr:street": "Strada Libert\u0103\u021bii", "amenity": "pharmacy", "healthcare": "pharmacy", "name": "Farmacia CATENA", "name:ro": "Farmacia CATENA", "opening_hours": "Mo-Su 09:00-18:00"}}, {"type": "node", "id": 4940234221, "lat": 45.8460224, "lon": 26.1649341, "tags": {"addr:postcode": "525200", "addr:street": "Strada \u0218tefan cel Mare", "amenity": "pharmacy", "healthcare": "pharmacy", "name": "Farmacie veterinar\u0103", "name:ro": "Farmacie veterinar\u0103", "opening_hours": "Mo-Sa 09:00-18:00"}}, {"type": "node", "id": 4941608121, "lat": 46.0005166, "lon": 26.1375674, "tags": {"addr:city": "T\u00e2rgu Secuiesc", "addr:street": "Strada Independen\u021bei", "amenity": "pharmacy", "healthcare": "pharmacy", "name": "Farmacie DONA", "name:hu": "DONA Gy\u00f3gyszert\u00e1r", "name:ro": "Farmacie DONA", "opening_hours": "Mo-Sa 09:00-18:00"}}, {"type": "node", "id": 5250271921, "lat": 45.8391713, "lon": 25.9284534, "tags": {"amenity": "pharmacy", "name": "Farmacia LOTUS", "opening_hours": "Mo-Sa 08:00-18:00"}}, {"type": "node", "id": 10538566654, "lat": 45.9540324, "lon": 25.8536887, "tags": {"addr:city": "Bodoc", "amenity": "pharmacy", "healthcare": "pharmacy", "name": "Farmacie Aeskulap"}}, {"type": "node", "id": 12250291060, "lat": 45.7605443, "lon": 26.2741592, "tags": {"amenity": "pharmacy", "healthcare": "pharmacy"}}, {"type": "way", "id": 180099216, "nodes": [1905336942, 1905336940, 1905336934, 1905336924, 1905336942], "tags": {"amenity": "pharmacy", "building": "yes", "healthcare": "pharmacy", "name": "Szent Anna gy\u00f3gyszert\u00e1r"}}]}