{"version": 0.6, "generator": "Overpass API 0.7.62.8 e802775f", "osm3s": {"timestamp_osm_base": "2025-10-06T07:45:26Z", "copyright": "The data included in this document is from www.openstreetmap.org. The data is made available under ODbL."}, "elements": [{"type": "node", "id": 1740288750, "lat": 42.4592429, "lon": 18.5159357, "tags": {"amenity": "pharmacy"}}, {"type": "node", "id": 1740605744, "lat": 42.4595225, "lon": 18.5167837, "tags": {"amenity": "pharmacy"}}, {"type": "node", "id": 1804743431, "lat": 42.4513054, "lon": 18.5727494, "tags": {"amenity": "pharmacy", "dispensing": "no", "healthcare": "pharmacy"}}, {"type": "node", "id": 1878519294, "lat": 42.4537339, "lon": 18.5313029, "tags": {"amenity": "pharmacy", "dispensing": "no", "name": "Apoteka Veselin"}}, {"type": "node", "id": 2157899044, "lat": 42.4549895, "lon": 18.5592001, "tags": {"amenity": "pharmacy", "dispensing": "no", "healthcare": "pharmacy", "name": "Tea Medica"}}, {"type": "node", "id": 2178502471, "lat": 42.4309274, "lon": 18.6989716, "tags": {"amenity": "pharmacy", "healthcare": "pharmacy", "name": "Apoteka HELP"}}, {"type": "node", "id": 2189776165, "lat": 42.4508902, "lon": 18.5477048, "tags": {"amenity": "pharmacy", "dispensing": "no", "healthcare": "pharmacy"}}, {"type": "node", "id": 2189776167, "lat": 42.4512965, "lon": 18.5438036, "tags": {"amenity": "pharmacy", "dispensing": "no", "healthcare": "pharmacy"}}, {"type": "node", "id": 2283108212, "lat": 42.4515391, "lon": 18.536958, "tags": {"amenity": "pharmacy", "check_date": "2024-09-14", "healthcare": "pharmacy"}}, {"type": "node", "id": 2306706357, "lat": 42.4515961, "lon": 18.5355284, "tags": {"amenity": "pharmacy", "healthcare": "pharmacy"}}, {"type": "node", "id": 2326004401, "lat": 42.4519062, "lon": 18.5365058, "tags": {"amenity": "pharmacy", "healthcare": "pharmacy", "name": "Apoteka \u010cukvas", "opening_hours": "Mo-Sa 08:00-21:00; Su off"}}, {"type": "node", "id": 2427822219, "lat": 42.4213376, "lon": 18.7698238, "tags": {"amenity": "pharmacy", "healthcare": "pharmacy"}}, {"type": "node", "id": 2441580435, "lat": 42.4577917, "lon": 18.5277206, "tags": {"amenity": "pharmacy", "dispensing": "no"}}, {"type": "node", "id": 4140471437, "lat": 42.4549824, "lon": 18.6552705, "tags": {"addr:postcode": "85343", "addr:street": "E65", "amenity": "pharmacy", "name:en": "Pro Clean Laundry", "opening_hours": "Mo-Sa 09:00-18:00", "phone": "+38268161218", "shop": "laundry"}}, {"type": "node", "id": 4268946490, "lat": 42.4418308, "lon": 18.6245109, "tags": {"amenity": "pharmacy"}}, {"type": "node", "id": 4272436089, "lat": 42.4519698, "lon": 18.5369516, "tags": {"amenity": "pharmacy", "healthcare": "pharmacy"}}, {"type": "node", "id": 4278098197, "lat": 42.7743792, "lon": 18.9483596, "tags": {"amenity": "pharmacy", "healthcare": "pharmacy", "name": "Apoteka"}}, {"type": "node", "id": 4413211196, "lat": 42.7718489, "lon": 18.9481669, "tags": {"amenity": "pharmacy", "healthcare": "pharmacy"}}, {"type": "node", "id": 5715986249, "lat": 42.4240514, "lon": 18.7706726, "tags": {"amenity": "pharmacy", "check_date": "2024-08-26", "dispensing": "yes", "healthcare": "pharmacy"}}, {"type": "node", "id": 5715999066, "lat": 42.4257933, "lon": 18.7712479, "tags": {"addr:city": "Kotor", "addr:postcode": "85330", "amenity": "pharmacy", "brand": "Benu", "brand:wikidata": "Q62562792", "check_date": "2024-08-26", "check_date:opening_hours": "2022-08-28", "dispensing": "yes", "healthcare": "pharmacy", "name": "Benu", "opening_hours": "Mo-Su 08:00-22:00", "payment:cash": "yes", "payment:credit_cards": "yes"}}, {"type": "node", "id": 5804726454, "lat": 42.4361565, "lon": 18.7651662, "tags": {"amenity": "pharmacy", "healthcare": "pharmacy", "name": "Apoteka \"Dobrota\"", "name:en": "Pharmacy \"Dobrota\""}}, {"type": "node", "id": 6800404313, "lat": 42.4594908, "lon": 18.513697, "tags": {"amenity": "pharmacy", "healthcare": "pharmacy"}}, {"type": "node", "id": 6817893787, "lat": 42.4576869, "lon": 18.4922327, "tags": {"amenity": "pharmacy", "healthcare": "pharmacy"}}, {"type": "node", "id": 6827952688, "lat": 42.4551465, "lon": 18.5572986, "tags": {"amenity": "pharmacy", "healthcare": "pharmacy", "name:ru": "Bimedica"}}, {"type": "node", "id": 7273775798, "lat": 42.7783257, "lon": 18.9451416, "tags": {"amenity": "pharmacy", "healthcare": "pharmacy", "name:en": "Remedia", "name:sr": "Remedia"}}, {"type": "node", "id": 7359837827, "lat": 42.431196, "lon": 18.6966703, "tags": {"amenity": "pharmacy", "dispensing": "yes", "healthcare": "pharmacy", "name": "Bosiljak"}}, {"type": "node", "id": 8007311285, "lat": 42.4390623, "lon": 18.6948853, "tags": {"addr:city": "Tivat", "addr:street": "Pera\u0161ka", "amenity": "pharmacy", "drive_through": "no", "email": "mlatkovic10@gmail.com", "healthcare": "pharmacy", "level": "0", "name": "Apoteka Latkovich", "name:ru": "\u0410\u043f\u0442\u0435\u043a\u0430 \u041b\u0430\u0442\u043a\u043e\u0432\u0438\u0447", "name:sr-Latn": "Apoteka Latkovi\u0107", "opening_hours": "Mo-Sa 08:00-21:00", "phone": "+382 32 663 318"}}, {"type": "node", "id": 9169954218, "lat": 42.43201, "lon": 18.6943375, "tags": {"amenity": "pharmacy", "name:en": "Maxima"}}, {"type": "node", "id": 9966021617, "lat": 42.3890577, "lon": 18.7398406, "tags": {"amenity": "pharmacy", "healthcare": "pharmacy", "name": "Cosmetics"}}, {"type": "node", "id": 10702774526, "lat": 42.4350107, "lon": 18.6016191, "tags": {"amenity": "pharmacy", "healthcare": "pharmacy", "name": "Maxima Pharmacy"}}, {"type": "node", "id": 10955919161, "lat": 42.7764522, "lon": 18.944115, "tags": {"amenity": "pharmacy"}}, {"type": "node", "id": 11097029575, "lat": 42.4208358, "lon": 18.7700407, "tags": {"addr:street": "Put Prvoboraca", "amenity": "pharmacy", "check_date": "2025-09-16", "dispensing": "yes", "healthcare": "pharmacy", "name": "Apoteka Tea Medica 28", "opening_hours": "Mo-Su 08:00-22:00", "operator": "Tea Medica D.O.O."}}, {"type": "node", "id": 11225670037, "lat": 42.4576929, "lon": 18.5252673, "tags": {"amenity": "pharmacy", "name:en": "Royal Pharm", "opening_hours": "Mo-Sa 08:00-21:00"}}, {"type": "node", "id": 11225679537, "lat": 42.4587629, "lon": 18.5272778, "tags": {"amenity": "pharmacy"}}, {"type": "node", "id": 11306714070, "lat": 42.4504133, "lon": 18.6475327, "tags": {"amenity": "pharmacy", "healthcare": "pharmacy", "name": "Milja", "name:en": "Milja"}}, {"type": "node", "id": 11933762183, "lat": 42.4508783, "lon": 18.5470993, "tags": {"addr:street": "Bra\u0107e Grakali\u0107", "amenity": "pharmacy", "check_date": "2025-09-17", "healthcare": "pharmacy", "name": "Novifarm", "opening_hours": "Mo-Sa 08:00-21:00; Su off", "payment:apple_pay": "yes", "payment:cards": "yes", "payment:cash": "yes", "payment:google_pay": "yes"}}, {"type": "node", "id": 11985829370, "lat": 42.7755826, "lon": 18.9481343, "tags": {"amenity": "pharmacy"}}, {"type": "node", "id": 11985888171, "lat": 42.776626, "lon": 18.9459177, "tags": {"amenity": "pharmacy"}}, {"type": "node", "id": 11985888269, "lat": 42.7768373, "lon": 18.9442203, "tags": {"amenity": "pharmacy"}}, {"type": "node", "id": 12067076819, "lat": 42.4308029, "lon": 18.6954018, "tags": {"amenity": "pharmacy", "check_date": "2024-07-21", "healthcare": "pharmacy", "name": "Apoteka Riva"}}, {"type": "node", "id": 12144227419, "lat": 42.4544441, "lon": 18.6539582, "tags": {"amenity": "pharmacy", "healthcare": "pharmacy", "name": "Achillea", "opening_hours": "Mo-Sa 08:00-21:00", "survey:date": "2024-08-29"}}, {"type": "node", "id": 12175485584, "lat": 42.4506868, "lon": 18.6517288, "tags": {"amenity": "pharmacy"}}, {"type": "node", "id": 12192608783, "lat": 42.3893039, "lon": 18.7390401, "tags": {"amenity": "pharmacy", "healthcare": "pharmacy"}}, {"type": "node", "id": 13142583336, "lat": 42.4533714, "lon": 18.5390989, "tags": {"amenity": "pharmacy", "email": "eamedica17@teamedica.co.me", "fax": "031 327 011", "healthcare": "pharmacy", "name": "Tea Medica", "opening_hours": "Mo-Su 08:00-22:00", "phone": "031 327 011"}}]}