{"version": 0.6, "generator": "Overpass API 0.7.62.8 e802775f", "osm3s": {"timestamp_osm_base": "2025-10-06T08:47:24Z", "copyright": "The data included in this document is from www.openstreetmap.org. The data is made available under ODbL."}, "elements": [{"type": "node", "id": 2701239169, "lat": 41.4220571, "lon": 27.090496, "tags": {"amenity": "pharmacy", "healthcare": "pharmacy"}}, {"type": "node", "id": 2701239170, "lat": 41.4222341, "lon": 27.0901795, "tags": {"amenity": "pharmacy", "healthcare": "pharmacy"}}, {"type": "node", "id": 3801524706, "lat": 41.6367507, "lon": 26.6093513, "tags": {"amenity": "pharmacy", "healthcare": "pharmacy", "name": "\u015eim\u015fek Eczanesi", "phone": "+90 284 236 3377"}}, {"type": "node", "id": 6863335349, "lat": 41.6528932, "lon": 26.5960982, "tags": {"addr:city": "Edirne", "addr:housenumber": "1", "addr:neighbourhood": "Koca Sinan Mah.", "addr:street": "Re\u015fat \u00c7amdere Sok.", "amenity": "pharmacy", "dispensing": "yes", "drive_through": "no", "healthcare": "pharmacy", "name": "G\u00fcrkan Eczanesi", "opening_hours": "Mo-Sa 08:30-18:30", "operator": "G\u00fcrkan K\u0131l\u0131\u00e7c\u0131gil", "phone": "+90 284 236 3111"}}, {"type": "node", "id": 6938798923, "lat": 41.6517898, "lon": 26.5940352, "tags": {"addr:city": "Edirne", "addr:housenumber": "49", "addr:neighbourhood": "Koca Sinan Mah.", "addr:postcode": "22100", "addr:street": "Muammer Aksoy Cad.", "amenity": "pharmacy", "dispensing": "yes", "drive_through": "no", "healthcare": "pharmacy", "name": "Alt\u0131erler Eczanesi", "operator": "Nesrin Ayan", "phone": "+90 284 236 2209"}}, {"type": "node", "id": 6938828566, "lat": 41.6509148, "lon": 26.5939467, "tags": {"addr:city": "Edirne", "addr:housenumber": "1A", "addr:neighbourhood": "Koca Sinan Mah.", "addr:postcode": "22100", "addr:street": "\u015eevki Arman Cad.", "amenity": "pharmacy", "dispensing": "yes", "healthcare": "pharmacy", "name": "Kutluta\u015f Eczanesi", "operator": "\u00d6ner G\u00f6kmen", "phone": "+90 284 235 0085"}}, {"type": "node", "id": 6938851582, "lat": 41.6518734, "lon": 26.5939136, "tags": {"addr:city": "Edirne", "addr:housenumber": "48", "addr:neighbourhood": "Koca Sinan Mah.", "addr:postcode": "22100", "addr:street": "Muammer Aksoy Cad.", "amenity": "pharmacy", "dispensing": "yes", "healthcare": "pharmacy", "name": "S\u00fcer Eczanesi", "operator": "Havva Serap Sayhan", "phone": "+90 284 235 4777"}}, {"type": "node", "id": 6938863231, "lat": 41.6522711, "lon": 26.5943546, "tags": {"addr:city": "Edirne", "addr:housenumber": "42A", "addr:neighbourhood": "Koca Sinan Mah.", "addr:postcode": "22100", "addr:street": "Muammer Aksoy Cad.", "amenity": "pharmacy", "dispensing": "yes", "healthcare": "pharmacy", "name": "Sa\u011flam Eczanesi", "operator": "G\u00fcliz Sa\u011flam", "phone": "+90 284 236 5588"}}, {"type": "node", "id": 11159670808, "lat": 41.5488857, "lon": 26.8215734, "tags": {"amenity": "pharmacy", "healthcare": "pharmacy", "name": "Yavuz Eczanesi", "phone": "+90 284 336 2473"}}, {"type": "node", "id": 11159670809, "lat": 41.5496177, "lon": 26.8208213, "tags": {"amenity": "pharmacy", "healthcare": "pharmacy", "name": "Havsa Eczanesi", "phone": "+90 284 336 1045"}}, {"type": "node", "id": 11159671208, "lat": 41.5459924, "lon": 26.8296523, "tags": {"amenity": "pharmacy", "healthcare": "pharmacy", "name": "Petek Eczanesi", "phone": "+90 284 336 1122"}}, {"type": "node", "id": 11159671307, "lat": 41.5497241, "lon": 26.8221491, "tags": {"amenity": "pharmacy", "healthcare": "pharmacy", "name": "Derman Eczanesi", "phone": "+90 284 336 1549"}}, {"type": "node", "id": 11159671308, "lat": 41.54951, "lon": 26.8211555, "tags": {"amenity": "pharmacy", "healthcare": "pharmacy", "name": "G\u00fcn Eczanesi", "phone": "+90 284 336 1325"}}, {"type": "node", "id": 11159685005, "lat": 41.3946602, "lon": 26.802055, "tags": {"amenity": "pharmacy", "healthcare": "pharmacy", "name": "\u00c7i\u011fdem Eczanesi", "phone": "+90 284 594 1020"}}, {"type": "node", "id": 11517057769, "lat": 41.6382892, "lon": 26.6124473, "tags": {"amenity": "pharmacy", "healthcare": "pharmacy", "name": "Balkan Eczanesi", "phone": "+90 284 235 0672"}}, {"type": "node", "id": 11517057770, "lat": 41.6526618, "lon": 26.605301, "tags": {"amenity": "pharmacy", "name": "Nar Eczanesi", "phone": "+90 284 236 3435"}}, {"type": "node", "id": 11517057771, "lat": 41.6532887, "lon": 26.6021326, "tags": {"amenity": "pharmacy", "name": "\u00c7ift\u00e7i Eczanesi", "phone": "+90 284 235 0048"}}, {"type": "node", "id": 11517057772, "lat": 41.6570176, "lon": 26.5989399, "tags": {"amenity": "pharmacy", "name": "Berkay Eczanesi", "phone": "+90 284 235 5041"}}, {"type": "node", "id": 11517057773, "lat": 41.6653107, "lon": 26.5987616, "tags": {"amenity": "pharmacy", "healthcare": "pharmacy", "name": "Doktoro\u011flu Eczanesi", "phone": "+90 284 502 0005"}}, {"type": "node", "id": 11517057774, "lat": 41.6652106, "lon": 26.5982712, "tags": {"amenity": "pharmacy", "healthcare": "pharmacy", "name": "Uzun Eczanesi", "phone": "+90 284 236 0055"}}, {"type": "node", "id": 11517059269, "lat": 41.6533348, "lon": 26.5782478, "tags": {"amenity": "pharmacy", "healthcare": "pharmacy", "name": "Edirne Hayat Eczanesi", "phone": "+90 284 225 3175"}}, {"type": "node", "id": 11517059270, "lat": 41.6692352, "lon": 26.5911019, "tags": {"amenity": "pharmacy", "healthcare": "pharmacy", "name": "G\u00f6let Eczanesi", "phone": "+90 284 235 2023"}}, {"type": "node", "id": 11517059369, "lat": 41.6525429, "lon": 26.6051581, "tags": {"amenity": "pharmacy", "name": "Can Eczanesi", "phone": "+90 284 502 1128"}}, {"type": "node", "id": 11517059370, "lat": 41.6534546, "lon": 26.599927, "tags": {"amenity": "pharmacy", "name": "Giray Eczanesi", "phone": "+90 284 235 8060"}}, {"type": "node", "id": 11517059371, "lat": 41.6601385, "lon": 26.5962748, "tags": {"amenity": "pharmacy", "name": "\u00d6zdemir Eczanesi", "phone": "+90 284 235 0002"}}, {"type": "node", "id": 11517059372, "lat": 41.6696962, "lon": 26.5928236, "tags": {"amenity": "pharmacy", "healthcare": "pharmacy", "name": "Seray Eczanesi", "phone": "+90 284 999 1990"}}, {"type": "node", "id": 11517059469, "lat": 41.6571901, "lon": 26.5989113, "tags": {"amenity": "pharmacy", "name": "Selimiye Eczanesi", "phone": "+90 284 225 0833"}}, {"type": "node", "id": 11517059470, "lat": 41.6593931, "lon": 26.5954178, "tags": {"amenity": "pharmacy", "name": "F\u0131\u00e7\u0131c\u0131o\u011flu Eczanesi", "phone": "+90 284 236 5505"}}, {"type": "node", "id": 11517059471, "lat": 41.6623637, "lon": 26.5873921, "tags": {"amenity": "pharmacy", "healthcare": "pharmacy", "name": "Uygar Eczanesi", "phone": "+90 284 235 4212"}}, {"type": "node", "id": 11517059472, "lat": 41.6634959, "lon": 26.5852827, "tags": {"amenity": "pharmacy", "name": "G\u00fclden Eczanesi", "phone": "+90 284 235 2800"}}, {"type": "node", "id": 11517059473, "lat": 41.6656528, "lon": 26.5809875, "tags": {"amenity": "pharmacy", "healthcare": "pharmacy", "name": "Ezgi Engin Eczanesi", "phone": "+90 284 213 2547"}}, {"type": "node", "id": 11517059474, "lat": 41.6729985, "lon": 26.5915025, "tags": {"amenity": "pharmacy", "name": "G\u00fcrak Eczanesi", "phone": "+90 284 236 3737"}}, {"type": "node", "id": 11517059475, "lat": 41.677728, "lon": 26.5851824, "tags": {"amenity": "pharmacy", "name": "Pamuk Eczanesi", "phone": "+90 284 236 0303"}}, {"type": "node", "id": 11517059669, "lat": 41.6607108, "lon": 26.596003, "tags": {"amenity": "pharmacy", "name": "Beg\u00fcm Eczanesi", "phone": "+90 284 225 0730"}}, {"type": "node", "id": 11517059670, "lat": 41.6583562, "lon": 26.5892392, "tags": {"amenity": "pharmacy", "name": "Baca Eczanesi", "phone": "+90 284 235 7322"}}, {"type": "node", "id": 11517059671, "lat": 41.6640014, "lon": 26.5856003, "tags": {"amenity": "pharmacy", "healthcare": "pharmacy", "name": "Baraj Eczanesi", "phone": "+90 284 236 4017"}}, {"type": "node", "id": 11517059672, "lat": 41.6690826, "lon": 26.5850683, "tags": {"amenity": "pharmacy", "name": "Erkin Eczanesi", "phone": "+90 284 212 4604"}}, {"type": "node", "id": 11517059673, "lat": 41.6694318, "lon": 26.5849429, "tags": {"amenity": "pharmacy", "name": "Din\u00e7er Eczanesi", "phone": "+90 284 213 7388"}}, {"type": "node", "id": 11517059769, "lat": 41.6600634, "lon": 26.5844849, "tags": {"amenity": "pharmacy", "healthcare": "pharmacy", "name": "G\u00fcnayd\u0131n Eczanesi", "phone": "+90 284 236 2244"}}, {"type": "node", "id": 11517059770, "lat": 41.6666455, "lon": 26.5845023, "tags": {"amenity": "pharmacy", "healthcare": "pharmacy", "name": "Umut Eczanesi", "phone": "+90 284 214 1573"}}, {"type": "node", "id": 11517059869, "lat": 41.6733493, "lon": 26.5844886, "tags": {"amenity": "pharmacy", "name": "Rukiye Kantar Eczanesi", "phone": "+90 284 213 4647"}}, {"type": "node", "id": 11517060069, "lat": 41.6659343, "lon": 26.5985824, "tags": {"amenity": "pharmacy", "healthcare": "pharmacy", "name": "G\u00fcne\u015fim Eczanesi", "phone": "+90 284 336 3636"}}, {"type": "node", "id": 11517060070, "lat": 41.6652132, "lon": 26.5987983, "tags": {"amenity": "pharmacy", "healthcare": "pharmacy", "name": "\u00d6zg\u00fcr Eczanesi", "phone": "+90 284 214 8620"}}, {"type": "node", "id": 11517060072, "lat": 41.6916626, "lon": 26.576088, "tags": {"amenity": "pharmacy", "name": "\u015eerin Eczanesi", "phone": "+90 284 226 8118"}}, {"type": "node", "id": 11517060169, "lat": 41.6652331, "lon": 26.5984242, "tags": {"amenity": "pharmacy", "healthcare": "pharmacy", "name": "Derdiman Eczanesi", "phone": "+90 284 236 2238"}}, {"type": "node", "id": 11773733380, "lat": 41.6555754, "lon": 27.1721259, "tags": {"amenity": "pharmacy", "healthcare": "pharmacy", "name": "Kavakl\u0131 Eczanesi", "phone": "+90 288 246 1814"}}, {"type": "node", "id": 11773741469, "lat": 41.676731, "lon": 27.0692848, "tags": {"amenity": "pharmacy", "healthcare": "pharmacy", "name": "\u00c7a\u011flar", "phone": "+90 288 253 3855"}}, {"type": "node", "id": 11773744369, "lat": 41.7664541, "lon": 26.9100308, "tags": {"amenity": "pharmacy", "name": "S\u00fclo\u011flu Eczanesi", "phone": "+90 284 311 3689"}}, {"type": "node", "id": 12450475434, "lat": 41.4286963, "lon": 27.0912272, "tags": {"amenity": "pharmacy", "healthcare": "pharmacy", "name": "I\u015f\u0131k"}}, {"type": "node", "id": 12450475435, "lat": 41.4288775, "lon": 27.0914712, "tags": {"amenity": "pharmacy", "healthcare": "pharmacy", "name": "Bar\u0131\u015f"}}]}