{"version": 0.6, "generator": "Overpass API 0.7.62.8 e802775f", "osm3s": {"timestamp_osm_base": "2025-10-06T08:46:29Z", "copyright": "The data included in this document is from www.openstreetmap.org. The data is made available under ODbL."}, "elements": [{"type": "node", "id": 475521482, "lat": 44.939416, "lon": 26.0244908, "tags": {"addr:city": "Ploie\u0219ti", "amenity": "pharmacy", "healthcare": "pharmacy", "name": "Ropharma"}}, {"type": "node", "id": 475521547, "lat": 44.9408433, "lon": 26.0254271, "tags": {"addr:city": "Ploie\u0219ti", "addr:housenumber": "2", "addr:street": "Strada Unirii", "amenity": "pharmacy", "brand:wikipedia": "ro:Sensiblu", "dispensing": "yes", "healthcare": "pharmacy", "name": "Maxi Farma", "website": "https://www.maxifarma.ro/"}}, {"type": "node", "id": 475522841, "lat": 44.9180824, "lon": 26.0351926, "tags": {"amenity": "pharmacy", "brand": "Dr. Max", "brand:wikidata": "Q56317371", "healthcare": "pharmacy", "name": "Dr. Max", "wheelchair": "yes"}}, {"type": "node", "id": 475569913, "lat": 44.9263711, "lon": 26.0278536, "tags": {"amenity": "pharmacy", "healthcare": "pharmacy"}}, {"type": "node", "id": 479975993, "lat": 44.9391908, "lon": 26.0499401, "tags": {"amenity": "pharmacy"}}, {"type": "node", "id": 492824097, "lat": 44.9347497, "lon": 25.9875038, "tags": {"amenity": "pharmacy", "healthcare": "pharmacy", "name": "Farmacia Dona"}}, {"type": "node", "id": 492828894, "lat": 44.9356978, "lon": 26.0163868, "tags": {"amenity": "pharmacy"}}, {"type": "node", "id": 493922785, "lat": 44.9437712, "lon": 26.0226287, "tags": {"amenity": "pharmacy", "brand": "Catena", "brand:wikidata": "Q24035728", "brand:wikipedia": "ro:Farmacia Catena", "dispensing": "yes", "healthcare": "pharmacy", "name": "Catena"}}, {"type": "node", "id": 762054490, "lat": 44.941596, "lon": 26.0250024, "tags": {"addr:city": "Ploie\u0219ti", "amenity": "pharmacy", "brand": "Dr. Max", "brand:wikidata": "Q56317371", "healthcare": "pharmacy", "name": "Dr. Max", "operator": "Dr.Max", "website": "https://www.drmax.ro"}}, {"type": "node", "id": 1044651024, "lat": 44.9475009, "lon": 26.0091796, "tags": {"amenity": "pharmacy", "brand": "Catena", "brand:wikidata": "Q24035728", "brand:wikipedia": "ro:Farmacia Catena", "dispensing": "yes", "healthcare": "pharmacy", "name": "Catena"}}, {"type": "node", "id": 1249091237, "lat": 45.1640593, "lon": 26.0308873, "tags": {"addr:housename": "Gura Vitioarei", "addr:housenumber": "427", "addr:postcode": "107305", "addr:street": "Bulevardul Nicolae Iorga", "amenity": "pharmacy", "int_name": "SunnyPharma", "name": "Farmacia SunnyPharma", "website": "https://sunnypharma.ro/"}}, {"type": "node", "id": 1282237080, "lat": 44.9338787, "lon": 26.0304309, "tags": {"addr:street": "Strada Democra\u021biei", "amenity": "pharmacy", "dispensing": "yes", "name": "Farmex"}}, {"type": "node", "id": 1286851491, "lat": 44.9398446, "lon": 26.0283616, "tags": {"addr:city": "Ploie\u0219ti", "addr:street": "Strada Nicolae B\u0103lcescu", "amenity": "pharmacy", "brand": "Catena", "brand:wikidata": "Q24035728", "brand:wikipedia": "ro:Farmacia Catena", "dispensing": "yes", "healthcare": "pharmacy", "name": "Catena"}}, {"type": "node", "id": 1324018054, "lat": 44.9386593, "lon": 26.0470386, "tags": {"addr:city": "Ploie\u0219ti", "amenity": "pharmacy", "healthcare": "pharmacy", "name": "Pro Sana"}}, {"type": "node", "id": 1368496395, "lat": 44.9411761, "lon": 26.0251646, "tags": {"addr:city": "Ploie\u0219ti", "addr:housenumber": "2", "addr:street": "Strada Unirii", "amenity": "pharmacy", "brand": "Dr. Max", "brand:wikidata": "Q56317371", "brand:wikipedia": "ro:Sensiblu", "dispensing": "yes", "healthcare": "pharmacy", "name": "Dr. Max", "website": "https://www.drmax.ro/farmacii/ploiesti-str-piata-unirii-nr-2"}}, {"type": "node", "id": 1498607964, "lat": 44.9325666, "lon": 26.0196246}, {"type": "node", "id": 1498607965, "lat": 44.9325359, "lon": 26.0198407}, {"type": "node", "id": 1498607967, "lat": 44.9324385, "lon": 26.0198131}, {"type": "node", "id": 1498607968, "lat": 44.932462, "lon": 26.0196477}, {"type": "node", "id": 1612107880, "lat": 45.1832484, "lon": 25.6658998, "tags": {"amenity": "pharmacy", "healthcare": "pharmacy", "name": "Farmacie"}}, {"type": "node", "id": 1612107897, "lat": 45.1770185, "lon": 25.6704628, "tags": {"amenity": "pharmacy", "name": "Farmacie"}}, {"type": "node", "id": 1778281379, "lat": 45.1775277, "lon": 25.6704705, "tags": {"amenity": "pharmacy", "name": "Farmacie Naturist\u0103"}}, {"type": "node", "id": 1872773116, "lat": 44.921689, "lon": 26.0346628, "tags": {"amenity": "pharmacy", "healthcare": "pharmacy", "name": "Maxi farma", "wheelchair": "yes"}}, {"type": "node", "id": 1877583447, "lat": 44.9181091, "lon": 26.0343943, "tags": {"amenity": "pharmacy", "brand": "Catena", "brand:wikidata": "Q24035728", "brand:wikipedia": "ro:Farmacia Catena", "healthcare": "pharmacy", "name": "Catena"}}, {"type": "node", "id": 1877606889, "lat": 44.9256823, "lon": 26.0286141, "tags": {"addr:city": "Ploie\u0219ti", "amenity": "pharmacy", "brand": "Catena", "brand:wikidata": "Q24035728", "brand:wikipedia": "ro:Farmacia Catena", "healthcare": "pharmacy", "name": "Catena"}}, {"type": "node", "id": 1877641995, "lat": 44.9424133, "lon": 26.0233111, "tags": {"addr:street": "Strada Sublocotenent Erou C\u0103lin C\u0103t\u0103lin", "amenity": "pharmacy", "healthcare": "pharmacy", "name": "Farmex"}}, {"type": "node", "id": 1877641998, "lat": 44.9409385, "lon": 26.0253399, "tags": {"addr:city": "Ploie\u0219ti", "amenity": "pharmacy", "brand": "Help Net", "brand:wikidata": "Q12729923", "healthcare": "pharmacy", "name": "Help Net"}}, {"type": "node", "id": 1911247026, "lat": 44.956036, "lon": 25.9927097, "tags": {"addr:city": "Ploie\u0219ti", "amenity": "pharmacy", "brand": "Dr. Max", "brand:wikidata": "Q56317371", "brand:wikipedia": "ro:Sensiblu", "dispensing": "no", "healthcare": "pharmacy", "name": "Dr. Max"}}, {"type": "node", "id": 1931338184, "lat": 45.1352338, "lon": 25.636706, "tags": {"amenity": "pharmacy", "name": "Farmacie", "name:ro": "Farmacie"}}, {"type": "node", "id": 2013705324, "lat": 45.0497711, "lon": 25.9525014, "tags": {"amenity": "pharmacy"}}, {"type": "node", "id": 2013705337, "lat": 45.0507363, "lon": 25.9528475, "tags": {"amenity": "pharmacy"}}, {"type": "node", "id": 2479448131, "lat": 45.1277377, "lon": 25.7413812}, {"type": "node", "id": 2479448150, "lat": 45.1278074, "lon": 25.7415018}, {"type": "node", "id": 2479448171, "lat": 45.1279084, "lon": 25.7411828}, {"type": "node", "id": 2479448194, "lat": 45.1279781, "lon": 25.7413034}, {"type": "node", "id": 2536195293, "lat": 44.9495974, "lon": 26.0057653, "tags": {"amenity": "pharmacy", "brand": "Dr. Max", "brand:wikidata": "Q56317371", "healthcare": "pharmacy", "name": "Dr. Max", "operator": "Dr.Max", "website": "https://www.drmax.ro"}}, {"type": "node", "id": 2635287207, "lat": 45.1236441, "lon": 25.7355882, "tags": {"addr:city": "C\u00e2mpina", "addr:housename": "Farmacia SETI", "addr:housenumber": "40", "addr:postcode": "105600", "addr:street": "Bulevardul Carol I", "amenity": "pharmacy", "healthcare": "pharmacy", "name": "Farmacia SETI"}}, {"type": "node", "id": 2635302752, "lat": 45.1242894, "lon": 25.7348318, "tags": {"addr:city": "C\u00e2mpina", "addr:housename": "MedimFarm", "addr:housenumber": "48", "addr:postcode": "105600", "addr:street": "Bulevardul Carol I", "amenity": "pharmacy", "healthcare": "pharmacy", "name": "MedimFarm"}}, {"type": "node", "id": 2635321068, "lat": 45.1264639, "lon": 25.7333137, "tags": {"addr:city": "C\u00e2mpina", "addr:housename": "Farmacia Seti", "addr:housenumber": "64", "addr:postcode": "105600", "addr:street": "Bulevardul Carol I", "amenity": "pharmacy", "healthcare": "pharmacy", "name": "Farmacia Seti"}}, {"type": "node", "id": 2635336058, "lat": 45.1269483, "lon": 25.7328309, "tags": {"addr:city": "C\u00e2mpina", "addr:housename": "Farmacia MedimFarm", "addr:housenumber": "61", "addr:postcode": "105600", "addr:street": "Bulevardul Carol I", "amenity": "pharmacy", "name": "Farmacia MedimFarm"}}, {"type": "node", "id": 2635346554, "lat": 45.1274157, "lon": 25.7329436, "tags": {"addr:city": "C\u00e2mpina", "addr:housename": "Farmacia SensiBlu", "addr:housenumber": "63", "addr:postcode": "105600", "addr:street": "Bulevardul Carol I", "amenity": "pharmacy", "atm": "yes", "healthcare": "pharmacy", "name": "Farmacia SensiBlu"}}, {"type": "node", "id": 2635347047, "lat": 45.1274763, "lon": 25.7329731, "tags": {"addr:city": "C\u00e2mpina", "addr:housename": "Farmacia Hygeea", "addr:housenumber": "63", "addr:postcode": "105600", "addr:street": "Bulevardul Carol I", "amenity": "pharmacy", "healthcare": "pharmacy", "name": "Farmacia Hygeea"}}, {"type": "node", "id": 2677441223, "lat": 44.9429638, "lon": 26.0299332, "tags": {"amenity": "pharmacy", "name": "Dona"}}, {"type": "node", "id": 2677441225, "lat": 44.941827, "lon": 26.0293165, "tags": {"addr:street": "Strada Po\u0219tei", "amenity": "pharmacy", "fixme": "name"}}, {"type": "node", "id": 2806795820, "lat": 45.1816108, "lon": 26.0366451, "tags": {"amenity": "pharmacy", "healthcare": "pharmacy", "name": "Fiavi Farm"}}, {"type": "node", "id": 2931464209, "lat": 45.0338478, "lon": 25.87384, "tags": {"addr:city": "B\u0103icoi", "amenity": "pharmacy", "name": "Catena"}}, {"type": "node", "id": 2931464214, "lat": 45.0340722, "lon": 25.875732, "tags": {"addr:city": "B\u0103icoi", "addr:postcode": "105200", "amenity": "pharmacy", "name": "Farmaline"}}, {"type": "node", "id": 3079510466, "lat": 44.9487721, "lon": 26.0067596, "tags": {"amenity": "pharmacy", "brand": "Farmacia Dona", "brand:wikidata": "Q12726919", "healthcare": "pharmacy", "name": "Farmacia Dona"}}, {"type": "node", "id": 3355086194, "lat": 45.02189, "lon": 25.9436254, "tags": {"amenity": "pharmacy", "brand": "Farmacia Dona", "brand:wikidata": "Q12726919", "brand:wikipedia": "ro:Dona", "healthcare": "pharmacy", "name": "Farmacia Dona"}}, {"type": "node", "id": 3667434182, "lat": 45.2310769, "lon": 25.9393376, "tags": {"addr:city": "Sl\u0103nic", "amenity": "pharmacy", "name": "Tehno Farm selo"}}, {"type": "node", "id": 3724824861, "lat": 44.8520103, "lon": 26.0202414, "tags": {"addr:city": "Brazii de Jos", "addr:housenumber": "17", "addr:postcode": "107083", "addr:street": "Strada Teilor", "amenity": "pharmacy"}}, {"type": "node", "id": 4043195880, "lat": 44.9428615, "lon": 26.0219406, "tags": {"amenity": "pharmacy", "brand": "Dr. Max", "brand:wikidata": "Q56317371", "healthcare": "pharmacy", "name": "Dr. Max", "operator": "Dr.Max", "website": "https://www.drmax.ro"}}, {"type": "node", "id": 4043412911, "lat": 44.9440266, "lon": 26.017078, "tags": {"amenity": "pharmacy", "name": "Medimfarm", "source": "survey"}}, {"type": "node", "id": 4148594257, "lat": 44.9841268, "lon": 25.6443161, "tags": {"amenity": "pharmacy", "healthcare": "pharmacy", "name": "Gen\u021biana"}}, {"type": "node", "id": 4321749959, "lat": 44.9436406, "lon": 26.0203021, "tags": {"amenity": "pharmacy", "healthcare": "pharmacy", "name": "Farmacia Maxi Farma"}}, {"type": "node", "id": 4321785770, "lat": 44.9409666, "lon": 26.022013, "tags": {"amenity": "pharmacy", "brand": "Dr. Max", "brand:wikidata": "Q56317371", "healthcare": "pharmacy", "name": "Dr. Max", "operator": "Dr.Max", "website": "https://www.drmax.ro"}}, {"type": "node", "id": 4321791261, "lat": 44.9436121, "lon": 26.0205676, "tags": {"addr:city": "Ploie\u0219ti", "amenity": "pharmacy", "brand": "Help Net", "brand:wikidata": "Q12729923", "healthcare": "pharmacy", "name": "Help Net"}}, {"type": "node", "id": 4321791262, "lat": 44.9437782, "lon": 26.0206249, "tags": {"addr:city": "Ploie\u0219ti", "amenity": "pharmacy", "brand": "Catena", "brand:wikidata": "Q24035728", "brand:wikipedia": "ro:Farmacia Catena", "healthcare": "pharmacy", "name": "Catena"}}, {"type": "node", "id": 4321791404, "lat": 44.9445228, "lon": 26.0213848, "tags": {"addr:city": "Ploie\u0219ti", "amenity": "pharmacy", "healthcare": "pharmacy", "name": "Maxi Farma"}}, {"type": "node", "id": 4427662190, "lat": 44.9845093, "lon": 25.6440221, "tags": {"amenity": "pharmacy", "healthcare": "pharmacy", "name": "Mu\u0219e\u021bel", "name:en": "Musetel", "name:ro": "Musetel"}}, {"type": "node", "id": 4427692194, "lat": 44.9842898, "lon": 25.6442084, "tags": {"amenity": "pharmacy", "healthcare": "pharmacy", "name": "Maxi Farm", "name:en": "Maxi Farm", "name:ro": "Maxi Farm"}}, {"type": "node", "id": 4763116272, "lat": 45.1564252, "lon": 25.7023434, "tags": {"addr:city": "Cornu de Jos", "addr:housenumber": "7B", "addr:postcode": "107180", "addr:street": "Strada Mihai Eminescu", "amenity": "pharmacy", "healthcare": "pharmacy", "name": "Farmacia Floris", "opening_hours": "Mo-Fr 09:00-19:30; Sa 09:00-16:00; Su 09:00-14:00"}}, {"type": "node", "id": 4903458773, "lat": 45.1162457, "lon": 25.7464025, "tags": {"addr:city": "C\u00e2mpina", "addr:housenumber": "46", "addr:postcode": "105600", "addr:street": "Bulevardul Nicolae B\u0103lcescu", "amenity": "pharmacy", "healthcare": "pharmacy", "name": "MedimFarm"}}, {"type": "node", "id": 5240814621, "lat": 44.9411805, "lon": 26.0205482, "tags": {"addr:city": "Ploie\u0219ti", "addr:housenumber": "25", "addr:street": "Bulevardul Republicii", "amenity": "pharmacy", "brand": "Help Net", "brand:wikidata": "Q12729923", "dispensing": "yes", "healthcare": "pharmacy", "name": "Help Net"}}, {"type": "node", "id": 5585933528, "lat": 45.2297746, "lon": 25.9383806, "tags": {"amenity": "pharmacy", "name": "Farmacie veterinar\u0103"}}, {"type": "node", "id": 5940266278, "lat": 44.9314466, "lon": 25.9896717, "tags": {"amenity": "pharmacy", "healthcare": "pharmacy"}}, {"type": "node", "id": 5940266280, "lat": 44.9299278, "lon": 25.995693, "tags": {"amenity": "pharmacy"}}, {"type": "node", "id": 5940307228, "lat": 44.9345022, "lon": 25.9888896, "tags": {"amenity": "pharmacy", "healthcare": "pharmacy"}}, {"type": "node", "id": 5940344241, "lat": 44.9322988, "lon": 26.0061924, "tags": {"addr:street": "Strada Eroilor", "amenity": "pharmacy", "healthcare": "pharmacy", "name": "Farmacia Maxi Farma"}}, {"type": "node", "id": 6052497440, "lat": 44.9446621, "lon": 25.9655803, "tags": {"amenity": "pharmacy", "brand": "Catena", "brand:wikidata": "Q24035728", "brand:wikipedia": "ro:Farmacia Catena", "dispensing": "yes", "healthcare": "pharmacy", "name": "Catena"}}, {"type": "node", "id": 6244998973, "lat": 44.9313314, "lon": 26.031969, "tags": {"addr:street": "Strada Democra\u021biei", "amenity": "pharmacy"}}, {"type": "node", "id": 6245613833, "lat": 44.945687, "lon": 26.0343468, "tags": {"addr:street": "Strada Po\u0219tei", "amenity": "pharmacy"}}, {"type": "node", "id": 6250463970, "lat": 44.9388704, "lon": 26.0272631, "tags": {"addr:city": "Ploie\u0219ti", "addr:street": "Strada \u0218tefan cel Mare", "amenity": "pharmacy", "fixme": "name"}}, {"type": "node", "id": 6252252446, "lat": 44.9476262, "lon": 25.997571, "tags": {"addr:street": "Strada Deltei", "amenity": "pharmacy", "fixme": "name"}}, {"type": "node", "id": 6252434302, "lat": 44.9420543, "lon": 25.9963389, "tags": {"addr:street": "Strada Malu Ro\u0219u", "amenity": "pharmacy", "healthcare": "pharmacy", "name": "Farmacia Maxi Farma"}}, {"type": "node", "id": 6252434320, "lat": 44.9419316, "lon": 25.997587, "tags": {"addr:street": "Strada Malu Ro\u0219u", "amenity": "pharmacy", "brand": "Catena", "brand:wikidata": "Q24035728", "brand:wikipedia": "ro:Farmacia Catena", "dispensing": "yes", "healthcare": "pharmacy", "name": "Catena"}}, {"type": "node", "id": 7345302000, "lat": 44.8788808, "lon": 25.9210395}, {"type": "node", "id": 7345302001, "lat": 44.8787801, "lon": 25.9210172}, {"type": "node", "id": 7345302002, "lat": 44.8787585, "lon": 25.921135}, {"type": "node", "id": 7345302003, "lat": 44.8788592, "lon": 25.9212183}, {"type": "node", "id": 8075179836, "lat": 44.8324867, "lon": 25.8996855, "tags": {"amenity": "pharmacy", "dispensing": "yes", "healthcare": "pharmacy", "name": "Dona"}}, {"type": "node", "id": 8205749987, "lat": 44.953029, "lon": 26.0007849, "tags": {"amenity": "pharmacy", "brand": "Farmacia Dona", "brand:wikidata": "Q12726919", "dispensing": "yes", "healthcare": "pharmacy", "name": "Farmacia Dona"}}, {"type": "node", "id": 8205749995, "lat": 44.9534054, "lon": 26.0009989, "tags": {"amenity": "pharmacy", "dispensing": "yes", "healthcare": "pharmacy", "name": "Maxi Farma"}}, {"type": "node", "id": 8205749996, "lat": 44.9535318, "lon": 26.0009034, "tags": {"amenity": "pharmacy", "brand": "Catena", "brand:wikidata": "Q24035728", "brand:wikipedia": "ro:Farmacia Catena", "dispensing": "yes", "healthcare": "pharmacy", "name": "Catena"}}, {"type": "node", "id": 8205749997, "lat": 44.953631, "lon": 26.0006754, "tags": {"amenity": "pharmacy", "dispensing": "yes", "healthcare": "pharmacy", "name": "Farmacia Natura Nord"}}, {"type": "node", "id": 8205749998, "lat": 44.9539199, "lon": 26.001553, "tags": {"amenity": "pharmacy", "brand": "Dr. Max", "brand:wikidata": "Q56317371", "dispensing": "yes", "healthcare": "pharmacy", "name": "Dr. Max", "operator": "Dr.Max", "website": "https://www.drmax.ro"}}, {"type": "node", "id": 8205756848, "lat": 44.9567479, "lon": 26.0055077, "tags": {"amenity": "pharmacy", "dispensing": "yes", "healthcare": "pharmacy", "name": "Farmex"}}, {"type": "node", "id": 8206574879, "lat": 44.956909, "lon": 25.9982801, "tags": {"amenity": "pharmacy", "brand": "Farmacia Dona", "brand:wikidata": "Q12726919", "brand:wikipedia": "ro:BRD - Groupe Soci\u00e9t\u00e9 G\u00e9n\u00e9rale", "healthcare": "pharmacy", "name": "Farmacia Dona"}}, {"type": "node", "id": 8206638218, "lat": 44.9617054, "lon": 26.0071189, "tags": {"amenity": "pharmacy", "dispensing": "yes", "healthcare": "pharmacy", "name": "Maxi Farma"}}, {"type": "node", "id": 8207935852, "lat": 44.9519857, "lon": 26.009768, "tags": {"amenity": "pharmacy", "brand": "Catena", "brand:wikidata": "Q24035728", "brand:wikipedia": "ro:Farmacia Catena", "dispensing": "yes", "healthcare": "pharmacy", "name": "Catena"}}, {"type": "node", "id": 8226338508, "lat": 44.9324803, "lon": 26.0196529}, {"type": "node", "id": 8226338509, "lat": 44.9324875, "lon": 26.0196022}, {"type": "node", "id": 8246337259, "lat": 44.9440848, "lon": 26.0209021, "tags": {"amenity": "pharmacy", "brand": "Farmacia Dona", "brand:wikidata": "Q12726919", "dispensing": "yes", "healthcare": "pharmacy", "name": "Farmacia Dona"}}, {"type": "node", "id": 8317949956, "lat": 45.0333323, "lon": 25.8480604, "tags": {"amenity": "pharmacy", "dispensing": "yes", "healthcare": "pharmacy", "operator": "Professional Farmaline"}}, {"type": "node", "id": 8507189778, "lat": 44.9428436, "lon": 25.993206, "tags": {"amenity": "pharmacy", "dispensing": "yes", "healthcare": "pharmacy", "name": "Farmacia Pro-Sana"}}, {"type": "node", "id": 8507878343, "lat": 44.937989, "lon": 25.9962706, "tags": {"amenity": "pharmacy", "brand": "Farmacia Dona", "brand:wikidata": "Q12726919", "brand:wikipedia": "ro:Dona", "dispensing": "yes", "healthcare": "pharmacy", "name": "Farmacia Dona"}}, {"type": "node", "id": 8569755619, "lat": 44.9386832, "lon": 26.0465656, "tags": {"addr:street": "Aleea Chimiei", "amenity": "pharmacy", "healthcare": "pharmacy", "name": "MAXI IFARMA"}}, {"type": "node", "id": 8740140923, "lat": 44.9375498, "lon": 25.9964261, "tags": {"addr:city": "Ploie\u0219ti", "addr:housenumber": "203", "addr:street": "Strada Gheorghe Grigore Cantacuzino", "amenity": "pharmacy", "dispensing": "yes", "healthcare": "pharmacy", "name": "Farm Impex"}}, {"type": "node", "id": 9288834381, "lat": 44.9280858, "lon": 26.0379524, "tags": {"amenity": "pharmacy", "brand": "Dr. Max", "brand:wikidata": "Q56317371", "dispensing": "yes", "healthcare": "pharmacy", "name": "Dr. Max", "website": "https://www.drmax.ro"}}, {"type": "node", "id": 9288834398, "lat": 44.9284123, "lon": 26.035872, "tags": {"addr:city": "Ploie\u0219ti", "amenity": "pharmacy", "brand": "Dr. Max", "brand:wikidata": "Q56317371", "brand:wikipedia": "en:Deichmann SE", "dispensing": "yes", "healthcare": "pharmacy", "name": "Dr. Max"}}, {"type": "node", "id": 9735608179, "lat": 45.180714, "lon": 25.7662699, "tags": {"addr:city": "Brebu", "amenity": "pharmacy", "dispensing": "yes", "healthcare": "pharmacy", "name": "Farmacie SC Magda Farm SRL"}}, {"type": "node", "id": 9804205531, "lat": 44.9415198, "lon": 26.0245815, "tags": {"amenity": "pharmacy", "brand": "Dr. Max", "brand:wikidata": "Q56317371", "dispensing": "yes", "healthcare": "pharmacy", "name": "Dr. Max", "operator": "Dr.Max", "website": "https://www.drmax.ro"}}, {"type": "node", "id": 10161802208, "lat": 44.9393741, "lon": 26.0462592, "tags": {"amenity": "pharmacy", "brand": "Catena", "brand:wikidata": "Q24035728", "dispensing": "yes", "healthcare": "pharmacy", "name": "Catena"}}, {"type": "node", "id": 10241762685, "lat": 45.1199452, "lon": 25.7395863, "tags": {"addr:city": "C\u00e2mpina", "addr:street": "Bulevardul Nicolae B\u0103lcescu", "amenity": "pharmacy", "healthcare": "pharmacy", "name": "Medifarm"}}, {"type": "node", "id": 10258126135, "lat": 44.942571, "lon": 25.9971868, "tags": {"amenity": "pharmacy", "brand": "Dr. Max", "brand:wikidata": "Q56317371", "healthcare": "pharmacy", "name": "Dr. Max"}}, {"type": "node", "id": 10258126136, "lat": 44.9425169, "lon": 25.9974881, "tags": {"amenity": "pharmacy", "brand": "Catena", "brand:wikidata": "Q24035728", "healthcare": "pharmacy", "name": "Catena"}}, {"type": "node", "id": 10300144564, "lat": 45.1805989, "lon": 25.959549, "tags": {"addr:city": "V\u0103rbil\u0103u", "amenity": "pharmacy", "healthcare": "pharmacy", "name": "Elasan Farm"}}, {"type": "node", "id": 10300144694, "lat": 45.1778518, "lon": 25.9569549, "tags": {"addr:city": "V\u0103rbil\u0103u", "amenity": "pharmacy", "healthcare": "pharmacy", "name": "Elasan Farm"}}, {"type": "node", "id": 10866732701, "lat": 45.1391517, "lon": 25.7875704, "tags": {"addr:city": "Telega", "amenity": "pharmacy", "healthcare": "pharmacy", "name": "Medimfarm"}}, {"type": "node", "id": 11697169204, "lat": 44.9393723, "lon": 26.0465118, "tags": {"amenity": "pharmacy", "brand": "Dr. Max", "brand:wikidata": "Q56317371", "healthcare": "pharmacy", "name": "Dr. Max"}}, {"type": "node", "id": 12209915902, "lat": 44.7853636, "lon": 25.8809478, "tags": {"amenity": "pharmacy", "healthcare": "pharmacy"}}, {"type": "node", "id": 12209915903, "lat": 44.7849587, "lon": 25.8805895, "tags": {"amenity": "pharmacy", "brand": "EvoFarm", "brand:wikidata": "Q114647927", "healthcare": "pharmacy", "name": "EvoFarm"}}, {"type": "node", "id": 12209915908, "lat": 44.785756, "lon": 25.880803, "tags": {"amenity": "pharmacy", "healthcare": "pharmacy", "name": "Helpis"}}, {"type": "node", "id": 12318726242, "lat": 44.9469646, "lon": 26.0334134, "tags": {"amenity": "pharmacy", "brand": "Help Net", "brand:wikidata": "Q12729923", "healthcare": "pharmacy", "level": "0", "name": "Help Net"}}, {"type": "node", "id": 12364988855, "lat": 44.9489399, "lon": 26.007665, "tags": {"amenity": "pharmacy", "brand": "Help Net", "brand:wikidata": "Q12729923", "healthcare": "pharmacy", "name": "Help Net"}}, {"type": "node", "id": 12364988857, "lat": 44.9482083, "lon": 26.0082748, "tags": {"amenity": "pharmacy", "brand": "Catena", "brand:wikidata": "Q24035728", "healthcare": "pharmacy", "name": "Catena"}}, {"type": "node", "id": 12365161661, "lat": 44.9512482, "lon": 26.0004772, "tags": {"amenity": "pharmacy", "brand": "Dr. Max", "brand:wikidata": "Q56317371", "healthcare": "pharmacy", "name": "Dr. Max"}}, {"type": "node", "id": 12469077385, "lat": 44.9271284, "lon": 26.0365072, "tags": {"amenity": "pharmacy", "brand": "Dr. Max", "brand:wikidata": "Q56317371", "healthcare": "pharmacy", "name": "Dr. Max"}}, {"type": "node", "id": 12623505534, "lat": 44.8170942, "lon": 25.6611441}, {"type": "node", "id": 12623505535, "lat": 44.8172695, "lon": 25.6612486}, {"type": "node", "id": 12623505536, "lat": 44.8171316, "lon": 25.6617078}, {"type": "node", "id": 12623505537, "lat": 44.8169564, "lon": 25.6616033}, {"type": "node", "id": 12862568211, "lat": 44.9464788, "lon": 26.0326052, "tags": {"amenity": "pharmacy", "brand": "Dr. Max", "brand:wikidata": "Q56317371", "healthcare": "pharmacy", "name": "Dr. Max"}}, {"type": "node", "id": 13058289510, "lat": 44.817101, "lon": 25.6614413, "tags": {"addr:city": "B\u0103leni-Rom\u00e2ni", "addr:postcode": "137015", "addr:street": "\u0218oseaua Bucure\u0219ti-T\u00e2rgovi\u0219te", "amenity": "pharmacy", "contact:facebook": "https://www.facebook.com/farmaciileMinigram", "healthcare": "pharmacy", "name": "Farmacia Minigram", "opening_hours": "Mo-Su 09:00-21:00", "operator": "Minigram", "payment:app": "yes", "payment:apple_pay": "yes", "payment:cash": "yes", "payment:maestro": "yes", "payment:mastercard": "yes", "payment:visa": "yes", "phone": "0345401764", "website": "https://minigram.ro"}}, {"type": "node", "id": 13131531691, "lat": 44.9392948, "lon": 26.0499533, "tags": {"amenity": "pharmacy", "healthcare": "pharmacy"}}, {"type": "way", "id": 136600459, "nodes": [1498607965, 1498607967, 1498607968, 8226338508, 8226338509, 1498607964, 1498607965], "tags": {"addr:city": "Ploie\u0219ti", "addr:housenumber": "80", "addr:street": "Strada Rudului", "amenity": "pharmacy", "brand": "Catena", "brand:wikidata": "Q24035728", "brand:wikipedia": "ro:Farmacia Catena", "building": "yes", "dispensing": "yes", "healthcare": "pharmacy", "name": "Catena", "website": "https://www.pex.ro/"}}, {"type": "way", "id": 240188890, "nodes": [2479448171, 2479448194, 2479448150, 2479448131, 2479448171], "tags": {"addr:city": "C\u00e2mpina", "addr:housenumber": "19", "addr:postcode": "105600", "addr:street": "Strada Alexandru Ioan Cuza", "amenity": "pharmacy", "brand": "Catena", "brand:wikidata": "Q24035728", "building": "yes", "drive_through": "no", "fixme": "Check opening hours on site, these are from an online website: https://deschis.ro/campina/catena-al-icuza-19-campina-79680", "healthcare": "pharmacy", "name": "Catena", "opening_hours": "Mo-Fr 08:00-20:30; Sa-Su 08:00-15:00"}}, {"type": "way", "id": 785765305, "nodes": [7345302000, 7345302001, 7345302002, 7345302003, 7345302000], "tags": {"amenity": "pharmacy", "building": "yes", "dispensing": "yes", "healthcare": "pharmacy", "name": "Farmacia Alberta"}}, {"type": "way", "id": 1363351104, "nodes": [12623505534, 12623505535, 12623505536, 12623505537, 12623505534], "tags": {"access": "customers", "addr:city": "B\u0103leni-Rom\u00e2ni", "addr:postcode": "137015", "addr:street": "\u0218oseaua Bucure\u0219ti-T\u00e2rgovi\u0219te", "amenity": "pharmacy", "building": "yes", "capacity": "45", "contact:facebook": "https://www.facebook.com/farmaciileMinigram", "dispensing": "no", "healthcare": "pharmacy", "name": "Farmacia Minigram", "opening_hours": "Mo-Su 09:00-21:00", "operator": "Minigram", "parking_space": "normal", "payment:app": "yes", "payment:cash": "yes", "payment:credit_cards": "yes", "payment:mastercard": "yes", "payment:visa": "yes", "phone": "+0345401764", "website": "https://minigram.ro"}}]}