{"version": 0.6, "generator": "Overpass API 0.7.62.8 e802775f", "osm3s": {"timestamp_osm_base": "2025-10-06T08:20:01Z", "copyright": "The data included in this document is from www.openstreetmap.org. The data is made available under ODbL."}, "elements": [{"type": "node", "id": 432504790, "lat": 51.7741721, "lon": 19.423445, "tags": {"amenity": "pharmacy", "dispensing": "yes", "name": "Doz Apteka Dbam O Zdrowie", "opening_hours": "Mo-Fr 08:00-20:00; Su 08:00-14:00", "ref:csioz": "1012304", "wheelchair": "yes"}}, {"type": "node", "id": 432504791, "lat": 51.7764476, "lon": 19.4258121, "tags": {"addr:city": "\u0141\u00f3d\u017a", "addr:housenumber": "26", "addr:postcode": "91-083", "addr:street": "Jana D\u0142ugosza", "amenity": "pharmacy", "dispensing": "yes", "healthcare": "pharmacy", "name": "A Jak Apteka", "opening_hours": "Mo-Fr 08:00-20:00; Sa 08:00-15:00", "ref:csioz": "1193461"}}, {"type": "node", "id": 432504792, "lat": 51.7764834, "lon": 19.4256377, "tags": {"addr:city": "\u0141\u00f3d\u017a", "addr:housenumber": "26", "addr:postcode": "91-083", "addr:street": "Jana D\u0142ugosza", "amenity": "pharmacy", "dispensing": "yes", "healthcare": "pharmacy", "name": "Zdr\u00f3wko", "opening_hours": "819814", "ref:csioz": "1206682"}}, {"type": "node", "id": 432504794, "lat": 51.7746287, "lon": 19.4270931, "tags": {"amenity": "pharmacy", "dispensing": "yes", "name": "Apteka Czerwona", "ref:csioz": "1218572"}}, {"type": "node", "id": 439206500, "lat": 51.7696778, "lon": 19.447598, "tags": {"addr:city": "\u0141\u00f3d\u017a", "addr:housenumber": "26", "addr:street": "Zielona", "amenity": "pharmacy", "check_date": "2024-07-18", "dispensing": "yes", "healthcare": "pharmacy", "name": "Alfa", "name:fa": "\u0622\u0644\u0641\u0627", "opening_hours": "Mo-Fr 07:00-19:00; Sa 07:00-14:00", "ref:csioz": "1013095", "wheelchair": "no"}}, {"type": "node", "id": 464756601, "lat": 51.7472988, "lon": 19.3841441, "tags": {"amenity": "pharmacy", "dispensing": "yes", "healthcare": "pharmacy", "name": "Zrowit", "ref:csioz": "1018675"}}, {"type": "node", "id": 470856784, "lat": 51.8239247, "lon": 19.4403573, "tags": {"amenity": "pharmacy", "dispensing": "yes", "healthcare": "pharmacy", "name": "Nastrojowa", "ref:csioz": "1025032"}}, {"type": "node", "id": 483556065, "lat": 51.7730819, "lon": 19.4818436, "tags": {"addr:city": "\u0141\u00f3d\u017a", "addr:housenumber": "92", "addr:postcode": "90-139", "addr:street": "Gabriela Narutowicza", "amenity": "pharmacy", "dispensing": "yes", "drive_through": "no", "healthcare": "pharmacy", "name": "Apteka Aloes Sp.J.", "opening_hours": "Mo-Fr 08:00-20:00; Sa 09:00-15:00; PH off", "ref:csioz": "1011674"}}, {"type": "node", "id": 483557677, "lat": 51.7732206, "lon": 19.4831034, "tags": {"amenity": "pharmacy", "dispensing": "yes", "name": "Euro-Apteka", "ref:csioz": "1017419"}}, {"type": "node", "id": 506145810, "lat": 51.7572646, "lon": 19.5368181, "tags": {"amenity": "pharmacy", "dispensing": "yes", "drive_through": "no", "healthcare": "pharmacy", "name": "Z\u0142ota", "ref:csioz": "1202955"}}, {"type": "node", "id": 506151007, "lat": 51.7491557, "lon": 19.5712232, "tags": {"amenity": "pharmacy", "dispensing": "yes", "healthcare": "pharmacy", "name": "Ginsana II", "ref:csioz": "1114155"}}, {"type": "node", "id": 602752034, "lat": 51.7332174, "lon": 19.473183, "tags": {"amenity": "pharmacy", "brand": "Dr. Max", "brand:wikidata": "Q56317371", "dispensing": "yes", "healthcare": "pharmacy", "name": "Dr. Max", "opening_hours": "Mo-Fr 08:00-20:00; Sa 08:00-15:00", "ref:csioz": "1011078"}}, {"type": "node", "id": 602752035, "lat": 51.7316782, "lon": 19.4749461, "tags": {"amenity": "pharmacy", "dispensing": "yes", "healthcare": "pharmacy", "name": "Joga", "opening_hours": "Mo-Fr 08:00-20:00; Sa 08:00-15:00", "ref:csioz": "1012839"}}, {"type": "node", "id": 748038827, "lat": 51.7439247, "lon": 19.4886626, "tags": {"addr:housenumber": "124", "addr:street": "Prz\u0119dzalniana", "amenity": "pharmacy", "dispensing": "yes", "healthcare": "pharmacy", "name": "Una", "opening_hours": "Mo-Fr 08:00-20:00; Sa 08:00-15:00; Su 10:00-14:00", "ref:csioz": "1018459"}}, {"type": "node", "id": 765036780, "lat": 51.7410426, "lon": 19.5686586, "tags": {"amenity": "pharmacy", "dispensing": "yes", "healthcare": "pharmacy", "name": "Olmed", "ref:csioz": "1020850"}}, {"type": "node", "id": 765043991, "lat": 51.8186976, "lon": 19.4461738, "tags": {"amenity": "pharmacy", "dispensing": "yes", "healthcare": "pharmacy", "name": "Camelia", "ref:csioz": "1024897"}}, {"type": "node", "id": 765067275, "lat": 51.7999702, "lon": 19.4392073, "tags": {"amenity": "pharmacy", "brand": "Dbam o Zdrowie", "brand:wikidata": "Q62563833", "healthcare": "pharmacy", "name": "Dbam o Zdrowie", "ref:csioz": "1016249"}}, {"type": "node", "id": 766715151, "lat": 51.7051803, "lon": 19.480219, "tags": {"amenity": "pharmacy", "brand": "Dbam o Zdrowie", "brand:wikidata": "Q62563833", "dispensing": "yes", "healthcare": "pharmacy", "name": "Dbam o Zdrowie", "ref:csioz": "1017172", "short_name": "DOZ"}}, {"type": "node", "id": 766742864, "lat": 51.7763418, "lon": 19.4481809, "tags": {"addr:housenumber": "33", "addr:street": "Legion\u00f3w", "amenity": "pharmacy", "dispensing": "yes", "healthcare": "pharmacy", "name": "Aura", "ref:csioz": "1011055"}}, {"type": "node", "id": 766763731, "lat": 51.7769923, "lon": 19.4561793, "tags": {"amenity": "pharmacy", "dispensing": "yes", "healthcare": "pharmacy", "name": "Uncja", "ref:csioz": "1020371"}}, {"type": "node", "id": 766771803, "lat": 51.7109911, "lon": 19.4275491, "tags": {"amenity": "pharmacy", "dispensing": "yes", "name": "Dr. Max", "ref:csioz": "1012478", "source": "survey"}}, {"type": "node", "id": 766772853, "lat": 51.9626821, "lon": 19.2928965, "tags": {"addr:city": "Ozork\u00f3w", "addr:housenumber": "2", "addr:postcode": "95-035", "addr:street": "ks. kard. Stefana Wyszy\u0144skiego", "amenity": "pharmacy", "dispensing": "yes", "healthcare": "pharmacy", "name": "Apteka Wsp\u00f3lna", "ref:csioz": "1220975"}}, {"type": "node", "id": 766780590, "lat": 51.7762721, "lon": 19.4541918, "tags": {"addr:housenumber": "2", "addr:street": "Plac Wolno\u015bci", "amenity": "pharmacy", "brand": "Dbam o Zdrowie", "brand:wikidata": "Q62563833", "dispensing": "yes", "healthcare": "pharmacy", "name": "Dbam o Zdrowie", "opening_hours": "Mo-Fr 08:00-19:00; Sa 09:00-14:00", "ref:csioz": "1012145", "short_name": "DOZ"}}, {"type": "node", "id": 766807496, "lat": 51.8627546, "lon": 19.3911643, "tags": {"addr:city": "Zgierz", "addr:housenumber": "35", "addr:postcode": "95-100", "addr:street": "Parz\u0119czewska", "amenity": "pharmacy", "dispensing": "yes", "healthcare": "pharmacy", "name": "Afarm", "ref:csioz": "1015683"}}, {"type": "node", "id": 767570721, "lat": 51.7174255, "lon": 19.4860482, "tags": {"amenity": "pharmacy", "dispensing": "yes", "healthcare": "pharmacy", "name": "Wsp\u00f3lna", "ref:csioz": "1011010"}}, {"type": "node", "id": 767570730, "lat": 51.7171927, "lon": 19.4720211, "tags": {"amenity": "pharmacy", "check_date:opening_hours": "2021-01-19", "dispensing": "yes", "healthcare": "pharmacy", "name": "Zio\u0142olecznicza Konwentu Bonifratr\u00f3w", "opening_hours": "Mo-Fr 08:00-18:00; Sa 09:00-14:00", "ref:csioz": "1012723"}}, {"type": "node", "id": 935801508, "lat": 51.8199906, "lon": 19.4421559, "tags": {"amenity": "pharmacy", "dispensing": "yes", "healthcare": "pharmacy", "name": "Dla Ciebie", "ref:csioz": "1218453"}}, {"type": "node", "id": 1045963165, "lat": 51.747989, "lon": 19.3986424, "tags": {"amenity": "pharmacy", "dispensing": "yes", "healthcare": "pharmacy", "name": "Spectrum", "ref:csioz": "1016447"}}, {"type": "node", "id": 1066560888, "lat": 51.8827202, "lon": 19.1028196, "tags": {"addr:city": "Dalik\u00f3w", "addr:housenumber": "2", "addr:postcode": "91-087", "addr:street": "Wschodnia", "amenity": "pharmacy", "dispensing": "yes", "healthcare": "pharmacy", "name": "Herba", "ref:csioz": "1011617"}}, {"type": "node", "id": 1152777921, "lat": 51.7962128, "lon": 19.4395257, "tags": {"amenity": "pharmacy", "dispensing": "yes", "healthcare": "pharmacy", "name": "Fortuna", "ref:csioz": "1015267"}}, {"type": "node", "id": 1156127412, "lat": 51.7044256, "lon": 19.4173837}, {"type": "node", "id": 1179398558, "lat": 51.7906, "lon": 19.4772472, "tags": {"amenity": "pharmacy", "dispensing": "yes", "healthcare": "pharmacy", "name": "Apteka Omega", "opening_hours": "Mo-Sa 07:00-21:00; Su 08:00-21:00", "ref:csioz": "1009685", "wheelchair": "limited"}}, {"type": "node", "id": 1187744320, "lat": 51.752499, "lon": 19.455681, "tags": {"amenity": "pharmacy", "check_date": "2024-07-18", "dispensing": "yes", "healthcare": "pharmacy", "name": "Rosa", "opening_hours": "07:00-23:00", "ref:csioz": "1021311"}}, {"type": "node", "id": 1187744356, "lat": 51.7528388, "lon": 19.4597122, "tags": {"amenity": "pharmacy", "brand": "Dbam o Zdrowie", "brand:wikidata": "Q62563833", "dispensing": "yes", "healthcare": "pharmacy", "name": "Dbam o Zdrowie", "opening_hours": "Mo-Fr 08:00-20:00; Sa 08:00-15:00", "ref:csioz": "1010936", "short_name": "DOZ"}}, {"type": "node", "id": 1195381648, "lat": 51.7931404, "lon": 19.3911128}, {"type": "node", "id": 1195381761, "lat": 51.7930738, "lon": 19.3910938}, {"type": "node", "id": 1195381770, "lat": 51.7930297, "lon": 19.3910858}, {"type": "node", "id": 1195381791, "lat": 51.7931289, "lon": 19.3912769}, {"type": "node", "id": 1195381801, "lat": 51.7930178, "lon": 19.3912567}, {"type": "node", "id": 1195382038, "lat": 51.7930261, "lon": 19.3911375}, {"type": "node", "id": 1196914370, "lat": 51.7925656, "lon": 19.5102986}, {"type": "node", "id": 1196914518, "lat": 51.7925736, "lon": 19.5101887}, {"type": "node", "id": 1205571106, "lat": 51.7713999, "lon": 19.4560543, "tags": {"amenity": "pharmacy", "dispensing": "yes", "healthcare": "pharmacy", "name": "Pod Bia\u0142ym Or\u0142em", "opening_hours": "Mo-Fr 08:00-21:00; Sa 09:00-15:00", "ref:csioz": "1009449", "wheelchair": "no"}}, {"type": "node", "id": 1234960182, "lat": 51.7937542, "lon": 19.4518208, "tags": {"amenity": "pharmacy", "brand": "Dbam o Zdrowie", "brand:wikidata": "Q62563833", "dispensing": "yes", "healthcare": "pharmacy", "name": "Dbam o Zdrowie", "ref:csioz": "1012974", "short_name": "DOZ"}}, {"type": "node", "id": 1282030535, "lat": 51.8895991, "lon": 18.9529676, "tags": {"amenity": "pharmacy", "dispensing": "yes", "healthcare": "pharmacy", "name": "Dobry Lek", "ref:csioz": "1171787"}}, {"type": "node", "id": 1305720703, "lat": 51.7874562, "lon": 19.4305602, "tags": {"addr:city": "\u0141\u00f3d\u017a", "addr:housenumber": "115a", "addr:street": "Lutomierska", "amenity": "pharmacy", "healthcare": "pharmacy", "name": "Familia", "opening_hours": "24/7", "ref:csioz": "1019850"}}, {"type": "node", "id": 1429250226, "lat": 51.9548001, "lon": 19.2860124}, {"type": "node", "id": 1429250266, "lat": 51.9548574, "lon": 19.2862232}, {"type": "node", "id": 1429250301, "lat": 51.9548884, "lon": 19.286078}, {"type": "node", "id": 1429250338, "lat": 51.9548888, "lon": 19.2860657}, {"type": "node", "id": 1524711757, "lat": 51.7405148, "lon": 19.4042858, "tags": {"amenity": "pharmacy", "dispensing": "yes", "healthcare": "pharmacy", "name": "Zdrowit", "ref:csioz": "1022015", "wheelchair": "yes"}}, {"type": "node", "id": 1525745966, "lat": 51.7442738, "lon": 19.1196113, "tags": {"addr:city": "Kwiatkowice", "addr:housenumber": "7", "addr:postcode": "98-105", "addr:street": "\u0141\u00f3dzka", "amenity": "pharmacy", "dispensing": "yes", "healthcare": "pharmacy", "name": "Punkt Apteczny Melissa", "phone": "+48436773000", "ref:csioz": "1019480"}}, {"type": "node", "id": 1533254595, "lat": 51.8930466, "lon": 18.9580907, "tags": {"amenity": "pharmacy", "contact:email": "kwiaty.poddebice@grupakwiatypolskie.pl", "contact:phone": "+48436782001", "contact:website": "http://www.grupakwiatypolskie.pl", "dispensing": "yes", "healthcare": "pharmacy", "name": "Dobry Lek", "opening_hours": "Mo-Fr 08:00-20:00; Sa 08:00-14:00", "ref:csioz": "1211892"}}, {"type": "node", "id": 1533254608, "lat": 51.8910387, "lon": 18.9556864, "tags": {"addr:city": "Podd\u0119bice", "addr:housenumber": "13", "addr:postcode": "99-200", "addr:street": "Przejazd", "amenity": "pharmacy", "dispensing": "yes", "healthcare": "pharmacy", "name": "Prima", "ref:csioz": "1024951"}}, {"type": "node", "id": 1538628159, "lat": 51.8224707, "lon": 19.4415626}, {"type": "node", "id": 1538628179, "lat": 51.8225675, "lon": 19.4414976}, {"type": "node", "id": 1642868037, "lat": 51.7277237, "lon": 19.4548708, "tags": {"amenity": "pharmacy", "brand": "Dbam o Zdrowie", "brand:wikidata": "Q62563833", "dispensing": "yes", "healthcare": "pharmacy", "name": "Dbam o Zdrowie", "ref:csioz": "1019990", "short_name": "DOZ", "source": "survey"}}, {"type": "node", "id": 1643154715, "lat": 51.7292, "lon": 19.4581862, "tags": {"addr:housenumber": "6", "addr:street": "Ignacego Jana Paderewskiego", "amenity": "pharmacy", "brand": "Dbam o Zdrowie", "brand:wikidata": "Q62563833", "dispensing": "yes", "healthcare": "pharmacy", "name": "Dbam o Zdrowie", "opening_hours": "Mo-Fr 08:00-20:00; Sa 08:00-15:00; Su 09:00-15:00", "ref:csioz": "1012121", "short_name": "DOZ", "source": "survey"}}, {"type": "node", "id": 1667203221, "lat": 51.7882923, "lon": 19.435006, "tags": {"addr:city": "\u0141\u00f3d\u017a", "addr:housenumber": "8/10", "addr:street": "Zygmunta Sierakowskiego", "amenity": "pharmacy", "dispensing": "yes", "healthcare": "pharmacy", "name": "Familia", "ref:csioz": "1019816", "source": "survey"}}, {"type": "node", "id": 1684742019, "lat": 51.8917805, "lon": 18.9514881, "tags": {"amenity": "pharmacy", "brand": "Centrum Zdrowia", "dispensing": "yes", "healthcare": "pharmacy", "name": "Centrum Zdrowia", "ref:csioz": "1212252"}}, {"type": "node", "id": 1717926829, "lat": 51.8009838, "lon": 19.4216816, "tags": {"addr:city": "\u0141\u00f3d\u017a", "addr:housenumber": "93", "addr:postcode": "91-341", "addr:street": "Pojezierska", "amenity": "pharmacy", "brand": "Dbam o Zdrowie", "brand:wikidata": "Q62563833", "dispensing": "yes", "drive_through": "no", "healthcare": "pharmacy", "name": "Apteka Dbam O Zdrowie", "ref:csioz": "1013792", "website": "https://www.doz.pl/", "wheelchair": "yes"}}, {"type": "node", "id": 1745628446, "lat": 51.7883912, "lon": 19.4644689, "tags": {"amenity": "pharmacy", "dispensing": "yes", "healthcare": "pharmacy", "name": "U Dominika", "opening_hours": "Mo-Fr 08:00-21:00; Sa 08:00-15:00", "ref:csioz": "1216335", "wheelchair": "yes"}}, {"type": "node", "id": 1754826596, "lat": 51.961027, "lon": 19.290774, "tags": {"amenity": "pharmacy", "dispensing": "yes", "healthcare": "pharmacy", "name": "Stokrotka", "ref:csioz": "1020915"}}, {"type": "node", "id": 1770626812, "lat": 51.8113866, "lon": 19.3184223, "tags": {"amenity": "pharmacy", "dispensing": "yes", "healthcare": "pharmacy", "name": "Natura", "opening_hours": "24/7", "ref:csioz": "1018642"}}, {"type": "node", "id": 1794967892, "lat": 51.7278189, "lon": 19.4492766, "tags": {"addr:housenumber": "86", "addr:street": "Pabianicka", "amenity": "pharmacy", "dispensing": "yes", "healthcare": "pharmacy", "name": "Dar Zdrowia", "ref:csioz": "1219506"}}, {"type": "node", "id": 1805124819, "lat": 51.7396494, "lon": 19.4580795, "tags": {"amenity": "pharmacy", "dispensing": "yes", "healthcare": "pharmacy", "name": "Melissa", "opening_hours": "Mo-Fr 07:00-20:00; Sa 08:00-15:00", "ref:csioz": "1024141"}}, {"type": "node", "id": 1805179671, "lat": 51.7367249, "lon": 19.4444539, "tags": {"amenity": "pharmacy", "healthcare": "pharmacy", "ref:csioz": "1015563", "source:disused": "Rejestr aptek MZ"}}, {"type": "node", "id": 1810217718, "lat": 51.7324923, "lon": 19.4489205, "tags": {"addr:city": "\u0141\u00f3d\u017a", "addr:housenumber": "4", "addr:postcode": "93-503", "addr:street": "Augusta Cieszkowskiego", "amenity": "pharmacy", "dispensing": "yes", "healthcare": "pharmacy", "name": "A jak Apteka", "ref:csioz": "1026075"}}, {"type": "node", "id": 1810234697, "lat": 51.7328617, "lon": 19.4473872, "tags": {"addr:city": "\u0141\u00f3d\u017a", "addr:housenumber": "6", "addr:street": "Stefana Rogozi\u0144skiego", "amenity": "pharmacy", "dispensing": "yes", "healthcare": "pharmacy", "opening_hours": "Mo-Fr 08:00-19:00; Sa 09:00-14:00", "ref:csioz": "1014473"}}, {"type": "node", "id": 1812858587, "lat": 51.7495705, "lon": 19.422439, "tags": {"addr:city": "\u0141\u00f3d\u017a", "addr:housenumber": "5", "addr:street": "Bratys\u0142awska", "amenity": "pharmacy", "brand": "Dr. Max", "brand:wikidata": "Q56317371", "check_date": "2024-08-06", "dispensing": "yes", "healthcare": "pharmacy", "name": "Dr. Max", "opening_hours": "24/7", "ref:csioz": "1192843", "wheelchair": "yes"}}, {"type": "node", "id": 1812888325, "lat": 51.7516047, "lon": 19.4252589, "tags": {"amenity": "pharmacy", "check_date": "2024-08-06", "dispensing": "yes", "name": "Medest Vi", "opening_hours": "24/7", "ref:csioz": "1020472", "wheelchair": "yes"}}, {"type": "node", "id": 1833297251, "lat": 51.7643144, "lon": 19.4801829, "tags": {"addr:city": "\u0141\u00f3d\u017a", "addr:housenumber": "100", "addr:street": "Nawrot", "amenity": "pharmacy", "dispensing": "yes", "healthcare": "pharmacy", "name": "Zio\u0142a Polskie", "opening_hours": "Mo-Fr 08:00-20:00; Sa 08:00-15:00", "phone": "+48426326606", "ref:csioz": "1023432"}}, {"type": "node", "id": 1836706946, "lat": 51.7637814, "lon": 19.5076969, "tags": {"amenity": "pharmacy", "brand": "Dbam o Zdrowie", "brand:wikidata": "Q62563833", "dispensing": "yes", "healthcare": "pharmacy", "name": "Dbam o Zdrowie", "opening_hours": "24/7", "ref:csioz": "1012019", "short_name": "DOZ", "wheelchair": "yes"}}, {"type": "node", "id": 1854479072, "lat": 51.776533, "lon": 19.530309, "tags": {"amenity": "pharmacy", "brand": "Dbam o Zdrowie", "brand:wikidata": "Q62563833", "dispensing": "yes", "email": "apt64256@dbamozdrowie.pl", "healthcare": "pharmacy", "name": "Dbam o Zdrowie", "opening_hours": "Mo-Fr 08:00-20:00; Sa 08:00-13:00", "phone": "+48426793250", "ref:csioz": "1013474", "short_name": "DOZ", "website": "https://www.doz.pl/apteki/a64256-Apteka_Dbam_o_Zdrowie"}}, {"type": "node", "id": 1866785966, "lat": 51.7754987, "lon": 19.4092564, "tags": {"amenity": "pharmacy", "brand": "Dbam o Zdrowie", "brand:wikidata": "Q62563833", "dispensing": "yes", "healthcare": "pharmacy", "name": "Dbam o Zdrowie", "opening_hours": "Mo-Fr 09:00-19:00; Sa 09:00-14:00", "ref:csioz": "1011156", "short_name": "DOZ"}}, {"type": "node", "id": 1891350422, "lat": 51.7948972, "lon": 19.3746055, "tags": {"amenity": "pharmacy", "dispensing": "yes", "email": "chimeralodz@gmail.com", "fax": "+48426110440", "healthcare": "pharmacy", "name": "Najlepsza Dla Ciebie", "opening_hours": "Mo-Fr 09:00-18:00", "phone": "+48426110440", "ref:csioz": "1189551"}}, {"type": "node", "id": 1892235441, "lat": 51.7844729, "lon": 19.4481772, "tags": {"amenity": "pharmacy", "dispensing": "yes", "name": "Dr. Max", "opening_hours": "Mo-Fr 07:00-23:00; Sa,Su 08:00-20:00", "phone": "+48426548756", "ref:csioz": "1222650"}}, {"type": "node", "id": 1908295472, "lat": 51.7792178, "lon": 19.4425739}, {"type": "node", "id": 1908295475, "lat": 51.7792296, "lon": 19.442591}, {"type": "node", "id": 1908295478, "lat": 51.7792312, "lon": 19.4428804}, {"type": "node", "id": 1908295481, "lat": 51.7792372, "lon": 19.442615}, {"type": "node", "id": 1908295483, "lat": 51.7792561, "lon": 19.4429013}, {"type": "node", "id": 1908295485, "lat": 51.7792924, "lon": 19.4429682}, {"type": "node", "id": 1908295487, "lat": 51.7793057, "lon": 19.4430449}, {"type": "node", "id": 1908295489, "lat": 51.7793682, "lon": 19.4424825}, {"type": "node", "id": 1908295495, "lat": 51.7794168, "lon": 19.4430186}, {"type": "node", "id": 2013554403, "lat": 51.7601339, "lon": 19.5267669, "tags": {"amenity": "pharmacy", "brand": "Dr. Max", "brand:wikidata": "Q56317371", "dispensing": "yes", "healthcare": "pharmacy", "name": "Dr. Max", "ref:csioz": "1018374"}}, {"type": "node", "id": 2066373659, "lat": 51.7043256, "lon": 19.4172946}, {"type": "node", "id": 2066373661, "lat": 51.7043265, "lon": 19.4169139}, {"type": "node", "id": 2066373709, "lat": 51.7043615, "lon": 19.4169074}, {"type": "node", "id": 2066373748, "lat": 51.7043961, "lon": 19.4168955}, {"type": "node", "id": 2066373783, "lat": 51.7044314, "lon": 19.4168732}, {"type": "node", "id": 2066373807, "lat": 51.7044639, "lon": 19.4168463}, {"type": "node", "id": 2066373820, "lat": 51.7044766, "lon": 19.4168773}, {"type": "node", "id": 2066373847, "lat": 51.7045251, "lon": 19.4171063}, {"type": "node", "id": 2066373848, "lat": 51.7045232, "lon": 19.4174608}, {"type": "node", "id": 2066373853, "lat": 51.7044752, "lon": 19.4171041}, {"type": "node", "id": 2210241437, "lat": 51.7574338, "lon": 19.536539, "tags": {"amenity": "pharmacy", "dispensing": "yes", "healthcare": "pharmacy", "name": "Kwiaty Polskie", "ref:csioz": "1023746"}}, {"type": "node", "id": 2249913128, "lat": 51.6522511, "lon": 19.3300099, "tags": {"amenity": "pharmacy", "dispensing": "yes", "healthcare": "pharmacy", "name": "Pabianicka", "ref:csioz": "1010397"}}, {"type": "node", "id": 2277980946, "lat": 51.7303721, "lon": 19.4730629, "tags": {"amenity": "pharmacy", "dispensing": "yes", "healthcare": "pharmacy", "name": "Terapia", "opening_hours": "Mo-Fr 08:00-20:00; Sa 08:30-14:00", "ref:csioz": "1011538"}}, {"type": "node", "id": 2283163978, "lat": 51.7381314, "lon": 19.4763294, "tags": {"amenity": "pharmacy", "dispensing": "yes", "healthcare": "pharmacy", "name": "Apteka Zdrowit", "opening_hours": "Mo-Fr 07:30-20:00; Sa 08:00-16:00; Su off", "ref:csioz": "1020931", "source": "survey"}}, {"type": "node", "id": 2387571380, "lat": 51.7765868, "lon": 19.4276937, "tags": {"amenity": "pharmacy", "dispensing": "yes", "healthcare": "pharmacy", "name": "Serdeczna", "ref:csioz": "1113974"}}, {"type": "node", "id": 2388578593, "lat": 51.7906046, "lon": 19.4542824, "tags": {"addr:city": "\u0141\u00f3d\u017a", "addr:housenumber": "14", "addr:postcode": "91-450", "addr:street": "Tokarska", "amenity": "pharmacy", "brand": "Dbam o Zdrowie", "brand:wikidata": "Q62563833", "dispensing": "yes", "email": "apt66434@dbamozdrowie.pl", "healthcare": "pharmacy", "name": "Dbam o Zdrowie", "opening_hours": "Mo-Fr 08:00-20:00; Sa 08:00-14:00", "payment:account_cards": "yes", "phone": "+48426565302", "ref:csioz": "1017260", "short_name": "DOZ", "website": "https://www.doz.pl/apteki/a66434-Apteka", "wheelchair": "no"}}, {"type": "node", "id": 2510166239, "lat": 51.7569907, "lon": 19.5438418, "tags": {"amenity": "pharmacy", "healthcare": "pharmacy", "name": "Przy Ko\u015bciele", "ref:csioz": "1014379", "website": "https://www.aleleki.pl/"}}, {"type": "node", "id": 2518789433, "lat": 51.8592804, "lon": 19.390587, "tags": {"addr:city": "Zgierz", "addr:housenumber": "2", "addr:postcode": "95-100", "addr:street": "Jana Lechonia", "amenity": "pharmacy", "dispensing": "yes", "drive_through": "yes", "name": "Apteka U Dominika", "name:en": "Pharmacy 24h/7day", "opening_hours": "24/7", "ref:csioz": "1010045"}}, {"type": "node", "id": 2534909296, "lat": 51.634875, "lon": 19.2453768, "tags": {"addr:city": "Dobro\u0144", "addr:housenumber": "54", "addr:postcode": "95-082", "addr:street": "Henryka Sienkiewicza", "amenity": "pharmacy", "dispensing": "yes", "drive_through": "no", "healthcare": "pharmacy", "ref:csioz": "1022314"}}, {"type": "node", "id": 2558588316, "lat": 51.7405029, "lon": 19.3921356, "tags": {"amenity": "pharmacy", "dispensing": "yes", "name": "Dr. Max", "opening_hours": "24/7", "ref:csioz": "1013211", "wheelchair": "yes"}}, {"type": "node", "id": 2558647137, "lat": 51.744624, "lon": 19.3909021, "tags": {"amenity": "pharmacy", "dispensing": "yes", "healthcare": "pharmacy", "name": "S\u0142oneczna", "opening_hours": "Mo-Fr 07:00-20:00; Sa 08:00-18:00", "ref:csioz": "1019508"}}, {"type": "node", "id": 2601385900, "lat": 51.7748787, "lon": 19.4576973, "tags": {"amenity": "pharmacy", "brand": "Dbam o Zdrowie", "brand:wikidata": "Q62563833", "dispensing": "yes", "healthcare": "pharmacy", "name": "Dbam o Zdrowie", "ref:csioz": "1015525", "short_name": "DOZ"}}, {"type": "node", "id": 2607413830, "lat": 51.8186146, "lon": 19.4188249, "tags": {"addr:city": "\u0141\u00f3d\u017a", "addr:housenumber": "39C", "addr:postcode": "91-371", "addr:street": "11 Listopada", "amenity": "pharmacy", "check_date": "2022-12-25", "dispensing": "yes", "healthcare": "pharmacy", "name": "Natura", "ref:csioz": "1012464", "source:addr": "EMUiA (emuia.geoportal.gov.pl)"}}, {"type": "node", "id": 2607459275, "lat": 51.7772843, "lon": 19.4724916, "tags": {"addr:city": "\u0141\u00f3d\u017a", "addr:housenumber": "75", "addr:street": "Pomorska", "amenity": "pharmacy", "dispensing": "yes", "healthcare": "pharmacy", "name": "Melissa", "opening_hours": "Mo-Fr 08:00-21:00; Sa 08:00-15:00", "ref:csioz": "1198852", "source:addr": "EMUiA (emuia.geoportal.gov.pl)"}}, {"type": "node", "id": 2607459806, "lat": 51.7313762, "lon": 19.4743234, "tags": {"amenity": "pharmacy", "dispensing": "yes", "healthcare": "pharmacy", "name": "Zdrowit", "opening_hours": "Mo-Fr 07:00-20:00; Sa 08:00-15:00", "ref:csioz": "1200714"}}, {"type": "node", "id": 2611773605, "lat": 51.7881521, "lon": 19.454692, "tags": {"addr:city": "\u0141\u00f3d\u017a", "addr:housenumber": "29/31", "addr:postcode": "91-839", "addr:street": "\u0141agiewnicka", "amenity": "pharmacy", "dispensing": "yes", "healthcare": "pharmacy", "name": "Apteka Melissa", "ref:csioz": "1113958", "website": "https://www.apteka-melissa.pl/"}}, {"type": "node", "id": 2619378989, "lat": 51.822212, "lon": 19.4310355, "tags": {"amenity": "pharmacy", "brand": "Dr. Max", "brand:wikidata": "Q56317371", "dispensing": "yes", "healthcare": "pharmacy", "name": "Dr. Max", "opening_hours": "24/7", "ref:csioz": "1192506"}}, {"type": "node", "id": 2619798243, "lat": 51.8199929, "lon": 19.4430013, "tags": {"amenity": "pharmacy", "dispensing": "yes", "healthcare": "pharmacy", "name": "Dla Rodziny", "ref:csioz": "1177801"}}, {"type": "node", "id": 2622505065, "lat": 51.7352449, "lon": 19.4998488, "tags": {"addr:housenumber": "23", "addr:street": "Lucjana Rydla", "amenity": "pharmacy", "name": "Apteka Dbam O Zdrowie", "opening_hours": "Mo-Fr 08:00-20:00; Sa 09:00-15:00", "ref:csioz": "1018909"}}, {"type": "node", "id": 2628959830, "lat": 51.8224481, "lon": 19.4414748}, {"type": "node", "id": 2628961002, "lat": 51.82253, "lon": 19.4414198}, {"type": "node", "id": 2628961262, "lat": 51.8225501, "lon": 19.4414298}, {"type": "node", "id": 2646605760, "lat": 51.8225451, "lon": 19.4414041, "tags": {"entrance": "yes"}}, {"type": "node", "id": 2655474696, "lat": 51.7532389, "lon": 19.5734719, "tags": {"amenity": "pharmacy", "dispensing": "yes", "healthcare": "pharmacy", "image": "http://www.olmed.net.pl/olmed/baner.jpg", "name": "Olmed", "ref:csioz": "1177729", "website": "https://olmed.net.pl/"}}, {"type": "node", "id": 3040093566, "lat": 51.6618741, "lon": 19.3558518, "tags": {"addr:city": "Pabianice", "addr:housenumber": "8", "addr:postcode": "95-200", "addr:street": "Grobelna", "amenity": "pharmacy", "dispensing": "yes", "drive_through": "no", "healthcare": "pharmacy", "name": "Olmed", "opening_hours": "Mo-Fr 07:00-21:00; Sa-Su 08:00-21:00", "phone": "+48 42 211 10 10", "ref:csioz": "1023019", "website": "https://www.aptekaolmed.pl/"}}, {"type": "node", "id": 3098275393, "lat": 51.7708031, "lon": 19.4572081, "tags": {"amenity": "pharmacy", "dispensing": "yes", "healthcare": "pharmacy", "name": "Pod S\u0142o\u0144cem", "ref:csioz": "1009505"}}, {"type": "node", "id": 3099369136, "lat": 51.7430478, "lon": 19.4628242, "tags": {"amenity": "pharmacy", "dispensing": "yes", "healthcare": "pharmacy", "name": "Apteka Kwiaty Polskie", "ref:csioz": "1016991"}}, {"type": "node", "id": 3201527139, "lat": 51.7475348, "lon": 19.4940908, "tags": {"amenity": "pharmacy", "dispensing": "yes", "healthcare": "pharmacy", "name": "Rosa", "opening_hours": "24/7", "phone": "+48426432378", "ref:csioz": "1020414", "website": "https://www.aptekarosa.pl/"}}, {"type": "node", "id": 3201527147, "lat": 51.745377, "lon": 19.500952, "tags": {"amenity": "pharmacy", "dispensing": "yes", "healthcare": "pharmacy", "name": "Rosa", "ref:csioz": "1019693"}}, {"type": "node", "id": 3234531787, "lat": 51.7383566, "lon": 19.4957108, "tags": {"amenity": "pharmacy", "dispensing": "yes", "name": "Rosa", "ref:csioz": "1216794"}}, {"type": "node", "id": 3234531791, "lat": 51.7374389, "lon": 19.4954321, "tags": {"amenity": "pharmacy", "dispensing": "yes", "name": "D\u0105br\u00f3wka", "ref:csioz": "1012035"}}, {"type": "node", "id": 3302501871, "lat": 51.7825011, "lon": 19.4581615, "tags": {"amenity": "pharmacy", "dispensing": "yes", "healthcare": "pharmacy", "name": "Apis", "opening_hours": "Mo-Fr 08:00-20:00; Sa 08:00-15:00; Su 09:00-15:00", "phone": "+48426577595", "ref:csioz": "1012348", "wheelchair": "yes"}}, {"type": "node", "id": 3330764052, "lat": 51.7925708, "lon": 19.510227}, {"type": "node", "id": 3401484017, "lat": 51.7817595, "lon": 19.5266777, "tags": {"amenity": "pharmacy", "dispensing": "yes", "healthcare": "pharmacy", "name": "Na Prze\u0142\u0119czy", "opening_hours": "Mo-Fr 08:00-20:00; Sa 09:00-15:00", "ref:csioz": "1011415"}}, {"type": "node", "id": 3450958408, "lat": 51.7409585, "lon": 19.5678617, "tags": {"addr:city": "\u0141\u00f3d\u017a", "addr:housenumber": "62", "addr:postcode": "92-402", "addr:street": "Zak\u0142adowa", "amenity": "pharmacy", "dispensing": "yes", "healthcare": "pharmacy", "name": "Przyjazna", "opening_hours": "Mo-Sa 07:00-21:00; Su 10:00-18:00; PH off", "ref:csioz": "1178039", "wheelchair": "yes"}}, {"type": "node", "id": 3464306878, "lat": 51.7493514, "lon": 19.4134583, "tags": {"amenity": "pharmacy", "dispensing": "yes", "healthcare": "pharmacy", "name": "Convallaria", "ref:csioz": "1014194"}}, {"type": "node", "id": 3471408293, "lat": 51.7322454, "lon": 19.4744385, "tags": {"addr:city": "\u0141\u00f3d\u017a", "addr:housenumber": "3/7", "addr:postcode": "93-166", "addr:street": "Joachima Lelewela", "amenity": "pharmacy", "dispensing": "yes", "healthcare": "pharmacy", "name": "Zielone Wzg\u00f3rze", "opening_hours": "Mo-Fr 07:00-21:00; Sa 08:00-15:00", "operator": "Zielone Wzg\u00f3rze", "ref:csioz": "1180298"}}, {"type": "node", "id": 3491596632, "lat": 51.7461466, "lon": 19.4118395, "tags": {"addr:city": "\u0141\u00f3d\u017a", "addr:housenumber": "7a", "addr:street": "Olimpijska", "amenity": "pharmacy", "dispensing": "yes", "healthcare": "pharmacy", "name": "S\u0142oneczna", "opening_hours": "Mo-Fr 08:00-21:00; Sa 09:00-16:00", "ref:csioz": "1009943", "website": "www.aptekaolimpijska.com.pl"}}, {"type": "node", "id": 3491596633, "lat": 51.7471061, "lon": 19.4128269, "tags": {"addr:city": "\u0141\u00f3d\u017a", "addr:housenumber": "12", "addr:street": "Aleja Stefana Wyszy\u0144skiego", "amenity": "pharmacy", "dispensing": "yes", "healthcare": "pharmacy", "name": "S\u0142oneczna", "opening_hours": "Mo-Fr 08:00-21:00; Sa-Su 09:00-17:00", "ref:csioz": "1019796", "website": "www.aptekaolimpijska.com.pl"}}, {"type": "node", "id": 3587446632, "lat": 51.7335511, "lon": 19.4490841, "tags": {"addr:city": "\u0141\u00f3d\u017a", "addr:housenumber": "6", "addr:postcode": "93-504", "addr:street": "Augusta Cieszkowskiego", "amenity": "pharmacy", "dispensing": "yes", "healthcare": "pharmacy", "name": "A jak Apteka", "ref:csioz": "1010163"}}, {"type": "node", "id": 3627187849, "lat": 51.7831257, "lon": 19.4500628, "tags": {"addr:city": "\u0141\u00f3d\u017a", "addr:housenumber": "17", "addr:street": "Lutomierska", "amenity": "pharmacy", "dispensing": "yes", "email": "mstefanczyk@poczta.fm", "name": "Rosa", "opening_hours": "Mo-Su 07:00-23:00", "phone": "+48422073939", "ref:csioz": "1185235"}}, {"type": "node", "id": 3659124257, "lat": 51.7952962, "lon": 19.3945813, "tags": {"amenity": "pharmacy", "dispensing": "yes", "healthcare": "pharmacy", "name": "Galen", "opening_hours": "Mo-Fr 08:00-20:00; Sa 08:00-15:00", "ref:csioz": "1009841", "wheelchair": "yes"}}, {"type": "node", "id": 3667344550, "lat": 51.7454648, "lon": 19.3991639, "tags": {"addr:city": "\u0141\u00f3d\u017a", "addr:housenumber": "37", "addr:postcode": "94-046", "addr:street": "Armii Krajowej", "amenity": "pharmacy", "name": "Super-Pharm", "ref:csioz": "1180342", "website": "https://www.superpharm.pl/"}}, {"type": "node", "id": 3711632166, "lat": 51.7427459, "lon": 19.4743717, "tags": {"addr:city": "\u0141\u00f3d\u017a", "addr:street": "Zarzewska", "amenity": "pharmacy", "dispensing": "yes", "healthcare": "pharmacy", "name": "Apteka 7 Dni", "ref:csioz": "1189658"}}, {"type": "node", "id": 3716102821, "lat": 51.7507732, "lon": 19.439444, "tags": {"addr:city": "\u0141\u00f3d\u017a", "addr:housename": "Centrum Handlowe Pasa\u017c \u0141\u00f3dzki", "addr:postcode": "93-570", "addr:street": "Aleja Jana Paw\u0142a II", "amenity": "pharmacy", "brand": "Dbam o Zdrowie", "brand:wikidata": "Q62563833", "healthcare": "pharmacy", "name": "Apteka Dbam O Zdrowie", "opening_hours": "Mo-Su 09:00-21:00", "ref:csioz": "1025682", "website": "https://www.doz.pl/"}}, {"type": "node", "id": 3761709361, "lat": 51.7372647, "lon": 19.3845521, "tags": {"amenity": "pharmacy", "dispensing": "yes", "name": "Dr. Max", "opening_hours": "Mo-Fr 07:00-21:00; Sa 09:00-21:00; Su 10:00-20:00", "ref:csioz": "1202412"}}, {"type": "node", "id": 3770233472, "lat": 51.744386, "lon": 19.3998608, "tags": {"amenity": "pharmacy", "name": "Kwiaty Polskie", "ref:csioz": "1171812"}}, {"type": "node", "id": 3770752658, "lat": 51.7346059, "lon": 19.4722781, "tags": {"addr:city": "\u0141\u00f3d\u017a", "addr:housenumber": "4", "addr:street": "Lecznicza", "amenity": "pharmacy", "brand": "Dbam o Zdrowie", "brand:wikidata": "Q62563833", "dispensing": "yes", "healthcare": "pharmacy", "name": "Dbam o Zdrowie", "opening_hours": "Mo-Fr 09:00-19:00; Sa 09:00-14:00", "phone": "+48426840279", "ref:csioz": "1022090", "short_name": "DOZ"}}, {"type": "node", "id": 3782110663, "lat": 51.7684079, "lon": 19.4563421, "tags": {"addr:city": "\u0141\u00f3d\u017a", "addr:city:en": "Lodz", "amenity": "pharmacy", "dispensing": "yes", "healthcare": "pharmacy", "name": "Apteka Dbam O Zdrowie", "opening_hours": "Mo-Fr 08:00-20:00; Sa, Su 10:00-17:00", "ref:csioz": "1012575"}}, {"type": "node", "id": 3794111704, "lat": 51.7785955, "lon": 19.4745951, "tags": {"amenity": "pharmacy", "dispensing": "yes", "healthcare": "pharmacy", "name": "Melissa", "ref:csioz": "1015134"}}, {"type": "node", "id": 3794267761, "lat": 51.7440601, "lon": 19.3977288, "tags": {"amenity": "pharmacy", "dispensing": "yes", "healthcare": "pharmacy", "name": "Sieciowa", "ref:csioz": "1010488"}}, {"type": "node", "id": 3794283939, "lat": 51.7448095, "lon": 19.4001179, "tags": {"addr:city": "\u0141\u00f3d\u017a", "addr:housenumber": "35", "addr:street": "Armii Krajowej", "amenity": "pharmacy", "dispensing": "yes", "healthcare": "pharmacy", "name": "Zdrowit", "ref:csioz": "1200137"}}, {"type": "node", "id": 3799118150, "lat": 51.7481222, "lon": 19.401149, "tags": {"amenity": "pharmacy", "dispensing": "yes", "name": "Botanik", "ref:csioz": "1010623"}}, {"type": "node", "id": 3812339063, "lat": 51.7195915, "lon": 19.4960748, "tags": {"amenity": "pharmacy", "brand": "Dr. Max", "brand:wikidata": "Q56317371", "dispensing": "yes", "healthcare": "pharmacy", "name": "Dr. Max", "ref:csioz": "1182004"}}, {"type": "node", "id": 3815522192, "lat": 51.7522393, "lon": 19.3994354, "tags": {"amenity": "pharmacy", "healthcare": "pharmacy", "name": "Kwiaty Polskie", "ref:csioz": "1025078"}}, {"type": "node", "id": 3833923269, "lat": 51.7385904, "lon": 19.3939137, "tags": {"amenity": "pharmacy", "brand": "Dbam o Zdrowie", "brand:wikidata": "Q62563833", "dispensing": "yes", "healthcare": "pharmacy", "name": "Dbam o Zdrowie", "ref:csioz": "1019977", "short_name": "DOZ"}}, {"type": "node", "id": 3872842632, "lat": 51.7874556, "lon": 19.4287667, "tags": {"addr:city": "\u0141\u00f3d\u017a", "addr:housenumber": "146", "addr:street": "Lutomierska", "amenity": "pharmacy", "brand": "Dbam o Zdrowie", "brand:wikidata": "Q62563833", "dispensing": "yes", "healthcare": "pharmacy", "name": "Dbam o Zdrowie", "opening_hours": "Mo-Fr 08:00-21:00", "phone": "+48426514078", "ref:csioz": "1012894", "short_name": "DOZ"}}, {"type": "node", "id": 4066688285, "lat": 51.7348615, "lon": 19.4796796, "tags": {"addr:city": "\u0141\u00f3d\u017a", "addr:country": "PL", "addr:housenumber": "298", "addr:postcode": "93-160", "addr:street": "Jana Kili\u0144skiego", "amenity": "pharmacy", "dispensing": "yes", "healthcare": "pharmacy", "name": "Zielone Wzg\u00f3rze", "opening_hours": "Mo-Fr 08:00-20:00; Sa 08:00-17:00; Su 10:00-18:00", "ref:csioz": "1182012", "source": "survey"}}, {"type": "node", "id": 4109453029, "lat": 51.7985219, "lon": 19.4384184, "tags": {"addr:city": "\u0141\u00f3d\u017a", "addr:housenumber": "94", "addr:street": "Zygmunta Sierakowskiego", "amenity": "pharmacy", "dispensing": "yes", "healthcare": "pharmacy", "name": "Convallaria", "opening_hours": "Mo-Fr 08:00-20:00; Sa 08:00-15:00", "phone": "426510295", "ref:csioz": "1011477", "website": "aptekasupervita.pl"}}, {"type": "node", "id": 4111137952, "lat": 51.7361424, "lon": 19.4799107, "tags": {"addr:city": "\u0141\u00f3d\u017a", "addr:housenumber": "296", "addr:street": "Jana Kili\u0144skiego", "amenity": "pharmacy", "check_date:opening_hours": "2024-07-03", "dispensing": "yes", "healthcare": "pharmacy", "name": "Apteka Cef@Rm 36,6", "opening_hours": "Mo-Fr 08:00-21:00; Sa 09:00-21:00; Su 09:00-19:00", "phone": "+48 42 643 10 23", "ref:csioz": "1171848", "source": "survey"}}, {"type": "node", "id": 4143243151, "lat": 51.7227703, "lon": 19.4301354, "tags": {"addr:city": "\u0141\u00f3d\u017a", "addr:housenumber": "40/46", "addr:street": "Genera\u0142a Ignacego Pr\u0105dzy\u0144skiego", "amenity": "pharmacy", "dispensing": "yes", "name": "Alba", "phone": "+4842 661 80 73", "ref:csioz": "1021457"}}, {"type": "node", "id": 4145058489, "lat": 51.7859394, "lon": 19.4657101, "tags": {"amenity": "pharmacy", "dispensing": "yes", "name": "Apteka Zdrowie", "opening_hours": "Mo-Fr 08:00-20:00; Sa 08:00-15:00", "ref:csioz": "1026003", "wheelchair": "yes"}}, {"type": "node", "id": 4155592736, "lat": 51.7960309, "lon": 19.3762306, "tags": {"addr:city": "\u0141\u00f3d\u017a", "addr:housenumber": "22", "addr:street": "Rydzowa", "amenity": "pharmacy", "brand": "Dbam o Zdrowie", "brand:wikidata": "Q62563833", "check_date": "2024-07-24", "dispensing": "yes", "healthcare": "pharmacy", "name": "Apteka Dbam O Zdrowie", "opening_hours": "24/7", "phone": "+4842 655 80 89", "ref:csioz": "1012542"}}, {"type": "node", "id": 4155599777, "lat": 51.79623, "lon": 19.3763191, "tags": {"addr:city": "\u0141\u00f3d\u017a", "addr:housenumber": "20", "addr:street": "Rydzowa", "amenity": "pharmacy", "check_date:opening_hours": "2024-07-24", "dispensing": "yes", "healthcare": "pharmacy", "name": "Nowa", "opening_hours": "08:00-22:00", "phone": "+4848426525757", "ref:csioz": "1011696"}}, {"type": "node", "id": 4231033689, "lat": 51.781202, "lon": 19.4846784, "tags": {"amenity": "pharmacy", "dispensing": "yes", "healthcare": "pharmacy", "name": "Wsp\u00f3lna", "opening_hours": "Mo-Su 08:00-21:00", "ref:csioz": "1206086"}}, {"type": "node", "id": 4262382577, "lat": 51.7717062, "lon": 19.4406687, "tags": {"amenity": "pharmacy", "dispensing": "yes", "healthcare": "pharmacy", "name": "Pod Eskulapem", "ref:csioz": "1011523"}}, {"type": "node", "id": 4262432276, "lat": 51.7744353, "lon": 19.4528982, "tags": {"amenity": "pharmacy", "healthcare": "pharmacy", "name": "Apteka u Dominika"}}, {"type": "node", "id": 4262611854, "lat": 51.7695602, "lon": 19.4457866, "tags": {"addr:housenumber": "28", "addr:street": "Zielona", "amenity": "pharmacy", "check_date": "2024-07-18", "dispensing": "yes", "name": "Dbam O Zdrowie", "opening_hours": "Mo-Fr 08:00-20:00; Sa 08:00-16:00; Su 09:00-15:00", "payment:cash": "yes", "payment:credit_cards": "yes", "payment:debit_cards": "yes", "ref:csioz": "1012441", "wheelchair": "no"}}, {"type": "node", "id": 4262793550, "lat": 51.7691182, "lon": 19.4458818, "tags": {"addr:city": "\u0141\u00f3d\u017a", "addr:housenumber": "39", "addr:street": "Stefana \u017beromskiego", "amenity": "pharmacy", "check_date": "2024-07-18", "dispensing": "yes", "name": "Cito", "opening_hours": "24/7", "payment:cash": "yes", "payment:credit_cards": "yes", "payment:debit_cards": "yes", "ref:csioz": "1011321", "wheelchair": "no"}}, {"type": "node", "id": 4262812545, "lat": 51.759961, "lon": 19.4475957, "tags": {"amenity": "pharmacy", "dispensing": "yes", "healthcare": "pharmacy", "name": "U Dominika", "ref:csioz": "1223243"}}, {"type": "node", "id": 4270779019, "lat": 51.7469053, "lon": 19.3302118, "tags": {"addr:city": "Konstantyn\u00f3w \u0141\u00f3dzki", "addr:housenumber": "1", "addr:postcode": "95-050", "addr:street": "Marsza\u0142ka J\u00f3zefa Pi\u0142sudskiego", "amenity": "pharmacy", "dispensing": "yes", "drive_through": "no", "healthcare": "pharmacy", "name": "Olmed", "opening_hours": "Mo-Fr 07:00-23:00; Sa,Su,PH 08:00-23:00", "phone": "+48 508 565 610", "ref:csioz": "1020834", "website": "https://www.aptekaolmed.pl"}}, {"type": "node", "id": 4289336285, "lat": 51.7653532, "lon": 19.4574251, "tags": {"amenity": "pharmacy", "name": "Centrum", "opening_hours": "Mo-Fr 07:30-21:00; Sa 09:00-19:00", "ref:csioz": "1010515"}}, {"type": "node", "id": 4311864868, "lat": 51.7846651, "lon": 19.3924051, "tags": {"amenity": "pharmacy", "dispensing": "yes", "healthcare": "pharmacy", "name": "Herba", "ref:csioz": "1021333"}}, {"type": "node", "id": 4312033453, "lat": 51.7655846, "lon": 19.4540469, "tags": {"addr:housenumber": "41", "addr:street": "Aleja Tadeusza Ko\u015bciuszki", "amenity": "pharmacy", "check_date": "2024-07-22", "dispensing": "yes", "healthcare": "pharmacy", "name": "Kwiaty Polskie", "opening_hours": "Mo-Fr 08:00-20:00; Sa 08:00-14:00", "payment:cash": "yes", "payment:credit_cards": "yes", "payment:debit_cards": "yes", "ref:csioz": "1194663", "wheelchair": "no"}}, {"type": "node", "id": 4329060300, "lat": 51.7109866, "lon": 19.4920625, "tags": {"amenity": "pharmacy", "brand": "Dbam o Zdrowie", "brand:wikidata": "Q62563833", "dispensing": "yes", "healthcare": "pharmacy", "name": "Dbam o Zdrowie", "phone": "+48 42 640 97 20", "ref:csioz": "1015209", "short_name": "DOZ"}}, {"type": "node", "id": 4338977716, "lat": 51.7392707, "lon": 19.569511, "tags": {"addr:city": "\u0141\u00f3d\u017a", "addr:country": "PL", "addr:housenumber": "15", "addr:postcode": "92-417", "addr:street": "Ksi\u0119cia W\u0142adys\u0142awa Opolczyka", "amenity": "pharmacy", "dispensing": "yes", "healthcare": "pharmacy", "name": "Olmed", "opening_hours": "Mo-Fr 08:00-20:00, Sa 08:00-16:00", "ref:csioz": "1206861"}}, {"type": "node", "id": 4340719333, "lat": 51.7328357, "lon": 19.4870636, "tags": {"addr:city": "\u0141\u00f3d\u017a", "addr:housenumber": "38/40", "addr:postcode": "93-142", "addr:street": "W\u0142adys\u0142awa Broniewskiego", "amenity": "pharmacy", "dispensing": "yes", "healthcare": "pharmacy", "name": "Gwiazda 2", "opening_hours": "Mo-Fr 08:00-20:00; Sa 08:00-16:00", "ref:csioz": "1020011"}}, {"type": "node", "id": 4349462943, "lat": 51.7329065, "lon": 19.4927687, "tags": {"addr:city": "\u0141\u00f3d\u017a", "addr:housenumber": "65", "addr:postcode": "93-258", "addr:street": "W\u0142adys\u0142awa Broniewskiego", "amenity": "pharmacy", "healthcare": "pharmacy", "name": "Gwiazda", "opening_hours": "Mo-Fr 08:00-20:00; Sa 08:00-17:00", "phone": "+48 42 299 94 00", "ref:csioz": "1021074"}}, {"type": "node", "id": 4360195806, "lat": 51.7768944, "lon": 19.4775084, "tags": {"addr:city": "\u0141\u00f3d\u017a", "addr:housenumber": "4", "addr:street": "Plac Pokoju", "amenity": "pharmacy", "dispensing": "yes", "name": "Doz Apteka Dbam O Zdrowie", "ref:csioz": "1012949"}}, {"type": "node", "id": 4363479317, "lat": 51.7520328, "lon": 19.4182899, "tags": {"amenity": "pharmacy", "brand": "Dbam o Zdrowie", "brand:wikidata": "Q62563833", "dispensing": "yes", "healthcare": "pharmacy", "name": "Dbam o Zdrowie", "ref:csioz": "1016704", "short_name": "DOZ"}}, {"type": "node", "id": 4393599289, "lat": 51.7988324, "lon": 19.4551784, "tags": {"amenity": "pharmacy", "healthcare": "pharmacy", "level": "0", "name": "Apteka Dary Natury", "opening_hours": "Mo-Fr 08:00-20:00; Sa 08:00-15:00", "ref:csioz": "1121081"}}, {"type": "node", "id": 4432902076, "lat": 51.7868692, "lon": 19.4602473, "tags": {"amenity": "pharmacy", "dispensing": "yes", "healthcare": "pharmacy", "name": "Im. Zawiszy Czarnego", "ref:csioz": "1020610"}}, {"type": "node", "id": 4447998966, "lat": 51.7717845, "lon": 19.4707261, "tags": {"amenity": "pharmacy", "dispensing": "yes", "healthcare": "pharmacy", "name": "Melissa", "ref:csioz": "1025250"}}, {"type": "node", "id": 4458998741, "lat": 51.7558779, "lon": 19.4847488, "tags": {"amenity": "pharmacy", "brand": "Dbam o Zdrowie", "brand:wikidata": "Q62563833", "dispensing": "yes", "healthcare": "pharmacy", "name": "Dbam o Zdrowie", "opening_hours": "Mo-Fr 08:00-19:00; Sa 08:00-14:00", "operator": "SUPERVITA Sp. z o.o.", "payment:cash": "yes", "payment:credit_cards": "yes", "payment:debit_cards": "yes", "phone": "+48426722704", "ref:csioz": "1022452", "short_name": "DOZ"}}, {"type": "node", "id": 4466700743, "lat": 51.6920987, "lon": 18.9742348, "tags": {"addr:city": "Szadek", "addr:housenumber": "6", "addr:postcode": "98-240", "addr:street": "Ko\u015bcielna", "amenity": "pharmacy", "healthcare": "pharmacy", "name": "Stylowa", "ref:csioz": "1194674"}}, {"type": "node", "id": 4503100515, "lat": 51.790357, "lon": 19.4305617, "tags": {"amenity": "pharmacy", "dispensing": "yes", "healthcare": "pharmacy", "name": "Awicenna", "opening_hours": "Mo-Fr 09:00-17:00; Sa 10:00-14:00", "ref:csioz": "1010531"}}, {"type": "node", "id": 4505594996, "lat": 51.7884213, "lon": 19.4392296, "tags": {"amenity": "pharmacy", "dispensing": "yes", "healthcare": "pharmacy", "name": "Apteka od Serca", "opening_hours": "24/7", "ref:csioz": "1009526"}}, {"type": "node", "id": 4514125459, "lat": 51.74796, "lon": 19.4125939, "tags": {"amenity": "pharmacy", "dispensing": "yes", "healthcare": "pharmacy", "name": "Dla Zdrowia", "ref:csioz": "1210576"}}, {"type": "node", "id": 4554393493, "lat": 51.7914391, "lon": 19.5244848, "tags": {"addr:city": "\u0141\u00f3d\u017a", "addr:housenumber": "20", "addr:postcode": "92-109", "addr:street": "Doktora Tytusa Cha\u0142ubi\u0144skiego", "amenity": "pharmacy", "name": "Apteka Wrzosowa", "ref:csioz": "1209786"}}, {"type": "node", "id": 4592979591, "lat": 51.6585801, "lon": 19.3467521, "tags": {"addr:city": "Pabianice", "addr:housenumber": "19", "addr:postcode": "95-200", "addr:street": "Targowa", "amenity": "pharmacy", "drive_through": "no", "name": "Apteka Dom zdrowia", "opening_hours": "24/7", "ref:csioz": "1024554", "website": "https://aptekidarzdrowia.pl/"}}, {"type": "node", "id": 4978902839, "lat": 51.7404683, "lon": 19.6124754, "tags": {"amenity": "pharmacy", "dispensing": "yes", "healthcare": "pharmacy", "name": "Pigu\u0142ka", "ref:csioz": "1228253"}}, {"type": "node", "id": 5220528731, "lat": 51.7527082, "lon": 19.4695894, "tags": {"amenity": "pharmacy", "dispensing": "yes", "healthcare": "pharmacy", "name": "Zdrowit", "ref:csioz": "1223978"}}, {"type": "node", "id": 5287594364, "lat": 51.7599718, "lon": 19.4600742, "tags": {"amenity": "pharmacy", "brand": "Ziko Apteka", "brand:wikidata": "Q63432892", "dispensing": "yes", "healthcare": "pharmacy", "name": "Ziko Apteka", "ref:csioz": "1216840", "short_name": "Ziko", "website": "https://zikoapteka.pl/apteki/lodz/pilsudskiego-6/"}}, {"type": "node", "id": 5291854710, "lat": 51.8225352, "lon": 19.4413973}, {"type": "node", "id": 5291854711, "lat": 51.8225544, "lon": 19.4414102}, {"type": "node", "id": 5348491921, "lat": 51.6563253, "lon": 19.3394177, "tags": {"amenity": "pharmacy", "name": "Karolewska", "ref:csioz": "1018400"}}, {"type": "node", "id": 5556572717, "lat": 51.7415842, "lon": 19.462642, "tags": {"amenity": "pharmacy", "dispensing": "yes", "healthcare": "pharmacy", "name": "Melissa", "ref:csioz": "1177599"}}, {"type": "node", "id": 5573912627, "lat": 51.7361699, "lon": 19.4700352, "tags": {"amenity": "pharmacy", "dispensing": "yes", "healthcare": "pharmacy", "name": "Apteka Apis", "opening_hours": "Mo-Fr 08:00-20:00; Sa 08:00-15:00", "ref:csioz": "1216324"}}, {"type": "node", "id": 5687433023, "lat": 51.7879289, "lon": 19.443825, "tags": {"amenity": "pharmacy", "dispensing": "yes", "healthcare": "pharmacy", "name": "Przy Medyceuszu", "ref:csioz": "1222642"}}, {"type": "node", "id": 5743599018, "lat": 51.7785603, "lon": 19.4544677, "tags": {"amenity": "pharmacy", "dispensing": "yes", "healthcare": "pharmacy", "name": "Apteka Czerwona", "opening_hours": "Mo-Fr 08:00-20:00; Sa,Su 09:00-15:00", "ref:csioz": "1213719"}}, {"type": "node", "id": 5743600939, "lat": 51.7725836, "lon": 19.4554433, "tags": {"addr:city": "\u0141\u00f3d\u017a", "addr:housenumber": "29", "addr:postcode": "90-410", "addr:street": "Piotrkowska", "amenity": "pharmacy", "brand": "Ziko Apteka", "brand:wikidata": "Q63432892", "description": "Ziko Apteka zlokalizowana jest w \u0141odzi przy ul. Piotrkowskiej 29. Czynna jest przez 6 dni w tygodniu \u2013 od poniedzia\u0142ku do soboty. W niedziele plac\u00f3wka jest nieczynna.", "dispensing": "yes", "healthcare": "pharmacy", "name": "Ziko Apteka", "opening_hours": "24/7", "payment:cash": "yes", "payment:coins": "yes", "payment:mastercard": "yes", "payment:visa": "yes", "phone": "+48 12 687 57 47", "ref:csioz": "1216865", "short_name": "Ziko", "website": "https://www.ziko.pl/lodz-apteki-drogerie-ziko/piotrkowska-29/", "wheelchair": "yes"}}, {"type": "node", "id": 5752716241, "lat": 51.7587016, "lon": 19.4570388, "tags": {"amenity": "pharmacy", "brand": "Dbam o Zdrowie", "brand:wikidata": "Q62563833", "dispensing": "yes", "healthcare": "pharmacy", "name": "Dbam o Zdrowie", "ref:csioz": "1013956", "short_name": "DOZ"}}, {"type": "node", "id": 5876471716, "lat": 51.792677, "lon": 19.5103198}, {"type": "node", "id": 5876471717, "lat": 51.7927034, "lon": 19.5099558}, {"type": "node", "id": 5876471718, "lat": 51.7926365, "lon": 19.5099431}, {"type": "node", "id": 5876471719, "lat": 51.792618, "lon": 19.5101972}, {"type": "node", "id": 6184099971, "lat": 51.7445511, "lon": 19.390646, "tags": {"amenity": "pharmacy", "dispensing": "yes", "healthcare": "pharmacy", "name": "Forte", "opening_hours": "Mo-Fr 08:00-20:00; Sa 08:00-16:00", "ref:csioz": "1212034"}}, {"type": "node", "id": 6219254388, "lat": 51.7542812, "lon": 19.4642779, "tags": {"amenity": "pharmacy", "dispensing": "yes", "healthcare": "pharmacy", "name": "Paracelsus", "ref:csioz": "1208409"}}, {"type": "node", "id": 6385804934, "lat": 51.7724119, "lon": 19.4553179, "tags": {"addr:city": "\u0141\u00f3d\u017a", "addr:housenumber": "29", "addr:postcode": "90-410", "addr:street": "Piotrkowska", "amenity": "pharmacy", "branch": "Dermo", "brand": "Ziko Apteka", "brand:wikidata": "Q63432892", "description": "Ziko Dermo zlokalizowana jest w \u0141odzi przy ul. Piotrkowskiej 29. Czynna jest przez 6 dni w tygodniu \u2013 od poniedzia\u0142ku do soboty. W niedziele plac\u00f3wka jest nieczynna.", "dispensing": "yes", "healthcare": "pharmacy", "name": "Ziko Apteka", "opening_hours": "Mo-Fr 08:00-20:00, Sa 08:00-15:00", "payment:cash": "yes", "payment:coins": "yes", "payment:mastercard": "yes", "payment:visa": "yes", "phone": "+48 12 687 57 47", "shop": "chemist", "short_name": "Ziko", "website": "https://www.ziko.pl/lodz-drogerie-ziko/piotrkowska-29/"}}, {"type": "node", "id": 6480402680, "lat": 51.7570782, "lon": 19.5347605}, {"type": "node", "id": 6480402681, "lat": 51.7572358, "lon": 19.5348371}, {"type": "node", "id": 6480402682, "lat": 51.7572154, "lon": 19.5349463}, {"type": "node", "id": 6480402683, "lat": 51.7570579, "lon": 19.5348697}, {"type": "node", "id": 6569410207, "lat": 51.7638546, "lon": 19.4413927, "tags": {"addr:housenumber": "66", "addr:street": "Andrzeja Struga", "amenity": "pharmacy", "check_date": "2024-07-18", "dispensing": "yes", "healthcare": "pharmacy", "name": "Wrzosowa", "opening_hours": "Mo-Fr 08:00-21:00; Sa 08:00-20:00", "payment:cash": "yes", "payment:credit_cards": "yes", "payment:debit_cards": "yes", "ref:csioz": "1119590", "wheelchair": "yes"}}, {"type": "node", "id": 7070725583, "lat": 51.7571888, "lon": 19.5348143}, {"type": "node", "id": 7070725586, "lat": 51.7570842, "lon": 19.5347635}, {"type": "node", "id": 7070725590, "lat": 51.7570751, "lon": 19.5348781}, {"type": "node", "id": 7072302285, "lat": 51.8188212, "lon": 19.4313292, "tags": {"amenity": "pharmacy", "dispensing": "yes", "healthcare": "pharmacy", "name": "Any\u017cowa", "ref:csioz": "1021537"}}, {"type": "node", "id": 7098457409, "lat": 51.7932278, "lon": 19.5903151, "tags": {"amenity": "pharmacy", "dispensing": "yes", "healthcare": "pharmacy", "name": "Fio\u0142kowa", "ref:csioz": "1182574"}}, {"type": "node", "id": 7129647861, "lat": 51.7504995, "lon": 19.4822018, "tags": {"addr:housenumber": "37", "addr:street": "Milionowa", "amenity": "pharmacy", "dispensing": "yes", "name": "Olmed", "opening_hours": "Mo-Fr 08:00-18:00; Sa 08:00-14:00", "phone": "+48501865535", "ref:csioz": "1187077"}}, {"type": "node", "id": 7241727742, "lat": 51.8159354, "lon": 19.4218873, "tags": {"amenity": "pharmacy", "brand": "Dr. Max", "brand:wikidata": "Q56317371", "check_date": "2022-12-25", "dispensing": "yes", "healthcare": "pharmacy", "name": "Dr. Max", "opening_hours": "Mo-Fr 08:00-20:00; Sa 08:00-16:00", "ref:csioz": "1186071"}}, {"type": "node", "id": 7271536585, "lat": 51.652682, "lon": 19.3798727, "tags": {"addr:city": "Pabianice", "addr:housenumber": "27", "addr:postcode": "95-200", "addr:street": "Smugowa", "amenity": "pharmacy", "healthcare": "pharmacy", "name": "Dar Zdrowia", "ref:csioz": "1182048", "website": "https://aptekidarzdrowia.pl/"}}, {"type": "node", "id": 7613326384, "lat": 51.7930566, "lon": 19.3912637}, {"type": "node", "id": 7613332694, "lat": 51.7930733, "lon": 19.3911006}, {"type": "node", "id": 7695620050, "lat": 51.7684328, "lon": 19.4518803, "tags": {"amenity": "pharmacy", "email": "apteka@e-calendula.pl", "name": "Apteka \"Calendula\"", "opening_hours": "Mo-Fr 08:00-20:00; Sa 08:00-15:00", "phone": "+48 509 248 866", "ref:csioz": "1009425", "website": "https://e-calendula.pl"}}, {"type": "node", "id": 7700332797, "lat": 51.7650271, "lon": 19.4552331, "tags": {"addr:city": "\u0141\u00f3d\u017a", "amenity": "pharmacy", "dispensing": "yes", "healthcare": "pharmacy", "name": "Zielone Wzg\u00f3rze", "ref:csioz": "1213378"}}, {"type": "node", "id": 7798203314, "lat": 51.6630165, "lon": 19.3445226, "tags": {"addr:city": "Pabianice", "addr:housenumber": "4", "addr:postcode": "95-200", "addr:street": "Stanis\u0142awa Wyspia\u0144skiego", "amenity": "pharmacy", "dispensing": "yes", "healthcare": "pharmacy", "name": "Apteka - Ewa Kaszuba", "ref:csioz": "1022916"}}, {"type": "node", "id": 8041893870, "lat": 51.6604025, "lon": 19.347432, "tags": {"amenity": "pharmacy", "dispensing": "yes", "healthcare": "pharmacy", "name": "Arnica", "ref:csioz": "1012043"}}, {"type": "node", "id": 8165111049, "lat": 51.9610729, "lon": 19.2907315}, {"type": "node", "id": 8165111050, "lat": 51.9610596, "lon": 19.2906901}, {"type": "node", "id": 8165111051, "lat": 51.9609293, "lon": 19.2906184}, {"type": "node", "id": 8165111052, "lat": 51.9609028, "lon": 19.2907444}, {"type": "node", "id": 8165111053, "lat": 51.9610528, "lon": 19.2908271}, {"type": "node", "id": 8165970904, "lat": 51.9547636, "lon": 19.2861739}, {"type": "node", "id": 8170132830, "lat": 51.6637916, "lon": 19.6480056, "tags": {"amenity": "pharmacy", "dispensing": "yes", "healthcare": "pharmacy", "name": "Punkt Apteczny Aspec", "ref:csioz": "1016367"}}, {"type": "node", "id": 8565654162, "lat": 51.7561933, "lon": 19.458985, "tags": {"amenity": "pharmacy", "check_date:opening_hours": "2025-06-21", "dispensing": "yes", "healthcare": "pharmacy", "name": "S\u0142oneczna", "opening_hours": "Mo-Sa 07:00-21:00", "ref:csioz": "1189135"}}, {"type": "node", "id": 8635439161, "lat": 51.7938646, "lon": 19.385502, "tags": {"amenity": "pharmacy", "dispensing": "yes", "healthcare": "pharmacy", "name": "Rosa", "opening_hours": "Mo-Su 07:00-23:00", "ref:csioz": "1024753"}}, {"type": "node", "id": 8755456898, "lat": 51.7212071, "lon": 19.4766984, "tags": {"amenity": "pharmacy", "dispensing": "yes", "healthcare": "pharmacy", "name": "Apteka-Sieciowa", "ref:csioz": "1200486"}}, {"type": "node", "id": 9035612141, "lat": 51.7779821, "lon": 19.3879422, "tags": {"amenity": "pharmacy", "dispensing": "yes", "healthcare": "pharmacy", "name": "Nowa Z\u0142otno", "ref:csioz": "1020875"}}, {"type": "node", "id": 9167049150, "lat": 51.7620029, "lon": 19.4478119, "tags": {"addr:housenumber": "26", "addr:street": "Miko\u0142aja Kopernika", "amenity": "pharmacy", "check_date": "2024-07-19", "dispensing": "yes", "healthcare": "pharmacy", "name": "Familia", "opening_hours": "Mo-Fr 08:00-20:00; Sa 08:00-15:00", "payment:cash": "yes", "payment:credit_cards": "yes", "payment:debit_cards": "yes", "ref:csioz": "1009458", "wheelchair": "no"}}, {"type": "node", "id": 9472315341, "lat": 51.8174279, "lon": 19.4342192, "tags": {"addr:city": "\u0141\u00f3d\u017a", "addr:housenumber": "211", "addr:street": "Zgierska", "amenity": "pharmacy", "brand": "Dbam o Zdrowie", "brand:wikidata": "Q62563833", "dispensing": "yes", "healthcare": "pharmacy", "name": "Dbam o Zdrowie", "phone": "+48512919792", "ref:csioz": "1182020", "short_name": "DOZ"}}, {"type": "node", "id": 9485651813, "lat": 51.6979963, "lon": 19.441283, "tags": {"addr:city": "\u0141\u00f3d\u017a", "addr:housenumber": "106", "addr:postcode": "93-436", "addr:street": "Rudzka", "amenity": "pharmacy", "dispensing": "yes", "healthcare": "pharmacy", "name": "Ruda Zegar", "opening_hours": "Mo-Fr 08:30-18:00; Sa 08:30-15:00", "ref:csioz": "1010651"}}, {"type": "node", "id": 9558988875, "lat": 51.7259987, "lon": 19.6382115, "tags": {"addr:city": "Andrespol", "addr:flats": "D-1", "addr:housenumber": "125D", "addr:postcode": "95-020", "addr:street": "Rokici\u0144ska", "amenity": "pharmacy", "name": "Najlepsza Dla Ciebie", "ref:csioz": "1199784"}}, {"type": "node", "id": 9558988876, "lat": 51.7280726, "lon": 19.6334565, "tags": {"addr:city": "Andrespol", "addr:housenumber": "146", "addr:postcode": "95-020", "addr:street": "Rokici\u0144ska", "amenity": "pharmacy", "name": "Sieciowa", "ref:csioz": "1164395"}}, {"type": "node", "id": 9558988888, "lat": 51.7284595, "lon": 19.6376009, "tags": {"addr:city": "Andrespol", "addr:housenumber": "16", "addr:postcode": "95-020", "addr:street": "Projektowana", "amenity": "pharmacy", "brand": "Dbam o Zdrowie", "brand:wikidata": "Q62563833", "dispensing": "yes", "healthcare": "pharmacy", "name": "Dbam o Zdrowie", "ref:csioz": "1013737", "short_name": "DOZ"}}, {"type": "node", "id": 9558988890, "lat": 51.725139, "lon": 19.6388025, "tags": {"amenity": "pharmacy", "dispensing": "yes", "healthcare": "pharmacy", "name": "Rosa", "ref:csioz": "1013177"}}, {"type": "node", "id": 9558988892, "lat": 51.6625441, "lon": 19.4921321, "tags": {"addr:city": "Rzg\u00f3w", "addr:housenumber": "13", "addr:postcode": "95-030", "addr:street": "500-lecia", "amenity": "pharmacy", "healthcare": "pharmacy", "name": "Apteka Natur Pharm", "ref:csioz": "1218551"}}, {"type": "node", "id": 9558988893, "lat": 51.6510185, "lon": 19.4871912, "tags": {"addr:city": "Rzg\u00f3w", "addr:flats": "HALA K (A-BIS)", "addr:housenumber": "35", "addr:postcode": "95-030", "addr:street": "Rzemie\u015blnicza", "amenity": "pharmacy", "name": "Lawenda", "ref:csioz": "1215394"}}, {"type": "node", "id": 9558988894, "lat": 51.6607289, "lon": 19.4942691, "tags": {"addr:city": "Rzg\u00f3w", "addr:housenumber": "11A", "addr:postcode": "95-030", "addr:street": "Ogrodowa", "amenity": "pharmacy", "brand": "Dbam o Zdrowie", "brand:wikidata": "Q62563833", "healthcare": "pharmacy", "name": "Dbam o Zdrowie", "ref:csioz": "1013981", "short_name": "DOZ"}}, {"type": "node", "id": 9559936326, "lat": 51.718103, "lon": 19.14959, "tags": {"amenity": "pharmacy", "dispensing": "yes", "healthcare": "pharmacy", "name": "Punkt Apteczny Prima", "opening_hours": "Mo-Fr 08:30-17:00; Sa 08:30-13:00", "ref:csioz": "1026621"}}, {"type": "node", "id": 9579037576, "lat": 51.7541219, "lon": 19.4191251, "tags": {"addr:city": "\u0141\u00f3d\u017a", "addr:housenumber": "47", "addr:postcode": "94-016", "addr:street": "Wile\u0144ska", "amenity": "pharmacy", "dispensing": "yes", "name": "Apteka-Sieciowa", "ref:csioz": "1011337"}}, {"type": "node", "id": 9579067219, "lat": 51.7987149, "lon": 19.3724215, "tags": {"addr:city": "\u0141\u00f3d\u017a", "addr:housenumber": "44", "addr:postcode": "91-157", "addr:street": "Wici", "amenity": "pharmacy", "dispensing": "yes", "name": "Super Tania Apteka Panax", "ref:csioz": "1020597"}}, {"type": "node", "id": 9579067313, "lat": 51.779114, "lon": 19.4898332, "tags": {"amenity": "pharmacy", "dispensing": "yes", "name": "Farm-Med2", "ref:csioz": "1025135"}}, {"type": "node", "id": 9579067429, "lat": 51.7302296, "lon": 19.4945478, "tags": {"addr:city": "\u0141\u00f3d\u017a", "addr:housenumber": "60/62", "addr:postcode": "93-256", "addr:street": "Gabrieli Zapolskiej", "amenity": "pharmacy", "dispensing": "yes", "name": "Apteka Zapolska", "ref:csioz": "1015743"}}, {"type": "node", "id": 9579075833, "lat": 51.744637, "lon": 19.3986061, "tags": {"addr:city": "\u0141\u00f3d\u017a", "addr:housenumber": "34", "addr:postcode": "94-046", "addr:street": "Armii Krajowej", "amenity": "pharmacy", "dispensing": "yes", "name": "Rosa", "ref:csioz": "1185082"}}, {"type": "node", "id": 9579077437, "lat": 51.7903882, "lon": 19.4826096, "tags": {"addr:city": "\u0141\u00f3d\u017a", "addr:housenumber": "148", "addr:postcode": "91-711", "addr:street": "Wojska Polskiego", "amenity": "pharmacy", "dispensing": "yes", "name": "Medest Ii", "ref:csioz": "1121441"}}, {"type": "node", "id": 9579079157, "lat": 51.7892957, "lon": 19.4640807, "tags": {"addr:city": "\u0141\u00f3d\u017a", "addr:housenumber": "3", "addr:postcode": "91-804", "addr:street": "Z\u0142otnicza", "amenity": "pharmacy", "dispensing": "yes", "name": "Apteka Zawiszy Czarnego", "ref:csioz": "1192511"}}, {"type": "node", "id": 9579083031, "lat": 51.7808619, "lon": 19.474362, "tags": {"addr:city": "\u0141\u00f3d\u017a", "addr:housenumber": "42", "addr:postcode": "91-425", "addr:street": "P\u00f3\u0142nocna", "amenity": "pharmacy", "dispensing": "yes", "name": "Apteka Ewa Pawlak Sp.Z O.O.", "ref:csioz": "1018261"}}, {"type": "node", "id": 9579085988, "lat": 51.7605331, "lon": 19.524577, "tags": {"addr:city": "\u0141\u00f3d\u017a", "addr:housenumber": "25A", "addr:postcode": "92-547", "addr:street": "Beli Bartoka", "amenity": "pharmacy", "dispensing": "yes", "name": "Apteka Bliska Zdrowiu", "opening_hours": "Mo-Fr 08:00-20:00; Sa 08:00-15:00", "ref:csioz": "1220969"}}, {"type": "node", "id": 9579092164, "lat": 51.7231435, "lon": 19.4406081, "tags": {"addr:city": "\u0141\u00f3d\u017a", "addr:housenumber": "4", "addr:postcode": "93-485", "addr:street": "Zag\u0142\u0119bie", "amenity": "pharmacy", "dispensing": "yes", "name": "Farm-Med 4", "ref:csioz": "1203651"}}, {"type": "node", "id": 9579122203, "lat": 51.7321309, "lon": 19.4979328, "tags": {"addr:city": "\u0141\u00f3d\u017a", "addr:housenumber": "7", "addr:postcode": "93-252", "addr:street": "Alojzego Feli\u0144skiego", "amenity": "pharmacy", "dispensing": "yes", "healthcare": "pharmacy", "name": "'Apteka - Apteki Dar Zdrowia'", "ref:csioz": "1214177"}}, {"type": "node", "id": 9579123564, "lat": 51.7360254, "lon": 19.4947512, "tags": {"addr:city": "\u0141\u00f3d\u017a", "addr:housenumber": "91A", "addr:postcode": "93-201", "addr:street": "Genera\u0142a Jaros\u0142awa D\u0105browskiego", "amenity": "pharmacy", "dispensing": "yes", "healthcare": "pharmacy", "name": "Rosa", "ref:csioz": "1192107"}}, {"type": "node", "id": 9579126103, "lat": 51.7560228, "lon": 19.4588354, "tags": {"addr:city": "\u0141\u00f3d\u017a", "addr:housenumber": "193", "addr:postcode": "90-447", "addr:street": "Piotrkowska", "amenity": "pharmacy", "brand": "Dbam o Zdrowie", "brand:wikidata": "Q62563833", "dispensing": "yes", "healthcare": "pharmacy", "name": "Dbam o Zdrowie", "ref:csioz": "1012606", "short_name": "DOZ"}}, {"type": "node", "id": 9579127858, "lat": 51.7582726, "lon": 19.5386546, "tags": {"addr:city": "\u0141\u00f3d\u017a", "addr:housenumber": "17A", "addr:postcode": "92-525", "addr:street": "Andrzeja Sacharowa", "amenity": "pharmacy", "dispensing": "yes", "healthcare": "pharmacy", "name": "Vademecum", "ref:csioz": "1210653"}}, {"type": "node", "id": 9579137879, "lat": 51.7963352, "lon": 19.4454794, "tags": {"addr:city": "\u0141\u00f3d\u017a", "addr:housenumber": "107", "addr:postcode": "91-468", "addr:street": "Zgierska", "amenity": "pharmacy", "dispensing": "yes", "name": "Europejska", "ref:csioz": "1019221"}}, {"type": "node", "id": 9579137895, "lat": 51.7824317, "lon": 19.4557715, "tags": {"addr:city": "\u0141\u00f3d\u017a", "addr:housenumber": "6", "addr:postcode": "91-438", "addr:street": "Bojownik\u00f3w Getta Warszawskiego", "amenity": "pharmacy", "dispensing": "yes", "name": "Apteka Medest Agks Gierula I Wsp\u00f3lnicy Sp\u00f3\u0142ka Jawna", "ref:csioz": "1012357"}}, {"type": "node", "id": 9579142116, "lat": 51.7969119, "lon": 19.4416223, "tags": {"addr:city": "\u0141\u00f3d\u017a", "addr:housenumber": "2/6", "addr:postcode": "91-322", "addr:street": "Pojezierska", "amenity": "pharmacy", "dispensing": "yes", "name": "Fortuna", "ref:csioz": "1120729"}}, {"type": "node", "id": 9579145746, "lat": 51.7455694, "lon": 19.3862729, "tags": {"addr:city": "\u0141\u00f3d\u017a", "addr:housenumber": "140A", "addr:postcode": "94-054", "addr:street": "Janusza Kusoci\u0144skiego", "amenity": "pharmacy", "dispensing": "yes", "name": "Dracena", "ref:csioz": "1015724"}}, {"type": "node", "id": 9579152367, "lat": 51.7856896, "lon": 19.4523645, "tags": {"addr:city": "\u0141\u00f3d\u017a", "addr:housenumber": "42A", "addr:postcode": "91-059", "addr:street": "Zgierska", "amenity": "pharmacy", "dispensing": "yes", "name": "Apteka - Apteki Dar Zdrowia", "ref:csioz": "1202690"}}, {"type": "node", "id": 9579155952, "lat": 51.804295, "lon": 19.3780774, "tags": {"addr:city": "\u0141\u00f3d\u017a", "addr:housenumber": "10", "addr:postcode": "91-211", "addr:street": "Szparagowa", "amenity": "pharmacy", "dispensing": "yes", "name": "\"Apteka \"\"Kwiaty Polskie\"\"\"", "ref:csioz": "1021978"}}, {"type": "node", "id": 9579155991, "lat": 51.7315894, "lon": 19.4973222, "tags": {"addr:city": "\u0141\u00f3d\u017a", "addr:housenumber": "2", "addr:postcode": "93-236", "addr:street": "Konspiracyjnego Wojska Polskiego", "amenity": "pharmacy", "dispensing": "yes", "healthcare": "pharmacy", "name": "A Jak Apteka", "ref:csioz": "1213332"}}, {"type": "node", "id": 9579159713, "lat": 51.7321532, "lon": 19.500608, "tags": {"addr:city": "\u0141\u00f3d\u017a", "addr:housenumber": "9A", "addr:postcode": "93-252", "addr:street": "Alojzego Feli\u0144skiego", "amenity": "pharmacy", "dispensing": "yes", "name": "Victoria", "opening_hours": "Mo-Fr 08:00-20:00; Sa 08:00-15:00", "ref:csioz": "1011170"}}, {"type": "node", "id": 9579161939, "lat": 51.7905659, "lon": 19.4790063, "tags": {"addr:city": "\u0141\u00f3d\u017a", "addr:housenumber": "83", "addr:postcode": "91-708", "addr:street": "Sporna", "amenity": "pharmacy", "brand": "Dbam o Zdrowie", "brand:wikidata": "Q62563833", "dispensing": "yes", "healthcare": "pharmacy", "name": "Dbam o Zdrowie", "opening_hours": "Mo-Fr 08:00-20:00; Sa,Su 08:00-16:00", "ref:csioz": "1012336", "short_name": "DOZ", "wheelchair": "yes"}}, {"type": "node", "id": 9579164297, "lat": 51.7074495, "lon": 19.4826545, "tags": {"amenity": "pharmacy", "brand": "Dbam o Zdrowie", "brand:wikidata": "Q62563833", "dispensing": "yes", "healthcare": "pharmacy", "name": "Dbam o Zdrowie", "ref:csioz": "1222301", "short_name": "DOZ"}}, {"type": "node", "id": 9579170632, "lat": 51.7805809, "lon": 19.4283966, "tags": {"addr:city": "\u0141\u00f3d\u017a", "addr:housenumber": "40", "addr:postcode": "91-009", "addr:street": "Stefana Okrzei", "amenity": "pharmacy", "dispensing": "yes", "name": "Apteka Medic", "ref:csioz": "1010491"}}, {"type": "node", "id": 9579171531, "lat": 51.7649349, "lon": 19.4530324, "tags": {"addr:city": "\u0141\u00f3d\u017a", "addr:housenumber": "16", "addr:postcode": "90-513", "addr:street": "Andrzeja Struga", "amenity": "pharmacy", "check_date": "2024-07-22", "dispensing": "yes", "name": "Apteka Melissa", "opening_hours": "Mo-Fr 08:00-20:00; Sa 08:00-15:00", "payment:cash": "yes", "payment:credit_cards": "yes", "payment:debit_cards": "yes", "ref:csioz": "1164351", "wheelchair": "no"}}, {"type": "node", "id": 9579171602, "lat": 51.76049, "lon": 19.4440586, "tags": {"addr:city": "\u0141\u00f3d\u017a", "addr:housenumber": "38", "addr:postcode": "90-552", "addr:street": "Miko\u0142aja Kopernika", "amenity": "pharmacy", "dispensing": "yes", "name": "Apteka Magnus Pharm", "opening_hours": "Mo-Fr 08:00-20:00; Sa 08:00-15:00", "ref:csioz": "1214981"}}, {"type": "node", "id": 9579172457, "lat": 51.7968493, "lon": 19.3946534, "tags": {"addr:city": "\u0141\u00f3d\u017a", "addr:housenumber": "67", "addr:postcode": "91-204", "addr:street": "Traktorowa", "amenity": "pharmacy", "dispensing": "yes", "name": "Bio", "ref:csioz": "1012569"}}, {"type": "node", "id": 9579173100, "lat": 51.7972242, "lon": 19.3761185, "tags": {"addr:city": "\u0141\u00f3d\u017a", "addr:housenumber": "12", "addr:postcode": "91-211", "addr:street": "Rydzowa", "amenity": "pharmacy", "dispensing": "yes", "name": "Apteka Nowa Naj", "opening_hours": "Mo-Fr 08:00-20:00; Sa 08:00-15:00", "ref:csioz": "1026114"}}, {"type": "node", "id": 9579173184, "lat": 51.7942681, "lon": 19.4043354, "tags": {"addr:city": "\u0141\u00f3d\u017a", "addr:housenumber": "9", "addr:postcode": "91-104", "addr:street": "Lipiec Reymontowskich", "amenity": "pharmacy", "dispensing": "yes", "name": "Apteka U Kasi", "ref:csioz": "1121113"}}, {"type": "node", "id": 9579174539, "lat": 51.7510482, "lon": 19.4093362, "tags": {"addr:city": "\u0141\u00f3d\u017a", "addr:housenumber": "79C", "addr:postcode": "94-004", "addr:street": "Retki\u0144ska", "amenity": "pharmacy", "dispensing": "yes", "name": "Apteka-Sieciowa", "ref:csioz": "1021030"}}, {"type": "node", "id": 9579177891, "lat": 51.7483434, "lon": 19.395788, "tags": {"addr:city": "\u0141\u00f3d\u017a", "addr:housenumber": "60", "addr:postcode": "93-208", "addr:street": "Armii Krajowej", "amenity": "pharmacy", "brand": "Dbam o Zdrowie", "brand:wikidata": "Q62563833", "dispensing": "yes", "healthcare": "pharmacy", "name": "Dbam o Zdrowie", "ref:csioz": "1013206", "short_name": "DOZ"}}, {"type": "node", "id": 9579177903, "lat": 51.79247, "lon": 19.4135447, "tags": {"addr:city": "\u0141\u00f3d\u017a", "addr:housenumber": "196A", "addr:postcode": "91-031", "addr:street": "Boles\u0142awa Limanowskiego", "amenity": "pharmacy", "dispensing": "yes", "healthcare": "pharmacy", "name": "Lawenda", "ref:csioz": "1025696"}}, {"type": "node", "id": 9579180080, "lat": 51.7701211, "lon": 19.440569, "tags": {"addr:city": "\u0141\u00f3d\u017a", "addr:housenumber": "6/10", "addr:postcode": "90-750", "addr:street": "28 Pu\u0142ku Strzelc\u00f3w Kaniowskich", "amenity": "pharmacy", "dispensing": "yes", "healthcare": "pharmacy", "name": "Na Strzelc\u00f3w", "ref:csioz": "1017435"}}, {"type": "node", "id": 9579182907, "lat": 51.7334662, "lon": 19.4997602, "tags": {"addr:city": "\u0141\u00f3d\u017a", "addr:housenumber": "62", "addr:postcode": "93-264", "addr:street": "W\u0142adys\u0142awa Broniewskiego", "amenity": "pharmacy", "dispensing": "yes", "name": "Apteka A-Z Od Apteki Do Zdrowia", "ref:csioz": "1119680"}}, {"type": "node", "id": 9579186046, "lat": 51.8042204, "lon": 19.379809, "tags": {"addr:city": "\u0141\u00f3d\u017a", "addr:housenumber": "7", "addr:postcode": "91-211", "addr:street": "Szparagowa", "amenity": "pharmacy", "dispensing": "yes", "name": "Apteka Dbam O Zdrowie", "ref:csioz": "1015280"}}, {"type": "node", "id": 9579191158, "lat": 51.7473345, "lon": 19.4855704, "tags": {"addr:city": "\u0141\u00f3d\u017a", "addr:housenumber": "86", "addr:postcode": "93-110", "addr:street": "Stanis\u0142awa Przybyszewskiego", "amenity": "pharmacy", "dispensing": "yes", "name": "Apteka Dbam O Zdrowie", "ref:csioz": "1012215"}}, {"type": "node", "id": 9579191395, "lat": 51.7314931, "lon": 19.4617264, "tags": {"addr:city": "\u0141\u00f3d\u017a", "addr:housenumber": "9", "addr:postcode": "93-519", "addr:street": "My\u015bliwska", "amenity": "pharmacy", "dispensing": "yes", "healthcare": "pharmacy", "name": "Prima Mgr Farm. Tomasz Buszmak", "ref:csioz": "1017573"}}, {"type": "node", "id": 9579191396, "lat": 51.7562254, "lon": 19.5487039, "tags": {"addr:city": "\u0141\u00f3d\u017a", "addr:housenumber": "63", "addr:postcode": "92-518", "addr:street": "Andrzeja Sacharowa", "amenity": "pharmacy", "dispensing": "yes", "healthcare": "pharmacy", "name": "Apteka Dla Zdrowia", "ref:csioz": "1026692"}}, {"type": "node", "id": 9579191528, "lat": 51.7486093, "lon": 19.4234513, "tags": {"addr:city": "\u0141\u00f3d\u017a", "addr:housenumber": "10A", "addr:postcode": "94-040", "addr:street": "Bratys\u0142awska", "amenity": "pharmacy", "dispensing": "yes", "name": "Apteka Czerwona", "ref:csioz": "1119695"}}, {"type": "node", "id": 9579193713, "lat": 51.7783652, "lon": 19.4701744, "tags": {"addr:city": "\u0141\u00f3d\u017a", "addr:housenumber": "62/64", "addr:postcode": "91-409", "addr:street": "Pomorska", "amenity": "pharmacy", "check_date": "2025-03-11", "check_date:opening_hours": "2025-03-11", "dispensing": "yes", "name": "Apteka Dr.Max", "opening_hours": "Mo-Su 08:00-22:00; PH 08:00-18:00", "ref:csioz": "1024413", "wheelchair": "yes"}}, {"type": "node", "id": 9579194070, "lat": 51.7583757, "lon": 19.5352929, "tags": {"addr:city": "\u0141\u00f3d\u017a", "addr:housenumber": "72", "addr:postcode": "92-530", "addr:street": "Beli Bartoka", "amenity": "pharmacy", "brand": "Dbam o Zdrowie", "brand:wikidata": "Q62563833", "dispensing": "yes", "email": "apt78395@dbamozdrowie.pl", "healthcare": "pharmacy", "name": "Dbam o Zdrowie", "opening_hours": "Mo-Fr 08:00-20:00; Sa 08:00-16:00", "phone": "+48426737995", "ref:csioz": "1018856", "short_name": "DOZ", "website": "https://www.doz.pl/apteki/a78395-Apteka_Dbam_o_Zdrowie"}}, {"type": "node", "id": 9579194077, "lat": 51.7289125, "lon": 19.4563631, "tags": {"addr:city": "\u0141\u00f3d\u017a", "addr:housenumber": "11B", "addr:postcode": "93-530", "addr:street": "Ignacego Jana Paderewskiego", "amenity": "pharmacy", "dispensing": "yes", "healthcare": "pharmacy", "name": "Apteka Im. Miko\u0142aja Kopernika", "ref:csioz": "1213310"}}, {"type": "node", "id": 9579199658, "lat": 51.7564474, "lon": 19.5217084, "tags": {"addr:city": "\u0141\u00f3d\u017a", "addr:housenumber": "96", "addr:postcode": "92-310", "addr:street": "Milionowa", "amenity": "pharmacy", "dispensing": "yes", "ref:csioz": "1011269"}}, {"type": "node", "id": 9579201519, "lat": 51.8243171, "lon": 19.4353575, "tags": {"addr:city": "\u0141\u00f3d\u017a", "addr:housenumber": "16", "addr:postcode": "91-496", "addr:street": "\u015awitezianki", "amenity": "pharmacy", "dispensing": "yes", "name": "Apteka Melissa", "ref:csioz": "1201583"}}, {"type": "node", "id": 9579201680, "lat": 51.7558145, "lon": 19.5321778, "tags": {"addr:city": "\u0141\u00f3d\u017a", "addr:housenumber": "11 BL.19", "addr:postcode": "92-504", "addr:street": "J\u00f3zefa Elsnera", "amenity": "pharmacy", "dispensing": "yes", "healthcare": "pharmacy", "name": "Alofa", "ref:csioz": "1011032"}}, {"type": "node", "id": 9579211329, "lat": 51.794192, "lon": 19.3816992, "tags": {"addr:city": "\u0141\u00f3d\u017a", "addr:housenumber": "25", "addr:postcode": "91-134", "addr:street": "Rojna", "amenity": "pharmacy", "dispensing": "yes", "name": "Radicula", "ref:csioz": "1010229"}}, {"type": "node", "id": 9579223468, "lat": 51.7863897, "lon": 19.4311436, "tags": {"addr:city": "\u0141\u00f3d\u017a", "addr:housenumber": "2", "addr:postcode": "91-043", "addr:street": "Powsta\u0144c\u00f3w Wielkopolskich", "amenity": "pharmacy", "dispensing": "yes", "drive_through": "no", "healthcare": "pharmacy", "name": "Apteka Bliska Zdrowiu", "opening_hours": "Mo-Fr 08:00-20:00, Sa 08:00-15:00", "payment:cards": "yes", "payment:cash": "yes", "payment:contactless": "yes", "ref:csioz": "1214401"}}, {"type": "node", "id": 9579224339, "lat": 51.7433357, "lon": 19.3863756, "tags": {"addr:city": "\u0141\u00f3d\u017a", "addr:housenumber": "99", "addr:postcode": "94-050", "addr:street": "Aleja Stefana Wyszy\u0144skiego", "amenity": "pharmacy", "dispensing": "yes", "healthcare": "pharmacy", "name": "Apteka Zdrowit", "ref:csioz": "1180316"}}, {"type": "node", "id": 9579229185, "lat": 51.7335988, "lon": 19.4716336, "tags": {"addr:city": "\u0141\u00f3d\u017a", "addr:housenumber": "51", "addr:postcode": "93-008", "addr:street": "Rzgowska", "amenity": "pharmacy", "dispensing": "yes", "healthcare": "pharmacy", "name": "'Apteka - Apteki Dar Zdrowia'", "opening_hours": "24/7", "ref:csioz": "1026034"}}, {"type": "node", "id": 9579231589, "lat": 51.7500757, "lon": 19.4239759, "tags": {"addr:city": "\u0141\u00f3d\u017a", "addr:housenumber": "8A", "addr:postcode": "94-035", "addr:street": "Bratys\u0142awska", "amenity": "pharmacy", "dispensing": "yes", "name": "Apteka Dr. Optima", "ref:csioz": "1185365"}}, {"type": "node", "id": 9579232175, "lat": 51.7431221, "lon": 19.3854911, "tags": {"addr:city": "\u0141\u00f3d\u017a", "addr:housenumber": "107", "addr:postcode": "94-050", "addr:street": "Aleja Stefana Wyszy\u0144skiego", "amenity": "pharmacy", "brand": "Dr. Max", "brand:wikidata": "Q56317371", "dispensing": "yes", "healthcare": "pharmacy", "name": "Dr. Max", "ref:csioz": "1018052"}}, {"type": "node", "id": 9579236890, "lat": 51.7366264, "lon": 19.4941541, "tags": {"addr:city": "\u0141\u00f3d\u017a", "addr:housenumber": "89", "addr:postcode": "93-271", "addr:street": "Genera\u0142a Jaros\u0142awa D\u0105browskiego", "amenity": "pharmacy", "dispensing": "yes", "healthcare": "pharmacy", "name": "Apteka Zdrowit", "ref:csioz": "1009997"}}, {"type": "node", "id": 9579240237, "lat": 51.7968653, "lon": 19.5229039, "tags": {"addr:city": "\u0141\u00f3d\u017a", "addr:housenumber": "50", "addr:postcode": "92-111", "addr:street": "Brzezi\u0144ska", "amenity": "pharmacy", "dispensing": "yes", "name": "Apteka Wsp\u00f3lna", "ref:csioz": "1217550"}}, {"type": "node", "id": 9579240576, "lat": 51.7130373, "lon": 19.5536999, "tags": {"addr:city": "\u0141\u00f3d\u017a", "addr:housenumber": "341", "addr:postcode": "93-647", "addr:street": "Kolumny", "amenity": "pharmacy", "dispensing": "yes", "name": "\"Apteka \"\"Pilula\"\"\"", "ref:csioz": "1010293"}}, {"type": "node", "id": 9579244073, "lat": 51.7201264, "lon": 19.4857865, "tags": {"addr:city": "\u0141\u00f3d\u017a", "addr:housenumber": "170", "addr:postcode": "93-311", "addr:street": "Rzgowska", "amenity": "pharmacy", "dispensing": "yes", "name": "Kapsu\u0142ka", "ref:csioz": "1118280"}}, {"type": "node", "id": 9579244993, "lat": 51.7379859, "lon": 19.5010021, "tags": {"addr:city": "\u0141\u00f3d\u017a", "addr:housenumber": "12", "addr:postcode": "93-213", "addr:street": "Juliusza Kossaka", "amenity": "pharmacy", "dispensing": "yes", "name": "Apteka Dla Zdrowia", "ref:csioz": "1178129"}}, {"type": "node", "id": 9579248356, "lat": 51.7373656, "lon": 19.4883212, "tags": {"addr:city": "\u0141\u00f3d\u017a", "addr:housenumber": "63", "addr:postcode": "93-271", "addr:street": "Genera\u0142a Jaros\u0142awa D\u0105browskiego", "amenity": "pharmacy", "check_date:opening_hours": "2025-09-18", "dispensing": "yes", "healthcare": "pharmacy", "name": "Apteka Zdrowit", "opening_hours": "Mo-Fr 08:00-20:00; Sa 08:00-16:00", "ref:csioz": "1221683"}}, {"type": "node", "id": 9579248396, "lat": 51.7570816, "lon": 19.5336278, "tags": {"addr:city": "\u0141\u00f3d\u017a", "addr:housenumber": "19", "addr:postcode": "92-502", "addr:street": "J\u00f3zefa Elsnera", "amenity": "pharmacy", "dispensing": "yes", "healthcare": "pharmacy", "name": "Apteka Dbam O Zdrowie", "ref:csioz": "1012192"}}, {"type": "node", "id": 9579251441, "lat": 51.7563574, "lon": 19.5361401, "tags": {"addr:city": "\u0141\u00f3d\u017a", "addr:housenumber": "22", "addr:postcode": "92-508", "addr:street": "Mieczys\u0142awy \u0106wikli\u0144skiej", "amenity": "pharmacy", "dispensing": "yes", "healthcare": "pharmacy", "name": "Apteka Melissa", "ref:csioz": "1210194"}}, {"type": "node", "id": 9579256185, "lat": 51.7463967, "lon": 19.4960261, "tags": {"addr:city": "\u0141\u00f3d\u017a", "addr:housenumber": "5", "addr:postcode": "93-219", "addr:street": "Jana Brzechwy", "amenity": "pharmacy", "brand": "Dbam o Zdrowie", "brand:wikidata": "Q62563833", "dispensing": "yes", "healthcare": "pharmacy", "name": "Dbam o Zdrowie", "ref:csioz": "1019834", "short_name": "DOZ"}}, {"type": "node", "id": 9579257980, "lat": 51.7114888, "lon": 19.4293792, "tags": {"addr:city": "\u0141\u00f3d\u017a", "addr:housenumber": "218", "addr:postcode": "93-402", "addr:street": "Pabianicka", "amenity": "pharmacy", "dispensing": "yes", "healthcare": "pharmacy", "ref:csioz": "1010013"}}, {"type": "node", "id": 9579258782, "lat": 51.7389449, "lon": 19.4910019, "tags": {"addr:city": "\u0141\u00f3d\u017a", "addr:housenumber": "1", "addr:postcode": "93-277", "addr:street": "Henryka Rodakowskiego", "amenity": "pharmacy", "dispensing": "yes", "healthcare": "pharmacy", "ref:csioz": "1012056"}}, {"type": "node", "id": 9579259716, "lat": 51.7645906, "lon": 19.4940819, "tags": {"addr:city": "\u0141\u00f3d\u017a", "addr:housenumber": "94", "addr:postcode": "92-202", "addr:street": "Aleja Marsza\u0142ka J\u00f3zefa Pi\u0142sudskiego", "amenity": "pharmacy", "brand": "Dbam o Zdrowie", "brand:wikidata": "Q62563833", "dispensing": "yes", "healthcare": "pharmacy", "name": "Dbam o Zdrowie", "ref:csioz": "1016934", "short_name": "DOZ"}}, {"type": "node", "id": 9579262874, "lat": 51.7936869, "lon": 19.4035358, "tags": {"addr:city": "\u0141\u00f3d\u017a", "addr:housenumber": "83", "addr:postcode": "91-110", "addr:street": "\u0141anowa", "amenity": "pharmacy", "dispensing": "yes", "ref:csioz": "1009981"}}, {"type": "node", "id": 9579263400, "lat": 51.7426707, "lon": 19.4721862, "tags": {"addr:city": "\u0141\u00f3d\u017a", "addr:housenumber": "45", "addr:postcode": "93-180", "addr:street": "Zarzewska", "amenity": "pharmacy", "dispensing": "yes", "healthcare": "pharmacy", "name": "Zarzewska", "ref:csioz": "1014584"}}, {"type": "node", "id": 9579264701, "lat": 51.7375112, "lon": 19.4248836, "tags": {"addr:city": "\u0141\u00f3d\u017a", "addr:housenumber": "128/152", "addr:postcode": "94-104", "addr:street": "Obywatelska", "amenity": "pharmacy", "dispensing": "yes", "name": "Wapteka.Pl", "ref:csioz": "1184654"}}, {"type": "node", "id": 9579270286, "lat": 51.797558, "lon": 19.392116, "tags": {"amenity": "pharmacy", "dispensing": "yes", "healthcare": "pharmacy", "name": "Z\u0142ota", "ref:csioz": "1190154"}}, {"type": "node", "id": 9579276517, "lat": 51.7920567, "lon": 19.4840982, "tags": {"addr:city": "\u0141\u00f3d\u017a", "addr:housenumber": "6", "addr:postcode": "91-718", "addr:street": "Chryzantem", "amenity": "pharmacy", "dispensing": "yes", "ref:csioz": "1021677"}}, {"type": "node", "id": 9579276519, "lat": 51.7152507, "lon": 19.4758345, "tags": {"addr:city": "\u0141\u00f3d\u017a", "addr:housenumber": "32", "addr:postcode": "93-357", "addr:street": "Kosynier\u00f3w Gdy\u0144skich", "amenity": "pharmacy", "dispensing": "yes", "name": "Apteka Dbam O Zdrowie", "ref:csioz": "1016282"}}, {"type": "node", "id": 9579287547, "lat": 51.7873561, "lon": 19.4176477, "tags": {"addr:city": "\u0141\u00f3d\u017a", "addr:housenumber": "3", "addr:postcode": "91-022", "addr:street": "\u017bubardzka", "amenity": "pharmacy", "dispensing": "yes", "healthcare": "pharmacy", "name": "Apteka Czerwona", "ref:csioz": "1014513"}}, {"type": "node", "id": 9579313307, "lat": 51.7595146, "lon": 19.4646051, "tags": {"addr:city": "\u0141\u00f3d\u017a", "addr:housenumber": "15/23", "addr:postcode": "90-307", "addr:street": "Aleja Marsza\u0142ka J\u00f3zefa Pi\u0142sudskiego", "amenity": "pharmacy", "dispensing": "yes", "name": "Super-Pharm Apteka", "ref:csioz": "1164405"}}, {"type": "node", "id": 9579314505, "lat": 51.7444679, "lon": 19.4717487, "tags": {"addr:city": "\u0141\u00f3d\u017a", "addr:housenumber": "57/59", "addr:postcode": "93-188", "addr:street": "Stanis\u0142awa Przybyszewskiego", "amenity": "pharmacy", "dispensing": "yes", "name": "Apteka Szlachetna", "ref:csioz": "1204175"}}, {"type": "node", "id": 9579328723, "lat": 51.7475381, "lon": 19.4955287, "tags": {"addr:city": "\u0141\u00f3d\u017a", "addr:housenumber": "7A", "addr:postcode": "93-219", "addr:street": "Jana Brzechwy", "amenity": "pharmacy", "dispensing": "yes", "healthcare": "pharmacy", "name": "Rosa", "ref:csioz": "1026561"}}, {"type": "node", "id": 9579331418, "lat": 51.7849961, "lon": 19.4526252, "tags": {"addr:city": "\u0141\u00f3d\u017a", "addr:housenumber": "38", "addr:postcode": "91-059", "addr:street": "Zgierska", "amenity": "pharmacy", "dispensing": "yes", "name": "Apteka-Sieciowa", "ref:csioz": "1009908"}}, {"type": "node", "id": 9579331430, "lat": 51.7592747, "lon": 19.5522568, "tags": {"addr:city": "\u0141\u00f3d\u017a", "addr:housenumber": "30A", "addr:postcode": "92-306", "addr:street": "Juliusza Jurczy\u0144skiego", "amenity": "pharmacy", "dispensing": "yes", "healthcare": "pharmacy", "name": "Rodzinna", "ref:csioz": "1014340"}}, {"type": "node", "id": 9579335956, "lat": 51.7470831, "lon": 19.3944285, "tags": {"addr:city": "\u0141\u00f3d\u017a", "addr:housenumber": "44", "addr:postcode": "94-046", "addr:street": "Armii Krajowej", "amenity": "pharmacy", "dispensing": "yes", "healthcare": "pharmacy", "name": "Aralia", "opening_hours": "Mo-Fr 08:00-20:00; Sa 08:00-15:00; Su 09:00-15:00", "ref:csioz": "1013935"}}, {"type": "node", "id": 9579339579, "lat": 51.7988894, "lon": 19.4754915, "tags": {"addr:city": "\u0141\u00f3d\u017a", "addr:housenumber": "2", "addr:postcode": "91-848", "addr:street": "Heleny Radli\u0144skiej", "amenity": "pharmacy", "dispensing": "yes", "name": "Apteka Mgr Farm. Jakub W\u0105sikowski", "ref:csioz": "1021615"}}, {"type": "node", "id": 9579346405, "lat": 51.7177888, "lon": 19.4818493, "tags": {"addr:city": "\u0141\u00f3d\u017a", "addr:housenumber": "7", "addr:postcode": "93-318", "addr:street": "Stra\u017cacka", "amenity": "pharmacy", "dispensing": "yes", "name": "Apteka 24 H", "ref:csioz": "1122953"}}, {"type": "node", "id": 9579346406, "lat": 51.7867853, "lon": 19.4163298, "tags": {"addr:city": "\u0141\u00f3d\u017a", "addr:housenumber": "4", "addr:postcode": "91-022", "addr:street": "\u017bubardzka", "amenity": "pharmacy", "dispensing": "yes", "name": "Apteka Dbam O Zdrowie", "ref:csioz": "1012665"}}, {"type": "node", "id": 9579346407, "lat": 51.7387169, "lon": 19.3793649, "tags": {"addr:city": "\u0141\u00f3d\u017a", "addr:housenumber": "26", "addr:postcode": "94-128", "addr:street": "Gimnastyczna", "amenity": "pharmacy", "dispensing": "yes", "name": "Viola", "ref:csioz": "1010255"}}, {"type": "node", "id": 9579348405, "lat": 51.7282443, "lon": 19.4696782, "tags": {"addr:city": "\u0141\u00f3d\u017a", "addr:housenumber": "47", "addr:postcode": "93-523", "addr:street": "Ignacego Jana Paderewskiego", "amenity": "pharmacy", "brand": "Dbam o Zdrowie", "brand:wikidata": "Q62563833", "dispensing": "yes", "healthcare": "pharmacy", "name": "Dbam o Zdrowie", "opening_hours": "Mo-Fr 08:00-20:00; Sa 08:00-15:00", "ref:csioz": "1020796", "short_name": "DOZ"}}, {"type": "node", "id": 9579354844, "lat": 51.7185622, "lon": 19.4795272, "tags": {"addr:city": "\u0141\u00f3d\u017a", "addr:housenumber": "11", "addr:postcode": "93-318", "addr:street": "Stra\u017cacka", "amenity": "pharmacy", "dispensing": "yes", "name": "Apteka Dbam O Zdrowie", "ref:csioz": "1013038"}}, {"type": "node", "id": 9579357640, "lat": 51.7714417, "lon": 19.4642184, "tags": {"addr:city": "\u0141\u00f3d\u017a", "addr:housenumber": "42", "addr:postcode": "90-135", "addr:street": "Gabriela Narutowicza", "amenity": "pharmacy", "dispensing": "yes", "healthcare": "pharmacy", "name": "Melissa", "ref:csioz": "1009401"}}, {"type": "node", "id": 9581645283, "lat": 51.6472438, "lon": 19.3607318, "tags": {"addr:city": "Pabianice", "addr:housenumber": "72", "addr:postcode": "95-200", "addr:street": "Jutrzkowicka", "amenity": "pharmacy", "name": "Dobra Apteka", "ref:csioz": "1223867"}}, {"type": "node", "id": 9581650708, "lat": 51.6498975, "lon": 19.3725121, "tags": {"addr:city": "Pabianice", "addr:flats": "20", "addr:housenumber": "4", "addr:postcode": "95-200", "addr:street": "Pop\u0142awska", "amenity": "pharmacy", "name": "Apteka Dbam O Zdrowie", "ref:csioz": "1016681"}}, {"type": "node", "id": 9581655492, "lat": 51.6545575, "lon": 19.373825, "tags": {"addr:city": "Pabianice", "addr:housenumber": "17A", "addr:postcode": "95-200", "addr:street": "Nawrockiego", "amenity": "pharmacy", "name": "Vita-Lek", "ref:csioz": "1011754"}}, {"type": "node", "id": 9581665961, "lat": 51.6624373, "lon": 19.3561614, "tags": {"addr:city": "Pabianice", "addr:housenumber": "9", "addr:postcode": "95-200", "addr:street": "Grobelna", "amenity": "pharmacy", "brand": "Dbam o Zdrowie", "brand:wikidata": "Q62563833", "healthcare": "pharmacy", "name": "Dbam o Zdrowie", "ref:csioz": "1018301", "short_name": "DOZ"}}, {"type": "node", "id": 9581671411, "lat": 51.6621046, "lon": 19.3213275, "tags": {"addr:city": "Pabianice", "addr:housenumber": "23", "addr:postcode": "95-200", "addr:street": "Torowa", "amenity": "pharmacy", "name": "Na Zatorzu", "ref:csioz": "1014838"}}, {"type": "node", "id": 9581686031, "lat": 51.7525268, "lon": 19.2085526, "tags": {"addr:city": "Lutomiersk", "addr:housenumber": "17", "addr:postcode": "95-083", "addr:street": "Tadeusza Ko\u015bciuszki", "amenity": "pharmacy", "email": "apt63026@dbamozdrowie.pl", "name": "Dbam O Zdrowie", "opening_hours": "Mo-Fr 08:00-19:00; Sa 08:00-15:00", "phone": "+4843677518", "ref:csioz": "1013391", "website": "https://www.doz.pl/apteki/a63026-Apteka_Dbam_o_Zdrowie"}}, {"type": "node", "id": 9581698452, "lat": 51.749438, "lon": 19.3230641, "tags": {"addr:city": "Konstantyn\u00f3w \u0141\u00f3dzki", "addr:housenumber": "11/13", "addr:postcode": "95-050", "addr:street": "Jana Paw\u0142a II", "amenity": "pharmacy", "dispensing": "yes", "drive_through": "no", "healthcare": "pharmacy", "name": "Medest X", "opening_hours": "Mo-Fr 08:00-20:00; Sa 08:00-18:00", "ref:csioz": "1025765"}}, {"type": "node", "id": 9581704378, "lat": 51.6637558, "lon": 19.3645848, "tags": {"addr:city": "Pabianice", "addr:housenumber": "3/5", "addr:postcode": "95-200", "addr:street": "Warszawska", "amenity": "pharmacy", "name": "Apteka Popularna", "ref:csioz": "1210666"}}, {"type": "node", "id": 9581708549, "lat": 51.664178, "lon": 19.3520777, "tags": {"addr:city": "Pabianice", "addr:housenumber": "18", "addr:postcode": "95-200", "addr:street": "Zamkowa", "amenity": "pharmacy", "name": "Apteka S\u0142oneczna Centrum Farmaceutyczne", "opening_hours": "Mo-Sa 07:00-21:00", "ref:csioz": "1171836"}}, {"type": "node", "id": 9581713117, "lat": 51.6587609, "lon": 19.3416333, "tags": {"addr:city": "Pabianice", "addr:housenumber": "45/47", "addr:postcode": "95-200", "addr:street": "Orla", "amenity": "pharmacy", "name": "Apteka Dbam O Zdrowie", "opening_hours": "Mo-Fr 08:00-20:00; Sa 08:00-15:00", "ref:csioz": "1012917", "website": "https://www.doz.pl/"}}, {"type": "node", "id": 9581716396, "lat": 51.7544954, "lon": 19.2122437, "tags": {"addr:city": "Lutomiersk", "addr:housenumber": "2", "addr:postcode": "95-083", "addr:street": "Targowa", "amenity": "pharmacy", "name": "Przy Rynku", "ref:csioz": "1017283"}}, {"type": "node", "id": 9581725244, "lat": 51.6613467, "lon": 19.3301138, "tags": {"addr:city": "Pabianice", "addr:housenumber": "50/54", "addr:postcode": "95-200", "addr:street": "\u0141aska", "amenity": "pharmacy", "name": "Doz Apteka Dbam O Zdrowie", "ref:csioz": "1016309"}}, {"type": "node", "id": 9581727858, "lat": 51.6823448, "lon": 19.4034447, "tags": {"addr:city": "Ksawer\u00f3w", "addr:housenumber": "2", "addr:postcode": "95-054", "addr:street": "Pocztowa", "amenity": "pharmacy", "name": "Apteka Wsp\u00f3lna", "ref:csioz": "1185224"}}, {"type": "node", "id": 9581744570, "lat": 51.6559648, "lon": 19.3316513, "tags": {"addr:city": "Pabianice", "addr:housenumber": "45A", "addr:postcode": "95-200", "addr:street": "Wile\u0144ska", "amenity": "pharmacy", "name": "Osiedlowa", "ref:csioz": "1018938"}}, {"type": "node", "id": 9581745368, "lat": 51.7514532, "lon": 19.3216011, "tags": {"addr:city": "Konstantyn\u00f3w \u0141\u00f3dzki", "addr:housenumber": "1/3", "addr:postcode": "95-050", "addr:street": "mjr. Henryka Sucharskiego", "amenity": "pharmacy", "name": "Apteka Bursztynowa", "ref:csioz": "1017252"}}, {"type": "node", "id": 9581746759, "lat": 51.6531551, "lon": 19.3812293, "tags": {"addr:city": "Pabianice", "addr:housenumber": "8A", "addr:postcode": "95-200", "addr:street": "Smugowa", "amenity": "pharmacy", "name": "Jemio\u0142a", "ref:csioz": "1009604"}}, {"type": "node", "id": 9581755504, "lat": 51.6602161, "lon": 19.3367938, "tags": {"addr:city": "Pabianice", "addr:housenumber": "90", "addr:postcode": "95-200", "addr:street": "Stanis\u0142awa Moniuszki", "amenity": "pharmacy", "name": "Apteka Pod Bocianem", "ref:csioz": "1186819"}}, {"type": "node", "id": 9581762691, "lat": 51.6699868, "lon": 19.3515982, "tags": {"addr:city": "Pabianice", "addr:housenumber": "48C", "addr:postcode": "95-200", "addr:street": "Partyzancka", "amenity": "pharmacy", "name": "Apteka Pabianka Ma\u0142gorzata Romanowska", "ref:csioz": "1171873"}}, {"type": "node", "id": 9581763534, "lat": 51.6598975, "lon": 19.3761978, "tags": {"addr:city": "Pabianice", "addr:housenumber": "24A", "addr:postcode": "95-200", "addr:street": "Nawrockiego", "amenity": "pharmacy", "name": "Herba", "ref:csioz": "1177585"}}, {"type": "node", "id": 9581771527, "lat": 51.6640357, "lon": 19.3439117, "tags": {"addr:city": "Pabianice", "addr:housenumber": "1", "addr:postcode": "95-200", "addr:street": "Stanis\u0142awa Wyspia\u0144skiego", "amenity": "pharmacy", "brand": "Dbam o Zdrowie", "brand:wikidata": "Q62563833", "healthcare": "pharmacy", "name": "Dbam o Zdrowie", "ref:csioz": "1012996", "short_name": "DOZ"}}, {"type": "node", "id": 9581773070, "lat": 51.655396, "lon": 19.382914, "tags": {"addr:city": "Pabianice", "addr:housenumber": "4", "addr:postcode": "95-200", "addr:street": "Podle\u015bna", "amenity": "pharmacy", "name": "Twoja Apteka", "ref:csioz": "1015945"}}, {"type": "node", "id": 9581773071, "lat": 51.7506008, "lon": 19.32152, "tags": {"addr:city": "Konstantyn\u00f3w \u0141\u00f3dzki", "addr:housenumber": "10", "addr:postcode": "95-050", "addr:street": "Sadowa", "amenity": "pharmacy", "email": "apt63332@dbamozdrowie.pl", "name": "Apteka Dbam O Zdrowie", "opening_hours": "Mo-Fr 08:00-20:00; Sa 08:00-13:00", "phone": "+48 42 2111036", "ref:csioz": "1012455"}}, {"type": "node", "id": 9581773676, "lat": 51.6640532, "lon": 19.3654545, "tags": {"addr:city": "Pabianice", "addr:housenumber": "8", "addr:postcode": "95-200", "addr:street": "Warszawska", "amenity": "pharmacy", "name": "Olmed", "ref:csioz": "1194181"}}, {"type": "node", "id": 9581774598, "lat": 51.6571436, "lon": 19.3291175, "tags": {"addr:city": "Pabianice", "addr:housenumber": "139", "addr:postcode": "95-200", "addr:street": "Stanis\u0142awa Moniuszki", "amenity": "pharmacy", "dispensing": "yes", "healthcare": "pharmacy", "name": "Apteka Dbam O Zdrowie", "not:brand:wikidata": "Q62563833", "ref:csioz": "1012901"}}, {"type": "node", "id": 9581774687, "lat": 51.6599716, "lon": 19.3741053, "tags": {"addr:city": "Pabianice", "addr:housenumber": "20/22", "addr:postcode": "95-200", "addr:street": "20 Stycznia", "amenity": "pharmacy", "name": "Twoja Apteka", "ref:csioz": "1186808"}}, {"type": "node", "id": 9581774704, "lat": 51.6826682, "lon": 19.4039201, "tags": {"addr:city": "Ksawer\u00f3w", "addr:housenumber": "1A", "addr:postcode": "95-054", "addr:street": "Pocztowa", "amenity": "pharmacy", "name": "Doz Apteka Dbam O Zdrowie", "ref:csioz": "1017896"}}, {"type": "node", "id": 9581774874, "lat": 51.7509108, "lon": 19.324599, "tags": {"addr:city": "Konstantyn\u00f3w \u0141\u00f3dzki", "addr:housenumber": "23", "addr:postcode": "95-050", "addr:street": "Miko\u0142aja Kopernika", "amenity": "pharmacy", "dispensing": "yes", "drive_through": "no", "healthcare": "pharmacy", "name": "Olmed", "opening_hours": "Mo-Fr 08:00-20:00; Sa 08:00-15:00", "ref:csioz": "1185993"}}, {"type": "node", "id": 9581787371, "lat": 51.7687964, "lon": 19.2052734, "tags": {"addr:city": "Kazimierz", "addr:housenumber": "1", "addr:postcode": "95-083", "addr:street": "Tadeusza Ko\u015bciuszki", "amenity": "pharmacy", "ref:csioz": "1118992"}}, {"type": "node", "id": 9581789501, "lat": 51.6596421, "lon": 19.3269816, "tags": {"addr:city": "Pabianice", "addr:housenumber": "76", "addr:postcode": "95-200", "addr:street": "\u0141aska", "amenity": "pharmacy", "name": "Doz Apteka Dbam O Zdrowie", "ref:csioz": "1018506"}}, {"type": "node", "id": 9581795857, "lat": 51.6600889, "lon": 19.3549557, "tags": {"addr:city": "Pabianice", "addr:housenumber": "10/12", "addr:postcode": "95-200", "addr:street": "Jana Kili\u0144skiego", "amenity": "pharmacy", "name": "Apteka Medicor", "ref:csioz": "1009832"}}, {"type": "node", "id": 9590247971, "lat": 51.5790838, "lon": 19.0061398, "tags": {"addr:city": "Zdu\u0144ska Wola", "addr:housenumber": "112", "addr:postcode": "98-220", "addr:street": "Karsznicka", "amenity": "pharmacy", "healthcare": "pharmacy", "name": "Apteka Karsznicka", "ref:csioz": "1118968"}}, {"type": "node", "id": 9590271954, "lat": 51.6910245, "lon": 18.9758865, "tags": {"addr:city": "Szadek", "addr:housenumber": "1", "addr:postcode": "98-240", "addr:street": "Piotrkowska", "amenity": "pharmacy", "healthcare": "pharmacy", "name": "\"Apteka \"\"Kwiaty Polskie\"\"\"", "ref:csioz": "1025994"}}, {"type": "node", "id": 9590781116, "lat": 51.7898048, "lon": 19.3200561, "tags": {"addr:city": "R\u0105bie\u0144", "addr:housenumber": "2", "addr:postcode": "95-071", "addr:street": "Pa\u0144ska", "amenity": "pharmacy", "dispensing": "yes", "name": "Szlachetna", "ref:csioz": "1231151"}}, {"type": "node", "id": 9590791517, "lat": 51.8220747, "lon": 19.3055373, "tags": {"addr:city": "Aleksandr\u00f3w \u0141\u00f3dzki", "addr:housenumber": "13/13A", "addr:postcode": "95-070", "addr:street": "Warszawska", "amenity": "pharmacy", "dispensing": "yes", "name": "Doz Apteka. Dbam O Zdrowie. Alba", "ref:csioz": "1231017"}}, {"type": "node", "id": 9590791518, "lat": 51.8643037, "lon": 19.4242761, "tags": {"addr:city": "Zgierz", "addr:housenumber": "2", "addr:postcode": "95-100", "addr:street": "Stanis\u0142awa Fija\u0142kowskiego", "amenity": "pharmacy", "dispensing": "yes", "name": "Apteka Hortensja", "ref:csioz": "1116793"}}, {"type": "node", "id": 9590791519, "lat": 51.8625487, "lon": 19.3968652, "tags": {"addr:city": "Zgierz", "addr:housenumber": "40", "addr:postcode": "95-100", "addr:street": "Konstantego Ildefonsa Ga\u0142czy\u0144skiego", "amenity": "pharmacy", "dispensing": "yes", "healthcare": "pharmacy", "name": "Apteka Wrzosowa", "ref:csioz": "1186650"}}, {"type": "node", "id": 9590791520, "lat": 51.8618804, "lon": 19.4157218, "tags": {"addr:city": "Zgierz", "addr:housenumber": "4", "addr:postcode": "95-100", "addr:street": "1 Maja", "amenity": "pharmacy", "dispensing": "yes", "name": "\"Apteka \"\"Kwiaty Polskie\"\"\"", "ref:csioz": "1018349"}}, {"type": "node", "id": 9590791521, "lat": 51.7897425, "lon": 19.3173719, "tags": {"addr:city": "R\u0105bie\u0144", "addr:housenumber": "14", "addr:postcode": "95-071", "addr:street": "Pa\u0144ska", "amenity": "pharmacy", "dispensing": "yes", "ref:csioz": "1024972"}}, {"type": "node", "id": 9590791522, "lat": 51.8552807, "lon": 19.4073637, "tags": {"addr:city": "Zgierz", "addr:housenumber": "2A", "addr:postcode": "95-100", "addr:street": "ks. Jerzego Popie\u0142uszki", "amenity": "pharmacy", "dispensing": "yes", "healthcare": "pharmacy", "name": "Apteka S\u0142oneczna", "ref:csioz": "1210568"}}, {"type": "node", "id": 9590791523, "lat": 51.8218202, "lon": 19.302601, "tags": {"addr:city": "Aleksandr\u00f3w \u0141\u00f3dzki", "addr:housenumber": "3", "addr:postcode": "95-070", "addr:street": "Marii Sk\u0142odowskiej-Curie", "amenity": "pharmacy", "dispensing": "yes", "name": "Forte Apteka", "ref:csioz": "1010822"}}, {"type": "node", "id": 9590836788, "lat": 51.8605867, "lon": 19.3938424, "tags": {"addr:city": "Zgierz", "addr:housenumber": "34", "addr:postcode": "95-100", "addr:street": "Konstantego Ildefonsa Ga\u0142czy\u0144skiego", "amenity": "pharmacy", "dispensing": "yes", "name": "Dr. Max", "ref:csioz": "1018881"}}, {"type": "node", "id": 9590836790, "lat": 51.8616207, "lon": 19.4163944, "tags": {"addr:city": "Zgierz", "addr:housenumber": "1/3", "addr:postcode": "95-100", "addr:street": "1 Maja", "amenity": "pharmacy", "dispensing": "yes", "ref:csioz": "1011509"}}, {"type": "node", "id": 9590836792, "lat": 52.0020012, "lon": 19.4515769, "tags": {"addr:city": "Gieczno", "addr:housenumber": "43", "addr:postcode": "95-100", "addr:street": "G\u0142\u00f3wna", "amenity": "pharmacy", "dispensing": "yes", "ref:csioz": "1194625"}}, {"type": "node", "id": 9590836793, "lat": 51.8188326, "lon": 19.3058954, "tags": {"addr:city": "Aleksandr\u00f3w \u0141\u00f3dzki", "addr:housenumber": "9", "addr:postcode": "95-070", "addr:street": "Wojska Polskiego", "amenity": "pharmacy", "dispensing": "yes", "ref:csioz": "1011162"}}, {"type": "node", "id": 9590836794, "lat": 51.8540034, "lon": 19.4221759, "tags": {"addr:city": "Zgierz", "addr:housenumber": "71/73", "addr:postcode": "95-100", "addr:street": "D\u0142uga", "amenity": "pharmacy", "dispensing": "yes", "name": "Panaceum", "ref:csioz": "1009878"}}, {"type": "node", "id": 9590836796, "lat": 51.8608341, "lon": 19.3787429, "tags": {"addr:city": "Zgierz", "addr:housenumber": "14A", "addr:postcode": "95-100", "addr:street": "Leopolda Staffa", "amenity": "pharmacy", "dispensing": "yes", "healthcare": "pharmacy", "name": "NA SPRZEDA\u017b - Dawna Apteka Hortensja", "ref:csioz": "1197680"}}, {"type": "node", "id": 9590894100, "lat": 51.85746, "lon": 19.4128069, "tags": {"addr:city": "Zgierz", "addr:housenumber": "19", "addr:postcode": "95-100", "addr:street": "gen. Henryka D\u0105browskiego", "amenity": "pharmacy", "dispensing": "yes", "healthcare": "pharmacy", "name": "Apteka Rodzinna Sanus", "ref:csioz": "1015900"}}, {"type": "node", "id": 9590894101, "lat": 51.9300311, "lon": 19.4469823, "tags": {"addr:city": "Bia\u0142a", "addr:housenumber": "1", "addr:postcode": "95-001", "addr:street": "Ko\u015bcielna", "amenity": "pharmacy", "dispensing": "yes", "name": "Bia\u0142a Stokrotka", "ref:csioz": "1024790"}}, {"type": "node", "id": 9590894102, "lat": 51.8183466, "lon": 19.3094094, "tags": {"addr:city": "Aleksandr\u00f3w \u0141\u00f3dzki", "addr:housenumber": "36", "addr:postcode": "95-070", "addr:street": "Wojska Polskiego", "amenity": "pharmacy", "dispensing": "yes", "healthcare": "pharmacy", "name": "S\u0142oneczna", "ref:csioz": "1226268"}}, {"type": "node", "id": 9590894103, "lat": 51.8558349, "lon": 19.4048924, "tags": {"addr:city": "Zgierz", "addr:housenumber": "20", "addr:postcode": "95-100", "addr:street": "Plac Jana Paw\u0142a II", "amenity": "pharmacy", "brand": "Dbam o Zdrowie", "brand:wikidata": "Q62563833", "dispensing": "yes", "healthcare": "pharmacy", "name": "Dbam o Zdrowie", "ref:csioz": "1009784", "short_name": "DOZ"}}, {"type": "node", "id": 9590894104, "lat": 51.8611482, "lon": 19.3935902, "tags": {"addr:city": "Zgierz", "addr:housenumber": "25C", "addr:postcode": "95-100", "addr:street": "Parz\u0119czewska", "amenity": "pharmacy", "dispensing": "yes", "healthcare": "pharmacy", "name": "Apteka W Wie\u017cowcu", "ref:csioz": "1011682"}}, {"type": "node", "id": 9590894106, "lat": 51.8444531, "lon": 19.4155133, "tags": {"addr:city": "Zgierz", "addr:housenumber": "77-79", "addr:postcode": "95-100", "addr:street": "\u0141\u00f3dzka", "amenity": "pharmacy", "dispensing": "yes", "name": "Apteka Cosmedica", "ref:csioz": "1025551"}}, {"type": "node", "id": 9590894108, "lat": 51.8619872, "lon": 19.380772, "tags": {"addr:city": "Zgierz", "addr:housenumber": "23A", "addr:postcode": "95-100", "addr:street": "Tadeusza Boya-\u017bele\u0144skiego", "amenity": "pharmacy", "dispensing": "yes", "name": "Verbena", "ref:csioz": "1011787"}}, {"type": "node", "id": 9590914531, "lat": 51.8216963, "lon": 19.3048125, "tags": {"addr:city": "Aleksandr\u00f3w \u0141\u00f3dzki", "addr:housenumber": "8", "addr:postcode": "95-070", "addr:street": "Warszawska", "amenity": "pharmacy", "dispensing": "yes", "name": "Doz Apteka. Dbam O Zdrowie. Alba", "ref:csioz": "1021118"}}, {"type": "node", "id": 9590924409, "lat": 51.8127406, "lon": 19.3163882, "tags": {"addr:city": "Aleksandr\u00f3w \u0141\u00f3dzki", "addr:housenumber": "2/4", "addr:postcode": "95-070", "addr:street": "J\u00f3zefa Pi\u0142sudskiego", "amenity": "pharmacy", "dispensing": "yes", "name": "Apteka Prima", "ref:csioz": "1022892"}}, {"type": "node", "id": 9590924411, "lat": 51.893348, "lon": 19.3144637, "tags": {"addr:city": "Grotniki", "addr:housenumber": "23A", "addr:postcode": "95-073", "addr:street": "Brzozowa", "amenity": "pharmacy", "dispensing": "yes", "name": "Nad Lind\u0105", "ref:csioz": "1022274"}}, {"type": "node", "id": 9590934521, "lat": 51.823464, "lon": 19.3033513, "tags": {"addr:city": "Aleksandr\u00f3w \u0141\u00f3dzki", "addr:housenumber": "14", "addr:postcode": "95-070", "addr:street": "Ignacego Daszy\u0144skiego", "amenity": "pharmacy", "dispensing": "yes", "name": "Apteka Prima", "ref:csioz": "1021096"}}, {"type": "node", "id": 9590934522, "lat": 51.8532069, "lon": 19.4250251, "tags": {"addr:city": "Zgierz", "addr:housenumber": "64A", "addr:postcode": "95-100", "addr:street": "D\u0142uga", "amenity": "pharmacy", "dispensing": "yes", "name": "\"Apteka \"\"Rodzinna\"\"\"", "ref:csioz": "1020259"}}, {"type": "node", "id": 9590934523, "lat": 51.8155388, "lon": 19.3071641, "tags": {"addr:city": "Aleksandr\u00f3w \u0141\u00f3dzki", "addr:housenumber": "23", "addr:postcode": "95-070", "addr:street": "Po\u0142udniowa", "amenity": "pharmacy", "dispensing": "yes", "name": "Valeriana", "ref:csioz": "1009620"}}, {"type": "node", "id": 9590934525, "lat": 52.0227791, "lon": 19.2840228, "tags": {"addr:housenumber": "18", "addr:place": "Le\u015bmierz", "addr:postcode": "95-035", "amenity": "pharmacy", "dispensing": "yes", "drive_through": "no", "healthcare": "pharmacy", "name": "Apteka Le\u015bmierz", "operator": "osoba", "ref:csioz": "1010149"}}, {"type": "node", "id": 9590934526, "lat": 51.9160715, "lon": 19.364562, "tags": {"amenity": "pharmacy", "brand": "Dr. Max", "brand:wikidata": "Q56317371", "dispensing": "yes", "healthcare": "pharmacy", "name": "Punkt Apteczny Dr. Max", "ref:csioz": "1231384"}}, {"type": "node", "id": 9590934527, "lat": 51.9558369, "lon": 19.2821015, "tags": {"addr:city": "Ozork\u00f3w", "addr:housenumber": "2/4", "addr:postcode": "95-035", "addr:street": "Kupiecka", "amenity": "pharmacy", "dispensing": "yes", "name": "Apteka Wybieram Zdrowie", "ref:csioz": "1212075"}}, {"type": "node", "id": 9590934528, "lat": 51.8182, "lon": 19.3102433, "tags": {"addr:city": "Aleksandr\u00f3w \u0141\u00f3dzki", "addr:housenumber": "42", "addr:postcode": "95-070", "addr:street": "Wojska Polskiego", "amenity": "pharmacy", "dispensing": "yes", "name": "Apteka Dla Ciebie", "ref:csioz": "1211670"}}, {"type": "node", "id": 9590934529, "lat": 51.8549287, "lon": 19.4156675, "tags": {"addr:city": "Zgierz", "addr:housenumber": "43A", "addr:postcode": "95-100", "addr:street": "D\u0142uga", "amenity": "pharmacy", "dispensing": "yes", "healthcare": "pharmacy", "name": "Apteka Spo\u0142eczna Na D\u0142ugiej Grupa Nowa Farmacja", "ref:csioz": "1210602"}}, {"type": "node", "id": 9590934530, "lat": 51.9428388, "lon": 19.2037837, "tags": {"addr:city": "Parz\u0119czew", "addr:housenumber": "1A", "addr:postcode": "95-045", "addr:street": "Po\u0142udniowa", "amenity": "pharmacy", "dispensing": "yes", "ref:csioz": "1011143"}}, {"type": "node", "id": 9590934531, "lat": 51.8161805, "lon": 19.3160637, "tags": {"addr:city": "Aleksandr\u00f3w \u0141\u00f3dzki", "addr:housenumber": "69", "addr:postcode": "95-070", "addr:street": "Wojska Polskiego", "amenity": "pharmacy", "dispensing": "yes", "ref:csioz": "1011345"}}, {"type": "node", "id": 9590934532, "lat": 51.8733604, "lon": 19.4698897, "tags": {"addr:city": "Smardzew", "addr:housenumber": "4", "addr:postcode": "95-002", "addr:street": "Podle\u015bna", "amenity": "pharmacy", "dispensing": "yes", "healthcare": "pharmacy", "name": "Le\u015bna", "ref:csioz": "1016263"}}, {"type": "node", "id": 9590934533, "lat": 51.8554629, "lon": 19.4166505, "tags": {"addr:city": "Zgierz", "addr:housenumber": "28A", "addr:postcode": "95-100", "addr:street": "1 Maja", "amenity": "pharmacy", "dispensing": "yes", "healthcare": "pharmacy", "name": "Przy Banku", "ref:csioz": "1012228"}}, {"type": "node", "id": 9590934534, "lat": 51.8559425, "lon": 19.4074425, "tags": {"addr:city": "Zgierz", "addr:housenumber": "6", "addr:postcode": "95-100", "addr:street": "D\u0142uga", "amenity": "pharmacy", "dispensing": "yes", "healthcare": "pharmacy", "name": "Apteka S\u0142oneczna Centrum Farmaceutyczne", "ref:csioz": "1186675"}}, {"type": "node", "id": 9590934535, "lat": 51.9639037, "lon": 19.291103, "tags": {"addr:city": "Ozork\u00f3w", "addr:housenumber": "17", "addr:postcode": "95-035", "addr:street": "Jana Paw\u0142a II", "amenity": "pharmacy", "brand": "Dbam o Zdrowie", "brand:wikidata": "Q62563833", "dispensing": "yes", "healthcare": "pharmacy", "name": "Dbam o Zdrowie", "ref:csioz": "1012231", "short_name": "DOZ"}}, {"type": "node", "id": 9590934536, "lat": 51.958668, "lon": 19.2884656, "tags": {"amenity": "pharmacy", "dispensing": "yes", "healthcare": "pharmacy", "name": "Wsp\u00f3lna", "ref:csioz": "1177676"}}, {"type": "node", "id": 9590934537, "lat": 51.9878489, "lon": 19.2320521, "tags": {"amenity": "pharmacy", "dispensing": "yes", "ref:csioz": "1171885"}}, {"type": "node", "id": 9590934538, "lat": 51.8581847, "lon": 19.3863228, "tags": {"addr:city": "Zgierz", "addr:housenumber": "18", "addr:postcode": "95-100", "addr:street": "Juliana Tuwima", "amenity": "pharmacy", "dispensing": "yes", "name": "Apteka Dla Ciebie", "ref:csioz": "1121478"}}, {"type": "node", "id": 9590934542, "lat": 51.858931, "lon": 19.3863443, "tags": {"addr:city": "Zgierz", "addr:housenumber": "4", "addr:postcode": "95-100", "addr:street": "Stanis\u0142awa Witkacego", "amenity": "pharmacy", "dispensing": "yes", "name": "Arnika", "ref:csioz": "1012550"}}, {"type": "node", "id": 9879640821, "lat": 51.7767309, "lon": 19.4618751, "tags": {"amenity": "pharmacy", "dispensing": "yes", "healthcare": "pharmacy", "name": "Hortensja", "opening_hours": "24/7", "ref:csioz": "1024047"}}, {"type": "node", "id": 10240997158, "lat": 51.8967779, "lon": 18.9548569, "tags": {"amenity": "pharmacy", "brand": "Dbam o Zdrowie", "brand:wikidata": "Q62563833", "dispensing": "yes", "healthcare": "pharmacy", "name": "Dbam o Zdrowie", "opening_hours": "Mo-Fr 08:00-20:00; Sa 08:00-14:00", "phone": "+48436784212", "ref:csioz": "1013369", "short_name": "DOZ"}}, {"type": "node", "id": 10241045362, "lat": 51.8964705, "lon": 18.9603748, "tags": {"amenity": "pharmacy", "dispensing": "yes", "healthcare": "pharmacy", "name": "Dobry Lek", "ref:csioz": "1203646"}}, {"type": "node", "id": 10241045363, "lat": 51.8925305, "lon": 18.9525305, "tags": {"amenity": "pharmacy", "dispensing": "yes", "healthcare": "pharmacy", "name": "Aloes", "ref:csioz": "1020033"}}, {"type": "node", "id": 10281831007, "lat": 51.7788707, "lon": 19.3863625, "tags": {"amenity": "pharmacy", "dispensing": "yes", "healthcare": "pharmacy", "name": "Nowa", "ref:csioz": "1231085"}}, {"type": "node", "id": 10281889109, "lat": 51.7493385, "lon": 19.4832014, "tags": {"addr:housenumber": "11/13", "addr:street": "\u0141\u0119czycka", "amenity": "pharmacy", "dispensing": "yes", "email": "biuro@aptekizdrowit.pl", "healthcare": "pharmacy", "name": "Zdrowit", "opening_hours": "Mo-Fr 08:00-21:00; Su off; Sa 08:00-16:00", "payment:coins": "yes", "payment:mastercard": "yes", "payment:notes": "yes", "payment:visa": "yes", "phone": "+4842 244 00 05", "ref:csioz": "1194041", "website": "https://aptekizdrowit.pl/", "wheelchair": "yes"}}, {"type": "node", "id": 10281889121, "lat": 51.7868822, "lon": 19.4795745, "tags": {"amenity": "pharmacy", "dispensing": "yes", "healthcare": "pharmacy", "name": "\u015aw. Franciszka", "opening_hours": "Mo-Fr 08:00-20:00; Sa 09:00-13:00", "ref:csioz": "1019409"}}, {"type": "node", "id": 10281889124, "lat": 51.8208402, "lon": 19.4320063, "tags": {"addr:city": "\u0141\u00f3d\u017a", "addr:housenumber": "4", "addr:street": "Okoniowa", "amenity": "pharmacy", "dispensing": "yes", "healthcare": "pharmacy", "name": "Serdeczna", "ref:csioz": "1019305"}}, {"type": "node", "id": 10281889131, "lat": 51.7868078, "lon": 19.451946, "tags": {"amenity": "pharmacy", "dispensing": "yes", "healthcare": "pharmacy", "name": "Kwiaty Polskie", "opening_hours": "Mo-Fr 08:00-22:00; Sa 08:00-14:00", "phone": "+48426112611", "ref:csioz": "1023455", "website": "http://grupakwiatypolskie.pl"}}, {"type": "node", "id": 10281917905, "lat": 51.5543946, "lon": 19.0332356, "tags": {"amenity": "pharmacy", "dispensing": "yes", "healthcare": "pharmacy", "name": "Punkt Apteczny Astra", "ref:csioz": "1025848"}}, {"type": "node", "id": 10281917906, "lat": 51.5910048, "lon": 19.1456138, "tags": {"amenity": "pharmacy", "dispensing": "yes", "healthcare": "pharmacy", "name": "Witaminka 2", "opening_hours": "24/7", "ref:csioz": "1020213"}}, {"type": "node", "id": 10281917907, "lat": 51.5904438, "lon": 19.1401889, "tags": {"amenity": "pharmacy", "dispensing": "yes", "healthcare": "pharmacy", "name": "Aloes 3", "ref:csioz": "1024248"}}, {"type": "node", "id": 10281959909, "lat": 51.6118783, "lon": 19.2034646, "tags": {"amenity": "pharmacy", "dispensing": "yes", "healthcare": "pharmacy", "name": "Le\u015bna", "ref:csioz": "1016785"}}, {"type": "node", "id": 10281959916, "lat": 51.5885801, "lon": 19.1394869, "tags": {"amenity": "pharmacy", "brand": "Dbam o Zdrowie", "brand:wikidata": "Q62563833", "dispensing": "yes", "healthcare": "pharmacy", "name": "Dbam o Zdrowie", "ref:csioz": "1021559", "short_name": "DOZ"}}, {"type": "node", "id": 10281959917, "lat": 51.5873731, "lon": 19.1348493, "tags": {"amenity": "pharmacy", "brand": "Dbam o Zdrowie", "brand:wikidata": "Q62563833", "dispensing": "yes", "healthcare": "pharmacy", "name": "Dbam o Zdrowie", "ref:csioz": "1013776", "short_name": "DOZ"}}, {"type": "node", "id": 10281959918, "lat": 51.5876706, "lon": 19.134747, "tags": {"amenity": "pharmacy", "dispensing": "yes", "healthcare": "pharmacy", "name": "S\u0142oneczna", "ref:csioz": "1219634"}}, {"type": "node", "id": 10281959919, "lat": 51.5877397, "lon": 19.1336614, "tags": {"amenity": "pharmacy", "dispensing": "yes", "healthcare": "pharmacy", "name": "Kwiaty Polskie", "ref:csioz": "1177684"}}, {"type": "node", "id": 10281959922, "lat": 51.5873477, "lon": 19.161541, "tags": {"amenity": "pharmacy", "brand": "Dbam o Zdrowie", "brand:wikidata": "Q62563833", "dispensing": "yes", "healthcare": "pharmacy", "name": "Dbam o Zdrowie", "ref:csioz": "1012097", "short_name": "DOZ"}}, {"type": "node", "id": 10281959926, "lat": 51.5932995, "lon": 19.1330095, "tags": {"amenity": "pharmacy", "dispensing": "yes", "healthcare": "pharmacy", "ref:csioz": "1009571"}}, {"type": "node", "id": 10282080260, "lat": 51.793228, "lon": 19.5881427, "tags": {"amenity": "pharmacy", "dispensing": "yes", "healthcare": "pharmacy", "name": "Majowa", "ref:csioz": "1011514"}}, {"type": "node", "id": 10282659595, "lat": 51.6644404, "lon": 19.3477787, "tags": {"amenity": "pharmacy", "dispensing": "yes", "healthcare": "pharmacy", "name": "S\u0142oneczna", "ref:csioz": "1218428"}}, {"type": "node", "id": 10282659596, "lat": 51.7804589, "lon": 19.4745717, "tags": {"amenity": "pharmacy", "dispensing": "yes", "healthcare": "pharmacy", "name": "Propharma", "ref:csioz": "1015364"}}, {"type": "node", "id": 10282659597, "lat": 51.7978439, "lon": 19.383365, "tags": {"amenity": "pharmacy", "dispensing": "yes", "healthcare": "pharmacy", "name": "S\u0142oneczna", "ref:csioz": "1021412"}}, {"type": "node", "id": 10282659598, "lat": 51.7748872, "lon": 19.5050491, "tags": {"amenity": "pharmacy", "dispensing": "yes", "healthcare": "pharmacy", "name": "Umed", "ref:csioz": "1231005"}}, {"type": "node", "id": 10282659599, "lat": 51.7915046, "lon": 19.4556836, "tags": {"amenity": "pharmacy", "dispensing": "yes", "healthcare": "pharmacy", "ref:csioz": "1216475"}}, {"type": "node", "id": 10282659600, "lat": 51.7987096, "lon": 19.4690167, "tags": {"amenity": "pharmacy", "dispensing": "yes", "healthcare": "pharmacy", "name": "Forte-Vita", "ref:csioz": "1121410"}}, {"type": "node", "id": 10282659601, "lat": 51.7198324, "lon": 19.4864074, "tags": {"amenity": "pharmacy", "dispensing": "yes", "healthcare": "pharmacy", "name": "Wsp\u00f3lna", "ref:csioz": "1173287"}}, {"type": "node", "id": 10282659602, "lat": 51.7873793, "lon": 19.445397, "tags": {"amenity": "pharmacy", "dispensing": "yes", "healthcare": "pharmacy", "name": "Zielone Ba\u0142uty", "ref:csioz": "1025359"}}, {"type": "node", "id": 10282659607, "lat": 51.6910326, "lon": 19.4765603, "tags": {"amenity": "pharmacy", "dispensing": "yes", "healthcare": "pharmacy", "name": "Punkt Apteczny Lawenda", "ref:csioz": "1209896"}}, {"type": "node", "id": 10589914147, "lat": 51.8227445, "lon": 19.302655, "tags": {"amenity": "pharmacy", "dispensing": "yes", "healthcare": "pharmacy", "name": "Zdrowit", "ref:csioz": "1197833"}}, {"type": "node", "id": 10591290253, "lat": 51.7925296, "lon": 19.4140298, "tags": {"amenity": "pharmacy", "brand": "Dbam o Zdrowie", "brand:wikidata": "Q62563833", "dispensing": "yes", "healthcare": "pharmacy", "name": "Dbam o Zdrowie", "ref:csioz": "1012588", "short_name": "DOZ"}}, {"type": "node", "id": 11074278591, "lat": 51.7941828, "lon": 19.4041119, "tags": {"amenity": "pharmacy", "brand": "Familypharm", "healthcare": "pharmacy", "name": "Familypharm", "opening_hours": "Mo-Fr 07:00-19:00; Sa 07:00-14:00", "phone": "+48 42 652 96 46", "website": "http://www.familypharm.pl/index.html"}}, {"type": "node", "id": 11081882122, "lat": 51.7305898, "lon": 19.4682644, "tags": {"addr:city": "\u0141\u00f3d\u017a", "addr:housenumber": "22", "addr:postcode": "93-018", "addr:street": "Szymona Szymonowicza", "amenity": "pharmacy", "branch": "Szymonowica", "brand": "Dbam o Zdrowie", "brand:wikidata": "Q62563833", "dispensing": "yes", "healthcare": "pharmacy", "name": "Dbam o Zdrowie", "ref:csioz": "1186790", "short_name": "DOZ"}}, {"type": "node", "id": 11309773147, "lat": 51.8931657, "lon": 18.9523967, "tags": {"amenity": "pharmacy", "healthcare": "pharmacy", "name": "Pod Opatrzno\u015bci\u0105"}}, {"type": "node", "id": 11349495271, "lat": 51.7791807, "lon": 19.491168, "tags": {"amenity": "pharmacy", "name": "FARM-MED", "opening_hours": "Mo-Sa 08:00-20:00", "website": "https://www.farm-med.pl/"}}, {"type": "node", "id": 11845524275, "lat": 51.9548182, "lon": 19.2861124, "tags": {"amenity": "pharmacy", "healthcare": "pharmacy"}}, {"type": "node", "id": 12100102476, "lat": 51.7602156, "lon": 19.4620847, "tags": {"amenity": "pharmacy", "brand": "Dr. Max", "brand:wikidata": "Q56317371", "dispensing": "yes", "healthcare": "pharmacy", "level": "0", "name": "Dr. Max", "opening_hours": "Mo-Fr 07:00-21:00; Sa 09:00-21:00; Su 09:00-20:00"}}, {"type": "node", "id": 12108354158, "lat": 51.9623076, "lon": 19.2904667, "tags": {"amenity": "pharmacy", "brand": "Dbam o Zdrowie", "brand:wikidata": "Q62563833", "healthcare": "pharmacy", "name": "Dbam o Zdrowie", "short_name": "DOZ"}}, {"type": "node", "id": 13125679565, "lat": 51.7792038, "lon": 19.4425215}, {"type": "node", "id": 13125679566, "lat": 51.7793025, "lon": 19.4430083}, {"type": "node", "id": 13134124320, "lat": 51.7792079, "lon": 19.4425672}, {"type": "node", "id": 13134124321, "lat": 51.7792392, "lon": 19.4426456}, {"type": "node", "id": 13134124322, "lat": 51.7792762, "lon": 19.4429306}, {"type": "node", "id": 13189085316, "lat": 51.8579924, "lon": 19.3862301}, {"type": "node", "id": 13189085317, "lat": 51.8579902, "lon": 19.3863463}, {"type": "node", "id": 13189085341, "lat": 51.8580834, "lon": 19.3864265}, {"type": "node", "id": 13189085342, "lat": 51.8580911, "lon": 19.3862432}, {"type": "node", "id": 13189085344, "lat": 51.8579884, "lon": 19.3864101}, {"type": "way", "id": 103533259, "nodes": [1195381648, 7613332694, 1195381761, 1195381770, 1195382038, 1195381801, 7613326384, 1195381791, 1195381648], "tags": {"addr:city": "\u0141\u00f3d\u017a", "addr:housenumber": "19", "addr:street": "Parcelacyjna", "amenity": "pharmacy", "building": "retail", "building:levels": "2", "dispensing": "yes", "name": "Convallaria", "ref:csioz": "1015708"}}, {"type": "way", "id": 129559505, "nodes": [1429250266, 8165970904, 1429250226, 1429250338, 1429250301, 1429250266], "tags": {"addr:city": "Ozork\u00f3w", "addr:city:simc": "0958967", "addr:housenumber": "25", "addr:postcode": "95-035", "addr:street": "Nowe Miasto", "addr:street:sym_ul": "14369", "amenity": "pharmacy", "brand": "Dbam o Zdrowie", "brand:wikidata": "Q62563833", "building": "yes", "dispensing": "yes", "healthcare": "pharmacy", "name": "Dbam o Zdrowie", "ref:csioz": "1012320", "short_name": "DOZ", "source:addr": "emuia.gugik.gov.pl;gugik.gov.pl"}}, {"type": "way", "id": 180379625, "nodes": [1908295489, 13125679565, 13134124320, 1908295472, 1908295475, 1908295481, 13134124321, 1908295478, 1908295483, 13134124322, 1908295485, 13125679566, 1908295487, 1908295495, 1908295489], "tags": {"addr:city": "\u0141\u00f3d\u017a", "addr:housenumber": "5", "addr:postcode": "91-071", "addr:street": "Jana Karskiego", "amenity": "pharmacy", "brand": "Super-Pharm", "brand:wikidata": "Q13220217", "dispensing": "yes", "fax": "+48426351541", "healthcare": "pharmacy", "indoor": "room", "level": "0", "name": "Super-Pharm", "opening_hours": "Mo-Sa 08:00-22:00; Su 10:00-21:00", "phone": "+48426351540", "ref:csioz": "1019161", "shop": "chemist", "website": "https://www.superpharm.pl/"}}, {"type": "way", "id": 196292599, "nodes": [2066373847, 2066373853, 2066373820, 2066373807, 2066373783, 2066373748, 2066373709, 2066373661, 2066373659, 1156127412, 2066373848, 2066373847], "tags": {"amenity": "pharmacy", "brand": "Super-Pharm", "brand:en": "Super-Pharm", "brand:he": "\u05e1\u05d5\u05e4\u05e8-\u05e4\u05d0\u05e8\u05dd", "brand:wikidata": "Q13220217", "contact:phone": "+48422037210", "contact:website": "http://www.superpharm.pl", "dispensing": "yes", "healthcare": "pharmacy", "indoor": "room", "level": "0", "name": "Super-Pharm", "name:ar": "\u0633\u0648\u0628\u064a\u0631 \u0641\u0627\u0631\u0645", "name:en": "Super-Pharm", "name:he": "\u05e1\u05d5\u05e4\u05e8-\u05e4\u05d0\u05e8\u05dd", "name:ru": "\u0421\u0443\u043f\u0435\u0440-\u0424\u0430\u0440\u043c", "ref": "111", "ref:csioz": "1024715", "room": "shop"}}, {"type": "way", "id": 257335120, "nodes": [1538628179, 2628961262, 5291854711, 2646605760, 5291854710, 2628961002, 2628959830, 1538628159, 1538628179], "tags": {"addr:city": "\u0141\u00f3d\u017a", "addr:housenumber": "26", "addr:street": "Nastrojowa", "amenity": "pharmacy", "building": "retail", "building:levels": "1", "name": "Brassica", "ref:csioz": "1013009", "source:addr": "EMUiA (emuia.geoportal.gov.pl)"}}, {"type": "way", "id": 622059232, "nodes": [5876471717, 5876471716, 1196914370, 3330764052, 1196914518, 5876471719, 5876471718, 5876471717], "tags": {"amenity": "pharmacy", "dispensing": "yes", "healthcare": "pharmacy", "indoor": "room", "name": "Dr Zdrowie", "opening_hours": "Mo-Sa 09:00-21:00; Su 09:00-20:00", "phone": "+48 42 679 61 66", "ref:csioz": "1013829"}}, {"type": "way", "id": 690686288, "nodes": [6480402680, 7070725586, 7070725583, 6480402681, 6480402682, 7070725590, 6480402683, 6480402680], "tags": {"addr:city": "\u0141\u00f3d\u017a", "addr:housenumber": "17", "addr:postcode": "92-516", "addr:street": "Aleksandra Puszkina", "amenity": "pharmacy", "brand": "Ziko Apteka", "brand:wikidata": "Q63432892", "building": "retail", "building:levels": "1", "description": "Ziko Apteka zlokalizowana jest w \u0141odzi przy ul. Puszkina 17. Czynna jest przez 6 dni w tygodniu \u2013 od poniedzia\u0142ku do soboty. W niedziele plac\u00f3wka jest nieczynna.", "dispensing": "yes", "healthcare": "pharmacy", "name": "Ziko Apteka", "opening_hours": "Mo-Fr 08:00-21:00, Sa 08:00-16:00", "payment:cash": "yes", "payment:coins": "yes", "payment:mastercard": "yes", "payment:visa": "yes", "phone": "+48 12 687 57 47", "ref:csioz": "1205165", "short_name": "Ziko", "website": "https://www.ziko.pl/lodz-apteki-drogerie-ziko/puszkina-17/"}}, {"type": "way", "id": 877570220, "nodes": [8165111053, 8165111052, 8165111051, 8165111050, 8165111049, 8165111053], "tags": {"addr:city": "Ozork\u00f3w", "addr:housenumber": "8", "addr:postcode": "95-035", "addr:street": "Ignacego Starzy\u0144skiego", "amenity": "pharmacy", "building": "yes", "healthcare": "pharmacy", "name": "Apteka Stokrotka", "opening_hours": "Mo-Sa 08:00-20:00", "source": "www.geoportal.gov.pl"}}, {"type": "way", "id": 1434893858, "nodes": [13189085342, 13189085316, 13189085317, 13189085344, 13189085341, 13189085342], "tags": {"amenity": "pharmacy", "building": "yes", "healthcare": "pharmacy", "name": "Apteka dla Ciebie"}}]}