{"version": 0.6, "generator": "Overpass API 0.7.62.8 e802775f", "osm3s": {"timestamp_osm_base": "2025-10-06T07:58:43Z", "copyright": "The data included in this document is from www.openstreetmap.org. The data is made available under ODbL."}, "elements": [{"type": "node", "id": 695414447, "lat": 42.6371156, "lon": 21.0924325, "tags": {"addr:postcode": "12000", "addr:street": "N\u00ebna Terez\u00eb", "amenity": "pharmacy", "name": "Barnatore Olisa", "opening_hours": "Mo-Sa"}}, {"type": "node", "id": 800644182, "lat": 42.6556532, "lon": 21.1772096, "tags": {"addr:city": "Prishtina", "addr:housename": "Banesat e Komunes / Standardit ne Kodrene e diellit", "addr:housenumber": "Lok B 1/2", "addr:postcode": "10060", "addr:street": "Gazmend Zajmi", "amenity": "pharmacy", "healthcare": "pharmacy", "name": "RAMKU Pharmacy", "operator": "Otokirurgjia- a family bussiness offering medical services of ENT specialistic area and Pharmacy"}}, {"type": "node", "id": 826704200, "lat": 42.650795, "lon": 21.1575166, "tags": {"addr:housenumber": "Ne meskat", "addr:street": "Qendra tregetare Te Posta e re", "amenity": "pharmacy", "healthcare": "pharmacy", "name": "Fidanfarm", "opening_hours": "09:00-20:00", "phone": "+38338544031"}}, {"type": "node", "id": 1215015781, "lat": 42.6570447, "lon": 21.1667089, "tags": {"addr:housenumber": "13", "addr:postcode": "10000", "addr:street": "Rr. Gazmend Zajmi", "amenity": "pharmacy", "healthcare": "pharmacy", "name": "Barnatore A"}}, {"type": "node", "id": 1559933833, "lat": 42.6150243, "lon": 21.1790741, "tags": {"amenity": "pharmacy"}}, {"type": "node", "id": 1623017886, "lat": 42.6525806, "lon": 21.1585395, "tags": {"addr:city": "Prishtin\u00eb", "addr:postcode": "10000", "addr:street": "Bulevardi i D\u00ebshmor\u00ebve", "amenity": "pharmacy", "healthcare": "pharmacy", "name": "Vita Barnatore", "name:en": "Viva Pharm", "name:sq": "Vita Barnatore"}}, {"type": "node", "id": 2162845592, "lat": 42.6481042, "lon": 21.1623351, "tags": {"amenity": "pharmacy", "healthcare": "pharmacy", "name": "Barnatore Aura", "name:en": "Aura Pharm"}}, {"type": "node", "id": 2162845593, "lat": 42.6481236, "lon": 21.1624111, "tags": {"amenity": "pharmacy", "healthcare": "pharmacy", "name": "Barnatore Pharmacy NIKI", "name:en": "Pharmacy Niki"}}, {"type": "node", "id": 2162845594, "lat": 42.6482218, "lon": 21.162334, "tags": {"addr:street": "Mark Dizdari", "amenity": "pharmacy", "healthcare": "pharmacy", "name": "Barnatore Pharmacy", "name:en": "Lirimed pharmacy", "name:sq": "Lirimed pharmacy", "opening_hours": "24/7", "operator": "Lirim"}}, {"type": "node", "id": 2162845595, "lat": 42.6481559, "lon": 21.1624187, "tags": {"amenity": "pharmacy", "healthcare": "pharmacy", "name": "Barnatore Zana Pharm", "name:en": "Zana Pharm"}}, {"type": "node", "id": 2162845600, "lat": 42.648, "lon": 21.1619136, "tags": {"addr:housenumber": "D6", "addr:postcode": "10000", "addr:street": "Mark Dizdari", "amenity": "pharmacy", "healthcare": "pharmacy", "name": "Fati Im-Laboratori", "name:en": "Fati im Medical Institute", "name:sq": "Laboratori Fati im", "opening_hours": "Mo-Fr 07:30-20:00; Sa 07:30-16:00", "phone": "+38338559918", "website": "http://www.fati-im.com"}}, {"type": "node", "id": 2162845644, "lat": 42.644556, "lon": 21.1602738, "tags": {"addr:housenumber": "32", "addr:postcode": "38000", "addr:street": "Tahir Uka", "amenity": "pharmacy", "email": "fleming-pharmacy@outlook.com", "healthcare": "pharmacy", "name": "Pharmacy Barnatore", "name:en": "FLEMING PHARMACY", "name:sq": "FLEMING", "name:sr": "Fleming apoteke", "note": "19-FEB-13 7:55:30AM", "opening_hours": "Mo-Su 08:00-21:00", "phone": "+38344257144"}}, {"type": "node", "id": 2162845822, "lat": 42.6482015, "lon": 21.1623901, "tags": {"addr:street": "Mark Dizdari", "amenity": "pharmacy", "healthcare": "pharmacy", "name": "Chamomila", "name:en": "Chamomile pharmacy", "opening_hours": "24/7"}}, {"type": "node", "id": 2164086550, "lat": 42.6638728, "lon": 21.1610459, "tags": {"addr:street": "Fehmi Agani", "amenity": "pharmacy", "healthcare": "pharmacy", "name": "Green Pharmacy", "opening_hours": "Mo-Su 08:00-23:00"}}, {"type": "node", "id": 2164142526, "lat": 42.6615738, "lon": 21.1596849, "tags": {"amenity": "pharmacy", "healthcare": "pharmacy", "name": "Valeriana"}}, {"type": "node", "id": 2185708275, "lat": 42.6552097, "lon": 21.1568563, "tags": {"amenity": "pharmacy", "healthcare": "pharmacy", "name": "Barnatore Global Pharm"}}, {"type": "node", "id": 2449367443, "lat": 42.5016465, "lon": 20.916424, "tags": {"amenity": "pharmacy"}}, {"type": "node", "id": 2544993461, "lat": 42.8862269, "lon": 20.8670035}, {"type": "node", "id": 2544993463, "lat": 42.8861599, "lon": 20.8669729}, {"type": "node", "id": 2544993465, "lat": 42.8861968, "lon": 20.8668222}, {"type": "node", "id": 2544993467, "lat": 42.8862638, "lon": 20.8668528}, {"type": "node", "id": 2556861579, "lat": 42.8841396, "lon": 20.8711131, "tags": {"amenity": "pharmacy"}}, {"type": "node", "id": 2556861583, "lat": 42.8843764, "lon": 20.8707447, "tags": {"amenity": "pharmacy"}}, {"type": "node", "id": 2556977690, "lat": 42.8841001, "lon": 20.8711075}, {"type": "node", "id": 2556977691, "lat": 42.8841098, "lon": 20.8710668}, {"type": "node", "id": 2556977692, "lat": 42.8841116, "lon": 20.8711865}, {"type": "node", "id": 2556977693, "lat": 42.8841232, "lon": 20.871194}, {"type": "node", "id": 2556977694, "lat": 42.8841433, "lon": 20.8710493}, {"type": "node", "id": 2556977695, "lat": 42.884153, "lon": 20.8710851}, {"type": "node", "id": 2556977696, "lat": 42.8841758, "lon": 20.871169}, {"type": "node", "id": 3396483987, "lat": 42.5738351, "lon": 21.2464188, "tags": {"amenity": "pharmacy"}}, {"type": "node", "id": 3544257577, "lat": 42.6556583, "lon": 21.1739354}, {"type": "node", "id": 3544257578, "lat": 42.6556616, "lon": 21.1737718}, {"type": "node", "id": 3544257586, "lat": 42.65573, "lon": 21.1739381}, {"type": "node", "id": 3544257587, "lat": 42.6557334, "lon": 21.1737745}, {"type": "node", "id": 3728352015, "lat": 42.5363873, "lon": 21.0088494, "tags": {"amenity": "pharmacy", "name": "Barnatore Ideali", "name:sq": "Barnatore Ideali"}}, {"type": "node", "id": 4183719790, "lat": 42.6018295, "lon": 21.1915496, "tags": {"amenity": "pharmacy"}}, {"type": "node", "id": 4183719989, "lat": 42.6021085, "lon": 21.191545, "tags": {"amenity": "pharmacy", "opening_hours": "Mo-Su 08:00-22:00"}}, {"type": "node", "id": 4350830407, "lat": 42.6436297, "lon": 21.1660932}, {"type": "node", "id": 4350830408, "lat": 42.6436771, "lon": 21.1661468}, {"type": "node", "id": 4350830409, "lat": 42.6437165, "lon": 21.1660476}, {"type": "node", "id": 4350830410, "lat": 42.6436751, "lon": 21.166002}, {"type": "node", "id": 4350830431, "lat": 42.6434833, "lon": 21.166743, "tags": {"amenity": "pharmacy", "healthcare": "pharmacy", "name": "USA-D", "name:en": "USA Barnatore", "name:sq": "USA-D"}}, {"type": "node", "id": 4350830432, "lat": 42.6435458, "lon": 21.1668322, "tags": {"addr:street": "Holger Pederesen", "amenity": "pharmacy", "healthcare": "pharmacy", "name": "SH\u00cbNDETI", "name:en": "Sh\u00ebndeti Pharmacy", "name:sq": "SH\u00cbNDETI", "opening_hours": "Mo-Su 07:00-23:00"}}, {"type": "node", "id": 4370808048, "lat": 42.6640268, "lon": 21.166342, "tags": {"addr:street": "Bajram Kelmendi", "amenity": "pharmacy", "healthcare": "pharmacy", "name": "Barnatore", "name:en": "Ana Pharm", "name:sq": "Barnatore", "opening_hours": "Mo-Su 07:00-23:00"}}, {"type": "node", "id": 4418734996, "lat": 42.6453327, "lon": 21.1697114, "tags": {"addr:street": "Rruga B", "amenity": "pharmacy", "healthcare": "pharmacy", "name": "Rexall B Pharmacy", "name:en": "Rexal B Barnatore", "name:sq": "Rexall B Pharmacy", "opening_hours": "Mo-Su 10:00-22:00"}}, {"type": "node", "id": 4418735993, "lat": 42.6453773, "lon": 21.1697328, "tags": {"addr:street": "Rruga B", "amenity": "pharmacy", "healthcare": "pharmacy", "name": "Diella Barnatore", "name:en": "Diella pharmacy", "name:sq": "Diella Barnatore", "opening_hours": "Mo-Su 07:00-23:00"}}, {"type": "node", "id": 4418803702, "lat": 42.6456015, "lon": 21.1697163, "tags": {"addr:street": "Rruga B", "amenity": "pharmacy", "healthcare": "pharmacy", "name": "Kushtrimi Barnatore", "name:en": "Kushtrimi Pharmacy", "name:sq": "Kushtrimi Barnatore", "opening_hours": "Mo-Su 07:00-23:00"}}, {"type": "node", "id": 4421095789, "lat": 42.6606471, "lon": 21.1672557, "tags": {"addr:street": "Rrustem Statovci", "amenity": "pharmacy", "healthcare": "pharmacy", "name": "Pri pharm", "name:en": "Pri Pharm", "name:sq": "Pri pharm", "operator": "Florim veseli"}}, {"type": "node", "id": 4426393689, "lat": 42.6591824, "lon": 21.1779546, "tags": {"amenity": "pharmacy", "healthcare": "pharmacy", "name": "Family Pharm"}}, {"type": "node", "id": 4426957389, "lat": 42.6453385, "lon": 21.1697354, "tags": {"addr:street": "Rruga B", "amenity": "pharmacy", "healthcare": "pharmacy", "name": "REXAL B", "name:en": "Rexal B", "name:sq": "REXAL B", "opening_hours": "Mo-Su 07:00-23:00"}}, {"type": "node", "id": 4426957489, "lat": 42.6454006, "lon": 21.1697498, "tags": {"addr:street": "Rruga B", "amenity": "pharmacy", "healthcare": "pharmacy", "name": "DIELLA", "name:en": "Diella", "name:sq": "DIELLA", "opening_hours": "Mo-Su 07:00-23:00"}}, {"type": "node", "id": 4426957589, "lat": 42.6452886, "lon": 21.1697101, "tags": {"addr:street": "Rruga B", "amenity": "pharmacy", "healthcare": "pharmacy", "name": "KUSHTRIMI", "name:en": "Kushtrimi", "name:sq": "KUSHTRIMI", "opening_hours": "Mo-Su 07:00-23:00"}}, {"type": "node", "id": 4429426702, "lat": 42.6674864, "lon": 21.1643394, "tags": {"amenity": "pharmacy", "healthcare": "pharmacy", "opening_hours": "Mo-Su 08:00-22:00"}}, {"type": "node", "id": 4430436797, "lat": 42.6526587, "lon": 21.1586787, "tags": {"addr:city": "Prishtin\u00eb", "addr:postcode": "10000", "addr:street": "Bulevardi i D\u00ebshmor\u00ebve", "amenity": "pharmacy", "healthcare": "pharmacy", "name": "Rexall", "name:en": "Rexall", "name:sq": "Rexall", "opening_hours": "Mo-Su 08:00-23:00"}}, {"type": "node", "id": 4430436893, "lat": 42.6528086, "lon": 21.1764587, "tags": {"addr:street": "Rruga B", "amenity": "pharmacy", "healthcare": "pharmacy", "name": "JONI 1", "name:sq": "JONI 1", "opening_hours": "Mo-Su 20:00-09:00"}}, {"type": "node", "id": 4430459891, "lat": 42.6443518, "lon": 21.1649995, "tags": {"addr:street": "Malush Kosova", "amenity": "pharmacy", "healthcare": "pharmacy", "name": "BARNATORE QENDRORE E QKUK . S\u00cb", "name:sq": "BARNATORE QENDRORE E QKUK . S\u00cb"}}, {"type": "node", "id": 4430459892, "lat": 42.6446683, "lon": 21.158457, "tags": {"addr:street": "Behar Begolli", "amenity": "pharmacy", "healthcare": "pharmacy", "name": "MN PHARM", "name:sq": "MN PHARM", "opening_hours": "Mo-Su 08:00-22:00"}}, {"type": "node", "id": 4435010491, "lat": 42.6666015, "lon": 21.1764839, "tags": {"amenity": "pharmacy", "healthcare": "pharmacy", "name": "Neo Dent", "opening_hours": "Mo-Su 08:00-22:00"}}, {"type": "node", "id": 4458516091, "lat": 42.666656, "lon": 21.1764147, "tags": {"addr:street": "Nazim Gafurri", "amenity": "pharmacy", "healthcare": "pharmacy", "name": "Swiss Pharm", "name:en": "Swiss Pharm", "opening_hours": "Mo-Su 08:00-23:00"}}, {"type": "node", "id": 4476522323, "lat": 42.6584196, "lon": 21.146753, "tags": {"addr:street": "Ahmet Krasniqi", "amenity": "pharmacy", "healthcare": "pharmacy", "name": "Kalabria"}}, {"type": "node", "id": 4487691791, "lat": 42.6647915, "lon": 21.1686281, "tags": {"addr:street": "Rrustem Hyseni", "amenity": "pharmacy", "healthcare": "pharmacy", "name": "Dona Pharm", "opening_hours": "Mo-Su 08:00-23:00"}}, {"type": "node", "id": 4487691991, "lat": 42.6675595, "lon": 21.1682814, "tags": {"addr:street": "Ibrahim Lutfiu", "amenity": "pharmacy", "healthcare": "pharmacy", "name": "Family Pharm", "opening_hours": "Mo-Su 08:00-23:00"}}, {"type": "node", "id": 4487709989, "lat": 42.6668581, "lon": 21.1752104, "tags": {"addr:street": "Nazim Gafurri", "amenity": "pharmacy", "healthcare": "pharmacy", "name": "NL-Pharm", "opening_hours": "Mo-Su 08:00-23:00"}}, {"type": "node", "id": 4487709990, "lat": 42.6669397, "lon": 21.1752438, "tags": {"addr:street": "Nazim Gafurri", "amenity": "pharmacy", "healthcare": "pharmacy", "name": "Besniku Pharm", "opening_hours": "Mo-Su 08:00-23:00"}}, {"type": "node", "id": 4532493690, "lat": 42.6406703, "lon": 21.0997508, "tags": {"addr:street": "N\u00ebna Tereza", "amenity": "pharmacy", "healthcare": "pharmacy", "name": "Medifarm", "name:en": "Medifarm", "name:sq": "Medifarm", "name:sr": "Medifarm", "opening_hours": "24/7"}}, {"type": "node", "id": 4568436791, "lat": 42.6514329, "lon": 21.1761267, "tags": {"addr:street": "Rruga B", "amenity": "pharmacy", "healthcare": "pharmacy", "name": "KRKA DEPO PHARMACEUTIKE"}}, {"type": "node", "id": 4571430107, "lat": 42.6639945, "lon": 21.1610086}, {"type": "node", "id": 4571430108, "lat": 42.6639512, "lon": 21.1611178}, {"type": "node", "id": 4571430109, "lat": 42.6638407, "lon": 21.1610367}, {"type": "node", "id": 4571430110, "lat": 42.663884, "lon": 21.1609276}, {"type": "node", "id": 4581291006, "lat": 42.6669627, "lon": 21.1750349, "tags": {"addr:street": "Nazim Gafurri", "amenity": "pharmacy", "healthcare": "pharmacy", "opening_hours": "Mo-Su 08:00-23:00"}}, {"type": "node", "id": 4678228590, "lat": 42.8242156, "lon": 20.9643687, "tags": {"amenity": "pharmacy", "name": "barnatore FLORINA", "name:sq": "barnatore FLORINA"}}, {"type": "node", "id": 4741916939, "lat": 42.5993399, "lon": 21.0213124, "tags": {"addr:street": "R-120", "amenity": "pharmacy", "name": "Unik pharmacy", "name:sq": "Unik pharmacy"}}, {"type": "node", "id": 4743774322, "lat": 42.6557099, "lon": 21.1738737, "tags": {"addr:street": "Gazmend Zajmi", "amenity": "pharmacy", "healthcare": "pharmacy", "name": "Rio Pharm", "name:sq": "Rio Pharm"}}, {"type": "node", "id": 4743794021, "lat": 42.6592627, "lon": 21.181031, "tags": {"addr:city": "Prishtin\u00eb", "addr:postcode": "10000", "addr:street": "Isa Kastrati", "amenity": "pharmacy", "dispensing": "no", "drive_through": "no", "healthcare": "pharmacy", "name": "Aris", "opening_hours": "Mo-Su 08:00-21:00"}}, {"type": "node", "id": 4786478521, "lat": 42.6521882, "lon": 21.1541908, "tags": {"amenity": "pharmacy", "healthcare": "pharmacy", "name": "Orhidea Pharmacy", "opening_hours": "Mo-Sa 09:00-22:00"}}, {"type": "node", "id": 4825825930, "lat": 42.649069, "lon": 21.1633569, "tags": {"addr:housenumber": "Ulpiana D8", "addr:postcode": "10000", "addr:street": "Faik Konica", "amenity": "pharmacy", "healthcare": "pharmacy", "name": "orthomedica orthopedic shop", "name:en": "orthomedica orthopedic shop", "name:sq": "orthomedica orthopedic shop", "name:sr": "orthomedica orthopedic shop", "opening_hours": "Mo-Sa 08:00-20:00", "phone": "+38338554665", "website": "http://www.ortho-medica.com"}}, {"type": "node", "id": 4833160221, "lat": 42.6257434, "lon": 21.1462865, "tags": {"amenity": "pharmacy", "name": "Fjori Med 2", "name:sq": "Fjori Med 2", "opening_hours": "Mo-Su 08:00-10:00", "operator": "Skender Cekaj"}}, {"type": "node", "id": 4948151219, "lat": 42.5464055, "lon": 21.1800662, "tags": {"amenity": "pharmacy"}}, {"type": "node", "id": 4985654021, "lat": 42.6539768, "lon": 21.1680058, "tags": {"addr:street": "Hajrullah Abdullahu", "amenity": "pharmacy", "healthcare": "pharmacy", "name": "Kastrati Pharmacy", "name:sq": "Farmacia Kastrati", "opening_hours": "Mo-Su 08:00-23:00"}}, {"type": "node", "id": 4985654022, "lat": 42.6492143, "lon": 21.1634998, "tags": {"amenity": "pharmacy", "healthcare": "pharmacy", "name": "Tosi", "name:sq": "Tosi", "opening_hours": "Mo-Su 08:00-23:00", "operator": "Fatos Lushaku"}}, {"type": "node", "id": 5109943333, "lat": 42.6515295, "lon": 21.1761106, "tags": {"addr:street": "C", "amenity": "pharmacy", "healthcare": "pharmacy", "name": "ELIF", "opening_hours": "Mo-Su 09:00-18:00"}}, {"type": "node", "id": 5127095621, "lat": 42.6515062, "lon": 21.1760666, "tags": {"addr:street": "C", "amenity": "pharmacy", "healthcare": "pharmacy", "name": "ELIF", "opening_hours": "24/7"}}, {"type": "node", "id": 5162698121, "lat": 42.8773142, "lon": 20.8596311, "tags": {"amenity": "pharmacy", "name": "FD Farm", "name:sq": "FD Farm"}}, {"type": "node", "id": 5162764823, "lat": 42.8613718, "lon": 20.8465307, "tags": {"amenity": "pharmacy", "name": "Barnatore Astrit Ukimeri", "name:sq": "Barnatore Astrit Ukimeri"}}, {"type": "node", "id": 5610303423, "lat": 42.654716, "lon": 21.1537506, "tags": {"addr:city": "Prishtin\u00eb", "addr:postcode": "10000", "addr:street": "Bill Klinton", "amenity": "pharmacy", "healthcare": "pharmacy", "name": "Avena", "opening_hours": "Mo-Sa 08:00-11:00"}}, {"type": "node", "id": 5625281222, "lat": 42.6556144, "lon": 21.1568956, "tags": {"addr:city": "Prishtina", "addr:postcode": "10000", "addr:street": "Bill Klinton", "amenity": "pharmacy", "dispensing": "yes", "drive_through": "no", "healthcare": "pharmacy", "name": "Valeriana", "operator": "Hyrmet Nebiu"}}, {"type": "node", "id": 5634975034, "lat": 42.6484524, "lon": 21.1700513, "tags": {"amenity": "pharmacy", "healthcare": "pharmacy", "name": "Barnatore 'Uno Pharm'"}}, {"type": "node", "id": 5695830121, "lat": 42.6560712, "lon": 21.1816957, "tags": {"addr:street": "Gazmend Zajmi", "amenity": "pharmacy", "healthcare": "pharmacy", "name": "LINDI FARM", "opening_hours": "Mo-Su 08:00-23:00"}}, {"type": "node", "id": 5766127065, "lat": 42.6414926, "lon": 21.1026912, "tags": {"amenity": "pharmacy", "dispensing": "yes", "healthcare": "pharmacy", "name": "Barnatore Medifarm"}}, {"type": "node", "id": 5804383454, "lat": 42.6559392, "lon": 21.1746576, "tags": {"addr:city": "Prishtin\u00eb", "addr:housenumber": "39", "addr:postcode": "10000", "addr:street": "Rrahim Beqiri", "amenity": "pharmacy", "dispensing": "yes", "drive_through": "no", "healthcare": "pharmacy", "name": "IVY PHARM"}}, {"type": "node", "id": 5928656171, "lat": 42.5203065, "lon": 21.1244869, "tags": {"addr:city": "Lipjan", "addr:postcode": "14000", "addr:street": "Sk\u00ebnderbeu", "amenity": "pharmacy", "dispensing": "yes", "healthcare": "pharmacy"}}, {"type": "node", "id": 5933191526, "lat": 42.67507, "lon": 21.1697296}, {"type": "node", "id": 6022648148, "lat": 42.5218471, "lon": 21.1193341, "tags": {"addr:city": "Lipjan", "addr:postcode": "14000", "addr:street": "Tahir Sinani", "amenity": "pharmacy", "dispensing": "yes", "healthcare": "pharmacy"}}, {"type": "node", "id": 6022648149, "lat": 42.5216577, "lon": 21.1189152, "tags": {"addr:city": "Lipjan", "addr:postcode": "14000", "addr:street": "Tahir Sinani", "amenity": "pharmacy", "dispensing": "yes", "healthcare": "pharmacy"}}, {"type": "node", "id": 6022648150, "lat": 42.5218204, "lon": 21.118808, "tags": {"addr:city": "Lipjan", "addr:postcode": "14000", "addr:street": "Tahir Sinani", "amenity": "pharmacy", "dispensing": "yes", "healthcare": "pharmacy", "name": "AR Pharmacy"}}, {"type": "node", "id": 6022648151, "lat": 42.5213374, "lon": 21.1181575, "tags": {"addr:city": "Lipjan", "addr:postcode": "14000", "addr:street": "Tahir Sinani", "amenity": "pharmacy", "dispensing": "yes", "healthcare": "pharmacy"}}, {"type": "node", "id": 6022648152, "lat": 42.5191316, "lon": 21.1221474, "tags": {"addr:city": "Lipjan", "addr:postcode": "14000", "addr:street": "Komandant Kumanova", "amenity": "pharmacy", "dispensing": "yes", "healthcare": "pharmacy"}}, {"type": "node", "id": 6052808685, "lat": 42.6409369, "lon": 21.1007867, "tags": {"addr:street": "Hajrullah Zymi", "amenity": "pharmacy", "healthcare": "pharmacy", "name": "Smartpharm", "opening_hours": "Mo-Su 08:00-22:00"}}, {"type": "node", "id": 6073334285, "lat": 42.6534187, "lon": 21.1517908, "tags": {"addr:street": "Ilaz Kodra", "amenity": "pharmacy", "healthcare": "pharmacy", "name": "EU pharm", "opening_hours": "Mo-Sa 08:00-22:00"}}, {"type": "node", "id": 6103605542, "lat": 42.6751464, "lon": 21.1696071}, {"type": "node", "id": 6103605543, "lat": 42.6750611, "lon": 21.1695088}, {"type": "node", "id": 6103605547, "lat": 42.6749847, "lon": 21.1696313}, {"type": "node", "id": 6103605560, "lat": 42.6749929, "lon": 21.1698532}, {"type": "node", "id": 6103605561, "lat": 42.6749077, "lon": 21.1697549}, {"type": "node", "id": 6264067983, "lat": 42.6589573, "lon": 21.1411151, "tags": {"addr:street": "Ferid Curri", "amenity": "pharmacy", "name": "Yess Pharma"}}, {"type": "node", "id": 6281126241, "lat": 42.6567458, "lon": 21.1549524, "tags": {"addr:street": "Robert Doll", "amenity": "pharmacy", "healthcare": "pharmacy", "name": "Kastrati"}}, {"type": "node", "id": 6281318071, "lat": 42.6298828, "lon": 21.156908}, {"type": "node", "id": 6281318072, "lat": 42.629761, "lon": 21.1569154}, {"type": "node", "id": 6281318073, "lat": 42.629758, "lon": 21.156825}, {"type": "node", "id": 6281318074, "lat": 42.6298798, "lon": 21.1568175}, {"type": "node", "id": 6281406765, "lat": 42.6550585, "lon": 21.1547327, "tags": {"addr:city": "Prishtin\u00eb", "addr:postcode": "10000", "addr:street": "Bil Klinton", "amenity": "pharmacy", "healthcare": "pharmacy", "name": "Aroma Pharm"}}, {"type": "node", "id": 6281514403, "lat": 42.6777994, "lon": 21.1620565, "tags": {"addr:street": "V\u00ebllez\u00ebrit Fazliu", "amenity": "pharmacy", "name": "Natural Pharmacy"}}, {"type": "node", "id": 6281637367, "lat": 42.6654154, "lon": 21.1572728, "tags": {"addr:housenumber": "318", "addr:street": "U\u00c7\u041a", "amenity": "pharmacy", "check_date": "2023-08-29", "healthcare": "pharmacy", "name": "Barnatore Austriake"}}, {"type": "node", "id": 6291256270, "lat": 42.6779302, "lon": 21.1617215, "tags": {"addr:street": "V\u00ebllez\u00ebrit Fazliu", "amenity": "pharmacy", "fixme": "name"}}, {"type": "node", "id": 6312549889, "lat": 42.6483255, "lon": 21.157522, "tags": {"addr:postcode": "10000", "addr:street": "D\u00ebshmor\u00ebt e Kombit", "amenity": "pharmacy", "dispensing": "yes", "drive_through": "no", "healthcare": "pharmacy", "name": "AR-PHARMA", "opening_hours": "Mo-Sa 07:30-21:00", "operator": "Armend Azizi", "phone": "+38349111065"}}, {"type": "node", "id": 6796985488, "lat": 42.6532739, "lon": 21.1500966, "tags": {"amenity": "pharmacy", "healthcare": "pharmacy"}}, {"type": "node", "id": 6799467385, "lat": 42.6580008, "lon": 21.1601328, "tags": {"amenity": "pharmacy", "healthcare": "pharmacy"}}, {"type": "node", "id": 6925425886, "lat": 42.6536525, "lon": 21.1589069, "tags": {"addr:city": "Prishtin\u00eb", "addr:postcode": "10000", "addr:street": "D\u00ebshmor\u00ebt e Kombit", "amenity": "pharmacy", "healthcare": "pharmacy", "name": "Barnatore Salihaj", "name:en": "Salihaj", "opening_hours": "Mo-Su 08:00-23:00", "wheelchair": "yes"}}, {"type": "node", "id": 6975110585, "lat": 42.6557178, "lon": 21.1739162, "tags": {"addr:street": "Gazmend Zajmi", "amenity": "pharmacy", "healthcare": "pharmacy", "name:en": "Rio Pharm", "opening_hours": "Mo-Su 08:00-23:00"}}, {"type": "node", "id": 7041811360, "lat": 42.6316216, "lon": 21.0927847, "tags": {"addr:housenumber": "8", "addr:street": "Bedri Pejani", "amenity": "pharmacy", "dispensing": "yes", "healthcare": "pharmacy"}}, {"type": "node", "id": 7071850685, "lat": 42.5984225, "lon": 21.0125311, "tags": {"addr:postcode": "12050", "addr:street": "Rruga e Pej\u00ebs", "amenity": "pharmacy", "email": "office@santefarm.com", "name": "Santefarm", "opening_hours": "Mo-Fr 08:00-16:00; Sa 08:00-14:00", "operator": "Milaim Abdullahu", "phone": "+38349600582", "website": "https://www.santefarm.com/"}}, {"type": "node", "id": 7315095947, "lat": 42.6842114, "lon": 21.0742128, "tags": {"addr:city": "Obiliq", "addr:housenumber": "200", "addr:street": "Hasan Prishtina", "amenity": "pharmacy", "dispensing": "yes", "healthcare": "pharmacy", "name": "Flora", "opening_hours": "Mo-Su 08:00-22:00"}}, {"type": "node", "id": 7326936572, "lat": 42.5240757, "lon": 21.1198611, "tags": {"addr:city": "Lipjan", "addr:housenumber": "60", "addr:postcode": "14000", "addr:street": "Komandant Kumanova", "amenity": "pharmacy", "dispensing": "yes", "healthcare": "pharmacy", "name": "Atropa"}}, {"type": "node", "id": 7329071008, "lat": 42.5215919, "lon": 21.1186827, "tags": {"addr:housenumber": "2", "addr:street": "Zylfie Gashi", "amenity": "pharmacy", "dispensing": "yes", "healthcare": "pharmacy", "name": "Dona"}}, {"type": "node", "id": 7329071091, "lat": 42.5217092, "lon": 21.1190432, "tags": {"addr:housenumber": "53", "addr:street": "Tahir Sinani", "amenity": "pharmacy", "dispensing": "yes", "healthcare": "pharmacy", "name": "Riga"}}, {"type": "node", "id": 7329071098, "lat": 42.5218027, "lon": 21.1192206, "tags": {"addr:city": "Lipjan", "addr:housenumber": "45", "addr:postcode": "14000", "addr:street": "Tahir Sinani", "amenity": "pharmacy", "dispensing": "yes", "healthcare": "pharmacy", "name": "Green Pharm"}}, {"type": "node", "id": 7329071105, "lat": 42.5219449, "lon": 21.1190825, "tags": {"addr:housenumber": "36", "addr:street": "Tahir Sinani", "amenity": "pharmacy", "dispensing": "yes", "healthcare": "pharmacy", "name": "Zeki"}}, {"type": "node", "id": 7340537259, "lat": 42.8163022, "lon": 20.9814222, "tags": {"addr:housenumber": "270", "addr:street": "D\u00ebshmor\u00ebt e Kombit"}}, {"type": "node", "id": 7341084194, "lat": 42.8280734, "lon": 20.962599, "tags": {"addr:housenumber": "90", "addr:street": "Gjergj Kastrioti Sk\u00ebnderbeu"}}, {"type": "node", "id": 7366548927, "lat": 42.637406, "lon": 21.0936669, "tags": {"amenity": "pharmacy", "healthcare": "pharmacy", "name": "Barnatore Joni"}}, {"type": "node", "id": 7366548933, "lat": 42.6371356, "lon": 21.0933973, "tags": {"amenity": "pharmacy", "name": "Barnatore \"Dea\""}}, {"type": "node", "id": 7366572261, "lat": 42.6377197, "lon": 21.093003, "tags": {"amenity": "pharmacy", "name": "Barnatore"}}, {"type": "node", "id": 7437340185, "lat": 42.8777349, "lon": 20.8657934, "tags": {"amenity": "pharmacy", "name": "Dea-Pharm"}}, {"type": "node", "id": 7437340285, "lat": 42.8775582, "lon": 20.8658101, "tags": {"amenity": "pharmacy", "name": "4pharm"}}, {"type": "node", "id": 7437799285, "lat": 42.6675337, "lon": 21.1643254, "tags": {"addr:street": "Ilir Konushevci", "amenity": "pharmacy", "healthcare": "pharmacy", "name:en": "Farma-Company", "opening_hours": "Mo-Su 08:00-23:00"}}, {"type": "node", "id": 7444334985, "lat": 42.685713, "lon": 21.0707227, "tags": {"amenity": "pharmacy", "name": "Jona 1"}}, {"type": "node", "id": 7444362685, "lat": 42.6847828, "lon": 21.074019, "tags": {"amenity": "pharmacy", "name": "Sejdo"}}, {"type": "node", "id": 7444362785, "lat": 42.6846408, "lon": 21.0744399, "tags": {"amenity": "pharmacy", "name": "ER+ pharm"}}, {"type": "node", "id": 7444362786, "lat": 42.6841953, "lon": 21.0747832, "tags": {"addr:city": "Obiliq", "amenity": "pharmacy", "name": "Qendresa"}}, {"type": "node", "id": 7444362885, "lat": 42.6843524, "lon": 21.0741509, "tags": {"addr:city": "Obiliq", "amenity": "pharmacy", "name": "Reis"}}, {"type": "node", "id": 7444370885, "lat": 42.6844688, "lon": 21.073802, "tags": {"amenity": "pharmacy", "name": "Herba pharm 5"}}, {"type": "node", "id": 7444726956, "lat": 42.6845587, "lon": 21.0734352}, {"type": "node", "id": 7444726957, "lat": 42.6845128, "lon": 21.0734047}, {"type": "node", "id": 7444726958, "lat": 42.6844596, "lon": 21.0734855}, {"type": "node", "id": 7444726959, "lat": 42.6845264, "lon": 21.0735281}, {"type": "node", "id": 7444795451, "lat": 42.6847248, "lon": 21.0740382}, {"type": "node", "id": 7444795452, "lat": 42.6848097, "lon": 21.0741556}, {"type": "node", "id": 7444795453, "lat": 42.6847373, "lon": 21.0743123}, {"type": "node", "id": 7444795454, "lat": 42.6846518, "lon": 21.0741928}, {"type": "node", "id": 7444798780, "lat": 42.6846532, "lon": 21.0742146}, {"type": "node", "id": 7444798781, "lat": 42.6845959, "lon": 21.0744198}, {"type": "node", "id": 7444798782, "lat": 42.684682, "lon": 21.0745377}, {"type": "node", "id": 7444798783, "lat": 42.6847437, "lon": 21.074349}, {"type": "node", "id": 7444807727, "lat": 42.6846843, "lon": 21.0745752}, {"type": "node", "id": 7444807728, "lat": 42.684641, "lon": 21.0746764}, {"type": "node", "id": 7444807729, "lat": 42.6845333, "lon": 21.0745854}, {"type": "node", "id": 7444807730, "lat": 42.6845892, "lon": 21.074433}, {"type": "node", "id": 7602908885, "lat": 42.6681882, "lon": 21.1700495, "tags": {"addr:street": "Xheladin Kurbaliu", "amenity": "pharmacy", "healthcare": "pharmacy", "name": "Barnatore Farmaceutika", "name:en": "Farmaceutika", "opening_hours": "Mo-Su 07:00-21:00"}}, {"type": "node", "id": 7602908985, "lat": 42.6683513, "lon": 21.1699842, "tags": {"addr:street": "Xheladin Kurbaliu", "amenity": "pharmacy", "healthcare": "pharmacy", "name": "Barnatore Medikament", "name:en": "Medikament", "opening_hours": "Mo-Su 07:30-21:30"}}, {"type": "node", "id": 7695441485, "lat": 42.6196096, "lon": 21.1911867, "tags": {"amenity": "pharmacy", "name": "Ak Pharm"}}, {"type": "node", "id": 7695441487, "lat": 42.6528898, "lon": 21.1532059, "tags": {"amenity": "pharmacy", "check_date": "2023-09-26", "healthcare": "pharmacy", "level": "0", "name": "Pro pharma", "opening_hours": "Mo-Sa 09:00-21:00", "wheelchair": "yes"}}, {"type": "node", "id": 7695441488, "lat": 42.6535899, "lon": 21.1532416, "tags": {"addr:city": "Prishtin\u00eb", "addr:postcode": "10000", "addr:street": "Salih \u00c7eku", "amenity": "pharmacy", "check_date": "2023-09-26", "contact:facebook": "https://www.facebook.com/sffarmacia", "healthcare": "pharmacy", "level": "0", "mobile": "+383 48 305 103", "name": "SF FARMACIA", "opening_hours": "Mo-Sa 07:00-21:00", "operator": "https://www.facebook.com/ONPOINT2142", "payment:cash": "yes", "payment:credit_cards": "yes", "payment:debit_cards": "yes", "payment:maestro": "yes", "payment:mastercard": "yes", "payment:visa": "yes", "website": "https://www.facebook.com/sffarmacia", "wheelchair": "yes"}}, {"type": "node", "id": 7695441489, "lat": 42.6333668, "lon": 21.1524224, "tags": {"amenity": "pharmacy", "name": "Tana shpk"}}, {"type": "node", "id": 7695441588, "lat": 42.6608317, "lon": 21.1664877, "tags": {"amenity": "pharmacy", "healthcare": "pharmacy", "name": "AN pharm"}}, {"type": "node", "id": 7695441686, "lat": 42.6446829, "lon": 21.1581612, "tags": {"amenity": "pharmacy", "healthcare": "pharmacy", "name": "MN pharm"}}, {"type": "node", "id": 7695441687, "lat": 42.6164319, "lon": 21.1791782, "tags": {"amenity": "pharmacy", "name": "Erythrea"}}, {"type": "node", "id": 7695441785, "lat": 42.6443987, "lon": 21.1599916, "tags": {"amenity": "pharmacy", "healthcare": "pharmacy", "name": "Pentagon 6"}}, {"type": "node", "id": 7695441786, "lat": 42.6485287, "lon": 21.1575492, "tags": {"amenity": "pharmacy", "healthcare": "pharmacy", "name": "Jeta"}}, {"type": "node", "id": 7695441787, "lat": 42.650059, "lon": 21.1589087, "tags": {"amenity": "pharmacy", "healthcare": "pharmacy", "name": "Daris pharm"}}, {"type": "node", "id": 7695441885, "lat": 42.6526088, "lon": 21.1582592, "tags": {"amenity": "pharmacy", "healthcare": "pharmacy", "name": "Mega"}}, {"type": "node", "id": 7695441886, "lat": 42.6504997, "lon": 21.1590285, "tags": {"amenity": "pharmacy", "healthcare": "pharmacy", "name": "Melisa"}}, {"type": "node", "id": 7695442285, "lat": 42.6545799, "lon": 21.1672383, "tags": {"amenity": "pharmacy", "healthcare": "pharmacy", "name": "Meld"}}, {"type": "node", "id": 7885156085, "lat": 42.6247942, "lon": 20.8915591, "tags": {"addr:housenumber": "68", "addr:postcode": "13000", "addr:street": "Xhevat Demaku", "amenity": "pharmacy", "name": "Barnatore Armendi", "opening_hours": "Mo-Fr 08:00-21:00; Sa-Su 08:00-14:00"}}, {"type": "node", "id": 8074904346, "lat": 42.5192027, "lon": 21.1227511, "tags": {"addr:city": "Lipjan", "addr:postcode": "14000", "addr:street": "Shqip\u00ebria", "amenity": "pharmacy", "dispensing": "yes", "drive_through": "no", "healthcare": "pharmacy", "name": "Family AB"}}, {"type": "node", "id": 8511431537, "lat": 42.6507768, "lon": 21.1684373, "tags": {"amenity": "pharmacy", "healthcare": "pharmacy", "name": "Natyra-J"}}, {"type": "node", "id": 8546170879, "lat": 42.8237229, "lon": 20.9641716}, {"type": "node", "id": 8546170880, "lat": 42.8237023, "lon": 20.9641993}, {"type": "node", "id": 8546170881, "lat": 42.8237362, "lon": 20.9642513}, {"type": "node", "id": 8546170882, "lat": 42.8237593, "lon": 20.9642179}, {"type": "node", "id": 8546390520, "lat": 42.8231928, "lon": 20.9646326}, {"type": "node", "id": 8546390521, "lat": 42.8231666, "lon": 20.9646655}, {"type": "node", "id": 8546390522, "lat": 42.8231554, "lon": 20.9646673}, {"type": "node", "id": 8546390523, "lat": 42.8231428, "lon": 20.9646407}, {"type": "node", "id": 8546390524, "lat": 42.8231329, "lon": 20.9646587}, {"type": "node", "id": 8546390525, "lat": 42.8231577, "lon": 20.9646939}, {"type": "node", "id": 8546390526, "lat": 42.8231693, "lon": 20.9646899}, {"type": "node", "id": 8546390527, "lat": 42.8232034, "lon": 20.9646493}, {"type": "node", "id": 8637527312, "lat": 42.5999443, "lon": 21.0229289}, {"type": "node", "id": 8637527738, "lat": 42.6000096, "lon": 21.0227748}, {"type": "node", "id": 8637527739, "lat": 42.6000395, "lon": 21.0228519}, {"type": "node", "id": 8637527740, "lat": 42.5999099, "lon": 21.0228495}, {"type": "node", "id": 8856714207, "lat": 42.6372036, "lon": 21.0928392, "tags": {"addr:floor": "G", "amenity": "pharmacy", "check_date": "2025-07-22", "drive_through": "no", "level": "0", "name": "Green Pharmacy"}}, {"type": "node", "id": 8857263094, "lat": 42.8237736, "lon": 20.9653203, "tags": {"addr:city": "Vushtrri", "addr:postcode": "42000", "addr:street": "Ismail Qemajli", "amenity": "pharmacy", "healthcare": "pharmacy", "name": "DOA Pharmacy", "opening_hours": "Mo-Sa 08:00-23:00"}}, {"type": "node", "id": 9249923351, "lat": 42.8231353, "lon": 20.9646544}, {"type": "node", "id": 9455031701, "lat": 42.6641404, "lon": 21.1666662, "tags": {"amenity": "pharmacy", "dispensing": "yes", "healthcare": "pharmacy", "name": "Barnatore Kushtrimi"}}, {"type": "node", "id": 9625311097, "lat": 42.8179483, "lon": 20.9680249}, {"type": "node", "id": 9625311098, "lat": 42.8179825, "lon": 20.9681511}, {"type": "node", "id": 9625311099, "lat": 42.8179391, "lon": 20.9681772}, {"type": "node", "id": 9625311100, "lat": 42.8179032, "lon": 20.9680613}, {"type": "node", "id": 9858652717, "lat": 42.655811, "lon": 21.1552316, "tags": {"addr:city": "Prishtin\u00eb", "addr:housenumber": "37", "addr:postcode": "10000", "addr:street": "Robert Doll", "amenity": "pharmacy", "email": "achilleapharmacy@hotmail.com", "healthcare": "pharmacy", "name": "Achillea pharmacy", "name:en": "Achillea Pharmacy", "opening_hours": "Mo-Sa 08:00-22:00; Su 00:00-24:00"}}, {"type": "node", "id": 9862012888, "lat": 42.6581215, "lon": 21.1844035, "tags": {"addr:city": "Prishtina", "addr:housenumber": "300", "addr:postcode": "10000", "addr:street": "Isa Kastrati", "amenity": "pharmacy", "dispensing": "yes", "healthcare": "pharmacy", "name": "MIRIPHARM", "opening_hours": "Mo-Su 07:00-23:00", "operator": "E.ABAZI"}}, {"type": "node", "id": 9872101716, "lat": 42.6400531, "lon": 21.1010481, "tags": {"amenity": "pharmacy", "dispensing": "yes", "healthcare": "pharmacy", "name": "Barnatore Joni"}}, {"type": "node", "id": 9872128319, "lat": 42.6420564, "lon": 21.0999787, "tags": {"amenity": "pharmacy", "dispensing": "yes", "healthcare": "pharmacy", "name": "ADI's Pharmacy"}}, {"type": "node", "id": 9977153265, "lat": 42.6430902, "lon": 21.1100036, "tags": {"amenity": "pharmacy", "dispensing": "yes", "healthcare": "pharmacy", "name": "Barnatore Kastrati"}}, {"type": "node", "id": 9985335097, "lat": 42.6841074, "lon": 21.0744756, "tags": {"addr:city": "Obiliq", "addr:street": "Hasan Prishtina", "amenity": "pharmacy", "dispensing": "yes", "healthcare": "pharmacy", "name": "Pharmacy Area", "opening_hours": "24/7"}}, {"type": "node", "id": 10186147631, "lat": 42.81633, "lon": 20.9813936}, {"type": "node", "id": 10186147632, "lat": 42.8163454, "lon": 20.9814263}, {"type": "node", "id": 10186147633, "lat": 42.8163146, "lon": 20.9814473}, {"type": "node", "id": 10273544495, "lat": 42.8253914, "lon": 20.9692248}, {"type": "node", "id": 10273544496, "lat": 42.825475, "lon": 20.9690827}, {"type": "node", "id": 10273544497, "lat": 42.8255733, "lon": 20.9692047}, {"type": "node", "id": 10273544498, "lat": 42.8254887, "lon": 20.9693429}, {"type": "node", "id": 10274386807, "lat": 42.8216042, "lon": 20.9600577}, {"type": "node", "id": 10274386808, "lat": 42.8215177, "lon": 20.9602938}, {"type": "node", "id": 10274422531, "lat": 42.826726, "lon": 20.970049, "tags": {"addr:city": "Vushtrri", "addr:postcode": "42000", "addr:street": "Ana Lin", "amenity": "pharmacy", "healthcare": "pharmacy", "name": "Barnatore Emona", "opening_hours": "Mo-Sa 08:00-22:00"}}, {"type": "node", "id": 10274425309, "lat": 42.82162, "lon": 20.9603796}, {"type": "node", "id": 10274425310, "lat": 42.8217105, "lon": 20.9601436}, {"type": "node", "id": 10276883356, "lat": 42.8280269, "lon": 20.9626253}, {"type": "node", "id": 10276883357, "lat": 42.8280534, "lon": 20.9627264}, {"type": "node", "id": 10276883358, "lat": 42.8281043, "lon": 20.9626978}, {"type": "node", "id": 10276883359, "lat": 42.8280974, "lon": 20.962676}, {"type": "node", "id": 10287377859, "lat": 42.8211312, "lon": 20.9671666, "tags": {"addr:city": "Vushtrri", "addr:postcode": "42000", "addr:street": "Galip Badivuku", "amenity": "pharmacy", "healthcare": "pharmacy", "name": "Andol C"}}, {"type": "node", "id": 10536295054, "lat": 42.8251292, "lon": 20.9686404}, {"type": "node", "id": 10536295055, "lat": 42.8252049, "lon": 20.9687222}, {"type": "node", "id": 10536295056, "lat": 42.8251007, "lon": 20.9689046}, {"type": "node", "id": 10536295057, "lat": 42.8250161, "lon": 20.9688254}, {"type": "node", "id": 10723978268, "lat": 42.5653619, "lon": 21.1360398, "tags": {"amenity": "pharmacy", "healthcare": "pharmacy", "name": "ROSA CANINA"}}, {"type": "node", "id": 11008087476, "lat": 42.6340396, "lon": 21.1539354, "tags": {"addr:city": "Prishtin\u00eb", "addr:housenumber": "11", "addr:postcode": "10000", "addr:street": "Ri\u00e7ard Holbruk", "amenity": "pharmacy", "contact:facebook": "https://www.facebook.com/sffarmacia", "dispensing": "no", "healthcare": "pharmacy", "mobile": "+383 48 305 101", "name": "SF FARMACIA", "opening_hours": "Mo-Sa 07:00-21:00", "operator": "https://www.facebook.com/ONPOINT2142", "payment:cash": "yes", "payment:credit_cards": "yes", "payment:maestro": "yes", "payment:mastercard": "yes", "payment:visa": "yes", "website": "https://www.facebook.com/sffarmacia", "wheelchair": "yes"}}, {"type": "node", "id": 11008090889, "lat": 42.6458065, "lon": 21.1763587, "tags": {"addr:city": "Prishtin\u00eb", "addr:postcode": "10000", "addr:street": "Muharrem Fejza", "amenity": "pharmacy", "check_date": "2023-10-24", "contact:facebook": "https://www.facebook.com/sffarmacia", "healthcare": "pharmacy", "mobile": "+383 48 305 102", "name": "SF FARMACIA", "opening_hours": "Mo-Sa 07:00-21:00", "payment:cash": "yes", "payment:credit_cards": "yes", "payment:maestro": "yes", "payment:mastercard": "yes", "payment:visa": "yes", "website": "https://www.facebook.com/sffarmacia", "wheelchair": "yes"}}, {"type": "node", "id": 11098945293, "lat": 42.663677, "lon": 21.1656794, "tags": {"amenity": "pharmacy", "healthcare": "pharmacy", "name": "Apollo Pharmacy"}}, {"type": "node", "id": 11098969248, "lat": 42.6427061, "lon": 21.0999036, "tags": {"amenity": "pharmacy", "healthcare": "pharmacy", "name": "Pure Pharm"}}, {"type": "node", "id": 11202325096, "lat": 42.6514043, "lon": 21.1674752, "tags": {"addr:city": "Prishtina", "addr:postcode": "10000", "addr:street": "Afrim Maliqi", "amenity": "pharmacy", "healthcare": "pharmacy", "name": "Barnatore Pharmaser.", "opening_hours": "Mo-Sa 08:00-21:00", "operator": "Mr.Ph.Arjana Serhati & Mr.Ph.Zana Serhati"}}, {"type": "node", "id": 11205146337, "lat": 42.6479985, "lon": 21.1623929, "tags": {"addr:housenumber": "B2", "addr:postcode": "10000", "amenity": "pharmacy", "email": "primepharmacy22@gmail.com", "healthcare": "pharmacy", "opening_hours": "Mo-Su 08:30-00:00", "phone": "+38349985100"}}, {"type": "node", "id": 11832833229, "lat": 42.6465629, "lon": 21.1786251, "tags": {"amenity": "pharmacy", "healthcare": "pharmacy", "name": "Barnatore Kushtrimi"}}, {"type": "node", "id": 11900381805, "lat": 42.6475484, "lon": 21.1308726, "tags": {"amenity": "pharmacy", "healthcare": "pharmacy", "name": "Riga Pharm"}}, {"type": "node", "id": 11911685909, "lat": 42.6622759, "lon": 21.1600357, "tags": {"amenity": "pharmacy", "healthcare": "pharmacy", "name": "Well Pharmacy"}}, {"type": "node", "id": 12071555300, "lat": 42.8561352, "lon": 20.9316655}, {"type": "node", "id": 12071555301, "lat": 42.856029, "lon": 20.9315863}, {"type": "node", "id": 12071555302, "lat": 42.8561824, "lon": 20.9311585}, {"type": "node", "id": 12071555303, "lat": 42.8562846, "lon": 20.9312417}, {"type": "node", "id": 12163254055, "lat": 42.649368, "lon": 21.1499933, "tags": {"addr:floor": "G", "amenity": "pharmacy", "check_date": "2024-09-08", "healthcare": "pharmacy", "level": "0", "name": "Bluepharm", "opening_hours": "Mo-Sa 07:00-21:00", "operator": "Shpresa Hoti", "wheelchair": "limited"}}, {"type": "node", "id": 12163254056, "lat": 42.6489758, "lon": 21.1519728, "tags": {"addr:floor": "G", "amenity": "pharmacy", "check_date": "2024-09-08", "healthcare": "pharmacy", "level": "0", "name": "Your Pharmacy", "opening_hours": "Mo-Sa 08:00-22:00", "operator": "Bliri Kryeziu"}}, {"type": "node", "id": 12163254095, "lat": 42.6493839, "lon": 21.1511747, "tags": {"addr:floor": "G", "amenity": "pharmacy", "check_date": "2024-09-08", "healthcare": "pharmacy", "level": "0", "name": "Prime Pharma", "opening_hours": "Mo-Sa 08:00-22:00"}}, {"type": "node", "id": 12202023785, "lat": 42.5241985, "lon": 21.1218742, "tags": {"addr:city": "Lipjan", "addr:postcode": "14000", "addr:street": "Skenderbeu", "amenity": "pharmacy", "healthcare": "pharmacy", "name": "Riga"}}, {"type": "node", "id": 12270966537, "lat": 42.6504063, "lon": 21.1779211, "tags": {"amenity": "pharmacy", "healthcare": "pharmacy", "name": "D3 Pharmacy"}}, {"type": "node", "id": 12408294692, "lat": 42.8188171, "lon": 20.9789975}, {"type": "node", "id": 12408294693, "lat": 42.8187669, "lon": 20.9789291}, {"type": "node", "id": 12408294694, "lat": 42.8186912, "lon": 20.9790283}, {"type": "node", "id": 12408294695, "lat": 42.8187453, "lon": 20.9790994}, {"type": "node", "id": 12408294696, "lat": 42.8196798, "lon": 20.9775397}, {"type": "node", "id": 12408294697, "lat": 42.8196365, "lon": 20.977486}, {"type": "node", "id": 12408294698, "lat": 42.8195362, "lon": 20.9776309}, {"type": "node", "id": 12408294699, "lat": 42.8195834, "lon": 20.9776926}, {"type": "node", "id": 12763197101, "lat": 42.6841363, "lon": 21.0745219, "tags": {"addr:housenumber": "222", "addr:postcode": "1500", "addr:street": "Hasan Prishtina", "amenity": "pharmacy", "name": "Barnatore QENDRESA", "name:en": "Pharmacy QENDRESA", "opening_hours": "Mo-Sa 07:00-23:00"}}, {"type": "node", "id": 12890172601, "lat": 42.6316689, "lon": 21.1518343, "tags": {"amenity": "pharmacy", "name": "Tana (Pika Pika)"}}, {"type": "node", "id": 12890172602, "lat": 42.6318298, "lon": 21.151992, "tags": {"amenity": "pharmacy", "name": "Tana ( Pika Pika)"}}, {"type": "node", "id": 12890172603, "lat": 42.6479263, "lon": 21.1578573, "tags": {"amenity": "pharmacy", "name": "Fjori Med Rina"}}, {"type": "node", "id": 12890172701, "lat": 42.6371959, "lon": 21.1583747, "tags": {"amenity": "pharmacy", "healthcare": "pharmacy", "name": "Hermes"}}, {"type": "node", "id": 12890172801, "lat": 42.6482044, "lon": 21.1579303, "tags": {"amenity": "pharmacy", "name": "Humana NTP"}}, {"type": "node", "id": 12890172802, "lat": 42.649063, "lon": 21.1592492, "tags": {"amenity": "pharmacy", "name": "Nova Pharm"}}, {"type": "node", "id": 13116289698, "lat": 42.5200317, "lon": 21.1208208, "tags": {"amenity": "pharmacy", "healthcare": "pharmacy", "name": "Barnatore Alba"}}, {"type": "node", "id": 13184557264, "lat": 42.6415492, "lon": 21.1035472, "tags": {"amenity": "pharmacy", "name": "Riga Pharm"}}, {"type": "way", "id": 247609422, "nodes": [2544993461, 2544993463, 2544993465, 2544993467, 2544993461], "tags": {"amenity": "pharmacy", "building": "yes", "name": "Trepharm"}}, {"type": "way", "id": 248995717, "nodes": [2556977694, 2556977691, 2556977690, 2556977692, 2556977693, 2556977696, 2556977695, 2556977694], "tags": {"amenity": "pharmacy", "name": "Rita Pharm"}}, {"type": "way", "id": 348282170, "nodes": [3544257587, 3544257586, 3544257577, 3544257578, 3544257587], "tags": {"amenity": "pharmacy", "building": "yes", "drive_through": "no", "healthcare": "pharmacy"}}, {"type": "way", "id": 437264992, "nodes": [4350830407, 4350830408, 4350830409, 4350830410, 4350830407], "tags": {"amenity": "pharmacy", "building": "yes", "healthcare": "pharmacy", "name": "Gentiana L", "name:en": "Gentiana L", "name:sq": "Gentiana L"}}, {"type": "way", "id": 461671279, "nodes": [4571430110, 4571430107, 4571430108, 4571430109, 4571430110], "tags": {"amenity": "pharmacy", "building": "yes", "healthcare": "pharmacy"}}, {"type": "way", "id": 650692678, "nodes": [6103605542, 6103605543, 6103605547, 5933191526, 6103605542], "tags": {"amenity": "pharmacy", "building": "yes", "dispensing": "yes", "healthcare": "pharmacy"}}, {"type": "way", "id": 650692679, "nodes": [5933191526, 6103605560, 6103605561, 6103605547, 5933191526], "tags": {"amenity": "pharmacy", "building": "yes", "dispensing": "yes", "healthcare": "pharmacy"}}, {"type": "way", "id": 670748929, "nodes": [6281318074, 6281318071, 6281318072, 6281318073, 6281318074], "tags": {"addr:street": "Gjilani", "amenity": "pharmacy", "building": "retail", "healthcare": "pharmacy", "name": "Era Pharm"}}, {"type": "way", "id": 795939029, "nodes": [7444807727, 7444807728, 7444807729, 7444807730, 7444807727], "tags": {"addr:city": "Obiliq", "addr:postcode": "15000", "addr:street": "Hasan Prishtina", "amenity": "pharmacy", "building": "yes", "dispensing": "yes", "healthcare": "pharmacy", "name": "Pharmacy area", "opening_hours": "24/7"}}, {"type": "way", "id": 795939808, "nodes": [7444798780, 7444798781, 7444798782, 7444798783, 7444798780], "tags": {"addr:city": "Obiliq", "addr:postcode": "15000", "addr:street": "Hasan Prishtina", "amenity": "pharmacy", "building": "yes", "dispensing": "yes", "healthcare": "pharmacy", "name": "Pharmacy area", "opening_hours": "24/7"}}, {"type": "way", "id": 795940265, "nodes": [7444795451, 7444795452, 7444795453, 7444795454, 7444795451], "tags": {"addr:city": "Obiliq", "addr:postcode": "15000", "addr:street": "Hasan Prishtina", "amenity": "pharmacy", "building": "yes", "dispensing": "yes", "healthcare": "pharmacy", "name": "Pharmacy area", "opening_hours": "24/7"}}, {"type": "way", "id": 795940770, "nodes": [7444726956, 7444726957, 7444726958, 7444726959, 7444726956], "tags": {"addr:city": "Obiliq", "addr:postcode": "15000", "addr:street": "Hasan Prishtina", "amenity": "pharmacy", "brand": "Pharmacie Principale", "brand:wikidata": "Q1547749", "brand:wikipedia": "fr:Groupe PP Holding", "building": "yes", "dispensing": "yes", "healthcare": "pharmacy", "name": "Pharmacie Principale", "opening_hours": "24/7"}}, {"type": "way", "id": 920459532, "nodes": [8546170879, 8546170880, 8546170881, 8546170882, 8546170879], "tags": {"addr:city": "Vushtrri / Vu\u010ditrn", "addr:postcode": "42000", "addr:street": "Ruzhdi Hyseni", "amenity": "pharmacy", "building": "yes", "dispensing": "yes", "healthcare": "pharmacy", "name": "Barnatore", "operator": "Barnatore"}}, {"type": "way", "id": 920459636, "nodes": [8546390520, 8546390521, 8546390522, 8546390523, 9249923351, 8546390524, 8546390525, 8546390526, 8546390527, 8546390520], "tags": {"addr:city": "Vushtrri / Vu\u010ditrn", "addr:postcode": "42000", "addr:street": "Ruzhdi Hyseni", "amenity": "pharmacy", "building": "yes", "dispensing": "yes", "healthcare": "pharmacy", "name": "Barnatore", "operator": "Barnatore"}}, {"type": "way", "id": 931696528, "nodes": [8637527738, 8637527739, 8637527312, 8637527740, 8637527738], "tags": {"addr:floor": "G", "amenity": "pharmacy", "building": "yes", "building:levels": "1", "building:material": "plaster", "drive_through": "no", "healthcare": "pharmacy", "level": "0", "name": "Unik Pharm", "roof:shape": "flat"}}, {"type": "way", "id": 1046712805, "nodes": [9625311097, 9625311098, 9625311099, 9625311100, 9625311097], "tags": {"addr:city": "Vushtrri", "addr:housenumber": "138", "addr:postcode": "42000", "addr:street": "Shemsi Istrefi", "amenity": "pharmacy", "building": "yes", "dispensing": "yes", "healthcare": "pharmacy", "name": "Barnatore Marigona"}}, {"type": "way", "id": 1113376002, "nodes": [7340537259, 10186147631, 10186147632, 10186147633, 7340537259], "tags": {"amenity": "pharmacy", "building": "yes", "healthcare": "pharmacy", "name": "Etika PHARM"}}, {"type": "way", "id": 1123363982, "nodes": [10273544495, 10273544496, 10273544497, 10273544498, 10273544495], "tags": {"amenity": "pharmacy", "building": "yes", "healthcare": "pharmacy", "name": "Barnatore BLINI"}}, {"type": "way", "id": 1123465664, "nodes": [10274386807, 10274386808, 10274425309, 10274425310, 10274386807], "tags": {"amenity": "pharmacy", "building": "yes", "healthcare": "pharmacy", "name": "DOA Pharmacy"}}, {"type": "way", "id": 1123761119, "nodes": [7341084194, 10276883356, 10276883357, 10276883358, 10276883359, 7341084194], "tags": {"addr:city": "Vushtrri", "addr:postcode": "42000", "addr:street": "Gjergj Kastrioti Sk\u00ebnderbeu", "amenity": "pharmacy", "building": "yes", "healthcare": "pharmacy", "name": "Barnatore PICO"}}, {"type": "way", "id": 1130557182, "nodes": [10536295054, 10536295055, 10536295056, 10536295057, 10536295054], "tags": {"addr:city": "Vushtrri", "addr:postcode": "42000", "addr:street": "Ismail Qemajli", "amenity": "pharmacy", "building": "yes", "healthcare": "pharmacy", "name": "OTA Pharmacy"}}, {"type": "way", "id": 1303478009, "nodes": [12071555300, 12071555301, 12071555302, 12071555303, 12071555300], "tags": {"addr:city": "K\u00e7iq i Madh", "addr:postcode": "42000", "addr:street": "Mbreti Agron", "amenity": "pharmacy", "building": "yes", "drive_through": "yes", "healthcare": "pharmacy", "name": "RIGA Pharm", "opening_hours": "24/7"}}, {"type": "way", "id": 1341414755, "nodes": [12408294692, 12408294693, 12408294694, 12408294695, 12408294692], "tags": {"addr:city": "Vushtrri", "addr:postcode": "42000", "addr:street": "D\u00ebshmor\u00ebt e Kombit", "amenity": "pharmacy", "building": "yes", "healthcare": "pharmacy", "name": "Pentagon"}}, {"type": "way", "id": 1341414756, "nodes": [12408294696, 12408294697, 12408294698, 12408294699, 12408294696], "tags": {"amenity": "pharmacy", "building": "yes", "healthcare": "pharmacy", "name": "Mara Pharm"}}]}