{"version": 0.6, "generator": "Overpass API 0.7.62.8 e802775f", "osm3s": {"timestamp_osm_base": "2025-10-06T08:41:25Z", "copyright": "The data included in this document is from www.openstreetmap.org. The data is made available under ODbL."}, "elements": [{"type": "node", "id": 4706140690, "lat": 44.4899145, "lon": 25.0650859, "tags": {"amenity": "pharmacy", "name": "Farmacia Izvoru", "name:ro": "Farmacia Izvoru", "opening_hours": "Mo-Fr 08:00-17:00"}}, {"type": "node", "id": 4706145590, "lat": 44.4898326, "lon": 25.0650884, "tags": {"amenity": "pharmacy", "name": "Farmacie Izvoru", "name:ro": "Farmacie Izvoru"}}, {"type": "node", "id": 6539514885, "lat": 44.4336964, "lon": 25.6204568, "tags": {"amenity": "pharmacy", "name": "Monalin farm"}}, {"type": "node", "id": 6989052997, "lat": 44.4097408, "lon": 25.5287039, "tags": {"amenity": "pharmacy", "name": "Fast helt roata de jos"}}, {"type": "node", "id": 8743583792, "lat": 44.562729, "lon": 25.588695, "tags": {"amenity": "pharmacy", "dispensing": "yes", "healthcare": "pharmacy", "name": "Farmacia Bremco"}}, {"type": "node", "id": 10758562548, "lat": 44.2757811, "lon": 25.5248059, "tags": {"addr:city": "Videle", "addr:street": "\u0218oseaua Giurgiului", "amenity": "pharmacy", "healthcare": "pharmacy", "name": "Pharma Invest"}}, {"type": "node", "id": 11292787469, "lat": 44.4317538, "lon": 25.4893793, "tags": {"amenity": "pharmacy", "name": "Riv Com"}}, {"type": "node", "id": 11373025169, "lat": 44.4319936, "lon": 25.489242, "tags": {"amenity": "pharmacy", "name": "Riv Com"}}, {"type": "node", "id": 11989856069, "lat": 44.4903579, "lon": 25.248761, "tags": {"amenity": "pharmacy", "name": "alphega farmacie", "opening_hours": "Mo-Fr 08:00-16:00; Sa-Su 00:00-24:00"}}]}