{"version": 0.6, "generator": "Overpass API 0.7.62.8 e802775f", "osm3s": {"timestamp_osm_base": "2025-10-06T08:59:45Z", "copyright": "The data included in this document is from www.openstreetmap.org. The data is made available under ODbL."}, "elements": [{"type": "node", "id": 1454404789, "lat": 56.9792117, "lon": 21.569093}, {"type": "node", "id": 1454404821, "lat": 56.9792457, "lon": 21.5688247}, {"type": "node", "id": 1454404866, "lat": 56.9793068, "lon": 21.5691336}, {"type": "node", "id": 1454404904, "lat": 56.9793408, "lon": 21.5688653}, {"type": "node", "id": 4162959212, "lat": 56.718462, "lon": 21.6048209, "tags": {"addr:city": "Aizpute", "addr:country": "LV", "addr:district": "Dienvidkurzemes novads", "addr:housenumber": "24", "addr:postcode": "LV-3456", "addr:street": "Atmodas iela", "amenity": "pharmacy", "healthcare": "pharmacy", "name": "Mana aptieka", "opening_hours": "Mo-Fr 08:00-19:00; Sa 09:00-15:00", "operator": "SIA Rumis", "ref:LV:addr": "101447817"}}, {"type": "node", "id": 5677604228, "lat": 56.719734, "lon": 21.6070913, "tags": {"addr:city": "Aizpute", "addr:country": "LV", "addr:district": "Dienvidkurzemes novads", "addr:housenumber": "2", "addr:postcode": "LV-3456", "addr:street": "Zvaig\u017e\u0146u iela", "amenity": "pharmacy", "brand": "M\u0113ness aptieka", "brand:wikidata": "Q57583051", "healthcare": "pharmacy", "name": "M\u0113ness aptieka", "opening_hours": "Mo-Fr 08:00-18:00", "phone": "+371 20 377 479;+371 67 617 805", "ref:LV:addr": "101453443", "website": "https://www.menessaptieka.lv"}}, {"type": "node", "id": 5806607514, "lat": 56.8348254, "lon": 21.7752963, "tags": {"addr:city": "Turlava", "addr:country": "LV", "addr:district": "Kuld\u012bgas novads", "addr:housename": "Selgas", "addr:postcode": "LV-3329", "addr:subdistrict": "Turlavas pagasts", "amenity": "pharmacy", "dispensing": "yes", "healthcare": "pharmacy", "ref:LV:addr": "103845921"}}, {"type": "node", "id": 6555737648, "lat": 56.8896814, "lon": 21.1815116, "tags": {"addr:city": "P\u0101vilosta", "addr:country": "LV", "addr:district": "Dienvidkurzemes novads", "addr:housenumber": "10", "addr:postcode": "LV-3466", "addr:street": "Lejas iela", "amenity": "pharmacy", "healthcare": "pharmacy", "name": "P\u0101vilostas Aptieka", "opening_hours": "Mo-We, Fr 09:00-16:00; Th 12:00-18:00; Sa 09:00-15:00", "phone": "63498222", "ref:LV:addr": "102209534"}}, {"type": "node", "id": 10605897390, "lat": 56.9793242, "lon": 21.5689963, "tags": {"entrance": "main"}}, {"type": "node", "id": 12334662736, "lat": 56.7153183, "lon": 21.6127298, "tags": {"addr:city": "Aizpute", "addr:country": "LV", "addr:district": "Dienvidkurzemes novads", "addr:housenumber": "2", "addr:postcode": "LV-3456", "addr:street": "Avotu iela", "amenity": "pharmacy", "healthcare": "pharmacy", "name": "Apotheka", "opening_hours": "Mo,We-Fr 08:30-16:30; Tu 09:00-18:00", "phone": "+371 63 448 877", "ref:LV:addr": "101448304", "website": "https://www.apotheka.lv"}}, {"type": "way", "id": 132160379, "nodes": [1454404904, 10605897390, 1454404866, 1454404789, 1454404821, 1454404904], "tags": {"addr:city": "Alsunga", "addr:country": "LV", "addr:district": "Kuld\u012bgas novads", "addr:housenumber": "7", "addr:postcode": "LV-3306", "addr:street": "Skolas iela", "addr:subdistrict": "Alsungas pagasts", "amenity": "pharmacy", "branch": "Alsung\u0101 aptieka", "brand": "Mana Aptieka", "building": "retail", "building:levels": "1", "contact:facebook": "https://www.facebook.com/manaaptieka/", "email": "birojs@manaaptieka.lv", "healthcare": "pharmacy", "name": "Mana Aptieka", "opening_hours": "Mo 08:00-17:00; Tu-Sa 08:30-17:00; Su 09:00-14:00", "phone": "+371 633 51133", "ref:LV:addr": "102229082", "roof:levels": "1", "roof:shape": "gabled", "website": "https://manaaptieka.lv/"}}]}