{"version": 0.6, "generator": "Overpass API 0.7.62.8 e802775f", "osm3s": {"timestamp_osm_base": "2025-10-06T08:41:25Z", "copyright": "The data included in this document is from www.openstreetmap.org. The data is made available under ODbL."}, "elements": [{"type": "node", "id": 5416699967, "lat": 41.2893689, "lon": 26.2578829, "tags": {"amenity": "pharmacy", "healthcare": "pharmacy"}}, {"type": "node", "id": 5419945996, "lat": 41.4204554, "lon": 26.5628572, "tags": {"amenity": "pharmacy", "healthcare": "pharmacy", "name": "\u0396\u03b1\u03c6\u03b5\u03b9\u03c1\u03b9\u03ac\u03b4\u03bf\u03c5 \u039c."}}, {"type": "node", "id": 5419986693, "lat": 41.4311951, "lon": 26.5577732, "tags": {"amenity": "pharmacy", "healthcare": "pharmacy"}}, {"type": "node", "id": 5422193588, "lat": 41.5025936, "lon": 26.5324561, "tags": {"amenity": "pharmacy", "healthcare": "pharmacy", "name": "\u0391\u03bb\u03b2\u03b1\u03bd\u03bf\u03cd\u03b4\u03b7"}}, {"type": "node", "id": 5422193592, "lat": 41.5024842, "lon": 26.5322115, "tags": {"amenity": "pharmacy", "healthcare": "pharmacy"}}, {"type": "node", "id": 5423246462, "lat": 41.6457195, "lon": 26.4756939, "tags": {"amenity": "pharmacy", "healthcare": "pharmacy"}}, {"type": "node", "id": 5423371801, "lat": 41.575649, "lon": 26.2268332, "tags": {"amenity": "pharmacy", "healthcare": "pharmacy"}}, {"type": "node", "id": 5772763125, "lat": 41.6727137, "lon": 26.5523277, "tags": {"amenity": "pharmacy", "dispensing": "yes", "healthcare": "pharmacy", "name": "\u00d6zg\u00fcr Eczanesi"}}, {"type": "node", "id": 6191733164, "lat": 41.6770819, "lon": 26.545968, "tags": {"amenity": "pharmacy", "dispensing": "yes", "healthcare": "pharmacy", "name": "Mercan Eczanesi"}}, {"type": "node", "id": 9725254959, "lat": 41.6704124, "lon": 26.5685287, "tags": {"amenity": "pharmacy", "healthcare": "pharmacy", "name": "Tekin Eczanesi", "phone": "+90 284 225 1064"}}, {"type": "node", "id": 9725268391, "lat": 41.6704853, "lon": 26.5685063, "tags": {"amenity": "pharmacy", "healthcare": "pharmacy", "name": "\u00c7ebe Eczanesi", "phone": "+90 284 225 5780"}}, {"type": "node", "id": 10592266439, "lat": 41.4228632, "lon": 26.2271595, "tags": {"amenity": "pharmacy", "name": "Pharmacy - Maria Tsompanoudi", "name:el": "\u03a6\u03b1\u03c1\u03bc\u03b1\u03ba\u03b5\u03af\u03bf - \u039c\u03b1\u03c1\u03af\u03b1 \u03a4\u03c3\u03bf\u03bc\u03c0\u03b1\u03bd\u03bf\u03cd\u03b4\u03b7", "opening_hours": "Mo-Fr 09:00-14:00; Mo,Tu,Th 18:00-21:00", "phone": "+302553051235", "shop": "chemist"}}, {"type": "node", "id": 11517057775, "lat": 41.6670641, "lon": 26.5655805, "tags": {"amenity": "pharmacy", "healthcare": "pharmacy", "name": "Denizim Eczanesi", "phone": "+90 284 214 0008"}}, {"type": "node", "id": 11517057776, "lat": 41.6678339, "lon": 26.5637132, "tags": {"amenity": "pharmacy", "healthcare": "pharmacy", "name": "Edirne Eczanesi", "phone": "+90 284 336 0022"}}, {"type": "node", "id": 11517057777, "lat": 41.6776115, "lon": 26.5663193, "tags": {"addr:street": "K\u0131y\u0131k Caddesi", "amenity": "pharmacy", "healthcare": "pharmacy", "name": "T\u00fclin Eczanesi", "phone": "+90 284 212 0757"}}, {"type": "node", "id": 11517057778, "lat": 41.6747983, "lon": 26.5538184, "tags": {"amenity": "pharmacy", "healthcare": "pharmacy", "name": "Ta\u015fk\u0131ran Eczanesi", "phone": "+90 284 212 0039"}}, {"type": "node", "id": 11517057779, "lat": 41.6753966, "lon": 26.5541151, "tags": {"amenity": "pharmacy", "healthcare": "pharmacy", "name": "Koray Eczanesi", "phone": "+90 284 212 6329"}}, {"type": "node", "id": 11517057780, "lat": 41.6760855, "lon": 26.5566524, "tags": {"amenity": "pharmacy", "healthcare": "pharmacy", "name": "Filiz Eczanesi", "phone": "+90 284 212 4835"}}, {"type": "node", "id": 11517059373, "lat": 41.6764471, "lon": 26.5530488, "tags": {"amenity": "pharmacy", "healthcare": "pharmacy", "name": "G\u00fcven Eczanesi", "phone": "+90 284 225 1543"}}, {"type": "node", "id": 11517059374, "lat": 41.6743019, "lon": 26.5535541, "tags": {"amenity": "pharmacy", "healthcare": "pharmacy", "name": "Mehmet Ay Eczanesi", "phone": "+90 284 225 1503"}}, {"type": "node", "id": 11517059375, "lat": 41.6753741, "lon": 26.5543079, "tags": {"amenity": "pharmacy", "healthcare": "pharmacy", "name": "\u00d6m\u00fcr Eczanesi", "phone": "+90 284 225 2511"}}, {"type": "node", "id": 11517059476, "lat": 41.6783892, "lon": 26.5690972, "tags": {"amenity": "pharmacy", "healthcare": "pharmacy", "name": "K\u0131y\u0131k Eczanesi", "phone": "+90 284 212 0096"}}, {"type": "node", "id": 11517059477, "lat": 41.6545952, "lon": 26.5251105, "tags": {"amenity": "pharmacy", "healthcare": "pharmacy", "name": "\u00c7a\u011flar Eczanesi", "phone": "+90 284 223 0012"}}, {"type": "node", "id": 11517059478, "lat": 41.6762331, "lon": 26.552742, "tags": {"amenity": "pharmacy", "healthcare": "pharmacy", "name": "Ak\u0131n Eczanesi", "phone": "+90 284 212 3906"}}, {"type": "node", "id": 11517059479, "lat": 41.6742207, "lon": 26.5510323, "tags": {"amenity": "pharmacy", "healthcare": "pharmacy", "name": "Pirko Eczanesi", "phone": "+90 284 225 5838"}}, {"type": "node", "id": 11517059480, "lat": 41.6740204, "lon": 26.5516952, "tags": {"amenity": "pharmacy", "healthcare": "pharmacy", "name": "Reyhan Eczanesi", "phone": "+90 284 225 3989"}}, {"type": "node", "id": 11517059481, "lat": 41.6760618, "lon": 26.5563613, "tags": {"amenity": "pharmacy", "healthcare": "pharmacy", "name": "Meri\u00e7 Eczanesi", "phone": "+90 284 212 7961"}}, {"type": "node", "id": 11517059674, "lat": 41.6699886, "lon": 26.5633705, "tags": {"amenity": "pharmacy", "healthcare": "pharmacy", "name": "Hatipo\u011flu Eczanesi", "phone": "+90 284 213 8822"}}, {"type": "node", "id": 11517059675, "lat": 41.6751363, "lon": 26.5542935, "tags": {"amenity": "pharmacy", "healthcare": "pharmacy", "name": "Edirne Cent Eczanesi", "phone": "+90 284 225 2003"}}, {"type": "node", "id": 11517059771, "lat": 41.6880992, "lon": 26.5410703, "tags": {"amenity": "pharmacy", "name": "Varel Eczanesi", "phone": "+90 284 224 5053"}}, {"type": "node", "id": 11517059772, "lat": 41.6729677, "lon": 26.5556157, "tags": {"amenity": "pharmacy", "name": "\u015eahin Eczanesi", "phone": "+90 284 213 3255"}}, {"type": "node", "id": 11517060071, "lat": 41.6783767, "lon": 26.5680715, "tags": {"amenity": "pharmacy", "healthcare": "pharmacy", "name": "Serhat Eczanesi", "phone": "+90 284 213 7849"}}, {"type": "node", "id": 11517060073, "lat": 41.6823824, "lon": 26.5273246, "tags": {"amenity": "pharmacy", "name": "Belgin Eczanesi", "phone": "+90 284 224 5285"}}, {"type": "node", "id": 11517060074, "lat": 41.6790444, "lon": 26.5527848, "tags": {"amenity": "pharmacy", "name": "\u00dclk\u00fc Eczanesi", "phone": "+90 284 212 4596"}}, {"type": "node", "id": 11517060170, "lat": 41.6666732, "lon": 26.571747, "tags": {"amenity": "pharmacy", "healthcare": "pharmacy", "name": "Gizem Birkan Eczanesi", "phone": "+90 284 235 6125"}}, {"type": "node", "id": 11517060369, "lat": 41.6692554, "lon": 26.5680945, "tags": {"amenity": "pharmacy", "name": "\u00c7akbil Eczanesi", "phone": "+90 284 225 3195"}}, {"type": "node", "id": 11517060370, "lat": 41.678454, "lon": 26.5694855, "tags": {"amenity": "pharmacy", "healthcare": "pharmacy", "name": "\u0130ncinur Eczanesi", "phone": "+90 284 225 1435"}}, {"type": "node", "id": 11517060371, "lat": 41.6768238, "lon": 26.5500304, "tags": {"amenity": "pharmacy", "name": "Mercan Eczanesi", "phone": "+90 284 214 7292"}}, {"type": "node", "id": 11517060469, "lat": 41.6767688, "lon": 26.549685, "tags": {"amenity": "pharmacy", "name": "Ayta\u00e7 Eczanesi", "phone": "+90 284 212 2424"}}, {"type": "node", "id": 11517060470, "lat": 41.6769754, "lon": 26.5511375, "tags": {"amenity": "pharmacy", "name": "\u015eifa Eczanesi", "phone": "+90 284 225 4636"}}, {"type": "node", "id": 11517060471, "lat": 41.6766456, "lon": 26.5516437, "tags": {"amenity": "pharmacy", "name": "\u00c7ar\u015f\u0131 Eczanesi", "phone": "+90 284 214 1422"}}, {"type": "node", "id": 11517060472, "lat": 41.6740435, "lon": 26.551371, "tags": {"amenity": "pharmacy", "healthcare": "pharmacy", "name": "Sancakl\u0131 Eczanesi", "phone": "+90 284 212 0346"}}, {"type": "node", "id": 11517077969, "lat": 41.6756341, "lon": 26.558481, "tags": {"amenity": "pharmacy", "healthcare": "pharmacy", "name": "Trakya Eczanesi", "phone": "+90 284 212 1328"}}, {"type": "node", "id": 11517077970, "lat": 41.6752151, "lon": 26.5611269, "tags": {"amenity": "pharmacy", "healthcare": "pharmacy", "name": "Murat Eczanesi", "phone": "+90 284 212 3252"}}, {"type": "node", "id": 11517077971, "lat": 41.6747279, "lon": 26.5619371, "tags": {"amenity": "pharmacy", "healthcare": "pharmacy", "name": "Sa\u011fl\u0131k Eczanesi", "phone": "+90 284 225 2504"}}, {"type": "node", "id": 11517078069, "lat": 41.6750782, "lon": 26.5613342, "tags": {"amenity": "pharmacy", "healthcare": "pharmacy", "name": "Kaya Eczanesi", "phone": "+90 284 213 7759"}}, {"type": "node", "id": 11517078169, "lat": 41.6748697, "lon": 26.5616223, "tags": {"amenity": "pharmacy", "name": "Korkut Eczanesi", "phone": "+90 284 225 5999"}}, {"type": "node", "id": 11517078170, "lat": 41.6745316, "lon": 26.5622786, "tags": {"amenity": "pharmacy", "healthcare": "pharmacy", "name": "Deniz Eczanesi", "phone": "+90 284 213 1406"}}, {"type": "node", "id": 11517078269, "lat": 41.6743859, "lon": 26.5625959, "tags": {"amenity": "pharmacy", "healthcare": "pharmacy", "name": "Ya\u015fam Eczanesi", "phone": "+90 284 213 3999"}}, {"type": "node", "id": 12097672629, "lat": 41.5922748, "lon": 26.3122934, "tags": {"amenity": "pharmacy"}}]}