{"version": 0.6, "generator": "Overpass API 0.7.62.8 e802775f", "osm3s": {"timestamp_osm_base": "2025-10-06T08:01:45Z", "copyright": "The data included in this document is from www.openstreetmap.org. The data is made available under ODbL."}, "elements": [{"type": "node", "id": 351952989, "lat": 49.8313476, "lon": 18.1787747, "tags": {"amenity": "pharmacy", "brand": "EUC", "brand:wikidata": "Q67809873", "brand:wikipedia": "cs:EUC", "contact:email": "lekarna.ostrava@eucklinika.cz", "contact:phone": "+420 597 437 650", "contact:website": "https://euc.cz/nase-zarizeni/lekarny/", "healthcare": "pharmacy", "name": "EUC", "opening_hours": "Mo-Th 07:00-17:00; Fr 07:00-15:00", "ref": "91970666000", "ref:SUKL": "91970666000"}}, {"type": "node", "id": 354880656, "lat": 49.5954017, "lon": 18.1456844, "tags": {"amenity": "pharmacy", "contact:email": "lekopr@tiscali.cz", "contact:phone": "+420 556 813 320", "contact:website": "http://www.mojelekarna.cz", "dispensing": "no", "healthcare": "pharmacy", "name": "Na poliklinice", "opening_hours": "Mo-Fr 07:00-17:00", "ref": "88995031000"}}, {"type": "node", "id": 358946714, "lat": 49.5982985, "lon": 18.1457763, "tags": {"amenity": "pharmacy", "brand": "Dr. Max", "brand:wikidata": "Q56317371", "brand:wikipedia": "fr:Dr.Max", "contact:email": "lek550@drmax.cz", "contact:phone": "+420 703 458 509", "contact:website": "https://lekarny.drmax.cz/lekarny/koprivnice-stefanikova-1157-9/", "healthcare": "pharmacy", "name": "Dr. Max", "opening_hours": "Mo-Fr 08:00-17:00", "ref": "88995121000", "wheelchair": "yes"}}, {"type": "node", "id": 365576854, "lat": 49.7782609, "lon": 18.2210821, "tags": {"amenity": "pharmacy", "contact:email": "slurp@volny.cz", "contact:phone": "+420 596 747 066", "dispensing": "no", "name": "L\u00e9k\u00e1rna Terapeut", "opening_hours": "Mo-Th 07:00-18:00; Fr 07:00-15:00; PH closed"}}, {"type": "node", "id": 370024808, "lat": 49.8272855, "lon": 18.1721233, "tags": {"amenity": "pharmacy", "contact:email": "vevezickach@seznam.cz", "contact:phone": "+420 596 993 271", "healthcare": "pharmacy", "name": "L\u00e9k\u00e1rna Ve v\u011b\u017ei\u010dk\u00e1ch", "opening_hours": "Mo-Fr 08:00-17:00; Sa 08:00-11:00", "ref:SUKL": "91548000001"}}, {"type": "node", "id": 370177112, "lat": 49.8298689, "lon": 18.1841445, "tags": {"amenity": "pharmacy", "contact:email": "apromed@cmail.cz", "contact:phone": "+420 596 915 001", "contact:website": "http://www.apromed.cz", "dispensing": "no", "healthcare": "pharmacy", "name": "Apromed L\u00e9k\u00e1rna", "opening_hours": "Mo-Th 07:00-17:00; Fr 07:00-15:00"}}, {"type": "node", "id": 372540370, "lat": 49.7812669, "lon": 18.274582, "tags": {"addr:housenumber": "27", "addr:street": "P\u0159\u00edborsk\u00e1", "amenity": "pharmacy", "contact:email": "lek.nasidlovci@seznam.cz", "contact:phone": "+420 596 734 175", "contact:website": "http://lekarna-nasidlovci.wz.cz/", "dispensing": "no", "healthcare": "pharmacy", "name": "L\u00e9k\u00e1rna Na \u0160\u00eddlovci", "opening_hours": "Mo-Fr 07:30-13:00, 13:30-15:30"}}, {"type": "node", "id": 388284310, "lat": 49.7858985, "lon": 18.3717728, "tags": {"amenity": "pharmacy", "contact:email": "lsenovska@volny.cz", "contact:phone": "+420 596 887 307", "healthcare": "pharmacy", "name": "\u0160enovsk\u00e1 l\u00e9k\u00e1rna", "opening_hours": "Mo,We,Th 07:30-16:00; Tu 07:30-17:00; Fr 07:30-15:00", "ref:SUKL": "00207970015"}}, {"type": "node", "id": 415346756, "lat": 49.5464128, "lon": 18.2128889}, {"type": "node", "id": 415346757, "lat": 49.5464581, "lon": 18.2128099}, {"type": "node", "id": 415346758, "lat": 49.5464067, "lon": 18.2127398}, {"type": "node", "id": 418712362, "lat": 49.8320634, "lon": 18.1769376, "tags": {"amenity": "pharmacy", "brand": "Dr. Max", "brand:wikidata": "Q56317371", "brand:wikipedia": "fr:Dr.Max", "contact:email": "lek524@drmax.cz", "contact:phone": "+420 225 574 524", "contact:website": "https://www.drmax.cz/lekarny/ostrava-poruba-opavska-6117-51", "healthcare": "pharmacy", "name": "Dr. Max", "opening_hours": "Mo-Fr 07:00-17:00", "ref:SUKL": "91521000003"}}, {"type": "node", "id": 503884165, "lat": 49.8668104, "lon": 18.3771091, "tags": {"amenity": "pharmacy", "contact:email": "sano.rychvald@mojelekarna.cz", "contact:phone": "+420 606 034 033", "contact:website": "https://www.mojelekarna.cz", "healthcare": "pharmacy", "name": "Sano", "opening_hours": "Mo-Th 07:30-16:30; Fr 07:30-15:00", "ref:SUKL": "87314200001"}}, {"type": "node", "id": 567183850, "lat": 49.9604778, "lon": 18.3917679, "tags": {"amenity": "pharmacy", "healthcare": "pharmacy", "name": "Apteka"}}, {"type": "node", "id": 608652859, "lat": 49.6754192, "lon": 18.3429091, "tags": {"amenity": "pharmacy", "healthcare": "pharmacy", "name": "L\u00e9k\u00e1rna Viola", "wheelchair": "yes"}}, {"type": "node", "id": 608652860, "lat": 49.6772825, "lon": 18.3423933, "tags": {"amenity": "pharmacy", "healthcare": "pharmacy", "name": "L\u00e9k\u00e1rna U polikliniky", "opening_hours": "Mo-Th 07:00-18:00; Fr 07:00-17:00; Sa 07:30-12:00", "operator": "Pharmax s. r. o."}}, {"type": "node", "id": 810996635, "lat": 49.680303, "lon": 18.6693321, "tags": {"alt_name": "Benu", "amenity": "pharmacy", "brand": "Benu", "brand:wikidata": "Q62562792", "contact:email": "jana.kajzarova@trilek.cz", "contact:phone": "+420 558 337 002", "contact:website": "https://www.lekarna-oaza.cz", "dispensing": "yes", "healthcare": "pharmacy", "name": "Benu", "opening_hours": "Mo-Fr 07:00-16:00", "ref:SUKL": "86307000000"}}, {"type": "node", "id": 810996639, "lat": 49.6691298, "lon": 18.6788462, "tags": {"amenity": "pharmacy", "contact:email": "potyszova@volny.cz", "contact:phone": "+420 558 333 598", "dispensing": "yes", "healthcare": "pharmacy", "name": "L\u00e9k\u00e1rna Pod Podloub\u00edm", "opening_hours": "Mo-Fr 07:00-18:00; Sa 08:00-12:00; PH closed", "operator": "Alpehga", "ref:SUKL": "86318000000"}}, {"type": "node", "id": 904323317, "lat": 49.7895409, "lon": 18.2265526, "tags": {"amenity": "pharmacy", "brand": "Benu", "brand:wikidata": "Q62562792", "contact:email": "ostrava.vyskovicka@benu.cz", "contact:phone": "+420 731 638 087", "contact:website": "https://www.benu.cz/lekarna-benu-ostrava-vyskovicka-kotva", "healthcare": "pharmacy", "name": "Benu", "opening_hours": "Mo-Fr 07:30-18:00; Sa 08:00-12:00", "wheelchair": "yes"}}, {"type": "node", "id": 915423766, "lat": 49.6825711, "lon": 18.6508468, "tags": {"amenity": "pharmacy", "dispensing": "yes", "healthcare": "pharmacy", "name": "L\u00e9k\u00e1rna Na Kanad\u011b"}}, {"type": "node", "id": 920033928, "lat": 49.8968988, "lon": 18.1863417, "tags": {"amenity": "pharmacy", "healthcare": "pharmacy", "name": "L\u00e9k\u00e1rna U hradeb"}}, {"type": "node", "id": 920037477, "lat": 49.8998524, "lon": 18.1868947, "tags": {"amenity": "pharmacy", "brand": "Benu", "brand:wikidata": "Q62562792", "drive_through": "no", "healthcare": "pharmacy", "name": "Benu", "opening_hours": "Mo-Fr 07:30-17:00", "operator": "Benu"}}, {"type": "node", "id": 925523317, "lat": 49.8498879, "lon": 18.2727416, "tags": {"amenity": "pharmacy", "contact:email": "lekarnaumadony@iol.cz", "contact:phone": "+420 596 136 542", "contact:website": "http://www.lekarna-u-madony.cz", "healthcare": "pharmacy", "name": "U Madony", "opening_hours": "Mo-Fr 07:00-18:00; PH closed"}}, {"type": "node", "id": 977638168, "lat": 49.683448, "lon": 18.3549855, "tags": {"amenity": "pharmacy", "dispensing": "yes", "healthcare": "pharmacy", "name": "L\u00e9k\u00e1rna Krevn\u00edho centra", "opening_hours": "Mo-Fr 06:30-17:00"}}, {"type": "node", "id": 979495131, "lat": 49.6796592, "lon": 18.3615587, "tags": {"amenity": "pharmacy", "healthcare": "pharmacy"}}, {"type": "node", "id": 1043633759, "lat": 49.6699289, "lon": 18.6756965, "tags": {"amenity": "pharmacy", "brand": "Dr. Max", "brand:wikidata": "Q56317371", "brand:wikipedia": "fr:Dr.Max", "contact:email": "trinec2@drmax.cz", "contact:phone": "+420 225 574 254", "contact:website": "https://www.drmax.cz/", "healthcare": "pharmacy", "name": "Dr. Max", "opening_hours": "Mo-Su 08:00-20:00", "ref:SUKL": "86375000000"}}, {"type": "node", "id": 1079044850, "lat": 49.917404, "lon": 18.485261}, {"type": "node", "id": 1079044852, "lat": 49.917377, "lon": 18.485317}, {"type": "node", "id": 1079044854, "lat": 49.917447, "lon": 18.4854}, {"type": "node", "id": 1079044856, "lat": 49.917474, "lon": 18.485344}, {"type": "node", "id": 1189451162, "lat": 49.7501355, "lon": 18.6350779, "tags": {"addr:city": "Cieszyn", "addr:housenumber": "1", "addr:postcode": "43-400", "addr:street": "Plac ks. J\u00f3zefa Londzina", "amenity": "pharmacy", "dispensing": "yes", "healthcare": "pharmacy", "name": "U Mi\u0142osiernych", "ref:csioz": "1059883"}}, {"type": "node", "id": 1189451182, "lat": 49.748909, "lon": 18.6328575, "tags": {"addr:city": "Cieszyn", "addr:housenumber": "6", "addr:postcode": "43-400", "addr:street": "Rynek", "amenity": "pharmacy", "dispensing": "yes", "healthcare": "pharmacy", "name": "Dr. Max", "ref:csioz": "1059894"}}, {"type": "node", "id": 1301945031, "lat": 49.8638551, "lon": 18.5564921, "tags": {"addr:postcode": "73301", "addr:street": "\u017di\u017ekova", "amenity": "pharmacy", "name": "Avicena", "source": "Survey"}}, {"type": "node", "id": 1373990765, "lat": 49.5463567, "lon": 18.2128269}, {"type": "node", "id": 1584640113, "lat": 49.6741694, "lon": 18.4142254, "tags": {"amenity": "pharmacy", "contact:email": "lekarnazdravi@lekarna-hit.cz", "contact:phone": "+420 558 641 392", "healthcare": "pharmacy", "name": "L\u00e9k\u00e1rna", "opening_hours": "Mo-Fr 07:30-17:00; Sa 08:00-11:00", "ref:SUKL": "86303000000", "website": "https://www.lekarna-hit.cz/"}}, {"type": "node", "id": 1587252416, "lat": 49.546927, "lon": 18.2121074, "tags": {"amenity": "pharmacy", "contact:email": "lekarna.javornik@azlekarna.cz", "contact:phone": "+420 731 560 228", "contact:website": "https://www.azlekarna.cz/", "dispensing": "yes", "healthcare": "pharmacy", "name": "L\u00e9k\u00e1rna Javorn\u00edk", "opening_hours": "Mo-Fr 07:30-17:00; Sa 08:00-12:00", "ref:SUKL": "88995007002"}}, {"type": "node", "id": 1587252840, "lat": 49.5463793, "lon": 18.2128599, "tags": {"entrance": "main"}}, {"type": "node", "id": 1723626178, "lat": 49.8629083, "lon": 18.5536239, "tags": {"amenity": "pharmacy", "dispensing": "yes", "name": "Dr.Max", "opening_hours": "Mo-Su 08:00-20:00"}}, {"type": "node", "id": 1918559332, "lat": 49.8653051, "lon": 18.55364, "tags": {"amenity": "pharmacy", "dispensing": "yes", "name": "L\u00e9karna Galenica"}}, {"type": "node", "id": 1978507135, "lat": 49.7921137, "lon": 18.238827, "tags": {"amenity": "pharmacy", "contact:email": "jberkova@volny.cz", "contact:phone": "+420 725 973 322", "dispensing": "yes", "healthcare": "pharmacy", "name": "Ambra", "opening_hours": "Mo-Fr 07:00-17:00; Sa 07:00-11:00"}}, {"type": "node", "id": 2097615335, "lat": 49.6771459, "lon": 18.3407025, "tags": {"amenity": "pharmacy", "dispensing": "yes", "healthcare": "pharmacy", "name": "Sagena"}}, {"type": "node", "id": 2100216750, "lat": 49.6780005, "lon": 18.3692112, "tags": {"amenity": "pharmacy", "brand": "Dr. Max", "brand:wikidata": "Q56317371", "dispensing": "yes", "email": "frydek3@drmax.cz", "healthcare": "pharmacy", "name": "Dr. Max", "opening_hours": "Mo-Su 08:00-20:00", "operator": "Dr.Max", "website": "https://www.drmax.cz/lekarny/frydek-mistek-hlavni-trida", "wheelchair": "yes"}}, {"type": "node", "id": 2125311926, "lat": 49.9720536, "lon": 18.4361242, "tags": {"amenity": "pharmacy", "healthcare": "pharmacy", "name": "\u015awiat Zdrowia", "ref:csioz": "1073494"}}, {"type": "node", "id": 2139260240, "lat": 49.6786404, "lon": 18.3404027, "tags": {"amenity": "pharmacy", "dispensing": "yes", "healthcare": "pharmacy", "name": "AZ l\u00e9k\u00e1rna"}}, {"type": "node", "id": 2148684789, "lat": 49.6199147, "lon": 18.4721384, "tags": {"amenity": "pharmacy", "contact:email": "lekarna.raskovice@iex.cz", "contact:phone": "+420 558 692 303", "dispensing": "yes", "fixme": "ov\u011b\u0159it v\u00fddej l\u00e9ku na recept (na e-recept l\u00e9ky nevyd\u00e1v\u00e1)", "healthcare": "pharmacy", "name": "L\u00e9k\u00e1rna Zdrav\u00ed", "opening_hours": "Mo 07:30-15:30; Tu 07:30-17:00; We 07:30-16:30; Th 07:30-13:30; Fr 07:30-15:00", "ref:SUKL": "86329100000", "website": "https://www.lekarna-hit.cz/"}}, {"type": "node", "id": 2283114223, "lat": 49.9826024, "lon": 18.4091602, "tags": {"amenity": "pharmacy", "healthcare": "pharmacy", "name": "Punkt Apteczny", "opening_hours": "Mo-Fr 08:00-16:00; Sa 08:00-12:00", "ref:csioz": "1072625"}}, {"type": "node", "id": 2296931944, "lat": 49.8992976, "lon": 18.3503881, "tags": {"addr:housename": "Kaufland", "addr:housenumber": "1197", "addr:postcode": "73581", "addr:street": "9. kv\u011btna", "amenity": "pharmacy", "brand": "Benu", "brand:wikidata": "Q62562792", "contact:email": "bohumin.ockaufland@benu.cz", "contact:phone": "+420 731 638 189", "contact:website": "https://www.benu.cz", "healthcare": "pharmacy", "name": "Benu", "opening_hours": "Mo-Su 08:00-20:00", "ref:SUKL": "200009441"}}, {"type": "node", "id": 2322196950, "lat": 49.690782, "lon": 18.3541587, "tags": {"amenity": "pharmacy", "dispensing": "no", "healthcare": "pharmacy", "noname": "yes", "opening_hours": "Mo-Fr 07:00-17:00"}}, {"type": "node", "id": 2326161533, "lat": 49.7847785, "lon": 18.4367332, "tags": {"amenity": "pharmacy", "contact:email": "lekarnaunemocnicehavirov@seznam.cz", "contact:phone": "+420 596 811 270", "healthcare": "pharmacy", "name": "L\u00e9k\u00e1rna u nemocnice", "opening_hours": "Mo-Fr 07:00-18:00", "ref:SUKL": "87347200001"}}, {"type": "node", "id": 2326185179, "lat": 49.777329, "lon": 18.44244, "tags": {"amenity": "pharmacy", "contact:email": "ueliskyhavirov@gmail.com", "contact:phone": "+420 730 892 104", "contact:website": "https://www.pharmapoint.cz/lekarny/", "healthcare": "pharmacy", "name": "U Eli\u0161ky", "opening_hours": "Mo-Fr 08:00-16:30", "ref:SUKL": "00212971606"}}, {"type": "node", "id": 2326273318, "lat": 49.7768737, "lon": 18.4489428, "tags": {"amenity": "pharmacy", "contact:email": "upermonu@seznam.cz", "contact:phone": "+420 596 411 077", "contact:website": "https://upermonu.cz/", "healthcare": "pharmacy", "name": "L\u00e9k\u00e1rna U Permonu", "opening_hours": "Mo-Fr 07:15-17:30", "ref:SUKL": "87318000000"}}, {"type": "node", "id": 2326302989, "lat": 49.7753275, "lon": 18.4509936, "tags": {"amenity": "pharmacy", "contact:email": "havirov.podlesi@lekarnalemon.cz", "contact:phone": "+420 596 410 540", "contact:website": "https://www.lekarny-lemon.cz/", "healthcare": "pharmacy", "name": "L\u00e9k\u00e1rna Lemon", "opening_hours": "Mo-Fr 08:00-17:00", "ref:SUKL": "201025616"}}, {"type": "node", "id": 2326365783, "lat": 49.9503836, "lon": 18.4912661, "tags": {"amenity": "pharmacy", "healthcare": "pharmacy", "name": "Apteka \u015bwi\u0119tego Micha\u0142a", "ref:csioz": "1068841"}}, {"type": "node", "id": 2341172215, "lat": 49.732195, "lon": 18.6193904, "tags": {"addr:housenumber": "1916/76a", "addr:postcode": "73701", "addr:street": "Jablunkovsk\u00e1", "amenity": "pharmacy", "contact:email": "lekarna@lekarnasvjosefa.cz", "contact:phone": "+420 558 741 923", "contact:website": "http://www.lekarnasvjosefa.cz", "dispensing": "yes", "healthcare": "pharmacy", "name": "L\u00e9k\u00e1rna Sv. Josefa", "opening_hours": "Mo-Fr 07:30-17:00", "ref": "87366000000", "source": "local knowledge"}}, {"type": "node", "id": 2403097921, "lat": 49.814475, "lon": 18.3394133, "tags": {"amenity": "pharmacy", "contact:email": "herbana@lekarna4you.cz", "contact:phone": "+420 596 232 393", "contact:website": "http://www.lekarna4you.cz", "dispensing": "yes", "healthcare": "pharmacy", "level": "-1", "name": "Herbana", "opening_hours": "Mo-Fr 07:00-16:00; We 07:00-18:00"}}, {"type": "node", "id": 2434429876, "lat": 49.8717139, "lon": 18.4252762, "tags": {"amenity": "pharmacy", "brand": "Dr. Max", "brand:wikidata": "Q56317371", "brand:wikipedia": "fr:Dr.Max", "dispensing": "yes", "healthcare": "pharmacy", "name": "Dr. Max", "opening_hours": "Mo-Su 08:00-20:00"}}, {"type": "node", "id": 2449420919, "lat": 49.8292382, "lon": 18.2803344, "tags": {"amenity": "pharmacy", "brand": "Dr. Max", "brand:wikidata": "Q56317371", "brand:wikipedia": "fr:Dr.Max", "contact:email": "ostrava@drmax.cz", "contact:website": "http://www.drmax.cz/lekarny/142-lekarna-dr-max", "healthcare": "pharmacy", "name": "Dr. Max", "opening_hours": "Mo-Su 08:00-20:00"}}, {"type": "node", "id": 2449422633, "lat": 49.8325291, "lon": 18.2872001, "tags": {"amenity": "pharmacy", "brand": "Dr. Max", "brand:wikidata": "Q56317371", "brand:wikipedia": "fr:Dr.Max", "contact:email": "ostrava.28.rijna@drmax.cz", "contact:website": "https://lekarny.drmax.cz/lekarny/ostrava-moravska-ostrava-28-rijna-3348-65/", "dispensing": "yes", "healthcare": "pharmacy", "name": "Dr. Max", "opening_hours": "Mo-Fr 08:00-18:00; PH closed", "payment:cash": "yes", "payment:maestro": "yes", "payment:mastercard": "yes", "payment:visa": "yes", "payment:visa_electron": "yes", "website": "https://www.drmax.cz/lekarny/ostrava-moravska-ostrava-28-rijna-3348-65"}}, {"type": "node", "id": 2462235416, "lat": 49.7957146, "lon": 18.4074174, "tags": {"amenity": "pharmacy", "contact:email": "havirov.kochova@benu.cz", "contact:phone": "+420 703 462 227", "contact:website": "https://www.benu.cz/", "healthcare": "pharmacy", "name": "Benu", "opening_hours": "Mo-Th 07:00-17:00; Fr 07:00-14:00", "ref:SUKL": "00203176588"}}, {"type": "node", "id": 2462236146, "lat": 49.7805832, "lon": 18.4317584, "tags": {"amenity": "pharmacy", "contact:email": "havirov.ocelan@benu.cz", "contact:phone": "+420 731 638 115", "contact:website": "https://www.benu.cz/", "healthcare": "pharmacy", "name": "Benu", "opening_hours": "Mo-Fr 08:00-19:00; Sa 08:00-14:00", "ref:SUKL": "87300300000"}}, {"type": "node", "id": 2503089370, "lat": 49.5898677, "lon": 18.3592037, "tags": {"amenity": "pharmacy", "contact:email": "frydlant@moraviapharm.eu", "contact:phone": "+420 558 431 631;+420 736 610 600", "contact:website": "http://www.moraviapharm.eu/lekarny/lekarna-frydlant", "dispensing": "yes", "healthcare": "pharmacy", "name": "L\u00e9k\u00e1rna Fr\u00fddlant", "opening_hours": "Mo-Sa 07:00-19:00; Su,PH 08:00-19:00", "operator": "MoraviaPharm s.r.o.", "wheelchair": "yes"}}, {"type": "node", "id": 2503089381, "lat": 49.5905692, "lon": 18.3579423, "tags": {"amenity": "pharmacy", "contact:email": "lekarnaremedia@seznam.cz", "contact:phone": "+420 558 677 437", "healthcare": "pharmacy", "name": "L\u00e9k\u00e1rna Remedia", "opening_hours": "Mo-Fr 07:00-17:00;Sa 08:00-12:00"}}, {"type": "node", "id": 2507446689, "lat": 49.5995757, "lon": 18.1422028, "tags": {"amenity": "pharmacy", "contact:email": "lekmedical@stavovska.cz", "contact:phone": "+420 734 265 561", "contact:website": "https://www.mojelekarna.cz/", "healthcare": "pharmacy", "name": "L\u00e9k\u00e1rna Medical", "opening_hours": "Mo-Th 07:00-17:00;Fr 07:00-15:00", "ref": "88995119000"}}, {"type": "node", "id": 2507527647, "lat": 49.6011389, "lon": 18.1475924, "tags": {"amenity": "pharmacy", "brand": "Dr. Max", "brand:wikidata": "Q56317371", "brand:wikipedia": "fr:Dr.Max", "contact:email": "koprivnice@drmax.cz", "contact:phone": "+420 225 574 624", "contact:website": "https://www.drmax.cz/lekarny/koprivnice-stefanikova-58-31", "healthcare": "pharmacy", "name": "Dr. Max", "opening_hours": "Mo-Su 08:00-20:00", "ref:SUKL": "201505716"}}, {"type": "node", "id": 2529443211, "lat": 49.6396193, "lon": 18.1432817, "tags": {"amenity": "pharmacy", "contact:phone": "+420 556 722 801", "dispensing": "yes", "healthcare": "pharmacy", "name": "Apot\u00e9ka", "opening_hours": "Mo-Fr 07:00-17:00", "ref:SUKL": "202224302"}}, {"type": "node", "id": 2549973855, "lat": 49.8366882, "lon": 18.2956776, "tags": {"amenity": "pharmacy", "brand": "Agel", "brand:wikidata": "Q41365932", "contact:email": "lekarna.kostelni@rph.agel.cz", "contact:phone": "+420 727 933 673", "contact:website": "https://lekarna.agel.cz/lekarny/ostrava-kostelni.html", "healthcare": "pharmacy", "name": "Agel", "opening_hours": "Mo,Tu 07:00-17:00; We 07:30-15:30; Th 07:00-16:00; Fr 07:00-15:00; PH off"}}, {"type": "node", "id": 2573066700, "lat": 49.8370642, "lon": 18.2868016, "tags": {"amenity": "pharmacy", "brand": "Agel", "brand:wikidata": "Q41365932", "contact:email": "lekarna.tyrsova@rph.agel.cz", "contact:phone": "+420 727 933 673", "contact:website": "https://lekarna.agel.cz/lekarny/ostrava-tyrsova.html", "dispensing": "yes", "healthcare": "pharmacy", "name": "Agel", "opening_hours": "Mo, We, Th 07:00-17:00; Tu 07:00-16:00; Fr 07:00-15:00; PH off", "wheelchair": "yes"}}, {"type": "node", "id": 2573085919, "lat": 49.8371289, "lon": 18.2899875, "tags": {"amenity": "pharmacy", "contact:email": "lup@lekarna-plus.cz", "contact:phone": "+420 596 138 206", "contact:website": "http://www.lekarna-plus.cz", "healthcare": "pharmacy", "name": "U Po\u0161ty", "opening_hours": "Mo-Th 08:00-18:00; Fr 08:00-17:00"}}, {"type": "node", "id": 2609022727, "lat": 49.8314215, "lon": 18.3894899, "tags": {"amenity": "pharmacy"}}, {"type": "node", "id": 2687317289, "lat": 49.7431188, "lon": 18.6235124, "tags": {"amenity": "pharmacy", "brand": "Benu", "brand:wikidata": "Q62562792", "healthcare": "pharmacy", "name": "Benu"}}, {"type": "node", "id": 2687335133, "lat": 49.7460732, "lon": 18.619169, "tags": {"amenity": "pharmacy", "contact:email": "lharvotova@tiscali.cz", "contact:phone": "+420 605 229 716", "contact:website": "http://www.lekarna-almus.cz", "healthcare": "pharmacy", "name": "Na Ostravsk\u00e9", "opening_hours": "Mo-Fr 07:30-17:00; Sa 08:00-12:00", "ref": "87354000000"}}, {"type": "node", "id": 2687357001, "lat": 49.7463913, "lon": 18.6077374, "tags": {"amenity": "pharmacy", "brand": "Dr. Max", "brand:wikidata": "Q56317371", "brand:wikipedia": "fr:Dr.Max", "healthcare": "pharmacy", "name": "Dr. Max"}}, {"type": "node", "id": 2755073667, "lat": 49.8979958, "lon": 18.3506543, "tags": {"addr:conscriptionnumber": "1227", "addr:housenumber": "1227", "addr:place": "Nov\u00fd Bohum\u00edn", "addr:postcode": "73581", "addr:street": "9. kv\u011btna", "amenity": "pharmacy", "brand": "Dr. Max", "brand:wikidata": "Q56317371", "brand:wikipedia": "fr:Dr.Max", "contact:email": "lek580@drmax.cz", "contact:phone": "+420 225 574 580", "contact:website": "https://www.drmax.cz", "healthcare": "pharmacy", "name": "Dr. Max", "opening_hours": "Mo-Fr 08:00-18:00; Sa 08:00-16:00", "ref:SUKL": "200089180", "ref:ruian:addr": "28280059"}}, {"type": "node", "id": 2828667861, "lat": 49.8282482, "lon": 18.2551823, "tags": {"amenity": "pharmacy", "contact:email": "eva.kupkova@qestor4u.cz", "contact:phone": "+420 596 622 157", "healthcare": "pharmacy", "name": "Angel", "opening_hours": "Mo,We,Th 07:30-17:00; Tu,Fr 07:30-16:00"}}, {"type": "node", "id": 2886604423, "lat": 49.8315424, "lon": 18.2779791, "tags": {"amenity": "pharmacy", "contact:email": "jednorozec@lekarna4you.cz", "contact:phone": "+420 596 612 545", "contact:website": "http://www.lekarna4you.cz", "healthcare": "pharmacy", "name": "U Jednoro\u017ece", "opening_hours": "Mo-Th 07:00-18:00; Fr 07:00-16:30; PH closed", "source": "survey"}}, {"type": "node", "id": 2953502545, "lat": 49.7796502, "lon": 18.1716916, "tags": {"amenity": "pharmacy", "contact:email": "lekarnapolanka@seznam.cz", "contact:phone": "+420 739 393 598", "name": "Polanka", "opening_hours": "Mo-Fr 07:30-15:00"}}, {"type": "node", "id": 2967991481, "lat": 49.9595723, "lon": 18.3961021, "tags": {"addr:city": "Gorzyce", "addr:housenumber": "32", "addr:postcode": "44-350", "addr:street": "Raciborska", "amenity": "pharmacy", "dispensing": "yes", "healthcare": "pharmacy"}}, {"type": "node", "id": 3008765311, "lat": 49.8308179, "lon": 18.285555, "tags": {"amenity": "pharmacy", "brand": "Benu", "brand:wikidata": "Q62562792", "contact:email": "ostrava.novakarolina@benu.cz", "contact:phone": "+420 703 462 266", "contact:website": "https://www.benu.cz/", "healthcare": "pharmacy", "level": "-2", "name": "Benu", "opening_hours": "Mo-Su 09:00-21:00", "ref:SUKL": "202163232"}}, {"type": "node", "id": 3012862525, "lat": 49.7858284, "lon": 18.2589971, "tags": {"amenity": "pharmacy", "contact:email": "libuse.hamuzkova@pho.cz", "contact:phone": "+420 595 703 291", "contact:website": "http://www.pho.cz", "healthcare": "pharmacy", "level": "0", "name": "L\u00e9k\u00e1rna Poliklinika", "opening_hours": "Mo-Fr 07:00-18:00; Sa 08:00-12:00"}}, {"type": "node", "id": 3023848762, "lat": 49.8453914, "lon": 18.2807695, "tags": {"amenity": "pharmacy", "contact:email": "salus@lekarna4you.cz", "contact:phone": "+420 596 122 000", "contact:website": "https://www.lekarny4you.cz/", "healthcare": "pharmacy", "name": "Salus", "opening_hours": "Mo-Fr 07:00-18:00", "ref:SUKL": "91995320000"}}, {"type": "node", "id": 3034791383, "lat": 49.8480698, "lon": 18.1471217, "tags": {"amenity": "pharmacy", "contact:email": "ostrava.opavska@drmax.cz", "contact:website": "http://www.drmax.cz/lekarny/419-lekarna-dr-max-ostrava", "name": "Dr.Max", "opening_hours": "08:00-20:00"}}, {"type": "node", "id": 3163420360, "lat": 49.4603292, "lon": 18.1311724, "tags": {"amenity": "pharmacy", "brand": "Dr. Max", "brand:wikidata": "Q56317371", "contact:email": "roznovpr@drmax.cz", "contact:phone": "+420 571 631 931", "contact:website": "https://lekarny.drmax.cz/lekarny/roznov-pod-radhostem-meziricska-2900/", "dispensing": "yes", "healthcare": "pharmacy", "name": "Dr. Max", "opening_hours": "Mo-Su 08:00-19:00; Mo off", "ref": "94343000000"}}, {"type": "node", "id": 3198915451, "lat": 49.8148244, "lon": 18.2697864, "tags": {"amenity": "pharmacy", "contact:email": "lekarna.vitkovice@rph.agel.cz", "contact:phone": "+420 595 633 290", "contact:website": "https://lekarna.agel.cz/lekarny/ostrava-vitkovice.html", "healthcare": "pharmacy", "name": "Agel", "opening_hours": "Mo-Fr 07:00-16:00"}}, {"type": "node", "id": 3198938253, "lat": 49.8278633, "lon": 18.1613282, "tags": {"amenity": "pharmacy", "contact:email": "petr.basanda@fno.cz", "contact:phone": "+420 597 374 170", "contact:website": "https://www.fno.cz/lekarna", "dispensing": "yes", "healthcare": "pharmacy", "name": "L\u00e9k\u00e1rna FN Ostrava", "opening_hours": "24/7", "ref:SUKL": "91009777000"}}, {"type": "node", "id": 3198938254, "lat": 49.8273864, "lon": 18.1623552, "tags": {"amenity": "pharmacy", "brand": "Dr. Max", "brand:wikidata": "Q56317371", "brand:wikipedia": "fr:Dr.Max", "contact:email": "ostrava.17listopadu@drmax.cz", "contact:phone": "+420 596 920 335", "contact:website": "https://www.drmax.cz/lekarny/ostrava-poruba-17-listopadu-641-22", "healthcare": "pharmacy", "name": "Dr. Max", "opening_hours": "Mo-Fr 08:00-16:00", "ref:SUKL": "91995600002"}}, {"type": "node", "id": 3236022001, "lat": 49.546404, "lon": 18.2128928}, {"type": "node", "id": 3386463126, "lat": 49.7517543, "lon": 18.6372169, "tags": {"addr:city": "Cieszyn", "addr:housenumber": "22", "addr:postcode": "43-400", "addr:street": "Liburnia", "amenity": "pharmacy", "dispensing": "yes", "healthcare": "pharmacy", "name": "Apteka Galen", "opening_hours": "Mo-Fr 08:00-20:00; Sa 08:00-18:00", "ref:csioz": "1059852"}}, {"type": "node", "id": 3437646794, "lat": 49.7498064, "lon": 18.6319106, "tags": {"addr:city": "Cieszyn", "addr:housenumber": "20", "addr:postcode": "43-400", "addr:street": "Mennicza", "amenity": "pharmacy", "dispensing": "yes", "healthcare": "pharmacy", "name": "Hygieia", "opening_hours": "Mo-Fr 08:00-19:00; Sa 08:00-15:00", "ref:csioz": "1212151"}}, {"type": "node", "id": 3437646895, "lat": 49.7518244, "lon": 18.6392925, "tags": {"addr:city": "Cieszyn", "addr:housenumber": "28", "addr:postcode": "43-400", "addr:street": "Liburnia", "amenity": "pharmacy", "brand": "Dr. Max", "brand:wikidata": "Q56317371", "brand:wikipedia": "fr:Dr.Max", "dispensing": "yes", "healthcare": "pharmacy", "name": "Dr. Max", "opening_hours": "Mo-Fr 08:00-21:00; Sa 08:00-20:00; Su 09:00-20:00; PH closed", "ref:csioz": "1177218"}}, {"type": "node", "id": 3437646956, "lat": 49.8040166, "lon": 18.6016411, "tags": {"addr:city": "Pogwizd\u00f3w", "addr:housenumber": "15", "addr:postcode": "43-418", "addr:street": "Katowicka", "amenity": "pharmacy", "dispensing": "yes", "healthcare": "pharmacy", "name": "Medea", "ref:csioz": "1185851"}}, {"type": "node", "id": 3520272947, "lat": 49.6714922, "lon": 18.3298966, "tags": {"amenity": "pharmacy", "brand": "Dr. Max", "brand:wikidata": "Q56317371", "dispensing": "yes", "email": "frydek2@drmax.cz", "healthcare": "pharmacy", "name": "Dr. Max", "opening_hours": "Mo-Su 08:00-20:00", "operator": "Dr.Max", "website": "https://www.drmax.cz/lekarny/frydek-mistek-priborska", "wheelchair": "yes"}}, {"type": "node", "id": 3520272948, "lat": 49.6761772, "lon": 18.3426002, "tags": {"amenity": "pharmacy", "brand": "Dr. Max", "brand:wikidata": "Q56317371", "brand:wikipedia": "fr:Dr.Max", "dispensing": "yes", "email": "frydek.antoninovon@drmax.cz", "healthcare": "pharmacy", "name": "Dr. Max", "opening_hours": "Mo-Fr 07:30-18:00; Sa 08:00-12:00", "operator": "Dr.Max", "website": "https://www.drmax.cz/lekarny/lekarna-dr-max-frydek-mistek", "wheelchair": "yes"}}, {"type": "node", "id": 3520272949, "lat": 49.6874915, "lon": 18.3473222, "tags": {"amenity": "pharmacy", "brand": "Dr. Max", "brand:wikidata": "Q56317371", "dispensing": "yes", "email": "frydek@drmax.cz", "healthcare": "pharmacy", "name": "Dr. Max", "opening_hours": "Mo-Su 08:00-20:00", "operator": "Dr.Max", "website": "https://www.drmax.cz/lekarny/frydek-mistek-revolucni", "wheelchair": "yes"}}, {"type": "node", "id": 3545867975, "lat": 49.7471663, "lon": 18.6342718, "tags": {"addr:city": "Cieszyn", "addr:housenumber": "9", "addr:postcode": "43-400", "addr:street": "Boles\u0142awa Limanowskiego", "amenity": "pharmacy", "dispensing": "yes", "healthcare": "pharmacy", "name": "Medea 2", "ref:csioz": "1059860"}}, {"type": "node", "id": 3577371755, "lat": 49.7511857, "lon": 18.6395036, "tags": {"addr:city": "Cieszyn", "addr:housenumber": "27", "addr:postcode": "43-400", "addr:street": "Bobrecka", "amenity": "pharmacy", "drive_through": "no", "email": "info@aptekaprima24h.pl", "healthcare": "pharmacy", "name": "Apteka Prima 24h", "opening_hours": "24/7", "phone": "+48338582765", "ref:csioz": "1184320", "website": "https://aptekaprima24h.pl/"}}, {"type": "node", "id": 3598027866, "lat": 49.7481287, "lon": 18.6407747}, {"type": "node", "id": 3598027876, "lat": 49.7481856, "lon": 18.6409259}, {"type": "node", "id": 3598027887, "lat": 49.7482771, "lon": 18.6406465}, {"type": "node", "id": 3598027995, "lat": 49.7483317, "lon": 18.6408013}, {"type": "node", "id": 3600360295, "lat": 49.754772, "lon": 18.6258528}, {"type": "node", "id": 3600360296, "lat": 49.7547743, "lon": 18.6258578}, {"type": "node", "id": 3600360304, "lat": 49.7548217, "lon": 18.6257894}, {"type": "node", "id": 3600360306, "lat": 49.7548242, "lon": 18.6257948}, {"type": "node", "id": 3600360308, "lat": 49.7548325, "lon": 18.6259831}, {"type": "node", "id": 3600360314, "lat": 49.7548687, "lon": 18.625737}, {"type": "node", "id": 3600360316, "lat": 49.7548714, "lon": 18.6257428}, {"type": "node", "id": 3600360330, "lat": 49.7549248, "lon": 18.6256833}, {"type": "node", "id": 3600360348, "lat": 49.7549852, "lon": 18.6258132}, {"type": "node", "id": 3823492545, "lat": 49.699242, "lon": 18.2249524, "tags": {"amenity": "pharmacy", "healthcare": "pharmacy", "name": "U matky Bo\u017e\u00ed"}}, {"type": "node", "id": 3825322110, "lat": 49.7005182, "lon": 18.2236922, "tags": {"amenity": "pharmacy", "healthcare": "pharmacy", "name": "U sv. Ji\u0159\u00ed"}}, {"type": "node", "id": 3915540079, "lat": 49.7465133, "lon": 18.639979, "tags": {"addr:city": "Cieszyn", "addr:housenumber": "8", "addr:postcode": "43-400", "addr:street": "Bielska", "amenity": "pharmacy", "dispensing": "yes", "healthcare": "pharmacy", "name": "Apteka Medea", "ref:csioz": "1059772"}}, {"type": "node", "id": 3915540115, "lat": 49.7475475, "lon": 18.6413616, "tags": {"addr:city": "Cieszyn", "addr:housenumber": "20", "addr:postcode": "43-400", "addr:street": "Kolejowa", "amenity": "pharmacy", "brand": "Dbam o Zdrowie", "brand:wikidata": "Q62563833", "dispensing": "yes", "healthcare": "pharmacy", "name": "Dbam o Zdrowie", "ref:csioz": "1059847", "short_name": "DOZ"}}, {"type": "node", "id": 3947873615, "lat": 49.7459867, "lon": 18.6115661, "tags": {"amenity": "pharmacy", "contact:email": "beata.szkutova@rph.agel.cz", "contact:phone": "+420 558 769 343", "contact:website": "https://lekarna.agel.cz/", "healthcare": "pharmacy", "name": "Agel", "opening_hours": "Mo-Th 07:00-16:00; Fr 07:00-15:00", "ref": "87397100000", "source": "survey"}}, {"type": "node", "id": 3949931531, "lat": 49.8565002, "lon": 18.53041, "tags": {"amenity": "pharmacy", "brand": "Dr. Max", "brand:wikidata": "Q56317371", "brand:wikipedia": "fr:Dr.Max", "healthcare": "pharmacy", "name": "Dr. Max", "opening_hours": "Mo-Su 08:00-20:00"}}, {"type": "node", "id": 3953065231, "lat": 49.9489676, "lon": 18.3412789, "tags": {"amenity": "pharmacy", "healthcare": "pharmacy", "name": "Punkt Apteczny"}}, {"type": "node", "id": 3961473690, "lat": 49.8751711, "lon": 18.4366113, "tags": {"amenity": "pharmacy", "brand": "Dr. Max", "brand:wikidata": "Q56317371", "brand:wikipedia": "fr:Dr.Max", "contact:email": "orlova@drmax.cz", "contact:phone": "+420 225 574 166", "contact:website": "https://www.drmax.cz/lekarny/orlova-17-listopadu-1432", "healthcare": "pharmacy", "name": "Dr. Max", "opening_hours": "Mo-Fr 08:00-20:00; Sa,Su 08:00-16:00", "ref:SUKL": "87399000000"}}, {"type": "node", "id": 3961473691, "lat": 49.8759795, "lon": 18.4359182, "tags": {"amenity": "pharmacy", "email": "bartas@nspka.cz", "name": "L\u00e9k\u00e1rna Nemocnice Orlov\u00e1", "official_name": "\u00dastavn\u00ed l\u00e9k\u00e1rna Orlov\u00e1-Lutyn\u011b", "opening_hours": "Mo-Fr 07:00-18:00", "phone": "+420 596 511 929", "ref": "87350000000", "website": "http://www.nspka.cz"}}, {"type": "node", "id": 3966804653, "lat": 49.5915339, "lon": 18.3580734, "tags": {"amenity": "pharmacy", "contact:email": "lekarna.frydlant@rph.agel.cz", "contact:phone": "+420 725 816 473", "contact:website": "https://lekarna.agel.cz/lekarny/frydlant.html", "healthcare": "pharmacy", "name": "Agel", "old_name": "L\u00e9k\u00e1rna Centrum", "opening_hours": "Mo-Fr 07:30-17:30;Sa 07:30-11:30"}}, {"type": "node", "id": 3985319795, "lat": 49.8304512, "lon": 18.1695666, "tags": {"amenity": "pharmacy", "contact:email": "ostrava.alsovonam@benu.cz", "contact:phone": "+420 705 837 314", "contact:website": "https://www.benu.cz", "healthcare": "pharmacy", "name": "Benu", "opening_hours": "Mo-Fr 08:00-18:00", "ref:SUKL": "00212589562"}}, {"type": "node", "id": 3985355569, "lat": 49.8292153, "lon": 18.1727238, "tags": {"amenity": "pharmacy", "contact:email": "poruba@ipcnet.cz", "contact:phone": "+420 596 639 479", "contact:website": "http://www.ipcgroup.cz", "dispensing": "yes", "healthcare": "pharmacy", "name": "L\u00e9k\u00e1rna IPC", "opening_hours": "Mo-Fr 07:30-17:00; PH off", "ref:SUKL": "91995290001"}}, {"type": "node", "id": 4023805143, "lat": 49.8359952, "lon": 18.2488071, "tags": {"amenity": "pharmacy", "brand": "Dr. Max", "brand:wikidata": "Q56317371", "contact:email": "marhory@drmax.cz", "contact:phone": "+420596614809", "contact:website": "https://www.drmax.cz/lekarny/ostrava-marianske-hory-grmelova", "healthcare": "pharmacy", "name": "Dr. Max", "opening_hours": "Mo-Sa 07:00-20:00; Su 08:00-20:00"}}, {"type": "node", "id": 4054465689, "lat": 49.8265841, "lon": 18.2466164, "tags": {"amenity": "pharmacy", "contact:email": "lekarnamariana@seznam.cz", "contact:phone": "+420596627114", "contact:website": "http://mariana.sluzby.cz", "healthcare": "pharmacy", "name": "L\u00e9k\u00e1rna Mariana", "opening_hours": "Mo-Fr 07:30-16:00"}}, {"type": "node", "id": 4095604588, "lat": 49.6807141, "lon": 18.5412434, "tags": {"amenity": "pharmacy", "healthcare": "pharmacy", "name": "L\u00e9k\u00e1rna Mgr. Jana Zielonkov\u00e1"}}, {"type": "node", "id": 4228894595, "lat": 49.9252862, "lon": 18.3178772, "tags": {"addr:housenumber": "2", "addr:postcode": "47-460", "addr:street": "Bogumi\u0144ska", "amenity": "pharmacy", "healthcare": "pharmacy", "name": "Punkt Apteczny PIGU\u0141KA", "opening_hours": "Mo-Tu, Th-Fr 09:30-15:00; We 09:30-17:00; Sa 09:30-12:30", "phone": "+48324193255"}}, {"type": "node", "id": 4549439539, "lat": 49.6696461, "lon": 18.6831332, "tags": {"addr:city": "T\u0159inec", "addr:country": "CZ", "addr:housenumber": "1357", "addr:place": "Ly\u017ebice", "addr:postcode": "73961", "addr:street": "Za Trat\u00ed", "amenity": "pharmacy", "brand": "Benu", "brand:wikidata": "Q62562792", "contact:email": "trinec.ockaufland@benu.cz", "contact:phone": "+420 731 638 175", "contact:website": "https://www.benu.cz/", "dispensing": "yes", "healthcare": "pharmacy", "name": "Benu", "opening_hours": "Mo-Fr 07:30-20:00; Sa,Su 08:00-20:00", "operator": "BENU \u010cesk\u00e1 republika a.s.", "payment:cash": "yes", "payment:maestro": "yes", "payment:mastercard": "yes", "payment:visa": "yes", "payment:visa_electron": "yes", "ref:SUKL": "86386000000", "website": "https://www.benu.cz/trinec-oc-kaufland"}}, {"type": "node", "id": 4560010072, "lat": 49.7701096, "lon": 18.4476493, "tags": {"amenity": "pharmacy", "brand": "Dr. Max", "brand:wikidata": "Q56317371", "brand:wikipedia": "fr:Dr.Max", "check_date:opening_hours": "2024-05-16", "contact:email": "havirov.ustadionu@drmax.cz", "contact:phone": "+420 225 574 393", "contact:website": "https://www.drmax.cz/", "healthcare": "pharmacy", "name": "Dr. Max", "opening_hours": "Mo-Su 08:00-20:00", "ref:SUKL": "87359000000", "wheelchair": "yes"}}, {"type": "node", "id": 4578037300, "lat": 49.7520388, "lon": 18.4836659, "tags": {"amenity": "pharmacy", "contact:email": "lek.terlicko@seznam.cz", "contact:phone": "+420 596 423 545", "healthcare": "pharmacy", "name": "U Zlat\u00fdch vah", "opening_hours": "Mo-Fr 07:45-16:15", "ref:SUKL": "00212965491"}}, {"type": "node", "id": 4593389270, "lat": 49.8361997, "lon": 18.2928129, "tags": {"amenity": "pharmacy", "brand": "Dr. Max", "brand:wikidata": "Q56317371", "brand:wikipedia": "fr:Dr.Max", "contact:email": "lek297@drmax.cz", "contact:facebook": "https://www.facebook.com/lekarnadrmax", "contact:phone": "+420596113044", "contact:website": "https://www.drmax.cz/lekarny/ostrava-masarykovo-namesti-3090-15", "dispensing": "yes", "healthcare": "pharmacy", "level": "0", "name": "Dr. Max", "opening_hours": "Mo-Fr 09:00-19:00; Sa 09:00-13:00", "source": "survey"}}, {"type": "node", "id": 4732637091, "lat": 49.7428779, "lon": 18.6211692, "tags": {"amenity": "pharmacy", "brand": "Dr. Max", "brand:wikidata": "Q56317371", "brand:wikipedia": "fr:Dr.Max", "contact:email": "ceskytesin.jablunkovska@drmax.cz", "contact:phone": "+420 558 639 986", "contact:website": "https://www.drmax.cz/lekarny/cesky-tesin-jablunkovska-1935-10", "healthcare": "pharmacy", "name": "Dr. Max", "opening_hours": "Mo-Fr 08:00-18:00; Sa 08:00-12:00; PH closed", "ref": "87381200000"}}, {"type": "node", "id": 4743724373, "lat": 49.8989093, "lon": 18.0918074, "tags": {"amenity": "pharmacy", "name": "L\u00e9k\u00e1rna H\u00e1j ve Slezsku", "phone": "+420 553 773 131"}}, {"type": "node", "id": 4800653122, "lat": 49.8913041, "lon": 18.2399704, "tags": {"amenity": "pharmacy", "contact:email": "ludgerovice.markvartovicka@lekarnalemon.cz", "contact:phone": "+420 722 925 284", "contact:website": "https://www.lekarny-lemon.cz/", "healthcare": "pharmacy", "name": "Lemon", "opening_hours": "Mo-Fr 07:30-16:00", "ref:SUKL": "00200845168"}}, {"type": "node", "id": 4811388588, "lat": 49.8456439, "lon": 18.2861611, "tags": {"amenity": "pharmacy", "brand": "Benu", "brand:wikidata": "Q62562792", "contact:email": "ostrava.sokolska@benu.cz", "contact:phone": "+420 731 638 144", "contact:website": "https://www.benu.cz/lekarna-benu-ostrava-sokolska", "healthcare": "pharmacy", "name": "Benu", "opening_hours": "Mo-Fr 07:00-17:00", "ref:SUKL": "91995521000"}}, {"type": "node", "id": 4811388590, "lat": 49.8426469, "lon": 18.2887601, "tags": {"amenity": "pharmacy", "contact:email": "ostrava.sokolska@lekarnalemon.cz", "contact:phone": "+420 597 349 203", "contact:website": "https://www.lekarnalemon.cz/", "dispensing": "yes", "drive_through": "no", "healthcare": "pharmacy", "name": "Lemon", "opening_hours": "Mo-Th 07:00-17:00; Fr 07:00-15:00", "ref:SUKL": "00203554276"}}, {"type": "node", "id": 5086793088, "lat": 49.8286237, "lon": 18.2634187, "tags": {"amenity": "pharmacy", "contact:email": "magnolia2@outlook.cz", "contact:phone": "+420 591 134 324", "contact:website": "https://www.lekarna-magnolia.cz", "healthcare": "pharmacy", "name": "Magnolia", "opening_hours": "Mo-Fr 07:30-17:00"}}, {"type": "node", "id": 5179472958, "lat": 49.7914691, "lon": 18.4412861, "tags": {"amenity": "pharmacy", "brand": "Dr. Max", "brand:wikidata": "Q56317371", "brand:wikipedia": "fr:Dr.Max", "check_date:opening_hours": "2021-11-06", "contact:email": "havirov.uskleniku@drmax.cz", "contact:phone": "+420 225 574 436", "contact:website": "https://www.drmax.cz/", "dispensing": "yes", "healthcare": "pharmacy", "name": "Dr. Max", "opening_hours": "Mo-Su 08:00-20:00", "ref:SUKL": "87398000000"}}, {"type": "node", "id": 5240015781, "lat": 49.8274151, "lon": 18.2015455, "tags": {"amenity": "pharmacy", "brand": "Dr. Max", "brand:wikidata": "Q56317371", "brand:wikipedia": "fr:Dr.Max", "contact:email": "ostrava.sjizdna@drmax.cz", "contact:facebook": "https://www.facebook.com/lekarnadrmax", "contact:phone": "+420 596 941 311", "contact:website": "https://www.drmax.cz/lekarny/ostrava-sjizdna-5554-2", "dispensing": "yes", "healthcare": "pharmacy", "level": "0", "name": "Dr. Max", "opening_hours": "Mo-Sa 08:00-20:00; Su 09:00-20:00", "source": "survey"}}, {"type": "node", "id": 5262153794, "lat": 49.680777, "lon": 18.3481577, "tags": {"amenity": "pharmacy", "brand": "Benu", "brand:wikidata": "Q62562792", "healthcare": "pharmacy", "level": "1", "name": "Benu", "opening_hours": "09:00-20:00", "website": "https://www.benu.cz/frydek-mistek-oc-fryda"}}, {"type": "node", "id": 5375720721, "lat": 49.8957873, "lon": 18.1960242, "tags": {"amenity": "pharmacy", "name": "L\u00e9k\u00e1rna rovniny"}}, {"type": "node", "id": 5414541674, "lat": 49.6400103, "lon": 18.1413564, "tags": {"amenity": "pharmacy", "brand": "Dr. Max", "brand:wikidata": "Q56317371", "brand:wikipedia": "fr:Dr.Max", "contact:email": "LEK518@drmax.cz", "contact:phone": "+420 703 458 511", "contact:website": "https://lekarny.drmax.cz/lekarny/pribor-jicinska-1524", "dispensing": "yes", "healthcare": "pharmacy", "name": "Dr. Max", "opening_hours": "Mo-Fr 07:30-17:00; Sa 08:00-11:00", "ref": "88995122000", "smoking": "no"}}, {"type": "node", "id": 5614159741, "lat": 49.5838016, "lon": 18.3598267, "tags": {"amenity": "pharmacy", "brand": "Dr. Max", "brand:wikidata": "Q56317371", "brand:wikipedia": "fr:Dr.Max", "contact:email": "frydlant@drmax.cz", "contact:phone": "+420 558 435 843", "contact:website": "https://lekarny.drmax.cz/lekarny/frydlant-nad-ostravici-hlavni-1713", "dispensing": "yes", "healthcare": "pharmacy", "name": "Dr. Max", "opening_hours": "Mo-Fr 07:30-18:00; Sa 07:30-12:00", "payment:cash": "yes", "payment:maestro": "yes", "payment:mastercard": "yes", "payment:visa": "yes", "payment:visa_debit": "yes", "payment:visa_electron": "yes", "ref": "86368000000", "wheelchair": "yes"}}, {"type": "node", "id": 5673605288, "lat": 49.7546414, "lon": 18.3700687, "tags": {"amenity": "pharmacy", "contact:email": "evapetrasova@seznam.cz", "contact:phone": "+420 596 828 670", "healthcare": "pharmacy", "name": "Mich\u00e1lkovick\u00e1", "opening_hours": "Mo,Tu,Th 12:30-17:00; We 08:00-12:30; Fr 08:00-12:00", "ref:SUKL": "200635787"}}, {"type": "node", "id": 6141061648, "lat": 49.7324929, "lon": 18.2910696, "tags": {"amenity": "pharmacy", "contact:email": "vavri-nec@volny.cz", "contact:phone": "+420 558 671 052", "contact:website": "http://www.lekarna-hit.cz/", "dispensing": "yes", "healthcare": "pharmacy", "name": "U sv. Vav\u0159ince", "opening_hours": "Mo-Th 07:30-17:00; Fr 07:30-16:00; Sa 08:00-11:00", "ref:SUKL": "86356000000"}}, {"type": "node", "id": 6464499059, "lat": 49.7779853, "lon": 18.4334143, "tags": {"addr:city": "Hav\u00ed\u0159ov", "addr:housenumber": "273/12", "addr:postcode": "73601", "addr:street": "N\u00e1rodn\u00ed t\u0159\u00edda", "amenity": "pharmacy", "contact:email": "lekarnanarodni@seznam.cz", "contact:phone": "+420 596 811 115", "contact:website": "https://nanarodni.cz/", "dispensing": "yes", "healthcare": "pharmacy", "name": "L\u00e9k\u00e1rna Na N\u00e1rodn\u00ed", "opening_hours": "Mo-Fr 08:00-12:00,12:30-16:30", "operator": "L\u00e9k\u00e1rna Quercus s.r.o.", "payment:cash": "yes", "payment:mastercard": "yes", "payment:visa": "yes", "ref:SUKL": "87367000000"}}, {"type": "node", "id": 6464526700, "lat": 49.7612014, "lon": 18.4637465, "tags": {"addr:city": "Hav\u00ed\u0159ov", "addr:housenumber": "6a/705", "addr:postcode": "73601", "addr:street": "Na Z\u00e1gu\u0159\u00ed", "amenity": "pharmacy", "contact:email": "lekarna.nakopci@gmail.com", "contact:phone": "+420 602 774 777", "contact:website": "https://www.lekarnanakopci.cz/", "dispensing": "yes", "healthcare": "pharmacy", "name": "L\u00e9k\u00e1rna Na Kopci", "opening_hours": "Mo-Fr 08:00-16:30; Sa 08:00-11:00", "operator": "K.L.M. Hav\u00ed\u0159ov spol. s.r.o.", "payment:cash": "yes", "payment:mastercard": "yes", "payment:visa": "yes", "ref:SUKL": "87365000000"}}, {"type": "node", "id": 6533650731, "lat": 49.9787203, "lon": 18.5030851, "tags": {"addr:city": "Wodzis\u0142aw \u015al\u0105ski", "addr:housenumber": "3A", "addr:postcode": "44-304", "addr:street": "\u015awi\u0119tego Wawrzy\u0144ca", "amenity": "pharmacy", "healthcare": "pharmacy", "name": "Blisko Ciebie", "opening_hours": "Mo-Fr 07:00-20:00; Sa 07:00-15:00"}}, {"type": "node", "id": 6613038294, "lat": 49.880386, "lon": 18.4327331, "tags": {"amenity": "pharmacy", "brand": "Dr. Max", "brand:wikidata": "Q56317371", "brand:wikipedia": "fr:Dr.Max", "dispensing": "yes", "healthcare": "pharmacy", "name": "Dr. Max", "opening_hours": "Mo-Su 08:00-20:00", "website": "https://lekarny.drmax.cz/lekarny/orlova-okruzni-1430/"}}, {"type": "node", "id": 6639275546, "lat": 49.8277922, "lon": 18.2569953, "tags": {"amenity": "pharmacy", "contact:email": "marianskohorska.lekarna@gmail.com", "contact:phone": "+420 596 633 177", "healthcare": "pharmacy", "name": "Mari\u00e1nskohorsk\u00e1 l\u00e9k\u00e1rna", "opening_hours": "Mo-Th 07:00-17:00; Fr 07:00-16:00"}}, {"type": "node", "id": 6639275547, "lat": 49.8365147, "lon": 18.1837903, "tags": {"amenity": "pharmacy", "contact:email": "uludmily@tiscali.cz", "contact:phone": "+420 596 938 806", "name": "U Ludmily", "opening_hours": "Mo-Fr 07:00-17:00"}}, {"type": "node", "id": 6639275548, "lat": 49.778445, "lon": 18.2470057, "tags": {"amenity": "pharmacy", "contact:email": "lekarna@belsky-les.cz", "contact:phone": "+420 724 364 061", "contact:website": "http://www.belsky-les.cz", "healthcare": "pharmacy", "name": "B\u011blsk\u00fd les", "opening_hours": "Mo 07:30-18:00; Tu-Fr 07:30-16:00"}}, {"type": "node", "id": 6639275549, "lat": 49.79458, "lon": 18.2655993, "tags": {"amenity": "pharmacy", "contact:email": "uedisona@gmail.com", "contact:phone": "+420 595 783 192", "contact:website": "http://www.lekarnaeshop.cz", "healthcare": "pharmacy", "name": "U Edisona", "opening_hours": "Mo-Fr 07:30-16:30", "ref": "91995690001"}}, {"type": "node", "id": 6639275550, "lat": 49.8460174, "lon": 18.2852157, "tags": {"amenity": "pharmacy", "brand": "Agel", "brand:wikidata": "Q41365932", "contact:email": "lekarna.sokolska@rph.agel.cz", "contact:phone": "+420 597 454 132", "contact:website": "https://lekarna.agel.cz/lekarny/ostrava-sokolska.html", "dispensing": "yes", "healthcare": "pharmacy", "name": "Agel", "opening_hours": "Mo,Tu,Th 07:00-16:00; We 07:00-16:30; Fr 07:00-14:00", "ref:SUKL": "91995463000", "wheelchair": "yes"}}, {"type": "node", "id": 6639275552, "lat": 49.7989663, "lon": 18.231981, "tags": {"amenity": "pharmacy", "brand": "Dr. Max", "brand:wikidata": "Q56317371", "contact:email": "ostrava.vyskovicka@drmax.cz", "contact:phone": "+420 595 031 302", "contact:website": "https://lekarny.drmax.cz/lekarny/ostrava-3-vyskovicka-3206-48/", "healthcare": "pharmacy", "name": "Dr. Max", "opening_hours": "Mo-Fr 08:00-17:00"}}, {"type": "node", "id": 6639275554, "lat": 49.8003591, "lon": 18.2307046, "tags": {"amenity": "pharmacy", "brand": "Benu", "brand:wikidata": "Q62562792", "contact:email": "ostrava.ockaufland@benu.cz", "contact:phone": "+420 731 638 168", "contact:website": "https://www.benu.cz/lekarna-benu-ostrava-oc-kaufland", "healthcare": "pharmacy", "name": "Benu", "opening_hours": "Mo-Sa 07:00-20:00;Su 08:00-20:00"}}, {"type": "node", "id": 6639275555, "lat": 49.7965579, "lon": 18.305231, "tags": {"amenity": "pharmacy", "contact:email": "uhute@seznam.cz", "contact:phone": "+420 596 238 158", "contact:website": "http://www.lekarnauhute.cz/", "name": "U Hut\u011b", "opening_hours": "Mo-Fr 06:00-15:30", "ref": "91520000000"}}, {"type": "node", "id": 6639275556, "lat": 49.8347995, "lon": 18.1932026, "tags": {"amenity": "pharmacy", "contact:email": "lekarna.vmesniku@tiscali.cz", "contact:phone": "+420 596 965 675", "healthcare": "pharmacy", "name": "L\u00e9k\u00e1rna V Me\u0161n\u00edku", "opening_hours": "Mo,Tu,Th 07:30-16:30; We 12:00-16:30; Fr 07:30-15:30"}}, {"type": "node", "id": 6639275557, "lat": 49.8369405, "lon": 18.1915816, "tags": {"amenity": "pharmacy", "contact:email": "vit.sommer@tiscali.cz", "contact:phone": "+420 596 960 427", "healthcare": "pharmacy", "name": "U V\u00edtka", "opening_hours": "Mo-Th 08:00-16:00; Fr 08:00-15:00"}}, {"type": "node", "id": 6639275558, "lat": 49.8154833, "lon": 18.2678034, "tags": {"amenity": "pharmacy", "contact:email": "info@vas-lekarnik.cz", "contact:website": "http://www.vas-lekarnik.cz/", "healthcare": "pharmacy", "name": "Patro", "opening_hours": "Mo 06:45-17:00; Tu-Fr 06:45-16:00"}}, {"type": "node", "id": 6639275559, "lat": 49.8203878, "lon": 18.1900656, "tags": {"amenity": "pharmacy", "brand": "Dr. Max", "brand:wikidata": "Q56317371", "brand:wikipedia": "fr:Dr.Max", "contact:email": "poruba@drmax.cz", "contact:phone": "+420 596 966 883", "contact:website": "https://www.drmax.cz/lekarny/ostrava-poruba-polska-6191-21", "healthcare": "pharmacy", "name": "Dr. Max", "opening_hours": "Mo-Sa 07:00-20:00; Su 08:00-20:00"}}, {"type": "node", "id": 6639275560, "lat": 49.8438381, "lon": 18.15657, "tags": {"amenity": "pharmacy", "contact:email": "lekarnaolympia@email.cz", "contact:phone": "+420 596 515 345", "name": "Olympia", "opening_hours": "Mo-Fr 07:30-17:00"}}, {"type": "node", "id": 6639275561, "lat": 49.8332302, "lon": 18.2777886, "tags": {"amenity": "pharmacy", "contact:email": "kamil.hruby@mnof.cz", "contact:phone": "+420 596 192 331", "contact:website": "https://www.mnof.cz/nemocnicni-lekarna", "healthcare": "pharmacy", "name": "Nemocni\u010dn\u00ed l\u00e9k\u00e1rna", "opening_hours": "Mo-Fr 07:00-17:00", "ref:SUKL": "00213576541"}}, {"type": "node", "id": 6639275562, "lat": 49.8437556, "lon": 18.1716281, "tags": {"amenity": "pharmacy", "check_date:opening_hours": "2021-05-06", "contact:email": "lekarna.uduhy@volny.cz", "contact:phone": "+420 596 934 243", "contact:website": "http://www.lekarna-uduhy.cz/", "healthcare": "pharmacy", "name": "L\u00e9k\u00e1rna U Duhy", "opening_hours": "Mo-Fr 07:00-17:00"}}, {"type": "node", "id": 6639275563, "lat": 49.8441643, "lon": 18.1692453, "tags": {"amenity": "pharmacy", "brand": "Dr. Max", "brand:wikidata": "Q56317371", "brand:wikipedia": "fr:Dr.Max", "check_date:opening_hours": "2021-05-06", "contact:email": "ostrava.vaclava@drmax.cz", "contact:phone": "+420 596 112 805", "contact:website": "https://www.drmax.cz/lekarny/ostrava-poruba-nam-vaclava-vacka-6043-23", "healthcare": "pharmacy", "name": "Dr. Max", "opening_hours": "Mo-Fr 08:00-20:00; Sa,Su 08:00-16:00"}}, {"type": "node", "id": 6639275564, "lat": 49.8214687, "lon": 18.2081665, "tags": {"amenity": "pharmacy", "contact:email": "lekarna.belladonna@seznam.cz", "contact:phone": "+420 596 634 221", "contact:website": "http://www.lekarna-bella.cz", "healthcare": "pharmacy", "name": "L\u00e9k\u00e1rna Belladonna", "opening_hours": "Mo-Fr 07:30-17:00"}}, {"type": "node", "id": 6639275565, "lat": 49.8438672, "lon": 18.1677872, "tags": {"amenity": "pharmacy", "brand": "Dr. Max", "brand:wikidata": "Q56317371", "brand:wikipedia": "fr:Dr.Max", "check_date:opening_hours": "2021-05-07", "contact:email": "ostrava.a.bejdove@drmax.cz", "contact:phone": "+420 735 168 580", "contact:website": "https://lekarny.drmax.cz/lekarny/ostrava-poruba-namesti-antonie-bejdove-1810-10/", "healthcare": "pharmacy", "name": "Dr. Max", "opening_hours": "Mo-Fr 08:00-16:00"}}, {"type": "node", "id": 6639275566, "lat": 49.8415805, "lon": 18.2824892, "tags": {"amenity": "pharmacy", "contact:email": "lekarnaujindricha@volny.cz", "contact:phone": "+420 596 126 787", "healthcare": "pharmacy", "name": "U Jind\u0159icha", "opening_hours": "Mo-Fr 07:30-18:00", "ref:SUKL": "91882000000"}}, {"type": "node", "id": 6639275567, "lat": 49.8366816, "lon": 18.2860954, "tags": {"amenity": "pharmacy", "brand": "Benu", "brand:wikidata": "Q62562792", "contact:email": "ostrava.nadrazni@benu.cz", "contact:phone": "+420 554 211 265", "contact:website": "https://www.benu.cz/lekarna-benu-ostrava-nadrazni", "healthcare": "pharmacy", "name": "Benu", "opening_hours": "Mo-Fr 07:30-17:00; PH closed"}}, {"type": "node", "id": 6639275568, "lat": 49.8408782, "lon": 18.2650897, "tags": {"amenity": "pharmacy", "contact:email": "lekarna.arnika@seznam.cz", "contact:phone": "+420 596 634 008", "healthcare": "pharmacy", "name": "Arnika", "opening_hours": "Mo-Fr 07:30-17:00"}}, {"type": "node", "id": 6639275569, "lat": 49.7896848, "lon": 18.2249035, "tags": {"amenity": "pharmacy", "contact:email": "lekarna@gynet.cz", "contact:phone": "+420 590 990 452", "contact:website": "http://www.lekarnavostrave.cz", "healthcare": "pharmacy", "name": "Gynet", "opening_hours": "Mo-We 07:30-18:00;Th 08:00-16:00; Fr 08:00-15:00"}}, {"type": "node", "id": 6639275570, "lat": 49.8591241, "lon": 18.3291087, "tags": {"amenity": "pharmacy", "contact:email": "info@lekarnahermanka.cz", "contact:phone": "+420 596 236 068", "contact:website": "https://www.lekarnahermanka.cz", "healthcare": "pharmacy", "name": "He\u0159manka", "opening_hours": "Mo-Fr 07:30-13:30; Tu 09:30-17:30; Th 07:30-14:00", "ref:SUKL": "91995691000"}}, {"type": "node", "id": 6639275571, "lat": 49.8348283, "lon": 18.2867961, "tags": {"amenity": "pharmacy", "contact:email": "apavar@apavar.cz", "contact:phone": "+420 724 484 812", "contact:website": "http://www.apavar.cz", "healthcare": "pharmacy", "name": "Apavar", "opening_hours": "Mo-Fr 08:00-17:30", "ref:SUKL": "91995910000"}}, {"type": "node", "id": 6639275572, "lat": 49.8042655, "lon": 18.2410169, "tags": {"amenity": "pharmacy", "contact:email": "horymirova@ipcnet.cz", "contact:phone": "+420 604 580 050", "contact:website": "https://www.ipcgroup.cz/nase-lekarny", "healthcare": "pharmacy", "name": "IPC Horym\u00edrova", "ref:SUKL": "202028115"}}, {"type": "node", "id": 6639275573, "lat": 49.8350277, "lon": 18.2767908, "tags": {"amenity": "pharmacy", "contact:email": "b.kovarova@seznam.cz", "contact:phone": "+420 596 618 494", "healthcare": "pharmacy", "name": "U Zlat\u00e9ho raka", "opening_hours": "Mo-Fr 07:30-17:00", "ref:SUKL": "00213966317"}}, {"type": "node", "id": 6639275574, "lat": 49.7868509, "lon": 18.2574186, "tags": {"amenity": "pharmacy", "brand": "Dr. Max", "brand:wikidata": "Q56317371", "contact:email": "hrabuvka@drmax.cz", "contact:phone": "+420 595 783 297", "contact:website": "https://www.drmax.cz/lekarny/ostrava-hrabuvka-horni-1457-59", "healthcare": "pharmacy", "name": "Dr. Max", "opening_hours": "Mo-Fr 07:00-18:00"}}, {"type": "node", "id": 6639275576, "lat": 49.7877992, "lon": 18.2569457, "tags": {"amenity": "pharmacy", "contact:email": "lekarna.jih@seznam.cz", "contact:phone": "+420 596 710 258", "healthcare": "pharmacy", "name": "L\u00e9k\u00e1rna Jih", "opening_hours": "Mo-Su 07:30-18:00"}}, {"type": "node", "id": 6639275577, "lat": 49.7700226, "lon": 18.2480013, "tags": {"amenity": "pharmacy", "brand": "Dr. Max", "brand:wikidata": "Q56317371", "contact:email": "lek680@drmax.cz", "contact:phone": "+420 595 782 988", "contact:website": "https://www.drmax.cz/", "healthcare": "pharmacy", "name": "Dr. Max", "opening_hours": "Mo-Fr 08:00-20:00; Sa,Su 09:00-20:00", "ref:SUKL": "00203716875"}}, {"type": "node", "id": 6639275579, "lat": 49.7800963, "lon": 18.2542578, "tags": {"amenity": "pharmacy", "brand": "Dr. Max", "brand:wikidata": "Q56317371", "brand:wikipedia": "fr:Dr.Max", "contact:email": "ostrava.horni@drmax.cz", "contact:phone": "+420 595 781 987", "contact:website": "https://www.drmax.cz/lekarny/ostrava-dubina-horni-298-65a", "healthcare": "pharmacy", "name": "Dr. Max", "opening_hours": "Mo-Fr 08:00-18:00; PH off"}}, {"type": "node", "id": 6639345696, "lat": 49.7773662, "lon": 18.2511353, "tags": {"amenity": "pharmacy", "contact:email": "dumzdravi@stavovska.cz", "contact:phone": "+420 592 750 415", "healthcare": "pharmacy", "name": "L\u00e9k\u00e1rna D\u016fm zdrav\u00ed", "opening_hours": "Mo-Th 07:30-16:00;Fr 07:30-15:30"}}, {"type": "node", "id": 6639345697, "lat": 49.8734092, "lon": 18.2603342, "tags": {"amenity": "pharmacy", "contact:email": "lekarna.petrkovice@seznam.cz", "contact:phone": "+420 596 133 294", "healthcare": "pharmacy", "name": "Pet\u0159kovice", "opening_hours": "Mo-Fr 07:30-16:00"}}, {"type": "node", "id": 6639345699, "lat": 49.7853841, "lon": 18.265819, "tags": {"amenity": "pharmacy", "contact:email": "lekarna.budoucnost@seznam.cz", "contact:phone": "+420 596 768 226", "contact:website": "https://www.lekarna-bella.cz/", "healthcare": "pharmacy", "name": "Bella", "opening_hours": "Mo-Fr 08:00-17:00; Sa 08:00-12:00; PH off"}}, {"type": "node", "id": 6639345701, "lat": 49.842831, "lon": 18.3367316, "tags": {"amenity": "pharmacy", "contact:email": "lekarnamichalkovice@email.cz", "contact:phone": "+420 596 231 088", "contact:website": "http://www.lekarny.zdravcentra.cz/ostrava-michalkovice/", "healthcare": "pharmacy", "name": "Mich\u00e1lkovick\u00e1 l\u00e9k\u00e1rna", "opening_hours": "Mo-Fr 07:30-17:00; PH off", "ref:SUKL": "91526000001"}}, {"type": "node", "id": 6639345702, "lat": 49.8312099, "lon": 18.2745525, "tags": {"amenity": "pharmacy", "contact:email": "lekarnavesalion@email.cz", "contact:phone": "+420 596 639 937", "healthcare": "pharmacy", "name": "Vesalion", "opening_hours": "Mo 07:30-17:00; Tu-Fr 07:30-16:00"}}, {"type": "node", "id": 6639345703, "lat": 49.7636004, "lon": 18.2376561, "tags": {"amenity": "pharmacy", "contact:email": "lekarnaostravice@seznam.cz", "contact:phone": "+420 596 769 022", "name": "U svat\u00e9ho Jana", "opening_hours": "Mo,Tu,Th 07:30-16:00; We 09:00-18:00; Fr 07:30-15:00"}}, {"type": "node", "id": 6639345704, "lat": 49.7768812, "lon": 18.2543381, "tags": {"amenity": "pharmacy", "contact:email": "akacie@lekarna4you.cz", "contact:phone": "+420 596 713 825", "contact:website": "http://www.lekarna4you.cz", "healthcare": "pharmacy", "name": "Ak\u00e1cie", "opening_hours": "Mo-Fr 07:00-18:00"}}, {"type": "node", "id": 6639345708, "lat": 49.8439372, "lon": 18.3062401, "tags": {"amenity": "pharmacy", "brand": "Dr. Max", "brand:wikidata": "Q56317371", "contact:email": "lek721@drmax.cz", "contact:phone": "+420 225 574 721", "contact:website": "https://www.drmax.cz/", "healthcare": "pharmacy", "name": "Dr. Max", "opening_hours": "Mo-Fr 08:00-17:00", "ref:SUKL": "00214597658"}}, {"type": "node", "id": 6711021057, "lat": 49.5477358, "lon": 18.2106466, "tags": {"amenity": "pharmacy", "contact:email": "lekarna@lekarnaduo.cz", "contact:phone": "+420 553 038 645", "healthcare": "pharmacy", "name": "L\u00e9k\u00e1rna pod n\u00e1m\u011bst\u00edm", "opening_hours": "Mo-Fr 07:30-17:00", "ref": "88995111000"}}, {"type": "node", "id": 6711021114, "lat": 49.5940144, "lon": 18.258348, "tags": {"amenity": "pharmacy", "contact:email": "lkozlovice@seznam.cz", "contact:phone": "+420 558 697 429", "healthcare": "pharmacy", "name": "L\u00e9k\u00e1rna Kozlovice", "opening_hours": "Mo-Fr 07:30-16:00"}}, {"type": "node", "id": 6711021115, "lat": 49.582653, "lon": 18.3592097, "tags": {"amenity": "pharmacy", "contact:email": "lekarna.frydlant@pilulka.cz", "contact:phone": "+420 778 116 507", "contact:website": "https://www.pilulka.cz/", "healthcare": "pharmacy", "name": "Pilulka", "opening_hours": "Mo-Fr 08:00-18:00", "ref": "86365100000"}}, {"type": "node", "id": 6724794504, "lat": 49.9772002, "lon": 18.5018658, "tags": {"amenity": "pharmacy", "healthcare": "pharmacy", "name": "Apteka", "opening_hours": "Mo-Fr 07:00-20:00; Sa 07:00-15:00", "phone": "+48324569413"}}, {"type": "node", "id": 6919410638, "lat": 49.5401879, "lon": 18.1139888, "tags": {"amenity": "pharmacy", "contact:email": "verovice@pionyru.cz", "contact:phone": "+420 731 636 839", "contact:website": "https://www.azlekarna.cz/", "healthcare": "pharmacy", "opening_hours": "Mo,We,Th,Fr 07:30-12:30; Tu 12:00-17:00", "ref:SUKL": "00200451603"}}, {"type": "node", "id": 6919410642, "lat": 49.4624766, "lon": 18.1367902, "tags": {"amenity": "pharmacy", "contact:email": "roznovpr2@drmax.cz", "contact:phone": "+420 571 614 141", "contact:website": "https://lekarny.drmax.cz/lekarny/roznov-pod-radhostem-1-maje-1425/", "name": "Dr.Max", "opening_hours": "Mo-Fr 08:00-17:00", "ref": "94327000000"}}, {"type": "node", "id": 6919410643, "lat": 49.4637261, "lon": 18.1416678, "tags": {"amenity": "pharmacy", "contact:email": "lekarnabrillovka@lycium.eu", "contact:phone": "+420 571 116 567", "name": "Brillovka", "opening_hours": "Mo-Fr 07:15-17:00", "ref": "94346000000"}}, {"type": "node", "id": 6919410644, "lat": 49.4635631, "lon": 18.144047, "tags": {"amenity": "pharmacy", "contact:email": "rubus@rubus.cz", "contact:phone": "+420 571 625 200", "contact:website": "http://www.rubus.cz/", "healthcare": "pharmacy", "name": "Rubus", "opening_hours": "Mo-Th 07:00-18:00; Fr 07:00-16:30", "ref": "94312000002"}}, {"type": "node", "id": 6919410645, "lat": 49.7874103, "lon": 18.4430449, "tags": {"amenity": "pharmacy", "brand": "Dr. Max", "brand:wikidata": "Q56317371", "contact:email": "lek005@drmax.cz", "contact:phone": "+420 596 441 073", "contact:website": "https://lekarny.drmax.cz/lekarny/havirov-prostredni-sucha-pred-trati-891-2/", "healthcare": "pharmacy", "name": "Dr. Max", "opening_hours": "Mo-Sa 07:30-20:00; Su 08:00-20:00", "ref": "87356000000"}}, {"type": "node", "id": 6992363465, "lat": 49.7433741, "lon": 18.6245215, "tags": {"amenity": "pharmacy", "dispensing": "yes", "healthcare": "pharmacy", "name": "L\u00e9karna U n\u00e1dra\u017e\u00ed", "opening_hours": "Mo-Th 07:30-18:00; Fr 07:30-17:00; Sa 08:00-12:00; PH closed", "operator": "mojel\u00e9karna"}}, {"type": "node", "id": 7026720133, "lat": 49.773501, "lon": 18.2647276, "tags": {"amenity": "pharmacy", "brand": "Benu", "brand:wikidata": "Q62562792", "contact:email": "ostrava.hrabova@benu.cz", "contact:phone": "+420 703 462 213", "contact:website": "https://www.benu.cz/ostrava-hrabova", "healthcare": "pharmacy", "name": "Benu", "opening_hours": "Mo-Su 08:00-20:00", "ref:SUKL": "00200375927"}}, {"type": "node", "id": 7715620468, "lat": 49.6799664, "lon": 18.6668445, "tags": {"amenity": "pharmacy", "brand": "Dr. Max", "brand:wikidata": "Q56317371", "brand:wikipedia": "fr:Dr.Max", "contact:email": "trinec@drmax.cz", "contact:phone": "+420 225 574 240", "contact:website": "https://www.drmax.cz", "dispensing": "yes", "healthcare": "pharmacy", "name": "Dr. Max", "opening_hours": "Mo-Fr 07:30-17:00", "ref:SUKL": "86372000000"}}, {"type": "node", "id": 8308772672, "lat": 49.5952221, "lon": 18.1449971, "tags": {"addr:city": "Kop\u0159ivnice", "addr:housenumber": "1612/2a", "addr:postcode": "742 21", "addr:street": "\u0160tef\u00e1nikova", "amenity": "pharmacy", "brand": "Lemon", "dispensing": "yes", "drive_through": "no", "healthcare": "pharmacy", "name": "L\u00e9k\u00e1rna Lemon", "opening_hours": "Mo-Fr 07:00-17:00", "operator": "Lemon", "website": "https://www.lekarnalemon.cz/lekarny/lemon-lekarna-koprivnice-stefanikova-1612-2a", "wheelchair": "limited"}}, {"type": "node", "id": 9224854438, "lat": 49.6812221, "lon": 18.6417335, "tags": {"amenity": "pharmacy", "brand": "Agel", "brand:wikidata": "Q41365932", "contact:email": "lekarna.podlesi@rph.agel.cz", "contact:phone": "+420 720 045 262", "contact:website": "http://www.repharm.cz", "healthcare": "pharmacy", "name": "Agel", "opening_hours": "Mo-Th 06:30-16:00; Fr 06:30-14:00", "ref:SUKL": "86355000000"}}, {"type": "node", "id": 9228527381, "lat": 49.8961739, "lon": 18.3584252, "tags": {"amenity": "pharmacy", "contact:email": "lekarnamelissa@seznam.cz", "contact:phone": "+420 596 083 411", "contact:website": "http://lekarnamelissa.cz", "healthcare": "pharmacy", "name": "Melissa", "opening_hours": "Mo-Fr 07:00-17:00", "ref:SUKL": "87386000000"}}, {"type": "node", "id": 9228527382, "lat": 49.9008215, "lon": 18.3559281, "tags": {"amenity": "pharmacy", "brand": "Benu", "brand:wikidata": "Q62562792", "contact:email": "bohumin.alesova@benu.cz", "contact:phone": "+420 703 462 229", "contact:website": "https://www.benu.cz/", "dispensing": "yes", "healthcare": "pharmacy", "name": "Benu", "opening_hours": "Mo-Fr 07:00-15:30", "ref:SUKL": "00203176569"}}, {"type": "node", "id": 9228527383, "lat": 49.9031425, "lon": 18.3588047, "tags": {"amenity": "pharmacy", "brand": "AGEL", "brand:wikidata": "Q41365932", "contact:email": "l\u00e9k\u00e1rna.bohumin2@rph.agel.cz", "contact:phone": "+420 720 045 268", "contact:website": "https://lekarna.agel.cz/lekarny/bohumin-2", "healthcare": "pharmacy", "name": "Agel", "opening_hours": "Mo-Fr 07:30-17:00", "ref:SUKL": "87397200000"}}, {"type": "node", "id": 9228527384, "lat": 49.9064481, "lon": 18.3519691, "tags": {"amenity": "pharmacy", "brand": "AGEL", "brand:wikidata": "Q41365932", "contact:email": "lekarna.bohumin@rph.agel.cz", "contact:phone": "+420 720 045 264", "contact:website": "https://lekarna.agel.cz/lekarny/bohumin", "healthcare": "pharmacy", "name": "Agel", "opening_hours": "Mo-Th 07:00-17:00; Fr 07:00-15:00", "ref:SUKL": "87397000000"}}, {"type": "node", "id": 9241017407, "lat": 49.771201, "lon": 18.4450505, "tags": {"amenity": "pharmacy", "brand": "Benu", "brand:wikidata": "Q62562792", "contact:email": "havirov.ockaufland@benu.cz", "contact:phone": "+420 731 638 171", "contact:website": "https://www.benu.cz/", "healthcare": "pharmacy", "name": "Benu", "opening_hours": "Mo-Fr 07:30-20:00; Sa,Su 08:00-20:00", "ref:SUKL": "87359200001"}}, {"type": "node", "id": 9269049963, "lat": 49.8341145, "lon": 18.2673753, "tags": {"amenity": "pharmacy", "brand": "Dr. Max", "brand:wikidata": "Q56317371", "healthcare": "pharmacy", "name": "Dr. Max"}}, {"type": "node", "id": 9286910665, "lat": 49.8677681, "lon": 18.4254362, "tags": {"amenity": "pharmacy", "contact:email": "orlova@lekarna-salvator.cz", "contact:phone": "+420 596 514 666", "healthcare": "pharmacy", "name": "Salv\u00e1tor", "opening_hours": "Mo-Fr 07:30-17:30; Sa 08:00-12:00", "ref:SUKL": "200681611"}}, {"type": "node", "id": 9301341595, "lat": 49.4592919, "lon": 18.1323359, "tags": {"amenity": "pharmacy", "brand": "Benu", "brand:wikidata": "Q62562792", "dispensing": "yes", "drive_through": "no", "healthcare": "pharmacy", "name": "Benu"}}, {"type": "node", "id": 9400397135, "lat": 49.7709242, "lon": 18.3102004, "tags": {"amenity": "pharmacy", "contact:email": "vratimov@mojelekarna.cz", "contact:phone": "+420 596 732 105", "contact:website": "https://www.mojelekarna.cz/", "healthcare": "pharmacy", "name": "L\u00e9k\u00e1rna Vratimov", "opening_hours": "Mo-Fr 07:30-16:00", "ref:SUKL": "00201678282"}}, {"type": "node", "id": 9400397137, "lat": 49.7849069, "lon": 18.4381407, "tags": {"amenity": "pharmacy", "contact:email": "lekarna@nsphav.cz", "contact:phone": "+420 596 491 189", "contact:website": "http://www.nsphav.cz/", "healthcare": "pharmacy", "name": "Nemocni\u010dn\u00ed l\u00e9k\u00e1rna", "opening_hours": "Mo-Fr 07:00-17:00", "ref:SUKL": "87378000000"}}, {"type": "node", "id": 9400397139, "lat": 49.7748031, "lon": 18.4589832, "tags": {"amenity": "pharmacy", "contact:email": "lek.fortuna@quick.cz", "contact:phone": "+420 596 410 865", "contact:website": "https://www.pharmapoint.cz/lekarny/", "healthcare": "pharmacy", "name": "L\u00e9k\u00e1rna Fortuna", "opening_hours": "Mo-Th 07:30-17:00; Fr 07:30-15:00", "ref:SUKL": "87361000000"}}, {"type": "node", "id": 9655429451, "lat": 49.7475272, "lon": 18.635655, "tags": {"addr:city": "Cieszyn", "addr:housenumber": "6", "addr:postcode": "43-400", "addr:street": "G\u00f3rny Rynek", "amenity": "pharmacy", "dispensing": "yes", "healthcare": "pharmacy", "name": "Zak\u0142ad Opieku\u0144czo-Leczniczy Prowadzony Przez Zgromadzenie Si\u00f3str Mi\u0142osierdzia \u015aw. Karola Boromeusza", "ref:csioz": "1057297"}}, {"type": "node", "id": 9655512787, "lat": 49.832011, "lon": 18.5863452, "tags": {"addr:city": "Kaczyce", "addr:housenumber": "12", "addr:postcode": "43-417", "addr:street": "Jana III Sobieskiego", "amenity": "pharmacy", "dispensing": "yes", "healthcare": "pharmacy", "ref:csioz": "1072812"}}, {"type": "node", "id": 9655514862, "lat": 49.7549376, "lon": 18.6264655, "tags": {"addr:city": "Cieszyn", "addr:housenumber": "20", "addr:postcode": "43-400", "addr:street": "Frysztacka", "amenity": "pharmacy", "dispensing": "yes", "healthcare": "pharmacy", "name": "Medea 3", "opening_hours": "Mo-Fr 07:30-19:00; Sa 08:00-13:00; Su off", "ref:csioz": "1059805"}}, {"type": "node", "id": 9655514869, "lat": 49.7456074, "lon": 18.6390282, "tags": {"addr:city": "Cieszyn", "addr:housenumber": "4", "addr:postcode": "43-400", "addr:street": "Bielska", "amenity": "pharmacy", "dispensing": "yes", "healthcare": "pharmacy", "name": "Zesp\u00f3l Zak\u0142ad\u00f3w Opieki Zdrowotnej W Cieszynie", "ref:csioz": "1073800"}}, {"type": "node", "id": 9655514871, "lat": 49.7431306, "lon": 18.6391173, "tags": {"addr:city": "Cieszyn", "addr:housenumber": "21", "addr:postcode": "43-400", "addr:street": "G\u00f3rna", "amenity": "pharmacy", "dispensing": "yes", "healthcare": "pharmacy", "name": "Medea W Intermarche", "ref:csioz": "1198348"}}, {"type": "node", "id": 9803895413, "lat": 49.8552549, "lon": 18.2752293, "tags": {"amenity": "pharmacy", "dispensing": "yes", "healthcare": "pharmacy", "name": "moje l\u00e9k\u00e1rna"}}, {"type": "node", "id": 9902423777, "lat": 49.9951693, "lon": 18.4849115, "tags": {"amenity": "pharmacy", "dispensing": "yes", "healthcare": "pharmacy", "name": "Pod Lwem", "ref:csioz": "1229893"}}, {"type": "node", "id": 9965978592, "lat": 49.9488377, "lon": 18.344584, "tags": {"addr:city": "Olza", "addr:housenumber": "32", "addr:postcode": "44-353", "addr:street": "Wiejska", "amenity": "pharmacy", "dispensing": "yes", "healthcare": "pharmacy", "name": "Familia", "ref:csioz": "1224337"}}, {"type": "node", "id": 9965990106, "lat": 49.9493863, "lon": 18.4870852, "tags": {"addr:city": "Skrzysz\u00f3w", "addr:housenumber": "2A", "addr:postcode": "44-348", "addr:street": "D\u0119bowa", "amenity": "pharmacy", "dispensing": "yes", "healthcare": "pharmacy", "name": "Apteka U Tomka", "ref:csioz": "1068855"}}, {"type": "node", "id": 9966030073, "lat": 49.911617, "lon": 18.505718, "tags": {"addr:city": "Go\u0142kowice", "addr:housenumber": "1", "addr:postcode": "44-341", "addr:street": "Stra\u017cacka", "amenity": "pharmacy", "dispensing": "yes", "healthcare": "pharmacy", "name": "U Tomka", "ref:csioz": "1072711"}}, {"type": "node", "id": 9966043801, "lat": 49.9598396, "lon": 18.3950004, "tags": {"addr:city": "Gorzyce", "addr:housenumber": "32", "addr:postcode": "44-350", "addr:street": "Raciborska", "amenity": "pharmacy", "dispensing": "yes", "healthcare": "pharmacy", "name": "Familia", "ref:csioz": "1166606"}}, {"type": "node", "id": 9966078760, "lat": 49.9692383, "lon": 18.4491395, "tags": {"addr:city": "Turza \u015al\u0105ska", "addr:housenumber": "25", "addr:postcode": "44-351", "addr:street": "Tysi\u0105clecia", "amenity": "pharmacy", "dispensing": "yes", "healthcare": "pharmacy", "name": "Familia", "ref:csioz": "1220187"}}, {"type": "node", "id": 9966080776, "lat": 49.9863672, "lon": 18.4199584, "tags": {"addr:city": "Czy\u017cowice", "addr:housenumber": "12a", "addr:postcode": "44-352", "addr:street": "Wodzis\u0142awska", "amenity": "pharmacy", "dispensing": "yes", "healthcare": "pharmacy", "name": "Eskulap", "ref:csioz": "1202208"}}, {"type": "node", "id": 9966111319, "lat": 49.9124031, "lon": 18.5069679, "tags": {"addr:city": "Go\u0142kowice", "addr:housenumber": "92", "addr:postcode": "44-341", "addr:street": "1 Maja", "amenity": "pharmacy", "dispensing": "yes", "healthcare": "pharmacy", "name": "Apteka \u015aw. Damiana", "ref:csioz": "1230838"}}, {"type": "node", "id": 10289449867, "lat": 49.7843519, "lon": 18.2620056, "tags": {"amenity": "pharmacy", "healthcare": "pharmacy"}}, {"type": "node", "id": 11148784292, "lat": 49.9020597, "lon": 18.3571296, "tags": {"amenity": "pharmacy", "healthcare": "pharmacy", "name": "Magistra"}}, {"type": "node", "id": 11388271513, "lat": 49.9063462, "lon": 18.3470124, "tags": {"amenity": "pharmacy", "contact:email": "bohumin@lakernaave.cz", "contact:phone": "+420 720 033 673", "contact:website": "https://www.lekarnaave.cz/", "healthcare": "pharmacy", "name": "Ave", "opening_hours": "Mo-Fr 08:00-19:00; Sa 08:00-18:00", "ref:SUKL": "00203525936"}}, {"type": "node", "id": 11698672202, "lat": 49.6711426, "lon": 18.4259332, "tags": {"amenity": "pharmacy", "name": "Dr. Max", "wheelchair": "yes"}}, {"type": "node", "id": 11813446873, "lat": 49.6009033, "lon": 18.1485362, "tags": {"amenity": "pharmacy", "brand": "Benu", "brand:wikidata": "Q62562792", "dispensing": "yes", "drive_through": "no", "healthcare": "pharmacy", "name": "Benu", "opening_hours": "Mo-Su 08:00-20:00", "operator": "Benu"}}, {"type": "node", "id": 11925687097, "lat": 49.6825545, "lon": 18.3553067, "tags": {"addr:city": "Fr\u00fddek-M\u00edstek", "addr:housenumber": "600", "addr:postcode": "73801", "addr:street": "t\u0159. T. G. Masaryka", "amenity": "pharmacy", "dispensing": "yes", "drive_through": "no", "email": "lekarna@podorlem.cz", "healthcare": "pharmacy", "name": "L\u00e9k\u00e1rna Pod Orlem", "opening_hours": "Mo-Fr 07:30-16:30", "phone": "+420 558 621 702", "phone:mobile": "+420 601 572 198", "website": "http://www.podorlem.cz/"}}, {"type": "node", "id": 12006651412, "lat": 49.6757155, "lon": 18.2277218, "tags": {"amenity": "pharmacy"}}, {"type": "node", "id": 12161775103, "lat": 49.6674455, "lon": 18.6757229, "tags": {"amenity": "pharmacy", "dispensing": "yes", "name": "Benu", "opening_hours": "Mo-Fr 07:00-17:00; PH closed", "website": "https://www.benu.cz/trinec-nam-svobody"}}, {"type": "node", "id": 12461185894, "lat": 49.7708034, "lon": 18.4483944, "tags": {"amenity": "pharmacy", "healthcare": "pharmacy"}}, {"type": "way", "id": 93091260, "nodes": [1079044852, 1079044854, 1079044856, 1079044850, 1079044852], "tags": {"addr:city": "God\u00f3w", "addr:city:simc": "0214400", "addr:housenumber": "60A", "addr:postcode": "44-340", "addr:street": "1 Maja", "addr:street:sym_ul": "11926", "amenity": "pharmacy", "building": "retail", "building:levels": "1", "dispensing": "yes", "healthcare": "pharmacy", "name": "Punkt apteczny - Apteka u Tomka", "phone": "+48 32 476 52 22", "ref:csioz": "1072674", "source:addr": "gugik.gov.pl", "source:building": "BDOT", "source:geometry": "EGiB"}}, {"type": "way", "id": 123119866, "nodes": [415346756, 3236022001, 1587252840, 1373990765, 415346758, 415346757, 415346756], "tags": {"amenity": "pharmacy", "brand": "Dr. Max", "brand:wikidata": "Q56317371", "brand:wikipedia": "fr:Dr.Max", "building": "yes", "building:levels": "1", "contact:email": "frenstat@drmax.cz", "contact:phone": "+420 556 836 567", "contact:website": "https://lekarny.drmax.cz/lekarny/frenstat-pod-radhostem-roznovska-240/", "dispensing": "yes", "healthcare": "pharmacy", "name": "Dr. Max", "opening_hours": "Mo-Fr 07:30-17:30;Sa 08:00-12:00", "ref": "88995105000", "source": "knowledge"}}, {"type": "way", "id": 129931474, "nodes": [3600360348, 3600360330, 3600360316, 3600360314, 3600360304, 3600360306, 3600360295, 3600360296, 3600360308, 3600360348], "tags": {"addr:city": "Cieszyn", "addr:housenumber": "35", "addr:postcode": "43-400", "addr:street": "Frysztacka", "amenity": "pharmacy", "building": "yes", "emuia:id": "PKT_762", "name": "Apteka Centrum Medyczne", "source": "UM Cieszyn"}}, {"type": "way", "id": 354007910, "nodes": [3598027887, 3598027995, 3598027876, 3598027866, 3598027887], "tags": {"addr:city": "Cieszyn", "addr:housenumber": "16", "addr:postcode": "43-400", "addr:street": "Kolejowa", "amenity": "pharmacy", "building": "yes", "dispensing": "yes", "emuia:id": "PKT_1510", "healthcare": "pharmacy", "name": "Apteka S\u0142oneczna", "ref:csioz": "1203904", "source": "UM Cieszyn"}}]}