{"version": 0.6, "generator": "Overpass API 0.7.62.8 e802775f", "osm3s": {"timestamp_osm_base": "2025-10-06T08:16:01Z", "copyright": "The data included in this document is from www.openstreetmap.org. The data is made available under ODbL."}, "elements": [{"type": "node", "id": 290233096, "lat": 48.0881232, "lon": 20.7745391, "tags": {"addr:city": "Miskolc", "addr:housenumber": "12", "addr:postcode": "3524", "addr:street": "Klapka Gy\u00f6rgy utca", "amenity": "pharmacy", "brand": "Kulcs Patik\u00e1k", "brand:website": "https://kulcspatikak.hu/", "healthcare": "pharmacy", "name": "Hozsanna Gy\u00f3gyszert\u00e1r"}}, {"type": "node", "id": 611869763, "lat": 47.9003795, "lon": 20.534792, "tags": {"amenity": "pharmacy", "healthcare": "pharmacy"}}, {"type": "node", "id": 635373303, "lat": 47.9031383, "lon": 20.3753821, "tags": {"amenity": "pharmacy", "brand": "Benu Gy\u00f3gyszert\u00e1r", "dispensing": "yes", "healthcare": "pharmacy", "name": "Zal\u00e1r Patika", "opening_hours": "07:30-20:00", "wheelchair": "no"}}, {"type": "node", "id": 1327793205, "lat": 48.1016187, "lon": 20.6910913, "tags": {"amenity": "pharmacy", "brand": "Alma Gy\u00f3gyszert\u00e1r", "brand:website": "https://almapatika.hu", "brand:wikidata": "Q105626221", "contact:phone": "+36 46 532 435", "healthcare": "pharmacy", "level": "0", "name": "V\u00e1r Gy\u00f3gyszert\u00e1r", "opening_hours": "Mo-Th 08:00-18:30; Fr 08:00-18:00; Sa 08:00-13:00; Su off"}}, {"type": "node", "id": 1328230195, "lat": 48.1054241, "lon": 20.6841287, "tags": {"addr:city": "Miskolc", "addr:housenumber": "9", "addr:postcode": "3535", "addr:street": "Bats\u00e1nyi J\u00e1nos utca", "amenity": "pharmacy", "brand": "Gy\u00f6ngy Patik\u00e1k", "brand:website": "https://gyongypatikak.hu/", "healthcare": "pharmacy", "name": "P\u00e1los Gy\u00f3gyszert\u00e1r", "opening_hours": "Mo-Th 08:00-18:00; Fr 08:00-16:00; PH,Sa,Su off", "operator": "P\u00e1los Patika Bt."}}, {"type": "node", "id": 1330393644, "lat": 48.1020928, "lon": 20.7323453, "tags": {"addr:city": "Miskolc", "addr:housenumber": "2", "addr:postcode": "3532", "addr:street": "Avar utca", "amenity": "pharmacy", "healthcare": "pharmacy", "name": "\u00dajgy\u0151ri Gy\u00f3gyszert\u00e1r"}}, {"type": "node", "id": 1330398448, "lat": 48.1036716, "lon": 20.7544052, "tags": {"addr:city": "Miskolc", "addr:housenumber": "47-53", "addr:postcode": "3531", "addr:street": "Gy\u0151ri kapu", "amenity": "pharmacy", "brand": "Kulcs Patik\u00e1k", "brand:website": "https://kulcspatikak.hu/", "healthcare": "pharmacy", "name": "Gy\u0151ri Kapu Gy\u00f3gyszert\u00e1r"}}, {"type": "node", "id": 1330818620, "lat": 48.1031973, "lon": 20.7815054, "tags": {"addr:city": "Miskolc", "addr:housenumber": "3-9", "addr:postcode": "3525", "addr:street": "Sz\u00e9chenyi Istv\u00e1n utca", "amenity": "pharmacy", "brand": "Alma Gy\u00f3gyszert\u00e1rak", "brand:website": "https://almapatika.hu", "brand:wikidata": "Q105626221", "healthcare": "pharmacy", "name": "P\u00e1tria Gy\u00f3gyszert\u00e1r"}}, {"type": "node", "id": 1354497741, "lat": 47.9033255, "lon": 20.3743968, "tags": {"amenity": "pharmacy", "healthcare": "pharmacy"}}, {"type": "node", "id": 1356043646, "lat": 48.0836824, "lon": 20.7778981}, {"type": "node", "id": 1356043647, "lat": 48.0838063, "lon": 20.7777293}, {"type": "node", "id": 1356043650, "lat": 48.0838095, "lon": 20.7778925}, {"type": "node", "id": 1356043653, "lat": 48.0836792, "lon": 20.7777349}, {"type": "node", "id": 1395210447, "lat": 47.9012957, "lon": 20.375332, "tags": {"amenity": "pharmacy", "healthcare": "pharmacy", "name": "\u00c9rsek patika", "opening_hours": "Mo-Th 08:00-18:00; Fr 08:00-16:00", "wheelchair": "yes"}}, {"type": "node", "id": 1395210460, "lat": 47.8899812, "lon": 20.3812996, "tags": {"amenity": "pharmacy", "dispensing": "yes", "healthcare": "pharmacy", "name": "Korona"}}, {"type": "node", "id": 1395210463, "lat": 47.901814, "lon": 20.3768668, "tags": {"amenity": "pharmacy", "healthcare": "pharmacy", "name": "K\u00edgy\u00f3 patika"}}, {"type": "node", "id": 1395210474, "lat": 47.8918019, "lon": 20.3791961, "tags": {"addr:city": "Eger", "addr:housenumber": "57", "addr:postcode": "3300", "addr:street": "De\u00e1k Ferenc utca", "amenity": "pharmacy", "contact:phone": "+36 36 516 706", "contact:website": "https://tegelypatika.hu/", "dispensing": "yes", "healthcare": "pharmacy", "name": "T\u00e9gely Patika", "opening_hours": "Mo-Fr 07:30-17:00", "operator": "T\u00e9gely Patik\u00e1rium Bt.", "payment:apple_pay": "yes", "payment:cash": "yes", "payment:contactless": "yes", "payment:debit_cards": "yes", "payment:google_pay": "yes", "payment:mastercard": "yes", "payment:visa": "yes", "wheelchair": "limited"}}, {"type": "node", "id": 1395210487, "lat": 47.8960879, "lon": 20.3896335, "tags": {"amenity": "pharmacy", "healthcare": "pharmacy", "name": "Agria gy\u00f3gyszert\u00e1r", "opening_hours": "Mo-Fr 08:00-18:00; Sa 08:00-13:00"}}, {"type": "node", "id": 1395210494, "lat": 47.8954693, "lon": 20.3857282, "tags": {"amenity": "pharmacy", "healthcare": "pharmacy"}}, {"type": "node", "id": 1475200784, "lat": 48.1031827, "lon": 20.8561124, "tags": {"addr:city": "Fels\u0151zsolca", "addr:housenumber": "48", "addr:postcode": "3561", "addr:street": "R\u00e1k\u00f3czi Ferenc utca", "amenity": "pharmacy", "contact:email": "info@platanfzs.paticard.hu", "contact:phone": "+36 46 584 227", "contact:website": "http://www.platanfzs.paticard.hu", "name": "Plat\u00e1n Gy\u00f3gyszert\u00e1r", "opening_hours": "Mo-Th 08:00-17:00; Fr 08:00-13:00"}}, {"type": "node", "id": 1773312962, "lat": 47.8112658, "lon": 20.4144384, "tags": {"amenity": "pharmacy", "healthcare": "pharmacy", "name": "Balzsam Gy\u00f3gyszert\u00e1r"}}, {"type": "node", "id": 1791813271, "lat": 48.1725533, "lon": 20.6448333, "tags": {"amenity": "pharmacy", "healthcare": "pharmacy"}}, {"type": "node", "id": 1952318372, "lat": 47.9372067, "lon": 20.3669858, "tags": {"addr:city": "Eger", "addr:housenumber": "5", "addr:postcode": "3300", "addr:street": "Egri \u00fat", "amenity": "pharmacy", "contact:phone": "+36 36 417 507", "dispensing": "no", "healthcare": "pharmacy", "name": "F\u0151nix Gy\u00f3gyszert\u00e1r", "opening_hours": "Mo-Th 09:00-17:00; Fr 09:00-13:00"}}, {"type": "node", "id": 2041479167, "lat": 48.1069334, "lon": 20.8516051, "tags": {"addr:city": "Fels\u0151zsolca", "addr:housenumber": "17", "addr:postcode": "3561", "addr:street": "Kassai utca", "amenity": "pharmacy", "contact:email": "pharma2011@t-online.hu", "contact:phone": "+36 46 584 230", "dispensing": "yes", "healthcare": "pharmacy", "name": "Minerva Gy\u00f3gyszert\u00e1r", "opening_hours": "Mo-Fr 08:00-19:00; Sa 08:00-13:00", "source": "GPS", "website": "http://www.minervafelsozsolca.novodata.hu"}}, {"type": "node", "id": 2089215890, "lat": 47.9432744, "lon": 20.5341426}, {"type": "node", "id": 2091199630, "lat": 47.943356, "lon": 20.5341593}, {"type": "node", "id": 2091199691, "lat": 47.9432596, "lon": 20.5343038}, {"type": "node", "id": 2091199831, "lat": 47.9433411, "lon": 20.5343205}, {"type": "node", "id": 2187138538, "lat": 47.8751148, "lon": 20.602235, "tags": {"amenity": "pharmacy", "healthcare": "pharmacy"}}, {"type": "node", "id": 2229319566, "lat": 47.9069924, "lon": 20.3742151, "tags": {"addr:city": "Eger", "addr:postcode": "3300", "amenity": "pharmacy", "healthcare": "pharmacy"}}, {"type": "node", "id": 2299548646, "lat": 47.9254334, "lon": 20.3708272, "tags": {"amenity": "pharmacy", "brand": "Alma Gy\u00f3gyszert\u00e1r", "brand:website": "https://almapatika.hu", "brand:wikidata": "Q105626221", "healthcare": "pharmacy", "name": "Alma Gy\u00f3gyszert\u00e1r"}}, {"type": "node", "id": 2346512943, "lat": 48.0650125, "lon": 20.6307106, "tags": {"amenity": "pharmacy", "healthcare": "pharmacy"}}, {"type": "node", "id": 2393406251, "lat": 47.8062716, "lon": 20.5652354, "tags": {"amenity": "pharmacy", "healthcare": "pharmacy"}}, {"type": "node", "id": 2698406281, "lat": 47.8562595, "lon": 20.4074428, "tags": {"amenity": "pharmacy", "name": "Sas Patika"}}, {"type": "node", "id": 3107939835, "lat": 48.2198863, "lon": 20.7067532}, {"type": "node", "id": 3107939836, "lat": 48.219788, "lon": 20.7067183}, {"type": "node", "id": 3107939837, "lat": 48.2197505, "lon": 20.7069463}, {"type": "node", "id": 3107939838, "lat": 48.219713, "lon": 20.7069329}, {"type": "node", "id": 3107939839, "lat": 48.2196969, "lon": 20.7070161}, {"type": "node", "id": 3107939840, "lat": 48.2198256, "lon": 20.707059}, {"type": "node", "id": 3146094606, "lat": 48.0569067, "lon": 20.3160972, "tags": {"amenity": "pharmacy", "healthcare": "pharmacy"}}, {"type": "node", "id": 3251344924, "lat": 47.9340082, "lon": 20.8180054}, {"type": "node", "id": 3251344949, "lat": 47.9338475, "lon": 20.8180845}, {"type": "node", "id": 3251344993, "lat": 47.9339184, "lon": 20.8181705}, {"type": "node", "id": 3251345039, "lat": 47.9339373, "lon": 20.8179195}, {"type": "node", "id": 3437148054, "lat": 48.0709342, "lon": 20.7902512, "tags": {"amenity": "pharmacy", "healthcare": "pharmacy", "name": "Csaba gy\u00f3gyszert\u00e1r", "source": "turistautak.hu", "source:date": "2011-07-04", "url": "http://turistautak.hu/poi.php?id=58718"}}, {"type": "node", "id": 3437148750, "lat": 48.099457, "lon": 20.794791, "tags": {"amenity": "pharmacy", "brand": "Benu", "brand:wikidata": "Q62562792", "healthcare": "pharmacy", "name": "Paracelsus Gy\u00f3gyszert\u00e1r", "operator": "BENU", "source": "turistautak.hu", "source:date": "2011-07-04", "url": "http://turistautak.hu/poi.php?id=106762"}}, {"type": "node", "id": 3437149515, "lat": 48.1080911, "lon": 20.7811807, "tags": {"addr:city": "Miskolc", "addr:postcode": "3525", "addr:street": "Fazekas utca", "amenity": "pharmacy", "healthcare": "pharmacy", "name": "J\u00f3kai gy\u00f3gyszert\u00e1r", "source": "turistautak.hu", "source:date": "2011-07-04", "url": "http://turistautak.hu/poi.php?id=68179"}}, {"type": "node", "id": 3437149569, "lat": 48.088102, "lon": 20.785722, "tags": {"amenity": "pharmacy", "healthcare": "pharmacy", "name": "Ligetsz\u00e9pe patika", "source": "turistautak.hu", "source:date": "2011-07-04", "url": "http://turistautak.hu/poi.php?id=64070"}}, {"type": "node", "id": 3437149589, "lat": 48.107611, "lon": 20.786904, "tags": {"addr:city": "Miskolc", "addr:postcode": "3526", "amenity": "pharmacy", "healthcare": "pharmacy", "name": "Macropolis gy\u00f3gyszert\u00e1r", "source": "turistautak.hu", "source:date": "2011-07-04", "url": "http://turistautak.hu/poi.php?id=67002"}}, {"type": "node", "id": 3437149602, "lat": 48.108552, "lon": 20.769975, "tags": {"amenity": "pharmacy", "healthcare": "pharmacy", "name": "M\u00e1ria gy\u00f3gyszert\u00e1r", "source": "turistautak.hu", "source:date": "2012-01-19", "url": "http://turistautak.hu/poi.php?id=129541", "wheelchair": "no"}}, {"type": "node", "id": 3437149640, "lat": 48.094777, "lon": 20.78545, "tags": {"addr:city": "Miskolc", "addr:housenumber": "34", "addr:postcode": "3529", "addr:street": "G\u00f6rgey Art\u00far utca", "amenity": "pharmacy", "brand": "Gy\u00f6ngy Patik\u00e1k", "brand:website": "https://gyongypatikak.hu/", "healthcare": "pharmacy", "name": "N\u00e9pkerti Gy\u00f3gyszert\u00e1r"}}, {"type": "node", "id": 3437149825, "lat": 48.101308, "lon": 20.7163366, "tags": {"addr:city": "Miskolc", "addr:housenumber": "94", "addr:postcode": "3534", "addr:street": "Andr\u00e1ssy utca", "amenity": "pharmacy", "brand": "Kulcs Patik\u00e1k", "brand:website": "https://kulcspatikak.hu/", "healthcare": "pharmacy", "name": "Stadion Gy\u00f3gyszert\u00e1r"}}, {"type": "node", "id": 3437149846, "lat": 48.1070116, "lon": 20.7926235, "tags": {"addr:city": "Miskolc", "addr:housenumber": "14", "addr:postcode": "3526", "addr:street": "B\u00faza t\u00e9r", "amenity": "pharmacy", "brand": "Alma Gy\u00f3gyszert\u00e1rak", "brand:website": "https://almapatika.hu/", "healthcare": "pharmacy", "name": "Csipker\u00f3zsa Gy\u00f3gyszert\u00e1r", "old_name": "Szent J\u00e1nos Gy\u00f3gyszert\u00e1r"}}, {"type": "node", "id": 3437149847, "lat": 48.072178, "lon": 20.828254, "tags": {"amenity": "pharmacy", "healthcare": "pharmacy", "name": "Szeretet gy\u00f3gyszert\u00e1r", "source": "turistautak.hu", "source:date": "2011-07-04", "url": "http://turistautak.hu/poi.php?id=71980"}}, {"type": "node", "id": 3437151641, "lat": 48.1007781, "lon": 20.7850808, "tags": {"addr:city": "Miskolc", "addr:housenumber": "14", "addr:postcode": "3530", "addr:street": "Szemere Bertalan utca", "amenity": "pharmacy", "check_date": "2024-01-15", "healthcare": "pharmacy", "name": "Feh\u00e9r Holl\u00f3 Gy\u00f3gyszert\u00e1r", "opening_hours": "24/7", "url": "http://turistautak.hu/poi.php?id=200"}}, {"type": "node", "id": 3447340258, "lat": 48.1028543, "lon": 20.3891724, "tags": {"addr:city": "Szilv\u00e1sv\u00e1rad", "addr:housenumber": "4", "addr:postcode": "3348", "addr:street": "Egri \u00fat", "amenity": "pharmacy", "contact:phone": "+36 36 951 999", "healthcare": "pharmacy", "name": "Magyar Korona Gy\u00f3gyszert\u00e1r", "opening_hours": "Mo-Fr 08:00-13:30; Sa 08:00-12:00", "url": "http://turistautak.hu/poi.php?id=168297"}}, {"type": "node", "id": 3470089665, "lat": 47.9060401, "lon": 20.3718677, "tags": {"amenity": "pharmacy", "healthcare": "pharmacy", "name": "Beniczky Patika", "opening_hours": "Mo-Fr 07:30-18:00; Sa,Su off", "source": "turistautak.hu", "source:date": "2011-07-04", "url": "http://turistautak.hu/poi.php?id=21509", "wheelchair": "no"}}, {"type": "node", "id": 3635198519, "lat": 48.1087092, "lon": 20.8350691, "tags": {"addr:city": "Miskolc", "addr:housenumber": "87", "addr:postcode": "3527", "addr:street": "J\u00f3zsef Attila \u00fat", "amenity": "pharmacy", "brand": "Benu", "brand:wikidata": "Q62562792", "dispensing": "yes", "healthcare": "pharmacy", "name": "BENU Gy\u00f3gyszert\u00e1r Miskolc Auchan", "wheelchair": "yes"}}, {"type": "node", "id": 3780672818, "lat": 48.0910409, "lon": 20.7861342}, {"type": "node", "id": 3780672820, "lat": 48.0910482, "lon": 20.7863127}, {"type": "node", "id": 3780672844, "lat": 48.0911943, "lon": 20.7860605}, {"type": "node", "id": 3780672845, "lat": 48.0911967, "lon": 20.78612}, {"type": "node", "id": 3780672848, "lat": 48.0912082, "lon": 20.7862462}, {"type": "node", "id": 3780672849, "lat": 48.0912103, "lon": 20.7862979}, {"type": "node", "id": 3780672856, "lat": 48.091264, "lon": 20.7860541}, {"type": "node", "id": 3780672859, "lat": 48.0912716, "lon": 20.7862405}, {"type": "node", "id": 4314958016, "lat": 48.1062147, "lon": 20.7879325, "tags": {"addr:city": "Miskolc", "addr:housenumber": "13", "addr:postcode": "3525", "addr:street": "Madar\u00e1sz Viktor utca", "amenity": "pharmacy", "brand": "Kulcs Patik\u00e1k", "brand:website": "https://kulcspatikak.hu/", "healthcare": "pharmacy", "level": "0", "name": "Sas Gy\u00f3gyszert\u00e1r", "wheelchair": "yes"}}, {"type": "node", "id": 4361882516, "lat": 48.0640214, "lon": 20.7498311, "tags": {"addr:city": "Miskolc", "addr:housenumber": "9", "addr:postcode": "3519", "addr:street": "Miskolctapolcai \u00fat", "amenity": "pharmacy", "brand": "Alma Gy\u00f3gyszert\u00e1rak", "brand:website": "https://almapatika.hu/", "healthcare": "pharmacy", "name": "Belladonna Gy\u00f3gyszert\u00e1r"}}, {"type": "node", "id": 4523965491, "lat": 48.0093969, "lon": 20.6917228, "tags": {"amenity": "pharmacy", "healthcare": "pharmacy"}}, {"type": "node", "id": 4853972870, "lat": 48.1165663, "lon": 20.8961845, "tags": {"addr:city": "Onga", "addr:housenumber": "43", "addr:postcode": "3562", "addr:street": "Bem ap\u00f3 utca", "amenity": "pharmacy", "contact:phone": "+36 46 464 144", "healthcare": "pharmacy", "name": "Arkangyal gy\u00f3gyszert\u00e1r", "opening_hours": "Mo-Fr 08:00-16:00; Tu,Th 10:00-18:00"}}, {"type": "node", "id": 5097618094, "lat": 48.0818714, "lon": 20.7838177, "tags": {"addr:city": "Miskolc", "addr:housenumber": "14/a", "addr:postcode": "3529", "addr:street": "Testv\u00e9rv\u00e1rosok \u00fatja", "amenity": "pharmacy", "healthcare": "pharmacy", "name": "Fontana Gy\u00f3gyszert\u00e1r", "opening_hours": "Mo-Fr 08:00-19:00; Sa 08:00-13:00"}}, {"type": "node", "id": 5151333672, "lat": 48.1029262, "lon": 20.8072795, "tags": {"addr:city": "Miskolc", "addr:housenumber": "45", "addr:postcode": "3527", "addr:street": "Bajcsy-Zsilinszky \u00fat", "amenity": "pharmacy", "healthcare": "pharmacy", "name": "B\u00e9ke Gy\u00f3gyszert\u00e1r"}}, {"type": "node", "id": 5164745319, "lat": 48.088329, "lon": 20.7734509}, {"type": "node", "id": 5164745326, "lat": 48.088328, "lon": 20.7734395}, {"type": "node", "id": 5164745327, "lat": 48.0883902, "lon": 20.7734313}, {"type": "node", "id": 5287543689, "lat": 48.1022194, "lon": 20.7849102, "tags": {"amenity": "pharmacy", "healthcare": "pharmacy"}}, {"type": "node", "id": 5294664140, "lat": 48.0722723, "lon": 20.8284487}, {"type": "node", "id": 5294664141, "lat": 48.0721868, "lon": 20.8285184}, {"type": "node", "id": 5294664142, "lat": 48.0721128, "lon": 20.8283155}, {"type": "node", "id": 5294664143, "lat": 48.0722019, "lon": 20.8282458}, {"type": "node", "id": 5426786221, "lat": 47.9611643, "lon": 20.7439886, "tags": {"amenity": "pharmacy", "healthcare": "pharmacy"}}, {"type": "node", "id": 5856229052, "lat": 47.9362412, "lon": 20.4764184}, {"type": "node", "id": 5856229053, "lat": 47.9362341, "lon": 20.4766604}, {"type": "node", "id": 5856229054, "lat": 47.9362435, "lon": 20.476661}, {"type": "node", "id": 5856229055, "lat": 47.9362402, "lon": 20.4767735}, {"type": "node", "id": 5856229056, "lat": 47.936299, "lon": 20.4767774}, {"type": "node", "id": 5856229057, "lat": 47.9363094, "lon": 20.4764229}, {"type": "node", "id": 6305713165, "lat": 48.1024697, "lon": 20.7314546, "tags": {"amenity": "pharmacy", "dispensing": "yes", "healthcare": "pharmacy", "name": "B\u00fckk Gy\u00f3gyszert\u00e1r"}}, {"type": "node", "id": 6305713166, "lat": 48.1026425, "lon": 20.7850363, "tags": {"addr:city": "Miskolc", "amenity": "pharmacy", "dispensing": "yes", "healthcare": "pharmacy", "name": "K\u00edgy\u00f3 Gy\u00f3gyszert\u00e1r", "operator": "BENU Magyarorsz\u00e1g Zrt."}}, {"type": "node", "id": 6305713167, "lat": 48.1024501, "lon": 20.7849729, "tags": {"addr:city": "Miskolc", "addr:housenumber": "26", "addr:postcode": "3530", "addr:street": "Sz\u00e9chenyi Istv\u00e1n utca", "amenity": "pharmacy", "brand": "Kulcs Patik\u00e1k", "brand:website": "https://kulcspatikak.hu/", "dispensing": "yes", "healthcare": "pharmacy", "name": "Adonisz Gy\u00f3gyszert\u00e1r"}}, {"type": "node", "id": 6305713168, "lat": 48.0981373, "lon": 20.7044909, "tags": {"addr:city": "Miskolc", "addr:housenumber": "1", "addr:postcode": "3534", "addr:street": "Kand\u00f3 K\u00e1lm\u00e1n utca", "amenity": "pharmacy", "brand": "Gy\u00f6ngy Patik\u00e1k", "brand:website": "https://gyongypatikak.hu/", "dispensing": "yes", "healthcare": "pharmacy", "name": "Aranykehely Gy\u00f3gyszert\u00e1r"}}, {"type": "node", "id": 6485813850, "lat": 48.1027857, "lon": 20.7438799, "tags": {"addr:city": "Miskolc", "addr:housenumber": "105", "addr:postcode": "3532", "addr:street": "Gy\u0151ri kapu", "amenity": "pharmacy", "brand": "Kulcs Patik\u00e1k", "brand:website": "https://kulcspatikak.hu/", "healthcare": "pharmacy", "name": "S\u00f3lyom Gy\u00f3gyszert\u00e1r"}}, {"type": "node", "id": 6503461329, "lat": 48.0883195, "lon": 20.7732902}, {"type": "node", "id": 6503461330, "lat": 48.0883846, "lon": 20.7732822}, {"type": "node", "id": 6503461331, "lat": 48.0883907, "lon": 20.773446}, {"type": "node", "id": 6503461332, "lat": 48.0883287, "lon": 20.7734447}, {"type": "node", "id": 7236311577, "lat": 47.8995177, "lon": 20.3686929, "tags": {"amenity": "pharmacy", "brand": "Alma Gy\u00f3gyszert\u00e1r", "brand:website": "https://almapatika.hu", "brand:wikidata": "Q105626221", "dispensing": "yes", "healthcare": "pharmacy", "name": "Alma Gy\u00f3gyszert\u00e1r"}}, {"type": "node", "id": 7973751155, "lat": 48.0573081, "lon": 20.351517, "tags": {"addr:city": "B\u00e9lap\u00e1tfalva", "addr:housenumber": "1", "addr:postcode": "3346", "addr:street": "Vas\u00fat utca", "amenity": "pharmacy", "dispensing": "yes", "healthcare": "pharmacy", "operator": "Fazekas M\u00e1ria Katalin", "phone": "+36 36 354199"}}, {"type": "node", "id": 8493766268, "lat": 48.2176908, "lon": 20.7161486, "tags": {"addr:city": "Saj\u00f3szentp\u00e9ter", "addr:housenumber": "128", "addr:postcode": "3770", "addr:street": "Kossuth Lajos \u00fat", "amenity": "pharmacy", "healthcare": "pharmacy", "name": "P\u00e9teri Patika"}}, {"type": "node", "id": 8533476837, "lat": 48.0709076, "lon": 20.8862079, "tags": {"addr:city": "Als\u00f3zsolca", "addr:housenumber": "10", "addr:postcode": "3571", "addr:street": "J\u00f3kai utca", "amenity": "pharmacy", "dispensing": "yes", "healthcare": "pharmacy", "name": "Szilvia Gy\u00f3gyszert\u00e1r"}}, {"type": "node", "id": 9899697517, "lat": 47.7457797, "lon": 20.4198289, "tags": {"amenity": "pharmacy", "name": "M\u00e1ty\u00e1s Kir\u00e1ly Gy\u00f3gyszert\u00e1r"}}, {"type": "node", "id": 10218434238, "lat": 47.8099134, "lon": 20.5497681, "tags": {"addr:city": "Mez\u0151k\u00f6vesd", "addr:housenumber": "51", "addr:postcode": "3400", "addr:street": "Egri \u00fat", "amenity": "pharmacy", "dispensing": "yes", "drive_through": "no", "healthcare": "pharmacy", "name": "PatikaPlus", "opening_hours": "Mo-Sa 08:00-20:00, Su 08:00-18:00", "operator": "PatikaPlus", "phone": "+3649500228", "website": "https://patikaplus.hu"}}, {"type": "node", "id": 10916571834, "lat": 47.9923286, "lon": 20.8364656, "tags": {"amenity": "pharmacy", "brand": "Gy\u00f6ngy", "healthcare": "pharmacy", "name": "Var\u00e1zs Gy\u00f3gyszert\u00e1r", "opening_hours": "Mo-Th 07:30-16:30; Fr 07:30-14:00"}}, {"type": "node", "id": 11101288132, "lat": 48.1005102, "lon": 20.7292736, "tags": {"addr:city": "Miskolc", "addr:housenumber": "13-15", "addr:postcode": "3533", "addr:street": "Harmadik utca", "amenity": "pharmacy", "brand": "Alma Gy\u00f3gyszert\u00e1rak", "brand:website": "https://almapatika.hu/", "healthcare": "pharmacy", "name": "Krist\u00e1ly Gy\u00f3gyszert\u00e1r", "opening_hours": "Mo-Fr 07:30-17:00; Sa 07:30-12:00"}}, {"type": "node", "id": 11192884696, "lat": 48.0740561, "lon": 20.7773716, "tags": {"amenity": "pharmacy", "brand": "Benu", "brand:wikidata": "Q62562792", "healthcare": "pharmacy", "name": "Corso Gy\u00f3gyszert\u00e1r"}}, {"type": "node", "id": 11955383375, "lat": 48.0807908, "lon": 20.7785346, "tags": {"addr:city": "Miskolc", "addr:housenumber": "25", "addr:postcode": "3529", "addr:street": "Szentgy\u00f6rgy \u00fat", "amenity": "pharmacy", "brand": "Benu", "brand:wikidata": "Q62562792", "healthcare": "pharmacy", "name": "BENU Gy\u00f3gyszert\u00e1r Miskolc Csontv\u00e1ry", "opening_hours": "Mo-Fr 08:00-18:00"}}, {"type": "node", "id": 12222117016, "lat": 48.0923135, "lon": 20.8063639}, {"type": "node", "id": 12222117017, "lat": 48.0921859, "lon": 20.80633}, {"type": "node", "id": 12222117018, "lat": 48.09219, "lon": 20.8062592}, {"type": "node", "id": 12222117019, "lat": 48.0921159, "lon": 20.8062438}, {"type": "node", "id": 12222117020, "lat": 48.0920984, "lon": 20.8064132}, {"type": "node", "id": 12222117021, "lat": 48.092119, "lon": 20.8064733}, {"type": "node", "id": 12222117022, "lat": 48.0923042, "lon": 20.8065288}, {"type": "node", "id": 12394019121, "lat": 48.1008376, "lon": 20.7034096, "tags": {"amenity": "pharmacy", "healthcare": "pharmacy", "name": "Aranys\u00e1rk\u00e1ny Gy\u00f3gyszert\u00e1r"}}, {"type": "node", "id": 12514156597, "lat": 48.000885, "lon": 20.9180197, "tags": {"amenity": "pharmacy", "name": "BENU Gy\u00f3gyszert\u00e1r"}}, {"type": "node", "id": 12521030570, "lat": 48.1014958, "lon": 20.687053, "tags": {"amenity": "pharmacy", "brand": "Benu", "brand:wikidata": "Q62562792", "dispensing": "yes", "healthcare": "pharmacy", "name": "Di\u00f3sgy\u0151ri Gy\u00f3gyszert\u00e1r", "operator": "BENU"}}, {"type": "node", "id": 12585170597, "lat": 47.9023402, "lon": 20.9448188}, {"type": "node", "id": 12585170598, "lat": 47.9022456, "lon": 20.9447707}, {"type": "node", "id": 12585170599, "lat": 47.9022787, "lon": 20.944626}, {"type": "node", "id": 12585170600, "lat": 47.9023733, "lon": 20.9446742}, {"type": "node", "id": 12626576068, "lat": 48.1029619, "lon": 20.793063, "tags": {"addr:city": "Miskolc", "addr:housenumber": "8", "addr:postcode": "3530", "addr:street": "Bajcsy-Zsilinszky \u00fat", "amenity": "pharmacy", "brand": "Kulcs Patik\u00e1k", "brand:website": "https://kulcspatikak.hu/", "healthcare": "pharmacy", "name": "Vir\u00e1g Gy\u00f3gyszert\u00e1r"}}, {"type": "node", "id": 12662516759, "lat": 48.103086, "lon": 20.769251, "tags": {"addr:city": "Miskolc", "addr:housenumber": "4", "addr:postcode": "3530", "addr:street": "Malomsz\u00f6g utca", "amenity": "pharmacy", "brand": "Gy\u00f6ngy Patik\u00e1k", "brand:website": "https://gyongypatikak.hu/", "healthcare": "pharmacy", "name": "Johanna Gy\u00f3gyszert\u00e1r"}}, {"type": "node", "id": 12740905030, "lat": 48.1049434, "lon": 20.7923663, "tags": {"addr:city": "Miskolc", "addr:housenumber": "1", "addr:postcode": "3526", "addr:street": "B\u00faza t\u00e9r", "amenity": "pharmacy", "brand": "Kulcs Patik\u00e1k", "brand:website": "https://kulcspatikak.hu/", "healthcare": "pharmacy", "name": "V\u00e1s\u00e1rcsarnok Gy\u00f3gyszert\u00e1r"}}, {"type": "node", "id": 12744159264, "lat": 48.1260239, "lon": 20.7823777, "tags": {"addr:city": "Miskolc", "addr:housenumber": "103", "addr:postcode": "3526", "addr:street": "Szentp\u00e9teri kapu", "amenity": "pharmacy", "brand": "Alma Gy\u00f3gyszert\u00e1rak", "brand:website": "https://almapatika.hu/", "healthcare": "pharmacy", "name": "Harm\u00f3nia Gy\u00f3gyszert\u00e1r Tesco"}}, {"type": "node", "id": 12744159265, "lat": 48.1033475, "lon": 20.7640716, "tags": {"addr:city": "Miskolc", "addr:housenumber": "2", "addr:postcode": "3531", "addr:street": "Nagyv\u00e1thy J\u00e1nos utca", "amenity": "pharmacy", "brand": "Alma Gy\u00f3gyszert\u00e1rak", "brand:website": "https://almapatika.hu/", "healthcare": "pharmacy", "name": "Alma Gy\u00f3gyszert\u00e1r"}}, {"type": "node", "id": 12744159266, "lat": 48.05837, "lon": 20.8003485, "tags": {"addr:city": "Miskolc", "addr:housenumber": "19", "addr:postcode": "3516", "addr:street": "Pesti \u00fat", "amenity": "pharmacy", "brand": "Gy\u00f6ngy Patik\u00e1k", "brand:website": "https://gyongypatikak.hu/", "healthcare": "pharmacy", "name": "Thymbra-Medoswiss Gy\u00f3gyszert\u00e1r"}}, {"type": "node", "id": 12841480147, "lat": 48.0903636, "lon": 20.7242918, "tags": {"amenity": "pharmacy", "name": "Rozmaring Gy\u00f3gyszert\u00e1r"}}, {"type": "node", "id": 12960646973, "lat": 47.8291105, "lon": 20.6893649, "tags": {"addr:city": "Mez\u0151keresztes", "addr:housenumber": "49", "addr:postcode": "3441", "addr:street": "D\u00f3zsa Gy\u00f6rgy \u00fat", "amenity": "pharmacy", "dispensing": "yes", "drive_through": "no", "healthcare": "pharmacy", "name": "Ilona Patika Bt.", "opening_hours": "Mo-Th 08:00-16:30; Fr 08:00-16:00", "wheelchair": "limited"}}, {"type": "node", "id": 13099104840, "lat": 48.0158354, "lon": 20.8231331, "tags": {"addr:city": "M\u00e1lyi", "addr:housenumber": "8", "addr:postcode": "3434", "addr:street": "F\u0151 utca", "amenity": "pharmacy", "brand": "Alma Gy\u00f3gyszert\u00e1r", "brand:wikidata": "Q105626221", "healthcare": "pharmacy", "name": "Alma Gy\u00f3gyszert\u00e1r"}}, {"type": "way", "id": 121058819, "nodes": [1356043653, 1356043646, 1356043650, 1356043647, 1356043653], "tags": {"addr:city": "Miskolc", "addr:housenumber": "5", "addr:postcode": "3529", "addr:street": "Szentgy\u00f6rgy \u00fat", "amenity": "pharmacy", "brand": "Kulcs Patik\u00e1k", "brand:website": "https://kulcspatikak.hu/", "building": "yes", "drive_through": "no", "healthcare": "pharmacy", "name": "Szent Damj\u00e1n Gy\u00f3gyszert\u00e1r", "opening_hours": "Mo-Fr 08:00-16:00"}}, {"type": "way", "id": 199076790, "nodes": [2089215890, 2091199691, 2091199831, 2091199630, 2089215890], "tags": {"addr:city": "Cser\u00e9pfalu", "addr:housenumber": "3", "addr:postcode": "3413", "addr:street": "Noszvaji utca", "amenity": "pharmacy", "building": "yes", "healthcare": "pharmacy", "name": "Pesti Patika Gy\u00f3gyszert\u00e1r"}}, {"type": "way", "id": 306027608, "nodes": [3107939835, 3107939836, 3107939837, 3107939838, 3107939839, 3107939840, 3107939835], "tags": {"addr:city": "Saj\u00f3szentp\u00e9ter", "addr:housenumber": "218", "addr:postcode": "3770", "addr:street": "Kossuth Lajos \u00fat", "amenity": "pharmacy", "building": "yes", "healthcare": "pharmacy", "name": "Familia gy\u00f3gyszert\u00e1r"}}, {"type": "way", "id": 318765104, "nodes": [3251345039, 3251344949, 3251344993, 3251344924, 3251345039], "tags": {"addr:city": "Em\u0151d", "addr:housenumber": "36", "addr:postcode": "3432", "addr:street": "Arany J\u00e1nos \u00fat", "amenity": "pharmacy", "building": "residential", "opening_hours": "closed"}}, {"type": "way", "id": 374684623, "nodes": [3780672818, 3780672820, 3780672849, 3780672848, 3780672859, 3780672856, 3780672844, 3780672845, 3780672818], "tags": {"addr:city": "Miskolc", "addr:housenumber": "11/A", "addr:postcode": "3529", "addr:street": "Csabai kapu", "amenity": "pharmacy", "brand": "Alma Gy\u00f3gyszert\u00e1rak", "brand:website": "https://almapatika.hu/", "building": "yes", "check_date": "2024-08-06", "healthcare": "pharmacy", "name": "Szent R\u00f3kus Gy\u00f3gyszert\u00e1r", "opening_hours": "Mo-Fr 07:00-22:00; Sa-Su 08:00-22:00"}}, {"type": "way", "id": 532171517, "nodes": [6503461329, 6503461330, 5164745327, 6503461331, 5164745319, 6503461332, 5164745326, 6503461329], "tags": {"addr:city": "Miskolc", "addr:housenumber": "9-11", "addr:postcode": "3524", "addr:street": "Klapka Gy\u00f6rgy utca", "amenity": "pharmacy", "building": "yes", "drive_through": "no", "healthcare": "pharmacy", "layer": "-1"}}, {"type": "way", "id": 548017307, "nodes": [5294664140, 5294664141, 5294664142, 5294664143, 5294664140], "tags": {"amenity": "pharmacy", "building": "yes"}}, {"type": "way", "id": 619747571, "nodes": [5856229052, 5856229053, 5856229054, 5856229055, 5856229056, 5856229057, 5856229052], "tags": {"addr:city": "Noszvaj", "addr:housenumber": "20", "addr:postcode": "3325", "addr:street": "Kossuth Lajos \u00fat", "amenity": "pharmacy", "building": "house", "opening_hours": "Mo-Fr 08:30-11:00"}}, {"type": "way", "id": 1320706028, "nodes": [12222117016, 12222117017, 12222117018, 12222117019, 12222117020, 12222117021, 12222117022, 12222117016], "tags": {"amenity": "pharmacy", "building": "yes", "healthcare": "pharmacy", "name": "Krisztina Gy\u00f3gyszert\u00e1r", "opening_hours": "Mo-Fr 08:00-18:00; Sa 08:00-12:00; Su,PH off"}}, {"type": "way", "id": 1359602224, "nodes": [12585170600, 12585170597, 12585170598, 12585170599, 12585170600], "tags": {"amenity": "pharmacy", "building": "yes"}}]}