{"version": 0.6, "generator": "Overpass API 0.7.62.8 e802775f", "osm3s": {"timestamp_osm_base": "2025-10-06T07:54:35Z", "copyright": "The data included in this document is from www.openstreetmap.org. The data is made available under ODbL."}, "elements": [{"type": "node", "id": 4247664089, "lat": 41.7964971, "lon": 20.9078402, "tags": {"amenity": "pharmacy", "name": "Pharmacy"}}, {"type": "node", "id": 4266843472, "lat": 42.0044051, "lon": 20.9895857, "tags": {"amenity": "pharmacy", "name": "Kemofarmacia"}}, {"type": "node", "id": 4502450590, "lat": 41.9413078, "lon": 20.9271416, "tags": {"addr:postcode": "1221", "addr:street": "101", "amenity": "pharmacy", "name": "Apoteka Narten", "name:en": "Pharmacy Narten", "name:mk": "Apoteka Narten", "name:sq": "Farmacia Narten"}}, {"type": "node", "id": 4502463697, "lat": 41.943774, "lon": 20.9281745, "tags": {"amenity": "pharmacy"}}, {"type": "node", "id": 4502469395, "lat": 41.9674905, "lon": 20.9344403, "tags": {"amenity": "pharmacy"}}, {"type": "node", "id": 4915240922, "lat": 42.0094415, "lon": 20.9711097, "tags": {"amenity": "pharmacy", "name": "\u0417\u0435\u0433\u0438\u043d \u0410\u043f\u043e\u0442\u0435\u043a\u0430", "name:en": "Zegin Pharmacy"}}, {"type": "node", "id": 5300516121, "lat": 41.9230287, "lon": 20.9160281, "tags": {"addr:postcode": "1220", "addr:street": "102", "amenity": "pharmacy", "name": "\u0415\u043b\u0430\u0440\u0434\u0430", "name:en": "Elarda", "name:sq": "Elarda", "opening_hours": "Mo-Sa 08:00-20:00", "operator": "Albon Xhemaili"}}, {"type": "node", "id": 5543730623, "lat": 41.9449878, "lon": 20.67059, "tags": {"addr:street": "sarajevska", "amenity": "pharmacy", "healthcare": "pharmacy", "name": "barnatore", "name:it": "farmacia", "name:mk": "\u0410\u043f\u0442\u0435\u043a\u0430", "name:sr": "apoteka", "opening_hours": "Mo-Fr 09:00-13:00"}}, {"type": "node", "id": 11076925771, "lat": 41.701202, "lon": 20.7565197, "tags": {"amenity": "pharmacy", "note": "location is an approximation"}}]}