{"version": 0.6, "generator": "Overpass API 0.7.62.8 e802775f", "osm3s": {"timestamp_osm_base": "2025-10-06T09:00:45Z", "copyright": "The data included in this document is from www.openstreetmap.org. The data is made available under ODbL."}, "elements": [{"type": "node", "id": 851559923, "lat": 50.4277188, "lon": 25.3362617, "tags": {"addr:postcode": "35200", "addr:street": "\u041a\u043e\u043e\u043f\u0435\u0440\u0430\u0442\u0438\u0432\u043d\u0430 \u0432\u0443\u043b\u0438\u0446\u044f", "amenity": "pharmacy", "dispensing": "yes", "drive_through": "yes", "healthcare": "pharmacy", "opening_hours": "Mo-Fr 08:00-19:00; Sa 08:00-18:00; Su 09:00-15:00", "operator": "\u0412\u0410\u0422 \"\u0420\u0456\u0432\u043d\u0435\u0444\u0430\u0440\u043c\u0430\u0446\u0456\u044f\""}}, {"type": "node", "id": 2656646906, "lat": 50.0855719, "lon": 25.153188, "tags": {"amenity": "pharmacy", "healthcare": "pharmacy"}}, {"type": "node", "id": 2658430684, "lat": 50.0837373, "lon": 25.1465511, "tags": {"addr:housenumber": "13", "addr:street": "\u0417\u043e\u043b\u043e\u0442\u0430 \u0432\u0443\u043b\u0438\u0446\u044f", "amenity": "pharmacy", "name": "\u0417\u0430\u0445\u0456\u0434\u043d\u0430 \u0424\u0430\u0440\u043c\u0430\u0446\u0435\u0444\u0442\u0438\u0447\u043d\u0430 \u041a\u043e\u043c\u043f\u0430\u043d\u0456\u044f", "name:uk": "\u0417\u0430\u0445\u0456\u0434\u043d\u0430 \u0424\u0430\u0440\u043c\u0430\u0446\u0435\u0444\u0442\u0438\u0447\u043d\u0430 \u041a\u043e\u043c\u043f\u0430\u043d\u0456\u044f", "opening_hours": "Mo-Su 09:00-21:00"}}, {"type": "node", "id": 2808724908, "lat": 50.4303831, "lon": 25.3391122, "tags": {"amenity": "pharmacy", "dispensing": "no", "name": "\u0420\u0456\u0432\u043d\u0435\u043b\u0456\u043a\u0438", "name:uk": "\u0420\u0456\u0432\u043d\u0435\u043b\u0456\u043a\u0438"}}, {"type": "node", "id": 3038435747, "lat": 50.4282619, "lon": 25.3378836, "tags": {"addr:postcode": "35200", "addr:street": "\u0432\u0443\u043b\u0438\u0446\u044f \u041c\u0438\u0440\u0443", "amenity": "pharmacy", "dispensing": "no", "healthcare": "pharmacy", "opening_hours": "Mo-Su 09:00-19:00", "operator": "\u0420\u0456\u0432\u043d\u0435\u043b\u0456\u043a\u0438", "payment:cards": "yes", "payment:cash": "yes"}}, {"type": "node", "id": 3042066267, "lat": 50.4242513, "lon": 25.3316439, "tags": {"amenity": "pharmacy", "dispensing": "no", "healthcare": "pharmacy"}}, {"type": "node", "id": 3073192295, "lat": 50.4309732, "lon": 25.3419035, "tags": {"amenity": "pharmacy", "dispensing": "no", "healthcare": "pharmacy", "operator": "Amrita"}}, {"type": "node", "id": 3731616058, "lat": 50.2199412, "lon": 24.8467845, "tags": {"amenity": "pharmacy", "healthcare": "pharmacy"}}, {"type": "node", "id": 4401374570, "lat": 50.0806262, "lon": 25.1428094, "tags": {"amenity": "pharmacy", "name": "\u041c\u0456\u043a\u0441\u0442\u0443\u0440\u0430", "name:uk": "\u041c\u0456\u043a\u0441\u0442\u0443\u0440\u0430"}}, {"type": "node", "id": 4402337111, "lat": 50.0815513, "lon": 25.1454935, "tags": {"addr:housenumber": "2", "addr:street": "\u0432\u0443\u043b\u0438\u0446\u044f \u0413\u0430\u043b\u0438\u043d\u0438 \u0421\u0442\u043e\u043b\u044f\u0440", "amenity": "pharmacy", "name": "\u0412\u0430\u0448\u0435 \u0437\u0434\u043e\u0440\u043e\u0432'\u044f", "name:uk": "\u0412\u0430\u0448\u0435 \u0437\u0434\u043e\u0440\u043e\u0432'\u044f"}}, {"type": "node", "id": 4402337112, "lat": 50.0834848, "lon": 25.1472549, "tags": {"addr:housenumber": "26", "addr:street": "\u0417\u043e\u043b\u043e\u0442\u0430 \u0432\u0443\u043b\u0438\u0446\u044f", "amenity": "pharmacy", "brand": "3\u0456", "brand:wikidata": "Q117705687", "healthcare": "pharmacy", "name": "3\u0456", "name:uk": "3\u0456", "operator": "\u0422\u0437\u041e\u0412 \u00ab\u0421\u0430\u043b\u044c\u0432\u0435-\u041b\u044c\u0432\u0456\u0432\u00bb", "website": "https://3i.ua/merezha-aptek/lvivska-oblast"}}, {"type": "node", "id": 4402337115, "lat": 50.0835, "lon": 25.1471468, "tags": {"addr:housenumber": "24", "addr:street": "\u0417\u043e\u043b\u043e\u0442\u0430 \u0432\u0443\u043b\u0438\u0446\u044f", "amenity": "pharmacy", "name": "\u041c\u0435\u0434-\u0441\u0435\u0440\u0432\u0456\u0441", "name:uk": "\u041c\u0435\u0434-\u0441\u0435\u0440\u0432\u0456\u0441", "operator": "\u0422\u0437\u041e\u0412 \"\u041c\u0435\u0434\u0441\u0435\u0440\u0432\u0456\u0441-\u041b\u044c\u0432\u0456\u0432\""}}, {"type": "node", "id": 4402337116, "lat": 50.0749693, "lon": 25.1411394, "tags": {"amenity": "pharmacy", "name": "\u0412\u043e\u043b\u0438\u043d\u044c\u0444\u0430\u0440\u043c", "name:uk": "\u0412\u043e\u043b\u0438\u043d\u044c\u0444\u0430\u0440\u043c", "operator": "\u0412\u043e\u043b\u0438\u043d\u044c\u0444\u0430\u0440\u043c"}}, {"type": "node", "id": 4402337117, "lat": 50.0791271, "lon": 25.1422871, "tags": {"addr:housenumber": "34", "addr:street": "\u0417\u0430\u043b\u0456\u0437\u043d\u0438\u0447\u043d\u0430 \u0432\u0443\u043b\u0438\u0446\u044f", "amenity": "pharmacy", "name": "\u041a\u041f \u00ab\u0412\u0435\u0442\u0444\u0430\u0440\u043c\u00bb", "name:uk": "\u041a\u041f \u00ab\u0412\u0435\u0442\u0444\u0430\u0440\u043c\u00bb", "operator": "\u041a\u041f \"\u0412\u0435\u0442\u0444\u0430\u0440\u043c\""}}, {"type": "node", "id": 4402337118, "lat": 50.0840988, "lon": 25.1444093, "tags": {"addr:housenumber": "1/18", "addr:street": "\u0417\u043e\u043b\u043e\u0442\u0430 \u0432\u0443\u043b\u0438\u0446\u044f", "amenity": "pharmacy", "name": "\u0417\u0434\u043e\u0440\u043e\u0432\u0430 \u0440\u043e\u0434\u0438\u043d\u0430", "name:uk": "\u0417\u0434\u043e\u0440\u043e\u0432\u0430 \u0440\u043e\u0434\u0438\u043d\u0430", "operator": "\u0422\u0437\u041e\u0412 \"\u0421\u0430\u043b\u044c\u0432\u0435-\u041b\u044c\u0432\u0456\u0432\""}}, {"type": "node", "id": 4402337120, "lat": 50.0821792, "lon": 25.1438612, "tags": {"addr:housenumber": "2", "addr:street": "\u0412\u0435\u0441\u0435\u043b\u0430 \u0432\u0443\u043b\u0438\u0446\u044f", "amenity": "pharmacy", "name": "\u0412\u0456\u0430", "name:uk": "\u0412\u0456\u0430", "operator": "\u0422\u0437\u041e\u0412 \"\u0424\u0430\u043b\u0431\u0456-\u041b\u044c\u0432\u0456\u0432\""}}, {"type": "node", "id": 4402347024, "lat": 50.085328, "lon": 25.1522689, "tags": {"amenity": "pharmacy", "brand": "3\u0456", "brand:wikidata": "Q117705687", "healthcare": "pharmacy", "name": "3\u0456", "name:uk": "3\u0456", "website": "https://3i.ua/"}}, {"type": "node", "id": 4402347025, "lat": 50.0837059, "lon": 25.1418915, "tags": {"addr:housenumber": "30", "addr:street": "\u043f\u043b\u043e\u0449\u0430 \u0420\u0438\u043d\u043e\u043a", "amenity": "pharmacy"}}, {"type": "node", "id": 4432322680, "lat": 50.083519, "lon": 25.1413576, "tags": {"amenity": "pharmacy"}}, {"type": "node", "id": 4440926287, "lat": 50.0827954, "lon": 25.1393221, "tags": {"amenity": "pharmacy", "name": "\u041a\u041f \u041b\u041e\u0420 \u00ab\u0426\u0435\u043d\u0442\u0440\u0430\u043b\u044c\u043d\u0430 \u0440\u0430\u0439\u043e\u043d\u043d\u0430 \u0430\u043f\u0442\u0435\u043a\u0430 \u2116 79\u00bb", "name:uk": "\u041a\u041f \u041b\u041e\u0420 \u00ab\u0426\u0435\u043d\u0442\u0440\u0430\u043b\u044c\u043d\u0430 \u0440\u0430\u0439\u043e\u043d\u043d\u0430 \u0430\u043f\u0442\u0435\u043a\u0430 \u2116 79\u00bb"}}, {"type": "node", "id": 4462758999, "lat": 50.1287398, "lon": 25.2511899, "tags": {"amenity": "pharmacy"}}, {"type": "node", "id": 4462759002, "lat": 50.1250014, "lon": 25.2504682, "tags": {"amenity": "pharmacy", "name": "\u0410\u043f\u0442\u0435\u043a\u0430", "name:uk": "\u0410\u043f\u0442\u0435\u043a\u0430"}}, {"type": "node", "id": 4462759017, "lat": 50.1269205, "lon": 25.2501871, "tags": {"amenity": "pharmacy"}}, {"type": "node", "id": 4515262831, "lat": 50.3494829, "lon": 25.0240845}, {"type": "node", "id": 4515262832, "lat": 50.3493798, "lon": 25.0241134}, {"type": "node", "id": 4515262833, "lat": 50.3493975, "lon": 25.0242688}, {"type": "node", "id": 4515262834, "lat": 50.3494632, "lon": 25.0242504}, {"type": "node", "id": 4515262835, "lat": 50.3494582, "lon": 25.0242071}, {"type": "node", "id": 4515262836, "lat": 50.3494957, "lon": 25.0241966}, {"type": "node", "id": 4973889750, "lat": 50.0911652, "lon": 25.1547303, "tags": {"amenity": "pharmacy"}}, {"type": "node", "id": 4984392799, "lat": 50.0846898, "lon": 25.1416482, "tags": {"amenity": "pharmacy", "healthcare": "pharmacy"}}, {"type": "node", "id": 5176483678, "lat": 50.1277575, "lon": 25.2505115, "tags": {"addr:housenumber": "10", "addr:postcode": "35550", "addr:street": "\u0432\u0443\u043b\u0438\u0446\u044f \u041d\u0435\u0432\u0441\u044c\u043a\u043e\u0433\u043e", "amenity": "pharmacy", "healthcare": "pharmacy", "name": "\u041f\u043e\u0434\u043e\u0440\u043e\u0436\u043d\u0438\u043a", "name:uk": "\u041f\u043e\u0434\u043e\u0440\u043e\u0436\u043d\u0438\u043a", "opening_hours": "Mo-Su 09:00-20:00"}}, {"type": "node", "id": 6119534202, "lat": 50.1162695, "lon": 25.1288036}, {"type": "node", "id": 6119534203, "lat": 50.1163088, "lon": 25.1287627}, {"type": "node", "id": 6119534204, "lat": 50.1163374, "lon": 25.1289625}, {"type": "node", "id": 6119534205, "lat": 50.1163767, "lon": 25.1289216}, {"type": "node", "id": 6281616245, "lat": 50.0850346, "lon": 25.1443966, "tags": {"amenity": "pharmacy"}}, {"type": "node", "id": 6281616246, "lat": 50.0839185, "lon": 25.1453407, "tags": {"amenity": "pharmacy", "contact:email": "admin@apteka911.com.ua", "contact:facebook": "https://www.facebook.com/apteki911", "contact:website": "https://apteka911.com.ua/", "contact:youtube": "https://www.youtube.com/channel/UCgft8X02aVC-B8WwpKiFEIg", "name": "\u0410\u043f\u0442\u0435\u043a\u0430 \u043e\u043f\u0442\u043e\u0432\u0438\u0445 \u0446\u0456\u043d", "name:ru": "\u0410\u043f\u0442\u0435\u043a\u0430 \u043e\u043f\u0442\u043e\u0432\u044b\u0445 \u0446\u0435\u043d", "name:uk": "\u0410\u043f\u0442\u0435\u043a\u0430 \u043e\u043f\u0442\u043e\u0432\u0438\u0445 \u0446\u0456\u043d", "opening_hours": "Mo-Su 08:00-20:00", "operator": "\u0424\u0410\u0420\u041c\u0410\u0426\u0406\u042f \u041b\u042c\u0412\u0406\u0412\u0429\u0418\u041d\u0418 \u0422\u041e\u0412", "phone:UA": "0 800 505 911"}}, {"type": "node", "id": 6290684312, "lat": 50.1276611, "lon": 25.2527066}, {"type": "node", "id": 6290684313, "lat": 50.1276081, "lon": 25.2527507}, {"type": "node", "id": 6290684314, "lat": 50.1276359, "lon": 25.2528321}, {"type": "node", "id": 6290684315, "lat": 50.127689, "lon": 25.252788}, {"type": "node", "id": 6297614259, "lat": 50.1287775, "lon": 25.2492511, "tags": {"amenity": "pharmacy", "dispensing": "yes", "healthcare": "pharmacy", "name": "\u0412\u0435\u0442\u0430\u043f\u0442\u0435\u043a\u0430", "name:uk": "\u0412\u0435\u0442\u0430\u043f\u0442\u0435\u043a\u0430", "operator": "\u0412\u0435\u0442\u0430\u043f\u0442\u0435\u043a\u0430"}}, {"type": "node", "id": 6483972361, "lat": 50.1245064, "lon": 25.2501649}, {"type": "node", "id": 6483972362, "lat": 50.1245603, "lon": 25.2503623}, {"type": "node", "id": 6483972363, "lat": 50.1246363, "lon": 25.2503119}, {"type": "node", "id": 6483972364, "lat": 50.1245833, "lon": 25.2501139}, {"type": "node", "id": 6634716385, "lat": 50.0836814, "lon": 25.1467335, "tags": {"addr:housenumber": "13", "addr:street": "\u0432\u0443\u043b\u0438\u0446\u044f \u0417\u043e\u043b\u043e\u0442\u0430", "amenity": "pharmacy", "contact:phone": "0800303111", "description": "\u041f\u043e\u0434\u043e\u0440\u043e\u0436\u043d\u0438\u043a \u2013 \u043d\u0430\u0439\u0431\u0456\u043b\u044c\u0448\u0430 \u043c\u0435\u0440\u0435\u0436\u0430 \u0430\u043f\u0442\u0435\u043a \u0423\u043a\u0440\u0430\u0457\u043d\u0438. \u0410\u0441\u043e\u0440\u0442\u0438\u043c\u0435\u043d\u0442 \u043d\u0430\u043b\u0456\u0447\u0443\u0454 \u043f\u043e\u043d\u0430\u0434 20 000 \u0442\u043e\u0432\u0430\u0440\u0456\u0432. \u0423 \u0430\u043f\u0442\u0435\u0446\u0456 \u0432\u0438 \u043c\u043e\u0436\u0435\u0442\u0435 \u043f\u0440\u0438\u0434\u0431\u0430\u0442\u0438 \u043f\u043e\u0442\u0440\u0456\u0431\u043d\u0456 \u043b\u0456\u043a\u0438, \u043a\u043e\u0441\u043c\u0435\u0442\u0438\u043a\u0443 \u0442\u0430 \u0456\u043d\u0448\u0456 \u043c\u0435\u0434\u0437\u0430\u0441\u043e\u0431\u0438.", "name": "\u0410\u043f\u0442\u0435\u043a\u0430 \u041f\u043e\u0434\u043e\u0440\u043e\u0436\u043d\u0438\u043a", "name:uk": "\u0410\u043f\u0442\u0435\u043a\u0430 \u041f\u043e\u0434\u043e\u0440\u043e\u0436\u043d\u0438\u043a", "opening_hours": "Mo-Fr 10:00-18:00; Sa 10:00-15:00", "website": "https://podorozhnyk.com"}}, {"type": "node", "id": 6634731085, "lat": 50.0834445, "lon": 25.1484542, "tags": {"amenity": "pharmacy", "name": "\u041f\u0443\u043b\u044c\u0441", "name:uk": "\u041f\u0443\u043b\u044c\u0441"}}, {"type": "node", "id": 6757182285, "lat": 50.3593472, "lon": 25.1212891, "tags": {"addr:street": "\u041d\u0430\u0431\u0435\u0440\u0435\u0436\u043d\u0430 \u0432\u0443\u043b\u0438\u0446\u044f", "amenity": "pharmacy", "name": "\u0410\u043f\u0442\u0435\u043a\u0430", "name:uk": "\u0410\u043f\u0442\u0435\u043a\u0430", "opening_hours": "Mo-Fr 09:00-18:00"}}, {"type": "node", "id": 6757246985, "lat": 50.3580805, "lon": 25.1208946, "tags": {"addr:street": "\u0432\u0443\u043b\u0438\u0446\u044f \u041d\u0435\u0437\u0430\u043b\u0435\u0436\u043d\u043e\u0441\u0442\u0456", "amenity": "pharmacy", "name": "\u0410\u043f\u0442\u0435\u043a\u0430", "name:uk": "\u0410\u043f\u0442\u0435\u043a\u0430", "opening_hours": "Mo-Sa 09:00-18:00"}}, {"type": "node", "id": 7812902276, "lat": 50.127484, "lon": 25.250022, "tags": {"amenity": "pharmacy", "contact:email": "admin@apteka911.com.ua", "contact:facebook": "https://www.facebook.com/apteki911", "contact:website": "https://apteka911.com.ua/", "contact:youtube": "https://www.youtube.com/channel/UCgft8X02aVC-B8WwpKiFEIg", "name": "\u0410\u043f\u0442\u0435\u043a\u0430 \u043e\u043f\u0442\u043e\u0432\u0438\u0445 \u0446\u0456\u043d", "name:ru": "\u0410\u043f\u0442\u0435\u043a\u0430 \u043e\u043f\u0442\u043e\u0432\u044b\u0445 \u0446\u0435\u043d", "name:uk": "\u0410\u043f\u0442\u0435\u043a\u0430 \u043e\u043f\u0442\u043e\u0432\u0438\u0445 \u0446\u0456\u043d", "opening_hours": "Mo-Su 08:00-21:00", "operator": "\u0424\u0410\u0420\u041c\u0410\u0426\u0406\u042f \u0420\u0406\u0412\u041d\u0415\u041d\u042c\u0429\u0418\u041d\u0418 \u0422\u041e\u0412", "phone:UA": "0 800 505 911"}}, {"type": "node", "id": 8996063489, "lat": 50.1265333, "lon": 25.249091}, {"type": "node", "id": 8996063490, "lat": 50.1264658, "lon": 25.249143}, {"type": "node", "id": 8996063491, "lat": 50.1264875, "lon": 25.2492134}, {"type": "node", "id": 8996063492, "lat": 50.1265083, "lon": 25.2491978}, {"type": "node", "id": 8996063493, "lat": 50.1265256, "lon": 25.2492538}, {"type": "node", "id": 8996063494, "lat": 50.1265734, "lon": 25.2492179}, {"type": "node", "id": 9680147163, "lat": 50.1241477, "lon": 25.2515883, "tags": {"amenity": "pharmacy", "dispensing": "yes", "healthcare": "pharmacy"}}, {"type": "node", "id": 9680159660, "lat": 50.1242441, "lon": 25.2529991, "tags": {"amenity": "pharmacy", "dispensing": "yes", "healthcare": "pharmacy"}}, {"type": "node", "id": 9731818658, "lat": 50.1246255, "lon": 25.2502725}, {"type": "node", "id": 9731818659, "lat": 50.1246095, "lon": 25.2502097}, {"type": "node", "id": 9731818660, "lat": 50.1246309, "lon": 25.2501955}, {"type": "node", "id": 9731818661, "lat": 50.1246479, "lon": 25.2502576}, {"type": "node", "id": 10881066807, "lat": 50.0837391, "lon": 25.1452693, "tags": {"addr:city": "\u0411\u0440\u043e\u0434\u044b", "addr:postcode": "80600", "addr:street": "\u0411\u0440\u043e\u0434\u044b, \u0443\u043b\u0438\u0446\u0430 \u0417\u043e\u043b\u043e\u0442\u0430\u044f, 8", "amenity": "pharmacy", "contact:phone": "+380800303111", "name": "\u041e\u0449\u0430\u0434 \u0410\u043f\u0442\u0435\u043a\u0430", "name:uk": "\u041e\u0449\u0430\u0434 \u0410\u043f\u0442\u0435\u043a\u0430", "opening_hours": "Mo-Fr 10:00-18:00; Sa 10:00-15:00"}}, {"type": "node", "id": 10881070006, "lat": 50.0840192, "lon": 25.1444542, "tags": {"addr:city": "\u0411\u0440\u043e\u0434\u0438", "addr:postcode": "80601", "addr:street": "\u0432\u0443\u043b\u0438\u0446\u044f \u0417\u043e\u043b\u043e\u0442\u0430, 1", "amenity": "pharmacy", "contact:phone": "+380800303111", "description": "\u0410\u043f\u0442\u0435\u043a\u0430 \"\u0411\u0430\u043c\" \u2013 \u0446\u0435 \u043c\u0435\u0440\u0435\u0436\u0430 \u0430\u043f\u0442\u0435\u043a \u0437 \u0434\u043e\u0441\u0442\u0443\u043f\u043d\u0438\u043c\u0438 \u043b\u0456\u043a\u0430\u043c\u0438 \u043f\u043e \u0432\u0441\u0456\u0439 \u0423\u043a\u0440\u0430\u0457\u043d\u0456. \u0410\u0441\u043e\u0440\u0442\u0438\u043c\u0435\u043d\u0442 \u043d\u0430\u043b\u0456\u0447\u0443\u0454 \u0431\u043b\u0438\u0437\u044c\u043a\u043e 20 000 \u0442\u043e\u0432\u0430\u0440\u0456\u0432. \u0423 \u0430\u043f\u0442\u0435\u0446\u0456 \u0432\u0438 \u043c\u043e\u0436\u0435\u0442\u0435 \u043f\u0440\u0438\u0434\u0431\u0430\u0442\u0438 \u043f\u043e\u0442\u0440\u0456\u0431\u043d\u0456 \u043b\u0456\u043a\u0438, \u043a\u043e\u0441\u043c\u0435\u0442\u0438\u043a\u0443 \u0442\u0430 \u0456\u043d\u0448\u0456 \u043c\u0435\u0434\u0437\u0430\u0441\u043e\u0431\u0438.", "name": "\u0410\u043f\u0442\u0435\u043a\u0430 \u0411\u0410\u041c", "name:uk": "\u0410\u043f\u0442\u0435\u043a\u0430 \u0411\u0410\u041c", "opening_hours": "Mo-Fr 10:00-18:00; Sa 10:00-15:00", "website": "https://asbam.com.ua"}}, {"type": "node", "id": 12998748523, "lat": 50.3546101, "lon": 25.1235276, "tags": {"addr:housenumber": "5-\u0410", "addr:street": "\u0432\u0443\u043b\u0438\u0446\u044f \u0411\u0443\u0434\u044c\u043e\u043d\u043d\u043e\u0433\u043e", "amenity": "pharmacy", "name": "\u041f\u043e\u0434\u043e\u0440\u043e\u0436\u043d\u0438\u043a", "opening_hours": "Mo-Sa 08:00-20:00; Su 09:00-19:00"}}, {"type": "node", "id": 13041297069, "lat": 50.0786663, "lon": 25.1694847, "tags": {"addr:housenumber": "79", "addr:street": "\u0432\u0443\u043b\u0438\u0446\u044f \u041d\u0430\u0431\u0435\u0440\u0435\u0436\u043d\u0430", "amenity": "pharmacy", "name": "\u041f\u043e\u0434\u043e\u0440\u043e\u0436\u043d\u0438\u043a", "opening_hours": "Mo-Su 08:00-21:00"}}, {"type": "way", "id": 455073481, "nodes": [4515262831, 4515262832, 4515262833, 4515262834, 4515262835, 4515262836, 4515262831], "tags": {"amenity": "pharmacy", "building": "yes", "name": "\u0410\u043f\u0442\u0435\u0447\u043d\u0438\u0439 \u043f\u0443\u043d\u043a\u0442", "name:uk": "\u0410\u043f\u0442\u0435\u0447\u043d\u0438\u0439 \u043f\u0443\u043d\u043a\u0442"}}, {"type": "way", "id": 652879819, "nodes": [6119534205, 6119534203, 6119534202, 6119534204, 6119534205], "tags": {"amenity": "pharmacy", "building": "yes", "name": "\u0424\u0410\u041f", "name:uk": "\u0424\u0410\u041f"}}, {"type": "way", "id": 671775276, "nodes": [6290684312, 6290684313, 6290684314, 6290684315, 6290684312], "tags": {"addr:street": "\u0432\u0443\u043b\u0438\u0446\u044f \u0427\u0435\u0442\u0432\u0435\u0440\u0442\u043d\u043e\u0433\u043e", "amenity": "pharmacy", "building": "yes", "building:levels": "2", "name": "\u0412\u0435\u0442\u0430\u043f\u0442\u0435\u043a\u0430", "name:uk": "\u0412\u0435\u0442\u0430\u043f\u0442\u0435\u043a\u0430"}}, {"type": "way", "id": 691049309, "nodes": [6483972361, 6483972362, 6483972363, 9731818658, 9731818661, 9731818660, 9731818659, 6483972364, 6483972361], "tags": {"addr:housenumber": "72", "addr:street": "\u041f\u043e\u0447\u0430\u0457\u0432\u0441\u044c\u043a\u0430 \u0432\u0443\u043b\u0438\u0446\u044f", "amenity": "pharmacy", "building": "yes", "dispensing": "yes", "healthcare": "pharmacy"}}, {"type": "way", "id": 971985947, "nodes": [8996063489, 8996063490, 8996063491, 8996063492, 8996063493, 8996063494, 8996063489], "tags": {"addr:street": "\u041f\u043e\u0447\u0430\u0457\u0432\u0441\u044c\u043a\u0430 \u0432\u0443\u043b\u0438\u0446\u044f", "amenity": "pharmacy", "building": "yes", "dispensing": "yes", "healthcare": "pharmacy"}}]}