{"version": 0.6, "generator": "Overpass API 0.7.62.8 e802775f", "osm3s": {"timestamp_osm_base": "2025-10-06T09:01:48Z", "copyright": "The data included in this document is from www.openstreetmap.org. The data is made available under ODbL."}, "elements": [{"type": "node", "id": 11527278573, "lat": 38.7457232, "lon": 28.8689423, "tags": {"amenity": "pharmacy", "healthcare": "pharmacy", "name": "Hayat Eczanesi", "phone": "+90 236 788 3418"}}, {"type": "node", "id": 11527278574, "lat": 38.7409399, "lon": 28.8601259, "tags": {"amenity": "pharmacy", "name": "\u015eeker Eczanesi", "phone": "+90 236 788 2276"}}, {"type": "node", "id": 11527288274, "lat": 38.7408291, "lon": 28.8597386, "tags": {"amenity": "pharmacy", "name": "Berra Eczanesi", "phone": "+90 236 788 1231"}}, {"type": "node", "id": 11527288372, "lat": 38.7438936, "lon": 28.8672657, "tags": {"amenity": "pharmacy", "name": "Bizim Eczanesi", "phone": "+90 236 788 2722"}}, {"type": "node", "id": 11527288373, "lat": 38.7404838, "lon": 28.8598887, "tags": {"amenity": "pharmacy", "name": "Nursa\u00e7 Sava\u015f Eczanesi", "phone": "+90 236 788 2665"}}, {"type": "node", "id": 11527289769, "lat": 38.7451005, "lon": 28.8671822, "tags": {"amenity": "pharmacy", "name": "Merkez Eczanesi", "phone": "+90 236 788 1415"}}, {"type": "node", "id": 11609553269, "lat": 38.5458652, "lon": 28.6310786, "tags": {"amenity": "pharmacy", "healthcare": "pharmacy", "name": "\u00c7\u0131nar Eczanesi", "phone": "+90 236 816 6816"}}, {"type": "node", "id": 11609553270, "lat": 38.5424774, "lon": 28.636892, "tags": {"amenity": "pharmacy", "healthcare": "pharmacy", "name": "Pelin Akcin Eczanesi", "phone": "+90 506 596 5857"}}, {"type": "node", "id": 11609553271, "lat": 38.5438172, "lon": 28.6406888, "tags": {"amenity": "pharmacy", "name": "Sa\u011fl\u0131k Eczanesi", "phone": "+90 236 816 2267"}}, {"type": "node", "id": 11609553272, "lat": 38.5440416, "lon": 28.6412105, "tags": {"amenity": "pharmacy", "name": "Pelin Eczanesi", "phone": "+90 236 816 4900"}}, {"type": "node", "id": 11609553273, "lat": 38.5455882, "lon": 28.6452138, "tags": {"amenity": "pharmacy", "healthcare": "pharmacy", "name": "Kavas Eczanesi", "phone": "+90 236 816 5353"}}, {"type": "node", "id": 11609553369, "lat": 38.5439187, "lon": 28.6409087, "tags": {"amenity": "pharmacy", "name": "Orkide Eczanesi", "phone": "+90 236 816 4545"}}, {"type": "node", "id": 11609553370, "lat": 38.5459473, "lon": 28.645787, "tags": {"amenity": "pharmacy", "healthcare": "pharmacy", "name": "S\u00f6nmez Eczanesi", "phone": "+90 236 816 5292"}}, {"type": "node", "id": 11609553371, "lat": 38.5460758, "lon": 28.6459753, "tags": {"amenity": "pharmacy", "healthcare": "pharmacy", "name": "Palanduz Eczanesi", "phone": "+90 236 816 1367"}}, {"type": "node", "id": 11609553469, "lat": 38.5471443, "lon": 28.6474707, "tags": {"amenity": "pharmacy", "name": "Ege Eczanesi", "phone": "+90 236 816 1230"}}, {"type": "node", "id": 11609553470, "lat": 38.547264, "lon": 28.646232, "tags": {"amenity": "pharmacy", "name": "Eser Eczanesi", "phone": "+90 236 816 8181"}}, {"type": "node", "id": 11609553471, "lat": 38.5447067, "lon": 28.6461282, "tags": {"amenity": "pharmacy", "healthcare": "pharmacy", "name": "Aykut \u015eahin Eczanesi", "phone": "+90 236 816 2323"}}, {"type": "node", "id": 11609553569, "lat": 38.5451912, "lon": 28.6450373, "tags": {"amenity": "pharmacy", "healthcare": "pharmacy", "name": "Deva Eczanesi", "phone": "+90 236 816 5264"}}, {"type": "node", "id": 11609553570, "lat": 38.5453724, "lon": 28.6456878, "tags": {"amenity": "pharmacy", "healthcare": "pharmacy", "name": "D\u00f6rt Eyl\u00fcl Eczanesi", "phone": "+90 236 816 6343"}}, {"type": "node", "id": 11609553669, "lat": 38.5455616, "lon": 28.6461462, "tags": {"amenity": "pharmacy", "healthcare": "pharmacy", "name": "Derman Eczanesi", "phone": "+90 236 816 2961"}}]}