{"version": 0.6, "generator": "Overpass API 0.7.62.8 e802775f", "osm3s": {"timestamp_osm_base": "2025-10-06T09:01:48Z", "copyright": "The data included in this document is from www.openstreetmap.org. The data is made available under ODbL."}, "elements": [{"type": "node", "id": 2705569847, "lat": 41.2948599, "lon": 27.9978357, "tags": {"amenity": "pharmacy", "healthcare": "pharmacy", "name": "G\u00fclay Eczanesi"}}, {"type": "node", "id": 2705569848, "lat": 41.2944609, "lon": 27.9978947, "tags": {"addr:housenumber": "116", "addr:postcode": "59500", "addr:street": "Atat\u00fcrk Cd", "amenity": "pharmacy", "email": "eczanelimon@gmail.com", "healthcare": "pharmacy", "name": "Limon Eczanesi", "opening_hours": "Mo-Fr 08:00-22:00", "operator": "Eczac\u0131 Onur \u015eenkul", "phone": "+902827260949", "website": "https://eczanelimon.com.tr"}}, {"type": "node", "id": 2705569849, "lat": 41.2907286, "lon": 27.9982971, "tags": {"amenity": "pharmacy", "healthcare": "pharmacy"}}, {"type": "node", "id": 2705569850, "lat": 41.2911155, "lon": 27.9982381, "tags": {"amenity": "pharmacy", "healthcare": "pharmacy"}}, {"type": "node", "id": 2705569853, "lat": 41.2867139, "lon": 27.9982863, "tags": {"amenity": "pharmacy", "healthcare": "pharmacy", "name": "\u00c7erkezk\u00f6y Eczanesi"}}, {"type": "node", "id": 2705569854, "lat": 41.2860458, "lon": 27.9985036, "tags": {"addr:city": "\u00c7erkezk\u00f6y", "addr:country": "TR", "addr:district": "\u00c7erkezk\u00f6y", "addr:housenumber": "1", "addr:postcode": "59500", "addr:province": "Tekirda\u011f", "addr:street": "G\u00fcveni\u015f Caddesi", "amenity": "pharmacy", "healthcare": "pharmacy", "name": "Y\u0131lmaz Eczanesi", "payment:cash": "yes", "payment:coins": "yes", "payment:notes": "yes", "phone": "+902827265284"}}, {"type": "node", "id": 2705569855, "lat": 41.2865688, "lon": 27.9971169, "tags": {"amenity": "pharmacy", "healthcare": "pharmacy"}}, {"type": "node", "id": 2705569856, "lat": 41.2863431, "lon": 27.997251, "tags": {"amenity": "pharmacy", "healthcare": "pharmacy"}}, {"type": "node", "id": 2705569862, "lat": 41.2846622, "lon": 27.9881369, "tags": {"amenity": "pharmacy", "healthcare": "pharmacy", "name": "Eyl\u00fck Eczanesi", "operator": "Eczac\u0131 Nazife Ekiz", "phone": "+902827266068"}}, {"type": "node", "id": 2705577715, "lat": 41.2839925, "lon": 28.0104689, "tags": {"amenity": "pharmacy", "healthcare": "pharmacy"}}, {"type": "node", "id": 3105408005, "lat": 41.2904589, "lon": 27.9983978, "tags": {"amenity": "pharmacy", "healthcare": "pharmacy"}}, {"type": "node", "id": 4407680811, "lat": 41.4037832, "lon": 28.384083, "tags": {"amenity": "pharmacy", "healthcare": "pharmacy", "name": "Karacak\u00f6y Eczanesi", "phone": "+90 212 763 4572"}}, {"type": "node", "id": 4617464111, "lat": 41.320207, "lon": 27.9791786, "tags": {"amenity": "pharmacy", "healthcare": "pharmacy", "name": "Balc\u0131 Eczanesi"}}, {"type": "node", "id": 4617464120, "lat": 41.3225764, "lon": 27.975726, "tags": {"addr:city": "Kapakl\u0131", "addr:country": "TR", "addr:postcode": "59510", "addr:province": "Tekirda\u011f", "addr:street": "Hisar Sokak", "amenity": "pharmacy", "healthcare": "pharmacy", "name": "Derman Eczanesi"}}, {"type": "node", "id": 4617464123, "lat": 41.3355032, "lon": 27.9852546, "tags": {"addr:city": "Kapakl\u0131", "addr:country": "TR", "addr:housenumber": "115", "addr:postcode": "59510", "addr:province": "Tekirda\u011f", "addr:street": "Vatan Caddesi", "alt_name": "Eczane Esen", "amenity": "pharmacy", "healthcare": "pharmacy", "name": "Esen Eczanesi"}}, {"type": "node", "id": 4617464124, "lat": 41.3304954, "lon": 27.972162, "tags": {"alt_name": "Tepe Eczanesi", "amenity": "pharmacy", "healthcare": "pharmacy", "name": "Eczane Tepe"}}, {"type": "node", "id": 4700564784, "lat": 41.3276405, "lon": 27.9759326, "tags": {"addr:city": "Kapakl\u0131", "addr:country": "TR", "addr:postcode": "59510", "addr:province": "Tekirda\u011f", "addr:street": "\u00c7erkezk\u00f6y Saray Yolu", "amenity": "pharmacy", "healthcare": "pharmacy", "name": "Mutlu Eczanesi", "shop": "chemist"}}, {"type": "node", "id": 4706861756, "lat": 41.3346067, "lon": 27.9804986, "tags": {"addr:city": "Kapakl\u0131", "addr:country": "TR", "addr:district": "Kapakl\u0131", "addr:housenumber": "53/A", "addr:postcode": "59510", "addr:province": "Tekirda\u011f", "addr:street": "Erbay Caddesi", "addr:subdistrict": "Atat\u00fcrk Mahallesi", "alt_name": "Eczane Kaya", "amenity": "pharmacy", "healthcare": "pharmacy", "mobile": "+90 533 047 3959", "name": "Kaya Eczanesi", "operator": "Oktay Kaya"}}, {"type": "node", "id": 4710821691, "lat": 41.3264037, "lon": 27.9809526, "tags": {"addr:city": "Kapakl\u0131", "addr:country": "TR", "addr:postcode": "59510", "addr:province": "Tekirda\u011f", "addr:street": "Mithatpa\u015fa Caddesi", "amenity": "pharmacy", "healthcare": "pharmacy", "name": "Halk Eczanesi", "phone": "+902827178529"}}, {"type": "node", "id": 4710830540, "lat": 41.3223592, "lon": 27.9731846, "tags": {"amenity": "pharmacy", "healthcare": "pharmacy", "name": "\u015een Eczanesi"}}, {"type": "node", "id": 5102223600, "lat": 41.2855595, "lon": 27.9985178, "tags": {"amenity": "pharmacy", "healthcare": "pharmacy", "name": "Ilgaz Eczanesi"}}, {"type": "node", "id": 5495164931, "lat": 41.4427335, "lon": 27.9024633, "tags": {"amenity": "pharmacy", "healthcare": "pharmacy", "name": "\u00c7a\u011flar Eczanesi"}}, {"type": "node", "id": 5495164992, "lat": 41.4418839, "lon": 27.9208557, "tags": {"amenity": "pharmacy", "healthcare": "pharmacy", "name": "Emir Eczanesi"}}, {"type": "node", "id": 5495165000, "lat": 41.441518, "lon": 27.9213493, "tags": {"amenity": "pharmacy", "healthcare": "pharmacy", "name": "Saray Eczanesi"}}, {"type": "node", "id": 5495165001, "lat": 41.4414587, "lon": 27.9214431, "tags": {"addr:street": "G\u00fcrselpa\u015fa Caddesi", "amenity": "pharmacy", "healthcare": "pharmacy", "name": "Sevin\u00e7 Eczanesi"}}, {"type": "node", "id": 5495165009, "lat": 41.4498788, "lon": 27.9320124, "tags": {"amenity": "pharmacy", "healthcare": "pharmacy", "name": "Furkan Eczanesi"}}, {"type": "node", "id": 5585462908, "lat": 41.5118241, "lon": 27.8739747, "tags": {"addr:country": "TR", "addr:district": "Vize", "addr:province": "K\u0131rklareli", "addr:street": "D20", "addr:subdistrict": "\u00c7ak\u0131ll\u0131", "amenity": "pharmacy", "healthcare": "pharmacy", "name": "\u00c7ak\u0131ll\u0131 Eczanesi", "operator": "Eczac\u0131 Sevdim \u015een", "phone": "+902883587070"}}, {"type": "node", "id": 5606129484, "lat": 41.3236674, "lon": 27.9835457, "tags": {"amenity": "pharmacy", "name": "Bah\u00e7elievler Eczanesi"}}, {"type": "node", "id": 5606129485, "lat": 41.3240008, "lon": 27.9831554, "tags": {"addr:housenumber": "9/A", "addr:street": "\u00c7\u0131nar Sokak", "alt_name": "Eczane Emin", "amenity": "pharmacy", "healthcare": "pharmacy", "name": "Emin Eczanesi", "operator": "Eczac\u0131 Muhammed Emin", "phone": "+902827178630"}}, {"type": "node", "id": 5684844571, "lat": 41.2839151, "lon": 28.0000038, "tags": {"addr:street": "Atat\u00fcrk Caddesi", "amenity": "pharmacy", "healthcare": "pharmacy", "name": "Merve Eczanesi", "old_name": "Sa\u011fl\u0131k Eczanesi"}}, {"type": "node", "id": 5684848601, "lat": 41.2853693, "lon": 28.0000498, "tags": {"addr:street": "Atat\u00fcrk Caddesi", "amenity": "pharmacy", "healthcare": "pharmacy", "name": "Yeni Eczane"}}, {"type": "node", "id": 5840049416, "lat": 41.2940259, "lon": 27.9952135, "tags": {"amenity": "pharmacy", "healthcare": "pharmacy", "name": "Eczane Kardelen"}}, {"type": "node", "id": 5967860582, "lat": 41.2949043, "lon": 27.9980251, "tags": {"addr:street": "Sakao\u011flu Sokak", "amenity": "pharmacy", "healthcare": "pharmacy", "name": "\u00c7erkezk\u00f6y Medikal", "phone": "+905353995482"}}, {"type": "node", "id": 5967860875, "lat": 41.2943781, "lon": 27.9979464, "tags": {"addr:street": "Atat\u00fcrk Caddesi", "amenity": "pharmacy", "healthcare": "pharmacy", "name": "\u015eifa Eczanesi", "operator": "Feriha Bilgin", "phone": "+902827250227"}}, {"type": "node", "id": 5967861151, "lat": 41.29495, "lon": 27.9981822, "tags": {"addr:street": "Sakao\u011flu Sokak", "amenity": "pharmacy", "healthcare": "pharmacy", "name": "\u0130nci Medikal"}}, {"type": "node", "id": 6135843804, "lat": 41.3386118, "lon": 27.9699215, "tags": {"addr:housenumber": "142/C", "addr:street": "Erbay Caddesi", "amenity": "pharmacy", "healthcare": "pharmacy", "name": "G\u00fcven\u00e7 Eczanesi", "phone": "+905427173024"}}, {"type": "node", "id": 6179484184, "lat": 41.2893307, "lon": 27.999023, "tags": {"addr:street": "Atat\u00fcrk Caddesi", "amenity": "pharmacy", "healthcare": "pharmacy", "name": "\u00c7erkezk\u00f6y Medikal", "phone": "+905353995482"}}, {"type": "node", "id": 6179486958, "lat": 41.2883037, "lon": 27.9988369, "tags": {"addr:street": "Atat\u00fcrk Caddesi", "amenity": "pharmacy", "healthcare": "pharmacy", "name": "Eczane G\u00fcnd\u00fcz"}}, {"type": "node", "id": 6329891014, "lat": 41.2905201, "lon": 27.9952839, "tags": {"addr:street": "Fatih Caddesi", "amenity": "pharmacy", "healthcare": "pharmacy", "name": "Deniz Eczanesi", "phone": "+905345921125"}}, {"type": "node", "id": 6329891018, "lat": 41.2907527, "lon": 27.9946048, "tags": {"addr:street": "Fatih Caddesi", "amenity": "pharmacy", "healthcare": "pharmacy", "name": "K\u00f6ro\u011flu Eczanesi", "operator": "Hikmet Arif Ak\u0131nc\u0131", "phone": "+905325948418"}}, {"type": "node", "id": 6395139105, "lat": 41.2843673, "lon": 27.9877312, "tags": {"alt_name": "Eczane Hakan", "amenity": "pharmacy", "healthcare": "pharmacy", "name": "Hakan Eczanesi", "phone": "+90 282 726 49 90"}}, {"type": "node", "id": 6648919950, "lat": 41.3350151, "lon": 27.9836315, "tags": {"amenity": "pharmacy", "healthcare": "pharmacy", "name": "Beykent Eczanesi"}}, {"type": "node", "id": 6648919953, "lat": 41.3194664, "lon": 27.9787787, "tags": {"addr:housenumber": "1D", "addr:street": "Levent Caddesi", "alt_name": "Eczane Y\u0131ld\u0131z", "amenity": "pharmacy", "healthcare": "pharmacy", "name": "Y\u0131ld\u0131z Eczanesi", "phone": "+902827176202"}}, {"type": "node", "id": 7013494788, "lat": 41.2904877, "lon": 27.9992669, "tags": {"addr:street": "\u0130nan Sokak", "amenity": "pharmacy", "healthcare": "pharmacy", "name": "Zade Eczanesi"}}, {"type": "node", "id": 7042445778, "lat": 41.2872784, "lon": 28.0036658, "tags": {"amenity": "pharmacy", "healthcare": "pharmacy", "name": "Bet\u00fcl I\u015f\u0131k Eczanesi", "phone": "+902827264547"}}, {"type": "node", "id": 8786220768, "lat": 41.3281268, "lon": 27.9938021, "tags": {"addr:city": "Tekirda\u011f", "addr:district": "Kapakl\u0131", "addr:housenumber": "4 - 6", "addr:neighbourhood": "Bah\u00e7elievler Mahallesi", "addr:postcode": "59510", "addr:street": "Erdin\u00e7 Sokak", "amenity": "pharmacy", "dispensing": "yes", "healthcare": "pharmacy", "name": "Karag\u00f6z Eczanesi", "operator": "Eczane Karag\u00f6z", "phone": "+902825023894"}}, {"type": "node", "id": 8960593983, "lat": 41.3289092, "lon": 27.9751264, "tags": {"addr:city": "Kapakl\u0131", "addr:country": "TR", "addr:housenumber": "41/C-D", "addr:postcode": "59510", "addr:province": "Tekirda\u011f", "addr:street": "P\u0131nar Bulvar\u0131", "alt_name": "Eczane \u0130lhan", "amenity": "pharmacy", "healthcare": "pharmacy", "name": "\u0130lhan Eczanesi", "phone": "+902827170851"}}, {"type": "node", "id": 9166606497, "lat": 41.3225391, "lon": 27.9734479, "tags": {"addr:street": "Gaziosmanpa\u015fa Caddesi", "amenity": "pharmacy", "healthcare": "pharmacy", "name": "Day\u0131o\u011flu Eczanesi"}}, {"type": "node", "id": 9694153249, "lat": 41.2844147, "lon": 28.0128555, "tags": {"amenity": "pharmacy", "healthcare": "pharmacy", "name": "Emre I\u015f\u0131k Eczanesi"}}, {"type": "node", "id": 9694153257, "lat": 41.2837143, "lon": 28.0129936, "tags": {"amenity": "pharmacy", "healthcare": "pharmacy", "name": "Mavi Eczanesi"}}, {"type": "node", "id": 10127173675, "lat": 41.286185, "lon": 27.9968566, "tags": {"amenity": "pharmacy", "name": "Gaye Eczanesi"}}, {"type": "node", "id": 10158165337, "lat": 41.288621, "lon": 27.9993762, "tags": {"addr:housenumber": "Canbazlar Caddesi", "amenity": "pharmacy", "name": "B\u00fcy\u00fck Eczanesi", "operator": "Eczac\u0131 Aysun B\u00fcy\u00fckkiraz", "phone": "+902827252383"}}, {"type": "node", "id": 10572308620, "lat": 41.336405, "lon": 27.97159, "tags": {"alt_name": "Eczane Yuvam", "amenity": "pharmacy", "name": "Yuvam Eczanesi"}}, {"type": "node", "id": 10710045012, "lat": 41.2833166, "lon": 28.0118088, "tags": {"amenity": "pharmacy", "name": "Prof Sara\u00e7o\u011flu Do\u011fall\u0131k"}}, {"type": "node", "id": 10815904949, "lat": 41.2977432, "lon": 28.0036647, "tags": {"amenity": "pharmacy", "name": "Sel\u00e7uk Ecza Deposu \u00c7erkezk\u00f6y \u015eubesi"}}, {"type": "node", "id": 10818961247, "lat": 41.2940911, "lon": 27.9957811, "tags": {"amenity": "pharmacy", "healthcare": "pharmacy", "name": "\u00c7\u0131nar Eczanesi", "operator": "Eczac\u0131 Emre Y\u0131lmaz", "phone": "+902827264161", "website": "https://tekirdag.eczaneleri.org/cerkezkoy-cinar-eczanesi.html"}}, {"type": "node", "id": 11082185768, "lat": 41.336225, "lon": 27.9752881, "tags": {"amenity": "pharmacy", "name": "Cemhan Eczanesi"}}, {"type": "node", "id": 11107015802, "lat": 41.3286845, "lon": 27.9942048, "tags": {"amenity": "pharmacy", "healthcare": "pharmacy", "name": "Mehmet Eczanesi", "operator": "Mehmet Akta\u015f", "phone": "+905010275698"}}, {"type": "node", "id": 11148969298, "lat": 41.2778128, "lon": 28.0141002, "tags": {"amenity": "pharmacy", "name": "Zeli\u015f Eczanesi"}}, {"type": "node", "id": 11148973562, "lat": 41.2781708, "lon": 28.0141314, "tags": {"amenity": "pharmacy", "name": "\u0130stasyon Eczanesi"}}, {"type": "node", "id": 11148979325, "lat": 41.277712, "lon": 28.0137971, "tags": {"amenity": "pharmacy", "name": "Sefa Eczanesi"}}, {"type": "node", "id": 11501458042, "lat": 41.2869838, "lon": 28.0030716, "tags": {"amenity": "pharmacy", "name": "K\u0131ral Eczanesi", "operator": "Salih K\u0131ral", "phone": "+902827263621"}}, {"type": "node", "id": 11501463240, "lat": 41.2877046, "lon": 28.003944, "tags": {"amenity": "pharmacy", "name": "Y\u0131ld\u0131z Eczanesi", "operator": "Emre Y\u0131ld\u0131z", "phone": "+905458438792"}}, {"type": "node", "id": 11556769902, "lat": 41.2944781, "lon": 27.9956825, "tags": {"amenity": "pharmacy", "name": "Belgin Eczanesi"}}, {"type": "node", "id": 11577010349, "lat": 41.3354558, "lon": 27.9839986, "tags": {"amenity": "pharmacy", "name": "Buse Eczanesi", "operator": "Buse Duygu", "phone": "+902827171771"}}, {"type": "node", "id": 11582508642, "lat": 41.2863672, "lon": 27.9891345, "tags": {"amenity": "pharmacy", "name": "Sezer Eczanesi", "phone": "+902827253386"}}, {"type": "node", "id": 11721909269, "lat": 41.2539535, "lon": 28.3595267, "tags": {"amenity": "pharmacy", "healthcare": "pharmacy", "name": "\u0130hsaniye Eczanesi", "phone": "+90 212 782 1242"}}, {"type": "node", "id": 11721909270, "lat": 41.411405, "lon": 28.184801, "tags": {"amenity": "pharmacy", "name": "Mai Eczanesi", "phone": "+90 212 779 3328"}}, {"type": "node", "id": 11914871381, "lat": 41.2641915, "lon": 28.0294659, "tags": {"alt_name": "Eczane G\u00f6zde", "amenity": "pharmacy", "name": "G\u00f6zde Eczanesi"}}, {"type": "node", "id": 11980924599, "lat": 41.4438764, "lon": 27.9156569, "tags": {"amenity": "pharmacy", "name": "G\u00fcray Eczanesi", "operator": "Ecz. G\u00fcray Yorulmaz"}}, {"type": "node", "id": 12153332128, "lat": 41.284545, "lon": 28.0016194, "tags": {"amenity": "pharmacy", "name": "Uzunk\u00f6pr\u00fc Eczanesi", "operator": "Aysima Dereli Tokatl\u0131"}}, {"type": "node", "id": 12217420797, "lat": 41.4396137, "lon": 27.9258694, "tags": {"amenity": "pharmacy", "name": "Can Eczanesi"}}, {"type": "node", "id": 12259433114, "lat": 41.3322921, "lon": 27.9946755, "tags": {"amenity": "pharmacy", "name": "K\u0131z\u0131l\u0131rmak Eczanesi"}}, {"type": "node", "id": 12398238926, "lat": 41.4398736, "lon": 27.9254202, "tags": {"amenity": "pharmacy", "name": "Sar\u0131kaya Eczanesi"}}, {"type": "node", "id": 12423491182, "lat": 41.3349832, "lon": 27.9924446, "tags": {"addr:housenumber": "76/78A", "addr:street": "Mithatpa\u015fa Caddesi", "amenity": "pharmacy", "name": "Tu\u011f\u00e7e Eczanesi"}}, {"type": "node", "id": 12478938287, "lat": 41.3344019, "lon": 27.9808687, "tags": {"addr:city": "Kapakl\u0131", "addr:country": "TR", "addr:district": "Kapakl\u0131", "addr:housenumber": "51A", "addr:postcode": "59510", "addr:province": "Tekirda\u011f", "addr:street": "Erbay Caddesi", "addr:subdistrict": "Atat\u00fcrk Mahallesi", "alt_name": "Eczane Gamze", "amenity": "pharmacy", "name": "Gamze Eczanesi", "operator": "Eczac\u0131 Gamze \u015ei\u015fman", "phone": "+90 282 717 7191"}}, {"type": "node", "id": 12517563501, "lat": 41.3347426, "lon": 27.9802537, "tags": {"addr:city": "Kapakl\u0131", "addr:country": "TR", "addr:district": "Kapakl\u0131", "addr:housenumber": "55/A", "addr:postcode": "59510", "addr:province": "Tekirda\u011f", "addr:street": "Erbay Caddesi", "addr:subdistrict": "Atat\u00fcrk Mahallesi", "amenity": "pharmacy", "healthcare": "pharmacy", "name": "Ufuk Eczanesi", "operator": "Ufuk Ta\u015fk\u0131n", "phone": "+90 282 717 1453"}}, {"type": "node", "id": 12532196671, "lat": 41.3381755, "lon": 27.9712578, "tags": {"addr:city": "Kapakl\u0131", "addr:country": "TR", "addr:district": "Kapakl\u0131", "addr:housenumber": "117A", "addr:postcode": "59510", "addr:province": "Tekirda\u011f", "addr:street": "Erbay Caddesi", "addr:subdistrict": "Atat\u00fcrk Mahallesi", "alt_name": "Eczane Faik", "amenity": "pharmacy", "healthcare": "pharmacy", "name": "Faik Eczanesi"}}, {"type": "node", "id": 12539717082, "lat": 41.3295051, "lon": 27.9750515, "tags": {"addr:city": "Kapakl\u0131", "addr:country": "TR", "addr:district": "Kapakl\u0131", "addr:housenumber": "106A", "addr:postcode": "59510", "addr:province": "Tekirda\u011f", "addr:street": "P\u0131nar Bulvar\u0131", "addr:subdistrict": "Cumhuriyet Mahallesi", "amenity": "pharmacy", "healthcare": "pharmacy", "name": "Tunal\u0131 Eczanesi", "operator": "\u0130lke Tunal\u0131 \u015eener"}}, {"type": "node", "id": 12592554737, "lat": 41.3345276, "lon": 27.9916969, "tags": {"amenity": "pharmacy", "name": "\u00c7a\u011fatay Eczanesi"}}, {"type": "node", "id": 12612931925, "lat": 41.3266374, "lon": 27.9812434, "tags": {"addr:city": "Kapakl\u0131", "addr:country": "TR", "addr:district": "Kapakl\u0131", "addr:housenumber": "37A", "addr:postcode": "59510", "addr:province": "Tekirda\u011f", "addr:street": "Mithatpa\u015fa Caddesi", "addr:subdistrict": "Cumhuriyet Mahallesi", "alt_name": "Eczane \u015eeng\u00fcl", "amenity": "pharmacy", "healthcare": "pharmacy", "mobile": "+90 282 717 88 26", "name": "\u015eeng\u00fcl Eczanesi", "opening_hours": "Mo-Fr 08:00-17:00"}}, {"type": "node", "id": 12612931929, "lat": 41.3265428, "lon": 27.9811379, "tags": {"addr:city": "Kapakl\u0131", "addr:country": "TR", "addr:district": "Kapakl\u0131", "addr:housenumber": "35A", "addr:postcode": "59510", "addr:province": "Tekirda\u011f", "addr:street": "Mithatpa\u015fa Caddesi", "addr:subdistrict": "Cumhuriyet Mahallesi", "amenity": "pharmacy", "name": "\u0130nan Eczanesi"}}, {"type": "node", "id": 12612932016, "lat": 41.3257204, "lon": 27.9801804, "tags": {"addr:city": "Kapakl\u0131", "addr:country": "TR", "addr:district": "Kapakl\u0131", "addr:housenumber": "21-23F", "addr:postcode": "59510", "addr:province": "Tekirda\u011f", "addr:street": "Mithatpa\u015fa Caddesi", "addr:subdistrict": "Cumhuriyet Mahallesi", "alt_name": "G\u00fcven\u00e7 Eczanesi", "amenity": "pharmacy", "name": "Eczane G\u00fcven\u00e7"}}, {"type": "node", "id": 12652570646, "lat": 41.263433, "lon": 28.0316664, "tags": {"alt_name": "Eczane Ya\u011fmur", "amenity": "pharmacy", "healthcare": "pharmacy", "name": "Ya\u011fmur Eczanesi"}}, {"type": "node", "id": 12947355101, "lat": 41.3264163, "lon": 27.9879163, "tags": {"addr:street": "Halide Edip Ad\u0131var Caddesi", "amenity": "pharmacy", "name": "Asl\u0131 Eczanesi"}}, {"type": "node", "id": 13055197478, "lat": 41.2907161, "lon": 27.9946995, "tags": {"amenity": "pharmacy", "name": "Bengi Eczanesi"}}, {"type": "node", "id": 13099730207, "lat": 41.3175388, "lon": 27.9708179, "tags": {"amenity": "pharmacy", "name": "Hilal Eczanesi"}}, {"type": "node", "id": 13179152706, "lat": 41.2658049, "lon": 28.0271664, "tags": {"amenity": "pharmacy", "name": "Cansu Eczanesi"}}]}