{"version": 0.6, "generator": "Overpass API 0.7.62.8 e802775f", "osm3s": {"timestamp_osm_base": "2025-10-06T08:45:30Z", "copyright": "The data included in this document is from www.openstreetmap.org. The data is made available under ODbL."}, "elements": [{"type": "node", "id": 371629604, "lat": 51.1588389, "lon": 22.9458702, "tags": {"addr:city": "Biskupice", "addr:city:simc": "0392106", "addr:housenumber": "22A", "addr:postcode": "21-044", "addr:street": "Podwal", "addr:street:sym_ul": "16872", "amenity": "pharmacy", "dispensing": "yes", "healthcare": "pharmacy", "opening_hours": "Mo-Fr 09:00-16:00; We 10:00-16:00; Sa 09:30-12:00", "phone": "+48 81 5859023", "ref:csioz": "1161928", "source:addr": "emuia.gugik.gov.pl"}}, {"type": "node", "id": 653290177, "lat": 51.1312539, "lon": 23.4716115, "tags": {"amenity": "pharmacy", "dispensing": "yes", "healthcare": "pharmacy", "name": "Euro-Apteka", "opening_hours": "Mo-Fr 08:00-19:00; Sa 08:00-16:00", "ref:csioz": "1156840"}}, {"type": "node", "id": 729686302, "lat": 51.262062, "lon": 23.3082941, "tags": {"amenity": "pharmacy", "dispensing": "yes", "healthcare": "pharmacy", "opening_hours": "Mo-Fr 08:00-18:00; Sa 08:00-15:00", "ref:csioz": "1156794"}}, {"type": "node", "id": 824166039, "lat": 51.196812, "lon": 23.1595356, "tags": {"amenity": "pharmacy", "dispensing": "yes", "healthcare": "pharmacy", "name": "Apteka Ulubiona", "opening_hours": "Mo-Fr 08:00-18:00; Sa 08:00-13:00", "ref:csioz": "1194156"}}, {"type": "node", "id": 824166092, "lat": 51.1977222, "lon": 23.1577839, "tags": {"amenity": "pharmacy", "dispensing": "yes", "healthcare": "pharmacy", "name": "Nowa Apteka", "opening_hours": "Mo-Fr 08:00-18:00; Sa 08:00-13:00", "ref:csioz": "1156566", "wheelchair": "yes"}}, {"type": "node", "id": 966584226, "lat": 51.1241149, "lon": 23.4688268, "tags": {"amenity": "pharmacy", "dispensing": "yes", "healthcare": "pharmacy", "name": "VitaPharma", "opening_hours": "Mo-Su 08:00-20:00", "ref:csioz": "1157277"}}, {"type": "node", "id": 990121651, "lat": 51.1354213, "lon": 23.4688629, "tags": {"addr:city": "Che\u0142m", "addr:housenumber": "2a", "addr:postcode": "22-100", "addr:street": "Gabriela Narutowicza", "amenity": "pharmacy", "brand": "Dbam o Zdrowie", "brand:wikidata": "Q62563833", "dispensing": "yes", "healthcare": "pharmacy", "name": "Dbam o Zdrowie", "opening_hours": "Mo-Fr 08:00-20:00; Sa 08:00-15:00", "ref:csioz": "1106144", "short_name": "DOZ"}}, {"type": "node", "id": 1013230577, "lat": 51.1325601, "lon": 23.4759502, "tags": {"amenity": "pharmacy", "dispensing": "yes", "healthcare": "pharmacy", "opening_hours": "Mo-Fr 08:00-20:00; Sa 08:00-15:00", "ref:csioz": "1156833"}}, {"type": "node", "id": 1013230685, "lat": 51.1346647, "lon": 23.467077, "tags": {"amenity": "pharmacy", "dispensing": "yes", "healthcare": "pharmacy", "name": "Apteka B\u0142\u0119kitna", "opening_hours": "24/7", "ref:csioz": "1157320"}}, {"type": "node", "id": 1789644311, "lat": 51.1367093, "lon": 23.49384, "tags": {"addr:city": "Che\u0142m", "addr:housenumber": "11A", "addr:postcode": "22-100", "addr:street": "Aleja Marsza\u0142ka J\u00f3zefa Pi\u0142sudskiego", "amenity": "pharmacy", "dispensing": "yes", "healthcare": "pharmacy", "name": "Vita Pharma Centrum Farmaceutyczne", "opening_hours": "Tu-Su 08:00-15:00;Sa 08:00-12:00", "ref:csioz": "1157373"}}, {"type": "node", "id": 1789644328, "lat": 51.1399521, "lon": 23.4944339, "tags": {"addr:city": "Che\u0142m", "addr:housenumber": "32", "addr:postcode": "22-100", "addr:state": "lubelskie", "addr:street": "Aleja Marsza\u0142ka J\u00f3zefa Pi\u0142sudskiego", "amenity": "pharmacy", "dispensing": "yes", "healthcare": "pharmacy", "name": "Apteka Gemini", "note": "Oficjalny adres apteki wskazuje s\u0105siedni budynek (Pi\u0142sudskiego 32), ale apteka mie\u015bci si\u0119 tutaj. Prosz\u0119 nie przesuwa\u0107.", "opening_hours": "Mo-Fr 08:00-20:00; Sa 08:00-17:00", "ref:csioz": "1210365"}}, {"type": "node", "id": 1789737282, "lat": 51.1357178, "lon": 23.499535, "tags": {"amenity": "pharmacy", "dispensing": "yes", "healthcare": "pharmacy", "name": "Apteka Z Sercem", "opening_hours": "24/7", "ref:csioz": "1156577"}}, {"type": "node", "id": 2175431593, "lat": 51.1120198, "lon": 23.1109822, "tags": {"addr:housenumber": "44a", "addr:place": "Liszno", "addr:postcode": "22-171", "amenity": "pharmacy", "dispensing": "yes", "healthcare": "pharmacy", "opening_hours": "Mo-Fr 08:00-16:00", "ref:csioz": "1106425", "source:addr": "UG Rejowiec Fabryczny"}}, {"type": "node", "id": 2178426824, "lat": 51.2753224, "lon": 23.4318052, "tags": {"addr:city": "Sawin", "addr:housenumber": "17a", "addr:postcode": "22-107", "addr:street": "Chutecka", "amenity": "pharmacy", "dispensing": "yes", "healthcare": "pharmacy", "name": "Doz Apteka Dbam O Zdrowie Nasza Apteka", "opening_hours": "Mo-Fr 08:00-16:00; Sa 09:00-12:00", "ref:csioz": "1225954", "source:addr": "UG Sawin"}}, {"type": "node", "id": 2247791916, "lat": 51.1255798, "lon": 23.4690222, "tags": {"amenity": "pharmacy", "dispensing": "yes", "healthcare": "pharmacy", "name": "Apteka Przy Podziemiach 2", "opening_hours": "Mo-Fr 08:00-20:00; Sa 08:00-16:00", "ref:csioz": "1210379"}}, {"type": "node", "id": 2367056523, "lat": 51.2218718, "lon": 22.9284064, "tags": {"amenity": "pharmacy", "dispensing": "yes", "healthcare": "pharmacy", "name": "Apteka", "ref:csioz": "1158269"}}, {"type": "node", "id": 2521733654, "lat": 51.4797493, "lon": 23.2953751, "tags": {"amenity": "pharmacy", "dispensing": "yes", "healthcare": "pharmacy", "name": "Apteka Stary Brus", "opening_hours": "Mo-Fr 08:00-16:00; Sa 08:00-11:00", "ref:csioz": "1157137"}}, {"type": "node", "id": 3107360248, "lat": 51.1475523, "lon": 23.4572387}, {"type": "node", "id": 3107360265, "lat": 51.1475995, "lon": 23.4572497}, {"type": "node", "id": 3142324808, "lat": 51.1187629, "lon": 23.4771165, "tags": {"amenity": "pharmacy", "dispensing": "yes", "healthcare": "pharmacy", "name": "Apteka Ceff@Rm 36,6", "opening_hours": "Mo-Sa 08:00-21:00", "ref:csioz": "1170264"}}, {"type": "node", "id": 3142324811, "lat": 51.1190615, "lon": 23.4784216, "tags": {"amenity": "pharmacy", "dispensing": "yes", "healthcare": "pharmacy", "name": "Apteka Dr. Optima", "opening_hours": "Mo-Fr 08:00-20:00; Sa 09:00-17:00; Su 09:00-15:00", "ref:csioz": "1179686"}}, {"type": "node", "id": 3673826926, "lat": 51.2987562, "lon": 22.8876102, "tags": {"amenity": "pharmacy", "dispensing": "yes", "healthcare": "pharmacy", "name": "Wamex", "ref:csioz": "1162609"}}, {"type": "node", "id": 3673833654, "lat": 51.2913292, "lon": 22.8838092, "tags": {"amenity": "pharmacy", "dispensing": "yes", "healthcare": "pharmacy", "ref:csioz": "1158857"}}, {"type": "node", "id": 3673971526, "lat": 51.2985213, "lon": 22.8933864, "tags": {"amenity": "pharmacy", "dispensing": "yes", "healthcare": "pharmacy", "ref:csioz": "1158337"}}, {"type": "node", "id": 3808538193, "lat": 51.1427569, "lon": 23.4313617, "tags": {"amenity": "pharmacy", "dispensing": "yes", "healthcare": "pharmacy", "name": "Apteka Na Gwarku", "opening_hours": "Mo-Fr 08:00-19:00; Sa 08:00-15:00", "ref:csioz": "1156957", "wheelchair": "yes"}}, {"type": "node", "id": 3817300842, "lat": 51.3025922, "lon": 22.8925779, "tags": {"amenity": "pharmacy", "dispensing": "yes", "healthcare": "pharmacy", "name": "Vita", "ref:csioz": "1163668"}}, {"type": "node", "id": 3832613625, "lat": 51.1491077, "lon": 23.4565815, "tags": {"amenity": "pharmacy", "dispensing": "yes", "healthcare": "pharmacy", "name": "Euro Apteka", "opening_hours": "Mo-Fr 08:00-16:00", "ref:csioz": "1106153"}}, {"type": "node", "id": 3835015358, "lat": 51.3007389, "lon": 22.8911186, "tags": {"addr:city": "\u0141\u0119czna", "addr:housenumber": "3", "addr:street": "Stefanii Pawlak", "amenity": "pharmacy", "brand": "Dbam o Zdrowie", "brand:wikidata": "Q62563833", "dispensing": "yes", "healthcare": "pharmacy", "name": "Dbam o Zdrowie", "ref:csioz": "1162163", "short_name": "DOZ"}}, {"type": "node", "id": 4042849457, "lat": 51.1345575, "lon": 23.4974974, "tags": {"amenity": "pharmacy", "brand": "Dbam o Zdrowie", "brand:wikidata": "Q62563833", "dispensing": "yes", "healthcare": "pharmacy", "name": "Dbam o Zdrowie", "opening_hours": "Mo-Fr 08:00-20:00; Sa 08:00-15:00", "ref:csioz": "1157289", "short_name": "DOZ"}}, {"type": "node", "id": 4083090336, "lat": 51.1313498, "lon": 23.4709051, "tags": {"amenity": "pharmacy", "dispensing": "yes", "healthcare": "pharmacy", "name": "Eskulap", "opening_hours": "Mo-Fr 08:00-18:00; Sa 08:00-15:00", "ref:csioz": "1156651"}}, {"type": "node", "id": 4083090380, "lat": 51.1304503, "lon": 23.471489, "tags": {"amenity": "pharmacy", "dispensing": "yes", "healthcare": "pharmacy", "name": "Apteka Na Deptaku", "opening_hours": "Mo-Fr 07:00-19:00; Sa 07:00-17:00", "ref:csioz": "1156705"}}, {"type": "node", "id": 4195885255, "lat": 51.1476375, "lon": 23.4562425, "tags": {"amenity": "pharmacy", "dispensing": "yes", "healthcare": "pharmacy", "name": "Apteka Centrum", "opening_hours": "Mo-Fr 07:00-21:00; Sa,Su 08:00-20:00", "ref:csioz": "1196641"}}, {"type": "node", "id": 4195885257, "lat": 51.1477782, "lon": 23.4570681, "tags": {"amenity": "pharmacy", "dispensing": "yes", "healthcare": "pharmacy", "name": "Apteka Pomocna", "opening_hours": "Mo-Fr 07:00-21:00; Sa,Su 08:00-20:00", "ref:csioz": "1198070"}}, {"type": "node", "id": 4349216824, "lat": 51.3035688, "lon": 23.1348717, "tags": {"amenity": "pharmacy", "dispensing": "yes", "healthcare": "pharmacy", "name": "Top-Farm", "ref:csioz": "1187656"}}, {"type": "node", "id": 4627167633, "lat": 51.1406814, "lon": 22.9940623}, {"type": "node", "id": 4627167634, "lat": 51.1406723, "lon": 22.9941231}, {"type": "node", "id": 4627167635, "lat": 51.1406521, "lon": 22.9941175}, {"type": "node", "id": 4627167636, "lat": 51.1406464, "lon": 22.9941586}, {"type": "node", "id": 4627167637, "lat": 51.1406313, "lon": 22.9941521}, {"type": "node", "id": 4627167638, "lat": 51.140622, "lon": 22.994217}, {"type": "node", "id": 4627167639, "lat": 51.1406006, "lon": 22.9942078}, {"type": "node", "id": 4627167640, "lat": 51.1405926, "lon": 22.994255}, {"type": "node", "id": 4627167641, "lat": 51.1405789, "lon": 22.9942516}, {"type": "node", "id": 4627167642, "lat": 51.1405744, "lon": 22.994285}, {"type": "node", "id": 4627167643, "lat": 51.1406508, "lon": 22.9943119}, {"type": "node", "id": 4627167644, "lat": 51.1406622, "lon": 22.994238}, {"type": "node", "id": 4627167645, "lat": 51.1406955, "lon": 22.9942493}, {"type": "node", "id": 4627167646, "lat": 51.1407024, "lon": 22.9942017}, {"type": "node", "id": 4627167647, "lat": 51.1407184, "lon": 22.9942084}, {"type": "node", "id": 4627167648, "lat": 51.1407363, "lon": 22.9940817}, {"type": "node", "id": 4738046597, "lat": 51.0909576, "lon": 22.964068, "tags": {"addr:housenumber": "24", "addr:place": "Fajs\u0142awice", "addr:postcode": "21-060", "amenity": "pharmacy", "dispensing": "yes", "healthcare": "pharmacy", "name": "Rodzinna", "opening_hours": "Mo-Fr 08:00-16:30; Sa 08:00-14:00", "phone": "+48 81 5810051", "ref:csioz": "1181747", "source:addr": "UG Fajs\u0142awice"}}, {"type": "node", "id": 4738047244, "lat": 51.0923581, "lon": 22.9642446, "tags": {"addr:housenumber": "106h", "addr:place": "Fajs\u0142awice", "addr:postcode": "21-060", "amenity": "pharmacy", "dispensing": "yes", "healthcare": "pharmacy", "name": "Szafir", "opening_hours": "Mo-Fr 08:00-18:00; Sa 09:00-14:00", "phone": "+48 81 5853142", "ref:csioz": "1218787"}}, {"type": "node", "id": 4739770041, "lat": 51.0440414, "lon": 23.0454243, "tags": {"addr:housenumber": "101", "addr:place": "\u0141opiennik Nadrzeczny", "addr:postcode": "22-351", "amenity": "pharmacy", "dispensing": "yes", "healthcare": "pharmacy", "opening_hours": "Mo-Fr 08:00-18:00; Sa 08:00-12:00", "phone": "+48 82 5773116", "ref:csioz": "1157056"}}, {"type": "node", "id": 4961708736, "lat": 51.3954509, "lon": 23.1943536, "tags": {"amenity": "pharmacy", "dispensing": "yes", "healthcare": "pharmacy", "opening_hours": "Mo-Fr 08:00-18:00; Sa 08:00-14:00", "phone": "+48 82 571 30 16", "ref:csioz": "1156623"}}, {"type": "node", "id": 5670728569, "lat": 51.1301958, "lon": 23.4689714, "tags": {"amenity": "pharmacy", "brand": "Gemini", "brand:wikidata": "Q130243797", "dispensing": "yes", "healthcare": "pharmacy", "name": "Gemini", "opening_hours": "Mo-Fr 07:00-21:00; Sa 08:00-17:00; Su 08:45-15:00", "ref:csioz": "1207951"}}, {"type": "node", "id": 8421715511, "lat": 51.1454767, "lon": 23.4385746, "tags": {"addr:city": "Che\u0142m", "addr:housenumber": "189", "addr:postcode": "22-100", "addr:street": "Lubelska", "amenity": "pharmacy", "dispensing": "yes", "healthcare": "pharmacy", "name": "Apteka Neptun", "opening_hours": "Mo-Fr 08:00-19:00; Sa 08:00-15:00; Su off", "ref:csioz": "1156544", "wheelchair": "no"}}, {"type": "node", "id": 9178212661, "lat": 51.4019397, "lon": 23.4077725, "tags": {"addr:city": "Ha\u0144sk Pierwszy", "addr:housenumber": "1a", "addr:postcode": "22-235", "addr:street": "Osiedlowa", "amenity": "pharmacy", "dispensing": "yes", "drive_through": "no", "healthcare": "pharmacy", "name": "Apteka \"Salus\"", "opening_hours": "Mo-Fr 08:00-20:00; Sa 08:00-14:00", "phone": "+48825714124", "ref:csioz": "1156783"}}, {"type": "node", "id": 9525011555, "lat": 51.3959508, "lon": 23.1949558, "tags": {"amenity": "pharmacy", "dispensing": "yes", "healthcare": "pharmacy", "name": "Nova", "opening_hours": "Mo-Fr 8:00-18:00; Sa 9:00-12:00; Su off", "ref:csioz": "1156999"}}, {"type": "node", "id": 9546082523, "lat": 51.2701603, "lon": 23.4329515, "tags": {"amenity": "pharmacy", "dispensing": "yes", "healthcare": "pharmacy", "name": "Twoja Apteka", "opening_hours": "Mo-Fr 08:00-16:00; Sa 09:00-12:00", "ref:csioz": "1156747"}}, {"type": "node", "id": 9546155087, "lat": 51.1149141, "lon": 23.2388549, "tags": {"amenity": "pharmacy", "dispensing": "yes", "drive_through": "no", "healthcare": "pharmacy", "name": "Apteka Z Sercem", "opening_hours": "Mo-Fr 08:00-18:00; Sa 08:00-12:00", "ref:csioz": "1157081"}}, {"type": "node", "id": 9546155580, "lat": 51.0922643, "lon": 23.2820827, "tags": {"amenity": "pharmacy", "dispensing": "yes", "drive_through": "no", "healthcare": "pharmacy", "opening_hours": "Mo-Fr 08:00-17:30; Sa 08:00-12:30", "ref:csioz": "1156985"}}, {"type": "node", "id": 9551859532, "lat": 51.124849, "lon": 23.463267, "tags": {"amenity": "pharmacy", "dispensing": "yes", "healthcare": "pharmacy", "name": "Apteka Stansenpol Mai Seniuk I Sp\u00f3\u0142ka Jawna", "opening_hours": "Mo-Fr 08:00-19:00; Sa 08:00-15:00", "ref:csioz": "1156531"}}, {"type": "node", "id": 9551859533, "lat": 51.1436816, "lon": 23.4437149, "tags": {"amenity": "pharmacy", "dispensing": "yes", "healthcare": "pharmacy", "name": "Apteka Stansepol Epiona", "opening_hours": "Mo-Su 08:00-22:00", "ref:csioz": "1156528", "wheelchair": "yes"}}, {"type": "node", "id": 9551859535, "lat": 51.1302457, "lon": 23.4652421, "tags": {"amenity": "pharmacy", "dispensing": "yes", "healthcare": "pharmacy", "opening_hours": "Mo-Fr 08:00-19:00", "ref:csioz": "1106128"}}, {"type": "node", "id": 9551859536, "lat": 51.123745, "lon": 23.465872, "tags": {"amenity": "pharmacy", "dispensing": "yes", "disused:healthcare": "pharmacy", "email": "a.zolkiewska@interia.pl", "healthcare": "pharmacy", "name": "S\u0142oneczna", "ref:csioz": "1157097"}}, {"type": "node", "id": 10313726848, "lat": 51.1475874, "lon": 23.4569967}, {"type": "node", "id": 10313726849, "lat": 51.1475651, "lon": 23.4569917}, {"type": "node", "id": 10313726850, "lat": 51.1475417, "lon": 23.4572363}, {"type": "node", "id": 10313726851, "lat": 51.1476111, "lon": 23.4572524}, {"type": "node", "id": 10313726852, "lat": 51.1476337, "lon": 23.4570072}, {"type": "node", "id": 10313726853, "lat": 51.1476097, "lon": 23.4570017}, {"type": "node", "id": 10313726854, "lat": 51.1476122, "lon": 23.4569735}, {"type": "node", "id": 10313726855, "lat": 51.1475899, "lon": 23.4569683}, {"type": "node", "id": 10591889483, "lat": 51.1204047, "lon": 23.2441957, "tags": {"amenity": "pharmacy", "dispensing": "yes", "drive_through": "no", "healthcare": "pharmacy", "name": "Nowa", "opening_hours": "Mo-Fr 08:00-18:00; Sa 08:00-14:00", "ref:csioz": "1156667"}}, {"type": "node", "id": 10594881670, "lat": 51.2955985, "lon": 22.8881412, "tags": {"amenity": "pharmacy", "dispensing": "yes", "healthcare": "pharmacy", "name": "Prima", "ref:csioz": "1210412"}}, {"type": "node", "id": 10594881671, "lat": 51.3008346, "lon": 22.887044, "tags": {"amenity": "pharmacy", "dispensing": "yes", "healthcare": "pharmacy", "name": "Centrum", "ref:csioz": "1161782"}}, {"type": "node", "id": 10594881672, "lat": 51.3065621, "lon": 22.882641, "tags": {"amenity": "pharmacy", "dispensing": "yes", "healthcare": "pharmacy", "name": "Dla Zdrowia", "ref:csioz": "1162356", "wheelchair": "no"}}, {"type": "node", "id": 10594881673, "lat": 51.295439, "lon": 22.8920043, "tags": {"amenity": "pharmacy", "dispensing": "yes", "healthcare": "pharmacy", "name": "Zielona", "ref:csioz": "1162589"}}, {"type": "node", "id": 10594881674, "lat": 51.2909528, "lon": 22.8785764, "tags": {"amenity": "pharmacy", "brand": "Dbam o Zdrowie", "brand:wikidata": "Q62563833", "dispensing": "yes", "healthcare": "pharmacy", "name": "Dbam o Zdrowie", "ref:csioz": "1162158", "short_name": "DOZ"}}, {"type": "node", "id": 10594881675, "lat": 51.2998794, "lon": 22.8913615, "tags": {"amenity": "pharmacy", "dispensing": "yes", "healthcare": "pharmacy", "name": "Centrum II", "ref:csioz": "1157527"}}, {"type": "node", "id": 10594881676, "lat": 51.345669, "lon": 22.9066702, "tags": {"amenity": "pharmacy", "dispensing": "yes", "healthcare": "pharmacy", "name": "Apteka", "opening_hours": "Mo-Fr 08:00-17:00; Sa 08:00-13:00", "ref:csioz": "1163091", "wheelchair": "no"}}, {"type": "node", "id": 10594881684, "lat": 51.3047003, "lon": 23.1208012, "tags": {"amenity": "pharmacy", "dispensing": "yes", "healthcare": "pharmacy", "name": "Helena", "ref:csioz": "1156854"}}, {"type": "node", "id": 10594887992, "lat": 51.3139816, "lon": 22.9746511, "tags": {"amenity": "pharmacy", "dispensing": "yes", "healthcare": "pharmacy", "name": "Kalina", "ref:csioz": "1161977"}}, {"type": "node", "id": 10594888004, "lat": 51.2241664, "lon": 22.9284739, "tags": {"amenity": "pharmacy", "dispensing": "yes", "healthcare": "pharmacy", "ref:csioz": "1184640"}}, {"type": "node", "id": 10594894605, "lat": 51.2236169, "lon": 22.9290603, "tags": {"amenity": "pharmacy", "dispensing": "yes", "healthcare": "pharmacy", "name": "Luxfarm", "ref:csioz": "1212260"}}, {"type": "node", "id": 10600796948, "lat": 51.1374677, "lon": 22.9950143, "tags": {"amenity": "pharmacy", "dispensing": "yes", "fixme": "Lokalizacja do weryfikacji", "healthcare": "pharmacy", "ref:csioz": "1158489"}}, {"type": "way", "id": 468152298, "nodes": [4627167645, 4627167646, 4627167647, 4627167648, 4627167633, 4627167634, 4627167635, 4627167636, 4627167637, 4627167638, 4627167639, 4627167640, 4627167641, 4627167642, 4627167643, 4627167644, 4627167645], "tags": {"addr:city:simc": "0392201", "addr:housenumber": "529A", "addr:place": "Trawniki", "addr:postcode": "21-044", "amenity": "pharmacy", "building": "yes", "building:levels": "1", "dispensing": "yes", "healthcare": "pharmacy", "name": "Pod Kasztanami", "opening_hours": "Mo-Fr 08:00-18:00; Sa 08:00-13:00", "ref:csioz": "1189706", "source:addr": "emuia.gugik.gov.pl", "source:building": "BDOT", "source:geometry": "EGiB"}}, {"type": "way", "id": 1128084606, "nodes": [10313726855, 10313726854, 10313726853, 10313726852, 10313726851, 3107360265, 3107360248, 10313726850, 10313726849, 10313726848, 10313726855], "tags": {"addr:city": "Che\u0142m", "addr:housenumber": "38a", "addr:postcode": "22-100", "addr:state": "lubelskie", "addr:street": "Szpitalna", "amenity": "pharmacy", "building": "yes", "building:levels": "2", "dispensing": "yes", "healthcare": "pharmacy", "name": "Apteka Centrum", "opening_hours": "Mo-Fr 08:00-20:00; Sa,Su 08:00-16:00", "ref:csioz": "1156638", "source": "www.geoportal.gov.pl"}}]}