{"version": 0.6, "generator": "Overpass API 0.7.62.8 e802775f", "osm3s": {"timestamp_osm_base": "2025-10-06T08:12:00Z", "copyright": "The data included in this document is from www.openstreetmap.org. The data is made available under ODbL."}, "elements": [{"type": "node", "id": 285739419, "lat": 48.5973968, "lon": 19.8897653, "tags": {"amenity": "pharmacy", "dispensing": "yes"}}, {"type": "node", "id": 332529344, "lat": 48.8064396, "lon": 19.6288707, "tags": {"amenity": "pharmacy", "brand": "Va\u0161a Lek\u00e1re\u0148", "brand:wikidata": "Q108368884", "dispensing": "yes", "healthcare": "pharmacy", "name": "Lek\u00e1re\u0148 Na \u0161tadi\u00f3ne", "opening_hours": "Mo-Fr 08:00-16:30; Sa 09:00-12:00", "phone": "+421486117740", "website": "https://www.vasalekaren.sk/"}}, {"type": "node", "id": 456845337, "lat": 48.8114026, "lon": 19.5267155, "tags": {"amenity": "pharmacy", "dispensing": "no"}}, {"type": "node", "id": 477461118, "lat": 48.7908216, "lon": 19.3882868, "tags": {"amenity": "pharmacy"}}, {"type": "node", "id": 598686812, "lat": 48.5593392, "lon": 19.4225453, "tags": {"amenity": "pharmacy", "dispensing": "yes", "name": "Camilca"}}, {"type": "node", "id": 598695424, "lat": 48.5620871, "lon": 19.418117, "tags": {"amenity": "pharmacy", "dispensing": "yes"}}, {"type": "node", "id": 601662200, "lat": 48.5453513, "lon": 19.4117033, "tags": {"amenity": "pharmacy", "dispensing": "yes"}}, {"type": "node", "id": 875499911, "lat": 48.5306185, "lon": 19.4480953, "tags": {"amenity": "pharmacy"}}, {"type": "node", "id": 2505287200, "lat": 48.5425531, "lon": 19.4080196, "tags": {"amenity": "pharmacy"}}, {"type": "node", "id": 2506897166, "lat": 48.54059, "lon": 19.4069748, "tags": {"amenity": "pharmacy", "name": "Lek\u00e1re\u0148 sv. Anny", "opening_hours": "Mo-Fr 07:30-16:00; Sa,Su off"}}, {"type": "node", "id": 2511181847, "lat": 48.5414452, "lon": 19.4086319, "tags": {"amenity": "pharmacy"}}, {"type": "node", "id": 3158404733, "lat": 48.5797803, "lon": 19.9528697, "tags": {"amenity": "pharmacy", "dispensing": "yes", "name": "Lek\u00e1re\u0148 na n\u00e1mest\u00ed"}}, {"type": "node", "id": 3750058084, "lat": 48.807565, "lon": 19.5715715, "tags": {"amenity": "pharmacy", "dispensing": "no", "name": "Helenium"}}, {"type": "node", "id": 3750071214, "lat": 48.755632, "lon": 19.7994881, "tags": {"amenity": "pharmacy", "dispensing": "no"}}, {"type": "node", "id": 3975459032, "lat": 48.805931, "lon": 19.6461826, "tags": {"amenity": "pharmacy", "name": "Lek\u00e1re\u0148 pri Hrone", "opening_hours": "Mo-Fr 07:30-16:00"}}, {"type": "node", "id": 4212440993, "lat": 48.7460122, "lon": 19.3627815, "tags": {"amenity": "pharmacy"}}, {"type": "node", "id": 4212749501, "lat": 48.8070545, "lon": 19.6394129, "tags": {"amenity": "pharmacy"}}, {"type": "node", "id": 4506460590, "lat": 48.7671119, "lon": 19.2730482, "tags": {"amenity": "pharmacy", "name": "Lek\u00e1re\u0148 \u013dup\u010dianska", "opening_hours": "Mo-Fr 06:30-16:00", "operator": "\u017delm\u00edra \u0160o\u00f3\u0161ov\u00e1", "phone": "+421 48 418 7010"}}, {"type": "node", "id": 4849841107, "lat": 48.8070054, "lon": 19.6407313, "tags": {"amenity": "pharmacy", "name": "Medicentrum"}}, {"type": "node", "id": 5204402547, "lat": 48.8092135, "lon": 19.623721, "tags": {"addr:postcode": "97701", "addr:street": "Banisko 273/1", "amenity": "pharmacy", "name": "Lek\u00e1re\u0148 pri nemocnici", "phone": "+421 48 611 3586"}}, {"type": "node", "id": 6354461012, "lat": 48.8070107, "lon": 19.6279082, "tags": {"amenity": "pharmacy", "brand": "Dr. Max", "brand:wikidata": "Q56317371", "dispensing": "yes", "healthcare": "pharmacy", "name": "Dr. Max", "opening_hours": "Mo-Su 08:00-20:00", "website": "https://www.drmax.sk/"}}, {"type": "node", "id": 6354461013, "lat": 48.8099255, "lon": 19.6268769, "tags": {"amenity": "pharmacy", "dispensing": "yes", "healthcare": "pharmacy", "name": "Dr.Max"}}, {"type": "node", "id": 9880683542, "lat": 48.8080106, "lon": 19.6282579, "tags": {"amenity": "pharmacy", "dispensing": "yes", "healthcare": "pharmacy", "name": "Plus Lek\u00e1re\u0148", "operator": "Plus Lek\u00e1re\u0148"}}, {"type": "node", "id": 9922993997, "lat": 48.5790356, "lon": 19.9527705, "tags": {"amenity": "pharmacy", "brand": "Dr. Max", "brand:wikidata": "Q56317371", "healthcare": "pharmacy", "name": "Dr. Max"}}, {"type": "node", "id": 11146729433, "lat": 48.5411164, "lon": 19.407018, "tags": {"amenity": "pharmacy", "healthcare": "pharmacy", "name": "Lek\u00e1re\u0148 Harm\u00f3nia"}}, {"type": "node", "id": 11147795159, "lat": 48.5429159, "lon": 19.4003791, "tags": {"air_conditioning": "yes", "amenity": "pharmacy", "branch": "Detva, HM Tesco", "brand": "Dr. Max", "brand:wikidata": "Q56317371", "contact:facebook": "https://www.facebook.com/drmaxlekaren", "contact:instagram": "https://www.instagram.com/lekaren_drmax/", "dispensing": "yes", "healthcare": "pharmacy", "level": "0", "name": "Dr. Max", "opening_hours": "Mo-Su 08:00-20:00; PH off", "stroller": "yes", "website": "https://www.drmax.sk/", "wheelchair": "yes"}}, {"type": "node", "id": 11250376269, "lat": 48.5788567, "lon": 19.5284474, "tags": {"amenity": "pharmacy", "brand": "Dr. Max", "brand:wikidata": "Q56317371", "healthcare": "pharmacy", "name": "Dr. Max"}}, {"type": "node", "id": 11250433255, "lat": 48.5779347, "lon": 19.5255197, "tags": {"amenity": "pharmacy", "name": "Lek\u00e1re\u0148 Po\u013eana"}}, {"type": "node", "id": 11422954151, "lat": 48.7651421, "lon": 19.2069125, "tags": {"amenity": "pharmacy", "dispensing": "yes", "name": "Lek\u00e1re\u0148 Selce", "opening_hours": "Mo-Th 07:30-16:00; Fr 07:30-14:00", "phone": "+421 915 572 362"}}, {"type": "node", "id": 11758038509, "lat": 48.5413836, "lon": 19.3970218, "tags": {"air_conditioning": "yes", "amenity": "pharmacy", "brand": "Dr. Max", "brand:wikidata": "Q56317371", "contact:facebook": "https://www.facebook.com/lekarnadrmax/", "contact:instagram": "https://www.instagram.com/drmaxlekarna/", "dispensing": "yes", "healthcare": "pharmacy", "level": "0", "name": "Dr. Max", "opening_hours": "Mo-Su 08:00-20:00", "stroller": "yes", "website": "https://www.drmax.cz/", "wheelchair": "yes"}}]}