{"version": 0.6, "generator": "Overpass API 0.7.62.8 e802775f", "osm3s": {"timestamp_osm_base": "2025-10-06T08:20:01Z", "copyright": "The data included in this document is from www.openstreetmap.org. The data is made available under ODbL."}, "elements": [{"type": "node", "id": 471029380, "lat": 49.1214678, "lon": 20.4461239, "tags": {"amenity": "pharmacy", "dispensing": "yes", "name": "\u013dubica"}}, {"type": "node", "id": 884319641, "lat": 49.2988051, "lon": 20.6823002, "tags": {"amenity": "pharmacy", "name": "Lek\u00e1re\u0148 VIVA", "opening_hours": "Mo-Fr 07:00-16:30"}}, {"type": "node", "id": 884756646, "lat": 49.2978365, "lon": 20.6880005, "tags": {"amenity": "pharmacy", "name": "Nemocni\u010dn\u00e1 lek\u00e1re\u0148"}}, {"type": "node", "id": 886308983, "lat": 49.3004981, "lon": 20.6898534, "tags": {"amenity": "pharmacy", "name": "Lek\u00e1re\u0148 Landanun"}}, {"type": "node", "id": 886308998, "lat": 49.3012317, "lon": 20.6878376, "tags": {"amenity": "pharmacy", "name": "Lek\u00e1re\u0148 Elix\u00edr"}}, {"type": "node", "id": 958390928, "lat": 49.3013687, "lon": 20.6892241, "tags": {"amenity": "pharmacy", "name": "Dr.Max", "operator": "Dr.Max"}}, {"type": "node", "id": 976458127, "lat": 49.6075684, "lon": 20.72155, "tags": {"addr:city": "Nowy S\u0105cz", "addr:housenumber": "4a", "addr:postcode": "33-300", "addr:street": "Jana Freislera", "amenity": "pharmacy", "dispensing": "yes", "email": "aptekagorzkow@op.pl", "healthcare": "pharmacy", "name": "Apteka Na Gorzkowie", "opening_hours": "Mo-Fr 08:00-18:00; Sa 08:00-15:00; Su,PH off", "phone": "+48 18 442 60 20", "ref:csioz": "1027131"}}, {"type": "node", "id": 1559078149, "lat": 49.5631655, "lon": 20.6346136, "tags": {"addr:city": "Stary S\u0105cz", "addr:housenumber": "1", "addr:postcode": "33-340", "addr:street": "Kr\u00f3lowej Jadwigi", "amenity": "pharmacy", "name": "Apteka Dbam O Zdrowie", "ref:csioz": "1080653"}}, {"type": "node", "id": 1863183736, "lat": 49.3766378, "lon": 20.4856478, "tags": {"addr:housename": "Zdravotne stredisko", "addr:postcode": "06533", "amenity": "pharmacy", "dispensing": "yes", "name": "Lek\u00e1re\u0148 Aksamitka"}}, {"type": "node", "id": 2278470488, "lat": 49.1404203, "lon": 20.4303201, "tags": {"amenity": "pharmacy", "dispensing": "yes"}}, {"type": "node", "id": 2354835819, "lat": 49.1908561, "lon": 20.4526966, "tags": {"addr:city": "Spi\u0161sk\u00e1 Bel\u00e1", "addr:housenumber": "455/42", "addr:postcode": "05901", "addr:street": "\u0160tef\u00e1nikova", "amenity": "pharmacy", "drive_through": "no", "healthcare": "pharmacy", "name": "Lek\u00e1re\u0148 Bel\u00e1", "opening_hours": "Mo-Fr 07:00-15:30", "operator": "TatraMedical s.r.o.", "website": "https://www.pluslekaren.sk/"}}, {"type": "node", "id": 2373173840, "lat": 49.355811, "lon": 20.89708, "tags": {"amenity": "pharmacy", "dispensing": "yes", "healthcare": "pharmacy", "name": "zdrowe ceny sp. j", "opening_hours": "Mo-Fr 07:30-20:00; Sa 08:00-15:00", "ref:csioz": "1204393", "website": "www.zdroweceny.pl"}}, {"type": "node", "id": 3141093587, "lat": 49.4067047, "lon": 20.2985926, "tags": {"amenity": "pharmacy"}}, {"type": "node", "id": 3318439310, "lat": 49.1887213, "lon": 20.4559181, "tags": {"amenity": "pharmacy", "dispensing": "yes", "drive_through": "no", "healthcare": "pharmacy", "name": "Lek\u00e1re\u0148 Familia", "opening_hours": "Mo-Fr 07:00-17:00; Sa 08:00-12:00", "operator": "Caesar s.r.o."}}, {"type": "node", "id": 3379377596, "lat": 49.5856905, "lon": 20.6727013}, {"type": "node", "id": 3643206566, "lat": 49.1333669, "lon": 20.421932, "tags": {"amenity": "pharmacy"}}, {"type": "node", "id": 4076089420, "lat": 49.5618378, "lon": 20.7458125, "tags": {"addr:city": "Nawojowa", "addr:housenumber": "9", "addr:postcode": "33-335", "addr:street": "Ogrodowa", "amenity": "pharmacy", "name": "Apteka Nawojowska", "ref:csioz": "1185152"}}, {"type": "node", "id": 4382027615, "lat": 49.3813582, "lon": 20.3611105, "tags": {"amenity": "pharmacy", "name": "Cypri\u00e1n"}}, {"type": "node", "id": 4757010033, "lat": 49.5629803, "lon": 20.6350859, "tags": {"addr:city": "Stary S\u0105cz", "addr:housenumber": "1", "addr:postcode": "33-340", "addr:street": "Kazimierza Wielkiego", "amenity": "pharmacy", "healthcare": "pharmacy", "name": "Apteka Kinga", "opening_hours": "Mo-Fr 07:00-20:00, Sa 07:00-15:00", "ref:csioz": "1189601"}}, {"type": "node", "id": 4763898213, "lat": 49.231455, "lon": 20.3590776, "tags": {"amenity": "pharmacy"}}, {"type": "node", "id": 4782786782, "lat": 49.440181, "lon": 20.714176, "tags": {"amenity": "pharmacy", "dispensing": "yes", "healthcare": "pharmacy", "opening_hours": "Mo-Fr 07:30-19:00; Sa 08:00-15:00", "ref:csioz": "1214886"}}, {"type": "node", "id": 4790846423, "lat": 49.3533273, "lon": 20.8956279, "tags": {"addr:city": "Muszyna", "addr:housenumber": "4", "addr:postcode": "33-370", "addr:street": "Zefirka", "amenity": "pharmacy", "name": "Apteka \u015aw. Jana S.C. D. Jab\u0142o\u0144ska, M.G\u0119bka", "ref:csioz": "1080703"}}, {"type": "node", "id": 4792423622, "lat": 49.3491894, "lon": 20.8949386, "tags": {"amenity": "pharmacy"}}, {"type": "node", "id": 5309002007, "lat": 49.4027611, "lon": 20.3410341, "tags": {"amenity": "pharmacy", "healthcare": "pharmacy", "opening_hours": "Mo-Fr 08:00-14:00", "phone": "+48 182628602"}}, {"type": "node", "id": 6983418756, "lat": 49.6003174, "lon": 20.7121959, "tags": {"addr:city": "Nowy S\u0105cz", "addr:door": "23", "addr:housenumber": "16A", "addr:postcode": "33-300", "addr:street": "29 Listopada", "amenity": "pharmacy", "dispensing": "yes", "email": "aptekanabloniach.nowysacz@gmail.com", "healthcare": "pharmacy", "name": "Apteka na B\u0142oniach", "opening_hours": "Mo-Fr 08:00-20:00; Sa 08:00-15:00; Su 00:00-24:00; PH off", "phone": "+48 18 540 11 44", "ref:csioz": "1229700"}}, {"type": "node", "id": 7123572795, "lat": 49.4877031, "lon": 20.6818619}, {"type": "node", "id": 7123572797, "lat": 49.4876685, "lon": 20.6815424}, {"type": "node", "id": 7123572798, "lat": 49.4874098, "lon": 20.6816952}, {"type": "node", "id": 7788039912, "lat": 49.3051452, "lon": 20.684721, "tags": {"amenity": "pharmacy", "brand": "Dr. Max", "brand:wikidata": "Q56317371", "brand:wikipedia": "fr:Dr.Max", "dispensing": "yes", "healthcare": "pharmacy", "name": "Dr. Max"}}, {"type": "node", "id": 8506527835, "lat": 49.1321494, "lon": 20.4288607}, {"type": "node", "id": 8506527836, "lat": 49.1320015, "lon": 20.4287162}, {"type": "node", "id": 8506527837, "lat": 49.1320952, "lon": 20.4284923}, {"type": "node", "id": 8506527838, "lat": 49.1322431, "lon": 20.4286368}, {"type": "node", "id": 9082560282, "lat": 49.1183545, "lon": 20.4458289, "tags": {"amenity": "pharmacy", "name": "Dr. Max"}}, {"type": "node", "id": 9175994411, "lat": 49.1314775, "lon": 20.4281595, "tags": {"amenity": "pharmacy", "name": "Lek\u00e1re\u0148 Echinacea", "source": "survey"}}, {"type": "node", "id": 9545841846, "lat": 49.5923073, "lon": 20.6300993, "tags": {"addr:housenumber": "645", "addr:place": "Brzezna", "addr:postcode": "33-386", "amenity": "pharmacy", "healthcare": "pharmacy", "name": "\u0141ukasz Korpak \u201eApteka S\u0105decka\u201d", "opening_hours": "Mo-Sa 07:00-21:00", "ref:csioz": "1230789"}}, {"type": "node", "id": 9545841847, "lat": 49.5461478, "lon": 20.5796103, "tags": {"addr:housenumber": "24", "addr:place": "Go\u0142kowice Dolne", "addr:postcode": "33-388", "amenity": "pharmacy", "name": "Punkt Apteczny Kinga", "ref:csioz": "1229547"}}, {"type": "node", "id": 9545841849, "lat": 49.552137, "lon": 20.4527122, "tags": {"addr:city": "\u0141\u0105cko", "addr:housenumber": "963", "addr:place": "\u0141\u0105cko", "addr:postcode": "33-390", "amenity": "pharmacy", "healthcare": "pharmacy", "name": "Apteka Mojej Mamy", "ref:csioz": "1221004"}}, {"type": "node", "id": 9545841852, "lat": 49.5642365, "lon": 20.6355064, "tags": {"addr:city": "Stary S\u0105cz", "addr:housenumber": "20", "addr:postcode": "33-340", "addr:street": "Rynek", "amenity": "pharmacy", "healthcare": "pharmacy", "name": "Apteka Galicja", "ref:csioz": "1213386"}}, {"type": "node", "id": 9545841853, "lat": 49.5778873, "lon": 20.594567, "tags": {"addr:flats": "A", "addr:housenumber": "210", "addr:place": "Podegrodzie", "addr:postcode": "33-386", "amenity": "pharmacy", "name": "Nowa", "ref:csioz": "1209520"}}, {"type": "node", "id": 9545841855, "lat": 49.5270855, "lon": 20.8526976, "tags": {"addr:housenumber": "284", "addr:place": "\u0141abowa", "addr:postcode": "33-335", "amenity": "pharmacy", "name": "Dzia\u0142 Farmacji Szpitalnej", "ref:csioz": "1192220"}}, {"type": "node", "id": 9545841862, "lat": 49.5242911, "lon": 20.652973, "tags": {"amenity": "pharmacy", "dispensing": "yes", "ref:csioz": "1081426"}}, {"type": "node", "id": 9545841867, "lat": 49.5605223, "lon": 20.7451246, "tags": {"addr:city": "Nawojowa", "addr:housenumber": "1", "addr:postcode": "33-335", "addr:street": "Krynicka", "amenity": "pharmacy", "ref:csioz": "1080354"}}, {"type": "node", "id": 9545841870, "lat": 49.441518, "lon": 20.7152684, "tags": {"addr:city": "Piwniczna-Zdr\u00f3j", "addr:housenumber": "6", "addr:postcode": "33-350", "addr:street": "Ludwika Rzeszutka", "amenity": "pharmacy", "name": "Zdrojowa", "opening_hours": "Mo-Fr 08:00-18:00; Sa 08:00-13:00; PH closed", "ref:csioz": "1080105"}}, {"type": "node", "id": 9545841871, "lat": 49.5672366, "lon": 20.6267173, "tags": {"addr:city": "Stary S\u0105cz", "addr:housenumber": "4", "addr:postcode": "33-340", "addr:street": "Podegrodzka", "amenity": "pharmacy", "name": "Apteka Nova-Pharm", "ref:csioz": "1200432"}}, {"type": "node", "id": 9545841876, "lat": 49.5755121, "lon": 20.5911595, "tags": {"addr:housenumber": "426", "addr:place": "Podegrodzie", "addr:postcode": "33-386", "amenity": "pharmacy", "name": "\"Apteka \"\"Pilula\"\" S.C.\"", "ref:csioz": "1080436"}}, {"type": "node", "id": 9545841877, "lat": 49.5290833, "lon": 20.515458, "tags": {"addr:housenumber": "258", "addr:place": "Jazowsko", "addr:postcode": "33-389", "amenity": "pharmacy", "ref:csioz": "1080448"}}, {"type": "node", "id": 9545841879, "lat": 49.5266472, "lon": 20.8565564, "tags": {"addr:housenumber": "253", "addr:place": "\u0141abowa", "addr:postcode": "33-336", "amenity": "pharmacy", "name": "Apteka \u0141abowska", "ref:csioz": "1080365"}}, {"type": "node", "id": 9545841884, "lat": 49.621084, "lon": 20.7816776, "tags": {"addr:housenumber": "527", "addr:place": "Paszyn", "addr:postcode": "33-326", "amenity": "pharmacy", "name": "Apteka Paszy\u0144ska Mgr Farm. Lucyna Baranowska", "ref:csioz": "1181515"}}, {"type": "node", "id": 9588633573, "lat": 49.4835794, "lon": 20.4120969, "tags": {"addr:city": "Tylmanowa", "addr:housenumber": "223", "addr:postcode": "34-451", "addr:street": "Bliszcze", "amenity": "pharmacy", "dispensing": "yes", "name": "Apteka Malina", "ref:csioz": "1227059"}}, {"type": "node", "id": 9588649971, "lat": 49.4402382, "lon": 20.429131, "tags": {"addr:city": "Kro\u015bcienko nad Dunajcem", "addr:housenumber": "30", "addr:postcode": "34-450", "addr:street": "Rynek", "amenity": "pharmacy", "dispensing": "yes", "healthcare": "pharmacy", "name": "Szarotka", "ref:csioz": "1042209"}}, {"type": "node", "id": 9588730782, "lat": 49.4610099, "lon": 20.2657158, "tags": {"addr:city": "Maniowy", "addr:housenumber": "4", "addr:postcode": "34-436", "addr:street": "Gorcza\u0144ska", "amenity": "pharmacy", "dispensing": "yes", "name": "Apteka Rodzinna", "ref:csioz": "1169433"}}, {"type": "node", "id": 9588734702, "lat": 49.4394446, "lon": 20.4284015, "tags": {"addr:city": "Kro\u015bcienko nad Dunajcem", "addr:housenumber": "5", "addr:postcode": "34-450", "addr:street": "\u015awi\u0119tej Kingi", "amenity": "pharmacy", "check_date": "2025-07-05", "dispensing": "yes", "healthcare": "pharmacy", "name": "Medicina", "ref:csioz": "1056558"}}, {"type": "node", "id": 9588743856, "lat": 49.4406975, "lon": 20.4274348, "tags": {"addr:city": "Kro\u015bcienko nad Dunajcem", "addr:housenumber": "4", "addr:postcode": "34-450", "addr:street": "Mickiewicza", "amenity": "pharmacy", "dispensing": "yes", "healthcare": "pharmacy", "ref:csioz": "1077678"}}, {"type": "node", "id": 9588765470, "lat": 49.4258676, "lon": 20.4853839, "tags": {"addr:city": "Szczawnica", "addr:housenumber": "17A", "addr:postcode": "34-460", "addr:street": "Jana Wiktora", "amenity": "pharmacy", "dispensing": "yes", "name": "Apteka Dbam O Zdrowie", "opening_hours": "Mo-Fr 08:00-18:00", "ref:csioz": "1038473"}}, {"type": "node", "id": 9588765694, "lat": 49.4617101, "lon": 20.2663383, "tags": {"addr:city": "Maniowy", "addr:housenumber": "6", "addr:postcode": "34-436", "addr:street": "Gorcza\u0144ska", "amenity": "pharmacy", "dispensing": "yes", "ref:csioz": "1077339"}}, {"type": "node", "id": 9588765992, "lat": 49.3944147, "lon": 20.4076164, "tags": {"addr:city": "Sromowce Ni\u017cne", "addr:housenumber": "16", "addr:postcode": "34-443", "addr:street": "Szkolna", "amenity": "pharmacy", "dispensing": "yes", "name": "\u201ePod Trzema Koronami\u201d", "ref:csioz": "1213454"}}, {"type": "node", "id": 9588794780, "lat": 49.4257439, "lon": 20.4814301, "tags": {"addr:city": "Szczawnica", "addr:housenumber": "8", "addr:postcode": "34-460", "addr:street": "G\u0142\u00f3wna", "amenity": "pharmacy", "dispensing": "yes", "name": "Apteka", "ref:csioz": "1076190"}}, {"type": "node", "id": 9588795901, "lat": 49.5262263, "lon": 20.3319098, "tags": {"addr:city": "Ochotnica Dolna", "addr:housenumber": "103A", "addr:postcode": "34-452", "addr:street": "Centrum", "amenity": "pharmacy", "dispensing": "yes", "name": "Apteka W Ochotnicy", "ref:csioz": "1229177"}}, {"type": "node", "id": 9893235696, "lat": 49.4877106, "lon": 20.6813907}, {"type": "node", "id": 9893235701, "lat": 49.487416, "lon": 20.6813806}, {"type": "node", "id": 9893235710, "lat": 49.4874321, "lon": 20.6817012}, {"type": "node", "id": 9893235716, "lat": 49.4876747, "lon": 20.6818572}, {"type": "node", "id": 9893235717, "lat": 49.4876653, "lon": 20.6817754}, {"type": "node", "id": 9943058295, "lat": 49.5365073, "lon": 20.6465353, "tags": {"amenity": "pharmacy", "check_date:opening_hours": "2024-02-27", "dispensing": "yes", "healthcare": "pharmacy", "level": "0", "name": "Centrum Farmaceutyczne", "opening_hours": "Mo-Fr 08:00-20:00; Sa 08:00-18:00; PH closed", "ref:csioz": "1231317", "wheelchair": "yes"}}, {"type": "node", "id": 10064418134, "lat": 49.4876753, "lon": 20.6817756}, {"type": "node", "id": 10064418135, "lat": 49.4876361, "lon": 20.6819128}, {"type": "node", "id": 10064418136, "lat": 49.4876603, "lon": 20.6819402}, {"type": "node", "id": 10064418137, "lat": 49.4876541, "lon": 20.6819307}, {"type": "node", "id": 10064418138, "lat": 49.4876432, "lon": 20.681919}, {"type": "node", "id": 10064418139, "lat": 49.4876661, "lon": 20.6819507}, {"type": "node", "id": 10064418140, "lat": 49.4876975, "lon": 20.6818672}, {"type": "node", "id": 10064418141, "lat": 49.4877004, "lon": 20.6818689}, {"type": "node", "id": 10064418142, "lat": 49.4876957, "lon": 20.6818559}, {"type": "node", "id": 10064418143, "lat": 49.4876942, "lon": 20.6818577}, {"type": "node", "id": 10064418144, "lat": 49.4876272, "lon": 20.6819062}, {"type": "node", "id": 10064418145, "lat": 49.4875931, "lon": 20.6818999}, {"type": "node", "id": 10064418146, "lat": 49.4876, "lon": 20.6818997}, {"type": "node", "id": 10064418147, "lat": 49.4875873, "lon": 20.6818996}, {"type": "node", "id": 10064418148, "lat": 49.4875727, "lon": 20.6818978}, {"type": "node", "id": 10064418149, "lat": 49.4876136, "lon": 20.6818976}, {"type": "node", "id": 10064418150, "lat": 49.487613, "lon": 20.6818993}, {"type": "node", "id": 10064418151, "lat": 49.4875352, "lon": 20.6818824}, {"type": "node", "id": 10064418152, "lat": 49.487518, "lon": 20.6818718}, {"type": "node", "id": 10064418153, "lat": 49.4875022, "lon": 20.6818559}, {"type": "node", "id": 10064418154, "lat": 49.4874853, "lon": 20.6818343}, {"type": "node", "id": 10064418155, "lat": 49.4874724, "lon": 20.6818109}, {"type": "node", "id": 10064418156, "lat": 49.4875538, "lon": 20.6818916}, {"type": "node", "id": 10064418157, "lat": 49.4874596, "lon": 20.6817871}, {"type": "node", "id": 10064418158, "lat": 49.4874154, "lon": 20.6816557}, {"type": "node", "id": 10064418159, "lat": 49.4874157, "lon": 20.6816266}, {"type": "node", "id": 10064418160, "lat": 49.4874111, "lon": 20.6816067}, {"type": "node", "id": 10064418161, "lat": 49.487659, "lon": 20.6813813}, {"type": "node", "id": 10064418162, "lat": 49.4876051, "lon": 20.6813795}, {"type": "node", "id": 10064418163, "lat": 49.4875157, "lon": 20.6813584}, {"type": "node", "id": 10064418164, "lat": 49.4875805, "lon": 20.6813751}, {"type": "node", "id": 10064418165, "lat": 49.4875524, "lon": 20.681369}, {"type": "node", "id": 10064418166, "lat": 49.4876343, "lon": 20.6813807}, {"type": "node", "id": 10064418167, "lat": 49.4874743, "lon": 20.6813514}, {"type": "node", "id": 10064418168, "lat": 49.4874401, "lon": 20.6813529}, {"type": "node", "id": 10064418169, "lat": 49.4874256, "lon": 20.6813601}, {"type": "node", "id": 10064418170, "lat": 49.4876871, "lon": 20.681384}, {"type": "node", "id": 10652792614, "lat": 49.4248238, "lon": 20.4830038, "tags": {"amenity": "pharmacy", "brand": "Cef@Rm 36,6", "dispensing": "yes", "healthcare": "pharmacy", "name": "Cef@Rm 36,6", "ref:csioz": "1182639"}}, {"type": "node", "id": 10652792630, "lat": 49.5773583, "lon": 20.7831994, "tags": {"amenity": "pharmacy", "dispensing": "yes", "healthcare": "pharmacy", "name": "Nova-Pharm", "ref:csioz": "1123124"}}, {"type": "node", "id": 10931611829, "lat": 49.5856969, "lon": 20.672685}, {"type": "node", "id": 11691974399, "lat": 49.5636687, "lon": 20.6349578, "tags": {"amenity": "pharmacy", "check_date": "2024-08-22", "name": "Apteka CEF@RM 36,6", "opening_hours": "Mo-Fr 07:30-20:00, Sa 08:00-15:00"}}, {"type": "node", "id": 12056782516, "lat": 49.3993144, "lon": 20.416511, "tags": {"amenity": "pharmacy", "name": "Cypri\u00e1nova lek\u00e1re\u0148"}}, {"type": "node", "id": 12081672677, "lat": 49.3847099, "lon": 20.360474, "tags": {"amenity": "pharmacy", "brand": "Dr. Max", "healthcare": "pharmacy", "name": "Dr. Max"}}, {"type": "node", "id": 12133657032, "lat": 49.6040165, "lon": 20.7272795, "tags": {"amenity": "pharmacy", "brand": "Dr. Max", "brand:wikidata": "Q56317371", "check_date": "2024-08-24", "dispensing": "yes", "email": "nowysacz.gorzkowska@drmax.com.pl", "healthcare": "pharmacy", "name": "Dr. Max", "opening_hours": "Mo-Sa 09:00-21:00; Su,PH off", "phone": "+48 519 539 084", "ref:csioz": "1079809", "website": "https://www.drmax.pl/"}}, {"type": "node", "id": 12165586493, "lat": 49.273106, "lon": 20.7791978, "tags": {"amenity": "pharmacy", "brand": "Benu", "brand:wikidata": "Q62562792", "healthcare": "pharmacy", "name": "Benu", "opening_hours": "Mo-Fr 06:00-14:30"}}, {"type": "node", "id": 12574435075, "lat": 49.585765, "lon": 20.6727459}, {"type": "node", "id": 12574435076, "lat": 49.5858465, "lon": 20.6725478}, {"type": "node", "id": 12574435077, "lat": 49.5858083, "lon": 20.6725253}, {"type": "node", "id": 12574435078, "lat": 49.585791, "lon": 20.6725211}, {"type": "node", "id": 12574435079, "lat": 49.5857711, "lon": 20.6725309}, {"type": "way", "id": 431722382, "nodes": [9893235716, 10064418143, 10064418142, 7123572795, 10064418141, 10064418140, 10064418139, 10064418136, 10064418137, 10064418138, 10064418135, 10064418144, 10064418150, 10064418149, 10064418146, 10064418145, 10064418147, 10064418148, 10064418156, 10064418151, 10064418152, 10064418153, 10064418154, 10064418155, 10064418157, 9893235710, 7123572798, 10064418158, 10064418159, 10064418160, 9893235701, 10064418169, 10064418168, 10064418167, 10064418163, 10064418165, 10064418164, 10064418162, 10064418166, 10064418161, 10064418170, 9893235696, 7123572797, 9893235717, 10064418134, 9893235716], "tags": {"addr:city:simc": "0459550", "addr:housenumber": "541", "addr:place": "Rytro", "addr:postcode": "33-343", "amenity": "pharmacy", "building": "yes", "building:levels": "3", "name": "Ew-Ko Ewa Buchalska-Konior Apteka Ryterska", "ref:csioz": "1122339", "source": "www.geoportal.gov.pl"}}, {"type": "way", "id": 915780382, "nodes": [8506527838, 8506527837, 8506527836, 8506527835, 8506527838], "tags": {"addr:city": "Ke\u017emarok", "addr:conscriptionnumber": "2231", "addr:country": "SK", "addr:housenumber": "2231/5A", "addr:postcode": "06001", "addr:street": "Dr. Daniela Fischera", "addr:streetnumber": "5A", "amenity": "pharmacy", "building": "yes", "name": "\u013dubka", "ref:minvskaddress": "6704036042", "source": "Ortofotomozaika SR", "source:addr": "minvskaddress 2021-12"}}, {"type": "way", "id": 1358674980, "nodes": [10931611829, 12574435079, 12574435078, 12574435077, 12574435076, 12574435075, 3379377596, 10931611829], "tags": {"amenity": "pharmacy", "email": "sandecja@aptekacosmedica.pl", "indoor": "room", "level": "0", "name": "Apteka Cosmedica", "opening_hours": "Mo-Sa 10:00-21:00; Jan 26,Apr 13,Apr 27,Jun 29,Aug 31,Dec 07,Dec 14,Dec 21 10:00-20:00", "phone": "+4818 540 87 12", "website": "https://grupa.cosmedica.pl/"}}]}