{"version": 0.6, "generator": "Overpass API 0.7.62.8 e802775f", "osm3s": {"timestamp_osm_base": "2025-10-06T08:12:00Z", "copyright": "The data included in this document is from www.openstreetmap.org. The data is made available under ODbL."}, "elements": [{"type": "node", "id": 465982785, "lat": 45.7654749, "lon": 21.2189016, "tags": {"addr:city": "Timi\u0219oara", "addr:housenumber": "18", "addr:postcode": "300680", "addr:street": "Strada Burebista", "amenity": "pharmacy", "healthcare": "pharmacy", "name": "Catena"}}, {"type": "node", "id": 477200230, "lat": 45.7744922, "lon": 21.2221862, "tags": {"amenity": "pharmacy", "brand": "Dr. Max", "brand:wikidata": "Q56317371", "healthcare": "pharmacy", "name": "Dr. Max"}}, {"type": "node", "id": 500010749, "lat": 45.7483472, "lon": 21.2180808, "tags": {"addr:city": "Timi\u0219oara", "addr:housenumber": "1", "addr:street": "Strada Miron Costin", "amenity": "pharmacy", "dispensing": "yes", "drive_through": "no", "healthcare": "pharmacy", "name": "Farmacia Roz", "opening_hours": "Mo-Fr 08:00-20:00; Sa 08:00-14:00"}}, {"type": "node", "id": 501592052, "lat": 45.7666616, "lon": 21.2210722, "tags": {"amenity": "pharmacy", "healthcare": "pharmacy", "name": "Vlavar Med"}}, {"type": "node", "id": 501592755, "lat": 45.7644502, "lon": 21.2200668, "tags": {"amenity": "pharmacy", "name": "Dacia", "opening_hours": "Mo-Fr 08:30-16:30"}}, {"type": "node", "id": 513119066, "lat": 45.7747521, "lon": 21.2222293, "tags": {"amenity": "pharmacy", "brand": "Dr. Max", "brand:wikidata": "Q56317371", "healthcare": "pharmacy", "name": "Dr. Max"}}, {"type": "node", "id": 1178133586, "lat": 45.7342824, "lon": 21.2380958, "tags": {"amenity": "pharmacy", "healthcare": "pharmacy", "name": "Helpnet"}}, {"type": "node", "id": 1204369300, "lat": 45.7649462, "lon": 21.2189542, "tags": {"amenity": "pharmacy", "healthcare": "pharmacy", "name": "Richter"}}, {"type": "node", "id": 1214458140, "lat": 45.7646078, "lon": 21.219316, "tags": {"addr:street": "Strada Burebista", "amenity": "pharmacy", "healthcare": "pharmacy", "name": "Helpnet", "opening_hours": "Mo-Fr 08:00-21:00; Sa 09:00-17:00"}}, {"type": "node", "id": 1221380425, "lat": 45.7636561, "lon": 21.2191872, "tags": {"amenity": "pharmacy", "healthcare": "pharmacy", "name": "Farmacia Dacia"}}, {"type": "node", "id": 1222863652, "lat": 45.7537405, "lon": 21.2500313, "tags": {"amenity": "pharmacy", "name": "Farmacie"}}, {"type": "node", "id": 1234050821, "lat": 45.7441729, "lon": 21.2250708, "tags": {"amenity": "pharmacy", "healthcare": "pharmacy", "name": "Mihai Viteazul"}}, {"type": "node", "id": 1264076923, "lat": 45.7656277, "lon": 21.2602816, "tags": {"addr:city": "Timi\u0219oara", "addr:housenumber": "79", "addr:street": "Bulevardul Simion B\u0103rnu\u021biu", "amenity": "pharmacy", "brand": "Farmacia Dona", "brand:wikidata": "Q12726919", "drive_through": "no", "healthcare": "pharmacy", "name": "Farmacia Dona", "opening_hours": "24/7", "operator": "Farmacia Dona / Siepcofar", "phone": "+40 372 407 140", "website": "https://www.farmaciiledona.ro/"}}, {"type": "node", "id": 1264076924, "lat": 45.762249, "lon": 21.2475728, "tags": {"amenity": "pharmacy", "healthcare": "pharmacy", "name": "Farmacia Catena"}}, {"type": "node", "id": 1264076926, "lat": 45.7621415, "lon": 21.2476305, "tags": {"amenity": "pharmacy", "name": "Farmacia Dona"}}, {"type": "node", "id": 1264076938, "lat": 45.75648, "lon": 21.2555221, "tags": {"amenity": "pharmacy", "healthcare": "pharmacy", "name": "Farmacia Dona"}}, {"type": "node", "id": 1474958783, "lat": 45.7329109, "lon": 21.2084961}, {"type": "node", "id": 1474958784, "lat": 45.7329237, "lon": 21.2083415}, {"type": "node", "id": 1474958785, "lat": 45.7329836, "lon": 21.2085085}, {"type": "node", "id": 1474958786, "lat": 45.7329965, "lon": 21.2083539}, {"type": "node", "id": 1568894377, "lat": 45.7623295, "lon": 21.2131744, "tags": {"amenity": "pharmacy", "healthcare": "pharmacy", "name": "Farmacia Dona"}}, {"type": "node", "id": 1639214959, "lat": 45.7623187, "lon": 21.2607601, "tags": {"amenity": "pharmacy", "name": "Farmacie"}}, {"type": "node", "id": 1785824719, "lat": 45.7650034, "lon": 21.2188845, "tags": {"addr:street": "Strada Burebista", "amenity": "pharmacy", "brand": "Catena", "brand:wikidata": "Q24035728", "brand:wikipedia": "ro:Farmacia Catena", "healthcare": "pharmacy", "name": "Catena"}}, {"type": "node", "id": 2034520178, "lat": 45.7740222, "lon": 21.2309323, "tags": {"amenity": "pharmacy", "dispensing": "no", "healthcare": "pharmacy", "name": "Farmacie"}}, {"type": "node", "id": 2237142265, "lat": 45.7527922, "lon": 21.2248716, "tags": {"amenity": "pharmacy", "healthcare": "pharmacy", "name": "Farmado", "opening_hours": "Mo-Fr 08:00-20:00; Sa,Su 09:00-20:00"}}, {"type": "node", "id": 2237174599, "lat": 45.7403897, "lon": 21.2112107, "tags": {"addr:city": "Timi\u0219oara", "addr:housenumber": "51", "addr:street": "Bulevardul 16 Decembrie 1989", "amenity": "pharmacy", "drive_through": "no", "name": "Farmacia Vlad", "opening_hours": "24/7"}}, {"type": "node", "id": 2300238239, "lat": 45.7593946, "lon": 21.2496578, "tags": {"addr:city": "Timi\u0219oara", "addr:housenumber": "10", "addr:postcode": "300094", "addr:street": "Strada Dacilor", "amenity": "pharmacy", "drive_through": "no", "name": "HelpNet", "operator": "Farmaciile Help Net", "phone": "+40 752 343 460"}}, {"type": "node", "id": 2323061558, "lat": 45.802113, "lon": 21.2496482}, {"type": "node", "id": 2323061559, "lat": 45.8020455, "lon": 21.2497566}, {"type": "node", "id": 2323061560, "lat": 45.8021573, "lon": 21.249705}, {"type": "node", "id": 2323061561, "lat": 45.8020898, "lon": 21.2498134}, {"type": "node", "id": 3100433059, "lat": 45.7451686, "lon": 21.2420915, "tags": {"amenity": "pharmacy", "brand:wikidata": "Q12726919", "dispensing": "yes", "drive_through": "no", "healthcare": "pharmacy", "name": "Dona", "opening_hours": "Mo-Fr 07:00-22:00; Sa 08:00-22:00; Su 08:00-16:00", "wheelchair": "limited"}}, {"type": "node", "id": 3191753855, "lat": 45.7322311, "lon": 21.2589074, "tags": {"addr:city": "Timi\u0219oara", "amenity": "pharmacy", "brand": "Catena", "brand:wikidata": "Q24035728", "brand:wikipedia": "ro:Farmacia Catena", "healthcare": "pharmacy", "name": "Catena", "opening_hours": "Mo-Su 09:00-18:00", "operator": "Catena"}}, {"type": "node", "id": 3191762883, "lat": 45.7321384, "lon": 21.2595399, "tags": {"addr:city": "Timi\u0219oara", "addr:housenumber": "1", "addr:postcode": "300714", "addr:postcode:source": "Date de la Po\u0219ta Rom\u00e2n\u0103, publicate sub Licen\u021ba pentru Guvernare Deschis\u0103 v1.0 la http://date.gov.ro/organization/posta-romana", "addr:street": "Calea Buzia\u0219ului", "amenity": "pharmacy", "drive_through": "no", "healthcare": "pharmacy", "name": "HelpNet", "opening_hours": "24/7", "operator": "HelpNet"}}, {"type": "node", "id": 3191765161, "lat": 45.7321207, "lon": 21.2592484, "tags": {"addr:city": "Timi\u0219oara", "addr:street": "Calea Buzia\u0219ului", "amenity": "pharmacy", "drive_through": "no", "healthcare": "pharmacy", "name": "Apothecaria", "opening_hours": "Mo-Su 09:00-20:00", "operator": "Apothecaria"}}, {"type": "node", "id": 4187333977, "lat": 45.731092, "lon": 21.2563111, "tags": {"addr:city": "Timi\u0219oara", "addr:housenumber": "23", "addr:postcode": "300693", "addr:postcode:source": "Date de la Po\u0219ta Rom\u00e2n\u0103, publicate sub Licen\u021ba pentru Guvernare Deschis\u0103 v1.0 la http://date.gov.ro/organization/posta-romana", "addr:street": "Strada Venus", "amenity": "pharmacy", "drive_through": "no", "name": "Imedas"}}, {"type": "node", "id": 4189305190, "lat": 45.7319918, "lon": 21.2335263, "tags": {"addr:city": "Timi\u0219oara", "addr:housenumber": "53", "addr:postcode": "300728", "addr:postcode:source": "Date de la Po\u0219ta Rom\u00e2n\u0103, publicate sub Licen\u021ba pentru Guvernare Deschis\u0103 v1.0 la http://date.gov.ro/organization/posta-romana", "addr:street": "Strada Mare\u0219al Alexandru Averescu", "amenity": "pharmacy", "drive_through": "no", "name": "Dona", "operator": "S.C. SIEPCOFAR S.A.", "website": "https://farmaciiledona.ro/"}}, {"type": "node", "id": 4189723594, "lat": 45.7340206, "lon": 21.2503942, "tags": {"addr:city": "Timi\u0219oara", "addr:housenumber": "20 - 26", "addr:postcode": "300685", "addr:postcode:source": "Date de la Po\u0219ta Rom\u00e2n\u0103, publicate sub Licen\u021ba pentru Guvernare Deschis\u0103 v1.0 la http://date.gov.ro/organization/posta-romana", "addr:street": "Strada A\u0219trilor", "amenity": "pharmacy", "drive_through": "no", "healthcare": "pharmacy", "name": "Helpnet", "operator": "Helpnet"}}, {"type": "node", "id": 4190729002, "lat": 45.7285849, "lon": 21.2062107, "tags": {"addr:city": "Timi\u0219oara", "addr:housenumber": "55A", "addr:postcode": "300426", "addr:postcode:source": "Date de la Po\u0219ta Rom\u00e2n\u0103, publicate sub Licen\u021ba pentru Guvernare Deschis\u0103 v1.0 la http://date.gov.ro/organization/posta-romana", "addr:street": "Calea \u0218agului", "amenity": "pharmacy", "drive_through": "no", "name": "Catena", "operator": "Catena"}}, {"type": "node", "id": 4205191989, "lat": 45.7319013, "lon": 21.2288806, "tags": {"addr:city": "Timi\u0219oara", "addr:housenumber": "70", "addr:postcode": "300766", "addr:street": "Strada Mare\u0219al Alexandru Averescu", "amenity": "pharmacy", "drive_through": "no", "name": "Farmacia Granathalma"}}, {"type": "node", "id": 4276473009, "lat": 45.7340471, "lon": 21.2375281, "tags": {"addr:city": "Timi\u0219oara", "addr:housenumber": "62", "addr:postcode": "300727", "addr:street": "Calea Martirilor 1989", "amenity": "pharmacy", "drive_through": "no", "healthcare": "pharmacy", "name": "Dona", "operator": "Siepcofar", "website": "http://www.farmaciiledona.ro/"}}, {"type": "node", "id": 4276509561, "lat": 45.7347219, "lon": 21.2375472, "tags": {"addr:city": "Timi\u0219oara", "addr:housenumber": "60", "addr:postcode": "300719", "addr:street": "Calea Martirilor 1989", "amenity": "pharmacy", "brand": "Catena", "brand:wikidata": "Q24035728", "brand:wikipedia": "ro:Farmacia Catena", "drive_through": "no", "healthcare": "pharmacy", "name": "Catena", "website": "https://www.catena.ro/"}}, {"type": "node", "id": 4276535195, "lat": 45.7491914, "lon": 21.2430789, "tags": {"addr:city": "Timi\u0219oara", "addr:housenumber": "8", "addr:street": "Strada Daliei", "amenity": "pharmacy", "dispensing": "yes", "drive_through": "no", "healthcare": "pharmacy", "name": "Arcatim"}}, {"type": "node", "id": 4277123914, "lat": 45.7687793, "lon": 21.2602925, "tags": {"addr:city": "Timi\u0219oara", "addr:housenumber": "13", "addr:postcode": "300310", "addr:postcode:source": "Date de la Po\u0219ta Rom\u00e2n\u0103, publicate sub Licen\u021ba pentru Guvernare Deschis\u0103 v1.0 la http://date.gov.ro/organization/posta-romana", "addr:street": "Strada Gheorghe Adam", "amenity": "pharmacy", "brand": "Dr. Max", "brand:wikidata": "Q56317371", "drive_through": "no", "name": "Dr. Max", "opening_hours": "Mo-Fr 08:00-17:00; Sa 09:00-19:00", "operator": "Dr.Max", "website": "https://www.drmax.ro"}}, {"type": "node", "id": 4282920368, "lat": 45.777633, "lon": 21.2343111, "tags": {"addr:city": "Timi\u0219oara", "addr:housenumber": "82", "addr:postcode": "300253", "addr:postcode:source": "Date de la Po\u0219ta Rom\u00e2n\u0103, publicate sub Licen\u021ba pentru Guvernare Deschis\u0103 v1.0 la http://date.gov.ro/organization/posta-romana", "addr:street": "Calea Sever Bocu", "amenity": "pharmacy", "drive_through": "no", "healthcare": "pharmacy", "name": "Dona", "opening_hours": "24/7", "operator": "Farmacia Dona", "phone": "+40 372 407 139", "website": "https://www.farmaciiledona.ro/"}}, {"type": "node", "id": 4358696455, "lat": 45.7888773, "lon": 20.9042951, "tags": {"addr:city": "C\u0103rpini\u0219", "addr:postcode": "307090", "amenity": "pharmacy"}}, {"type": "node", "id": 4486959690, "lat": 45.7560415, "lon": 21.2277254, "tags": {"amenity": "pharmacy", "check_date": "2024-10-30", "healthcare": "pharmacy", "name": "Dianthus", "opening_hours": "Mo-Fr 07:30-20:00; Sa 08:00-15:00"}}, {"type": "node", "id": 4496768117, "lat": 45.7519029, "lon": 21.2252595, "tags": {"amenity": "pharmacy", "brand": "Dr. Max", "brand:wikidata": "Q56317371", "brand:wikipedia": "ro:Sensiblu", "dispensing": "yes", "drive_through": "no", "healthcare": "pharmacy", "name": "Dr. Max", "opening_hours": "Mo-Fr 09:00-21:00; Sa 10:00-21:00; Su 10:00-20:00"}}, {"type": "node", "id": 4637341175, "lat": 45.7609655, "lon": 21.240208, "tags": {"amenity": "pharmacy", "dispensing": "yes", "healthcare": "pharmacy", "name": "Farmelia"}}, {"type": "node", "id": 4887993825, "lat": 45.7564512, "lon": 21.2230536, "tags": {"amenity": "pharmacy", "brand": "Farmacia Dona", "brand:wikidata": "Q12726919", "healthcare": "pharmacy", "name": "Farmacia Dona", "opening_hours": "Mo-Fr 08:00-21:00; Sa 08:00-17:00; Su 08:00-15:00"}}, {"type": "node", "id": 4953009592, "lat": 45.7531781, "lon": 21.2250733, "tags": {"amenity": "pharmacy", "brand": "Catena", "brand:wikidata": "Q24035728", "brand:wikipedia": "ro:Farmacia Catena", "check_date": "2025-06-14", "check_date:opening_hours": "2025-06-14", "healthcare": "pharmacy", "name": "Catena", "opening_hours": "Mo-Fr 08:00-21:00; Sa,Su 09:00-18:00"}}, {"type": "node", "id": 4953009595, "lat": 45.754, "lon": 21.226645, "tags": {"addr:city": "Timi\u0219oara", "addr:housenumber": "2", "addr:street": "Pia\u021ba Iancu Huniade", "amenity": "pharmacy", "healthcare": "pharmacy", "name": "Secom"}}, {"type": "node", "id": 5169044359, "lat": 45.7620754, "lon": 21.2476618, "tags": {"addr:city": "Timi\u0219oara", "addr:housenumber": "7", "addr:street": "Pia\u021ba Badea C\u00e2r\u021ban", "amenity": "pharmacy", "drive_through": "no", "healthcare": "pharmacy", "name": "Farmacia Tonica", "opening_hours": "Mo-Fr 08:00-20:00; Sa 08:00-17:00; Su 09:00-13:00", "phone": "+40 256 433 040"}}, {"type": "node", "id": 5184053749, "lat": 45.7448655, "lon": 21.2101417, "tags": {"amenity": "pharmacy", "brand": "Dr. Max", "brand:wikidata": "Q56317371", "healthcare": "pharmacy", "name": "Dr. Max", "opening_hours": "Mo-Fr 08:00-21:00; Sa 09:00-15:00", "operator": "Dr.Max", "website": "https://www.drmax.ro"}}, {"type": "node", "id": 5184053750, "lat": 45.7445286, "lon": 21.2084867, "tags": {"amenity": "pharmacy", "healthcare": "pharmacy", "name": "Dona", "opening_hours": "Mo-Fr 07:00-21:00; Sa 08:00-18:00; Su 08:00-16:00"}}, {"type": "node", "id": 5184053751, "lat": 45.74442, "lon": 21.2085189, "tags": {"amenity": "pharmacy", "healthcare": "pharmacy", "name": "Christian", "opening_hours": "Mo-Fr 07:30-20:00; Sa 08:00-16:00"}}, {"type": "node", "id": 5184096081, "lat": 45.7258842, "lon": 21.1985871, "tags": {"amenity": "pharmacy", "brand": "Dr. Max", "brand:wikidata": "Q56317371", "healthcare": "pharmacy", "name": "Dr. Max", "operator": "Dr.Max", "website": "https://www.drmax.ro"}}, {"type": "node", "id": 5184115354, "lat": 45.7415652, "lon": 21.2249679, "tags": {"amenity": "pharmacy", "check_date": "2024-10-28", "healthcare": "pharmacy", "name": "Dona"}}, {"type": "node", "id": 5195785925, "lat": 45.7618329, "lon": 21.2353884, "tags": {"amenity": "pharmacy", "healthcare": "pharmacy", "name": "Remedio"}}, {"type": "node", "id": 5195796666, "lat": 45.7606075, "lon": 21.2175925, "tags": {"amenity": "pharmacy", "brand": "Help Net", "brand:wikidata": "Q12729923", "check_date": "2025-05-03", "healthcare": "pharmacy", "name": "Help Net", "opening_hours": "24/7"}}, {"type": "node", "id": 5195796670, "lat": 45.7622991, "lon": 21.2132486, "tags": {"amenity": "pharmacy", "brand": "Catena", "brand:wikidata": "Q24035728", "brand:wikipedia": "ro:Farmacia Catena", "healthcare": "pharmacy", "name": "Catena"}}, {"type": "node", "id": 5197819158, "lat": 45.7590825, "lon": 21.228417, "tags": {"amenity": "pharmacy", "healthcare": "pharmacy", "name": "Catena", "opening_hours": "Mo-Fr 08:00-21:00; Sa 09:00-16:00; Su 09:00-14:00"}}, {"type": "node", "id": 5211433061, "lat": 45.7322926, "lon": 21.2083303, "tags": {"addr:city": "Timi\u0219oara", "addr:street": "Calea \u0218agului", "amenity": "pharmacy", "brand": "Help Net", "brand:wikidata": "Q12729923", "drive_through": "no", "healthcare": "pharmacy", "name": "Help Net", "website": "https://www.helpnet.ro/"}}, {"type": "node", "id": 5212668059, "lat": 45.7305965, "lon": 21.2095273, "tags": {"addr:city": "Timi\u0219oara", "addr:housenumber": "1", "addr:postcode": "300414", "addr:street": "Strada Mure\u0219", "amenity": "pharmacy", "drive_through": "no", "email": "farmacia_maledas@yahoo.com", "healthcare": "pharmacy", "name": "Farmacia Maledas", "opening_hours": "Mo-Fr 08:00-20:00; Fr 08:00-14:00", "phone": "+40 256 217 099"}}, {"type": "node", "id": 5212676441, "lat": 45.7308067, "lon": 21.2093091, "tags": {"addr:city": "Timi\u0219oara", "addr:housenumber": "1", "addr:postcode": "300414", "addr:street": "Strada Mure\u0219", "amenity": "pharmacy", "drive_through": "no", "email": "helpnet190@helpnet.ro", "healthcare": "pharmacy", "name": "Helpnet", "operator": "Farmaciile Helpnet", "phone": "+40 752 343 490", "website": "https://www.helpnet.ro/"}}, {"type": "node", "id": 5212688412, "lat": 45.7307199, "lon": 21.2091212, "tags": {"addr:city": "Timi\u0219oara", "addr:housenumber": "1 C", "addr:postcode": "300414", "addr:street": "Strada Mure\u0219", "amenity": "pharmacy", "drive_through": "no", "healthcare": "pharmacy", "name": "Farmacia Dona", "opening_hours": "Mo-Fr 07:00-21:30; Sa 07:30-19:30; Su 08:00-16:00", "operator": "Siepcofar", "phone": "+40 372 407 099", "website": "http://www.farmaciiledona.ro/"}}, {"type": "node", "id": 5224522172, "lat": 45.7574555, "lon": 21.2288468, "tags": {"amenity": "pharmacy", "brand": "Catena", "brand:wikidata": "Q24035728", "healthcare": "pharmacy", "name": "Catena", "opening_hours": "Mo-Fr 08:00-20:00; Sa 09:00-16:00; Su 09:00-13:00"}}, {"type": "node", "id": 5224538279, "lat": 45.7521094, "lon": 21.2253774, "tags": {"amenity": "pharmacy", "check_date": "2024-10-28", "dispensing": "yes", "healthcare": "pharmacy", "name": "Dona", "opening_hours": "Mo-Fr 08:00-22:00; Sa 09:00-20:30; Su 10:00-18:00", "wheelchair": "yes"}}, {"type": "node", "id": 5528176065, "lat": 45.7626573, "lon": 21.2123086, "tags": {"addr:city": "Timi\u0219oara", "addr:housenumber": "42", "addr:street": "Strada Gheorghe Laz\u0103r", "amenity": "pharmacy", "dispensing": "yes", "drive_through": "no", "healthcare": "pharmacy", "name": "HelpNet", "operator": "Help Net Farma", "website": "https://www.helpnet.ro/"}}, {"type": "node", "id": 5761466171, "lat": 45.8369938, "lon": 21.3102554, "tags": {"addr:city": "Giarmata", "addr:housenumber": "730", "addr:postcode": "307210", "addr:street": "Strada Morii", "amenity": "pharmacy", "dispensing": "yes", "drive_through": "no", "name": "Farmacia Depomed Eximpharm", "opening_hours": "Mo-Fr 08:00-18:00; Sa 08:00-13:00", "payment:cash": "yes", "payment:credit_cards": "yes", "payment:debit_cards": "yes", "phone": "+4(0)256-369.708"}}, {"type": "node", "id": 6033849639, "lat": 45.7604561, "lon": 21.2197298, "tags": {"amenity": "pharmacy", "brand": "Dr. Max", "brand:wikidata": "Q56317371", "check_date:opening_hours": "2023-12-27", "dispensing": "yes", "healthcare": "pharmacy", "name": "Dr. Max", "opening_hours": "Mo-Sa 08:00-21:00; Su 09:00-20:00", "operator": "Dr.Max", "website": "https://www.drmax.ro", "wheelchair": "yes"}}, {"type": "node", "id": 6320416598, "lat": 45.7342648, "lon": 21.2469728, "tags": {"amenity": "pharmacy", "dispensing": "yes", "healthcare": "pharmacy", "name": "Farmado"}}, {"type": "node", "id": 6529840195, "lat": 45.7285747, "lon": 21.204741, "tags": {"amenity": "pharmacy", "dispensing": "yes", "healthcare": "pharmacy", "name": "HelpNet"}}, {"type": "node", "id": 6616805326, "lat": 45.705674, "lon": 21.2335233, "tags": {"amenity": "pharmacy", "dispensing": "yes", "healthcare": "pharmacy", "name": "Granthalma"}}, {"type": "node", "id": 6616806411, "lat": 45.6994066, "lon": 21.2338685, "tags": {"amenity": "pharmacy", "brand": "Catena", "brand:wikidata": "Q24035728", "brand:wikipedia": "ro:Farmacia Catena", "dispensing": "yes", "healthcare": "pharmacy", "name": "Catena"}}, {"type": "node", "id": 6804666939, "lat": 45.7451679, "lon": 21.2088519, "tags": {"amenity": "pharmacy", "brand": "Catena", "brand:wikidata": "Q24035728", "brand:wikipedia": "ro:Farmacia Catena", "healthcare": "pharmacy", "name": "Catena", "opening_hours": "Mo-Fr 07:30-21:00; Sa 08:00-18:00; Su 09:00-14:00"}}, {"type": "node", "id": 6888684542, "lat": 45.7284393, "lon": 21.2360593, "tags": {"addr:city": "Timi\u0219oara", "addr:housenumber": "98", "addr:postcode": "300774", "addr:street": "Calea Martirilor 1989", "amenity": "pharmacy", "dispensing": "yes", "healthcare": "pharmacy", "name": "Farmacia Richter"}}, {"type": "node", "id": 6888728505, "lat": 45.7582858, "lon": 21.222602, "tags": {"amenity": "pharmacy", "dispensing": "yes", "healthcare": "pharmacy", "name": "Farmado", "opening_hours": "Mo-Fr 07:30-19:30; Sa 09:00-15:00"}}, {"type": "node", "id": 6908134624, "lat": 45.7135668, "lon": 21.2355993, "tags": {"amenity": "pharmacy", "dispensing": "yes", "healthcare": "pharmacy", "name": "City Pharma"}}, {"type": "node", "id": 6927149032, "lat": 45.7578, "lon": 21.2254258, "tags": {"amenity": "pharmacy", "dispensing": "yes", "healthcare": "pharmacy", "name": "Farmacia Vlad", "opening_hours": "24/7"}}, {"type": "node", "id": 6930125079, "lat": 45.7557798, "lon": 21.2344753, "tags": {"amenity": "pharmacy", "check_date": "2024-10-28", "dispensing": "yes", "healthcare": "pharmacy", "name": "Farmacia Remedia"}}, {"type": "node", "id": 6948122724, "lat": 45.7557705, "lon": 21.2292336, "tags": {"amenity": "pharmacy", "healthcare": "pharmacy", "name": "Medimfarm", "opening_hours": "Mo-Fr 08:00-20:00; Sa 09:00-14:00"}}, {"type": "node", "id": 6959616660, "lat": 45.7381772, "lon": 21.2378985, "tags": {"amenity": "pharmacy", "dispensing": "yes", "healthcare": "pharmacy", "name": "Karim Pharm"}}, {"type": "node", "id": 6989259904, "lat": 45.7582914, "lon": 21.2089831, "tags": {"amenity": "pharmacy", "brand": "Catena", "brand:wikidata": "Q24035728", "brand:wikipedia": "ro:Farmacia Catena", "dispensing": "yes", "healthcare": "pharmacy", "name": "Catena", "opening_hours": "Mo-Fr 08:00-20:00; Sa 08:00-16:00; Su 09:00-14:00"}}, {"type": "node", "id": 7021617472, "lat": 45.740846, "lon": 21.2255147, "tags": {"amenity": "pharmacy", "brand": "Help Net", "brand:wikidata": "Q12729923", "check_date": "2024-10-28", "dispensing": "yes", "healthcare": "pharmacy", "name": "Help Net"}}, {"type": "node", "id": 7049224565, "lat": 45.7605553, "lon": 21.2177447, "tags": {"amenity": "pharmacy", "brand": "Catena", "brand:wikidata": "Q24035728", "brand:wikipedia": "ro:Farmacia Catena", "dispensing": "yes", "healthcare": "pharmacy", "name": "Catena", "opening_hours": "Mo-Fr 08:00-21:00; Sa,Su 09:00-18:00"}}, {"type": "node", "id": 7064439241, "lat": 45.7844132, "lon": 21.2370189, "tags": {"amenity": "pharmacy", "brand": "Help Net", "brand:wikidata": "Q12729923", "dispensing": "yes", "healthcare": "pharmacy", "name": "Help Net"}}, {"type": "node", "id": 7077030625, "lat": 45.7854827, "lon": 21.2380871, "tags": {"amenity": "pharmacy", "brand": "Dr. Max", "brand:wikidata": "Q56317371", "dispensing": "yes", "healthcare": "pharmacy", "name": "Dr. Max", "operator": "Dr.Max", "website": "https://www.drmax.ro"}}, {"type": "node", "id": 7090553592, "lat": 45.7843184, "lon": 21.2373432, "tags": {"amenity": "pharmacy", "brand": "Dr. Max", "brand:wikidata": "Q56317371", "brand:wikipedia": "ro:Sensiblu", "dispensing": "yes", "healthcare": "pharmacy", "name": "Dr. Max"}}, {"type": "node", "id": 7110109849, "lat": 45.7658621, "lon": 21.2292589, "tags": {"amenity": "pharmacy", "brand": "Dr. Max", "brand:wikidata": "Q56317371", "dispensing": "yes", "healthcare": "pharmacy", "name": "Dr. Max", "operator": "Dr.Max", "website": "https://www.drmax.ro"}}, {"type": "node", "id": 7214053710, "lat": 45.7341915, "lon": 21.2375358, "tags": {"addr:city": "Timi\u0219oara", "addr:housenumber": "62", "addr:street": "Calea Martirilor 1989", "amenity": "pharmacy", "brand": "Dr. Max", "dispensing": "yes", "healthcare": "pharmacy", "name": "Dr. Max", "opening_hours": "Mo-Fr 08:00-21:00; Sa-Su 08:00-18:00"}}, {"type": "node", "id": 7214053712, "lat": 45.7337449, "lon": 21.2014302, "tags": {"amenity": "pharmacy", "brand": "Dr. Max", "brand:wikidata": "Q56317371", "dispensing": "yes", "healthcare": "pharmacy", "name": "Dr. Max"}}, {"type": "node", "id": 7214053713, "lat": 45.7464422, "lon": 21.2151698, "tags": {"addr:city": "Timi\u0219oara", "addr:housenumber": "2", "addr:street": "Strada Emanoil Gojdu", "amenity": "pharmacy", "brand": "Dr. Max", "dispensing": "yes", "healthcare": "pharmacy", "name": "Dr. Max"}}, {"type": "node", "id": 7214053714, "lat": 45.7497645, "lon": 21.2076835, "tags": {"addr:city": "Timi\u0219oara", "addr:housenumber": "45", "addr:street": "Bulevardul General Ion Dragalina", "amenity": "pharmacy", "brand": "Dr. Max", "dispensing": "yes", "healthcare": "pharmacy", "name": "Dr. Max"}}, {"type": "node", "id": 7214053715, "lat": 45.7538813, "lon": 21.2214983, "tags": {"addr:city": "Timi\u0219oara", "addr:housenumber": "2", "addr:street": "Pia\u021ba Regina Maria", "amenity": "pharmacy", "brand": "Dr. Max", "brand:wikidata": "Q56317371", "dispensing": "yes", "healthcare": "pharmacy", "name": "Dr. Max", "opening_hours": "Mo-Fr 08:00-20:00; Sa 08:00-14:00"}}, {"type": "node", "id": 7214053716, "lat": 45.7435121, "lon": 21.2430461, "tags": {"addr:city": "Timi\u0219oara", "addr:housenumber": "29", "addr:street": "Aleea F.C. Ripensia", "amenity": "pharmacy", "brand": "Dr. Max", "dispensing": "yes", "healthcare": "pharmacy", "name": "Dr. Max", "opening_hours": "Mo-Fr 08:00-21:00; Sa 08:00-18:00; Su 09:00-18:00"}}, {"type": "node", "id": 7214053717, "lat": 45.7613074, "lon": 21.2158221, "tags": {"addr:city": "Timi\u0219oara", "addr:housenumber": "36", "addr:street": "Strada Gheorghe Laz\u0103r", "amenity": "pharmacy", "brand": "Dr. Max", "brand:wikidata": "Q56317371", "dispensing": "yes", "healthcare": "pharmacy", "name": "Dr. Max", "opening_hours": "Mo-Fr 08:00-20:00; Sa 09:00-17:00; Su 09:00-16:00"}}, {"type": "node", "id": 7214053718, "lat": 45.7662993, "lon": 21.2604178, "tags": {"addr:city": "Timi\u0219oara", "addr:housenumber": "99", "addr:street": "Strada Telegrafului", "amenity": "pharmacy", "brand": "Dr. Max", "brand:wikidata": "Q56317371", "dispensing": "yes", "healthcare": "pharmacy", "name": "Dr. Max", "opening_hours": "Mo-Fr 08:00-21:00; Sa 09:00-16:00"}}, {"type": "node", "id": 7214053719, "lat": 45.7321754, "lon": 21.2081715, "tags": {"addr:city": "Timi\u0219oara", "addr:housenumber": "24", "addr:street": "Calea \u0218agului", "amenity": "pharmacy", "brand": "Dr. Max", "brand:wikidata": "Q56317371", "dispensing": "yes", "healthcare": "pharmacy", "name": "Dr. Max", "operator": "Dr.Max", "website": "https://www.drmax.ro"}}, {"type": "node", "id": 7214053720, "lat": 45.7280927, "lon": 21.2046071, "tags": {"addr:city": "Timi\u0219oara", "addr:housenumber": "72-78", "addr:street": "Calea \u0218agului", "amenity": "pharmacy", "brand": "Dr. Max", "dispensing": "yes", "healthcare": "pharmacy", "name": "Dr. Max"}}, {"type": "node", "id": 7214053721, "lat": 45.7701612, "lon": 21.218592, "tags": {"addr:city": "Timi\u0219oara", "addr:housenumber": "2", "addr:postcode": "300667", "addr:street": "Aleea Hotinului", "amenity": "pharmacy", "brand": "Dr. Max", "brand:wikidata": "Q56317371", "dispensing": "yes", "healthcare": "pharmacy", "name": "Dr. Max", "opening_hours": "Mo-Fr 08:00-21:00; Sa 08:00-14:00"}}, {"type": "node", "id": 7214053722, "lat": 45.7705338, "lon": 21.2181726, "tags": {"addr:city": "Timi\u0219oara", "addr:housenumber": "2", "addr:postcode": "300667", "addr:street": "Aleea Hotinului", "amenity": "pharmacy", "brand": "Catena", "brand:wikidata": "Q24035728", "brand:wikipedia": "ro:Farmacia Catena", "dispensing": "yes", "healthcare": "pharmacy", "name": "Catena"}}, {"type": "node", "id": 7214583175, "lat": 45.7502656, "lon": 21.2073845, "tags": {"addr:city": "Timi\u0219oara", "addr:street": "Bulevardul General Ion Dragalina", "amenity": "pharmacy", "healthcare": "pharmacy", "name": "Farmacia Roz"}}, {"type": "node", "id": 7215973153, "lat": 45.7672944, "lon": 21.2276918, "tags": {"amenity": "pharmacy", "brand": "Dr. Max", "brand:wikidata": "Q56317371", "brand:wikipedia": "ro:Sensiblu", "dispensing": "yes", "healthcare": "pharmacy", "name": "Dr. Max", "opening_hours": "Mo-Su 10:00-22:00"}}, {"type": "node", "id": 7265741232, "lat": 45.7034708, "lon": 21.1901289, "tags": {"amenity": "pharmacy", "brand": "Help Net", "brand:wikidata": "Q12729923", "dispensing": "yes", "healthcare": "pharmacy", "name": "Help Net"}}, {"type": "node", "id": 7265756073, "lat": 45.7857297, "lon": 21.2207951, "tags": {"amenity": "pharmacy", "brand": "Help Net", "brand:wikidata": "Q12729923", "dispensing": "yes", "healthcare": "pharmacy", "name": "Help Net", "opening_hours": "Mo-Su 09:00-21:00"}}, {"type": "node", "id": 7815368131, "lat": 45.7189729, "lon": 21.315341, "tags": {"addr:city": "Mo\u0219ni\u021ba Nou\u0103", "amenity": "pharmacy", "brand": "Help Net", "brand:wikidata": "Q12729923", "brand:wikipedia": "ro:Help Net", "drive_through": "no", "healthcare": "pharmacy", "name": "Help Net", "opening_hours": "Mo-Sa 08:00-22:00; Su 08:00-21:00", "website": "https://www.helpnet.ro/"}}, {"type": "node", "id": 7888056076, "lat": 45.7557898, "lon": 21.2343292, "tags": {"amenity": "pharmacy", "dispensing": "yes", "healthcare": "pharmacy", "name": "Drogheria Academic\u0103"}}, {"type": "node", "id": 7994887699, "lat": 45.8553286, "lon": 21.1691413, "tags": {"amenity": "pharmacy", "dispensing": "yes", "healthcare": "pharmacy", "name": "Helpnet"}}, {"type": "node", "id": 8009754556, "lat": 45.7777983, "lon": 21.2351922, "tags": {"addr:city": "Timi\u0219oara", "addr:housenumber": "16A", "addr:street": "Strada Perlei", "amenity": "pharmacy", "brand": "Catena", "brand:wikidata": "Q24035728", "brand:wikipedia": "ro:Farmacia Catena", "dispensing": "yes", "healthcare": "pharmacy", "name": "Catena"}}, {"type": "node", "id": 8151079420, "lat": 45.7630131, "lon": 21.2486744, "tags": {"amenity": "pharmacy"}}, {"type": "node", "id": 8628418394, "lat": 45.7341974, "lon": 21.2008533, "tags": {"amenity": "pharmacy", "brand": "Farmacia Dona", "brand:wikidata": "Q12726919", "healthcare": "pharmacy", "name": "Farmacia Dona"}}, {"type": "node", "id": 9162093286, "lat": 45.7607539, "lon": 21.2424677, "tags": {"amenity": "pharmacy", "brand": "Help Net", "brand:wikidata": "Q12729923", "brand:wikipedia": "ro:Help Net", "dispensing": "yes", "healthcare": "pharmacy", "name": "Help Net"}}, {"type": "node", "id": 9314795510, "lat": 45.727706, "lon": 21.2357193, "tags": {"amenity": "pharmacy", "brand": "Help Net", "brand:wikidata": "Q12729923", "brand:wikipedia": "ro:Help Net", "dispensing": "yes", "healthcare": "pharmacy", "name": "Help Net"}}, {"type": "node", "id": 9360111040, "lat": 45.7082938, "lon": 21.2333969, "tags": {"amenity": "pharmacy", "brand": "Help Net", "brand:wikidata": "Q12729923", "brand:wikipedia": "ro:Help Net", "dispensing": "yes", "healthcare": "pharmacy", "name": "Help Net"}}, {"type": "node", "id": 9360117907, "lat": 45.7193305, "lon": 21.2364099, "tags": {"amenity": "pharmacy", "dispensing": "yes", "healthcare": "pharmacy"}}, {"type": "node", "id": 9431306150, "lat": 45.7743116, "lon": 21.2416859, "tags": {"amenity": "pharmacy", "healthcare": "pharmacy", "name": "Minunea naturii"}}, {"type": "node", "id": 9735819410, "lat": 45.7739122, "lon": 21.2386805, "tags": {"amenity": "pharmacy", "healthcare": "pharmacy", "name": "Drogheria Beratco"}}, {"type": "node", "id": 9949650755, "lat": 45.7400077, "lon": 21.1965817, "tags": {"amenity": "pharmacy"}}, {"type": "node", "id": 10125675882, "lat": 45.7681339, "lon": 21.234633, "tags": {"amenity": "pharmacy", "healthcare": "pharmacy"}}, {"type": "node", "id": 10130167505, "lat": 45.758116, "lon": 21.2262113, "tags": {"amenity": "pharmacy", "dispensing": "yes", "healthcare": "pharmacy", "name": "Medimfarm", "opening_hours": "Mo-Fr 08:00-20:00; Sa 08:00-16:00"}}, {"type": "node", "id": 10155256824, "lat": 45.7757243, "lon": 21.2378591, "tags": {"amenity": "pharmacy", "name": "Catena"}}, {"type": "node", "id": 11139725933, "lat": 45.7634683, "lon": 21.2876476, "tags": {"amenity": "pharmacy", "name": "Farmacia Ephera"}}, {"type": "node", "id": 11217321533, "lat": 45.7915081, "lon": 21.2391069, "tags": {"amenity": "pharmacy", "brand": "Catena", "brand:wikidata": "Q24035728", "healthcare": "pharmacy", "name": "Catena"}}, {"type": "node", "id": 11346558776, "lat": 45.7908536, "lon": 21.2381829, "tags": {"amenity": "pharmacy", "name": "Karm Pharm"}}, {"type": "node", "id": 11383257521, "lat": 45.7200678, "lon": 21.3144446, "tags": {"addr:city": "Timisoara", "amenity": "pharmacy", "brand": "Catena", "brand:wikidata": "Q24035728", "healthcare": "pharmacy", "name": "Catena"}}, {"type": "node", "id": 11555019061, "lat": 45.8008329, "lon": 21.2480948, "tags": {"addr:housenumber": "33", "addr:street": "Strada Pet\u0151fi S\u00e1ndor", "amenity": "pharmacy", "brand": "Help Net", "brand:wikidata": "Q12729923", "healthcare": "pharmacy", "name": "Help Net"}}, {"type": "node", "id": 11693499828, "lat": 45.9649032, "lon": 21.2002731, "tags": {"addr:city": "Or\u021bi\u0219oara", "addr:housenumber": "693", "addr:place": "Or\u021bi\u0219oara", "addr:postcode": "307305", "amenity": "pharmacy", "healthcare": "pharmacy", "name": "Farmacia Aloe Vera", "opening_hours": "Mo-Sa 08:00-20:00"}}, {"type": "node", "id": 11693517245, "lat": 45.7592507, "lon": 21.0266571, "tags": {"addr:city": "Beregs\u0103u Mare", "addr:housenumber": "267", "addr:postcode": "307371", "addr:street": "Strada IV", "amenity": "pharmacy", "healthcare": "pharmacy", "name": "Farmacia Real Farm", "operator": "Real Farm"}}, {"type": "node", "id": 11704955996, "lat": 45.7962016, "lon": 21.2405433, "tags": {"amenity": "pharmacy", "healthcare": "pharmacy"}}, {"type": "node", "id": 12179772982, "lat": 45.7572314, "lon": 21.2554211, "tags": {"amenity": "pharmacy", "check_date": "2024-09-16", "healthcare": "pharmacy"}}, {"type": "node", "id": 12300167466, "lat": 45.800329, "lon": 21.2473603, "tags": {"amenity": "pharmacy", "healthcare": "pharmacy", "name": "Minda Farm"}}, {"type": "node", "id": 12452704920, "lat": 45.7410151, "lon": 21.2603266, "tags": {"amenity": "pharmacy", "brand": "Help Net", "brand:wikidata": "Q12729923", "healthcare": "pharmacy", "name": "Help Net"}}, {"type": "node", "id": 13065167501, "lat": 45.69742, "lon": 21.2356657, "tags": {"amenity": "pharmacy"}}, {"type": "way", "id": 134112313, "nodes": [1474958786, 1474958784, 1474958783, 1474958785, 1474958786], "tags": {"amenity": "pharmacy", "building": "yes", "dispensing": "yes"}}, {"type": "way", "id": 223406778, "nodes": [2323061560, 2323061558, 2323061559, 2323061561, 2323061560], "tags": {"addr:housename": "Farmacia Vlad", "addr:housenumber": "27A", "addr:street": "Strada Petofi Sandor", "amenity": "pharmacy", "building": "yes", "healthcare": "pharmacy", "name": "Farmacia Vlad"}}]}