{"version": 0.6, "generator": "Overpass API 0.7.62.8 e802775f", "osm3s": {"timestamp_osm_base": "2025-10-06T08:16:01Z", "copyright": "The data included in this document is from www.openstreetmap.org. The data is made available under ODbL."}, "elements": [{"type": "node", "id": 1257134844, "lat": 52.2316929, "lon": 18.2133437, "tags": {"addr:city": "Konin", "addr:housenumber": "81", "addr:postcode": "62-510", "addr:street": "Pozna\u0144ska", "amenity": "pharmacy", "dispensing": "yes", "healthcare": "pharmacy", "name": "Prima", "ref:csioz": "1049269"}}, {"type": "node", "id": 1997006653, "lat": 51.9182396, "lon": 18.1105395}, {"type": "node", "id": 1997006680, "lat": 51.9184148, "lon": 18.1107142}, {"type": "node", "id": 1997006700, "lat": 51.9183524, "lon": 18.1108787}, {"type": "node", "id": 1997006963, "lat": 51.9181772, "lon": 18.110704}, {"type": "node", "id": 2417750536, "lat": 52.0159352, "lon": 18.5102721}, {"type": "node", "id": 2417750537, "lat": 52.0159551, "lon": 18.5104692}, {"type": "node", "id": 2417750538, "lat": 52.0157312, "lon": 18.5104907}, {"type": "node", "id": 2417750539, "lat": 52.0156385, "lon": 18.510354}, {"type": "node", "id": 2418006275, "lat": 52.0156471, "lon": 18.5104303}, {"type": "node", "id": 2425313148, "lat": 52.0116463, "lon": 18.4892796, "tags": {"amenity": "pharmacy", "name": "Prima"}}, {"type": "node", "id": 2425459634, "lat": 52.0106774, "lon": 18.4938335, "tags": {"amenity": "pharmacy", "name": "Stars"}}, {"type": "node", "id": 2430123069, "lat": 52.0164485, "lon": 18.4683835, "tags": {"amenity": "pharmacy", "name": "Alba"}}, {"type": "node", "id": 2430296386, "lat": 52.011712, "lon": 18.5107814, "tags": {"amenity": "pharmacy", "healthcare": "pharmacy", "source:geometry": "geoportal.gov.pl:ortofoto"}}, {"type": "node", "id": 2457772796, "lat": 52.0161289, "lon": 18.505973, "tags": {"amenity": "pharmacy", "healthcare": "pharmacy", "name": "Stylowa"}}, {"type": "node", "id": 2867201348, "lat": 51.95311, "lon": 18.39541, "tags": {"amenity": "pharmacy", "dispensing": "yes", "healthcare": "pharmacy", "name": "Punkt Apteczny", "opening_hours": "Mo-Fr 08:00-18:00; Sa 08:00-14:00", "operator": "Eskulap", "source:addr": "EMUiA (malanow.e-mapa.net)"}}, {"type": "node", "id": 2995520074, "lat": 52.2307521, "lon": 18.2682715, "tags": {"addr:city": "Konin", "addr:housenumber": "6", "addr:postcode": "62-510", "addr:street": "11 Listopada", "amenity": "pharmacy", "dispensing": "yes", "healthcare": "pharmacy", "name": "Prima", "opening_hours": "Mo-Fr 08:00-20:00;Sa 08:00-16:00", "operator": "Grupa Aptek Prima sp. z o.o.", "phone": "+48 63 249 10 07", "ref:csioz": "1049368", "website": "http://www.grupaaptekprima.pl/"}}, {"type": "node", "id": 3024796208, "lat": 51.9854554, "lon": 18.6148063, "tags": {"amenity": "pharmacy", "emergency": "no", "name": "Apteka"}}, {"type": "node", "id": 3024923522, "lat": 52.234299, "lon": 18.2589125, "tags": {"addr:city": "Konin", "addr:housenumber": "4", "addr:postcode": "62-510", "addr:street": "Stanis\u0142awa Wiechowicza", "amenity": "pharmacy", "dispensing": "yes", "healthcare": "pharmacy", "name": "Kwiaty Polskie", "opening_hours": "Mo-Fr 08:00-20:00; Sa 08:00-14:00", "ref:csioz": "1049197"}}, {"type": "node", "id": 3431356315, "lat": 52.0194799, "lon": 18.49462, "tags": {"addr:city": "Turek", "addr:city:simc": "0949336", "addr:housenumber": "12", "addr:postcode": "62-700", "addr:street": "Stanis\u0142awa K\u0105czkowskiego", "amenity": "pharmacy", "healthcare": "pharmacy", "name": "Kwiaty Polskie", "source:addr": "EMUiA (mturek.e-mapa.net)"}}, {"type": "node", "id": 3538714447, "lat": 52.1979545, "lon": 18.2394466, "tags": {"amenity": "pharmacy", "check_date": "2025-08-26", "dispensing": "yes", "healthcare": "pharmacy", "name": "Na Wzg\u00f3rzu", "opening_hours": "24/7", "ref:csioz": "1048896"}}, {"type": "node", "id": 3794964487, "lat": 52.2382935, "lon": 18.2613089}, {"type": "node", "id": 3794964488, "lat": 52.2382945, "lon": 18.2612771}, {"type": "node", "id": 3794964493, "lat": 52.2383002, "lon": 18.2612781}, {"type": "node", "id": 3794964497, "lat": 52.2383066, "lon": 18.2613104}, {"type": "node", "id": 3940136240, "lat": 52.0176541, "lon": 18.5049616, "tags": {"amenity": "pharmacy", "name": "Vitafarm", "opening_hours": "Mo-Fr 07:30-21:00; Sa 07:30-20:00; Su 10:00-16:00"}}, {"type": "node", "id": 3944769893, "lat": 52.0128885, "lon": 18.5178391, "tags": {"amenity": "pharmacy", "healthcare": "pharmacy", "name": "Vitafarm", "opening_hours": "Mo-Fr 07:30-21:00; Sa 08:00-15:00", "ref": "2"}}, {"type": "node", "id": 3946589157, "lat": 52.2302244, "lon": 18.2517095, "tags": {"addr:city": "Konin", "addr:housenumber": "8", "addr:postcode": "62-510", "addr:street": "Dworcowa", "amenity": "pharmacy", "dispensing": "yes", "healthcare": "pharmacy", "name": "Med-Alko", "opening_hours": "Mo-Fr 08:00-20:00; Sa 08:00-15:00", "operator": "Med-Alko sp. z o.o.", "ref:csioz": "1049466"}}, {"type": "node", "id": 3952655961, "lat": 52.2283644, "lon": 18.2711305, "tags": {"addr:city": "Konin", "addr:housenumber": "3", "addr:postcode": "62-510", "addr:street": "Przyja\u017ani", "amenity": "pharmacy", "dispensing": "yes", "healthcare": "pharmacy", "name": "Med-Alko", "opening_hours": "Mo-Fr 07:00-22:00; Sa-Su 08:00-22:00", "operator": "Med-Alko sp. z o.o.", "ref:csioz": "1049453"}}, {"type": "node", "id": 3952733648, "lat": 52.2326172, "lon": 18.2782776, "tags": {"amenity": "pharmacy", "dispensing": "yes", "healthcare": "pharmacy", "name": "Medifarm", "opening_hours": "Mo-Fr 08:00-20:00; Sa 08:00-15:00", "ref:csioz": "1048940"}}, {"type": "node", "id": 3975515578, "lat": 52.2096024, "lon": 18.2562045, "tags": {"addr:city": "Konin", "addr:housenumber": "3", "addr:postcode": "62-500", "addr:street": "Ko\u015bcielna", "amenity": "pharmacy", "dispensing": "yes", "healthcare": "pharmacy", "name": "Familijna", "opening_hours": "Mo-Fr 07:30-20:30; Sa 08:00-15:00", "ref:csioz": "1048205"}}, {"type": "node", "id": 3976261015, "lat": 52.2112586, "lon": 18.2545288, "tags": {"addr:city": "Konin", "addr:housenumber": "5", "addr:postcode": "62-500", "addr:street": "3 Maja", "amenity": "pharmacy", "dispensing": "yes", "healthcare": "pharmacy", "name": "Pod Lwem", "ref:csioz": "1048247"}}, {"type": "node", "id": 3978769323, "lat": 52.2067394, "lon": 18.2540241, "tags": {"addr:city": "Konin", "addr:housenumber": "62A", "addr:postcode": "62-500", "addr:street": "3 Maja", "amenity": "pharmacy", "dispensing": "yes", "healthcare": "pharmacy", "name": "Staromiejska", "ref:csioz": "1048557"}}, {"type": "node", "id": 4012867025, "lat": 52.2116164, "lon": 18.2544033, "tags": {"addr:city": "Konin", "addr:housenumber": "14", "addr:postcode": "62-500", "addr:street": "Plac Wolno\u015bci", "amenity": "pharmacy", "dispensing": "yes", "healthcare": "pharmacy", "name": "Dobrofarm", "opening_hours": "Mo-Fr 08:00-19:00; Sa 09:00-14:00", "ref:csioz": "1048260"}}, {"type": "node", "id": 4216978789, "lat": 52.2322584, "lon": 18.2544521, "tags": {"amenity": "pharmacy", "dispensing": "yes", "healthcare": "pharmacy", "level": "0", "name": "Grodzka", "opening_hours": "Mo-Su 07:00-22:00", "ref:csioz": "1048755"}}, {"type": "node", "id": 4298025971, "lat": 52.2630946, "lon": 18.4222792, "tags": {"addr:city": "Kramsk", "addr:housenumber": "15", "addr:postcode": "62-511", "addr:street": "Koni\u0144ska", "amenity": "pharmacy"}}, {"type": "node", "id": 4352611654, "lat": 52.2288593, "lon": 18.2484027, "tags": {"addr:city": "Konin", "addr:housenumber": "15", "addr:postcode": "62-510", "addr:street": "Aleje 1 Maja", "amenity": "pharmacy", "dispensing": "yes", "healthcare": "pharmacy", "name": "\u015ar\u00f3dmiejska", "opening_hours": "24/7", "ref:csioz": "1048239"}}, {"type": "node", "id": 4390710088, "lat": 52.2383819, "lon": 18.2612461}, {"type": "node", "id": 4390728094, "lat": 52.2384044, "lon": 18.2612871}, {"type": "node", "id": 4390911939, "lat": 52.2383012, "lon": 18.2612386}, {"type": "node", "id": 4390911940, "lat": 52.2383028, "lon": 18.2614539}, {"type": "node", "id": 4390911948, "lat": 52.2383983, "lon": 18.2614627}, {"type": "node", "id": 4967415718, "lat": 52.1945822, "lon": 18.4381069}, {"type": "node", "id": 4967415719, "lat": 52.1946397, "lon": 18.4381596}, {"type": "node", "id": 4967415720, "lat": 52.1945707, "lon": 18.4383599}, {"type": "node", "id": 4967415821, "lat": 52.1945133, "lon": 18.4383072}, {"type": "node", "id": 5007551215, "lat": 52.0142529, "lon": 18.5144501, "tags": {"amenity": "pharmacy", "healthcare": "pharmacy", "name": "Kaliniec", "operator": "Mo-Fr 08:00-20:00; Sa 08:00-14:00"}}, {"type": "node", "id": 5035519391, "lat": 51.9532308, "lon": 18.392407}, {"type": "node", "id": 5035519392, "lat": 51.9532889, "lon": 18.3925728}, {"type": "node", "id": 5035519393, "lat": 51.9531862, "lon": 18.3926675}, {"type": "node", "id": 5035519394, "lat": 51.9531281, "lon": 18.3925017}, {"type": "node", "id": 5060401163, "lat": 52.2310896, "lon": 18.2749966, "tags": {"addr:city": "Konin", "addr:housenumber": "27", "addr:postcode": "62-510", "addr:street": "11 Listopada", "amenity": "pharmacy", "brand": "Gemini", "dispensing": "yes", "healthcare": "pharmacy", "name": "Gemini", "opening_hours": "Mo-Fr 08:00-21:00; Sa 08:00-16:00; PH off", "ref:csioz": "1183749"}}, {"type": "node", "id": 5075335318, "lat": 52.0768967, "lon": 18.2986792}, {"type": "node", "id": 5075335319, "lat": 52.077028, "lon": 18.2986558}, {"type": "node", "id": 5075335320, "lat": 52.0770352, "lon": 18.298817}, {"type": "node", "id": 5075335321, "lat": 52.0769053, "lon": 18.298845}, {"type": "node", "id": 5130477788, "lat": 52.2318781, "lon": 18.2569493, "tags": {"amenity": "pharmacy", "dispensing": "yes", "healthcare": "pharmacy", "level": "0", "name": "Stylowa", "opening_hours": "Mo-Fr 08:00-19:00; Sa 08:30-14:30", "ref:csioz": "1049234"}}, {"type": "node", "id": 5200713329, "lat": 52.0770081, "lon": 18.2988228}, {"type": "node", "id": 5200713332, "lat": 52.07691, "lon": 18.298844}, {"type": "node", "id": 5556160179, "lat": 51.9530033, "lon": 18.3916831, "tags": {"amenity": "pharmacy", "dispensing": "yes", "healthcare": "pharmacy", "name": "Punkt Apteczny"}}, {"type": "node", "id": 5817187140, "lat": 52.210814, "lon": 18.2525353, "tags": {"amenity": "pharmacy", "dispensing": "yes", "healthcare": "pharmacy", "level": "0", "name": "Prima", "opening_hours": "Mo-Fr 07:00-20:00; Sa 08:00-16:00", "ref:csioz": "1049384", "wheelchair": "yes"}}, {"type": "node", "id": 5850785504, "lat": 52.2103961, "lon": 18.2542878, "tags": {"amenity": "pharmacy", "dispensing": "yes", "healthcare": "pharmacy", "level": "0", "name": "Stylowa 5", "opening_hours": "Mo-Fr 08:00-19:00; Sa 08:30-14:30", "ref": "5", "ref:csioz": "1202769", "wheelchair": "no"}}, {"type": "node", "id": 5900249362, "lat": 51.9530426, "lon": 18.2450177, "tags": {"amenity": "pharmacy", "dispensing": "yes", "healthcare": "pharmacy", "name": "Apteka"}}, {"type": "node", "id": 7071669729, "lat": 52.137495, "lon": 18.4038336, "tags": {"amenity": "pharmacy", "dispensing": "yes", "healthcare": "pharmacy", "name": "R\u00f3\u017ca"}}, {"type": "node", "id": 7216170145, "lat": 51.8710816, "lon": 18.5309241}, {"type": "node", "id": 7216170146, "lat": 51.8712518, "lon": 18.5309901}, {"type": "node", "id": 7216170147, "lat": 51.8712295, "lon": 18.5311407}, {"type": "node", "id": 7216170148, "lat": 51.871154, "lon": 18.5311114}, {"type": "node", "id": 7216170149, "lat": 51.871148, "lon": 18.5311519}, {"type": "node", "id": 7216170150, "lat": 51.8711087, "lon": 18.5311367}, {"type": "node", "id": 7216170151, "lat": 51.8711135, "lon": 18.5311044}, {"type": "node", "id": 7216170152, "lat": 51.8710581, "lon": 18.531083}, {"type": "node", "id": 8155501670, "lat": 51.9157716, "lon": 18.6158628, "tags": {"addr:city": "Dobra", "addr:city:simc": "0949000", "addr:housenumber": "30", "addr:postcode": "62-730", "addr:street": "Plac Wojska Polskiego", "amenity": "pharmacy", "dispensing": "yes", "healthcare": "pharmacy", "source:addr": "EMUiA (dobraturecka.e-mapa.net)"}}, {"type": "node", "id": 8203539329, "lat": 52.103735, "lon": 18.472756, "tags": {"amenity": "pharmacy"}}, {"type": "node", "id": 9559006049, "lat": 51.8892908, "lon": 18.2974143, "tags": {"addr:housenumber": "17B", "addr:place": "Cek\u00f3w-Kolonia", "addr:postcode": "62-834", "amenity": "pharmacy", "name": "Pod Lwem", "ref:csioz": "1053808"}}, {"type": "node", "id": 9559013381, "lat": 51.8213974, "lon": 18.2273205, "tags": {"addr:housenumber": "2", "addr:place": "Kamie\u0144", "addr:postcode": "62-834", "amenity": "pharmacy", "healthcare": "pharmacy", "name": "Punkt Apteczny W Kamieniu", "ref:csioz": "1227229"}}, {"type": "node", "id": 9559015607, "lat": 51.8323176, "lon": 18.3970584, "tags": {"addr:city": "Lisk\u00f3w", "addr:housenumber": "41", "addr:postcode": "62-850", "addr:street": "Ksi\u0119dza Wac\u0142awa Blizi\u0144skiego", "amenity": "pharmacy", "healthcare": "pharmacy", "name": "Retiro", "ref:csioz": "1053110"}}, {"type": "node", "id": 9559017544, "lat": 51.8538551, "lon": 18.1773546, "tags": {"addr:housenumber": "134C", "addr:place": "\u017belazk\u00f3w", "addr:postcode": "62-817", "amenity": "pharmacy", "name": "Vita", "ref:csioz": "1053766"}}, {"type": "node", "id": 9559037027, "lat": 51.8500727, "lon": 18.1750292, "tags": {"addr:housenumber": "109", "addr:place": "\u017belazk\u00f3w", "addr:postcode": "62-817", "amenity": "pharmacy", "ref:csioz": "1053777"}}, {"type": "node", "id": 9559038102, "lat": 51.9445013, "lon": 18.2163754, "tags": {"addr:housenumber": "116", "addr:place": "Korzeniew", "addr:postcode": "62-831", "amenity": "pharmacy", "ref:csioz": "1053468"}}, {"type": "node", "id": 9559038211, "lat": 51.9532427, "lon": 18.1406862, "tags": {"addr:housenumber": "171 B", "addr:place": "Zbiersk-Cukrownia", "addr:postcode": "62-830", "amenity": "pharmacy", "name": "Stylowy", "ref:csioz": "1195520"}}, {"type": "node", "id": 9559045653, "lat": 51.9543734, "lon": 18.1334133, "tags": {"addr:housenumber": "246", "addr:place": "Zbiersk-Cukrownia", "addr:postcode": "62-830", "amenity": "pharmacy", "name": "Rodzinny", "ref:csioz": "1230003"}}, {"type": "node", "id": 9562964002, "lat": 52.07643, "lon": 18.3009669, "tags": {"addr:city": "Tuliszk\u00f3w", "addr:housenumber": "1A", "addr:postcode": "62-740", "addr:street": "Plac Powsta\u0144c\u00f3w Styczniowych 1863 r.", "amenity": "pharmacy", "healthcare": "pharmacy", "name": "Stylowa", "ref:csioz": "1120167"}}, {"type": "node", "id": 9562985912, "lat": 52.1037993, "lon": 18.6044937, "tags": {"addr:city": "Brudzew", "addr:housenumber": "2A", "addr:postcode": "62-720", "addr:street": "Goleszczyzna", "amenity": "pharmacy", "name": "Pod Turem", "ref:csioz": "1219881"}}, {"type": "node", "id": 9563018996, "lat": 52.0174989, "lon": 18.5101846, "tags": {"addr:city": "Turek", "addr:housenumber": "1", "addr:postcode": "62-700", "addr:street": "Armii Krajowej", "amenity": "pharmacy", "healthcare": "pharmacy", "name": "Zielona", "ref:csioz": "1192790"}}, {"type": "node", "id": 9563033815, "lat": 52.0988252, "lon": 18.6055344, "tags": {"addr:city": "Brudzew", "addr:housenumber": "30", "addr:postcode": "62-720", "addr:street": "Plac Wolno\u015bci", "amenity": "pharmacy", "name": "Pod Wag\u0105", "ref:csioz": "1048600"}}, {"type": "node", "id": 9563033816, "lat": 52.0175599, "lon": 18.5074715, "tags": {"addr:city": "Turek", "addr:flats": "5", "addr:housenumber": "3", "addr:postcode": "62-700", "addr:street": "Kolska Szosa", "amenity": "pharmacy", "healthcare": "pharmacy", "name": "Prima", "ref:csioz": "1049392"}}, {"type": "node", "id": 9563042388, "lat": 52.0155494, "lon": 18.4978062, "tags": {"addr:city": "Turek", "addr:housenumber": "18", "addr:postcode": "62-700", "addr:street": "Kaliska", "amenity": "pharmacy", "healthcare": "pharmacy", "name": "Wena", "ref:csioz": "1209600"}}, {"type": "node", "id": 9563043710, "lat": 52.0158791, "lon": 18.5016994, "tags": {"addr:city": "Turek", "addr:housenumber": "8", "addr:postcode": "62-700", "addr:street": "Plac Wojska Polskiego", "amenity": "pharmacy", "healthcare": "pharmacy", "name": "Stylowa", "ref:csioz": "1199211"}}, {"type": "node", "id": 9563044527, "lat": 51.9385066, "lon": 18.5343862, "tags": {"addr:housenumber": "53", "addr:place": "Kowale Pa\u0144skie-Kolonia", "addr:postcode": "62-704", "amenity": "pharmacy", "name": "Zielona", "ref:csioz": "1048637"}}, {"type": "node", "id": 9563055217, "lat": 52.0144343, "lon": 18.5078135, "tags": {"addr:city": "Turek", "addr:housenumber": "7", "addr:postcode": "62-700", "addr:street": "Jaros\u0142awa D\u0105browskiego", "amenity": "pharmacy", "healthcare": "pharmacy", "name": "Wena", "ref:csioz": "1205969"}}, {"type": "node", "id": 9563056121, "lat": 51.9162651, "lon": 18.615291, "tags": {"addr:city": "Dobra", "addr:housenumber": "4", "addr:postcode": "62-730", "addr:street": "Plac Wojska Polskiego", "amenity": "pharmacy", "name": "Stars", "ref:csioz": "1049227"}}, {"type": "node", "id": 9563059565, "lat": 52.1030348, "lon": 18.4714642, "tags": {"addr:city": "W\u0142adys\u0142aw\u00f3w", "addr:housenumber": "2A", "addr:postcode": "62-710", "addr:street": "Kaliska", "amenity": "pharmacy", "name": "Grodzka", "ref:csioz": "1048764"}}, {"type": "node", "id": 9563060053, "lat": 52.0154883, "lon": 18.5088408, "tags": {"addr:city": "Turek", "addr:housenumber": "6", "addr:postcode": "62-700", "addr:street": "650-lecia", "amenity": "pharmacy", "healthcare": "pharmacy", "name": "Apteka Spo\u0142eczna Na 650 Lecia Grupa Nowa Farmacja", "ref:csioz": "1198503"}}, {"type": "node", "id": 9563076379, "lat": 52.014804, "lon": 18.5147591, "tags": {"addr:city": "Turek", "addr:housenumber": "1A", "addr:postcode": "62-700", "addr:street": "Kardyna\u0142a Stefana Wyszy\u0144skiego", "amenity": "pharmacy", "healthcare": "pharmacy", "name": "Stylowa 3", "ref:csioz": "1214265"}}, {"type": "node", "id": 9563078003, "lat": 52.0198238, "lon": 18.4881543, "tags": {"addr:city": "Turek", "addr:housenumber": "2", "addr:postcode": "62-700", "addr:street": "Komunalna", "amenity": "pharmacy", "healthcare": "pharmacy", "name": "Stylowa 4", "ref:csioz": "1221992"}}, {"type": "node", "id": 9563078607, "lat": 52.0103219, "lon": 18.4907895, "tags": {"addr:city": "Turek", "addr:housenumber": "1", "addr:postcode": "62-700", "addr:street": "Poduchowne", "amenity": "pharmacy", "ref:csioz": "1049836;1123119"}}, {"type": "node", "id": 9563097452, "lat": 52.0442708, "lon": 18.3663981, "tags": {"addr:city": "Grzymiszew", "addr:housenumber": "6", "addr:postcode": "62-740", "addr:street": "Koni\u0144ska", "amenity": "pharmacy", "name": "Twoje Leki 2", "ref:csioz": "1120042"}}, {"type": "node", "id": 9575442866, "lat": 52.1778497, "lon": 18.2715887, "tags": {"addr:city": "\u017bychlin", "addr:housenumber": "77", "addr:postcode": "62-571", "addr:street": "Osiedle S\u0142oneczne", "amenity": "pharmacy", "name": "Fio\u0142ek", "ref:csioz": "1049722"}}, {"type": "node", "id": 9575490371, "lat": 52.1820387, "lon": 18.2179874, "tags": {"addr:city": "Stare Miasto", "addr:housenumber": "3", "addr:postcode": "62-571", "addr:street": "Olchowa", "amenity": "pharmacy", "name": "Prima", "ref:csioz": "1049489"}}, {"type": "node", "id": 9575514267, "lat": 52.2658035, "lon": 18.4275779, "tags": {"addr:city": "Kramsk", "addr:housenumber": "3", "addr:postcode": "62-511", "addr:street": "Rynek", "amenity": "pharmacy", "name": "Apteka", "ref:csioz": "1048504"}}, {"type": "node", "id": 9575536437, "lat": 52.0713605, "lon": 18.1649601, "tags": {"addr:city": "Rychwa\u0142", "addr:housenumber": "19", "addr:postcode": "62-570", "addr:street": "Koni\u0144ska", "amenity": "pharmacy", "name": "Pod Z\u0142ot\u0105 Wag\u0105", "ref:csioz": "1049007"}}, {"type": "node", "id": 10230582671, "lat": 52.1729797, "lon": 18.5704693, "tags": {"amenity": "pharmacy", "dispensing": "yes", "healthcare": "pharmacy", "name": "Vademecum", "ref:csioz": "1048377"}}, {"type": "node", "id": 10234431702, "lat": 52.2332605, "lon": 18.2784055, "tags": {"amenity": "pharmacy", "dispensing": "yes", "healthcare": "pharmacy", "name": "Stylowa 3", "ref:csioz": "1049242"}}, {"type": "node", "id": 10234431703, "lat": 52.235873, "lon": 18.249086, "tags": {"amenity": "pharmacy", "dispensing": "yes", "healthcare": "pharmacy", "name": "Valeriana", "ref:csioz": "1048172"}}, {"type": "node", "id": 10234431704, "lat": 52.1951455, "lon": 18.2393506, "tags": {"amenity": "pharmacy", "brand": "Dbam o Zdrowie", "brand:wikidata": "Q62563833", "dispensing": "yes", "fixme": "Lokalizacja do weryfikacji", "healthcare": "pharmacy", "name": "Dbam o Zdrowie", "ref:csioz": "1048659", "short_name": "DOZ"}}, {"type": "node", "id": 10234431705, "lat": 52.20149, "lon": 18.2447318, "tags": {"amenity": "pharmacy", "dispensing": "yes", "healthcare": "pharmacy", "name": "Prima", "ref:csioz": "1120146"}}, {"type": "node", "id": 10234431706, "lat": 52.2343492, "lon": 18.2600602, "tags": {"amenity": "pharmacy", "dispensing": "yes", "fixme": "Lokalizacja do weryfikacji", "healthcare": "pharmacy", "name": "Zatorze", "ref:csioz": "1049431"}}, {"type": "node", "id": 10234431707, "lat": 52.2095934, "lon": 18.2542402, "tags": {"amenity": "pharmacy", "dispensing": "yes", "fixme": "Lokalizacja do weryfikacji", "healthcare": "pharmacy", "name": "Medica", "ref:csioz": "1224143"}}, {"type": "node", "id": 10234431708, "lat": 52.2315894, "lon": 18.2400958, "tags": {"amenity": "pharmacy", "brand": "Dr. Max", "brand:wikidata": "Q56317371", "dispensing": "yes", "healthcare": "pharmacy", "name": "Dr. Max", "ref:csioz": "1049300"}}, {"type": "node", "id": 10234431709, "lat": 52.2335283, "lon": 18.2209526, "tags": {"amenity": "pharmacy", "dispensing": "yes", "healthcare": "pharmacy", "name": "Prima", "ref:csioz": "1206601"}}, {"type": "node", "id": 10234431710, "lat": 52.2334556, "lon": 18.2800494, "tags": {"amenity": "pharmacy", "dispensing": "yes", "healthcare": "pharmacy", "name": "Prima", "ref:csioz": "1049288"}}, {"type": "node", "id": 10234431711, "lat": 52.2288481, "lon": 18.2653511, "tags": {"amenity": "pharmacy", "dispensing": "yes", "fixme": "Lokalizacja do weryfikacji", "healthcare": "pharmacy", "name": "Vita-Pharm", "ref:csioz": "1118454"}}, {"type": "node", "id": 10234431712, "lat": 52.2333523, "lon": 18.2108464, "tags": {"amenity": "pharmacy", "brand": "Dbam o Zdrowie", "brand:wikidata": "Q62563833", "dispensing": "yes", "healthcare": "pharmacy", "name": "Dbam o Zdrowie", "ref:csioz": "1118433", "short_name": "DOZ"}}, {"type": "node", "id": 10234431714, "lat": 52.2263073, "lon": 18.2630555, "tags": {"amenity": "pharmacy", "dispensing": "yes", "fixme": "Lokalizacja do weryfikacji", "healthcare": "pharmacy", "name": "Vita-Pharm", "ref:csioz": "1194313"}}, {"type": "node", "id": 10234431715, "lat": 52.234265, "lon": 18.2533026, "tags": {"amenity": "pharmacy", "dispensing": "yes", "healthcare": "pharmacy", "name": "Prima", "ref:csioz": "1207060"}}, {"type": "node", "id": 10234431716, "lat": 52.2341616, "lon": 18.2616465, "tags": {"amenity": "pharmacy", "dispensing": "yes", "healthcare": "pharmacy", "name": "Alba", "ref:csioz": "1048849"}}, {"type": "node", "id": 10234468427, "lat": 52.2294989, "lon": 18.2504704, "tags": {"amenity": "pharmacy", "brand": "Gemini", "dispensing": "yes", "healthcare": "pharmacy", "name": "Gemini", "opening_hours": "Mo-Fr 08:00-20:00; Sa 08:00-15:00", "ref:csioz": "1222777"}}, {"type": "node", "id": 10234468428, "lat": 52.2323723, "lon": 18.2077475, "tags": {"amenity": "pharmacy", "dispensing": "yes", "healthcare": "pharmacy", "name": "Pini Plus", "ref:csioz": "1048443"}}, {"type": "node", "id": 10234468429, "lat": 52.2182219, "lon": 18.2521373, "tags": {"amenity": "pharmacy", "dispensing": "yes", "healthcare": "pharmacy", "name": "Prima", "ref:csioz": "1206595"}}, {"type": "node", "id": 10234505317, "lat": 52.2279159, "lon": 18.2521885, "tags": {"amenity": "pharmacy", "dispensing": "yes", "healthcare": "pharmacy", "name": "Vita-Pharm", "ref:csioz": "1187031"}}, {"type": "node", "id": 10234505318, "lat": 52.2283528, "lon": 18.2550487, "tags": {"amenity": "pharmacy", "dispensing": "yes", "healthcare": "pharmacy", "name": "Stylowa 4", "ref:csioz": "1180067"}}, {"type": "node", "id": 11237984615, "lat": 52.0156558, "lon": 18.510512}, {"type": "node", "id": 11237984616, "lat": 52.015742, "lon": 18.5105867}, {"type": "node", "id": 11237984617, "lat": 52.0159226, "lon": 18.5105366}, {"type": "node", "id": 11237984618, "lat": 52.0159172, "lon": 18.5104798}, {"type": "node", "id": 12713990727, "lat": 52.1835306, "lon": 18.2324573}, {"type": "node", "id": 12713990728, "lat": 52.1834062, "lon": 18.2327257}, {"type": "node", "id": 12713990729, "lat": 52.1833744, "lon": 18.2326865}, {"type": "node", "id": 12713990730, "lat": 52.183485, "lon": 18.2324005}, {"type": "node", "id": 12713990731, "lat": 52.183434, "lon": 18.2325104}, {"type": "node", "id": 12713990732, "lat": 52.1834475, "lon": 18.2325271}, {"type": "node", "id": 12713990733, "lat": 52.1834003, "lon": 18.23263}, {"type": "way", "id": 189055539, "nodes": [1997006963, 1997006700, 1997006680, 1997006653, 1997006963], "tags": {"addr:city": "Stawiszyn", "addr:housenumber": "11", "addr:postcode": "62-820", "addr:street": "Plac Wolno\u015bci", "amenity": "pharmacy", "building": "yes", "name": "Medicamen", "source:addr": "stawiszyn.e-mapa.net"}}, {"type": "way", "id": 233379883, "nodes": [2417750536, 2417750539, 2418006275, 11237984615, 2417750538, 11237984616, 11237984617, 11237984618, 2417750537, 2417750536], "tags": {"addr:city": "Turek", "addr:city:simc": "0949336", "addr:housenumber": "3", "addr:postcode": "62-700", "addr:street": "Armii Krajowej", "amenity": "pharmacy", "building": "yes", "healthcare": "pharmacy", "name": "Medicata", "source:addr": "EMUiA (mturek.e-mapa.net)"}}, {"type": "way", "id": 441328183, "nodes": [4390710088, 4390728094, 4390911948, 4390911940, 3794964497, 3794964487, 3794964488, 3794964493, 4390911939, 4390710088], "tags": {"amenity": "pharmacy", "brand": "Cosmedica", "dispensing": "yes", "healthcare": "pharmacy", "indoor": "room", "level": "0", "name": "Cosmedica", "ref:csioz": "1179678", "source": "photograph", "source_ref": "https://zapodaj.net/903cec5ec77d2.jpg.html", "source_ref:name": "https://zapodaj.net/b6fc42316821d.jpg.html"}}, {"type": "way", "id": 507175122, "nodes": [4967415718, 4967415719, 4967415720, 4967415821, 4967415718], "tags": {"amenity": "pharmacy", "building": "yes"}}, {"type": "way", "id": 515669903, "nodes": [5035519391, 5035519392, 5035519393, 5035519394, 5035519391], "tags": {"addr:city": "Malan\u00f3w", "addr:housenumber": "4a", "addr:postcode": "62-709", "addr:street": "Turecka", "amenity": "pharmacy", "building": "yes", "dispensing": "yes", "healthcare": "pharmacy", "name": "Punkt Apteczny", "payment:cash": "yes", "payment:credit_cards": "yes", "payment:debit_cards": "yes", "source:addr": "malanow.e-mapa.net"}}, {"type": "way", "id": 520793005, "nodes": [5075335318, 5075335319, 5075335320, 5200713329, 5200713332, 5075335321, 5075335318], "tags": {"addr:city": "Tuliszk\u00f3w", "addr:housenumber": "19", "addr:postcode": "62-740", "addr:street": "Plac Wolno\u015bci", "amenity": "pharmacy", "building": "yes", "healthcare": "pharmacy", "name": "Apteka pod Kozioro\u017ccem"}}, {"type": "way", "id": 772887814, "nodes": [7216170145, 7216170146, 7216170147, 7216170148, 7216170149, 7216170150, 7216170151, 7216170152, 7216170145], "tags": {"amenity": "pharmacy", "building": "yes", "dispensing": "yes", "healthcare": "pharmacy"}}, {"type": "way", "id": 1373109228, "nodes": [12713990732, 12713990733, 12713990729, 12713990728, 12713990727, 12713990730, 12713990731, 12713990732], "tags": {"addr:city": "Stare Miasto", "addr:housenumber": "31A", "addr:postcode": "62-571", "addr:street": "Ogrodowa", "amenity": "pharmacy", "healthcare": "pharmacy", "indoor": "room", "level": "0", "name": "Vita-Pharm", "ref:csioz": "1049135"}}]}