{"version": 0.6, "generator": "Overpass API 0.7.62.8 e802775f", "osm3s": {"timestamp_osm_base": "2025-10-06T08:16:01Z", "copyright": "The data included in this document is from www.openstreetmap.org. The data is made available under ODbL."}, "elements": [{"type": "node", "id": 528542376, "lat": 51.6038448, "lon": 18.9324099, "tags": {"addr:city": "Zdu\u0144ska Wola", "addr:housenumber": "3", "addr:postcode": "98-220", "addr:street": "Getta \u017bydowskiego", "amenity": "pharmacy", "healthcare": "pharmacy", "level": "0", "name": "Si\u00f3demka", "ref:csioz": "1018110", "website": "http://www.apteka-siodemka.pl/"}}, {"type": "node", "id": 528542545, "lat": 51.5931739, "lon": 18.9284161, "tags": {"addr:street": "Jaros\u0142awa Iwaszkiewicza", "amenity": "pharmacy", "dispensing": "yes", "healthcare": "pharmacy", "name": "Apteka S\u0142oneczna", "ref:csioz": "1011905", "source": "http://ump.waw.pl/ retrieved 18:45:18 09/30/09 (UMP-Kalisz/src/POI-Kalisz.szpitale.pnt-converted.txt)"}}, {"type": "node", "id": 1374487671, "lat": 51.7088258, "lon": 18.6250536, "tags": {"addr:city": "Warta", "addr:housenumber": "1", "addr:postcode": "98-290", "addr:street": "B\u0142\u0119kitnej Armii", "amenity": "pharmacy", "healthcare": "pharmacy", "name": "Apteka Przy Rynku", "ref:csioz": "1013303"}}, {"type": "node", "id": 1454906466, "lat": 51.5967179, "lon": 18.9455205, "tags": {"addr:city": "Zdu\u0144ska Wola", "addr:housenumber": "63", "addr:postcode": "98-220", "addr:street": "\u0141aska", "amenity": "pharmacy", "dispensing": "yes", "healthcare": "pharmacy", "name": "Apteka z U\u015bmiechem", "ref:csioz": "1187346", "wheelchair": "yes"}}, {"type": "node", "id": 1771663876, "lat": 51.6513478, "lon": 18.4439071, "tags": {"addr:city": "B\u0142aszki", "addr:housenumber": "59", "addr:postcode": "98-235", "addr:street": "Sieradzka", "amenity": "pharmacy", "healthcare": "pharmacy", "name": "Apteka \"Nova\"", "ref:csioz": "1016089"}}, {"type": "node", "id": 1771667146, "lat": 51.6514229, "lon": 18.4354336, "tags": {"addr:housenumber": "4", "addr:postcode": "98-235", "addr:street": "Sieradzka", "amenity": "pharmacy", "dispensing": "yes", "healthcare": "pharmacy", "ref:csioz": "1009673"}}, {"type": "node", "id": 1818820181, "lat": 51.6032536, "lon": 18.9422537, "tags": {"addr:city": "Zdu\u0144ska Wola", "addr:housename": "Aloes", "addr:housenumber": "7", "addr:postcode": "98-220", "addr:street": "Zielona", "amenity": "pharmacy", "healthcare": "pharmacy", "name": "Aloes", "ref:csioz": "1014365"}}, {"type": "node", "id": 1897779877, "lat": 51.5878041, "lon": 18.7196283, "tags": {"addr:city": "Sieradz", "addr:country": "PL", "addr:housenumber": "1B", "addr:postcode": "98-200", "addr:street": "Aleja Grunwaldzka", "amenity": "pharmacy", "contact:email": "biuro@grupakwiatypolskie.pl", "contact:phone": "+48 43 822 39 46", "contact:website": "http://grupakwiatypolskie.pl", "dispensing": "yes", "healthcare": "pharmacy", "name": "Apteka Nowe Kwiaty Polskie", "opening_hours": "Mo-Fr 08:00-22:00; Sa 08:00-14:00", "ref:csioz": "1022876"}}, {"type": "node", "id": 2387852666, "lat": 51.7562463, "lon": 18.1665021}, {"type": "node", "id": 2387852705, "lat": 51.7561446, "lon": 18.1663743}, {"type": "node", "id": 2387852719, "lat": 51.7561824, "lon": 18.1663921}, {"type": "node", "id": 2387852729, "lat": 51.7561648, "lon": 18.1664939}, {"type": "node", "id": 2387852762, "lat": 51.7561262, "lon": 18.1664757}, {"type": "node", "id": 2387852764, "lat": 51.7561694, "lon": 18.1664676}, {"type": "node", "id": 2387852799, "lat": 51.756264, "lon": 18.1664006}, {"type": "node", "id": 2387852819, "lat": 51.7561873, "lon": 18.1663645}, {"type": "node", "id": 2461806397, "lat": 51.5958529, "lon": 18.256022}, {"type": "node", "id": 2461806401, "lat": 51.5959051, "lon": 18.2561111}, {"type": "node", "id": 2461806474, "lat": 51.5957927, "lon": 18.2561133}, {"type": "node", "id": 2461806559, "lat": 51.595845, "lon": 18.2562024}, {"type": "node", "id": 2478053814, "lat": 51.8020342, "lon": 18.7269404, "tags": {"addr:city": "P\u0119czniew", "addr:housenumber": "5", "addr:postcode": "99-235", "addr:street": "Wsp\u00f3lna", "amenity": "pharmacy", "dispensing": "yes", "healthcare": "pharmacy", "name": "Punkt Apteczny", "ref:csioz": "1118719"}}, {"type": "node", "id": 2788636444, "lat": 51.6079862, "lon": 18.9456953, "tags": {"amenity": "pharmacy", "dispensing": "yes", "healthcare": "pharmacy", "name": "Duo-Pharm", "ref:csioz": "1012611"}}, {"type": "node", "id": 3027996991, "lat": 51.5885864, "lon": 18.7105959, "tags": {"amenity": "pharmacy", "dispensing": "yes", "healthcare": "pharmacy", "name": "S\u0142oneczna", "opening_hours": "Mo-Fr 07:00-21:00; Sa 08:00-15:00", "ref:csioz": "1225328"}}, {"type": "node", "id": 4172169633, "lat": 51.5958477, "lon": 18.2560298}, {"type": "node", "id": 4580602106, "lat": 51.4998654, "lon": 18.4460073}, {"type": "node", "id": 4580602107, "lat": 51.4999182, "lon": 18.4458608}, {"type": "node", "id": 4580602108, "lat": 51.4999771, "lon": 18.4461104}, {"type": "node", "id": 4580602109, "lat": 51.5000298, "lon": 18.4459639}, {"type": "node", "id": 4893552017, "lat": 51.7777847, "lon": 18.8454682, "tags": {"addr:housenumber": "63", "addr:place": "Zadzim", "addr:postcode": "99-232", "amenity": "pharmacy", "dispensing": "yes", "healthcare": "pharmacy", "name": "Parkowa", "opening_hours": "Mo-Fr 08:00-18:00", "phone": "+48 43 678 6194", "ref:csioz": "1014256"}}, {"type": "node", "id": 5798416137, "lat": 51.4942381, "lon": 18.6253653, "tags": {"addr:city": "Brze\u017anio", "addr:housenumber": "11", "addr:postcode": "98-275", "addr:street": "Topolowa", "amenity": "pharmacy", "dispensing": "yes", "healthcare": "pharmacy", "name": "Apteka \"Quercus\"", "phone": "43 820 36 49", "ref:csioz": "1010196"}}, {"type": "node", "id": 6744768770, "lat": 51.5940658, "lon": 18.7303563, "tags": {"addr:housenumber": "3", "addr:postcode": "98-200", "addr:street": "Jana Paw\u0142a II", "amenity": "pharmacy", "dispensing": "yes", "healthcare": "pharmacy", "name": "Dr. Optima", "opening_hours": "Mo-Fr 07:00-21:00; Sa 08:00-15:00", "ref:csioz": "1180177"}}, {"type": "node", "id": 7125276261, "lat": 51.3713897, "lon": 18.4335348, "tags": {"amenity": "pharmacy", "dispensing": "yes", "healthcare": "pharmacy", "name": "Burchaci\u0144scy", "ref:csioz": "1211624"}}, {"type": "node", "id": 8346023411, "lat": 51.5937061, "lon": 18.7226987, "tags": {"addr:city": "Sieradz", "addr:housenumber": "11e", "addr:postcode": "98-200", "addr:street": "W\u0142adys\u0142awa \u0141okietka", "amenity": "pharmacy", "check_date:opening_hours": "2025-08-11", "dispensing": "yes", "email": "sieradz-lokietka@apteka-sloneczna.pl", "healthcare": "pharmacy", "name": "S\u0142oneczna", "opening_hours": "Mo-Fr 07:00-21:00; Sa 08:00-15:00", "phone": "+48 43 827 27 19", "ref:csioz": "1012709", "website": "http://www.apteka-sloneczna.pl/sieradz.html"}}, {"type": "node", "id": 9558993890, "lat": 51.7389005, "lon": 18.2144429, "tags": {"addr:city": "Opat\u00f3wek", "addr:housenumber": "2", "addr:postcode": "62-860", "addr:street": "Ko\u015bcielna", "amenity": "pharmacy", "name": "Prywatna", "ref:csioz": "1053437"}}, {"type": "node", "id": 9559006048, "lat": 51.798111, "lon": 18.3337234, "tags": {"addr:city": "Ko\u017aminek", "addr:housenumber": "10", "addr:postcode": "62-840", "addr:street": "Miko\u0142aja Kopernika", "amenity": "pharmacy", "name": "Pod Bli\u017ani\u0119tami", "ref:csioz": "1052685"}}, {"type": "node", "id": 9559012445, "lat": 51.6536901, "lon": 18.3295646, "tags": {"addr:city": "Iwanowice", "addr:housenumber": "2A", "addr:postcode": "62-865", "addr:street": "KSI\u0118DZA AUGUSTYNA KORDECKIEGO", "amenity": "pharmacy", "ref:csioz": "1173474"}}, {"type": "node", "id": 9559017913, "lat": 51.5940595, "lon": 18.2561848, "tags": {"addr:city": "BRZEZINY", "addr:housenumber": "10", "addr:postcode": "62-874", "addr:street": "1000 LECIA", "amenity": "pharmacy", "ref:csioz": "1053421"}}, {"type": "node", "id": 9559023071, "lat": 51.7386231, "lon": 18.204976, "tags": {"addr:city": "Opat\u00f3wek", "addr:housenumber": "3", "addr:postcode": "62-860", "addr:street": "Szkolna", "amenity": "pharmacy", "healthcare": "pharmacy", "name": "Stylowa", "ref:csioz": "1188585"}}, {"type": "node", "id": 9559030174, "lat": 51.6859808, "lon": 18.3295928, "tags": {"addr:housenumber": "31", "addr:place": "Szczytniki", "addr:postcode": "62-865", "amenity": "pharmacy", "name": "Punkt Apteczny Szczytniki", "ref:csioz": "1208891"}}, {"type": "node", "id": 9559031957, "lat": 51.7063068, "lon": 18.3791265, "tags": {"addr:city": "Staw", "addr:housenumber": "1", "addr:postcode": "62-865", "addr:street": "Szkolna", "amenity": "pharmacy", "ref:csioz": "1215730"}}, {"type": "node", "id": 9559046226, "lat": 51.7990341, "lon": 18.3376193, "tags": {"addr:city": "Ko\u017aminek", "addr:housenumber": "3", "addr:postcode": "62-840", "addr:street": "Tadeusza Ko\u015bciuszki", "amenity": "pharmacy", "ref:csioz": "1053856"}}, {"type": "node", "id": 9559050610, "lat": 51.7400806, "lon": 18.2164854, "tags": {"addr:city": "Opat\u00f3wek", "addr:housenumber": "1", "addr:postcode": "62-860", "addr:street": "\u0141\u00f3dzka", "amenity": "pharmacy", "name": "Stylowa 2", "ref:csioz": "1214552"}}, {"type": "node", "id": 9561074954, "lat": 51.5875229, "lon": 18.720022, "tags": {"addr:city": "Sieradz", "addr:housenumber": "4", "addr:postcode": "98-200", "addr:street": "Wincentego Wnuka", "amenity": "pharmacy", "healthcare": "pharmacy", "name": "Apteka S\u0142oneczna Centrum Farmaceutyczne", "opening_hours": "Mo-Sa 07:00-21:00", "ref:csioz": "1120470"}}, {"type": "node", "id": 9561075956, "lat": 51.4902604, "lon": 18.6276321, "tags": {"addr:city": "Brze\u017anio", "addr:housenumber": "37", "addr:postcode": "98-275", "addr:street": "Wsp\u00f3lna", "amenity": "pharmacy", "healthcare": "pharmacy", "name": "Apteka Na Wsp\u00f3lnej", "ref:csioz": "1164529"}}, {"type": "node", "id": 9561075961, "lat": 51.5932562, "lon": 18.7244316, "tags": {"addr:city": "Sieradz", "addr:housenumber": "5", "addr:postcode": "98-200", "addr:street": "W\u0142adys\u0142awa \u0141okietka", "amenity": "pharmacy", "check_date:opening_hours": "2025-03-25", "healthcare": "pharmacy", "name": "Apteka Prima", "opening_hours": "Mo-Sa 08:00-20:00", "ref:csioz": "1182307"}}, {"type": "node", "id": 9561075992, "lat": 51.7885199, "lon": 18.504221, "tags": {"addr:city": "Goszczan\u00f3w", "addr:housenumber": "2", "addr:postcode": "98-215", "addr:street": "Kaliska", "amenity": "pharmacy", "name": "Arnika", "ref:csioz": "1018273"}}, {"type": "node", "id": 9561082611, "lat": 51.4174772, "lon": 18.6113838, "tags": {"addr:city": "Z\u0142oczew", "addr:housenumber": "8/10", "addr:postcode": "98-270", "addr:street": "Burzeni\u0144ska", "amenity": "pharmacy", "brand": "Dbam o Zdrowie", "brand:wikidata": "Q62563833", "healthcare": "pharmacy", "name": "Dbam o Zdrowie", "ref:csioz": "1013458", "short_name": "DOZ"}}, {"type": "node", "id": 9561082612, "lat": 51.5922049, "lon": 18.7299247, "tags": {"addr:city": "Sieradz", "addr:housenumber": "12", "addr:postcode": "98-200", "addr:street": "Marsza\u0142ka J\u00f3zefa Pi\u0142sudskiego", "amenity": "pharmacy", "healthcare": "pharmacy", "name": "Apteka Prima", "opening_hours": "Mo-Fr 08:00-20:00; Sa 08:00-16:00", "ref:csioz": "1118517"}}, {"type": "node", "id": 9561101755, "lat": 51.5900271, "lon": 18.728285, "tags": {"addr:city": "Sieradz", "addr:housenumber": "7", "addr:postcode": "98-200", "addr:street": "Aleja Pokoju", "amenity": "pharmacy", "brand": "Dbam o Zdrowie", "brand:wikidata": "Q62563833", "healthcare": "pharmacy", "name": "Dbam o Zdrowie", "opening_hours": "Mo-Sa 08:00-20:00", "ref:csioz": "1013298", "short_name": "DOZ"}}, {"type": "node", "id": 9561110232, "lat": 51.7105936, "lon": 18.6195763, "tags": {"addr:city": "Warta", "addr:housenumber": "9", "addr:postcode": "98-290", "addr:street": "Ko\u017ami\u0144ska", "amenity": "pharmacy", "healthcare": "pharmacy", "name": "Apteka Arnika", "ref:csioz": "1026344"}}, {"type": "node", "id": 9561119431, "lat": 51.587911, "lon": 18.7200721, "tags": {"addr:city": "Sieradz", "addr:housenumber": "1D", "addr:postcode": "98-200", "addr:street": "Aleja Grunwaldzka", "amenity": "pharmacy", "check_date:opening_hours": "2025-05-23", "healthcare": "pharmacy", "name": "Apteka Spo\u0142eczna Na Grunwaldzkiej Grupa Nowa Farmacja", "opening_hours": "Mo-Fr 07:30-20:00; Sa 08:00-16:00", "ref:csioz": "1215276"}}, {"type": "node", "id": 9561121141, "lat": 51.6507171, "lon": 18.4344903, "tags": {"addr:city": "B\u0142aszki", "addr:housenumber": "5", "addr:postcode": "98-235", "addr:street": "Niepodleg\u0142o\u015bci", "amenity": "pharmacy", "healthcare": "pharmacy", "name": "Arnika", "ref:csioz": "1013807"}}, {"type": "node", "id": 9561123809, "lat": 51.5898151, "lon": 18.7290905, "tags": {"addr:city": "Sieradz", "addr:housenumber": "5/7", "addr:postcode": "98-200", "addr:street": "Aleja Pokoju", "amenity": "pharmacy", "brand": "Gemini", "brand:wikidata": "Q130243797", "check_date:opening_hours": "2024-08-25", "healthcare": "pharmacy", "name": "Gemini", "opening_hours": "Mo-Fr 07:00-21:00; Sa 08:00-17:00; Su 09:00-14:00", "ref:csioz": "1222862"}}, {"type": "node", "id": 9561144390, "lat": 51.6910441, "lon": 18.4825897, "tags": {"addr:housenumber": "107A", "addr:place": "Kalinowa", "addr:postcode": "98-235", "amenity": "pharmacy", "healthcare": "pharmacy", "name": "Retiro", "ref:csioz": "1022813"}}, {"type": "node", "id": 9561178310, "lat": 51.4183801, "lon": 18.610221, "tags": {"addr:city": "Z\u0142oczew", "addr:housenumber": "13A", "addr:postcode": "98-270", "addr:street": "Burzeni\u0144ska", "amenity": "pharmacy", "healthcare": "pharmacy", "name": "'Zdr\u00f3wko'", "ref:csioz": "1209123"}}, {"type": "node", "id": 9561183525, "lat": 51.5893025, "lon": 18.7190044, "tags": {"addr:city": "Sieradz", "addr:housenumber": "2", "addr:postcode": "98-200", "addr:street": "Ksi\u0119dza Jerzego Popie\u0142uszki", "amenity": "pharmacy", "healthcare": "pharmacy", "name": "Apteka Corax", "opening_hours": "Mo-Fr 08:00-20:00; Sa 08:00-14:00", "ref:csioz": "1217176"}}, {"type": "node", "id": 9561187180, "lat": 51.7042593, "lon": 18.6216662, "tags": {"addr:city": "Warta", "addr:housenumber": "38", "addr:postcode": "98-290", "addr:street": "Przedwio\u015bnie", "amenity": "pharmacy", "healthcare": "pharmacy", "name": "Balsam", "ref:csioz": "1010739"}}, {"type": "node", "id": 9561207512, "lat": 51.5960361, "lon": 18.7136404, "tags": {"addr:city": "Sieradz", "addr:housenumber": "80", "addr:postcode": "98-200", "addr:street": "Polskiej Organizacji Wojskowej", "amenity": "pharmacy", "brand": "Dbam o Zdrowie", "brand:wikidata": "Q62563833", "healthcare": "pharmacy", "name": "Dbam o Zdrowie", "ref:csioz": "1020173", "short_name": "DOZ"}}, {"type": "node", "id": 9561215328, "lat": 51.6099845, "lon": 18.6182361, "tags": {"addr:housenumber": "10C", "addr:place": "Wr\u00f3blew", "addr:postcode": "98-285", "amenity": "pharmacy", "dispensing": "yes", "healthcare": "pharmacy", "name": "Zdr\u00f3wko", "ref:csioz": "1230873"}}, {"type": "node", "id": 9561218428, "lat": 51.416726, "lon": 18.6039607, "tags": {"addr:city": "Z\u0142oczew", "addr:housenumber": "1", "addr:postcode": "98-270", "addr:street": "Ko\u015bcielna", "amenity": "pharmacy", "healthcare": "pharmacy", "name": "Magnolia", "ref:csioz": "1203232"}}, {"type": "node", "id": 9561225854, "lat": 51.7012831, "lon": 18.7895311, "tags": {"amenity": "pharmacy", "dispensing": "yes", "healthcare": "pharmacy", "name": "Punkt Apteczny Zdr\u00f3wko", "ref:csioz": "1231530"}}, {"type": "node", "id": 9561232738, "lat": 51.6146793, "lon": 18.4701442, "tags": {"addr:housenumber": "109A", "addr:place": "Gruszczyce", "addr:postcode": "98-235", "amenity": "pharmacy", "name": "\"Apteka \"\"Pod Fontann\u0105\"\"\"", "ref:csioz": "1177573"}}, {"type": "node", "id": 9561236612, "lat": 51.5910557, "lon": 18.7389486, "tags": {"addr:city": "Sieradz", "addr:housenumber": "10", "addr:postcode": "98-200", "addr:street": "Krakowskie Przedmie\u015bcie", "amenity": "pharmacy", "healthcare": "pharmacy", "name": "Alfa", "opening_hours": "Mo-Fr 08:00-18:30; Sa 09:00-13:00", "ref:csioz": "1018702"}}, {"type": "node", "id": 9561237553, "lat": 51.5833694, "lon": 18.7091323, "tags": {"addr:city": "Sieradz", "addr:housenumber": "24A", "addr:postcode": "98-200", "addr:street": "Armii Krajowej", "amenity": "pharmacy", "check_date:opening_hours": "2025-07-13", "healthcare": "pharmacy", "name": "Corda", "opening_hours": "Mo-Fr 08:00-20:00; Sa 08:00-15:00", "ref:csioz": "1016066"}}, {"type": "node", "id": 9561247483, "lat": 51.4215509, "lon": 18.4087918, "tags": {"addr:city": "Klonowa", "addr:housenumber": "29A", "addr:postcode": "98-273", "addr:street": "Czajkowska", "amenity": "pharmacy", "ref:csioz": "1024777"}}, {"type": "node", "id": 9561251699, "lat": 51.5904488, "lon": 18.7260039, "tags": {"addr:city": "Sieradz", "addr:housenumber": "41", "addr:postcode": "98-200", "addr:street": "Jana Paw\u0142a II", "amenity": "pharmacy", "healthcare": "pharmacy", "name": "Centrum", "opening_hours": "closed", "ref:csioz": "1011288"}}, {"type": "node", "id": 9561269778, "lat": 51.414021, "lon": 18.6047081, "tags": {"addr:city": "Z\u0142oczew", "addr:housenumber": "17A", "addr:postcode": "98-270", "addr:street": "Ogrodowa", "amenity": "pharmacy", "healthcare": "pharmacy", "name": "Apteka Przyjazna", "ref:csioz": "1194514"}}, {"type": "node", "id": 9561284586, "lat": 51.654671, "lon": 18.4338847, "tags": {"addr:city": "B\u0142aszki", "addr:housenumber": "19", "addr:postcode": "98-235", "addr:street": "Sulwi\u0144skiego", "amenity": "pharmacy", "healthcare": "pharmacy", "name": "Apteka \"Zdr\u00f3wko\"", "ref:csioz": "1221406"}}, {"type": "node", "id": 9561300164, "lat": 51.586912, "lon": 18.7209004, "tags": {"addr:city": "Sieradz", "addr:housenumber": "1", "addr:postcode": "98-200", "addr:street": "Aleja Grunwaldzka", "amenity": "pharmacy", "healthcare": "pharmacy", "name": "Apteka Z U\u015bmiechem", "ref:csioz": "1022395"}}, {"type": "node", "id": 9590205856, "lat": 51.6085171, "lon": 18.9395138, "tags": {"addr:city": "Zdu\u0144ska Wola", "addr:housenumber": "6", "addr:postcode": "98-220", "addr:street": "Opiesi\u0144ska", "amenity": "pharmacy", "brand": "Dr. Max", "brand:wikidata": "Q56317371", "healthcare": "pharmacy", "name": "Dr. Max", "ref:csioz": "1197609"}}, {"type": "node", "id": 9590254156, "lat": 51.5467487, "lon": 18.8890171, "tags": {"addr:city": "Zapolice", "addr:housenumber": "3A", "addr:postcode": "98-161", "addr:street": "Spacerowa", "amenity": "pharmacy", "healthcare": "pharmacy", "name": "Apteka Le\u015bna", "ref:csioz": "1208199"}}, {"type": "node", "id": 9590254320, "lat": 51.5982891, "lon": 18.9486091, "tags": {"addr:city": "Zdu\u0144ska Wola", "addr:housenumber": "17", "addr:postcode": "98-220", "addr:street": "Osmoli\u0144ska", "amenity": "pharmacy", "branch": "Astra Farmacja", "brand": "Dbam o Zdrowie", "brand:wikidata": "Q62563833", "healthcare": "pharmacy", "name": "Dbam o Zdrowie", "ref:csioz": "1015341", "short_name": "DOZ"}}, {"type": "node", "id": 9590255616, "lat": 51.5984722, "lon": 18.942873, "tags": {"addr:city": "Zdu\u0144ska Wola", "addr:housenumber": "1c", "addr:postcode": "98-220", "addr:street": "Jana Kili\u0144skiego", "amenity": "pharmacy", "healthcare": "pharmacy", "name": "Galmed", "ref:csioz": "1018843"}}, {"type": "node", "id": 9590271953, "lat": 51.6067667, "lon": 18.9297485, "tags": {"addr:city": "Zdu\u0144ska Wola", "addr:housenumber": "29", "addr:postcode": "98-220", "addr:street": "Getta \u017bydowskiego", "amenity": "pharmacy", "healthcare": "pharmacy", "name": "Aloes", "ref:csioz": "1018257"}}, {"type": "node", "id": 9590272650, "lat": 51.599589, "lon": 18.9386676, "tags": {"addr:city": "Zdu\u0144ska Wola", "addr:housenumber": "26", "addr:postcode": "98-220", "addr:street": "\u0141aska", "amenity": "pharmacy", "healthcare": "pharmacy", "name": "Centrum Farmaceutyczne Apteka S\u0142oneczna", "ref:csioz": "1022111"}}, {"type": "node", "id": 9590276961, "lat": 51.5983607, "lon": 18.9434148, "tags": {"addr:city": "Zdu\u0144ska Wola", "addr:housenumber": "6", "addr:postcode": "98-220", "addr:street": "Jana Kili\u0144skiego", "amenity": "pharmacy", "dispensing": "yes", "healthcare": "pharmacy", "name": "Aloes", "ref:csioz": "1022712"}}, {"type": "node", "id": 9679817140, "lat": 51.7398834, "lon": 18.2141666, "tags": {"addr:city": "Opat\u00f3wek", "addr:housenumber": "2", "addr:postcode": "62-860", "addr:street": "Plac Wolno\u015bci", "amenity": "pharmacy", "email": "zdrowieopatowek@gmail.com", "healthcare": "pharmacy", "name": "Zdrowie", "opening_hours": "Mo-Fr 08:00-19:00; Sa 08:00-16:00", "phone": "+48 62 761 84 51", "ref:csioz": "1052571"}}, {"type": "node", "id": 10241045364, "lat": 51.8686712, "lon": 18.8117474, "tags": {"amenity": "pharmacy", "dispensing": "yes", "fixme": "Lokalizacja do weryfikacji", "healthcare": "pharmacy", "name": "Punkt Apteczny U Ani", "ref:csioz": "1120424"}}, {"type": "node", "id": 10304112288, "lat": 51.5823361, "lon": 18.7101947, "tags": {"addr:city": "Sieradz", "addr:housenumber": "7", "addr:postcode": "98-200", "addr:street": "Armii Krajowej", "amenity": "pharmacy", "check_date:opening_hours": "2025-08-24", "dispensing": "yes", "drive_through": "no", "healthcare": "pharmacy", "name": "W Szpitalu", "opening_hours": "Mo-Fr 07:00-21:00; Sa,Su 08:00-21:00", "ref:csioz": "1177817"}}, {"type": "node", "id": 10589844140, "lat": 51.6105153, "lon": 18.6178328, "tags": {"amenity": "pharmacy", "brand": "Arnika", "dispensing": "yes", "healthcare": "pharmacy", "name": "Arnika", "ref:csioz": "1230878"}}, {"type": "node", "id": 10589914148, "lat": 51.6071266, "lon": 18.9307852, "tags": {"amenity": "pharmacy", "dispensing": "yes", "healthcare": "pharmacy", "name": "S\u0142oneczna", "ref:csioz": "1216319"}}, {"type": "node", "id": 10589914152, "lat": 51.3714097, "lon": 18.4318441, "tags": {"amenity": "pharmacy", "brand": "Dbam o Zdrowie", "brand:wikidata": "Q62563833", "dispensing": "yes", "healthcare": "pharmacy", "name": "Dbam o Zdrowie", "ref:csioz": "1013673", "short_name": "DOZ"}}, {"type": "way", "id": 230261353, "nodes": [2387852705, 2387852719, 2387852819, 2387852799, 2387852666, 2387852764, 2387852729, 2387852762, 2387852705], "tags": {"addr:city": "T\u0142okinia Ko\u015bcielna", "addr:housenumber": "14", "addr:postcode": "62-860", "addr:street": "Ko\u015bcielna", "amenity": "pharmacy", "building": "yes", "name": "Valeo"}}, {"type": "way", "id": 238332561, "nodes": [2461806397, 4172169633, 2461806474, 2461806559, 2461806401, 2461806397], "tags": {"addr:city": "Brzeziny", "addr:housenumber": "2A", "addr:postcode": "62-874", "addr:street": "21 Stycznia", "amenity": "pharmacy", "building": "yes", "name": "Punkt apteczny \"Familijny\"", "source:addr": "brzezinykaliskie.e-mapa.net"}}, {"type": "way", "id": 462694064, "nodes": [4580602109, 4580602107, 4580602106, 4580602108, 4580602109], "tags": {"addr:city": "Br\u0105szewice", "addr:housenumber": "94", "addr:postcode": "98-277", "addr:street": "Sieradzka", "amenity": "pharmacy", "brand": "Dbam o Zdrowie", "brand:wikidata": "Q62563833", "building": "yes", "healthcare": "pharmacy", "name": "Dbam o Zdrowie", "short_name": "DOZ", "source:addr": "braszewice.e-mapa.net"}}]}