{"version": 0.6, "generator": "Overpass API 0.7.62.8 e802775f", "osm3s": {"timestamp_osm_base": "2025-10-06T08:20:01Z", "copyright": "The data included in this document is from www.openstreetmap.org. The data is made available under ODbL."}, "elements": [{"type": "node", "id": 2018512801, "lat": 51.3676658, "lon": 19.379592, "tags": {"amenity": "pharmacy", "dispensing": "yes", "healthcare": "pharmacy", "name": "Dla Zdrowia", "ref:csioz": "1113679"}}, {"type": "node", "id": 3721648903, "lat": 51.4151625, "lon": 19.6811997}, {"type": "node", "id": 3721648905, "lat": 51.4151663, "lon": 19.6812636}, {"type": "node", "id": 3721648906, "lat": 51.4151674, "lon": 19.681132}, {"type": "node", "id": 3721648907, "lat": 51.4151719, "lon": 19.6810499}, {"type": "node", "id": 3721648909, "lat": 51.4151782, "lon": 19.6812527}, {"type": "node", "id": 3721648910, "lat": 51.4151828, "lon": 19.681183}, {"type": "node", "id": 3721648913, "lat": 51.4151916, "lon": 19.6811111}, {"type": "node", "id": 3721648918, "lat": 51.4152016, "lon": 19.6813697}, {"type": "node", "id": 3721648926, "lat": 51.4152221, "lon": 19.6810073}, {"type": "node", "id": 3721648927, "lat": 51.4152308, "lon": 19.6810339}, {"type": "node", "id": 3721648928, "lat": 51.4152399, "lon": 19.6811442}, {"type": "node", "id": 3721648933, "lat": 51.4152583, "lon": 19.6811253}, {"type": "node", "id": 3721648937, "lat": 51.4152647, "lon": 19.6812153}, {"type": "node", "id": 3721648939, "lat": 51.4152674, "lon": 19.6813172}, {"type": "node", "id": 3721648940, "lat": 51.4152776, "lon": 19.6812526}, {"type": "node", "id": 3823605064, "lat": 51.4057629, "lon": 19.6676755, "tags": {"addr:city": "Piotrk\u00f3w Trybunalski", "addr:housenumber": "2a", "addr:street": "Krzysztofa Kamila Baczy\u0144skiego", "amenity": "pharmacy", "name": "Dbam o Zdrowie", "ref:csioz": "1021058", "source:addr": "EMUiA@iMPA (mpiotrkowtrybunalski.e-mapa.net)", "source:ref:csioz": "http://www.rejestrymedyczne.csioz.gov.pl/ra.html"}}, {"type": "node", "id": 3823605065, "lat": 51.4078059, "lon": 19.7054549, "tags": {"addr:city": "Piotrk\u00f3w Trybunalski", "addr:housenumber": "10/12", "addr:street": "Garbarska", "amenity": "pharmacy", "brand": "Dbam o Zdrowie", "brand:wikidata": "Q62563833", "dispensing": "yes", "healthcare": "pharmacy", "name": "Dbam o Zdrowie", "ref:csioz": "1018204", "short_name": "DOZ", "source:addr": "EMUiA@iMPA (mpiotrkowtrybunalski.e-mapa.net)", "source:ref:csioz": "http://www.rejestrymedyczne.csioz.gov.pl/ra.html"}}, {"type": "node", "id": 3823605067, "lat": 51.4103537, "lon": 19.67349, "tags": {"addr:city": "Piotrk\u00f3w Trybunalski", "addr:housenumber": "14", "addr:street": "Stanis\u0142awa Wyspia\u0144skiego", "amenity": "pharmacy", "name": "Diafarm", "ref:csioz": "1022154", "source:addr": "EMUiA@iMPA (mpiotrkowtrybunalski.e-mapa.net)", "source:ref:csioz": "http://www.rejestrymedyczne.csioz.gov.pl/ra.html"}}, {"type": "node", "id": 3823605068, "lat": 51.4038252, "lon": 19.6619709, "tags": {"addr:city": "Piotrk\u00f3w Trybunalski", "addr:housenumber": "13/17", "addr:postcode": "97-300", "addr:street": "Aleje Genera\u0142a W\u0142adys\u0142awa Sikorskiego", "amenity": "pharmacy", "brand": "Dr. Max", "brand:wikidata": "Q56317371", "brand:wikipedia": "fr:Dr.Max", "healthcare": "pharmacy", "name": "Dr. Max", "opening_hours": "Mo-Fr 08:00-21:00; Sa 09:00-21:00; Su 10:00-19:00", "ref:csioz": "1016748", "source:addr": "EMUiA@iMPA (mpiotrkowtrybunalski.e-mapa.net)", "source:ref:csioz": "http://www.rejestrymedyczne.csioz.gov.pl/ra.html"}}, {"type": "node", "id": 3823605069, "lat": 51.415461, "lon": 19.6781259, "tags": {"addr:city": "Piotrk\u00f3w Trybunalski", "addr:housenumber": "121", "addr:street": "Wojska Polskiego", "amenity": "pharmacy", "brand": "Dr. Max", "brand:wikidata": "Q56317371", "brand:wikipedia": "fr:Dr.Max", "healthcare": "pharmacy", "name": "Dr. Max", "ref:csioz": "1016346", "source:addr": "EMUiA@iMPA (mpiotrkowtrybunalski.e-mapa.net)", "source:ref:csioz": "http://www.rejestrymedyczne.csioz.gov.pl/ra.html"}}, {"type": "node", "id": 3823605071, "lat": 51.4108219, "lon": 19.669518, "tags": {"addr:city": "Piotrk\u00f3w Trybunalski", "addr:housenumber": "53", "addr:street": "Kostromska", "amenity": "pharmacy", "healthcare": "pharmacy", "name": "Kwiaty Polskie", "ref:csioz": "1024358", "source:addr": "EMUiA@iMPA (mpiotrkowtrybunalski.e-mapa.net)", "source:ref:csioz": "http://www.rejestrymedyczne.csioz.gov.pl/ra.html"}}, {"type": "node", "id": 3823605072, "lat": 51.4085073, "lon": 19.6957572, "tags": {"addr:city": "Piotrk\u00f3w Trybunalski", "addr:housenumber": "3", "addr:postcode": "97-300", "addr:street": "Rynek Trybunalski", "amenity": "pharmacy", "healthcare": "pharmacy", "name": "Na Star\u00f3wce 2", "ref:csioz": "1020054", "source:addr": "EMUiA@iMPA (mpiotrkowtrybunalski.e-mapa.net)", "source:ref:csioz": "http://www.rejestrymedyczne.csioz.gov.pl/ra.html"}}, {"type": "node", "id": 3823605073, "lat": 51.4220993, "lon": 19.6744097, "tags": {"addr:city": "Piotrk\u00f3w Trybunalski", "addr:housenumber": "60c", "addr:street": "\u0141\u00f3dzka", "amenity": "pharmacy", "name": "Na Zdrowie", "ref:csioz": "1177710", "source:addr": "EMUiA@iMPA (mpiotrkowtrybunalski.e-mapa.net)", "source:ref:csioz": "http://www.rejestrymedyczne.csioz.gov.pl/ra.html"}}, {"type": "node", "id": 3823605776, "lat": 51.4130273, "lon": 19.6868906, "tags": {"addr:city": "Piotrk\u00f3w Trybunalski", "addr:housenumber": "77", "addr:postcode": "97-300", "addr:street": "Wojska Polskiego", "amenity": "pharmacy", "dispensing": "yes", "healthcare": "pharmacy", "name": "Pod Si\u00f3demkami", "ref:csioz": "1019200", "source:addr": "EMUiA@iMPA (mpiotrkowtrybunalski.e-mapa.net)", "source:ref:csioz": "http://www.rejestrymedyczne.csioz.gov.pl/ra.html"}}, {"type": "node", "id": 3823605777, "lat": 51.4078441, "lon": 19.6721882, "tags": {"addr:city": "Piotrk\u00f3w Trybunalski", "addr:housenumber": "69", "addr:street": "Belzacka", "amenity": "pharmacy", "healthcare": "pharmacy", "name": "Prima", "ref:csioz": "1185592", "source:addr": "EMUiA@iMPA (mpiotrkowtrybunalski.e-mapa.net)", "source:ref:csioz": "http://www.rejestrymedyczne.csioz.gov.pl/ra.html"}}, {"type": "node", "id": 3823605778, "lat": 51.4106365, "lon": 19.6615503, "tags": {"addr:city": "Piotrk\u00f3w Trybunalski", "addr:housenumber": "155/157", "addr:street": "Juliusza S\u0142owackiego", "amenity": "pharmacy", "healthcare": "pharmacy", "name": "Prima", "ref:csioz": "1020318", "source:addr": "EMUiA@iMPA (mpiotrkowtrybunalski.e-mapa.net)", "source:ref:csioz": "http://www.rejestrymedyczne.csioz.gov.pl/ra.html"}}, {"type": "node", "id": 3823605779, "lat": 51.4015968, "lon": 19.6663709, "tags": {"addr:city": "Piotrk\u00f3w Trybunalski", "addr:housenumber": "38", "addr:postcode": "97-300", "addr:street": "Romana Dmowskiego", "amenity": "pharmacy", "healthcare": "pharmacy", "name": "Przyjazna", "ref:csioz": "1180893", "source:addr": "EMUiA@iMPA (mpiotrkowtrybunalski.e-mapa.net)", "source:ref:csioz": "http://www.rejestrymedyczne.csioz.gov.pl/ra.html"}}, {"type": "node", "id": 3823605781, "lat": 51.4099695, "lon": 19.6672547, "tags": {"addr:city": "Piotrk\u00f3w Trybunalski", "addr:housenumber": "138a", "addr:street": "Juliusza S\u0142owackiego", "amenity": "pharmacy", "name": "Stylowa 2", "ref:csioz": "1024060", "source:addr": "EMUiA@iMPA (mpiotrkowtrybunalski.e-mapa.net)", "source:ref:csioz": "http://www.rejestrymedyczne.csioz.gov.pl/ra.html"}}, {"type": "node", "id": 3823605782, "lat": 51.4050907, "lon": 19.6880709, "tags": {"addr:city": "Piotrk\u00f3w Trybunalski", "addr:housenumber": "19", "addr:street": "Henryka Sienkiewicza", "amenity": "pharmacy", "healthcare": "pharmacy", "name": "Stylowa 4", "ref:csioz": "1121385", "source:addr": "EMUiA@iMPA (mpiotrkowtrybunalski.e-mapa.net)", "source:ref:csioz": "http://www.rejestrymedyczne.csioz.gov.pl/ra.html"}}, {"type": "node", "id": 3823605783, "lat": 51.4081044, "lon": 19.7076005, "tags": {"addr:city": "Piotrk\u00f3w Trybunalski", "addr:housenumber": "26/28", "addr:street": "Garbarska", "amenity": "pharmacy", "healthcare": "pharmacy", "name": "Stylowa 5", "ref:csioz": "1176845", "source:addr": "EMUiA@iMPA (mpiotrkowtrybunalski.e-mapa.net)", "source:ref:csioz": "http://www.rejestrymedyczne.csioz.gov.pl/ra.html"}}, {"type": "node", "id": 3823605784, "lat": 51.4091669, "lon": 19.6832474, "tags": {"addr:city": "Piotrk\u00f3w Trybunalski", "addr:housenumber": "2", "addr:postcode": "97-300", "addr:street": "M\u0142ynarska", "amenity": "pharmacy", "healthcare": "pharmacy", "name": "Stylowa", "ref:csioz": "1023348", "source:addr": "EMUiA@iMPA (mpiotrkowtrybunalski.e-mapa.net)", "source:ref:csioz": "http://www.rejestrymedyczne.csioz.gov.pl/ra.html"}}, {"type": "node", "id": 3823605785, "lat": 51.4115119, "lon": 19.7043847, "tags": {"addr:city": "Piotrk\u00f3w Trybunalski", "addr:housenumber": "33", "addr:postcode": "97-300", "addr:street": "Rzemie\u015blnicza", "amenity": "pharmacy", "dispensing": "yes", "healthcare": "pharmacy", "name": "Super Tania Aptek Przyjazna", "ref:csioz": "1114554", "source:addr": "EMUiA@iMPA (mpiotrkowtrybunalski.e-mapa.net)", "source:ref:csioz": "http://www.rejestrymedyczne.csioz.gov.pl/ra.html"}}, {"type": "node", "id": 3823606106, "lat": 51.4173647, "lon": 19.6743145, "tags": {"addr:city": "Piotrk\u00f3w Trybunalski", "addr:housenumber": "137/139", "addr:street": "Wojska Polskiego", "amenity": "pharmacy", "healthcare": "pharmacy", "name": "Na Sz\u00f3stk\u0119", "ref:csioz": "1165737", "source:addr": "EMUiA@iMPA (mpiotrkowtrybunalski.e-mapa.net)", "source:ref:csioz": "http://www.rejestrymedyczne.csioz.gov.pl/ra.html"}}, {"type": "node", "id": 3823606107, "lat": 51.4121293, "lon": 19.6781699, "tags": {"addr:city": "Piotrk\u00f3w Trybunalski", "addr:housenumber": "14", "addr:postcode": "97-300", "addr:street": "Aleje Armii Krajowej", "amenity": "pharmacy", "dispensing": "yes", "healthcare": "pharmacy", "name": "Z U\u015bmiechem", "ref:csioz": "1025580", "source:addr": "EMUiA@iMPA (mpiotrkowtrybunalski.e-mapa.net)", "source:ref:csioz": "http://www.rejestrymedyczne.csioz.gov.pl/ra.html"}}, {"type": "node", "id": 4228104189, "lat": 51.4978197, "lon": 19.7098593, "tags": {"addr:housenumber": "15a", "addr:postcode": "97-310", "addr:street": "Piotrkowska", "amenity": "pharmacy", "dispensing": "yes", "healthcare": "pharmacy", "name": "Pod Kasztanami", "ref:csioz": "1022439"}}, {"type": "node", "id": 6653179086, "lat": 51.2978183, "lon": 19.5154331, "tags": {"amenity": "pharmacy", "brand": "Dr. Max", "brand:wikidata": "Q56317371", "dispensing": "yes", "healthcare": "pharmacy", "name": "Punkt Apteczny Dr. Max", "opening_hours": "Mo-We 08:00-16:00; Th 12:00-18:00; Fr 08:00-16:00", "ref:csioz": "1231385"}}, {"type": "node", "id": 7374872696, "lat": 51.2035913, "lon": 19.4956664, "tags": {"amenity": "pharmacy", "dispensing": "yes", "healthcare": "pharmacy", "name": "Remedium", "ref:csioz": "1177732"}}, {"type": "node", "id": 8634950432, "lat": 51.3010512, "lon": 19.6441678, "tags": {"amenity": "pharmacy", "dispensing": "yes", "healthcare": "pharmacy", "name": "Efarm", "ref:csioz": "1025804"}}, {"type": "node", "id": 9233044233, "lat": 51.4064075, "lon": 19.6877211, "tags": {"amenity": "pharmacy", "dispensing": "yes", "healthcare": "pharmacy", "name": "Kwiaty Polskie", "ref:csioz": "1118465"}}, {"type": "node", "id": 9552494922, "lat": 51.4791862, "lon": 19.5316361, "tags": {"amenity": "pharmacy", "dispensing": "yes", "healthcare": "pharmacy", "name": "Og\u00f3lnodost\u0119pna", "opening_hours": "Mo-Sa 08:00-15:00", "operator": "APTEKA OG\u00d3LNODOST\u0118PNA S.C. KATARZYNA \u0141ASKA APTEKA OG\u00d3LNODOST\u0118PNA S.C. CEZARY \u0141ASKI", "ref:csioz": "1231020"}}, {"type": "node", "id": 9558988877, "lat": 51.6039892, "lon": 19.5442528, "tags": {"addr:city": "Tuszyn", "addr:housenumber": "5", "addr:postcode": "95-080", "addr:street": "Kr\u00f3la W\u0142adys\u0142awa Jagie\u0142\u0142y", "amenity": "pharmacy", "name": "Passiflora", "ref:csioz": "1021436"}}, {"type": "node", "id": 9558988880, "lat": 51.6157796, "lon": 19.517248, "tags": {"addr:city": "Tuszyn", "addr:housenumber": "2B", "addr:postcode": "95-080", "addr:street": "Henryka Sienkiewicza", "amenity": "pharmacy", "name": "Nowomiejska", "ref:csioz": "1196079"}}, {"type": "node", "id": 9558988889, "lat": 51.6015645, "lon": 19.5503808, "tags": {"addr:city": "Tuszyn", "addr:housenumber": "24/26", "addr:postcode": "95-080", "addr:street": "\u017beromskiego", "amenity": "pharmacy", "name": "Melisa", "ref:csioz": "1013222"}}, {"type": "node", "id": 9558988891, "lat": 51.6021264, "lon": 19.5450137, "tags": {"addr:city": "Tuszyn", "addr:housenumber": "4", "addr:postcode": "95-080", "addr:street": "Pl. Reymonta", "amenity": "pharmacy", "ref:csioz": "1012289"}}, {"type": "node", "id": 9581720480, "lat": 51.5595413, "lon": 19.3935728, "tags": {"addr:city": "D\u0142ut\u00f3w", "addr:housenumber": "4", "addr:postcode": "95-081", "addr:street": "Polna", "amenity": "pharmacy", "name": "Medicor", "ref:csioz": "1024938"}}, {"type": "node", "id": 9581797263, "lat": 51.5580038, "lon": 19.3919474, "tags": {"addr:city": "D\u0142ut\u00f3w", "addr:housenumber": "6", "addr:postcode": "95-081", "addr:street": "Pabianicka", "amenity": "pharmacy", "dispensing": "yes", "healthcare": "pharmacy", "name": "Rodzinna", "ref:csioz": "1023883"}}, {"type": "node", "id": 9583566301, "lat": 51.3617328, "lon": 19.3746647, "tags": {"addr:city": "Be\u0142chat\u00f3w", "addr:housenumber": "33B", "addr:postcode": "97-400", "addr:street": "Stefana Okrzei", "amenity": "pharmacy", "dispensing": "yes", "drive_through": "no", "healthcare": "pharmacy", "name": "Apteka Prima-Pharma", "ref:csioz": "1121503"}}, {"type": "node", "id": 9583594308, "lat": 51.4675735, "lon": 19.217423, "tags": {"addr:city": "Zel\u00f3w", "addr:housenumber": "21", "addr:postcode": "97-425", "addr:street": "Stefana \u017beromskiego", "amenity": "pharmacy", "dispensing": "yes", "healthcare": "pharmacy", "name": "Wrzosowa", "ref:csioz": "1203667"}}, {"type": "node", "id": 9583601403, "lat": 51.357256, "lon": 19.3676267, "tags": {"addr:city": "Be\u0142chat\u00f3w", "addr:housenumber": "2A", "addr:postcode": "97-400", "addr:street": "Edward\u00f3w", "amenity": "pharmacy", "dispensing": "yes", "name": "Szarotka", "ref:csioz": "1011885"}}, {"type": "node", "id": 9583603087, "lat": 51.3670498, "lon": 19.3782343, "tags": {"addr:city": "Be\u0142chat\u00f3w", "addr:housenumber": "1", "addr:postcode": "97-400", "addr:street": "Genera\u0142a Ludwika Czy\u017cewskiego", "amenity": "pharmacy", "dispensing": "yes", "healthcare": "pharmacy", "name": "Aloes", "ref:csioz": "1220991"}}, {"type": "node", "id": 9583613794, "lat": 51.4631387, "lon": 19.3989326, "tags": {"addr:housenumber": "18", "addr:place": "Dru\u017cbice", "addr:postcode": "97-403", "amenity": "pharmacy", "dispensing": "yes", "name": "Twoje Zdrowie", "ref:csioz": "1226292"}}, {"type": "node", "id": 9583631073, "lat": 51.3646322, "lon": 19.3868879, "tags": {"addr:city": "Be\u0142chat\u00f3w", "addr:housenumber": "20", "addr:postcode": "97-400", "addr:street": "Stanis\u0142awa Staszica", "amenity": "pharmacy", "dispensing": "yes", "name": "S\u0142oneczna", "ref:csioz": "1020774"}}, {"type": "node", "id": 9583640173, "lat": 51.3539281, "lon": 19.3699917, "tags": {"addr:city": "Be\u0142chat\u00f3w", "addr:housenumber": "89", "addr:postcode": "97-400", "addr:street": "Wojska Polskiego", "amenity": "pharmacy", "dispensing": "yes", "healthcare": "pharmacy", "name": "Apteka Zdrowit", "ref:csioz": "1224135"}}, {"type": "node", "id": 9583651207, "lat": 51.3642373, "lon": 19.3700709, "tags": {"addr:city": "Be\u0142chat\u00f3w", "addr:housenumber": "14", "addr:postcode": "97-400", "addr:street": "Tadeusza Ko\u015bciuszki", "amenity": "pharmacy", "dispensing": "yes", "name": "Apteka Spo\u0142eczna Na Ko\u015bciuszki Grupa Nowa Farmacja", "ref:csioz": "1195786"}}, {"type": "node", "id": 9583656109, "lat": 51.3677236, "lon": 19.3689946, "tags": {"addr:city": "Be\u0142chat\u00f3w", "addr:housenumber": "8", "addr:postcode": "97-400", "addr:street": "Pabianicka", "amenity": "pharmacy", "dispensing": "yes", "drive_through": "no", "healthcare": "pharmacy", "name": "Medest VIII", "ref:csioz": "1023137"}}, {"type": "node", "id": 9583658990, "lat": 51.2101066, "lon": 19.3155743, "tags": {"addr:city": "Kleszcz\u00f3w", "addr:housenumber": "53", "addr:postcode": "97-410", "addr:street": "Sportowa", "amenity": "pharmacy", "dispensing": "yes", "healthcare": "pharmacy", "name": "Apteka Przyjazna", "ref:csioz": "1185584"}}, {"type": "node", "id": 9583659875, "lat": 51.343856, "lon": 19.231954, "tags": {"addr:housenumber": "51", "addr:place": "Kluki", "addr:postcode": "97-415", "amenity": "pharmacy", "dispensing": "yes", "name": "\u017byj - Zdrowo.Com", "ref:csioz": "1122834"}}, {"type": "node", "id": 9583659928, "lat": 51.3626992, "lon": 19.3667227, "tags": {"addr:city": "Be\u0142chat\u00f3w", "addr:housenumber": "22A", "addr:postcode": "97-400", "addr:street": "Rotmistrza Witolda Pileckiego", "amenity": "pharmacy", "dispensing": "yes", "name": "Apteka T\u0119czowa", "ref:csioz": "1182596"}}, {"type": "node", "id": 9583663314, "lat": 51.3647282, "lon": 19.3700473, "tags": {"addr:city": "Be\u0142chat\u00f3w", "addr:housenumber": "12", "addr:postcode": "97-400", "addr:street": "Ko\u015bciuszki", "amenity": "pharmacy", "dispensing": "yes", "name": "Doz Apteka Dbam O Zdrowie", "ref:csioz": "1018155"}}, {"type": "node", "id": 9583673165, "lat": 51.3711968, "lon": 19.3534382, "tags": {"addr:city": "Be\u0142chat\u00f3w", "addr:housenumber": "93", "addr:postcode": "97-400", "addr:street": "Czapliniecka", "amenity": "pharmacy", "dispensing": "yes", "name": "Euro Apteka", "ref:csioz": "1180334"}}, {"type": "node", "id": 9583676018, "lat": 51.2228804, "lon": 19.3053321, "tags": {"addr:city": "Kleszcz\u00f3w", "addr:housenumber": "82", "addr:postcode": "97-410", "addr:street": "G\u0142\u00f3wna", "amenity": "pharmacy", "brand": "Dbam o Zdrowie", "brand:wikidata": "Q62563833", "dispensing": "yes", "healthcare": "pharmacy", "name": "Dbam o Zdrowie", "ref:csioz": "1013254", "short_name": "DOZ"}}, {"type": "node", "id": 9583678801, "lat": 51.3499304, "lon": 19.3700875, "tags": {"addr:city": "Be\u0142chat\u00f3w", "addr:housenumber": "4", "addr:postcode": "97-400", "addr:street": "Aleja Ksi\u0119dza Kardyna\u0142a Stefana Wyszy\u0144skiego", "amenity": "pharmacy", "dispensing": "yes", "drive_through": "no", "healthcare": "pharmacy", "name": "Bratek", "ref:csioz": "1016201"}}, {"type": "node", "id": 9583686761, "lat": 51.3591892, "lon": 19.3851657, "tags": {"addr:city": "Be\u0142chat\u00f3w", "addr:housenumber": "69", "addr:postcode": "97-400", "addr:street": "Witolda Budryka", "amenity": "pharmacy", "brand": "Dbam o Zdrowie", "brand:wikidata": "Q62563833", "dispensing": "yes", "healthcare": "pharmacy", "name": "Dbam o Zdrowie", "ref:csioz": "1018236", "short_name": "DOZ"}}, {"type": "node", "id": 9583691944, "lat": 51.5067629, "lon": 19.4114956, "tags": {"addr:housenumber": "82", "addr:place": "Wadlew", "addr:postcode": "97-403", "amenity": "pharmacy", "dispensing": "yes", "name": "Twoje Zdrowie", "ref:csioz": "1026520"}}, {"type": "node", "id": 9583703224, "lat": 51.36696, "lon": 19.3681444, "tags": {"addr:city": "Be\u0142chat\u00f3w", "addr:housenumber": "2A", "addr:postcode": "97-400", "addr:street": "Romualda Mielczarskiego", "amenity": "pharmacy", "dispensing": "yes", "name": "Apteka S\u0142oneczna Centrum Farmaceutyczne", "ref:csioz": "1021473"}}, {"type": "node", "id": 9583713644, "lat": 51.3562947, "lon": 19.3864262, "tags": {"addr:city": "Be\u0142chat\u00f3w", "addr:housenumber": "1", "addr:postcode": "97-400", "addr:street": "\u015awi\u0119tej Barbary", "amenity": "pharmacy", "dispensing": "yes", "name": "Apteka Bliska Zdrowiu", "ref:csioz": "1204012"}}, {"type": "node", "id": 9583741500, "lat": 51.3586662, "lon": 19.3683298, "tags": {"addr:city": "Be\u0142chat\u00f3w", "addr:housenumber": "39", "addr:postcode": "97-400", "addr:street": "Wojska Polskiego", "amenity": "pharmacy", "dispensing": "yes", "healthcare": "pharmacy", "name": "Niezapominajka Dla Ca\u0142ej Rodziny", "ref:csioz": "1225271"}}, {"type": "node", "id": 9583766337, "lat": 51.462174, "lon": 19.2197592, "tags": {"addr:city": "Zel\u00f3w", "addr:housenumber": "1A", "addr:postcode": "97-425", "addr:street": "Pozna\u0144ska", "amenity": "pharmacy", "dispensing": "yes", "name": "Medest Vii", "ref:csioz": "1022296"}}, {"type": "node", "id": 9583769561, "lat": 51.3580366, "lon": 19.3564672, "tags": {"addr:city": "Be\u0142chat\u00f3w", "addr:housenumber": "148I", "addr:postcode": "97-400", "addr:street": "Osiedle Dolno\u015bl\u0105skie", "amenity": "pharmacy", "dispensing": "yes", "name": "\"Apteka \"\"Zdrowie\"\"\"", "ref:csioz": "1010308"}}, {"type": "node", "id": 9583785980, "lat": 51.3539436, "lon": 19.3750136, "tags": {"addr:city": "Be\u0142chat\u00f3w", "addr:housenumber": "6", "addr:postcode": "97-400", "addr:street": "Kolejowa", "amenity": "pharmacy", "dispensing": "yes", "healthcare": "pharmacy", "name": "Euro Apteka", "ref:csioz": "1180287"}}, {"type": "node", "id": 9583797320, "lat": 51.3507188, "lon": 19.3626403, "tags": {"addr:city": "Be\u0142chat\u00f3w", "addr:housenumber": "24", "addr:postcode": "97-400", "addr:street": "Boles\u0142awa Chrobrego", "amenity": "pharmacy", "dispensing": "yes", "healthcare": "pharmacy", "name": "Witaminka", "ref:csioz": "1012168"}}, {"type": "node", "id": 10241934642, "lat": 51.409196, "lon": 19.6827439, "tags": {"amenity": "pharmacy", "dispensing": "yes", "healthcare": "pharmacy", "name": "S\u0142oneczna", "ref:csioz": "1208054"}}, {"type": "node", "id": 10241934647, "lat": 51.3011411, "lon": 19.6437141, "tags": {"amenity": "pharmacy", "dispensing": "yes", "healthcare": "pharmacy", "name": "Kalina s.c.", "ref:csioz": "1024492"}}, {"type": "node", "id": 10241995353, "lat": 51.4133959, "lon": 19.678359, "tags": {"amenity": "pharmacy", "brand": "Dbam o Zdrowie", "brand:wikidata": "Q62563833", "dispensing": "yes", "healthcare": "pharmacy", "name": "Dbam o Zdrowie", "ref:csioz": "1164494", "short_name": "DOZ"}}, {"type": "node", "id": 10241995354, "lat": 51.4077993, "lon": 19.7066655, "tags": {"amenity": "pharmacy", "dispensing": "yes", "healthcare": "pharmacy", "name": "Prima", "ref:csioz": "1018363"}}, {"type": "node", "id": 10241995355, "lat": 51.4080849, "lon": 19.7062741, "tags": {"amenity": "pharmacy", "dispensing": "yes", "healthcare": "pharmacy", "name": "Farma", "ref:csioz": "1013612"}}, {"type": "node", "id": 10241995356, "lat": 51.4095143, "lon": 19.6731585, "tags": {"amenity": "pharmacy", "dispensing": "yes", "healthcare": "pharmacy", "name": "Stylowa 3", "ref:csioz": "1025617", "wheelchair": "no"}}, {"type": "node", "id": 10241995357, "lat": 51.4106675, "lon": 19.668234, "tags": {"addr:city": "Piotrk\u00f3w Trybunalski", "addr:housenumber": "123", "addr:postcode": "97-300", "addr:street": "Juliusza S\u0142owackiego", "amenity": "pharmacy", "dispensing": "yes", "healthcare": "pharmacy", "ref:csioz": "1023665"}}, {"type": "node", "id": 10241995358, "lat": 51.4165372, "lon": 19.6806796, "tags": {"amenity": "pharmacy", "dispensing": "yes", "healthcare": "pharmacy", "name": "Na Sz\u00f3stk\u0119", "ref:csioz": "1223235"}}, {"type": "node", "id": 10241995362, "lat": 51.4968143, "lon": 19.7106996, "tags": {"amenity": "pharmacy", "dispensing": "yes", "healthcare": "pharmacy", "name": "Dobry Lek", "ref:csioz": "1215607"}}, {"type": "node", "id": 10241995363, "lat": 51.4962395, "lon": 19.7108079, "tags": {"amenity": "pharmacy", "dispensing": "yes", "healthcare": "pharmacy", "ref:csioz": "1022757"}}, {"type": "node", "id": 10241995364, "lat": 51.3442148, "lon": 19.5828397, "tags": {"amenity": "pharmacy", "dispensing": "yes", "healthcare": "pharmacy", "name": "S\u0142oneczna", "ref:csioz": "1202814"}}, {"type": "node", "id": 10241995370, "lat": 51.3403035, "lon": 19.5848048, "tags": {"amenity": "pharmacy", "dispensing": "yes", "healthcare": "pharmacy", "ref:csioz": "1010335"}}, {"type": "node", "id": 10241995371, "lat": 51.3746367, "lon": 19.820781, "tags": {"amenity": "pharmacy", "brand": "Dbam o Zdrowie", "brand:wikidata": "Q62563833", "dispensing": "yes", "healthcare": "pharmacy", "name": "Punkt Apteczny Dbam o Zdrowie", "ref:csioz": "1209858", "short_name": "DOZ"}}, {"type": "node", "id": 10241995374, "lat": 51.2712498, "lon": 19.5891, "tags": {"amenity": "pharmacy", "dispensing": "yes", "healthcare": "pharmacy", "name": "Punkt Apteczny Efarm", "ref:csioz": "1121455"}}, {"type": "node", "id": 10241995375, "lat": 51.2167258, "lon": 19.5967405, "tags": {"amenity": "pharmacy", "brand": "Dbam o Zdrowie", "brand:wikidata": "Q62563833", "dispensing": "yes", "healthcare": "pharmacy", "name": "Dbam o Zdrowie", "ref:csioz": "1019678", "short_name": "DOZ"}}, {"type": "node", "id": 10241995376, "lat": 51.4159685, "lon": 19.5628495, "tags": {"amenity": "pharmacy", "dispensing": "yes", "healthcare": "pharmacy", "name": "Og\u00f3lnodost\u0119pna", "ref:csioz": "1024374"}}, {"type": "node", "id": 10241995378, "lat": 51.5914946, "lon": 19.6843864, "tags": {"amenity": "pharmacy", "dispensing": "yes", "healthcare": "pharmacy", "name": "Malwa", "ref:csioz": "1026050"}}, {"type": "node", "id": 10281889129, "lat": 51.3757991, "lon": 19.3503537, "tags": {"amenity": "pharmacy", "dispensing": "yes", "healthcare": "pharmacy", "name": "S\u0142oneczna", "ref:csioz": "1023357"}}, {"type": "node", "id": 10281959927, "lat": 51.5048045, "lon": 19.1644817, "tags": {"amenity": "pharmacy", "dispensing": "yes", "healthcare": "pharmacy", "name": "Malwa", "ref:csioz": "1013334"}}, {"type": "node", "id": 10281959929, "lat": 51.4657358, "lon": 19.2183597, "tags": {"amenity": "pharmacy", "dispensing": "yes", "healthcare": "pharmacy", "name": "Dar Zdrowia", "ref:csioz": "1230817"}}, {"type": "node", "id": 10281959930, "lat": 51.3678949, "lon": 19.3742574, "tags": {"amenity": "pharmacy", "dispensing": "yes", "healthcare": "pharmacy", "name": "Maxfarm", "ref:csioz": "1023949"}}, {"type": "node", "id": 10281959931, "lat": 51.350632, "lon": 19.3621827, "tags": {"amenity": "pharmacy", "dispensing": "yes", "healthcare": "pharmacy", "name": "T\u0119czowa", "ref:csioz": "1207603"}}, {"type": "node", "id": 10282659603, "lat": 51.603241, "lon": 19.5447556, "tags": {"amenity": "pharmacy", "dispensing": "yes", "healthcare": "pharmacy", "name": "Tuszy\u0144ska", "ref:csioz": "1189064"}}, {"type": "node", "id": 10282711271, "lat": 51.1461726, "lon": 19.4059692, "tags": {"amenity": "pharmacy", "dispensing": "yes", "healthcare": "pharmacy", "name": "Punkt Apteczny Marta", "ref:csioz": "1189119"}}, {"type": "node", "id": 10282783370, "lat": 51.148395, "lon": 19.3271112, "tags": {"amenity": "pharmacy", "dispensing": "yes", "healthcare": "pharmacy", "name": "Koniczynka 4", "ref:csioz": "1225987"}}, {"type": "node", "id": 10282783371, "lat": 51.1487288, "lon": 19.3306274, "tags": {"amenity": "pharmacy", "brand": "Dbam o Zdrowie", "brand:wikidata": "Q62563833", "dispensing": "yes", "healthcare": "pharmacy", "name": "Punkt Apteczny Dbam o Zdrowie", "ref:csioz": "1121493", "short_name": "DOZ"}}, {"type": "node", "id": 10282783374, "lat": 51.2027723, "lon": 19.4980011, "tags": {"amenity": "pharmacy", "dispensing": "yes", "healthcare": "pharmacy", "name": "Farm-Med", "ref:csioz": "1231460"}}, {"type": "node", "id": 10282783376, "lat": 51.173724, "lon": 19.4845575, "tags": {"amenity": "pharmacy", "dispensing": "yes", "healthcare": "pharmacy", "name": "Marta", "ref:csioz": "1214417"}}, {"type": "node", "id": 10282783379, "lat": 51.1454442, "lon": 19.4089008, "tags": {"amenity": "pharmacy", "brand": "Dbam o Zdrowie", "brand:wikidata": "Q62563833", "dispensing": "yes", "healthcare": "pharmacy", "name": "Punkt Apteczny Dbam o Zdrowie", "ref:csioz": "1231277", "short_name": "DOZ"}}, {"type": "node", "id": 12251485537, "lat": 51.2005296, "lon": 19.5001803}, {"type": "node", "id": 12251485538, "lat": 51.2004598, "lon": 19.5001626}, {"type": "node", "id": 12251485539, "lat": 51.200408, "lon": 19.5006823}, {"type": "node", "id": 12251485540, "lat": 51.2004779, "lon": 19.5007}, {"type": "node", "id": 12894803928, "lat": 51.4653793, "lon": 19.2168296, "tags": {"amenity": "pharmacy", "healthcare": "pharmacy", "name": "Witaminka"}}, {"type": "node", "id": 12894803947, "lat": 51.4644347, "lon": 19.2188708, "tags": {"amenity": "pharmacy", "healthcare": "pharmacy", "name": "Alpa"}}, {"type": "way", "id": 368314465, "nodes": [3721648927, 3721648926, 3721648907, 3721648913, 3721648906, 3721648910, 3721648903, 3721648909, 3721648905, 3721648918, 3721648939, 3721648940, 3721648937, 3721648928, 3721648933, 3721648927], "tags": {"addr:city": "Piotrk\u00f3w Trybunalski", "addr:housenumber": "21", "addr:postcode": "97-300", "addr:street": "\u0141\u00f3dzka", "amenity": "pharmacy", "building": "yes", "dispensing": "yes", "healthcare": "pharmacy", "name": "Apteka. Beata Piekarek", "ref:csioz": "1113996", "source:addr": "EMUiA@iMPA (mpiotrkowtrybunalski.e-mapa.net)", "source:ref:csioz": "http://www.rejestrymedyczne.csioz.gov.pl/ra.html"}}, {"type": "way", "id": 1323969588, "nodes": [12251485537, 12251485538, 12251485539, 12251485540, 12251485537], "tags": {"amenity": "pharmacy", "building": "yes", "healthcare": "pharmacy"}}]}