{"version": 0.6, "generator": "Overpass API 0.7.62.8 e802775f", "osm3s": {"timestamp_osm_base": "2025-10-06T08:51:34Z", "copyright": "The data included in this document is from www.openstreetmap.org. The data is made available under ODbL."}, "elements": [{"type": "node", "id": 974420968, "lat": 53.6459977, "lon": 22.4677168, "tags": {"addr:city": "Grajewo", "addr:housenumber": "9", "addr:postcode": "19-200", "addr:street": "Osiedle Po\u0142udnie", "amenity": "pharmacy", "healthcare": "pharmacy", "name": "Vita", "ref:csioz": "1021281"}}, {"type": "node", "id": 1410342096, "lat": 53.8723312, "lon": 22.6720283, "tags": {"addr:city": "Kalinowo", "addr:housenumber": "1", "addr:street": "Szkolna", "amenity": "pharmacy", "dispensing": "yes", "healthcare": "pharmacy", "name": "Punkt Apteczny \u015aw. Brunona", "ref:csioz": "1016439"}}, {"type": "node", "id": 1587724230, "lat": 53.8228852, "lon": 22.3534664, "tags": {"addr:city": "E\u0142k", "addr:housenumber": "20", "addr:postcode": "19-300", "addr:street": "Armii Krajowej", "amenity": "pharmacy", "dispensing": "yes", "email": "elk.armiikrajowej@cefarm36.pl", "healthcare": "pharmacy", "name": "Cef@Rm 36,6", "phone": "+48876215742", "ref:csioz": "1041319"}}, {"type": "node", "id": 1604034104, "lat": 53.8240678, "lon": 22.3574814, "tags": {"addr:city": "E\u0142k", "addr:housenumber": "31", "addr:street": "Armii Krajowej", "amenity": "pharmacy", "dispensing": "yes", "email": "apteka@osak.com.pl", "fax": "+48876213217", "healthcare": "pharmacy", "name": "Osak", "phone": "+48876212974", "ref:csioz": "1041324"}}, {"type": "node", "id": 1605462960, "lat": 53.8244844, "lon": 22.3494879, "tags": {"addr:city": "E\u0142k", "addr:housenumber": "10B", "addr:street": "Adama Mickiewicza", "amenity": "pharmacy", "dispensing": "yes", "email": "geminielk@aptekigemini.pl", "healthcare": "pharmacy", "name": "Gemini", "phone": "+487328149", "ref:csioz": "1041207"}}, {"type": "node", "id": 1649648427, "lat": 53.8201314, "lon": 22.351589, "tags": {"addr:city": "E\u0142k", "addr:housenumber": "3", "addr:street": "Tadeusza Ko\u015bciuszki", "amenity": "pharmacy", "dispensing": "yes", "email": "elk.kosciuszki@cefarm36.pl", "healthcare": "pharmacy", "name": "Cef@Rm 36,6", "phone": "+48876215745", "ref:csioz": "1041362"}}, {"type": "node", "id": 1803594737, "lat": 53.8106409, "lon": 22.3608493, "tags": {"addr:city": "E\u0142k", "addr:housenumber": "42", "addr:street": "Jana Kili\u0144skiego", "amenity": "pharmacy", "dispensing": "yes", "email": "elk.kilinskiego@cefarm36.pl", "healthcare": "pharmacy", "name": "Cef@Rm 36,6", "phone": "+48876215744", "ref:csioz": "1041343"}}, {"type": "node", "id": 1979358137, "lat": 53.8306173, "lon": 22.3444944, "tags": {"addr:city": "E\u0142k", "addr:housenumber": "3", "addr:postcode": "19-300", "addr:street": "Genera\u0142a W\u0142adys\u0142awa Sikorskiego", "amenity": "pharmacy", "dispensing": "yes", "healthcare": "pharmacy", "name": "P\u00f3\u0142noc", "opening_hours": "Mo-Fr 08:00-19:00; Sa 08:00-14:00", "phone": "+48877321975", "ref:csioz": "1041370"}}, {"type": "node", "id": 2100501918, "lat": 53.8233076, "lon": 22.3544887, "tags": {"addr:city": "E\u0142k", "addr:housenumber": "19", "addr:street": "Armii Krajowej", "amenity": "pharmacy", "dispensing": "yes", "email": "geminielk2@aptekigemini.pl", "healthcare": "pharmacy", "name": "Gemini", "opening_hours": "Mo-Fr 08:00-20:00; Sa 08:00-18:00; Su 09:00-15:00", "ref:csioz": "1215120"}}, {"type": "node", "id": 2115097479, "lat": 53.8204996, "lon": 22.3468229, "tags": {"addr:city": "E\u0142k", "addr:housenumber": "45", "addr:postcode": "19-300", "addr:street": "Wojska Polskiego", "amenity": "pharmacy", "dispensing": "yes", "drive_through": "yes", "healthcare": "pharmacy", "name": "\u015aw. Brunona", "opening_hours": "24/7", "ref:csioz": "1041286", "website": "elk2.caritas.pl"}}, {"type": "node", "id": 2135157212, "lat": 53.808602, "lon": 22.3661931, "tags": {"addr:city": "E\u0142k", "addr:housenumber": "43", "addr:street": "Jana Kili\u0144skiego", "amenity": "pharmacy", "dispensing": "yes", "email": "elk.kilinskiego@leki-24.pl", "healthcare": "pharmacy", "name": "Asak", "phone": "+48876200799", "ref:csioz": "1041356"}}, {"type": "node", "id": 2135157213, "lat": 53.8111183, "lon": 22.3622453, "tags": {"addr:city": "E\u0142k", "addr:housenumber": "21", "addr:postcode": "19-300", "addr:street": "Jana Kili\u0144skiego", "amenity": "pharmacy", "dispensing": "yes", "email": "gryfix@gryfix.pl", "healthcare": "pharmacy", "name": "Aspirynka", "phone": "+48876216534", "ref:csioz": "1041163"}}, {"type": "node", "id": 2135157214, "lat": 53.8155674, "lon": 22.3617916, "tags": {"addr:city": "E\u0142k", "addr:housenumber": "30", "addr:street": "Targowa", "amenity": "pharmacy", "brand": "Dbam o Zdrowie", "brand:wikidata": "Q62563833", "dispensing": "yes", "email": "apt75644@dbamozdrowie.pl", "healthcare": "pharmacy", "name": "Dbam o Zdrowie", "phone": "+48876217486", "ref:csioz": "1041182", "short_name": "DOZ"}}, {"type": "node", "id": 2297887449, "lat": 53.799196, "lon": 22.3598528, "tags": {"addr:city": "E\u0142k", "addr:housenumber": "2", "addr:street": "Matki Teresy z Kalkuty", "amenity": "pharmacy", "dispensing": "yes", "drive_through": "yes", "email": "elk@wdoz.pl", "healthcare": "pharmacy", "name": "Wracam Do Zdrowia", "ref:csioz": "1041308"}}, {"type": "node", "id": 2299873515, "lat": 53.8006835, "lon": 22.3571033, "tags": {"addr:city": "E\u0142k", "addr:housenumber": "15A", "addr:postcode": "19-300", "addr:street": "Jana Paw\u0142a II", "amenity": "pharmacy", "dispensing": "yes", "healthcare": "pharmacy", "name": "Arnica", "phone": "+48876201675", "ref:csioz": "1041158"}}, {"type": "node", "id": 2377925946, "lat": 53.8361274, "lon": 22.3622815, "tags": {"addr:city": "E\u0142k", "addr:housenumber": "6", "addr:street": "Genera\u0142a Grota-Roweckiego", "amenity": "pharmacy", "dispensing": "yes", "email": "apteka@osak.com.pl", "healthcare": "pharmacy", "name": "Osak", "ref:csioz": "1041241"}}, {"type": "node", "id": 2510057115, "lat": 53.8264083, "lon": 22.3484457, "tags": {"addr:city": "E\u0142k", "addr:housenumber": "9", "addr:postcode": "19-300", "addr:street": "Marsza\u0142ka J\u00f3zefa Pi\u0142sudskiego", "amenity": "pharmacy", "dispensing": "yes", "healthcare": "pharmacy", "name": "Wile\u0144ska", "ref:csioz": "1041293"}}, {"type": "node", "id": 2524135691, "lat": 53.8420766, "lon": 22.980796, "tags": {"addr:city": "August\u00f3w", "addr:housenumber": "8", "addr:postcode": "16-300", "addr:street": "Ksi\u0119dza Ignacego Skorupki", "amenity": "pharmacy", "dispensing": "yes", "name": "Apteka \u015aw. Brunona", "ref:csioz": "1021941"}}, {"type": "node", "id": 2524264248, "lat": 53.8443905, "lon": 22.9806475, "tags": {"addr:city": "August\u00f3w", "addr:housenumber": "1", "addr:postcode": "16-300", "addr:street": "Mostowa", "amenity": "pharmacy", "dispensing": "yes", "healthcare": "pharmacy", "ref:csioz": "1022089"}}, {"type": "node", "id": 2524858673, "lat": 53.6464314, "lon": 22.4532306, "tags": {"addr:city": "Grajewo", "addr:housenumber": "15", "addr:postcode": "19-200", "addr:street": "J\u00f3zefa Pi\u0142sudskiego", "amenity": "pharmacy", "brand": "Dbam o Zdrowie", "brand:wikidata": "Q62563833", "dispensing": "yes", "healthcare": "pharmacy", "name": "Dbam o Zdrowie", "opening_hours": "Mo-Fr 08:00-18:00; Sa 09:00-15:00", "ref:csioz": "1020581", "short_name": "DOZ"}}, {"type": "node", "id": 2530741369, "lat": 53.8460371, "lon": 22.9788945, "tags": {"addr:city": "August\u00f3w", "addr:flats": "2", "addr:housenumber": "9", "addr:postcode": "16-300", "addr:street": "Wierzbna", "amenity": "pharmacy", "name": "Nowa Farmacja", "ref:csioz": "1017786"}}, {"type": "node", "id": 2541301858, "lat": 53.8915542, "lon": 22.3459788, "tags": {"addr:city": "Straduny", "addr:housenumber": "13", "addr:street": "Micha\u0142a Kajki", "amenity": "pharmacy", "dispensing": "yes", "name": "Punkt Apteczny", "ref:csioz": "1034507"}}, {"type": "node", "id": 2657452932, "lat": 53.6489054, "lon": 22.4553694, "tags": {"addr:city": "Grajewo", "addr:housenumber": "9", "addr:postcode": "19-200", "addr:street": "E\u0142cka", "amenity": "pharmacy", "dispensing": "yes", "healthcare": "pharmacy", "name": "Apteka Osak", "opening_hours": "Mo-Fr 08:00-19:00; Sa 08:00-14:00; Su off", "phone": "+48862723281", "ref:csioz": "1017247"}}, {"type": "node", "id": 2661878868, "lat": 53.6450376, "lon": 22.4635893, "tags": {"addr:city": "Grajewo", "addr:housenumber": "13", "addr:postcode": "19-200", "addr:street": "Konstytucji 3 Maja", "amenity": "pharmacy", "name": "Nowa Farmacja", "ref:csioz": "1017764"}}, {"type": "node", "id": 3006855825, "lat": 53.9887539, "lon": 22.7813119, "tags": {"addr:city": "Raczki", "addr:housenumber": "28", "addr:postcode": "16-420", "addr:street": "Plac Tadeusza Ko\u015bciuszki", "amenity": "pharmacy", "dispensing": "yes", "name": "Apteka (M. Korzeniowska)", "ref:csioz": "1023795"}}, {"type": "node", "id": 3037397964, "lat": 53.8030109, "lon": 22.3604446, "tags": {"addr:city": "E\u0142k", "addr:housenumber": "7", "addr:postcode": "19-301", "addr:street": "Jana Paw\u0142a II", "amenity": "pharmacy", "dispensing": "yes", "email": "elk.janapawlaii7@ap.info.pl", "healthcare": "pharmacy", "name": "Nowa Farmacja", "ref:csioz": "1041229"}}, {"type": "node", "id": 4124159833, "lat": 53.8254175, "lon": 22.3517788, "tags": {"addr:city": "E\u0142k", "addr:housenumber": "19", "addr:postcode": "19-300", "addr:street": "Adama Mickiewicza", "amenity": "pharmacy", "brand": "Dr. Max", "brand:wikidata": "Q56317371", "brand:wikipedia": "fr:Dr.Max", "dispensing": "yes", "email": "elk.mickiewicza19@drmax.pl", "healthcare": "pharmacy", "name": "Dr. Max", "ref:csioz": "1204295"}}, {"type": "node", "id": 4831103921, "lat": 54.0370932, "lon": 22.5061056, "tags": {"addr:city": "Olecko", "addr:housenumber": "25", "addr:street": "Plac Wolno\u015bci", "amenity": "pharmacy", "dispensing": "yes", "healthcare": "pharmacy", "name": "Nowa Farmacja", "ref:csioz": "1041623"}}, {"type": "node", "id": 5450615885, "lat": 54.0393089, "lon": 22.5043195, "tags": {"addr:city": "Olecko", "addr:housenumber": "12", "addr:street": "Plac Wolno\u015bci", "amenity": "pharmacy", "dispensing": "yes", "healthcare": "pharmacy", "name": "Gemini", "opening_hours": "Mo-Fr 08:00-20:00;Sa 09:00-18:00", "ref:csioz": "1201211"}}, {"type": "node", "id": 6547724729, "lat": 54.0392745, "lon": 22.5033819, "tags": {"addr:city": "Olecko", "addr:housenumber": "6", "addr:street": "Sk\u0142adowa", "amenity": "pharmacy", "dispensing": "yes", "healthcare": "pharmacy", "name": "Cef@Rm 36,6", "ref:csioz": "1041646"}}, {"type": "node", "id": 6768733213, "lat": 54.0965768, "lon": 22.6566751, "tags": {"addr:city": "Baka\u0142arzewo", "addr:housenumber": "4", "addr:postcode": "16-423", "addr:street": "Osiedle P\u00f3\u0142noc", "amenity": "pharmacy", "name": "Punkt apteczny (Agmar)", "ref:csioz": "1014448"}}, {"type": "node", "id": 9568072177, "lat": 53.8426678, "lon": 22.9780532, "tags": {"addr:city": "August\u00f3w", "addr:housenumber": "2A", "addr:postcode": "16-300", "addr:street": "Wojska Polskiego", "amenity": "pharmacy", "name": "Rodzinna", "ref:csioz": "1230887"}}, {"type": "node", "id": 9568072179, "lat": 53.8441723, "lon": 22.9808218, "tags": {"addr:city": "August\u00f3w", "addr:housenumber": "2", "addr:postcode": "16-300", "addr:street": "Mostowa", "amenity": "pharmacy", "brand": "Dr. Max", "brand:wikidata": "Q56317371", "healthcare": "pharmacy", "name": "Dr. Max", "ref:csioz": "1217266"}}, {"type": "node", "id": 9568072181, "lat": 53.7734608, "lon": 22.8228369, "tags": {"addr:city": "Barg\u0142\u00f3w Ko\u015bcielny", "addr:housenumber": "18", "addr:postcode": "16-320", "addr:street": "Augustowska", "amenity": "pharmacy", "name": "Chaber", "ref:csioz": "1207506"}}, {"type": "node", "id": 9568072182, "lat": 53.8378839, "lon": 22.9733003, "tags": {"addr:city": "August\u00f3w", "addr:housenumber": "53", "addr:postcode": "16-300", "addr:street": "Wojska Polskiego", "amenity": "pharmacy", "name": "Gemini", "ref:csioz": "1184996"}}, {"type": "node", "id": 9568072186, "lat": 53.8393004, "lon": 22.9825419, "tags": {"addr:city": "August\u00f3w", "addr:housenumber": "2B", "addr:postcode": "16-300", "addr:street": "Ho\u017ca", "amenity": "pharmacy", "name": "Arnica", "ref:csioz": "1022282"}}, {"type": "node", "id": 9568072191, "lat": 53.8388099, "lon": 22.9742557, "tags": {"addr:city": "August\u00f3w", "addr:housenumber": "51", "addr:postcode": "16-300", "addr:street": "Wojska Polskiego", "amenity": "pharmacy", "name": "Apteka (M. Otto)", "ref:csioz": "1023486"}}, {"type": "node", "id": 9575606194, "lat": 53.6423975, "lon": 22.4656033, "tags": {"addr:city": "Grajewo", "addr:housenumber": "41", "addr:postcode": "19-203", "addr:street": "Koszarowa", "amenity": "pharmacy", "name": "Apteka Cis", "ref:csioz": "1019725"}}, {"type": "node", "id": 9575606195, "lat": 53.6452897, "lon": 22.46434, "tags": {"addr:city": "Grajewo", "addr:housenumber": "17", "addr:postcode": "19-203", "addr:street": "Konstytucji 3 Maja", "amenity": "pharmacy", "name": "Arnika", "ref:csioz": "1110891"}}, {"type": "node", "id": 9575606197, "lat": 53.6420206, "lon": 22.4601477, "tags": {"addr:city": "Grajewo", "addr:housenumber": "50", "addr:postcode": "19-200", "addr:street": "Wojska Polskiego", "amenity": "pharmacy", "name": "Apteka Gemini", "ref:csioz": "1207204"}}, {"type": "node", "id": 9575606198, "lat": 53.7307696, "lon": 22.6831614, "tags": {"addr:city": "Rajgr\u00f3d", "addr:housenumber": "6", "addr:postcode": "19-206", "addr:street": "Franciszka Zabielskiego", "amenity": "pharmacy", "dispensing": "yes", "healthcare": "pharmacy", "name": "Vita", "ref:csioz": "1182683"}}, {"type": "node", "id": 9575606199, "lat": 53.6467731, "lon": 22.4508753, "tags": {"addr:city": "Grajewo", "addr:housenumber": "5", "addr:postcode": "19-200", "addr:street": "Kolejowa", "amenity": "pharmacy", "name": "\"Apteka \"\"Vita\"\"\"", "ref:csioz": "1020446"}}, {"type": "node", "id": 9575606201, "lat": 53.6441131, "lon": 22.4641925, "tags": {"addr:city": "Grajewo", "addr:housenumber": "47", "addr:postcode": "19-200", "addr:street": "Osiedle Po\u0142udnie", "amenity": "pharmacy", "name": "Apteka Cef@Rm 36,6", "ref:csioz": "1022969"}}, {"type": "node", "id": 9592317918, "lat": 53.83362, "lon": 22.3362369, "tags": {"addr:city": "E\u0142k", "addr:housenumber": "20/1U", "addr:street": "Juliana Tuwima", "amenity": "pharmacy", "brand": "Gemini", "brand:wikidata": "Q130243797", "dispensing": "yes", "healthcare": "pharmacy", "name": "Gemini", "opening_hours": "Mo-Fr 08:00-20:00; Sa 08:00-16:00", "ref:csioz": "1210867"}}, {"type": "node", "id": 9592317919, "lat": 53.9210624, "lon": 22.1741476, "tags": {"addr:city": "Stare Juchy", "addr:housenumber": "15", "addr:street": "E\u0142cka", "amenity": "pharmacy", "dispensing": "yes", "email": "juchy.500lecia@leki-24.pl", "name": "Punkt Apteczny", "ref:csioz": "1186349"}}, {"type": "node", "id": 9592317920, "lat": 53.6941795, "lon": 22.4405585, "tags": {"addr:city": "Prostki", "addr:housenumber": "15A", "addr:street": "1 Maja", "amenity": "pharmacy", "dispensing": "yes", "name": "Remedium", "ref:csioz": "1041806"}}, {"type": "node", "id": 9592317921, "lat": 53.8326807, "lon": 22.3429179, "tags": {"addr:city": "E\u0142k", "addr:housenumber": "12", "addr:postcode": "19-300", "addr:street": "Micha\u0142a Kajki", "amenity": "pharmacy", "dispensing": "yes", "email": "elk-kajki@leki-24.pl", "healthcare": "pharmacy", "opening_hours": "Mo-Fr 08:00-19:00; Sa 08:00-16:00", "ref:csioz": "1041335"}}, {"type": "node", "id": 9592317922, "lat": 53.7937781, "lon": 22.338934, "tags": {"addr:city": "E\u0142k", "addr:housenumber": "24", "addr:street": "Baranki", "amenity": "pharmacy", "dispensing": "yes", "name": "\u015aw. Brunona", "ref:csioz": "1041264"}}, {"type": "node", "id": 9592317923, "lat": 53.6940065, "lon": 22.4407342, "tags": {"addr:city": "Prostki", "addr:housenumber": "15", "addr:street": "1 Maja", "amenity": "pharmacy", "dispensing": "yes", "healthcare": "pharmacy", "name": "Punkt Apteczny \u015aw. Brunona", "ref:csioz": "1034483"}}, {"type": "node", "id": 9592317924, "lat": 53.8234853, "lon": 22.5739906, "tags": {"addr:housenumber": "58", "addr:place": "Pisanica", "amenity": "pharmacy", "dispensing": "yes", "email": "aptekawilenska@tlen.pl", "name": "Punkt Apteczny", "ref:csioz": "1034471"}}, {"type": "node", "id": 9598280898, "lat": 54.042408, "lon": 22.4963751, "tags": {"addr:city": "Olecko", "addr:housenumber": "1", "addr:street": "Go\u0142dapska", "amenity": "pharmacy", "dispensing": "yes", "fixme": "Lokalizacja do weryfikacji", "healthcare": "pharmacy", "name": "Melissa", "ref:csioz": "1217860"}}, {"type": "node", "id": 9598280899, "lat": 54.0382977, "lon": 22.5019925, "tags": {"addr:city": "Olecko", "addr:housenumber": "9", "addr:street": "11 Listopada", "amenity": "pharmacy", "dispensing": "yes", "fixme": "Lokalizacja do weryfikacji", "healthcare": "pharmacy", "name": "Nowa Farmacja", "ref:csioz": "1192675"}}, {"type": "node", "id": 9598280900, "lat": 53.9854881, "lon": 22.5538767, "tags": {"addr:city": "Wieliczki", "addr:housenumber": "14", "addr:street": "Jeziorna", "amenity": "pharmacy", "dispensing": "yes", "fixme": "Lokalizacja do weryfikacji", "name": "Vita", "ref:csioz": "1041920"}}, {"type": "node", "id": 9598280901, "lat": 54.0011349, "lon": 22.3200893, "tags": {"addr:housenumber": "104", "addr:place": "\u015awi\u0119tajno", "amenity": "pharmacy", "dispensing": "yes", "fixme": "Lokalizacja do weryfikacji", "ref:csioz": "1041854"}}, {"type": "node", "id": 9598280902, "lat": 54.039179, "lon": 22.4997221, "tags": {"addr:city": "Olecko", "addr:housenumber": "37", "addr:street": "Zielona", "amenity": "pharmacy", "dispensing": "yes", "healthcare": "pharmacy", "name": "Cef@Rm 36,6", "ref:csioz": "1041672"}}, {"type": "node", "id": 9598280903, "lat": 54.0389951, "lon": 22.4997828, "tags": {"addr:city": "Olecko", "addr:housenumber": "35", "addr:street": "Zielona", "amenity": "pharmacy", "dispensing": "yes", "healthcare": "pharmacy", "name": "Vist", "ref:csioz": "1041667"}}, {"type": "node", "id": 9598280904, "lat": 54.0375279, "lon": 22.5030032, "tags": {"addr:city": "Olecko", "addr:housenumber": "7B", "addr:street": "Plac Wolno\u015bci", "amenity": "pharmacy", "dispensing": "yes", "healthcare": "pharmacy", "ref:csioz": "1041651"}}, {"type": "node", "id": 10269876869, "lat": 53.643176, "lon": 22.4610378, "tags": {"amenity": "pharmacy", "dispensing": "yes", "healthcare": "pharmacy", "name": "Remedium", "ref:csioz": "1025227"}}, {"type": "node", "id": 10269876870, "lat": 53.6430945, "lon": 22.460924, "tags": {"amenity": "pharmacy", "brand": "Dbam o Zdrowie", "brand:wikidata": "Q62563833", "dispensing": "yes", "healthcare": "pharmacy", "name": "Dbam o Zdrowie", "ref:csioz": "1023168", "short_name": "DOZ"}}, {"type": "node", "id": 10270074465, "lat": 53.7302879, "lon": 22.6828996, "tags": {"amenity": "pharmacy", "dispensing": "yes", "healthcare": "pharmacy", "name": "Punkt Apteczny", "ref:csioz": "1015913"}}]}