{"version": 0.6, "generator": "Overpass API 0.7.62.8 e802775f", "osm3s": {"timestamp_osm_base": "2025-10-06T08:05:52Z", "copyright": "The data included in this document is from www.openstreetmap.org. The data is made available under ODbL."}, "elements": [{"type": "node", "id": 1129796244, "lat": 40.5561939, "lon": 22.4734507, "tags": {"amenity": "pharmacy", "healthcare": "pharmacy"}}, {"type": "node", "id": 1731397254, "lat": 40.2644871, "lon": 22.5084896, "tags": {"addr:city": "\u039a\u03b1\u03c4\u03b5\u03c1\u03af\u03bd\u03b7", "addr:housenumber": "102", "addr:postcode": "601 32", "addr:street": "\u03a4\u03ac\u03ba\u03b7 \u03a4\u03b5\u03c1\u03b6\u03bf\u03c0\u03bf\u03cd\u03bb\u03bf\u03c5", "amenity": "pharmacy", "healthcare": "pharmacy", "name": "\u03a7\u03b1\u03bc\u03b1\u03bb\u03ac\u03ba\u03b7", "operator": "\u03a3\u03c5\u03c3\u03c4\u03b5\u03b3\u03b1\u03c3\u03bc\u03ad\u03bd\u03b1 \u03a6\u03b1\u03c1\u03bc\u03b1\u03ba\u03b5\u03af\u03b1 \u03a7\u03b1\u03bc\u03b1\u03bb\u03ac\u03ba\u03b7\u03c2 \u0391\u03bd\u03b1\u03c3\u03c4\u03ac\u03c3\u03b9\u03bf\u03c2 \u03a7\u03b1\u03bc\u03b1\u03bb\u03ac\u03ba\u03b7 \u0398\u03b5\u03bf\u03c0\u03af\u03b1 \u039f\u0395"}}, {"type": "node", "id": 1731397255, "lat": 40.2682344, "lon": 22.5056156, "tags": {"addr:city": "\u039a\u03b1\u03c4\u03b5\u03c1\u03af\u03bd\u03b7", "addr:housenumber": "45-47", "addr:postcode": "601 32", "addr:street": "\u03a0\u03b1\u03c1\u03bc\u03b5\u03bd\u03af\u03c9\u03bd\u03bf\u03c2", "amenity": "pharmacy", "healthcare": "pharmacy", "name": "\u03a7\u03b1\u03c1\u03b1\u03bb\u03b1\u03bc\u03c0\u03af\u03b4\u03b7\u03c2", "operator": "\u03a7\u03b1\u03c1\u03b1\u03bb\u03b1\u03bc\u03c0\u03af\u03b4\u03b7\u03c2 \u0393\u03b5\u03ce\u03c1\u03b3\u03b9\u03bf\u03c2"}}, {"type": "node", "id": 1731397256, "lat": 40.2637322, "lon": 22.5085023, "tags": {"addr:city": "\u039a\u03b1\u03c4\u03b5\u03c1\u03af\u03bd\u03b7", "addr:housenumber": "112", "addr:postcode": "601 32", "addr:street": "\u03a4\u03ac\u03ba\u03b7 \u03a4\u03b5\u03c1\u03b6\u03bf\u03c0\u03bf\u03cd\u03bb\u03bf\u03c5", "amenity": "pharmacy", "healthcare": "pharmacy", "name": "\u0391\u03b3\u03b1\u03c0\u03bf\u03cd\u03b4\u03b1", "operator": "\u03a3\u03c5\u03c3\u03c4\u03b5\u03b3\u03b1\u03c3\u03bc\u03ad\u03bd\u03b1 \u03a6\u03b1\u03c1\u03bc\u03b1\u03ba\u03b5\u03af\u03b1 \u0391\u03b3\u03b1\u03c0\u03bf\u03cd\u03b4\u03b1\u03c2 \u0394\u03b7\u03bc\u03ae\u03c4\u03c1\u03b9\u03bf\u03c2 \u0391\u03b3\u03b1\u03c0\u03bf\u03cd\u03b4\u03b1 \u0391\u03bd\u03b1\u03c3\u03c4\u03b1\u03c3\u03af\u03b1 \u039f\u0395"}}, {"type": "node", "id": 1731397723, "lat": 40.2706007, "lon": 22.5111732, "tags": {"addr:city": "\u039a\u03b1\u03c4\u03b5\u03c1\u03af\u03bd\u03b7", "addr:housenumber": "29", "addr:postcode": "601 34", "addr:street": "\u0395\u03b9\u03c1\u03ae\u03bd\u03b7\u03c2", "amenity": "pharmacy", "healthcare": "pharmacy", "name": "\u039a\u03b1\u03c1\u03ba\u03b1\u03bb\u03ad\u03c4\u03c3\u03b7", "operator": "\u039a\u03b1\u03c1\u03ba\u03b1\u03bb\u03ad\u03c4\u03c3\u03b7 \u03a7\u03c1\u03b9\u03c3\u03c4\u03af\u03bd\u03b1 \u03ba\u03b1\u03b9 \u03a3\u03af\u03b1 \u039f\u0395"}}, {"type": "node", "id": 1731397725, "lat": 40.2701452, "lon": 22.5122082, "tags": {"addr:city": "\u039a\u03b1\u03c4\u03b5\u03c1\u03af\u03bd\u03b7", "addr:housenumber": "1", "addr:postcode": "601 32", "addr:street": "\u03a4\u03ac\u03ba\u03b7 \u03a4\u03b5\u03c1\u03b6\u03bf\u03c0\u03bf\u03cd\u03bb\u03bf\u03c5", "amenity": "pharmacy", "healthcare": "pharmacy", "name": "\u03a3\u03c4\u03c5\u03bb\u03b9\u03b1\u03bd\u03af\u03b4\u03bf\u03c5-\u0399\u03c3\u03b1\u03ac\u03ba", "operator": "\u03a3\u03c5\u03c3\u03c4\u03b5\u03b3\u03b1\u03c3\u03bc\u03ad\u03bd\u03b1 \u03a6\u03b1\u03c1\u03bc\u03b1\u03ba\u03b5\u03af\u03b1 \u03a3\u03c4\u03c5\u03bb\u03b9\u03b1\u03bd\u03af\u03b4\u03bf\u03c5 \u0394\u03ad\u03c3\u03c0\u03bf\u03b9\u03bd\u03b1 \u0399\u03c3\u03b1\u03ac\u03ba \u0391\u03bd\u03c4\u03ce\u03bd\u03b9\u03bf\u03c2 \u039f\u0395"}}, {"type": "node", "id": 1731437023, "lat": 40.2718688, "lon": 22.5041101, "tags": {"addr:city": "\u039a\u03b1\u03c4\u03b5\u03c1\u03af\u03bd\u03b7", "addr:housenumber": "1", "addr:postcode": "601 33", "addr:street": "\u0396\u03b1\u03bb\u03cc\u03b3\u03b3\u03bf\u03c5", "amenity": "pharmacy", "healthcare": "pharmacy", "name": "\u039a\u03b1\u03c4\u03c3\u03b1\u03bc\u03ac\u03b3\u03ba\u03b1", "operator": "\u039a\u03b1\u03c4\u03c3\u03b1\u03bc\u03ac\u03b3\u03ba\u03b1 \u0395\u03b9\u03c1\u03ae\u03bd\u03b7"}}, {"type": "node", "id": 1731437027, "lat": 40.2718743, "lon": 22.4981216, "tags": {"addr:city": "\u039a\u03b1\u03c4\u03b5\u03c1\u03af\u03bd\u03b7", "addr:housenumber": "26", "addr:postcode": "601 33", "addr:street": "7\u03b7\u03c2 \u039c\u03b5\u03c1\u03b1\u03c1\u03c7\u03af\u03b1\u03c2", "amenity": "pharmacy", "healthcare": "pharmacy", "name": "\u03a3\u03c5\u03bc\u03b5\u03c9\u03bd\u03af\u03b4\u03b7", "operator": "\u03a3\u03c5\u03c3\u03c4\u03b5\u03b3\u03b1\u03c3\u03bc\u03ad\u03bd\u03b1 \u03a6\u03b1\u03c1\u03bc\u03b1\u03ba\u03b5\u03af\u03b1 \u03a3\u03c5\u03bc\u03b5\u03c9\u03bd\u03af\u03b4\u03b7\u03c2 \u03a0\u03bf\u03bb\u03c5\u03c7\u03c1\u03cc\u03bd\u03b7\u03c2 - \u03a3\u03c5\u03bc\u03b5\u03c9\u03bd\u03af\u03b4\u03bf\u03c5 \u039a\u03c5\u03c1\u03b9\u03b1\u03ba\u03ae \u039f\u0395"}}, {"type": "node", "id": 1731442975, "lat": 40.2628707, "lon": 22.512071, "tags": {"addr:city": "\u039a\u03b1\u03c4\u03b5\u03c1\u03af\u03bd\u03b7", "addr:housenumber": "9", "addr:postcode": "601 32", "addr:street": "\u0397\u03c0\u03b5\u03af\u03c1\u03bf\u03c5", "amenity": "pharmacy", "healthcare": "pharmacy", "name": "\u039a\u03b1\u03c1\u03b1\u03b2\u03af\u03b4\u03b1", "operator": "\u039a\u03b1\u03c1\u03b1\u03b2\u03af\u03b4\u03b1 \u0395\u03bb\u03b5\u03c5\u03b8\u03b5\u03c1\u03af\u03b1"}}, {"type": "node", "id": 1731443679, "lat": 40.2707056, "lon": 22.506967, "tags": {"addr:city": "\u039a\u03b1\u03c4\u03b5\u03c1\u03af\u03bd\u03b7", "addr:housenumber": "2", "addr:postcode": "601 32", "addr:street": "\u0399\u03c9\u03ac\u03bd\u03bd\u03bf\u03c5 \u039a\u03bf\u03c3\u03bc\u03ac", "amenity": "pharmacy", "healthcare": "pharmacy", "name": "\u03a4\u03c1\u03b9\u03b1\u03bd\u03c4\u03b1\u03c6\u03cd\u03bb\u03bb\u03bf\u03c5", "operator": "\u03a3\u03c5\u03c3\u03c4\u03b5\u03b3\u03b1\u03c3\u03bc\u03ad\u03bd\u03b1 \u03a6\u03b1\u03c1\u03bc\u03b1\u03ba\u03b5\u03af\u03b1 \u03a4\u03c1\u03b9\u03b1\u03bd\u03c4\u03b1\u03c6\u03cd\u03bb\u03bb\u03bf\u03c5 \u039d\u03b9\u03ba\u03cc\u03bb\u03b1\u03bf\u03c2 \u03a4\u03c1\u03b9\u03b1\u03bd\u03c4\u03b1\u03c6\u03cd\u03bb\u03bb\u03bf\u03c5 \u0395\u03bb\u03ad\u03bd\u03b7 \u039f\u0395"}}, {"type": "node", "id": 1731444288, "lat": 40.2716312, "lon": 22.5100401, "tags": {"addr:city": "\u039a\u03b1\u03c4\u03b5\u03c1\u03af\u03bd\u03b7", "addr:housenumber": "7", "addr:postcode": "601 34", "addr:street": "\u03a0\u03b1\u03bd\u03b1\u03b3\u03ae \u03a4\u03c3\u03b1\u03bb\u03b4\u03ac\u03c1\u03b7", "amenity": "pharmacy", "healthcare": "pharmacy", "name": "\u039c\u03b1\u03c1\u03b9\u03bd\u03cc\u03c0\u03bf\u03c5\u03bb\u03bf\u03c2", "operator": "\u03a3\u03c5\u03c3\u03c4\u03b5\u03b3\u03b1\u03c3\u03bc\u03ad\u03bd\u03b1 \u03a6\u03b1\u03c1\u03bc\u03b1\u03ba\u03b5\u03af\u03b1 \u039c\u03b1\u03c1\u03b9\u03bd\u03cc\u03c0\u03bf\u03c5\u03bb\u03bf\u03c2 \u0394\u03b7\u03bc\u03ae\u03c4\u03c1\u03b9\u03bf\u03c2 \u039c\u03b1\u03c1\u03b9\u03bd\u03cc\u03c0\u03bf\u03c5\u03bb\u03bf\u03c2 \u0393\u03c1\u03b7\u03b3\u03cc\u03c1\u03b9\u03bf\u03c2 \u039f\u0395"}}, {"type": "node", "id": 1753754671, "lat": 40.4151915, "lon": 22.6054573, "tags": {"amenity": "pharmacy", "healthcare": "pharmacy"}}, {"type": "node", "id": 3089764136, "lat": 40.3489765, "lon": 22.4288713, "tags": {"amenity": "pharmacy"}}, {"type": "node", "id": 4248013584, "lat": 40.2677467, "lon": 22.5968744, "tags": {"amenity": "pharmacy", "healthcare": "pharmacy"}}, {"type": "node", "id": 4253100904, "lat": 40.2666034, "lon": 22.5967979, "tags": {"amenity": "pharmacy", "healthcare": "pharmacy"}}, {"type": "node", "id": 4369377110, "lat": 40.2742332, "lon": 22.5143541, "tags": {"amenity": "pharmacy", "healthcare": "pharmacy", "name": "\u0394\u03ae\u03bc\u03bf\u03c5", "operator": "\u03a3\u03c5\u03c3\u03c4\u03b5\u03b3\u03b1\u03c3\u03bc\u03ad\u03bd\u03b1 \u03a6\u03b1\u03c1\u03bc\u03b1\u03ba\u03b5\u03af\u03b1 \u0394\u03ae\u03bc\u03bf\u03c5 \u039a\u03c9\u03bd\u03c3\u03c4\u03b1\u03bd\u03c4\u03af\u03bd\u03bf\u03c2 \u0394\u03ae\u03bc\u03bf\u03c5 \u0399\u03c9\u03ac\u03bd\u03bd\u03b1 \u039f\u0395"}}, {"type": "node", "id": 4422857803, "lat": 40.270469, "lon": 22.5115834, "tags": {"addr:city": "\u039a\u03b1\u03c4\u03b5\u03c1\u03af\u03bd\u03b7", "addr:housenumber": "33", "addr:postcode": "601 34", "addr:street": "\u0395\u03b9\u03c1\u03ae\u03bd\u03b7\u03c2", "amenity": "pharmacy", "healthcare": "pharmacy", "name": "\u039a\u03c9\u03bd\u03c3\u03c4\u03b1\u03bd\u03c4\u03b9\u03bd\u03af\u03b4\u03bf\u03c5", "operator": "\u039a\u03c9\u03bd\u03c3\u03c4\u03b1\u03bd\u03c4\u03b9\u03bd\u03af\u03b4\u03bf\u03c5 \u038c\u03bb\u03b3\u03b1"}}, {"type": "node", "id": 4422857807, "lat": 40.2708712, "lon": 22.5097477, "tags": {"addr:city": "\u039a\u03b1\u03c4\u03b5\u03c1\u03af\u03bd\u03b7", "addr:housenumber": "6", "addr:postcode": "601 32", "addr:street": "\u0395\u03b9\u03c1\u03ae\u03bd\u03b7\u03c2", "amenity": "pharmacy", "healthcare": "pharmacy", "name": "\u039a\u03b1\u03c1\u03b1\u03b2\u03ad\u03c1\u03b3\u03bf\u03c5", "operator": "\u03a3\u03c5\u03c3\u03c4\u03b5\u03b3\u03b1\u03c3\u03bc\u03ad\u03bd\u03b1 \u03a6\u03b1\u03c1\u03bc\u03b1\u03ba\u03b5\u03af\u03b1 \u0391\u03bd\u03b1\u03c3\u03c4\u03b1\u03c3\u03af\u03b1 \u03ba\u03b1\u03b9 \u0391\u03b9\u03ba\u03b1\u03c4\u03b5\u03c1\u03af\u03bd\u03b7 \u039a\u03b1\u03c1\u03b1\u03b2\u03ad\u03c1\u03b3\u03bf\u03c5 \u039f\u0395"}}, {"type": "node", "id": 4455814001, "lat": 40.2694886, "lon": 22.5143743, "tags": {"addr:city": "\u039a\u03b1\u03c4\u03b5\u03c1\u03af\u03bd\u03b7", "addr:housenumber": "48", "addr:postcode": "601 32", "addr:street": "\u0395\u03b9\u03c1\u03ae\u03bd\u03b7\u03c2", "amenity": "pharmacy", "healthcare": "pharmacy", "name": "\u039a\u03b1\u03bd\u03bf\u03bd\u03af\u03b4\u03bf\u03c5", "operator": "\u039a\u03b1\u03bd\u03bf\u03bd\u03af\u03b4\u03bf\u03c5 \u039a\u03c5\u03c1\u03b9\u03b1\u03ba\u03ae"}}, {"type": "node", "id": 4481505563, "lat": 40.2715887, "lon": 22.5023487, "tags": {"addr:city": "\u039a\u03b1\u03c4\u03b5\u03c1\u03af\u03bd\u03b7", "addr:housenumber": "75", "addr:postcode": "601 32", "addr:street": "\u039c\u03b5\u03b3\u03ac\u03bb\u03bf\u03c5 \u0391\u03bb\u03b5\u03be\u03ac\u03bd\u03b4\u03c1\u03bf\u03c5", "amenity": "pharmacy", "healthcare": "pharmacy", "name": "\u039c\u03c0\u03b1\u03ba\u03b1\u03bb\u03ac\u03ba\u03bf\u03c5", "operator": "\u039c\u03c0\u03b1\u03ba\u03b1\u03bb\u03ac\u03ba\u03bf\u03c5 \u0392\u03ac\u03b9\u03b1-\u0391\u03c1\u03b3\u03c5\u03c1\u03ce"}}, {"type": "node", "id": 4688882236, "lat": 40.2694581, "lon": 22.5086105, "tags": {"addr:city": "\u039a\u03b1\u03c4\u03b5\u03c1\u03af\u03bd\u03b7", "addr:housenumber": "5", "addr:postcode": "601 32", "addr:street": "\u0394\u03b9\u03bf\u03bd\u03c5\u03c3\u03af\u03bf\u03c5 \u0391\u03c1\u03b5\u03bf\u03c0\u03b1\u03b3\u03af\u03c4\u03bf\u03c5", "amenity": "pharmacy", "dispensing": "yes", "disused:amenity": "restaurant", "healthcare": "pharmacy", "name": "\u039d\u03c4\u03cc\u03c1\u03b1\u03c2", "operator": "\u039d\u03c4\u03cc\u03c1\u03b1\u03c2 \u03a7\u03c1\u03ae\u03c3\u03c4\u03bf\u03c2"}}, {"type": "node", "id": 4690473694, "lat": 40.2690952, "lon": 22.5109137, "tags": {"addr:city": "\u039a\u03b1\u03c4\u03b5\u03c1\u03af\u03bd\u03b7", "addr:housenumber": "34", "addr:postcode": "601 32", "addr:street": "25\u03b7\u03c2 \u039c\u03b1\u03c1\u03c4\u03af\u03bf\u03c5", "amenity": "pharmacy", "healthcare": "pharmacy", "name": "\u03a3\u03b9\u03b1\u03ba\u03b1\u03b2\u03ac\u03c1\u03b1", "operator": "\u03a3\u03b9\u03b1\u03ba\u03b1\u03b2\u03ac\u03c1\u03b1 \u03a7\u03c1\u03b9\u03c3\u03c4\u03af\u03bd\u03b1"}}, {"type": "node", "id": 4711840949, "lat": 40.2748074, "lon": 22.5046463, "tags": {"addr:city": "\u039a\u03b1\u03c4\u03b5\u03c1\u03af\u03bd\u03b7", "addr:housenumber": "8", "addr:postcode": "601 33", "addr:street": "\u0394\u03bf\u03c1\u03c5\u03bb\u03b1\u03af\u03bf\u03c5", "amenity": "pharmacy", "healthcare": "pharmacy", "name": "\u039f\u03b9\u03ba\u03bf\u03bd\u03cc\u03bc\u03bf\u03c5", "operator": "\u039f\u03b9\u03ba\u03bf\u03bd\u03cc\u03bc\u03bf\u03c5 \u03a7\u03c1\u03ae\u03c3\u03c4\u03bf\u03c2"}}, {"type": "node", "id": 4711840950, "lat": 40.2717628, "lon": 22.5086935, "tags": {"addr:city": "\u039a\u03b1\u03c4\u03b5\u03c1\u03af\u03bd\u03b7", "addr:housenumber": "1", "addr:postcode": "601 33", "addr:street": "\u0395\u03b8\u03bd\u03b9\u03ba\u03ae\u03c2 \u0391\u03bd\u03c4\u03b9\u03c3\u03c4\u03ac\u03c3\u03b5\u03c9\u03c2", "amenity": "pharmacy", "healthcare": "pharmacy", "name": "\u03a0\u03b1\u03c0\u03b1\u03bc\u03ac\u03bd\u03bf\u03c2", "operator": "\u03a0\u03b1\u03c0\u03b1\u03bc\u03ac\u03bd\u03bf\u03c2 \u0394\u03b7\u03bc\u03ae\u03c4\u03c1\u03b9\u03bf\u03c2"}}, {"type": "node", "id": 4711840951, "lat": 40.2710107, "lon": 22.5085657, "tags": {"addr:city": "\u039a\u03b1\u03c4\u03b5\u03c1\u03af\u03bd\u03b7", "addr:housenumber": "16", "addr:postcode": "601 32", "addr:street": "\u03a0\u03bb\u03b1\u03c4\u03b5\u03af\u03b1 \u0395\u03bb\u03b5\u03c5\u03b8\u03b5\u03c1\u03af\u03b1\u03c2", "amenity": "pharmacy", "healthcare": "pharmacy", "name": "\u0396\u03ac\u03bd\u03bd\u03b1\u03c2", "operator": "\u03a3\u03c5\u03c3\u03c4\u03b5\u03b3\u03b1\u03c3\u03bc\u03ad\u03bd\u03b1 \u03a6\u03b1\u03c1\u03bc\u03b1\u03ba\u03b5\u03af\u03b1 \u0396\u03ac\u03bd\u03bd\u03b1\u03c2 \u0393\u03c1\u03b7\u03b3\u03cc\u03c1\u03b9\u03bf\u03c2 \u0396\u03ac\u03bd\u03bd\u03b1\u03c2 \u0391\u03bb\u03ad\u03be\u03b1\u03bd\u03b4\u03c1\u03bf\u03c2 \u039f\u0395"}}, {"type": "node", "id": 4715290165, "lat": 40.2722791, "lon": 22.5095754, "tags": {"addr:city": "\u039a\u03b1\u03c4\u03b5\u03c1\u03af\u03bd\u03b7", "addr:housenumber": "3", "addr:postcode": "601 34", "addr:street": "\u0392\u03cc\u03c4\u03c3\u03b7", "amenity": "pharmacy", "healthcare": "pharmacy", "name": "\u039a\u03b1\u03b6\u03b1\u03bd\u03c4\u03b6\u03cc\u03b3\u03bb\u03bf\u03c5", "operator": "\u039a\u03b1\u03b6\u03b1\u03bd\u03c4\u03b6\u03cc\u03b3\u03bb\u03bf\u03c5 \u0395\u03bb\u03ad\u03bd\u03b7"}}, {"type": "node", "id": 4741159792, "lat": 40.2717225, "lon": 22.502701, "tags": {"amenity": "pharmacy", "healthcare": "pharmacy", "name": "\u03a1\u03b1\u03c6\u03c4\u03cc\u03c0\u03bf\u03c5\u03bb\u03bf\u03c2", "operator": "\u03a1\u03b1\u03c6\u03c4\u03cc\u03c0\u03bf\u03c5\u03bb\u03bf\u03c2 \u0394\u03b7\u03bc\u03ae\u03c4\u03c1\u03b9\u03bf\u03c2"}}, {"type": "node", "id": 4751102531, "lat": 40.2720324, "lon": 22.5068308, "tags": {"addr:city": "\u039a\u03b1\u03c4\u03b5\u03c1\u03af\u03bd\u03b7", "addr:housenumber": "21", "addr:postcode": "601 33", "addr:street": "16\u03b7\u03c2 \u039f\u03ba\u03c4\u03c9\u03b2\u03c1\u03af\u03bf\u03c5", "amenity": "pharmacy", "healthcare": "pharmacy", "name": "\u03a4\u03c3\u03b9\u03c1\u03cc\u03c0\u03bf\u03c5\u03bb\u03bf\u03c2", "operator": "\u03a4\u03c3\u03b9\u03c1\u03cc\u03c0\u03bf\u03c5\u03bb\u03bf\u03c2 \u0392\u03b1\u03c3\u03af\u03bb\u03b5\u03b9\u03bf\u03c2"}}, {"type": "node", "id": 4751102534, "lat": 40.2708932, "lon": 22.5085526, "tags": {"addr:city": "\u039a\u03b1\u03c4\u03b5\u03c1\u03af\u03bd\u03b7", "addr:housenumber": "1", "addr:postcode": "601 32", "addr:street": "\u0393\u03b5\u03c9\u03c1\u03b3\u03ac\u03ba\u03b7 \u039f\u03bb\u03c5\u03bc\u03c0\u03af\u03bf\u03c5", "amenity": "pharmacy", "healthcare": "pharmacy", "name": "\u03a0\u03bf\u03bb\u03c5\u03c7\u03c1\u03bf\u03bd\u03b9\u03ac\u03b4\u03bf\u03c5", "operator": "\u03a0\u03bf\u03bb\u03c5\u03c7\u03c1\u03bf\u03bd\u03b9\u03ac\u03b4\u03bf\u03c5 \u03a6\u03b1\u03af\u03b7"}}, {"type": "node", "id": 4758859852, "lat": 40.2730204, "lon": 22.5136406, "tags": {"addr:city": "\u039a\u03b1\u03c4\u03b5\u03c1\u03af\u03bd\u03b7", "addr:housenumber": "39", "addr:postcode": "601 34", "addr:street": "\u0398\u03b5\u03c3\u03c3\u03b1\u03bb\u03bf\u03bd\u03af\u03ba\u03b7\u03c2", "amenity": "pharmacy", "healthcare": "pharmacy", "name": "\u039c\u03c5\u03c3\u03c4\u03c1\u03af\u03b4\u03b7\u03c2", "operator": "\u03a3\u03c5\u03c3\u03c4\u03b5\u03b3\u03b1\u03c3\u03bc\u03ad\u03bd\u03b1 \u03a6\u03b1\u03c1\u03bc\u03b1\u03ba\u03b5\u03af\u03b1 \u039c\u03c5\u03c3\u03c4\u03c1\u03af\u03b4\u03b7\u03c2 \u0391\u03bd\u03ad\u03c3\u03c4\u03b7\u03c2 \u03ba\u03b1\u03b9 \u0393\u03b5\u03ce\u03c1\u03b3\u03b9\u03bf\u03c2 \u039f\u0395"}}, {"type": "node", "id": 4759698103, "lat": 40.2743086, "lon": 22.5409578, "tags": {"addr:city": "\u03a0\u03b5\u03c1\u03af\u03c3\u03c4\u03b1\u03c3\u03b7", "addr:housenumber": "2", "addr:postcode": "601 50", "addr:street": "\u0398\u03b5\u03bf\u03bb\u03cc\u03b3\u03bf\u03c5 \u0398\u03b5\u03bf\u03bb\u03cc\u03b3\u03bf\u03c5", "amenity": "pharmacy", "healthcare": "pharmacy", "operator": "\u03a6\u03c5\u03c4\u03bf\u03c0\u03bf\u03cd\u03bb\u03bf\u03c5 \u03a0\u03bf\u03bb\u03c5\u03be\u03ad\u03bd\u03b7"}}, {"type": "node", "id": 4759698108, "lat": 40.2742872, "lon": 22.5423233, "tags": {"addr:city": "\u03a0\u03b5\u03c1\u03af\u03c3\u03c4\u03b1\u03c3\u03b7", "addr:housenumber": "37", "addr:postcode": "601 50", "addr:street": "\u039c\u03b1\u03ba\u03b5\u03b4\u03bf\u03bd\u03af\u03b1\u03c2", "amenity": "pharmacy", "healthcare": "pharmacy", "operator": "\u03a7\u03b1\u03bb\u03af\u03b4\u03bf\u03c5 \u038c\u03bb\u03b3\u03b1 \u03ba\u03b1\u03b9 \u03a3\u03af\u03b1 \u039f\u0395"}}, {"type": "node", "id": 4774738552, "lat": 40.2760976, "lon": 22.5067232, "tags": {"addr:city": "\u039a\u03b1\u03c4\u03b5\u03c1\u03af\u03bd\u03b7", "addr:housenumber": "58", "addr:postcode": "601 34", "addr:street": "\u0395\u03b8\u03bd\u03b9\u03ba\u03ae\u03c2 \u0391\u03bd\u03c4\u03b9\u03c3\u03c4\u03ac\u03c3\u03b5\u03c9\u03c2", "amenity": "pharmacy", "healthcare": "pharmacy", "name": "\u039a\u03bf\u03c5\u03bb\u03ba\u03bf\u03c5\u03b4\u03af\u03bd\u03b1\u03c2", "operator": "\u03a3\u03c5\u03c3\u03c4\u03b5\u03b3\u03b1\u03c3\u03bc\u03ad\u03bd\u03b1 \u03a6\u03b1\u03c1\u03bc\u03b1\u03ba\u03b5\u03af\u03b1 \u039a\u03bf\u03c5\u03bb\u03ba\u03bf\u03c5\u03b4\u03af\u03bd\u03b1\u03c2 \u0395\u03c5\u03c1\u03b9\u03c0\u03af\u03b4\u03b7\u03c2 \u039a\u03bf\u03c5\u03bb\u03ba\u03bf\u03c5\u03b4\u03af\u03bd\u03b1\u03c2 \u03a3\u03c0\u03c5\u03c1\u03af\u03b4\u03c9\u03bd \u039f\u0395"}}, {"type": "node", "id": 4774738554, "lat": 40.2743161, "lon": 22.4990785, "tags": {"addr:city": "\u039a\u03b1\u03c4\u03b5\u03c1\u03af\u03bd\u03b7", "addr:housenumber": "4", "addr:postcode": "601 33", "addr:street": "\u0391\u03b8\u03b1\u03bd\u03b1\u03c3\u03af\u03bf\u03c5 \u0394\u03b9\u03ac\u03ba\u03bf\u03c5", "amenity": "pharmacy", "healthcare": "pharmacy", "name": "\u03a4\u03c1\u03b9\u03b1\u03bd\u03c4\u03b1\u03c6\u03c5\u03bb\u03bb\u03cc\u03c0\u03bf\u03c5\u03bb\u03bf\u03c2", "operator": "\u03a3\u03c5\u03c3\u03c4\u03b5\u03b3\u03b1\u03c3\u03bc\u03ad\u03bd\u03b1 \u03a6\u03b1\u03c1\u03bc\u03b1\u03ba\u03b5\u03af\u03b1 \u03a4\u03c1\u03b9\u03b1\u03bd\u03c4\u03b1\u03c6\u03c5\u03bb\u03bb\u03cc\u03c0\u03bf\u03c5\u03bb\u03bf\u03c2 \u0391\u03bb\u03ba\u03b9\u03b2\u03b9\u03ac\u03b4\u03b7\u03c2 \u03ba\u03b1\u03b9 \u039a\u03c9\u03bd\u03c3\u03c4\u03b1\u03bd\u03c4\u03af\u03bd\u03bf\u03c2 \u039f\u0395"}}, {"type": "node", "id": 4776852866, "lat": 40.2739679, "lon": 22.5067156, "tags": {"amenity": "pharmacy", "healthcare": "pharmacy", "name": "\u03a4\u03b6\u03ac\u03b3\u03ba\u03b1", "operator": "\u03a4\u03b6\u03ac\u03b3\u03ba\u03b1 \u0395\u03bb\u03ad\u03bd\u03b7"}}, {"type": "node", "id": 4777868915, "lat": 40.272016, "lon": 22.5103956, "tags": {"addr:city": "\u039a\u03b1\u03c4\u03b5\u03c1\u03af\u03bd\u03b7", "addr:housenumber": "1-3", "addr:postcode": "601 34", "addr:street": "\u03a4\u03c1\u03b1\u03c0\u03b5\u03b6\u03bf\u03cd\u03bd\u03c4\u03bf\u03c2", "amenity": "pharmacy", "healthcare": "pharmacy", "name": "\u03a0\u03b1\u03bd\u03b1\u03b3\u03b9\u03ce\u03c4\u03b7", "operator": "\u03a0\u03b1\u03bd\u03b1\u03b3\u03b9\u03ce\u03c4\u03b7 \u0391\u03b3\u03ac\u03c0\u03b7-\u039b\u03c5\u03b4\u03af\u03b1"}}, {"type": "node", "id": 4781372610, "lat": 40.2700157, "lon": 22.5062658, "tags": {"addr:city": "\u039a\u03b1\u03c4\u03b5\u03c1\u03af\u03bd\u03b7", "addr:housenumber": "15", "addr:postcode": "601 32", "addr:street": "\u03a0\u03b1\u03c1\u03bc\u03b5\u03bd\u03af\u03c9\u03bd\u03bf\u03c2", "amenity": "pharmacy", "healthcare": "pharmacy", "name": "\u039a\u03bf\u03c5\u03b9\u03bc\u03c4\u03b6\u03af\u03b4\u03b7\u03c2", "operator": "\u03a3\u03c5\u03c3\u03c4\u03b5\u03b3\u03b1\u03c3\u03bc\u03ad\u03bd\u03b1 \u03a6\u03b1\u03c1\u03bc\u03b1\u03ba\u03b5\u03af\u03b1 \u039a\u03bf\u03c5\u03b9\u03bc\u03c4\u03b6\u03af\u03b4\u03b7\u03c2 \u0395\u03bb\u03b5\u03c5\u03b8\u03ad\u03c1\u03b9\u03bf\u03c2 - \u039a\u03bf\u03c5\u03b9\u03bc\u03c4\u03b6\u03af\u03b4\u03b7\u03c2 \u03a7\u03c1\u03c5\u03c3\u03bf\u03b2\u03b1\u03bb\u03ac\u03bd\u03c4\u03b7\u03c2 \u039f\u0395"}}, {"type": "node", "id": 4793112349, "lat": 40.2722083, "lon": 22.5120247, "tags": {"addr:city": "\u039a\u03b1\u03c4\u03b5\u03c1\u03af\u03bd\u03b7", "addr:housenumber": "26", "addr:postcode": "601 34", "addr:street": "\u0394\u03b7\u03bc\u03b7\u03c4\u03c1\u03af\u03bf\u03c5 \u039d\u03af\u03ba\u03b1", "amenity": "pharmacy", "healthcare": "pharmacy", "name": "\u03a6\u03c9\u03c4\u03b9\u03ac\u03b4\u03bf\u03c5", "operator": "\u03a6\u03c9\u03c4\u03b9\u03ac\u03b4\u03bf\u03c5-\u0396\u03bf\u03cd\u03ba\u03bf\u03b2\u03b1 \u039c\u03b1\u03c1\u03b3\u03b1\u03c1\u03af\u03c4\u03b1"}}, {"type": "node", "id": 4793680171, "lat": 40.2692269, "lon": 22.4987957, "tags": {"addr:city": "\u039a\u03b1\u03c4\u03b5\u03c1\u03af\u03bd\u03b7", "addr:housenumber": "45\u0391", "addr:postcode": "601 31", "addr:street": "\u0395\u03c0\u03b9\u03c3\u03ba\u03cc\u03c0\u03bf\u03c5 \u039c\u03b1\u03ba\u03b1\u03c1\u03af\u03bf\u03c5 \u039a\u03af\u03c4\u03c1\u03bf\u03c5\u03c2", "amenity": "pharmacy", "healthcare": "pharmacy", "name": "\u03a0\u03b1\u03c7\u03c5\u03b3\u03b9\u03b1\u03bd\u03bd\u03ac\u03ba\u03b7\u03c2", "operator": "\u03a3\u03c5\u03c3\u03c4\u03b5\u03b3\u03b1\u03c3\u03bc\u03ad\u03bd\u03b1 \u03a6\u03b1\u03c1\u03bc\u03b1\u03ba\u03b5\u03af\u03b1 \u03a0\u03b1\u03c7\u03c5\u03b3\u03b9\u03b1\u03bd\u03bd\u03ac\u03ba\u03b7\u03c2 \u0395\u03bc\u03bc\u03b1\u03bd\u03bf\u03c5\u03ae\u03bb & \u039d\u03b9\u03ba\u03cc\u03bb\u03b1\u03bf\u03c2 \u039f\u0395"}}, {"type": "node", "id": 4794245890, "lat": 40.2756621, "lon": 22.4922185, "tags": {"addr:city": "\u039a\u03b1\u03c4\u03b5\u03c1\u03af\u03bd\u03b7", "addr:housenumber": "16", "addr:postcode": "601 33", "addr:street": "\u039d\u03b9\u03ba\u03bf\u03bb\u03ac\u03bf\u03c5 \u03a0\u03bb\u03b1\u03c3\u03c4\u03ae\u03c1\u03b1", "amenity": "pharmacy", "healthcare": "pharmacy", "name": "\u03a4\u03c3\u03b1\u03b3\u03ba\u03b1\u03bb\u03af\u03b4\u03bf\u03c5", "operator": "\u03a4\u03c3\u03b1\u03b3\u03ba\u03b1\u03bb\u03af\u03b4\u03bf\u03c5 \u0395\u03bb\u03ad\u03bd\u03b7"}}, {"type": "node", "id": 4798382227, "lat": 40.2714888, "lon": 22.5058384, "tags": {"addr:city": "\u039a\u03b1\u03c4\u03b5\u03c1\u03af\u03bd\u03b7", "addr:housenumber": "2", "addr:postcode": "601 33", "addr:street": "\u03a4\u03c3\u03b9\u03bc\u03b9\u03c3\u03ba\u03ae", "amenity": "pharmacy", "healthcare": "pharmacy", "name": "\u03a7\u03c1\u03b9\u03c3\u03c4\u03bf\u03c5\u03bb\u03ac\u03ba\u03b7", "operator": "\u03a7\u03c1\u03b9\u03c3\u03c4\u03bf\u03c5\u03bb\u03ac\u03ba\u03b7 \u039f\u03c5\u03c1\u03b1\u03bd\u03af\u03b1"}}, {"type": "node", "id": 4804795365, "lat": 40.2710693, "lon": 22.4943261, "tags": {"addr:city": "\u039a\u03b1\u03c4\u03b5\u03c1\u03af\u03bd\u03b7", "addr:housenumber": "9", "addr:postcode": "601 31", "addr:street": "\u03a0\u03b1\u03bb\u03b1\u03b9\u03bf\u03cd \u039a\u03b1\u03c4\u03b1\u03c6\u03c5\u03b3\u03af\u03bf\u03c5", "amenity": "pharmacy", "healthcare": "pharmacy", "name": "\u039c\u03b1\u03c5\u03c1\u03af\u03b4\u03b7\u03c2", "operator": "\u039c\u03b1\u03c5\u03c1\u03af\u03b4\u03b7\u03c2 \u03a3\u03c4\u03ad\u03c6\u03b1\u03bd\u03bf\u03c2"}}, {"type": "node", "id": 4804795367, "lat": 40.2722356, "lon": 22.504582, "tags": {"addr:city": "\u039a\u03b1\u03c4\u03b5\u03c1\u03af\u03bd\u03b7", "addr:housenumber": "7", "addr:postcode": "601 33", "addr:street": "\u0396\u03b1\u03bb\u03cc\u03b3\u03b3\u03bf\u03c5", "amenity": "pharmacy", "healthcare": "pharmacy", "name": "\u0393\u03b9\u03b1\u03bd\u03bd\u03bf\u03cd\u03bb\u03b7", "operator": "\u0393\u03b9\u03b1\u03bd\u03bd\u03bf\u03cd\u03bb\u03b7 \u039d\u03b1\u03c4\u03b1\u03bb\u03af\u03b1"}}, {"type": "node", "id": 4824573372, "lat": 40.2689388, "lon": 22.4653601, "tags": {"addr:city": "\u03a3\u03b2\u03bf\u03c1\u03ce\u03bd\u03bf\u03c2", "addr:housenumber": "53", "addr:postcode": "601 50", "addr:street": "\u0391\u03b3\u03af\u03bf\u03c5 \u0391\u03bd\u03c4\u03c9\u03bd\u03af\u03bf\u03c5", "amenity": "pharmacy", "healthcare": "pharmacy", "operator": "\u039a\u03b1\u03c1\u03b1\u03c4\u03b5\u03bb\u03af\u03b4\u03bf\u03c5 \u0391\u03bd\u03b1\u03c4\u03bf\u03bb\u03ae"}}, {"type": "node", "id": 4824573377, "lat": 40.2685566, "lon": 22.4633875, "tags": {"addr:city": "\u03a3\u03b2\u03bf\u03c1\u03ce\u03bd\u03bf\u03c2", "addr:housenumber": "58", "addr:postcode": "601 50", "addr:street": "\u0391\u03b3\u03af\u03bf\u03c5 \u0391\u03bd\u03c4\u03c9\u03bd\u03af\u03bf\u03c5", "amenity": "pharmacy", "healthcare": "pharmacy", "operator": "\u039c\u03c0\u03b9\u03bd\u03ad\u03bb\u03b7\u03c2 \u03a0\u03b1\u03c1\u03b1\u03c3\u03ba\u03b5\u03c5\u03ac\u03c2"}}, {"type": "node", "id": 4847379704, "lat": 40.273127, "lon": 22.507229, "tags": {"addr:city": "\u039a\u03b1\u03c4\u03b5\u03c1\u03af\u03bd\u03b7", "addr:housenumber": "10", "addr:postcode": "601 33", "addr:street": "\u03a0\u03bb\u03b1\u03c4\u03b5\u03af\u03b1 \u0394\u03b7\u03bc\u03b1\u03c1\u03c7\u03b5\u03af\u03bf\u03c5", "amenity": "pharmacy", "healthcare": "pharmacy", "name": "\u03a4\u03cc\u03bb\u03b9\u03bf\u03c2", "operator": "\u03a4\u03cc\u03bb\u03b9\u03bf\u03c2 \u039e\u03b5\u03bd\u03bf\u03c6\u03ce\u03bd"}}, {"type": "node", "id": 4847379705, "lat": 40.2722605, "lon": 22.5082099, "tags": {"addr:city": "\u039a\u03b1\u03c4\u03b5\u03c1\u03af\u03bd\u03b7", "addr:housenumber": "11", "addr:postcode": "601 33", "addr:street": "\u039e\u03b7\u03c1\u03bf\u03bc\u03b5\u03c1\u03af\u03c4\u03bf\u03c5", "amenity": "pharmacy", "healthcare": "pharmacy", "name": "\u03a3\u03b1\u03bb\u03c4\u03c3\u03af\u03b4\u03b7\u03c2", "operator": "\u03a3\u03c5\u03c3\u03c4\u03b5\u03b3\u03b1\u03c3\u03bc\u03ad\u03bd\u03b1 \u03a6\u03b1\u03c1\u03bc\u03b1\u03ba\u03b5\u03af\u03b1 \u03a3\u03b1\u03bb\u03c4\u03c3\u03af\u03b4\u03b7\u03c2 \u039a\u03c9\u03bd\u03c3\u03c4\u03b1\u03bd\u03c4\u03af\u03bd\u03bf\u03c2 \u03a3\u03b1\u03bb\u03c4\u03c3\u03af\u03b4\u03b7\u03c2 \u039b\u03ac\u03b6\u03b1\u03c1\u03bf\u03c2 \u039f\u0395"}}, {"type": "node", "id": 4850539224, "lat": 40.2716861, "lon": 22.508456, "tags": {"addr:city": "\u039a\u03b1\u03c4\u03b5\u03c1\u03af\u03bd\u03b7", "addr:housenumber": "2", "addr:postcode": "601 33", "addr:street": "16\u03b7\u03c2 \u039f\u03ba\u03c4\u03c9\u03b2\u03c1\u03af\u03bf\u03c5", "amenity": "pharmacy", "healthcare": "pharmacy", "name": "\u0392\u03b1\u03c6\u03cc\u03c0\u03bf\u03c5\u03bb\u03bf\u03c5", "operator": "\u03a3\u03c5\u03c3\u03c4\u03b5\u03b3\u03b1\u03c3\u03bc\u03ad\u03bd\u03b1 \u03a6\u03b1\u03c1\u03bc\u03b1\u03ba\u03b5\u03af\u03b1 \u0392\u03b1\u03c6\u03cc\u03c0\u03bf\u03c5\u03bb\u03bf\u03c2 \u039a\u03bb\u03b5\u03cc\u03b2\u03bf\u03c5\u03bb\u03bf\u03c2 \u0392\u03b1\u03c6\u03bf\u03c0\u03bf\u03cd\u03bb\u03bf\u03c5 \u03a0\u03bf\u03bb\u03c5\u03be\u03ad\u03bd\u03b7 \u039f\u0395"}}, {"type": "node", "id": 4850539226, "lat": 40.2716803, "lon": 22.5078487, "tags": {"addr:city": "\u039a\u03b1\u03c4\u03b5\u03c1\u03af\u03bd\u03b7", "addr:housenumber": "9", "addr:postcode": "601 33", "addr:street": "16\u03b7\u03c2 \u039f\u03ba\u03c4\u03c9\u03b2\u03c1\u03af\u03bf\u03c5", "amenity": "pharmacy", "healthcare": "pharmacy", "name": "\u03a4\u03b1\u03b3\u03ac\u03c1\u03b1-\u0393\u03b9\u03b1\u03bd\u03bd\u03bf\u03c5\u03bb\u03ac\u03ba\u03b7", "operator": "\u03a3\u03c5\u03c3\u03c4\u03b5\u03b3\u03b1\u03b6\u03cc\u03bc\u03b5\u03bd\u03b1 \u03a6\u03b1\u03c1\u03bc\u03b1\u03ba\u03b5\u03af\u03b1 \u03a4\u03b1\u03b3\u03ac\u03c1\u03b1 \u0391\u03bd\u03b1\u03c3\u03c4\u03b1\u03c3\u03af\u03b1 \u0393\u03b9\u03b1\u03bd\u03bd\u03bf\u03c5\u03bb\u03ac\u03ba\u03b7 \u0393\u03b5\u03c9\u03c1\u03b3\u03af\u03b1 \u039f\u0395"}}, {"type": "node", "id": 4850539227, "lat": 40.2717445, "lon": 22.5073855, "tags": {"addr:city": "\u039a\u03b1\u03c4\u03b5\u03c1\u03af\u03bd\u03b7", "addr:housenumber": "9", "addr:postcode": "601 33", "addr:street": "\u039a\u03cd\u03c0\u03c1\u03bf\u03c5", "amenity": "pharmacy", "healthcare": "pharmacy", "name": "\u039a\u03b1\u03c1\u03b1\u03b3\u03b9\u03ac\u03bd\u03bd\u03b7\u03c2", "operator": "\u039a\u03b1\u03c1\u03b1\u03b3\u03b9\u03ac\u03bd\u03bd\u03b7\u03c2 \u0399\u03c9\u03ac\u03bd\u03bd\u03b7\u03c2"}}, {"type": "node", "id": 4850809418, "lat": 40.2717353, "lon": 22.5022919, "tags": {"addr:city": "\u039a\u03b1\u03c4\u03b5\u03c1\u03af\u03bd\u03b7", "addr:housenumber": "66", "addr:postcode": "601 33", "addr:street": "\u039c\u03b5\u03b3\u03ac\u03bb\u03bf\u03c5 \u0391\u03bb\u03b5\u03be\u03ac\u03bd\u03b4\u03c1\u03bf\u03c5", "amenity": "pharmacy", "healthcare": "pharmacy", "name": "\u0396\u03ac\u03c7\u03bf\u03c5-\u039a\u03c1\u03b5\u03bc\u03bc\u03cd\u03b4\u03b1", "operator": "\u03a3\u03c5\u03c3\u03c4\u03b5\u03b3\u03b1\u03c3\u03bc\u03ad\u03bd\u03b1 \u03a6\u03b1\u03c1\u03bc\u03b1\u03ba\u03b5\u03af\u03b1 \u0396\u03ac\u03c7\u03bf\u03c5 \u039c\u03b1\u03c1\u03b3\u03b1\u03c1\u03af\u03c4\u03b1 \u039a\u03c1\u03b5\u03bc\u03bc\u03cd\u03b4\u03b1 \u0386\u03bd\u03bd\u03b1 \u039f\u0395"}}, {"type": "node", "id": 4850809420, "lat": 40.2725738, "lon": 22.5012491, "tags": {"addr:city": "\u039a\u03b1\u03c4\u03b5\u03c1\u03af\u03bd\u03b7", "addr:housenumber": "16", "addr:postcode": "601 33", "addr:street": "\u03a3\u03b2\u03bf\u03c1\u03ce\u03bd\u03bf\u03c5", "amenity": "pharmacy", "healthcare": "pharmacy", "name": "\u03a4\u03c3\u03b9\u03bf\u03c5\u03bc\u03ac\u03bd\u03b7", "operator": "\u03a4\u03c3\u03b9\u03bf\u03c5\u03bc\u03ac\u03bd\u03b7 \u0395\u03bb\u03ad\u03bd\u03b7"}}, {"type": "node", "id": 4850810221, "lat": 40.2715332, "lon": 22.5043919, "tags": {"addr:city": "\u039a\u03b1\u03c4\u03b5\u03c1\u03af\u03bd\u03b7", "addr:housenumber": "51", "addr:postcode": "601 32", "addr:street": "\u039c\u03b5\u03b3\u03ac\u03bb\u03bf\u03c5 \u0391\u03bb\u03b5\u03be\u03ac\u03bd\u03b4\u03c1\u03bf\u03c5", "amenity": "pharmacy", "healthcare": "pharmacy", "name": "\u0396\u03b9\u03ce\u03b3\u03b1", "operator": "\u03a3\u03c5\u03c3\u03c4\u03b5\u03b3\u03b1\u03c3\u03bc\u03ad\u03bd\u03b1 \u03a6\u03b1\u03c1\u03bc\u03b1\u03ba\u03b5\u03af\u03b1 \u0395\u03be\u03ac\u03c1\u03c7\u03bf\u03c5 \u0396\u03b9\u03ce\u03b3\u03b1 \u0386\u03bd\u03bd\u03b1 \u0396\u03b9\u03ce\u03b3\u03b1 \u0394\u03ae\u03bc\u03b7\u03c4\u03c1\u03b1 \u039f\u0395"}}, {"type": "node", "id": 4850810223, "lat": 40.2743705, "lon": 22.5077239, "tags": {"addr:city": "\u039a\u03b1\u03c4\u03b5\u03c1\u03af\u03bd\u03b7", "addr:housenumber": "45", "addr:postcode": "601 33", "addr:street": "\u0396\u03b1\u03bb\u03cc\u03b3\u03b3\u03bf\u03c5", "amenity": "pharmacy", "healthcare": "pharmacy", "name": "\u03a3\u03b9\u03b1\u03bc\u03ac\u03c4\u03c1\u03b1-\u03a3\u03c5\u03bc\u03b5\u03c9\u03bd\u03af\u03b4\u03bf\u03c5", "operator": "\u03a3\u03c5\u03c3\u03c4\u03b5\u03b3\u03b1\u03c3\u03bc\u03ad\u03bd\u03b1 \u03a6\u03b1\u03c1\u03bc\u03b1\u03ba\u03b5\u03af\u03b1 \u03a3\u03b9\u03b1\u03bc\u03ac\u03c4\u03c1\u03b1-\u03a3\u03c5\u03bc\u03b5\u03c9\u03bd\u03af\u03b4\u03bf\u03c5 \u0391\u03b8\u03b1\u03bd\u03b1\u03c3\u03af\u03b1 \u03a3\u03c5\u03bc\u03b5\u03c9\u03bd\u03af\u03b4\u03bf\u03c5 \u03a3\u03bf\u03c6\u03af\u03b1 \u039f\u0395"}}, {"type": "node", "id": 4889307665, "lat": 40.2738246, "lon": 22.5040094, "tags": {"addr:city": "\u039a\u03b1\u03c4\u03b5\u03c1\u03af\u03bd\u03b7", "addr:housenumber": "19", "addr:postcode": "601 33", "addr:street": "\u03a3\u03b1\u03c1\u03b1\u03bd\u03c4\u03b1\u03c0\u03cc\u03c1\u03bf\u03c5", "amenity": "pharmacy", "healthcare": "pharmacy", "name": "\u039c\u03c0\u03b5\u03ba\u03c4\u03ac", "operator": "\u039c\u03c0\u03b5\u03ba\u03c4\u03ac \u039d\u03bf\u03c5\u03c1\u03ac\u03b9"}}, {"type": "node", "id": 4890072551, "lat": 40.2739694, "lon": 22.5112748, "tags": {"addr:city": "\u039a\u03b1\u03c4\u03b5\u03c1\u03af\u03bd\u03b7", "addr:housenumber": "33", "addr:postcode": "601 34", "addr:street": "\u039a\u03b1\u03c3\u03c3\u03ac\u03bd\u03b4\u03c1\u03bf\u03c5", "amenity": "pharmacy", "healthcare": "pharmacy", "name": "\u039c\u03b1\u03bb\u03bf\u03cd\u03c4\u03b1\u03c2", "operator": "\u039c\u03b1\u03bb\u03bf\u03cd\u03c4\u03b1\u03c2 \u0399\u03c9\u03ac\u03bd\u03bd\u03b7\u03c2 \u03ba\u03b1\u03b9 \u03a3\u03af\u03b1 \u039f\u0395"}}, {"type": "node", "id": 5158965014, "lat": 40.2712694, "lon": 22.506368, "tags": {"addr:city": "\u039a\u03b1\u03c4\u03b5\u03c1\u03af\u03bd\u03b7", "addr:housenumber": "29", "addr:postcode": "601 32", "addr:street": "\u039c\u03b5\u03b3\u03ac\u03bb\u03bf\u03c5 \u0391\u03bb\u03b5\u03be\u03ac\u03bd\u03b4\u03c1\u03bf\u03c5", "amenity": "pharmacy", "healthcare": "pharmacy", "operator": "\u03a3\u03b1\u03b2\u03b2\u03b9\u03bd\u03af\u03b4\u03bf\u03c5 \u0393\u03b5\u03c9\u03c1\u03b3\u03af\u03b1"}}, {"type": "node", "id": 5218907715, "lat": 40.2714176, "lon": 22.5054168, "tags": {"addr:city": "\u039a\u03b1\u03c4\u03b5\u03c1\u03af\u03bd\u03b7", "addr:housenumber": "1", "addr:postcode": "601 32", "addr:street": "\u0391\u03c1\u03b9\u03c3\u03c4\u03bf\u03c4\u03ad\u03bb\u03bf\u03c5\u03c2", "amenity": "pharmacy", "healthcare": "pharmacy", "name": "\u039c\u03c0\u03b9\u03c4\u03bf\u03c0\u03bf\u03cd\u03bb\u03bf\u03c5", "operator": "\u039c\u03c0\u03b9\u03c4\u03bf\u03c0\u03bf\u03cd\u03bb\u03bf\u03c5 \u03a3\u03c4\u03b5\u03c6\u03b1\u03bd\u03af\u03b1"}}, {"type": "node", "id": 5320868902, "lat": 40.2752295, "lon": 22.5768098, "tags": {"addr:city": "\u039a\u03b1\u03bb\u03bb\u03b9\u03b8\u03ad\u03b1", "addr:housenumber": "1", "addr:postcode": "601 50", "addr:street": "\u0391\u03b3\u03af\u03bf\u03c5 \u0391\u03b8\u03b1\u03bd\u03b1\u03c3\u03af\u03bf\u03c5", "amenity": "pharmacy", "healthcare": "pharmacy", "operator": "\u03a3\u03c5\u03c3\u03c4\u03b5\u03b3\u03b1\u03c3\u03bc\u03ad\u03bd\u03b1 \u03a6\u03b1\u03c1\u03bc\u03b1\u03ba\u03b5\u03af\u03b1 \u03a7\u03b1\u03c4\u03b6\u03ac\u03c1\u03b1 \u03a0\u03b5\u03c1\u03c3\u03b5\u03c6\u03cc\u03bd\u03b7 \u03a7\u03b1\u03c4\u03b6\u03ac\u03c1\u03b1 \u03a7\u03c1\u03b9\u03c3\u03c4\u03af\u03bd\u03b1 \u039f\u0395"}}, {"type": "node", "id": 5320868903, "lat": 40.2721983, "lon": 22.5811925, "tags": {"addr:city": "\u039a\u03b1\u03bb\u03bb\u03b9\u03b8\u03ad\u03b1", "addr:housenumber": "30\u0391", "addr:postcode": "601 50", "addr:street": "\u0391\u03bd\u03b4\u03c1\u03ad\u03b1 \u0393. \u03a0\u03b1\u03c0\u03b1\u03bd\u03b4\u03c1\u03ad\u03bf\u03c5", "amenity": "pharmacy", "healthcare": "pharmacy", "name": "\u03a6\u03b1\u03c1\u03bc\u03b1\u03ba\u03b5\u03af\u03bf \u039c\u03b1\u03b2\u03af\u03b4\u03bf\u03c5 \u0393\u03b5\u03c9\u03c1\u03b3\u03af\u03b1", "operator": "\u039c\u03b1\u03b2\u03af\u03b4\u03bf\u03c5 \u0393\u03b5\u03c9\u03c1\u03b3\u03af\u03b1"}}, {"type": "node", "id": 5320868904, "lat": 40.2759268, "lon": 22.5780676, "tags": {"addr:city": "\u039a\u03b1\u03bb\u03bb\u03b9\u03b8\u03ad\u03b1", "addr:housenumber": "58", "addr:postcode": "601 50", "addr:street": "3\u03b7\u03c2 \u03a3\u03b5\u03c0\u03c4\u03b5\u03bc\u03b2\u03c1\u03af\u03bf\u03c5", "amenity": "pharmacy", "healthcare": "pharmacy", "operator": "\u039f\u03b9\u03ba\u03bf\u03bd\u03bf\u03bc\u03af\u03ba\u03bf\u03c2 \u039d\u03b9\u03ba\u03cc\u03bb\u03b1\u03bf\u03c2"}}, {"type": "node", "id": 5380609279, "lat": 40.2720502, "lon": 22.4946563, "tags": {"addr:city": "\u039a\u03b1\u03c4\u03b5\u03c1\u03af\u03bd\u03b7", "addr:housenumber": "86", "addr:postcode": "601 33", "addr:street": "7\u03b7\u03c2 \u039c\u03b5\u03c1\u03b1\u03c1\u03c7\u03af\u03b1\u03c2", "amenity": "pharmacy", "healthcare": "pharmacy", "name": "\u0393\u03b5\u03bb\u03b1\u03b4\u03ac\u03c1\u03b7", "operator": "\u03a3\u03c5\u03c3\u03c4\u03b5\u03b3\u03b1\u03c3\u03bc\u03ad\u03bd\u03b1 \u03a6\u03b1\u03c1\u03bc\u03b1\u03ba\u03b5\u03af\u03b1 \u0393\u03b5\u03bb\u03b1\u03b4\u03ac\u03c1\u03b7 \u0392\u03b1\u03c3\u03b9\u03bb\u03b9\u03ba\u03ae \u0393\u03b5\u03bb\u03b1\u03b4\u03ac\u03c1\u03b7\u03c2 \u0391\u03bb\u03ad\u03be\u03b9\u03bf\u03c2 \u039f\u0395"}}, {"type": "node", "id": 5409556791, "lat": 40.2716709, "lon": 22.5043235, "tags": {"addr:city": "\u039a\u03b1\u03c4\u03b5\u03c1\u03af\u03bd\u03b7", "addr:housenumber": "50", "addr:postcode": "601 33", "addr:street": "\u039c\u03b5\u03b3\u03ac\u03bb\u03bf\u03c5 \u0391\u03bb\u03b5\u03be\u03ac\u03bd\u03b4\u03c1\u03bf\u03c5", "amenity": "pharmacy", "healthcare": "pharmacy", "name": "\u03a3\u03c5\u03bc\u03b5\u03c9\u03bd\u03af\u03b4\u03bf\u03c5-\u039b\u03ad\u03bd\u03b1\u03c2", "operator": "\u03a3\u03c5\u03c3\u03c4\u03b5\u03b3\u03b1\u03c3\u03bc\u03ad\u03bd\u03b1 \u03c6\u03b1\u03c1\u03bc\u03b1\u03ba\u03b5\u03af\u03b1 \u03a3\u03c5\u03bc\u03b5\u03c9\u03bd\u03af\u03b4\u03bf\u03c5 \u0395\u03c5\u03b1\u03bd\u03b8\u03af\u03b1 \u039b\u03ad\u03bd\u03b1\u03c2 \u0392\u03b1\u03c3\u03af\u03bb\u03b5\u03b9\u03bf\u03c2 \u039f\u0395"}}, {"type": "node", "id": 11199900519, "lat": 40.2949842, "lon": 22.3518975, "tags": {"amenity": "pharmacy"}}, {"type": "node", "id": 11753097372, "lat": 40.2703668, "lon": 22.529165, "tags": {"addr:city": "\u039a\u03b1\u03c4\u03b5\u03c1\u03af\u03bd\u03b7", "addr:housenumber": "81", "addr:postcode": "601 34", "addr:street": "\u039b\u03b5\u03c9\u03bd\u03af\u03b4\u03b1 \u0399\u03b1\u03c3\u03c9\u03bd\u03af\u03b4\u03b7", "amenity": "pharmacy", "dispensing": "yes", "drive_through": "no", "healthcare": "pharmacy", "name": "\u0392\u03c1\u03b1\u03ba\u03bf\u03c0\u03bf\u03cd\u03bb\u03bf\u03c5", "operator": "\u0392\u03c1\u03b1\u03ba\u03bf\u03c0\u03bf\u03cd\u03bb\u03bf\u03c5 \u0393\u03b5\u03c9\u03c1\u03b3\u03af\u03b1"}}, {"type": "node", "id": 11813719389, "lat": 40.2724643, "lon": 22.5092997, "tags": {"addr:city": "\u039a\u03b1\u03c4\u03b5\u03c1\u03af\u03bd\u03b7", "addr:housenumber": "2", "addr:postcode": "601 34", "addr:street": "\u0391\u0384 \u03a0\u03ac\u03c1\u03bf\u03b4\u03bf\u03c2 \u0392\u03cc\u03c4\u03c3\u03b7", "amenity": "pharmacy", "healthcare": "pharmacy", "name": "\u03a7\u03b9\u03bf\u03bd\u03af\u03b4\u03bf\u03c5-\u039c\u03b5\u03ca\u03bc\u03ac\u03c1\u03b7", "operator": "\u03a3\u03c5\u03c3\u03c4\u03b5\u03b3\u03b1\u03c3\u03bc\u03ad\u03bd\u03b1 \u03a6\u03b1\u03c1\u03bc\u03b1\u03ba\u03b5\u03af\u03b1 \u03a7\u03b9\u03bf\u03bd\u03af\u03b4\u03bf\u03c5 \u0388\u03bb\u03b5\u03bd\u03b1-\u03a7\u03c1\u03b9\u03c3\u03c4\u03af\u03bd\u03b1 \u2013 \u039c\u03b5\u03ca\u03bc\u03ac\u03c1\u03b7 \u03a4\u03af\u03bd\u03b1 \u039f\u0395"}}, {"type": "node", "id": 11879538983, "lat": 40.5648765, "lon": 22.5900322, "tags": {"amenity": "pharmacy", "healthcare": "pharmacy"}}, {"type": "node", "id": 11948042236, "lat": 40.4861991, "lon": 22.3181066, "tags": {"amenity": "pharmacy", "healthcare": "pharmacy"}}, {"type": "node", "id": 11955268382, "lat": 40.4787879, "lon": 22.4857765, "tags": {"addr:city": "\u039a\u03bf\u03bb\u03b9\u03bd\u03b4\u03c1\u03cc\u03c2", "addr:postcode": "60061", "addr:street": "\u0391\u03b3\u03af\u03bf\u03c5 \u0394\u03b7\u03bc\u03b7\u03c4\u03c1\u03af\u03bf\u03c5", "amenity": "pharmacy", "dispensing": "yes", "healthcare": "pharmacy", "name": "\u039c\u03b1\u03ba\u03c1\u03af\u03b4\u03bf\u03c5", "operator": "\u03a3\u03bf\u03c6\u03af\u03b1 \u039c\u03b1\u03ba\u03c1\u03af\u03b4\u03bf\u03c5"}}, {"type": "node", "id": 11955306696, "lat": 40.4653565, "lon": 22.5440964, "tags": {"addr:city": "\u039a\u03b1\u03c4\u03b1\u03c7\u03ac\u03c2", "addr:postcode": "60061", "amenity": "pharmacy", "dispensing": "yes", "healthcare": "pharmacy", "name": "\u0391\u03bb\u03bc\u03c0\u03b1\u03bd\u03af\u03b4\u03b7\u03c2"}}, {"type": "node", "id": 11955367506, "lat": 40.4463582, "lon": 22.5873881, "tags": {"addr:city": "\u039c\u03b5\u03b8\u03ce\u03bd\u03b7", "addr:postcode": "600 66", "amenity": "pharmacy", "dispensing": "yes", "healthcare": "pharmacy"}}, {"type": "node", "id": 12208520815, "lat": 40.2709627, "lon": 22.5089222, "tags": {"addr:city": "\u039a\u03b1\u03c4\u03b5\u03c1\u03af\u03bd\u03b7", "addr:housenumber": "9", "addr:postcode": "601 32", "addr:street": "\u03a0\u03bb\u03b1\u03c4\u03b5\u03af\u03b1 \u0395\u03bb\u03b5\u03c5\u03b8\u03b5\u03c1\u03af\u03b1\u03c2", "amenity": "pharmacy", "healthcare": "pharmacy", "name": "\u039d\u03b1\u03bb\u03bc\u03c0\u03ac\u03bd\u03c4\u03b7", "operator": "\u039d\u03b1\u03bb\u03bc\u03c0\u03ac\u03bd\u03c4\u03b7 \u0394\u03ae\u03bc\u03b7\u03c4\u03c1\u03b1"}}, {"type": "node", "id": 13090806019, "lat": 40.271374, "lon": 22.5092595, "tags": {"addr:city": "\u039a\u03b1\u03c4\u03b5\u03c1\u03af\u03bd\u03b7", "addr:housenumber": "6", "addr:postcode": "601 34", "addr:street": "\u03a0\u03bb\u03b1\u03c4\u03b5\u03af\u03b1 \u0395\u03bb\u03b5\u03c5\u03b8\u03b5\u03c1\u03af\u03b1\u03c2", "amenity": "pharmacy", "healthcare": "pharmacy", "name": "\u039a\u03bf\u03c4\u03c1\u03ce\u03c4\u03c3\u03b9\u03bf\u03c5", "operator": "\u039a\u03bf\u03c4\u03c1\u03ce\u03c4\u03c3\u03b9\u03bf\u03c5 \u039b\u03c5\u03b4\u03af\u03b1"}}]}