{"version": 0.6, "generator": "Overpass API 0.7.62.8 e802775f", "osm3s": {"timestamp_osm_base": "2025-10-06T08:47:24Z", "copyright": "The data included in this document is from www.openstreetmap.org. The data is made available under ODbL."}, "elements": [{"type": "node", "id": 10823584618, "lat": 39.3843221, "lon": 27.6599281, "tags": {"amenity": "pharmacy", "name": "Kurtdereli Eczanesi", "phone": "+90 266 552 1924"}}, {"type": "node", "id": 10823584619, "lat": 39.3833499, "lon": 27.6517963, "tags": {"amenity": "pharmacy", "healthcare": "pharmacy", "name": "Sa\u011fl\u0131k Eczanesi", "phone": "+90 533 461 7566"}}, {"type": "node", "id": 10823584620, "lat": 39.382323, "lon": 27.6546998, "tags": {"amenity": "pharmacy", "healthcare": "pharmacy", "name": "Efe Eczanesi", "phone": "+90 266 552 1496"}}, {"type": "node", "id": 10823584621, "lat": 39.3823527, "lon": 27.6541409, "tags": {"amenity": "pharmacy", "healthcare": "pharmacy", "name": "Bizim Eczanesi", "phone": "+90 266 552 2555"}}, {"type": "node", "id": 11663364369, "lat": 39.6303045, "lon": 27.6301786, "tags": {"amenity": "pharmacy", "name": "G\u00f6k\u00e7eyaz\u0131", "name:tr": "G\u00f6k\u00e7eyaz\u0131 \u0130ncik Eczanesi", "phone": "+90 266 466 8082"}}, {"type": "node", "id": 11663364372, "lat": 39.5811619, "lon": 27.4846042, "tags": {"amenity": "pharmacy", "healthcare": "pharmacy", "name": "Nuri Do\u011fan Eczanesi", "phone": "+90 266 456 1179"}}, {"type": "node", "id": 11663364373, "lat": 39.4704079, "lon": 27.3645039, "tags": {"amenity": "pharmacy", "healthcare": "pharmacy", "name": "Zehra Eczanesi", "phone": "+90 266 464 6253"}}, {"type": "node", "id": 11663365370, "lat": 39.5813823, "lon": 27.4842793, "tags": {"amenity": "pharmacy", "healthcare": "pharmacy", "name": "Aslan Eczanesi", "phone": "+90 266 456 1666"}}, {"type": "node", "id": 11663365371, "lat": 39.440371, "lon": 27.375616, "tags": {"amenity": "pharmacy", "healthcare": "pharmacy", "name": "B\u00fcy\u00fck Yenice Eczanesi", "phone": "+90 266 463 5545"}}, {"type": "node", "id": 11663365569, "lat": 39.5815645, "lon": 27.4845795, "tags": {"amenity": "pharmacy", "healthcare": "pharmacy", "name": "Do\u011fan Eczanesi", "phone": "+90 266 456 1079"}}, {"type": "node", "id": 11663365570, "lat": 39.5819389, "lon": 27.4855695, "tags": {"amenity": "pharmacy", "healthcare": "pharmacy", "name": "Ko\u00e7 Eczanesi", "phone": "+90 266 456 2727"}}, {"type": "node", "id": 11663365669, "lat": 39.5815355, "lon": 27.4847943, "tags": {"amenity": "pharmacy", "healthcare": "pharmacy", "name": "Lapanta Eczanesi", "phone": "+90 266 456 2703"}}]}