{"version": 0.6, "generator": "Overpass API 0.7.62.8 e802775f", "osm3s": {"timestamp_osm_base": "2025-10-06T08:36:15Z", "copyright": "The data included in this document is from www.openstreetmap.org. The data is made available under ODbL."}, "elements": [{"type": "node", "id": 482815139, "lat": 45.7929417, "lon": 24.1491975, "tags": {"addr:city": "Sibiu", "addr:housenumber": "53", "addr:postcode": "550159", "addr:street": "Strada Nicolae B\u0103lcescu", "amenity": "pharmacy", "drive_through": "no", "healthcare": "pharmacy", "is_in:city": "Sibiu", "is_in:country": "Romania", "is_in:country_code": "RO", "is_in:county": "Sibiu", "name": "Farmasib (Farmacia \"24\")", "opening_hours": "Mo-Fr 08:00-21:00; Sa,Su 10:00-21:00", "operator": "Farmasib", "website": "https://www.farmasib.ro/", "wheelchair": "yes"}}, {"type": "node", "id": 487081174, "lat": 45.7984847, "lon": 24.1574113, "tags": {"amenity": "pharmacy"}}, {"type": "node", "id": 488447545, "lat": 45.7810919, "lon": 24.157258, "tags": {"addr:city": "Sibiu", "addr:housenumber": "52", "addr:street": "Strada Nicolae Iorga", "amenity": "pharmacy", "is_in:city": "Sibiu", "is_in:country": "Romania", "is_in:country_code": "RO", "is_in:county": "Sibiu", "name": "SanMarco Alphega"}}, {"type": "node", "id": 582717688, "lat": 45.7729555, "lon": 24.1481177, "tags": {"amenity": "pharmacy", "name": "Farmacia Farmacon"}}, {"type": "node", "id": 582761992, "lat": 45.7839044, "lon": 24.1705634, "tags": {"amenity": "pharmacy", "healthcare": "pharmacy", "is_in:city": "Sibiu", "is_in:country": "Romania", "is_in:country_code": "RO", "is_in:county": "Sibiu"}}, {"type": "node", "id": 582765792, "lat": 45.7959928, "lon": 24.1511825, "tags": {"amenity": "pharmacy", "brand": "Dr. Max", "brand:wikidata": "Q56317371", "dispensing": "yes", "drive_through": "no", "healthcare": "pharmacy", "name": "Dr. Max", "opening_hours": "Mo-Fr 09:00-21:00; Sa 09:00-20:00; Su 10:00-20:00", "wheelchair": "no"}}, {"type": "node", "id": 588078044, "lat": 45.7854498, "lon": 24.1729744, "tags": {"amenity": "pharmacy", "brand": "Catena", "brand:wikidata": "Q24035728", "healthcare": "pharmacy", "is_in:city": "Sibiu", "is_in:country": "Romania", "is_in:country_code": "RO", "is_in:county": "Sibiu", "name": "Catena"}}, {"type": "node", "id": 599916106, "lat": 45.7811493, "lon": 24.1517876, "tags": {"addr:city": "Sibiu", "addr:housenumber": "11", "addr:postcode": "550350", "addr:street": "Bulevardul Mihai Viteazul", "amenity": "pharmacy", "brand": "Catena", "brand:wikidata": "Q24035728", "drive_through": "no", "healthcare": "pharmacy", "is_in:city": "Sibiu", "is_in:country": "Romania", "is_in:country_code": "RO", "is_in:county": "Sibiu", "name": "Catena", "website": "https://www.catena.ro/"}}, {"type": "node", "id": 599916107, "lat": 45.7805356, "lon": 24.1529469, "tags": {"addr:city": "Sibiu", "addr:housenumber": "15", "addr:postcode": "550350", "addr:postcode:source": "Date de la Po\u0219ta Rom\u00e2n\u0103, publicate sub Licen\u021ba pentru Guvernare Deschis\u0103 v1.0 la http://date.gov.ro/organization/posta-romana", "addr:street": "Bulevardul Mihai Viteazul", "amenity": "pharmacy", "drive_through": "no", "is_in:city": "Sibiu", "is_in:country": "Romania", "is_in:country_code": "RO", "is_in:county": "Sibiu", "name": "Farmacia Re\u021beta"}}, {"type": "node", "id": 599916368, "lat": 45.7744747, "lon": 24.1698013, "tags": {"amenity": "pharmacy", "healthcare": "pharmacy", "level": "0"}}, {"type": "node", "id": 599916370, "lat": 45.7758854, "lon": 24.1694725, "tags": {"amenity": "pharmacy", "healthcare": "pharmacy"}}, {"type": "node", "id": 606522859, "lat": 45.7903028, "lon": 24.1495486, "tags": {"amenity": "pharmacy", "is_in:city": "Sibiu", "is_in:country": "Romania", "is_in:county": "Sibiu"}}, {"type": "node", "id": 631807620, "lat": 45.7999256, "lon": 24.1434621, "tags": {"amenity": "pharmacy", "healthcare": "pharmacy", "name": "Catena"}}, {"type": "node", "id": 956243203, "lat": 45.7735346, "lon": 24.1481377, "tags": {"amenity": "pharmacy", "is_in:city": "Sibiu", "is_in:country": "Romania", "is_in:country_code": "RO", "is_in:county": "Sibiu", "name": "Polisano Pharma", "opening_hours": "Mo-Fr 08:00-20:00; Sa 09:00-13:00"}}, {"type": "node", "id": 1006708022, "lat": 45.7882472, "lon": 24.1354599, "tags": {"amenity": "pharmacy", "healthcare": "pharmacy", "is_in:city": "Sibiu", "is_in:country": "Romania", "is_in:country_code": "RO", "is_in:county": "Sibiu", "name": "Richter", "opening_hours": "Mo-Fr 08:00-20:00; Sa 09:00-15:00", "wheelchair": "yes"}}, {"type": "node", "id": 1111929383, "lat": 45.7822188, "lon": 24.1485822, "tags": {"amenity": "pharmacy", "is_in:city": "Sibiu", "is_in:country": "Romania", "is_in:country_code": "RO", "is_in:county": "Sibiu"}}, {"type": "node", "id": 1162088419, "lat": 45.7890947, "lon": 24.134355, "tags": {"addr:city": "Sibiu", "addr:street": "Strada Doljului", "amenity": "pharmacy", "dispensing": "yes", "drive_through": "no", "healthcare": "pharmacy", "is_in:city": "Sibiu", "is_in:country": "Romania", "is_in:country_code": "RO", "is_in:county": "Sibiu", "name": "Farmacia Help Net", "opening_hours": "Mo-Fr 08:00-20:00, Sa 08:00-14:00", "wheelchair": "yes"}}, {"type": "node", "id": 1221342375, "lat": 45.7143394, "lon": 24.1516305, "tags": {"addr:city": "Cisn\u0103die", "addr:street": "Strada Cindrelului", "amenity": "pharmacy", "brand": "Catena", "brand:wikidata": "Q24035728", "healthcare": "pharmacy", "name": "Catena"}}, {"type": "node", "id": 1221342674, "lat": 45.7163038, "lon": 24.1549994, "tags": {"amenity": "pharmacy", "healthcare": "pharmacy", "name": "Farmacie"}}, {"type": "node", "id": 1221342685, "lat": 45.7105375, "lon": 24.1444777, "tags": {"amenity": "pharmacy", "name": "Farmacie Polisano"}}, {"type": "node", "id": 1221342853, "lat": 45.7101929, "lon": 24.1394995, "tags": {"amenity": "pharmacy", "name": "Farmacie"}}, {"type": "node", "id": 1225867902, "lat": 45.7867205, "lon": 24.1491168, "tags": {"addr:city": "Sibiu", "addr:housenumber": "1", "addr:street": "Strada Mikhail V. Lomonosov", "amenity": "pharmacy", "brand": "Catena", "brand:wikidata": "Q24035728", "drive_through": "no", "healthcare": "pharmacy", "is_in:city": "Sibiu", "is_in:country": "Romania", "is_in:country_code": "RO", "is_in:county": "Sibiu", "name": "Catena"}}, {"type": "node", "id": 1264234652, "lat": 45.7848151, "lon": 24.1329317, "tags": {"amenity": "pharmacy", "is_in:city": "Sibiu", "is_in:country": "Romania", "is_in:country_code": "RO", "is_in:county": "Sibiu", "name": "Farmasib", "opening_hours": "Mo-Fr 08:00-20:00; Sa 09:00-14:00"}}, {"type": "node", "id": 1577365397, "lat": 45.7955892, "lon": 24.1541016, "tags": {"addr:city": "Sibiu", "addr:housenumber": "8", "addr:postcode": "550165", "addr:street": "Strada Gheorghe Laz\u0103r", "amenity": "pharmacy", "designation": "medical distribution company", "drive_through": "no", "healthcare": "pharmacy", "name": "Medical Corp", "opening_hours": "Mo-Fr 08:00-16:30", "website": "https://www.medicalcorp.ro/"}}, {"type": "node", "id": 2960354509, "lat": 45.7292712, "lon": 23.9812185, "tags": {"amenity": "pharmacy", "dispensing": "no", "name": "Farmacia Dona", "source": "survey"}}, {"type": "node", "id": 3452249675, "lat": 45.7841017, "lon": 24.1711663, "tags": {"amenity": "pharmacy", "healthcare": "pharmacy"}}, {"type": "node", "id": 3452249676, "lat": 45.7865671, "lon": 24.1754707, "tags": {"amenity": "pharmacy"}}, {"type": "node", "id": 4303055554, "lat": 45.7820383, "lon": 24.1501299, "tags": {"addr:city": "Sibiu", "addr:housenumber": "5", "addr:postcode": "550350", "addr:postcode:source": "Date de la Po\u0219ta Rom\u00e2n\u0103, publicate sub Licen\u021ba pentru Guvernare Deschis\u0103 v1.0 la http://date.gov.ro/organization/posta-romana", "addr:street": "Bulevardul Mihai Viteazul", "amenity": "pharmacy", "check_date:opening_hours": "2022-03-23", "drive_through": "no", "name": "Farmacia Ropharma", "opening_hours": "Mo-Sa 08:00-20:00; Su 09:00-14:00", "website": "http://www.farmaciile-ropharma.ro/"}}, {"type": "node", "id": 4303090472, "lat": 45.7812167, "lon": 24.1516604, "tags": {"addr:city": "Sibiu", "addr:housenumber": "11", "addr:postcode": "550350", "addr:postcode:source": "Date de la Po\u0219ta Rom\u00e2n\u0103, publicate sub Licen\u021ba pentru Guvernare Deschis\u0103 v1.0 la http://date.gov.ro/organization/posta-romana", "addr:street": "Bulevardul Mihai Viteazul", "amenity": "pharmacy", "brand": "Help Net", "brand:wikidata": "Q12729923", "drive_through": "no", "healthcare": "pharmacy", "name": "Help Net", "opening_hours": "24/7"}}, {"type": "node", "id": 4303110311, "lat": 45.7805097, "lon": 24.1530222, "tags": {"addr:city": "Sibiu", "addr:housenumber": "15", "addr:postcode": "550350", "addr:postcode:source": "Date de la Po\u0219ta Rom\u00e2n\u0103, publicate sub Licen\u021ba pentru Guvernare Deschis\u0103 v1.0 la http://date.gov.ro/organization/posta-romana", "addr:street": "Bulevardul Mihai Viteazul", "amenity": "pharmacy", "brand": "Catena", "brand:wikidata": "Q24035728", "drive_through": "no", "healthcare": "pharmacy", "name": "Catena", "opening_hours": "Mo-Fr 07:00-22:00, Mo-Su 08:00-22:00", "website": "https://www.catena.ro/"}}, {"type": "node", "id": 4303177545, "lat": 45.7843651, "lon": 24.1710473, "tags": {"addr:city": "Sibiu", "addr:street": "Strada Semaforului", "amenity": "pharmacy", "drive_through": "no", "healthcare": "pharmacy", "name": "Farmacia Richter"}}, {"type": "node", "id": 4303178696, "lat": 45.7844321, "lon": 24.1711719, "tags": {"addr:city": "Sibiu", "addr:housenumber": "10", "addr:postcode": "550309", "addr:postcode:source": "Date de la Po\u0219ta Rom\u00e2n\u0103, publicate sub Licen\u021ba pentru Guvernare Deschis\u0103 v1.0 la http://date.gov.ro/organization/posta-romana", "addr:street": "Strada Semaforului", "amenity": "pharmacy", "brand": "Farmacia Dona", "brand:wikidata": "Q12726919", "drive_through": "no", "healthcare": "pharmacy", "name": "Farmacia Dona", "opening_hours": "Mo-Fr 08:00-20:00; Sa 08:00-15:00", "operator": "Siepcofar", "website": "https://www.farmaciiledona.ro/"}}, {"type": "node", "id": 4314531746, "lat": 45.7999568, "lon": 24.1727949, "tags": {"addr:city": "Sibiu", "addr:housenumber": "70", "addr:postcode": "550242", "addr:postcode:source": "Date de la Po\u0219ta Rom\u00e2n\u0103, publicate sub Licen\u021ba pentru Guvernare Deschis\u0103 v1.0 la http://date.gov.ro/organization/posta-romana", "addr:street": "Strada Ma\u0219ini\u0219tilor", "amenity": "pharmacy", "check_date": "2025-08-23", "name": "Farmacia Neofarm"}}, {"type": "node", "id": 4331083027, "lat": 45.7936698, "lon": 24.1578551, "tags": {"addr:city": "Sibiu", "addr:housenumber": "1 A", "addr:postcode": "550172", "addr:street": "Strada Izvorului", "amenity": "pharmacy", "drive_through": "no", "name": "Farmacia Re\u021beta"}}, {"type": "node", "id": 4362323389, "lat": 45.7280682, "lon": 24.5771157, "tags": {"amenity": "pharmacy", "name": "Kalmus"}}, {"type": "node", "id": 4778483379, "lat": 45.6418318, "lon": 24.2992799, "tags": {"addr:city": "Turnu Ro\u0219u", "amenity": "pharmacy", "name": "Farmacie"}}, {"type": "node", "id": 4849890389, "lat": 45.4720211, "lon": 24.307365, "tags": {"amenity": "pharmacy", "name": "Farmacia Kalmus"}}, {"type": "node", "id": 5065849719, "lat": 45.7755781, "lon": 24.1548733, "tags": {"amenity": "pharmacy", "is_in:city": "Sibiu", "is_in:country": "Romania", "is_in:country_code": "RO", "is_in:county": "Sibiu"}}, {"type": "node", "id": 5142339380, "lat": 45.7968586, "lon": 24.1592829, "tags": {"amenity": "pharmacy", "check_date": "2025-08-23", "name": "Eco farmacia non-stop", "opening_hours": "24/7"}}, {"type": "node", "id": 5898412135, "lat": 45.8002691, "lon": 24.1580989, "tags": {"addr:city": "Sibiu", "addr:housenumber": "83", "addr:street": "Strada 9 Mai", "amenity": "pharmacy", "dispensing": "yes", "healthcare": "pharmacy", "name": "Laura Sib", "opening_hours": "Mo-Fr 07:00-20:00; Sa 08:00-15:00", "payment:cash": "yes"}}, {"type": "node", "id": 5941638359, "lat": 45.7930265, "lon": 24.1487138, "tags": {"addr:city": "Sibiu", "addr:housenumber": "1-3", "addr:street": "Strada Tribunei", "amenity": "pharmacy", "brand": "Catena", "brand:wikidata": "Q24035728", "check_date:opening_hours": "2025-07-22", "dispensing": "yes", "healthcare": "pharmacy", "name": "Catena", "opening_hours": "Mo-Fr 08:00-22:00; Sa 09:00-22:00; Su 09:00-21:00", "payment:cash": "yes", "payment:credit_cards": "yes", "wheelchair": "no"}}, {"type": "node", "id": 5952349049, "lat": 45.7956613, "lon": 24.1601431, "tags": {"addr:city": "Sibiu", "addr:street": "Strada Hermann Oberth", "amenity": "pharmacy", "brand": "Catena", "brand:wikidata": "Q24035728", "dispensing": "yes", "healthcare": "pharmacy", "name": "Catena", "payment:cash": "yes", "payment:credit_cards": "yes"}}, {"type": "node", "id": 5963220028, "lat": 45.7888225, "lon": 24.1364062, "tags": {"addr:city": "Sibiu", "addr:housenumber": "10", "addr:street": "Strada \u0218trandului", "amenity": "pharmacy", "dispensing": "yes", "healthcare": "pharmacy", "name": "Prima Farm SRL", "payment:cash": "yes", "payment:credit_cards": "yes"}}, {"type": "node", "id": 5963270571, "lat": 45.7860952, "lon": 24.1400007, "tags": {"addr:city": "Sibiu", "addr:housenumber": "42-44", "addr:street": "Bulevardul Victoriei", "amenity": "pharmacy", "dispensing": "yes", "healthcare": "pharmacy", "name": "Richter", "payment:cash": "yes", "payment:credit_cards": "yes"}}, {"type": "node", "id": 5963274635, "lat": 45.7878749, "lon": 24.1421818, "tags": {"addr:city": "Sibiu", "addr:housenumber": "29", "addr:street": "Bulevardul Victoriei", "amenity": "pharmacy", "dispensing": "yes", "healthcare": "pharmacy", "name": "Catena", "payment:cash": "yes", "payment:credit_cards": "yes"}}, {"type": "node", "id": 5976708783, "lat": 45.7857147, "lon": 24.1696563, "tags": {"addr:city": "Sibiu", "addr:housenumber": "20", "addr:street": "Strada Vasile Aaron", "amenity": "pharmacy", "dispensing": "yes", "healthcare": "pharmacy", "name": "SC Triofarm SRL", "payment:cash": "yes"}}, {"type": "node", "id": 5976726525, "lat": 45.78669, "lon": 24.1716789, "tags": {"addr:city": "Sibiu", "addr:housenumber": "22", "addr:street": "Strada Vasile Aaron", "amenity": "pharmacy", "dispensing": "yes", "healthcare": "pharmacy", "name": "Farmacom", "payment:cash": "yes", "payment:credit_cards": "yes"}}, {"type": "node", "id": 6054061890, "lat": 45.7877851, "lon": 24.1421499, "tags": {"amenity": "pharmacy", "name": "Catena", "opening_hours": "Mo-Fr 08:00-21:00; Sa 08:00-16:00; Su 09:00-14:00"}}, {"type": "node", "id": 6054061902, "lat": 45.7931224, "lon": 24.1488847, "tags": {"amenity": "pharmacy", "healthcare": "pharmacy", "name": "SECOM", "opening_hours": "Mo-Fr 08:00-20:00; Sa 10:00-14:00"}}, {"type": "node", "id": 6054062205, "lat": 45.7982311, "lon": 24.14446, "tags": {"amenity": "pharmacy", "healthcare": "pharmacy"}}, {"type": "node", "id": 6054062390, "lat": 45.7956557, "lon": 24.1603463, "tags": {"amenity": "pharmacy"}}, {"type": "node", "id": 6054062392, "lat": 45.7954444, "lon": 24.1546184, "tags": {"addr:city": "Sibiu", "addr:street": "Strada Gheorghe Laz\u0103r", "amenity": "pharmacy", "brand": "Catena", "brand:wikidata": "Q24035728", "healthcare": "pharmacy", "name": "Catena"}}, {"type": "node", "id": 6054062404, "lat": 45.7992739, "lon": 24.1456143, "tags": {"amenity": "pharmacy", "healthcare": "pharmacy"}}, {"type": "node", "id": 6054062493, "lat": 45.7988116, "lon": 24.1571352, "tags": {"amenity": "pharmacy", "name": "polisano pharma", "opening_hours": "Mo-Fr 08:00-20:00; Sa 08:00-13:00"}}, {"type": "node", "id": 6054062523, "lat": 45.788622, "lon": 24.1514769, "tags": {"amenity": "pharmacy", "name": "Polisano Pharma", "operator": "Polisano"}}, {"type": "node", "id": 6054062527, "lat": 45.7861258, "lon": 24.139992, "tags": {"amenity": "pharmacy"}}, {"type": "node", "id": 6054063193, "lat": 45.7842501, "lon": 24.1707761, "tags": {"amenity": "pharmacy", "healthcare": "pharmacy"}}, {"type": "node", "id": 6709971696, "lat": 45.6710895, "lon": 24.1811101, "tags": {"amenity": "pharmacy", "name": "Farmacia Biofarm"}}, {"type": "node", "id": 6976564939, "lat": 45.7963983, "lon": 24.163667, "tags": {"addr:city": "Sibiu", "addr:housenumber": "1", "addr:postcode": "557260", "addr:street": "Strada Lector", "amenity": "pharmacy", "brand": "Help Net", "brand:wikidata": "Q12729923", "dispensing": "yes", "healthcare": "pharmacy", "name": "Help Net"}}, {"type": "node", "id": 8481656976, "lat": 45.7952576, "lon": 24.1507515, "tags": {"addr:city": "Sibiu", "addr:housenumber": "9", "addr:street": "Strada Nicolae B\u0103lcescu", "amenity": "pharmacy", "brand": "Catena", "brand:wikidata": "Q24035728", "check_date": "2024-02-17", "check_date:opening_hours": "2022-10-02", "healthcare": "pharmacy", "name": "Catena", "opening_hours": "Mo-Fr 08:00-20:00; Sa,Su 09:00-18:00", "payment:cash": "yes", "payment:credit_cards": "yes", "payment:debit_cards": "yes", "wheelchair": "yes"}}, {"type": "node", "id": 9215676796, "lat": 45.6676197, "lon": 24.2596859, "tags": {"amenity": "pharmacy", "dispensing": "yes", "healthcare": "pharmacy", "name": "Farmacia Ridalli"}}, {"type": "node", "id": 9972446142, "lat": 45.7891363, "lon": 24.5662479, "tags": {"addr:housenumber": "44", "addr:street": "Strada Principal\u0103", "amenity": "pharmacy", "healthcare": "pharmacy", "name": "Sf. Spiridon"}}, {"type": "node", "id": 10961019576, "lat": 45.7140218, "lon": 24.1511124, "tags": {"addr:city": "Cisn\u0103die", "addr:street": "Pia\u021ba Revolu\u021biei", "amenity": "pharmacy", "brand": "Farmacia Dona", "brand:wikidata": "Q12726919", "healthcare": "pharmacy", "name": "Farmacia Dona"}}, {"type": "node", "id": 10961019577, "lat": 45.7139468, "lon": 24.1508977, "tags": {"addr:city": "Cisn\u0103die", "addr:street": "Pia\u021ba Revolu\u021biei", "amenity": "pharmacy", "brand": "Dr. Max", "brand:wikidata": "Q56317371", "healthcare": "pharmacy", "name": "Dr. Max"}}, {"type": "node", "id": 11069749441, "lat": 45.7850746, "lon": 24.1327416, "tags": {"addr:city": "Sibiu", "addr:housenumber": "10", "addr:street": "Strada Ha\u021begului", "amenity": "pharmacy", "dispensing": "yes", "drive_through": "no", "healthcare": "pharmacy", "name": "Farmacia Alphamed", "opening_hours": "Mo-Fr 08:00-20:00; Sa 08:00-14:00", "operator": "Alphega"}}, {"type": "node", "id": 11083396444, "lat": 45.7774874, "lon": 24.1651515, "tags": {"amenity": "pharmacy", "healthcare": "pharmacy", "name": "Farmacia Perfect Care"}}, {"type": "node", "id": 11091238858, "lat": 45.7778705, "lon": 24.1678128, "tags": {"amenity": "pharmacy", "brand": "Dr. Max", "brand:wikidata": "Q56317371", "dispensing": "yes", "drive_through": "no", "healthcare": "pharmacy", "level": "0", "name": "Dr. Max"}}, {"type": "node", "id": 11091238874, "lat": 45.7742502, "lon": 24.1694363, "tags": {"amenity": "pharmacy", "brand": "Dr. Max", "brand:wikidata": "Q56317371", "healthcare": "pharmacy", "level": "0", "name": "Dr. Max"}}, {"type": "node", "id": 11105877022, "lat": 45.7783859, "lon": 24.1667239, "tags": {"amenity": "pharmacy", "brand": "Catena", "brand:wikidata": "Q24035728", "healthcare": "pharmacy", "name": "Catena", "opening_hours": "Mo-Fr 08:00-21:00; Sa 08:00-16:00; Su 09:00-14:00"}}, {"type": "node", "id": 11188390368, "lat": 45.7886009, "lon": 24.135257, "tags": {"amenity": "pharmacy", "brand": "Dr. Max", "brand:wikidata": "Q56317371", "healthcare": "pharmacy", "name": "Dr. Max", "opening_hours": "Mo-Fr 08:00-20:00; Sa 08:00-14:00"}}, {"type": "node", "id": 11188392793, "lat": 45.7887321, "lon": 24.1352556, "tags": {"amenity": "pharmacy", "brand": "Farmacia Dona", "brand:wikidata": "Q12726919", "healthcare": "pharmacy", "name": "Farmacia Dona", "opening_hours": "Mo-Fr 08:00-21:00; Sa 08:00-16:00; Su 09:00-14:00"}}, {"type": "node", "id": 11200611100, "lat": 45.8004841, "lon": 24.166626, "tags": {"amenity": "pharmacy", "brand": "Catena", "brand:wikidata": "Q24035728", "healthcare": "pharmacy", "name": "Catena"}}, {"type": "node", "id": 11900424313, "lat": 45.7773099, "lon": 24.1640726, "tags": {"amenity": "pharmacy", "healthcare": "pharmacy", "name": "Sano Farmacie"}}, {"type": "node", "id": 12071345905, "lat": 45.8053416, "lon": 24.1443823, "tags": {"addr:city": "Sibiu", "amenity": "pharmacy", "healthcare": "pharmacy", "name": "Farmacon"}}, {"type": "node", "id": 12092168136, "lat": 45.7727846, "lon": 24.1406097, "tags": {"amenity": "pharmacy", "brand": "Catena", "brand:wikidata": "Q24035728", "healthcare": "pharmacy", "name": "Catena"}}, {"type": "node", "id": 12093072272, "lat": 45.7684628, "lon": 24.1262159, "tags": {"amenity": "pharmacy", "healthcare": "pharmacy", "name": "Farmacia Defa Sib"}}, {"type": "node", "id": 12094810179, "lat": 45.7928814, "lon": 24.1491205, "tags": {"amenity": "pharmacy", "brand": "EvoFarm", "brand:wikidata": "Q114647927", "healthcare": "pharmacy", "name": "EvoFarm"}}, {"type": "node", "id": 12114123676, "lat": 45.7833367, "lon": 24.0278006, "tags": {"amenity": "pharmacy", "healthcare": "pharmacy"}}, {"type": "node", "id": 13100928889, "lat": 45.7680387, "lon": 24.1254948, "tags": {"addr:city": "Sibiu", "addr:street": "Strada Ludo\u0219", "amenity": "pharmacy", "brand": "Dr. Max", "brand:wikidata": "Q56317371", "healthcare": "pharmacy", "name": "Dr. Max"}}]}