{"version": 0.6, "generator": "Overpass API 0.7.62.8 e802775f", "osm3s": {"timestamp_osm_base": "2025-10-06T08:20:01Z", "copyright": "The data included in this document is from www.openstreetmap.org. The data is made available under ODbL."}, "elements": [{"type": "node", "id": 602068831, "lat": 47.5556459, "lon": 21.6041767, "tags": {"amenity": "pharmacy", "name": "\u00c9va patika", "wheelchair": "no"}}, {"type": "node", "id": 700142759, "lat": 47.8730384, "lon": 21.114, "tags": {"addr:city": "Polg\u00e1r", "addr:housenumber": "1", "addr:postcode": "4090", "addr:street": "H\u0151s\u00f6k utca", "amenity": "pharmacy", "contact:email": "info@fonixpo.paticard.hu", "contact:phone": "+36 52 573 125", "contact:website": "http://www.fonixpatikapolgar.hu", "healthcare": "pharmacy", "name": "F\u0151nix Gy\u00f3gyszert\u00e1r", "opening_hours": "Mo-Fr 08:00-18:00; Sa 08:00-12:00"}}, {"type": "node", "id": 1900789730, "lat": 47.5614675, "lon": 21.6241499, "tags": {"amenity": "pharmacy", "healthcare": "pharmacy", "name": "Auguszta Gy\u00f3gyszert\u00e1r"}}, {"type": "node", "id": 2184021705, "lat": 47.5564023, "lon": 21.6277259}, {"type": "node", "id": 2184021707, "lat": 47.5564084, "lon": 21.6279463}, {"type": "node", "id": 2184021708, "lat": 47.5564104, "lon": 21.6277931}, {"type": "node", "id": 2184021710, "lat": 47.556454, "lon": 21.6277943}, {"type": "node", "id": 2184021711, "lat": 47.5564548, "lon": 21.6277275}, {"type": "node", "id": 2184021721, "lat": 47.5565777, "lon": 21.6279512}, {"type": "node", "id": 2446426731, "lat": 47.6123689, "lon": 21.3400286, "tags": {"amenity": "pharmacy", "healthcare": "pharmacy"}}, {"type": "node", "id": 2446426733, "lat": 47.6101095, "lon": 21.3395933, "tags": {"amenity": "pharmacy"}}, {"type": "node", "id": 2446426737, "lat": 47.6134842, "lon": 21.3406905, "tags": {"amenity": "pharmacy"}}, {"type": "node", "id": 3109212857, "lat": 47.7996449, "lon": 21.6833875, "tags": {"addr:city": "\u00dajfeh\u00e9rt\u00f3", "addr:housenumber": "8", "addr:postcode": "4244", "addr:street": "Szent Istv\u00e1n utca", "amenity": "pharmacy", "name": "Feh\u00e9r K\u00edgy\u00f3 Gy\u00f3gyszert\u00e1r"}}, {"type": "node", "id": 3113726873, "lat": 47.8727007, "lon": 21.1108992, "tags": {"amenity": "pharmacy", "healthcare": "pharmacy"}}, {"type": "node", "id": 3271520348, "lat": 47.5521563, "lon": 21.6106494, "tags": {"addr:city": "Debrecen", "addr:housenumber": "8", "addr:postcode": "4032", "addr:street": "Borb\u00edr\u00f3 t\u00e9r", "amenity": "pharmacy", "brand": "Alma Gy\u00f3gyszert\u00e1r", "brand:website": "https://almapatika.hu", "brand:wikidata": "Q105626221", "contact:email": "borbiropatika@gmail.com", "contact:facebook": "https://www.facebook.com/borbiropatika", "contact:phone": "+36 52 743 233", "healthcare": "pharmacy", "name": "Borb\u00edr\u00f3 Patika", "opening_hours": "Mo-Fr 08:00-19:00; Sa 08:00-13:00"}}, {"type": "node", "id": 3272088149, "lat": 47.5974714, "lon": 21.5791798, "tags": {"amenity": "pharmacy", "healthcare": "pharmacy"}}, {"type": "node", "id": 3273016532, "lat": 47.815818, "lon": 21.4986786}, {"type": "node", "id": 3273016533, "lat": 47.8158906, "lon": 21.4987215}, {"type": "node", "id": 3273016534, "lat": 47.8158754, "lon": 21.4987785}, {"type": "node", "id": 3273016535, "lat": 47.8160308, "lon": 21.4988702}, {"type": "node", "id": 3273016536, "lat": 47.8160454, "lon": 21.4988152}, {"type": "node", "id": 3273016537, "lat": 47.8161145, "lon": 21.4988561}, {"type": "node", "id": 3273016538, "lat": 47.8160414, "lon": 21.4991308}, {"type": "node", "id": 3273016539, "lat": 47.8159777, "lon": 21.4990932}, {"type": "node", "id": 3273016540, "lat": 47.8159887, "lon": 21.499052}, {"type": "node", "id": 3273016541, "lat": 47.8158273, "lon": 21.4989566}, {"type": "node", "id": 3273016542, "lat": 47.8158172, "lon": 21.4989946}, {"type": "node", "id": 3273016543, "lat": 47.8157452, "lon": 21.4989521}, {"type": "node", "id": 3273591256, "lat": 47.8164408, "lon": 21.4972489}, {"type": "node", "id": 3273591257, "lat": 47.8164088, "lon": 21.4974023}, {"type": "node", "id": 3273591258, "lat": 47.8162835, "lon": 21.4973443}, {"type": "node", "id": 3273591259, "lat": 47.8163154, "lon": 21.4971909}, {"type": "node", "id": 3354856157, "lat": 47.60015, "lon": 21.754072, "tags": {"amenity": "pharmacy", "healthcare": "pharmacy", "source": "turistautak.hu", "url": "http://turistautak.hu/poi.php?id=80960"}}, {"type": "node", "id": 3479925771, "lat": 47.539008, "lon": 21.347849, "tags": {"amenity": "pharmacy", "source": "turistautak.hu", "source:date": "2011-05-03", "url": "http://turistautak.hu/poi.php?id=99771"}}, {"type": "node", "id": 3839011424, "lat": 47.5482854, "lon": 21.6106422, "tags": {"addr:city": "Debrecen", "addr:housenumber": "75", "addr:postcode": "4032", "addr:street": "B\u00f6sz\u00f6rm\u00e9nyi \u00fat", "amenity": "pharmacy", "brand": "Benu Gy\u00f3gyszert\u00e1r", "brand:website": "http://benugyogyszertar.hu", "drive_through": "no", "email": "ujkertipatika@gmail.com", "name": "\u00dajkerti Patika", "opening_hours": "Mo-Fr 08:00-18:00, Sa 08:00-12:00", "phone": "+36 52 431 950", "website": "https://benu.hu/ujkerti-patika-debrecen", "wheelchair": "yes"}}, {"type": "node", "id": 4313239091, "lat": 47.5476152, "lon": 21.6137132, "tags": {"amenity": "pharmacy", "name": "Hatvani Istv\u00e1n Gy\u00f3gyszert\u00e1r", "opening_hours": "Mo-Fr 08:00-18:30", "website": "https://hatvanipatika.hu/"}}, {"type": "node", "id": 4936187617, "lat": 47.6430666, "lon": 21.6601166, "tags": {"addr:city": "Bocskaikert", "addr:housenumber": "64", "addr:postcode": "4241", "addr:street": "Debreceni \u00fat", "amenity": "pharmacy", "drive_through": "no", "opening_hours": "Mo-Fr 08:00-17:30, Sa 08:00-12:00", "operator": "Mimipharma Kft."}}, {"type": "node", "id": 5610314031, "lat": 47.8464735, "lon": 21.4293942, "tags": {"amenity": "pharmacy", "dispensing": "yes", "healthcare": "pharmacy", "name": "Winkler Lajos Gy\u00f3gyszert\u00e1r"}}, {"type": "node", "id": 6765211975, "lat": 47.8445626, "lon": 21.4295897, "tags": {"amenity": "pharmacy", "dispensing": "yes", "healthcare": "pharmacy", "name": "Korona Patika"}}, {"type": "node", "id": 6765211987, "lat": 47.843515, "lon": 21.4318571, "tags": {"amenity": "pharmacy", "dispensing": "yes", "healthcare": "pharmacy", "name": "Ez\u00fcst K\u00edgy\u00f3 Gy\u00f3gyszert\u00e1r"}}, {"type": "node", "id": 6765232943, "lat": 47.8404313, "lon": 21.4278819, "tags": {"amenity": "pharmacy", "dispensing": "yes", "healthcare": "pharmacy", "name": "Kabay J\u00e1nos Gy\u00f3gyszert\u00e1r"}}, {"type": "node", "id": 7398519421, "lat": 47.6754677, "lon": 21.506424}, {"type": "node", "id": 7398519422, "lat": 47.6754757, "lon": 21.5065611}, {"type": "node", "id": 7398519423, "lat": 47.6753444, "lon": 21.5065725}, {"type": "node", "id": 7398519424, "lat": 47.6753375, "lon": 21.5064428}, {"type": "node", "id": 7398519425, "lat": 47.6754055, "lon": 21.5065692}, {"type": "node", "id": 7402864767, "lat": 47.6701806, "lon": 21.504909}, {"type": "node", "id": 7402864768, "lat": 47.6702575, "lon": 21.5049429}, {"type": "node", "id": 7402864769, "lat": 47.6703193, "lon": 21.5046997}, {"type": "node", "id": 7402864770, "lat": 47.6703754, "lon": 21.5047505}, {"type": "node", "id": 7402864771, "lat": 47.6704103, "lon": 21.5046813}, {"type": "node", "id": 7402864772, "lat": 47.670253, "lon": 21.5045034}, {"type": "node", "id": 7416499950, "lat": 47.6732863, "lon": 21.5139169}, {"type": "node", "id": 7416499951, "lat": 47.6732637, "lon": 21.5140195}, {"type": "node", "id": 7416499952, "lat": 47.6733757, "lon": 21.5142655}, {"type": "node", "id": 7416499953, "lat": 47.6734519, "lon": 21.5142337}, {"type": "node", "id": 7416499954, "lat": 47.6734299, "lon": 21.5140151}, {"type": "node", "id": 7416499955, "lat": 47.6734215, "lon": 21.5139859}, {"type": "node", "id": 7416499956, "lat": 47.6734108, "lon": 21.5139673}, {"type": "node", "id": 7416499957, "lat": 47.6733405, "lon": 21.5140523}, {"type": "node", "id": 7416499974, "lat": 47.6733566, "lon": 21.5140779}, {"type": "node", "id": 8329639040, "lat": 47.7275366, "lon": 21.102206}, {"type": "node", "id": 8329639041, "lat": 47.727492, "lon": 21.1022752}, {"type": "node", "id": 8329639042, "lat": 47.7274004, "lon": 21.1021444}, {"type": "node", "id": 8329639043, "lat": 47.7274451, "lon": 21.1020753}, {"type": "node", "id": 9325502077, "lat": 47.7981185, "lon": 21.6875041}, {"type": "node", "id": 9325502078, "lat": 47.798052, "lon": 21.6877199}, {"type": "node", "id": 9325502079, "lat": 47.7979616, "lon": 21.6876598}, {"type": "node", "id": 9325502080, "lat": 47.7980116, "lon": 21.687451}, {"type": "node", "id": 9325502081, "lat": 47.7980377, "lon": 21.6874722}, {"type": "node", "id": 9325502082, "lat": 47.7980496, "lon": 21.6874297}, {"type": "node", "id": 9325502083, "lat": 47.7981019, "lon": 21.6874651}, {"type": "node", "id": 9325583153, "lat": 47.7993704, "lon": 21.6809595}, {"type": "node", "id": 9325583154, "lat": 47.7994697, "lon": 21.6809718}, {"type": "node", "id": 9325583155, "lat": 47.7994573, "lon": 21.6811505}, {"type": "node", "id": 9325583156, "lat": 47.7993621, "lon": 21.6811321}, {"type": "node", "id": 9658399577, "lat": 47.8427742, "lon": 21.4346802, "tags": {"amenity": "pharmacy", "dispensing": "no", "healthcare": "pharmacy", "name": "Non Stop Csemege", "note": "gy\u00f3gyszert\u00e1ron k\u00edv\u00fcli gy\u00f3gyszerforgalmaz\u00f3"}}, {"type": "node", "id": 11646837983, "lat": 47.5565631, "lon": 21.6275901}, {"type": "node", "id": 11646837984, "lat": 47.5565722, "lon": 21.6275904}, {"type": "node", "id": 11646837985, "lat": 47.5565633, "lon": 21.6275729}, {"type": "node", "id": 11646837986, "lat": 47.5565704, "lon": 21.6277292}, {"type": "node", "id": 11646837987, "lat": 47.5565491, "lon": 21.6277286}, {"type": "node", "id": 11646837988, "lat": 47.5565493, "lon": 21.6275725}, {"type": "node", "id": 11646837989, "lat": 47.5565483, "lon": 21.6277916}, {"type": "node", "id": 11646837990, "lat": 47.5565798, "lon": 21.6277925}, {"type": "node", "id": 11646837991, "lat": 47.5564041, "lon": 21.6275887}, {"type": "node", "id": 11646837992, "lat": 47.556535, "lon": 21.6275925}, {"type": "node", "id": 11646837993, "lat": 47.5565353, "lon": 21.6275721}, {"type": "node", "id": 12094833219, "lat": 47.5421695, "lon": 21.6083945, "tags": {"amenity": "pharmacy", "healthcare": "pharmacy", "name": "F\u00fcredi Patika"}}, {"type": "node", "id": 12759209792, "lat": 47.5465837, "lon": 21.6285297, "tags": {"addr:city": "Debrecen", "addr:housenumber": "4/a", "addr:postcode": "4028", "addr:street": "G\u00e9resi utca", "amenity": "pharmacy", "healthcare": "pharmacy", "name": "Nagyerdei Patika - Kulcs Patika", "opening_hours": "Mo-Fr 09:00-19:00, Sa 08:00-13:00, Su closed"}}, {"type": "node", "id": 13011507517, "lat": 47.6810524, "lon": 21.6688921}, {"type": "node", "id": 13011507518, "lat": 47.6809822, "lon": 21.6690218}, {"type": "node", "id": 13011507519, "lat": 47.6808652, "lon": 21.6688821}, {"type": "node", "id": 13011507520, "lat": 47.6809734, "lon": 21.6686821}, {"type": "node", "id": 13011507521, "lat": 47.6810056, "lon": 21.6686581}, {"type": "node", "id": 13011507522, "lat": 47.6810196, "lon": 21.6686573}, {"type": "node", "id": 13011507523, "lat": 47.6810329, "lon": 21.6686697}, {"type": "node", "id": 13011507524, "lat": 47.6810418, "lon": 21.6686846}, {"type": "way", "id": 208085022, "nodes": [11646837993, 11646837992, 11646837991, 2184021705, 2184021711, 2184021710, 2184021708, 2184021707, 2184021721, 11646837990, 11646837989, 11646837987, 11646837986, 11646837984, 11646837983, 11646837985, 11646837988, 11646837993], "tags": {"amenity": "pharmacy", "building": "university", "dispensing": "no"}}, {"type": "way", "id": 320674674, "nodes": [3273016532, 3273016533, 3273016534, 3273016535, 3273016536, 3273016537, 3273016538, 3273016539, 3273016540, 3273016541, 3273016542, 3273016543, 3273016532], "tags": {"addr:city": "Hajd\u00fadorog", "addr:housenumber": "7", "addr:postcode": "4087", "addr:street": "Vasv\u00e1ri P\u00e1l t\u00e9r", "amenity": "pharmacy", "building": "yes", "contact:phone": "+36 52 572 084", "description": "Ingyenes v\u00e9rcukorm\u00e9r\u00e9si lehet\u0151s\u00e9g.", "name": "Olaj\u00e1g Gy\u00f3gyszert\u00e1r", "opening_hours": "Mo-Fr 08:00-18:00"}}, {"type": "way", "id": 320722747, "nodes": [3273591256, 3273591257, 3273591258, 3273591259, 3273591256], "tags": {"amenity": "pharmacy", "building": "yes"}}, {"type": "way", "id": 791403378, "nodes": [7398519421, 7398519422, 7398519425, 7398519423, 7398519424, 7398519421], "tags": {"amenity": "pharmacy", "building": "yes", "dispensing": "yes", "drive_through": "no", "healthcare": "pharmacy", "layer": "2"}}, {"type": "way", "id": 791867788, "nodes": [7402864767, 7402864768, 7402864769, 7402864770, 7402864771, 7402864772, 7402864767], "tags": {"addr:city": "Hajd\u00fab\u00f6sz\u00f6rm\u00e9ny", "addr:housenumber": "45", "addr:postcode": "4220", "addr:street": "\u00c1rp\u00e1d utca", "amenity": "pharmacy", "building": "yes", "dispensing": "yes", "drive_through": "no", "healthcare": "pharmacy", "layer": "2", "name": "Hajd\u00fa gy\u00f3gyszert\u00e1r", "opening_hours": "Mo-Fr 07:30-19:00; Sa 07:30-13:00", "operator": "Hajd\u00fa gy\u00f3gyszert\u00e1r bt."}}, {"type": "way", "id": 793142030, "nodes": [7416499950, 7416499951, 7416499957, 7416499974, 7416499952, 7416499953, 7416499954, 7416499955, 7416499956, 7416499950], "tags": {"amenity": "pharmacy", "building": "yes", "dispensing": "yes", "drive_through": "no", "healthcare": "pharmacy", "layer": "1"}}, {"type": "way", "id": 896093723, "nodes": [8329639040, 8329639041, 8329639042, 8329639043, 8329639040], "tags": {"amenity": "pharmacy", "building": "yes", "dispensing": "yes", "healthcare": "pharmacy", "name": "Skorpi\u00f3 fi\u00f3kpatika"}}, {"type": "way", "id": 1010790685, "nodes": [9325502077, 9325502078, 9325502079, 9325502080, 9325502081, 9325502082, 9325502083, 9325502077], "tags": {"addr:city": "\u00dajfeh\u00e9rt\u00f3", "addr:housenumber": "52", "addr:postcode": "4244", "addr:street": "Pet\u0151fi S\u00e1ndor utca", "amenity": "pharmacy", "building": "yes", "dispensing": "yes", "drive_through": "no", "healthcare": "pharmacy", "name": "Korona Gy\u00f3gyszert\u00e1r", "opening_hours": "Mo-Fr 08:00-16:30"}}, {"type": "way", "id": 1010796900, "nodes": [9325583153, 9325583154, 9325583155, 9325583156, 9325583153], "tags": {"addr:city": "\u00dajfeh\u00e9rt\u00f3", "addr:housenumber": "1", "addr:postcode": "4244", "addr:street": "Kossuth Lajos utca", "amenity": "pharmacy", "building": "yes", "dispensing": "yes", "healthcare": "pharmacy", "name": "Rem\u00e9ny Patika"}}, {"type": "way", "id": 1415864345, "nodes": [13011507517, 13011507518, 13011507519, 13011507520, 13011507521, 13011507522, 13011507523, 13011507524, 13011507517], "tags": {"addr:city": "Hajd\u00fahadh\u00e1z", "addr:housenumber": "2", "addr:postcode": "4242", "addr:street": "Sz\u00e9chenyi utca", "amenity": "pharmacy", "building": "yes", "dispensing": "yes", "drive_through": "no", "healthcare": "pharmacy", "name": "Szent Anna Patika", "opening_hours": "Mo-Fr 08:00-18:00"}}]}