{"version": 0.6, "generator": "Overpass API 0.7.62.8 e802775f", "osm3s": {"timestamp_osm_base": "2025-10-06T07:57:45Z", "copyright": "The data included in this document is from www.openstreetmap.org. The data is made available under ODbL."}, "elements": [{"type": "node", "id": 1408250254, "lat": 46.875951, "lon": 19.221464, "tags": {"amenity": "pharmacy", "healthcare": "pharmacy"}}, {"type": "node", "id": 1408250307, "lat": 46.8765561, "lon": 19.2236634, "tags": {"amenity": "pharmacy", "healthcare": "pharmacy"}}, {"type": "node", "id": 3452836306, "lat": 46.7408458, "lon": 18.9693032, "tags": {"amenity": "pharmacy", "healthcare": "pharmacy", "source": "turistautak.hu", "source:date": "2012-01-01", "url": "http://turistautak.hu/poi.php?id=131391"}}, {"type": "node", "id": 3455385267, "lat": 46.8030956, "lon": 19.0045356}, {"type": "node", "id": 3455387171, "lat": 46.8030964, "lon": 19.0046865}, {"type": "node", "id": 3455387174, "lat": 46.8031516, "lon": 19.0045194}, {"type": "node", "id": 3455387175, "lat": 46.8031517, "lon": 19.004535}, {"type": "node", "id": 3455387176, "lat": 46.8032263, "lon": 19.0045186}, {"type": "node", "id": 3455387177, "lat": 46.8032272, "lon": 19.0046851}, {"type": "node", "id": 3459945521, "lat": 46.8403585, "lon": 19.4450437, "tags": {"addr:city": "\u00c1gasegyh\u00e1za", "addr:housenumber": "66", "addr:postcode": "6076", "addr:street": "R\u00e1k\u00f3czi \u00fat", "amenity": "pharmacy", "contact:phone": "+36 76 388 206", "healthcare": "pharmacy", "name": "Bor\u00f3ka patika", "opening_hours": "Mo-Tu 09:00-13:00; We 13:30-17:30; Th-Fr 09:00-13:00", "source": "turistautak.hu", "source:date": "2011-06-24", "url": "http://turistautak.hu/poi.php?id=34787"}}, {"type": "node", "id": 3461942693, "lat": 46.916652, "lon": 18.971979, "tags": {"amenity": "pharmacy", "healthcare": "pharmacy", "source": "turistautak.hu", "source:date": "2013-10-02", "url": "http://turistautak.hu/poi.php?id=160110"}}, {"type": "node", "id": 3470101456, "lat": 46.6946723, "lon": 19.027534, "tags": {"amenity": "pharmacy", "contact:phone": "+36 78 507 013", "description": "Kossuth Lajos u. 46. Tel.: 06-78/507-013", "healthcare": "pharmacy", "source": "turistautak.hu", "source:date": "2010-01-24", "url": "http://turistautak.hu/poi.php?id=48330"}}, {"type": "node", "id": 3474964995, "lat": 46.7142188, "lon": 19.2636474, "tags": {"addr:city": "Cseng\u0151d", "addr:housenumber": "67", "addr:postcode": "6222", "addr:street": "D\u00f3zsa Gy\u00f6rgy utca", "amenity": "pharmacy", "healthcare": "pharmacy", "name": "Fortuna patika", "phone": "+36 20 463 4064", "source": "turistautak.hu", "source:date": "2011-06-24", "url": "http://turistautak.hu/poi.php?id=43418", "website": "https://www.webbeteg.hu/keresok/patika/741/"}}, {"type": "node", "id": 3474965050, "lat": 46.6178419, "lon": 19.2875241, "tags": {"amenity": "pharmacy", "healthcare": "pharmacy", "name": "Patika \u00e9s orvosi rendel\u0151", "source": "turistautak.hu", "source:date": "2012-11-20", "url": "http://turistautak.hu/poi.php?id=147346"}}, {"type": "node", "id": 3474965181, "lat": 46.818365, "lon": 19.236529, "tags": {"amenity": "pharmacy", "source": "turistautak.hu", "source:date": "2011-06-24", "url": "http://turistautak.hu/poi.php?id=73785"}}, {"type": "node", "id": 4316781436, "lat": 46.8811342, "lon": 18.9630814}, {"type": "node", "id": 4316781437, "lat": 46.8810477, "lon": 18.9630125}, {"type": "node", "id": 4316781438, "lat": 46.8811318, "lon": 18.9627864}, {"type": "node", "id": 4316781439, "lat": 46.8812183, "lon": 18.9628552}, {"type": "node", "id": 4360652291, "lat": 46.6156385, "lon": 19.4817974, "tags": {"amenity": "pharmacy"}}, {"type": "node", "id": 4427432889, "lat": 46.8058937, "lon": 18.9251868, "tags": {"amenity": "pharmacy", "healthcare": "pharmacy", "name": "Plat\u00e1n Gy\u00f3gyszert\u00e1r", "name:hu": "Plat\u00e1n Gy\u00f3gyszert\u00e1r", "opening_hours": "Mo-Fr 08:00-18:00; Sa 08:00-12:00", "wheelchair": "yes"}}, {"type": "node", "id": 5372756322, "lat": 46.8942352, "lon": 18.9319135, "tags": {"amenity": "pharmacy", "healthcare": "pharmacy"}}, {"type": "node", "id": 5540704058, "lat": 46.9373691, "lon": 19.4789802}, {"type": "node", "id": 5540704059, "lat": 46.9372878, "lon": 19.4790884}, {"type": "node", "id": 5540704060, "lat": 46.9370556, "lon": 19.4787722}, {"type": "node", "id": 5540704061, "lat": 46.9371653, "lon": 19.4786263}, {"type": "node", "id": 7840050287, "lat": 46.7520614, "lon": 19.4754998}, {"type": "node", "id": 7840050288, "lat": 46.7518739, "lon": 19.4753991}, {"type": "node", "id": 7840050289, "lat": 46.751817, "lon": 19.4756251}, {"type": "node", "id": 7840050290, "lat": 46.7519047, "lon": 19.4756722}, {"type": "node", "id": 7840050291, "lat": 46.7519345, "lon": 19.4755544}, {"type": "node", "id": 7840050292, "lat": 46.7520341, "lon": 19.475608}, {"type": "node", "id": 8180825347, "lat": 46.8075945, "lon": 18.9239641, "tags": {"addr:city": "Dunaf\u00f6ldv\u00e1r", "amenity": "pharmacy", "dispensing": "yes", "healthcare": "pharmacy", "name": "Amarillisz gy\u00f3gyszert\u00e1r"}}, {"type": "node", "id": 8261758452, "lat": 46.7990578, "lon": 19.3613246, "tags": {"addr:city": "Izs\u00e1k", "addr:housenumber": "2", "addr:postcode": "6070", "addr:street": "R\u00e1k\u00f3czi utca", "amenity": "pharmacy", "contact:phone": "+36 76 569 208", "dispensing": "yes", "healthcare": "pharmacy", "name": "Libra Gy\u00f3gyszert\u00e1r", "opening_hours": "Mo-Fr 08:00-18:00", "payment:cash": "yes", "payment:contactless": "yes", "payment:maestro": "yes", "payment:mastercard": "yes", "payment:visa": "yes", "payment:visa_debit": "yes", "payment:visa_electron": "yes"}}, {"type": "node", "id": 8283817703, "lat": 46.807022, "lon": 18.9256188, "tags": {"amenity": "pharmacy", "healthcare": "pharmacy"}}, {"type": "node", "id": 8856762414, "lat": 46.7711175, "lon": 19.2852598, "tags": {"addr:city": "Soltszentimre", "addr:housenumber": "25", "addr:postcode": "6223", "addr:street": "Szent Imre utca", "amenity": "pharmacy", "contact:phone": "+36 78 445 464", "currency:HUF": "yes", "healthcare": "pharmacy", "name": "Fi\u00f3kpatika Gy\u00f3gyszert\u00e1r", "opening_hours": "Mo-Tu 08:30-12:00; We 12:30-16:00; Th-Fr 08:30-12:00", "operator": "Domb\u00f3v\u00e1ri H\u00e1rs Patika Kereskedelmi Bt.", "payment:cash": "yes", "payment:contactless": "yes", "payment:maestro": "yes", "payment:mastercard": "yes", "payment:visa": "yes", "payment:visa_debit": "yes", "payment:visa_electron": "yes", "url": "https://www.webbeteg.hu/keresok/patika/2296/"}}, {"type": "node", "id": 11019788195, "lat": 46.9372092, "lon": 19.478697}, {"type": "node", "id": 11019788196, "lat": 46.9371982, "lon": 19.4787117}, {"type": "node", "id": 11019788197, "lat": 46.9372935, "lon": 19.4788255}, {"type": "node", "id": 11019788198, "lat": 46.9372799, "lon": 19.4788435}, {"type": "node", "id": 11019788199, "lat": 46.9373373, "lon": 19.4788962}, {"type": "node", "id": 11019788200, "lat": 46.9373262, "lon": 19.478911}, {"type": "node", "id": 11019788201, "lat": 46.9372482, "lon": 19.4790246}, {"type": "node", "id": 11019788202, "lat": 46.9372329, "lon": 19.479045}, {"type": "node", "id": 11019788203, "lat": 46.9371901, "lon": 19.4789759}, {"type": "node", "id": 11019788204, "lat": 46.9372015, "lon": 19.4789608}, {"type": "node", "id": 11019788705, "lat": 46.937104, "lon": 19.4788502}, {"type": "node", "id": 11019788706, "lat": 46.9371198, "lon": 19.4788291}, {"type": "node", "id": 11185618398, "lat": 46.9573945, "lon": 19.288081, "tags": {"amenity": "pharmacy", "contact:phone": "+36 76 422 215", "healthcare": "pharmacy"}}, {"type": "node", "id": 12512156788, "lat": 46.8379132, "lon": 18.9568843, "tags": {"amenity": "pharmacy", "healthcare": "pharmacy"}}, {"type": "node", "id": 12803005678, "lat": 46.617756, "lon": 19.2875526}, {"type": "node", "id": 12803005679, "lat": 46.6178139, "lon": 19.2876806}, {"type": "node", "id": 12803005680, "lat": 46.6178524, "lon": 19.2876436}, {"type": "node", "id": 12803005681, "lat": 46.6179649, "lon": 19.2878919}, {"type": "node", "id": 12803005682, "lat": 46.6180404, "lon": 19.2878193}, {"type": "node", "id": 12803005683, "lat": 46.6178701, "lon": 19.2874431}, {"type": "way", "id": 338458473, "nodes": [3455387177, 3455387176, 3455387174, 3455387175, 3455385267, 3455387171, 3455387177], "tags": {"addr:city": "Solt", "addr:postcode": "6320", "amenity": "pharmacy", "building": "yes", "healthcare": "pharmacy", "name": "H\u00e1rsfa", "source": "survey;Bing"}}, {"type": "way", "id": 432733141, "nodes": [4316781436, 4316781437, 4316781438, 4316781439, 4316781436], "tags": {"addr:city": "Apostag", "addr:housenumber": "1/A", "addr:postcode": "6088", "addr:street": "Nagy Lajos t\u00e9r", "amenity": "pharmacy", "building": "yes", "dispensing": "yes", "healthcare": "pharmacy", "name": "Kossuth Lajos Gy\u00f3gyszert\u00e1r", "opening_hours": "Mo-Fr 08:00-16:00", "payment:cards": "yes", "payment:cash": "yes", "phone": "+36 78 428 231"}}, {"type": "way", "id": 578174411, "nodes": [5540704061, 11019788195, 11019788196, 11019788198, 11019788197, 11019788199, 11019788200, 5540704058, 5540704059, 11019788201, 11019788202, 11019788203, 11019788204, 11019788706, 11019788705, 5540704060, 5540704061], "tags": {"amenity": "pharmacy", "building": "yes", "dispensing": "yes", "healthcare": "pharmacy", "name": "Szent Istv\u00e1n Patika"}}, {"type": "way", "id": 840186073, "nodes": [7840050287, 7840050288, 7840050289, 7840050290, 7840050291, 7840050292, 7840050287], "tags": {"addr:city": "Orgov\u00e1ny", "addr:housenumber": "65", "addr:postcode": "6077", "addr:street": "Kossuth Lajos utca", "amenity": "pharmacy", "building": "retail", "contact:facebook": "https://www.facebook.com/gondviselesgyogyszertar", "contact:phone": "+36 76 591 020", "currency:HUF": "yes", "dispensing": "yes", "healthcare": "pharmacy", "name": "Gondvisel\u00e9s Gy\u00f3gyszert\u00e1r", "opening_hours": "Mo-Fr 08:00-13:00,13:30-16:30", "operator": "Ady Reinhard Siegfriedn\u00e9 Dr.", "payment:american_express": "yes", "payment:cash": "yes", "payment:contactless": "yes", "payment:maestro": "yes", "payment:mastercard": "yes", "payment:visa": "yes", "payment:visa_debit": "yes", "payment:visa_electron": "yes", "url": "https://orgovany.asp.lgov.hu/gondviseles-gyogyszertar", "wheelchair": "yes"}}, {"type": "way", "id": 1382853276, "nodes": [12803005678, 12803005679, 12803005680, 12803005681, 12803005682, 12803005683, 12803005678], "tags": {"amenity": "pharmacy", "building": "yes", "healthcare": "pharmacy"}}]}