{"version": 0.6, "generator": "Overpass API 0.7.62.8 e802775f", "osm3s": {"timestamp_osm_base": "2025-10-06T08:36:15Z", "copyright": "The data included in this document is from www.openstreetmap.org. The data is made available under ODbL."}, "elements": [{"type": "node", "id": 724372334, "lat": 46.7640095, "lon": 23.5849904, "tags": {"addr:city": "Cluj-Napoca", "addr:country": "RO", "addr:housenumber": "35", "addr:street": "Strada Victor Babe\u0219", "amenity": "pharmacy", "dispensing": "yes", "healthcare": "pharmacy", "name": "Elmafarm", "opening_hours": "Mo-Fr 07:00-23:00", "phone": "0264-591812"}}, {"type": "node", "id": 724394650, "lat": 46.7634852, "lon": 23.5845473, "tags": {"addr:city": "Cluj-Napoca", "addr:country": "RO", "amenity": "pharmacy", "dispensing": "yes", "healthcare": "pharmacy", "name": "Gedeon Richter"}}, {"type": "node", "id": 724426557, "lat": 46.7659683, "lon": 23.5822028, "tags": {"addr:city": "Cluj-Napoca", "addr:country": "RO", "amenity": "pharmacy", "dispensing": "no", "healthcare": "pharmacy", "name": "Naturland"}}, {"type": "node", "id": 724426559, "lat": 46.7661303, "lon": 23.5797945, "tags": {"addr:city": "Cluj-Napoca", "addr:country": "RO", "amenity": "pharmacy", "dispensing": "no", "healthcare": "pharmacy", "name": "S\u0103n\u0103tatea Verde", "opening_hours": "Mo-Fr 08:00-19:00"}}, {"type": "node", "id": 765663001, "lat": 46.7565822, "lon": 23.5583628, "tags": {"addr:city": "Cluj-Napoca", "addr:housenumber": "5", "addr:street": "Strada Ion Me\u0219ter", "amenity": "pharmacy", "contact:email": "myriam_pharma@yahoo.com", "healthcare": "pharmacy", "name": "MyriamPharma", "opening_hours": "Mo-Fr 08:00-21:00; Sa 09:00-19:00", "phone": "0264 459666", "postal_code": "400650"}}, {"type": "node", "id": 1347033530, "lat": 46.7779837, "lon": 23.6111145, "tags": {"addr:city": "Cluj-Napoca", "addr:country": "RO", "addr:street": "Bulevardul 21 Decembrie 1989", "amenity": "pharmacy", "dispensing": "yes", "healthcare": "pharmacy", "name": "Remedium Farm", "opening_hours": "24/7", "operator": "Remedium Farm", "ref": "Farmacia Remedium Farm 1"}}, {"type": "node", "id": 1384160598, "lat": 46.7943531, "lon": 23.5251584, "tags": {"addr:city": "Cluj-Napoca", "addr:country": "RO", "addr:housenumber": "70", "addr:street": "Strada Magnoliei", "addr:suburb": "Baciu", "amenity": "pharmacy", "name": "Iorafarm", "wheelchair": "no"}}, {"type": "node", "id": 1589493342, "lat": 46.7723793, "lon": 23.6045335, "tags": {"addr:city": "Cluj-Napoca", "addr:country": "RO", "addr:housenumber": "42", "addr:postcode": "400121", "addr:postcode:source": "Date de la Po\u0219ta Rom\u00e2n\u0103, publicate sub Licen\u021ba pentru Guvernare Deschis\u0103 v1.0 la http://date.gov.ro/organization/posta-romana", "addr:street": "Calea Doroban\u021bilor", "amenity": "pharmacy", "drive_through": "no", "healthcare": "pharmacy", "name": "Farmacia Remedium"}}, {"type": "node", "id": 1594374885, "lat": 46.7597052, "lon": 23.584245, "tags": {"addr:door": "71", "addr:housenumber": "24", "addr:postcode": "400349", "addr:postcode:source": "Date de la Po\u0219ta Rom\u00e2n\u0103, publicate sub Licen\u021ba pentru Guvernare Deschis\u0103 v1.0 la http://date.gov.ro/organization/posta-romana", "addr:street": "Strada Louis Pasteur", "amenity": "pharmacy", "email": "aldedra1@yahoo.com", "healthcare": "pharmacy", "name": "Aldedra", "opening_hours": "Mo-Fr 08:00-20:00; Sa-Su10:00-17:00", "phone": "0264-453157; 0723-444557"}}, {"type": "node", "id": 1624363066, "lat": 46.7546428, "lon": 23.5808524, "tags": {"addr:housenumber": "136 - 138", "addr:street": "Strada Observatorului", "alt_name": "corp A - parter", "amenity": "pharmacy", "healthcare": "pharmacy", "name": "Bendis Pharma"}}, {"type": "node", "id": 1629991704, "lat": 46.7566743, "lon": 23.5562001, "tags": {"addr:city": "Cluj-Napoca", "addr:country": "RO", "addr:street": "Aleea Ruc\u0103r", "amenity": "pharmacy", "brand": "Catena", "brand:wikidata": "Q24035728", "brand:wikipedia": "ro:Farmacia Catena", "healthcare": "pharmacy", "name": "Catena", "opening_hours": "Mo-Fr 07:30-21:30; Sa 08:00-16:00; Su 09:00-15:00"}}, {"type": "node", "id": 1675024010, "lat": 46.7694207, "lon": 23.6095842, "tags": {"addr:city": "Cluj-Napoca", "addr:country": "RO", "addr:door": "33", "addr:floor": "0", "addr:housenumber": "109", "addr:postcode": "400407", "addr:postcode:source": "Date de la Po\u0219ta Rom\u00e2n\u0103, publicate sub Licen\u021ba pentru Guvernare Deschis\u0103 v1.0 la http://date.gov.ro/organization/posta-romana", "addr:street": "Bulevardul Nicolae Titulescu", "amenity": "pharmacy", "healthcare": "pharmacy", "name": "Remedium Titulescu", "opening_hours": "Mo-Fr 08:00-21:00; Sa 08:00-20:00; Su 09:00-15:00", "phone": "+40 264 704 652", "wheelchair": "limited"}}, {"type": "node", "id": 1681452693, "lat": 46.7746463, "lon": 23.6008325, "tags": {"addr:city": "Cluj-Napoca", "addr:country": "RO", "addr:housenumber": "57", "addr:street": "Bulevardul 21 Decembrie 1989", "amenity": "pharmacy", "healthcare": "pharmacy", "name": "Aqua Farm", "name:ro": "Aqua Farm", "opening_hours": "Mo- Fr 08:00-21:00; Sa 09:00-15:00", "phone": "0264-535369"}}, {"type": "node", "id": 1687779837, "lat": 46.7775772, "lon": 23.6092872, "tags": {"addr:city": "Cluj-Napoca", "addr:housenumber": "129", "addr:street": "Bulevardul 21 Decembrie 1989", "amenity": "pharmacy", "healthcare": "pharmacy", "name": "RemediumFarm", "opening_hours": "Mo-Fr 8:00-21:00; Sa 8:00-20:00", "phone": "0264-413859", "wheelchair": "no"}}, {"type": "node", "id": 1695004605, "lat": 46.7555696, "lon": 23.5940531, "tags": {"addr:city": "Cluj-Napoca", "addr:housenumber": "7", "addr:street": "Strada Observatorului", "amenity": "pharmacy", "healthcare": "pharmacy", "name": "Farmacia Observator", "wheelchair": "no"}}, {"type": "node", "id": 1699573617, "lat": 46.7820874, "lon": 23.6280124, "tags": {"addr:city": "Cluj-Napoca", "addr:country": "RO", "amenity": "pharmacy", "healthcare": "pharmacy", "name": "Richter"}}, {"type": "node", "id": 1702656714, "lat": 46.7781224, "lon": 23.6119108, "tags": {"addr:city": "Cluj-Napoca", "addr:country": "RO", "addr:housenumber": "133A", "addr:street": "Bulevardul 21 Decembrie 1989", "amenity": "pharmacy", "brand": "Catena", "brand:wikidata": "Q24035728", "brand:wikipedia": "ro:Farmacia Catena", "healthcare": "pharmacy", "name": "Catena", "opening_hours": "Mo-Sa 07:00-23:00; Su 08:00-23:00", "phone": "0264-411128", "wheelchair": "limited"}}, {"type": "node", "id": 1704092200, "lat": 46.7774966, "lon": 23.6114634, "tags": {"addr:city": "Cluj-Napoca", "addr:country": "RO", "addr:housenumber": "131-135", "addr:postcode": "400602", "addr:postcode:source": "Date de la Po\u0219ta Rom\u00e2n\u0103, publicate sub Licen\u021ba pentru Guvernare Deschis\u0103 v1.0 la http://date.gov.ro/organization/posta-romana", "addr:street": "Bulevardul 21 Decembrie 1989", "amenity": "pharmacy", "healthcare": "pharmacy", "name": "Napofarm"}}, {"type": "node", "id": 1704093253, "lat": 46.7744367, "lon": 23.5927382, "tags": {"addr:city": "Cluj-Napoca", "addr:country": "RO", "amenity": "pharmacy", "healthcare": "pharmacy", "name": "Via Farm", "opening_hours": "24/7", "wheelchair": "yes"}}, {"type": "node", "id": 1705919116, "lat": 46.7663558, "lon": 23.5503838, "tags": {"addr:city": "Cluj-Napoca", "addr:country": "RO", "addr:street": "Strada F\u00e2nt\u00e2nele", "amenity": "pharmacy", "healthcare": "pharmacy", "name": "Viscum"}}, {"type": "node", "id": 1705944485, "lat": 46.7740311, "lon": 23.5921678, "tags": {"addr:city": "Cluj-Napoca", "addr:country": "RO", "addr:place": "Pia\u021ba Mihai Viteazu", "addr:postcode": "400151", "amenity": "pharmacy", "brand": "Catena", "brand:wikidata": "Q24035728", "brand:wikipedia": "ro:Farmacia Catena", "healthcare": "pharmacy", "internet_access": "wlan", "name": "Catena", "smoking": "no", "wheelchair": "no"}}, {"type": "node", "id": 1708016065, "lat": 46.7789991, "lon": 23.6141963, "tags": {"addr:city": "Cluj-Napoca", "addr:country": "RO", "addr:street": "Strada Fabricii", "amenity": "pharmacy", "brand": "Catena", "brand:wikidata": "Q24035728", "brand:wikipedia": "ro:Farmacia Catena", "healthcare": "pharmacy", "name": "Catena", "opening_hours": "Mo-Fr 08:00-22:00; Sa 8:00-18:00; Su 09:00-15:00", "phone": "0264-410210"}}, {"type": "node", "id": 1708016066, "lat": 46.7782896, "lon": 23.6125626, "tags": {"addr:city": "Cluj-Napoca", "addr:country": "RO", "addr:street": "Bulevardul 21 Decembrie 1989", "amenity": "pharmacy", "healthcare": "pharmacy", "name": "Punkt"}}, {"type": "node", "id": 1708016820, "lat": 46.781634, "lon": 23.6131459, "tags": {"addr:city": "Cluj-Napoca", "addr:housenumber": "5", "addr:street": "Strada Fabricii", "amenity": "pharmacy", "email": "cj11@richter-farmacia.ro", "healthcare": "pharmacy", "name": "Farmacia Richter", "name:ro": "Farmacia Richter", "opening_hours": "Mo-Fr 08:00-20:00; Sa 09:00-17:00; ", "phone": "0264-416071;0720-110374", "postal_code": "400620"}}, {"type": "node", "id": 1708824469, "lat": 46.7642689, "lon": 23.5850795, "tags": {"addr:city": "Cluj-Napoca", "addr:country": "RO", "amenity": "pharmacy", "brand": "Catena", "brand:wikidata": "Q24035728", "healthcare": "pharmacy", "name": "Catena"}}, {"type": "node", "id": 1709556316, "lat": 46.7825455, "lon": 23.6144817, "tags": {"addr:city": "Cluj-Napoca", "addr:country": "RO", "addr:housenumber": "12", "addr:street": "Strada Fabricii", "amenity": "pharmacy", "brand": "Dr. Max", "brand:wikidata": "Q56317371", "brand:wikipedia": "ro:Sensiblu", "email": "cluj11@drmax.ro", "healthcare": "pharmacy", "name": "Dr. Max", "opening_hours": "Mo-Sa 08:00-22:00; Su 08:00-20:00", "phone": "0264-410668; 0728-188337"}}, {"type": "node", "id": 1711813981, "lat": 46.7739365, "lon": 23.5896371, "tags": {"addr:housenumber": "37A", "addr:street": "Pia\u021ba Mihai Viteazu", "amenity": "pharmacy", "brand": "Catena", "brand:wikidata": "Q24035728", "brand:wikipedia": "ro:Farmacia Catena", "healthcare": "pharmacy", "name": "Catena", "opening_hours": "Mo-Fr 07:00-21:00; Sa 08:00-16:00; Su 09:00-14:00", "phone": "0264-487298"}}, {"type": "node", "id": 1833597793, "lat": 46.7495569, "lon": 23.8386934, "tags": {"amenity": "pharmacy", "name": "Farmacie"}}, {"type": "node", "id": 1903806203, "lat": 46.7692774, "lon": 23.6161565, "tags": {"addr:city": "Cluj-Napoca", "addr:country": "RO", "addr:housenumber": "163", "addr:postcode:source": "Date de la Po\u0219ta Rom\u00e2n\u0103, publicate sub Licen\u021ba pentru Guvernare Deschis\u0103 v1.0 la http://date.gov.ro/organization/posta-romana", "addr:street": "Bulevardul Nicolae Titulescu", "amenity": "pharmacy", "email": "mariuscraciun@webfarm.ro", "healthcare": "pharmacy", "name": "Omnia", "opening_hours": "Mo-Fr 08:00-21:00; Sa 08:00-19:00; Su 08:00-14:30", "phone": "0264-414421", "postal_code": "400407"}}, {"type": "node", "id": 1983937721, "lat": 46.7532464, "lon": 23.5818481, "tags": {"addr:city": "Cluj-Napoca", "addr:country": "RO", "addr:province": "Transilvania", "addr:state": "CJ", "addr:street": "Strada Observatorului", "amenity": "pharmacy", "drive_through": "no", "healthcare": "pharmacy", "name": "Farmacia Infofarm", "note": "Open 9am-10pm", "wheelchair": "yes"}}, {"type": "node", "id": 2150795452, "lat": 46.7920516, "lon": 23.525387, "tags": {"addr:city": "Baciu", "addr:country": "RO", "addr:housenumber": "204", "addr:street": "Strada Transilvania", "amenity": "pharmacy", "dispensing": "no", "name": "Acama", "wheelchair": "no"}}, {"type": "node", "id": 2328776049, "lat": 46.7709269, "lon": 23.5896156, "tags": {"addr:city": "Cluj-Napoca", "addr:country": "RO", "addr:housenumber": "27", "addr:postcode": "400113", "addr:postcode:source": "Date de la Po\u0219ta Rom\u00e2n\u0103, publicate sub Licen\u021ba pentru Guvernare Deschis\u0103 v1.0 la http://date.gov.ro/organization/posta-romana", "addr:street": "Pia\u021ba Unirii", "amenity": "pharmacy", "healthcare": "pharmacy", "name": "Farmacia Richter", "name:it": "Richter", "name:ro": "Farmacia Richter", "opening_hours": "Mo-Fr 08:00-21:00; Sa-Su 09:00-21:00", "source": "survey", "website": "https://richter-farmacia.ro/", "wheelchair": "yes"}}, {"type": "node", "id": 2329355681, "lat": 46.7703406, "lon": 23.5959283, "tags": {"addr:city": "Cluj-Napoca", "addr:country": "RO", "addr:housenumber": "46", "addr:street": "Bulevardul Eroilor", "amenity": "pharmacy", "brand": "Dr. Max", "brand:wikidata": "Q56317371", "brand:wikipedia": "ro:Sensiblu", "healthcare": "pharmacy", "name": "Dr. Max", "opening_hours": "Mo-Fr 08:00-21:00, Sa 09:00-19:00", "phone": "0799914688", "wheelchair": "no"}}, {"type": "node", "id": 2469967486, "lat": 46.7722786, "lon": 23.5584895, "tags": {"addr:street": "Strada Donath", "amenity": "pharmacy", "healthcare": "pharmacy", "name": "Farmacia Panaceea", "wheelchair": "yes"}}, {"type": "node", "id": 2511577167, "lat": 46.7668184, "lon": 23.625082, "tags": {"addr:city": "Cluj-Napoca", "addr:country": "RO", "addr:housenumber": "1", "addr:street": "Aleea Detunata", "amenity": "pharmacy", "brand": "Catena", "brand:wikidata": "Q24035728", "brand:wikipedia": "ro:Farmacia Catena", "dispensing": "yes", "healthcare": "pharmacy", "name": "Catena", "opening_hours": "Mo-Fr 08:00-19:00; Sa 08:00-16:00; Su 09:00-14:00", "operator": "Catena", "phone": "0745 086 595", "website": "https://www.catena.ro/"}}, {"type": "node", "id": 2511577170, "lat": 46.7672088, "lon": 23.6245986, "tags": {"addr:city": "Cluj-Napoca", "addr:country": "RO", "amenity": "pharmacy", "healthcare": "pharmacy", "name": "Ropharma"}}, {"type": "node", "id": 2535994856, "lat": 46.860098, "lon": 23.7972076, "tags": {"amenity": "pharmacy", "healthcare": "pharmacy", "name": "Farmacie"}}, {"type": "node", "id": 2536323188, "lat": 46.7732843, "lon": 23.5978133, "tags": {"addr:city": "Cluj-Napoca", "addr:country": "RO", "addr:housenumber": "68", "addr:postcode": "400124", "addr:postcode:source": "Date de la Po\u0219ta Rom\u00e2n\u0103, publicate sub Licen\u021ba pentru Guvernare Deschis\u0103 v1.0 la http://date.gov.ro/organization/posta-romana", "addr:street": "Bulevardul 21 Decembrie 1989", "amenity": "pharmacy", "healthcare": "pharmacy", "name": "InfoFarm", "opening_hours": "Mo-Fr 07:00-20:00; Sa 08:00-14:00; Su off", "phone": "0264-445163", "source": "survey"}}, {"type": "node", "id": 2605834248, "lat": 46.7714391, "lon": 23.595941, "tags": {"addr:city": "Cluj-Napoca", "addr:country": "RO", "addr:housenumber": "42", "addr:street": "Strada Iuliu Maniu", "amenity": "pharmacy", "check_date:opening_hours": "2025-05-24", "healthcare": "pharmacy", "name": "Farmacia Remedium", "note": "entrace is from the Piata Avram Iancu side", "opening_hours": "Mo-Fr 07:00-21:00; Sa 08:00-20:00; Su 08:00-16:00", "phone": "0264-595846"}}, {"type": "node", "id": 2634361167, "lat": 46.7733743, "lon": 23.5899873, "tags": {"addr:city": "Cluj-Napoca", "amenity": "pharmacy", "description": "farmacie naturista", "healthcare": "pharmacy", "name": "Dacia Plant", "wheelchair": "limited"}}, {"type": "node", "id": 2639585980, "lat": 46.769669, "lon": 23.5866009, "tags": {"addr:city": "Cluj-Napoca", "addr:street": "Strada Memorandumului", "amenity": "pharmacy", "healthcare": "pharmacy", "name": "Farmacia Catena", "opening_hours": "Mo-Fr 08:00-21:00; Sa 09:00-16:00; Su 09:00-14:00", "phone": "0264-410028;0264-439361", "wheelchair": "no"}}, {"type": "node", "id": 2639663970, "lat": 46.7740393, "lon": 23.5909832, "tags": {"addr:city": "Cluj-Napoca", "addr:country": "RO", "addr:street": "Pia\u021ba Mihai Viteazu", "amenity": "pharmacy", "healthcare": "pharmacy", "wheelchair": "no"}}, {"type": "node", "id": 2717570462, "lat": 47.028168, "lon": 23.90954, "tags": {"addr:city": "Gherla", "amenity": "pharmacy", "brand": "Farmacia Dona", "brand:wikidata": "Q12726919", "brand:wikipedia": "ro:Dona", "healthcare": "pharmacy", "name": "Farmacia Dona", "name:ro": "Farmacia Dona", "source": "Bing, survey"}}, {"type": "node", "id": 2719982273, "lat": 47.025016, "lon": 23.900154, "tags": {"addr:city": "Gherla", "addr:street": "Strada Frasinului", "amenity": "pharmacy", "healthcare": "pharmacy", "source": "Bing, survey"}}, {"type": "node", "id": 2817623405, "lat": 46.7830324, "lon": 23.5873218, "tags": {"addr:city": "Cluj-Napoca", "addr:country": "RO", "addr:street": "Strada Horea", "amenity": "pharmacy", "healthcare": "pharmacy", "name": "Farmacia Richter", "opening_hours": "Mo-Fr 08:00-21:00;Sa 08:00-16:00;Su 09:00-15:00", "operator": "Richter"}}, {"type": "node", "id": 2817874706, "lat": 46.7838713, "lon": 23.5863267, "tags": {"addr:city": "Cluj-Napoca", "addr:housenumber": "4-5", "addr:street": "Pia\u021ba G\u0103rii", "amenity": "pharmacy", "email": "clujpiatagarii4@catena.ro", "healthcare": "pharmacy", "name": "Farmacia Catena", "opening_hours": "Mo-Fr 08:00-22:00;Sa 08:00-18:00;Su 09:00-15:00", "operator": "Catena", "phone": "0745025634", "source": "survey"}}, {"type": "node", "id": 2817874708, "lat": 46.7840573, "lon": 23.5884098, "tags": {"addr:city": "Cluj-Napoca", "addr:street": "Pia\u021ba G\u0103rii", "amenity": "pharmacy", "healthcare": "pharmacy", "name": "Farmacia Ducfarm", "opening_hours": "Mo-Fr 08:00-21:00; Sa 08:00-20:00 ;Su 08:00-20:00", "operator": "Ducfarm", "phone": "0264-434479", "source:name": "survey"}}, {"type": "node", "id": 2823336518, "lat": 46.7842172, "lon": 23.5892031, "tags": {"amenity": "pharmacy", "healthcare": "pharmacy", "name": "Farmacie Veterinar\u0103", "shop": "pet"}}, {"type": "node", "id": 2834409447, "lat": 46.7772427, "lon": 23.5873646, "tags": {"addr:city": "Cluj-Napoca", "addr:country": "RO", "addr:housenumber": "28-30", "addr:postcode": "400038", "addr:street": "Strada Horea", "amenity": "pharmacy", "email": "farmaciacalendula@yahoo.com", "healthcare": "pharmacy", "name": "Farmacia Calendula", "opening_hours": "Mo-Fr 08:00-20:00, Sa 08:00-14:00", "phone": "0264-590498"}}, {"type": "node", "id": 2834409453, "lat": 46.777628, "lon": 23.5875259, "tags": {"addr:city": "Cluj-Napoca", "addr:street": "Strada Horea", "amenity": "pharmacy", "brand": "Catena", "brand:wikidata": "Q24035728", "dispensing": "yes", "healthcare": "pharmacy", "name": "Catena"}}, {"type": "node", "id": 2834526113, "lat": 46.778398, "lon": 23.5874392, "tags": {"addr:city": "Cluj-Napoca", "addr:housenumber": "42-44", "addr:street": "Strada Horea", "amenity": "pharmacy", "healthcare": "pharmacy", "name": "Ducfarm", "opening_hours": "Mo-Fr 08:00-20:00; Sa 08:00-15:00"}}, {"type": "node", "id": 2872972406, "lat": 46.7695298, "lon": 23.5863364, "tags": {"addr:city": "Cluj-Napoca", "addr:country": "RO", "addr:housenumber": "18", "addr:street": "Strada Memorandumului", "amenity": "pharmacy", "dispensing": "yes", "healthcare": "pharmacy", "name": "Farmacia Ducfarm", "smoking": "no", "source": "survey"}}, {"type": "node", "id": 2873030103, "lat": 46.7696354, "lon": 23.5865407, "tags": {"addr:city": "Cluj-Napoca", "addr:country": "RO", "addr:street": "Strada Memorandumului", "amenity": "pharmacy", "healthcare": "pharmacy", "name": "Opticon", "opening_hours": "Mo-Fr 08:00-21:00; Sa-Su 08:00-20:00", "source": "survey", "wheelchair": "no"}}, {"type": "node", "id": 2934033801, "lat": 46.7780576, "lon": 23.6115655, "tags": {"addr:city": "Cluj-Napoca", "addr:country": "RO", "addr:street": "Bulevardul 21 Decembrie 1989", "amenity": "pharmacy", "brand": "Farmacia Dona", "brand:wikidata": "Q12726919", "healthcare": "pharmacy", "name": "Farmacia Dona", "opening_hours": "Mo-Su 08:00-22:00"}}, {"type": "node", "id": 2942199601, "lat": 46.7744132, "lon": 23.6057014, "tags": {"addr:city": "Cluj-Napoca", "addr:country": "RO", "addr:housenumber": "16", "addr:postcode": "400604", "addr:street": "Strada Pet\u0151fi S\u00e1ndor", "amenity": "pharmacy", "healthcare": "pharmacy", "name": "Nutricare", "opening_hours": "Mo-Fr 10:00-18:00;Sa 10:00-14:00", "source": "survey"}}, {"type": "node", "id": 3047786929, "lat": 46.7912034, "lon": 23.5288673, "tags": {"amenity": "pharmacy", "dispensing": "yes", "name": "Farmacia Europa"}}, {"type": "node", "id": 3147094241, "lat": 46.7698361, "lon": 23.6031331, "tags": {"amenity": "pharmacy", "healthcare": "pharmacy", "name": "Farmacia Richter", "opening_hours": "Mo-Fr 08:00-21:00; Sa 08:00-15:00"}}, {"type": "node", "id": 3226125322, "lat": 46.7649081, "lon": 23.5689633, "tags": {"addr:city": "Cluj-Napoca", "addr:country": "RO", "amenity": "pharmacy", "healthcare": "pharmacy"}}, {"type": "node", "id": 3492919365, "lat": 46.7627839, "lon": 23.6137303, "tags": {"addr:housenumber": "113", "addr:postcode": "400457", "addr:street": "Strada Septimiu Albini", "amenity": "pharmacy", "brand": "Catena", "brand:wikidata": "Q24035728", "brand:wikipedia": "ro:Farmacia Catena", "check_date:opening_hours": "2024-08-07", "drive_through": "no", "healthcare": "pharmacy", "name": "Catena", "opening_hours": "Mo-Fr 08:30-22:00; Sa 08:00-18:00; Su 09:00-15:00", "phone": "+40 743 004 451"}}, {"type": "node", "id": 3622986790, "lat": 46.7700313, "lon": 23.5569938}, {"type": "node", "id": 3622986791, "lat": 46.770046, "lon": 23.5571547}, {"type": "node", "id": 3622986792, "lat": 46.769955, "lon": 23.5571779}, {"type": "node", "id": 3622988093, "lat": 46.7699389, "lon": 23.5570107}, {"type": "node", "id": 3623005035, "lat": 46.7680838, "lon": 23.5525217, "tags": {"addr:city": "Cluj-Napoca", "addr:country": "RO", "addr:street": "Strada F\u00e2nt\u00e2nele", "amenity": "pharmacy", "healthcare": "pharmacy", "name": "Farmacia Herba"}}, {"type": "node", "id": 3623015260, "lat": 46.7668864, "lon": 23.5503333, "tags": {"addr:city": "Cluj-Napoca", "addr:country": "RO", "addr:housenumber": "7", "addr:street": "Strada F\u00e2nt\u00e2nele", "amenity": "pharmacy", "healthcare": "pharmacy", "name": "RoPharma", "opening_hours": "Mo-Fr 08:00-21:00; Sa 08:00-15:00", "phone": "0725499617"}}, {"type": "node", "id": 3623083966, "lat": 46.776395, "lon": 23.6120619, "tags": {"addr:city": "Cluj-Napoca", "addr:country": "RO", "addr:housenumber": "103", "addr:postcode": "400689", "addr:postcode:source": "Date de la Po\u0219ta Rom\u00e2n\u0103, publicate sub Licen\u021ba pentru Guvernare Deschis\u0103 v1.0 la http://date.gov.ro/organization/posta-romana", "addr:street": "Calea Doroban\u021bilor", "amenity": "pharmacy", "healthcare": "pharmacy", "name": "Remedium"}}, {"type": "node", "id": 3623120808, "lat": 46.7762328, "lon": 23.6115859, "tags": {"addr:city": "Cluj-Napoca", "addr:country": "RO", "addr:housenumber": "99", "addr:postcode": "400689", "addr:postcode:source": "Date de la Po\u0219ta Rom\u00e2n\u0103, publicate sub Licen\u021ba pentru Guvernare Deschis\u0103 v1.0 la http://date.gov.ro/organization/posta-romana", "addr:street": "Calea Doroban\u021bilor", "amenity": "pharmacy", "healthcare": "pharmacy", "name": "Rodafarm"}}, {"type": "node", "id": 3623140905, "lat": 46.7775387, "lon": 23.6159775, "tags": {"addr:city": "Cluj-Napoca", "addr:country": "RO", "addr:street": "Calea Doroban\u021bilor", "amenity": "pharmacy", "brand": "Dr. Max", "brand:wikidata": "Q56317371", "brand:wikipedia": "fr:Dr.Max", "dispensing": "yes", "healthcare": "pharmacy", "name": "Dr. Max"}}, {"type": "node", "id": 3627390909, "lat": 46.7530241, "lon": 23.5608541, "tags": {"addr:city": "Cluj-Napoca", "addr:country": "RO", "amenity": "pharmacy", "healthcare": "pharmacy", "name": "Gamafarm"}}, {"type": "node", "id": 3636265996, "lat": 46.7739445, "lon": 23.5933959, "tags": {"addr:city": "Cluj-Napoca", "addr:country": "RO", "addr:street": "Strada Arge\u0219", "amenity": "pharmacy", "brand": "Farmacia Dona", "brand:wikidata": "Q12726919", "brand:wikipedia": "ro:Dona", "healthcare": "pharmacy", "name": "Farmacia Dona", "opening_hours": "Mo-Fr 08:00-21:00;Sa 08:00-16:00;Su 08:00-14:00", "wheelchair": "no"}}, {"type": "node", "id": 3691914726, "lat": 46.7757457, "lon": 23.5984504, "tags": {"addr:city": "Cluj-Napoca", "addr:country": "RO", "addr:housenumber": "1", "addr:street": "Strada Onisifor Ghibu", "amenity": "pharmacy", "healthcare": "pharmacy", "name": "Remedium", "opening_hours": "Mo-Fr 07:00-21:00; Sa 08:00-15:00", "phone": "+40 264 424 199"}}, {"type": "node", "id": 3772144393, "lat": 46.7602029, "lon": 23.6138341, "tags": {"addr:housenumber": "154", "addr:street": "Strada Constantin Br\u00e2ncu\u0219i", "amenity": "pharmacy", "email": "cj08@richter-farmacia.ro", "healthcare": "pharmacy", "name": "Farmacia Richter 8", "opening_hours": "Mo-Fr 08:00-20:00; Sa 08:00-14:00", "phone": "+40 264 700 114;+40 751 135 524"}}, {"type": "node", "id": 3772144394, "lat": 46.7596435, "lon": 23.6147863, "tags": {"addr:housenumber": "2", "addr:street": "Strada L\u0103crimioarelor", "amenity": "pharmacy", "healthcare": "pharmacy", "name": "Allofarm", "opening_hours": "Mo-Fr 08:00-20:00; Sa 08:00-16:00", "phone": "0264-274838"}}, {"type": "node", "id": 3793852992, "lat": 46.7124513, "lon": 23.6902185, "tags": {"amenity": "pharmacy", "name": "Farmacie", "name:hu": "Gy\u00f3gyszert\u00e1r"}}, {"type": "node", "id": 3834407858, "lat": 46.775353, "lon": 23.5926061, "tags": {"addr:city": "Cluj-Napoca", "addr:housenumber": "10", "addr:street": "Strada Croitorilor", "amenity": "pharmacy", "healthcare": "pharmacy", "name": "Farmacia Napofarm", "opening_hours": "Mo-Fr 08:00-22:00; Sa 08:00-20:00; Su 09:00-16:00", "phone": "0364-730556"}}, {"type": "node", "id": 3834466957, "lat": 46.7752919, "lon": 23.5924011, "tags": {"addr:city": "Cluj-Napoca", "addr:street": "Strada Croitorilor", "amenity": "pharmacy", "healthcare": "pharmacy", "name": "Farmacia Tesa", "name:ro": "Farmacia Tesa", "opening_hours": "Mo-Fr 08:00-21:00; Sa 09:00-15:00"}}, {"type": "node", "id": 3946641419, "lat": 46.758436, "lon": 23.5505752, "tags": {"addr:city": "Cluj-Napoca", "addr:door": "119", "addr:housenumber": "75", "addr:street": "Calea Flore\u0219ti", "addr:unit": "V2", "amenity": "pharmacy", "healthcare": "pharmacy", "name": "Ducfarm", "opening_hours": "Mo-Fr 08:00-21:00; Sa 09:00-17:00; PH closed"}}, {"type": "node", "id": 3946658351, "lat": 46.7580353, "lon": 23.5506897, "tags": {"addr:housenumber": "20-22", "addr:street": "Aleea Padin", "amenity": "pharmacy", "brand": "Farmacia Dona", "brand:wikidata": "Q12726919", "healthcare": "pharmacy", "name": "Farmacia Dona", "opening_hours": "Mo-Fr 08:00-21:00; Sa 08:00-16:00; Su 08:00-14:00", "phone": "0372-407080"}}, {"type": "node", "id": 3996063071, "lat": 46.7548198, "lon": 23.5562669, "tags": {"addr:city": "Cluj-Napoca", "addr:housenumber": "11", "addr:street": "Strada Bucegi", "amenity": "pharmacy", "check_date": "2024-04-13", "dispensing": "yes", "healthcare": "pharmacy", "name": "Farmacia Europa", "opening_hours": "24/7", "phone": "0264-421119"}}, {"type": "node", "id": 4109348152, "lat": 46.7643972, "lon": 23.5761047, "tags": {"amenity": "pharmacy", "brand": "Farmacia Dona", "brand:wikidata": "Q12726919", "healthcare": "pharmacy", "name": "Farmacia Dona"}}, {"type": "node", "id": 4128113945, "lat": 46.7528078, "lon": 23.5789997, "tags": {"addr:door": "11", "addr:housenumber": "119", "addr:street": "Strada Observatorului", "amenity": "pharmacy", "email": "balanis2003@yahoo.com", "healthcare": "pharmacy", "name": "Farmacia Balanis", "opening_hours": "Mo-Fr 08:00-21:00; Sa 08:00-16:00", "phone": "0264-453116"}}, {"type": "node", "id": 4128124889, "lat": 46.7755418, "lon": 23.6032582, "tags": {"addr:city": "Cluj-Napoca", "addr:country": "RO", "addr:housenumber": "75", "addr:street": "Bulevardul 21 Decembrie 1989", "amenity": "pharmacy", "healthcare": "pharmacy", "name": "Ducfarm", "opening_hours": "Mo-Fr 08:00-20:00;Sa 09:00-15:00;Su off"}}, {"type": "node", "id": 4128155953, "lat": 46.7553133, "lon": 23.577348, "tags": {"addr:door": "5-6", "addr:floor": "0", "addr:housenumber": "60", "addr:street": "Strada Louis Pasteur", "amenity": "pharmacy", "brand": "Dr. Max", "brand:wikidata": "Q56317371", "email": "aldedra2@yahoo.com;delia.horge@aldedra.ro", "healthcare": "pharmacy", "name": "Dr. Max", "opening_hours": "Mo-Fr 08:00-20:00; Sa 09:00-17:00; Su 09:00-14:00", "phone": "0264-520090;0726-000800"}}, {"type": "node", "id": 4128171550, "lat": 46.781872, "lon": 23.6268557, "tags": {"addr:city": "Cluj-Napoca", "addr:housenumber": "47", "addr:street": "Strada D\u00e2mbovi\u021bei", "amenity": "pharmacy", "brand": "Catena", "brand:wikidata": "Q24035728", "healthcare": "pharmacy", "name": "Catena", "opening_hours": "Mo-Fr 08:00-21:00; Sa 08:00-18:00; Su 09:00-15:00", "phone": "0743 004 590"}}, {"type": "node", "id": 4128171551, "lat": 46.7818604, "lon": 23.6267715, "tags": {"addr:city": "Cluj-Napoca", "addr:housenumber": "47", "addr:street": "Strada D\u00e2mbovi\u021bei", "amenity": "pharmacy", "healthcare": "pharmacy", "name": "Farmacia Myriam", "opening_hours": "Mo-Fr 09:00-21:00; Sa 09:00-19:00", "phone": "0264-459666"}}, {"type": "node", "id": 4128238399, "lat": 46.7548109, "lon": 23.5766769, "tags": {"amenity": "pharmacy", "brand": "Catena", "brand:wikidata": "Q24035728", "healthcare": "pharmacy", "name": "Catena"}}, {"type": "node", "id": 4128238400, "lat": 46.7548012, "lon": 23.5765421, "tags": {"amenity": "pharmacy", "brand": "Farmacia Dona", "brand:wikidata": "Q12726919", "healthcare": "pharmacy", "name": "Farmacia Dona"}}, {"type": "node", "id": 4128238403, "lat": 46.7547603, "lon": 23.5761479, "tags": {"amenity": "pharmacy", "healthcare": "pharmacy", "name": "Remedium"}}, {"type": "node", "id": 4128241379, "lat": 46.7727191, "lon": 23.6056091, "tags": {"addr:city": "Cluj-Napoca", "addr:housenumber": "54", "addr:street": "Calea Doroban\u021bilor", "amenity": "pharmacy", "healthcare": "pharmacy", "name": "Farmadex"}}, {"type": "node", "id": 4128268909, "lat": 46.7705651, "lon": 23.6047716, "tags": {"addr:city": "Cluj-Napoca", "addr:housenumber": "46", "addr:postcode": "400132", "addr:street": "Strada General Traian Mo\u0219oiu", "amenity": "pharmacy", "healthcare": "pharmacy", "name": "Farmacia Remedium", "opening_hours": "Mo-Fr 08:00-20:00; Sa 08:00-15:00", "phone": "0264-333435"}}, {"type": "node", "id": 4128272573, "lat": 46.754985, "lon": 23.578187, "tags": {"amenity": "pharmacy", "healthcare": "pharmacy", "name": "Farmacia Veroli", "opening_hours": "Mo-Fr 08:00-20:00; Sa 08:00-18:00"}}, {"type": "node", "id": 4161789192, "lat": 46.7619704, "lon": 23.607175, "tags": {"addr:city": "Cluj-Napoca", "addr:country": "RO", "addr:street": "Strada Moise Nicoar\u0103", "amenity": "pharmacy", "check_date:opening_hours": "2023-04-23", "healthcare": "pharmacy", "name": "Elmafarm", "opening_hours": "Mo-Fr 08:00-21:00; Sa 08:00-16:00; Su off", "wheelchair": "limited"}}, {"type": "node", "id": 4358278290, "lat": 46.768479, "lon": 23.5995555, "tags": {"addr:city": "Cluj-Napoca", "addr:housenumber": "3", "addr:street": "Pia\u021ba Timotei Cipariu", "amenity": "pharmacy", "brand": "Farmacia Dona", "brand:wikidata": "Q12726919", "healthcare": "pharmacy", "name": "Farmacia Dona", "opening_hours": "Mo-Fr 08:00-21:00; Sa 08:00-16:00; Su 09:00-15:00", "phone": "0372-407075"}}, {"type": "node", "id": 4358370091, "lat": 46.7625172, "lon": 23.6136503, "tags": {"addr:city": "Cluj-Napoca", "addr:housenumber": "115", "addr:street": "Strada Septimiu Albini", "amenity": "pharmacy", "email": "farm.ducfarm.albinii@gmail.com", "healthcare": "pharmacy", "name": "Ducfarm", "opening_hours": "Mo-Fr 08:00-21:00; Sa-Su 08:00-20:00", "phone": "0364 100319"}}, {"type": "node", "id": 4362317194, "lat": 46.7674125, "lon": 23.6006306, "tags": {"addr:city": "Cluj-Napoca", "addr:housenumber": "15", "addr:street": "Bulevardul Nicolae Titulescu", "amenity": "pharmacy", "check_date": "2023-04-27", "healthcare": "pharmacy", "name": "EcoFarmacia", "opening_hours": "24/7", "phone": "+40 264 592 484"}}, {"type": "node", "id": 4521359389, "lat": 46.7771738, "lon": 23.632907, "tags": {"amenity": "pharmacy", "healthcare": "pharmacy", "name": "Farmacia Remedium", "name:ro": "Farmacia Remedium"}}, {"type": "node", "id": 4959847547, "lat": 46.9844718, "lon": 23.8103079}, {"type": "node", "id": 4959847548, "lat": 46.9844278, "lon": 23.8102838}, {"type": "node", "id": 4959847549, "lat": 46.9844361, "lon": 23.8104313}, {"type": "node", "id": 4959847550, "lat": 46.984394, "lon": 23.8104085}, {"type": "node", "id": 4977160796, "lat": 47.0336315, "lon": 23.909469, "tags": {"addr:city": "Gherla", "addr:housenumber": "1", "addr:postcode": "405300", "addr:postcode:source": "Date de la Po\u0219ta Rom\u00e2n\u0103, publicate sub Licen\u021ba pentru Guvernare Deschis\u0103 v1.0 la http://date.gov.ro/organization/posta-romana", "addr:street": "Strada Mihai Eminescu", "amenity": "pharmacy", "drive_through": "no", "email": "contact@sandiniafarm.ro", "healthcare": "pharmacy", "name": "Sandinia Farm", "name:ro": "Sandinia Farm", "opening_hours": "Mo-Fr 09:00-18:00 Sa 09:00-13:00", "phone": "+40264243020", "website": "https://sandiniafarm.ro/"}}, {"type": "node", "id": 5033696321, "lat": 46.7591042, "lon": 23.5636038, "tags": {"addr:housenumber": "9-19", "addr:street": "Strada C\u00e2mpului", "amenity": "pharmacy", "brand": "Dr. Max", "brand:wikidata": "Q56317371", "brand:wikipedia": "ro:Sensiblu", "healthcare": "pharmacy", "name": "Dr. Max", "opening_hours": "Mo-Fr 08:00-22:00, Sa 08:00-22:00, Su 08:00-20:00", "phone": "0264-486353"}}, {"type": "node", "id": 5318606555, "lat": 46.7791046, "lon": 23.6169918, "tags": {"addr:city": "Cluj-Napoca", "addr:housenumber": "3", "addr:postcode": "400690", "addr:street": "Strada Aurel Vlaicu", "amenity": "pharmacy", "dispensing": "yes", "drive_through": "no", "healthcare": "pharmacy", "name": "Farmacia Ducfarm", "opening_hours": "Mo-Fr 09:00-21:00; Sa,Su 08:00-20:00", "wheelchair": "limited"}}, {"type": "node", "id": 5594264138, "lat": 46.7710351, "lon": 23.5905834, "tags": {"addr:city": "Cluj-Napoca", "amenity": "pharmacy", "healthcare": "pharmacy", "name": "Alma", "opening_hours": "Mo-Fr 07:00-20:00; Sa 09:00-16:00; Su off", "wheelchair": "no"}}, {"type": "node", "id": 6337573978, "lat": 46.7483642, "lon": 23.5979738, "tags": {"addr:city": "Cluj-Napoca", "amenity": "pharmacy", "healthcare": "pharmacy", "name": "Remedium Farm", "name:ro": "Remedium Farm", "wheelchair": "limited"}}, {"type": "node", "id": 6340202922, "lat": 46.7781353, "lon": 23.6119823, "tags": {"addr:city": "Cluj-Napoca", "addr:housenumber": "133B", "addr:street": "Bulevardul 21 Decembrie 1989", "amenity": "pharmacy", "contact:email": "vivamarasti@yahoo.com", "healthcare": "pharmacy", "name": "VivaFarm", "opening_hours": "Mo-Fr 08:00-22:00; Sa 08:00-20:00; Su 09:00-20:00", "phone": "0264-552254", "wheelchair": "limited"}}, {"type": "node", "id": 6356373110, "lat": 46.7789907, "lon": 23.6147522, "tags": {"addr:city": "Cluj-Napoca", "amenity": "pharmacy", "healthcare": "pharmacy", "name": "Remedium", "name:ro": "Remedium", "opening_hours": "Mo-Fr 08:00-21:00; Sa 08:00-20:00; Su off", "wheelchair": "yes"}}, {"type": "node", "id": 6710494008, "lat": 46.7673995, "lon": 23.5868682, "tags": {"amenity": "pharmacy", "healthcare": "pharmacy", "name": "Ducfarm", "opening_hours": "Mo-Fr 08:00-21:00; Sa 09:00-18:00"}}, {"type": "node", "id": 6710504878, "lat": 46.7642741, "lon": 23.5880851, "tags": {"amenity": "pharmacy", "brand": "Farmacia Dona", "brand:wikidata": "Q12726919", "brand:wikipedia": "ro:Dona", "dispensing": "yes", "healthcare": "pharmacy", "name": "Farmacia Dona"}}, {"type": "node", "id": 6761640136, "lat": 46.7549567, "lon": 24.1634483, "tags": {"addr:housenumber": "89", "addr:street": "Strada Republicii", "amenity": "pharmacy", "name": "Farmacie Omnia", "opening_hours": "Mo-Fr 08:00-16:00, 08:30-12:30"}}, {"type": "node", "id": 6959569888, "lat": 46.7557382, "lon": 23.5835866, "tags": {"addr:housenumber": "52", "addr:street": "Strada Viilor", "amenity": "pharmacy", "healthcare": "pharmacy", "name": "Hypericum", "opening_hours": "Mo-Fr 08:00-21:00; Sa 09:00-17:00", "phone": "+40264520588"}}, {"type": "node", "id": 6960138988, "lat": 46.7783214, "lon": 23.6131403, "tags": {"addr:city": "Cluj-Napoca", "addr:housenumber": "133 ap. 118", "addr:street": "Bulevardul 21 Decembrie 1989", "amenity": "pharmacy", "drive_through": "no", "healthcare": "pharmacy", "name": "Dr. Green", "name:ro": "Dr. Green", "opening_hours": "Mo-Fr 08:00-21:00; Sa 10:00-15:00", "operator": "Vitafarm SRL"}}, {"type": "node", "id": 7056195707, "lat": 46.7812526, "lon": 23.6133432, "tags": {"addr:city": "Cluj-Napoca", "addr:country": "RO", "addr:housenumber": "5", "addr:postcode": "400620", "addr:street": "Strada Fabricii", "amenity": "pharmacy", "drive_through": "no", "healthcare": "pharmacy", "name": "Dr. Green", "opening_hours": "Mo-Fr 08:00-21:00 Sa 09:00-18:00"}}, {"type": "node", "id": 7395095720, "lat": 46.7556737, "lon": 23.5605079, "tags": {"addr:city": "Cluj-Napoca", "addr:door": "2", "addr:housenumber": "10", "addr:street": "Strada Izlazului", "amenity": "pharmacy", "check_date:opening_hours": "2024-11-26", "contact:email": "farmacia.arnica@gmail.com", "dispensing": "yes", "healthcare": "pharmacy", "name": "Arnica", "opening_hours": "Mo-Fr 08:00-21:00; Sa 08:00-20:00; Su 08:00-20:00", "phone": "0264-458081", "postal_code": "400655"}}, {"type": "node", "id": 7395237527, "lat": 46.7546511, "lon": 23.5789441, "tags": {"addr:housenumber": "73", "addr:street": "Strada Louis Pasteur", "amenity": "pharmacy", "brand": "Catena", "brand:wikidata": "Q24035728", "healthcare": "pharmacy", "name": "Catena", "opening_hours": "Mo-Fr 08:00-20:00; Sa 09:00-15:00; Su 09:00-14:00", "phone": "0264-438805"}}, {"type": "node", "id": 7395293889, "lat": 46.7585172, "lon": 23.5509243, "tags": {"addr:city": "Cluj-Napoca", "addr:door": "121", "addr:housenumber": "75", "addr:street": "Calea Flore\u0219ti", "amenity": "pharmacy", "brand": "Catena", "brand:wikidata": "Q24035728", "brand:wikipedia": "ro:Farmacia Catena", "dispensing": "yes", "email": "clujcaleafloresti75@catena.ro", "healthcare": "pharmacy", "name": "Catena", "opening_hours": "Mo-Fr 08:00-22:00; Sa 08:00-18:00; Su 09:00-15:00", "phone": "0743-004094"}}, {"type": "node", "id": 7395328496, "lat": 46.7497352, "lon": 23.6007678, "tags": {"addr:housenumber": "39", "addr:street": "Strada Bun\u0103 Ziua", "amenity": "pharmacy", "healthcare": "pharmacy", "name": "Remedium", "opening_hours": "Mo-Fr 08:00-22:00; Sa 08:00-18:00", "phone": "0364-736793"}}, {"type": "node", "id": 7411279714, "lat": 46.7732301, "lon": 23.6286079, "tags": {"addr:housenumber": "53-55", "addr:street": "Strada Alexandru Vaida Voevod", "amenity": "pharmacy", "healthcare": "pharmacy", "level": "0", "name": "Elmafarm", "opening_hours": "Mo-Fr 09:00-22:00; Sa 10:00-22:00; Su 10:00-22:00", "phone": "0264-551010"}}, {"type": "node", "id": 7411279764, "lat": 46.77968, "lon": 23.6243921, "tags": {"addr:city": "Cluj-Napoca", "addr:housenumber": "42", "addr:street": "Strada Aurel Vlaicu", "amenity": "pharmacy", "healthcare": "pharmacy", "name": "SimoFarm", "opening_hours": "Mo-Fr 08:00-22:00; Sa 09:00-13:00", "phone": "0364-885187"}}, {"type": "node", "id": 7414510529, "lat": 46.7997363, "lon": 23.6119178, "tags": {"addr:housenumber": "1-15", "addr:street": "Bulevardul Muncii", "amenity": "pharmacy", "brand": "Dr. Max", "brand:wikidata": "Q56317371", "brand:wikipedia": "ro:Sensiblu", "healthcare": "pharmacy", "name": "Dr. Max", "opening_hours": "Mo-Fr 09:00-21:00, Sa 09:00-19:00, Su 09:00-19:00", "phone": "0264-535352"}}, {"type": "node", "id": 7414521810, "lat": 46.7551968, "lon": 23.5602859, "tags": {"addr:city": "Cluj-Napoca", "addr:housenumber": "19", "addr:street": "Strada Bucegi", "amenity": "pharmacy", "brand": "Dr. Max", "brand:wikidata": "Q56317371", "brand:wikipedia": "fr:Dr.Max", "dispensing": "yes", "email": "contact@drmax.ro", "healthcare": "pharmacy", "name": "Dr. Max", "opening_hours": "Mo-Fr 09:00-21:00; Sa 09:00-18:00", "phone": "0364805659", "postal_code": "400667"}}, {"type": "node", "id": 7414567575, "lat": 46.7582775, "lon": 23.5496757, "tags": {"addr:city": "Cluj-Napoca", "addr:housenumber": "77", "addr:street": "Calea Flore\u0219ti", "amenity": "pharmacy", "brand": "Dr. Max", "brand:wikidata": "Q56317371", "brand:wikipedia": "fr:Dr.Max", "dispensing": "yes", "email": "cluj6@drmax.ro", "healthcare": "pharmacy", "name": "Dr. Max", "opening_hours": "Mo-Fr 08:00-20:00, Sa 09:00-19:00, Su 09:00-12:00", "phone": "0720-022764", "postal_code": "400516"}}, {"type": "node", "id": 7414669625, "lat": 46.766114, "lon": 23.5830317, "tags": {"addr:city": "Cluj-Napoca", "amenity": "pharmacy", "brand": "Dr. Max", "brand:wikidata": "Q56317371", "healthcare": "pharmacy", "name": "Dr. Max", "opening_hours": "Mo-Fr 08:00-22:00, Sa 09:00-19:00, Su 09:00-19:00", "phone": "0264-439087"}}, {"type": "node", "id": 7414669626, "lat": 46.7661012, "lon": 23.5829607, "tags": {"addr:housenumber": "10", "addr:street": "Strada Clinicilor", "amenity": "pharmacy", "healthcare": "pharmacy", "name": "NapoFarm", "opening_hours": "Mo-Fr 07:00-21:00, Sa 08:00-20:00, Su 09:00-16:00", "phone": "0264-236325"}}, {"type": "node", "id": 7414787398, "lat": 46.7812982, "lon": 23.6133253, "tags": {"addr:flats": "176b", "addr:housenumber": "5", "addr:street": "Strada Fabricii", "amenity": "pharmacy", "email": "farm.ducfarm.fabricii@gmail.com", "healthcare": "pharmacy", "name": "Ducfarm", "opening_hours": "Mo-Fr 08:00-21:00; Sa 08:00-20:00; Su 08:00-20:00", "phone": "0264-460845"}}, {"type": "node", "id": 7416970025, "lat": 46.7872943, "lon": 23.5805842, "tags": {"addr:housenumber": "13", "addr:street": "Strada Giordano Bruno", "amenity": "pharmacy", "healthcare": "pharmacy", "name": "Farmacia Speran\u021ba", "opening_hours": "Mo-Fr 08:00-20:00; Sa 08:00-13:20; Su 09:00-13:00", "phone": "0264 435216"}}, {"type": "node", "id": 7417019377, "lat": 46.778238, "lon": 23.5781765, "tags": {"addr:city": "Cluj-Napoca", "addr:housenumber": "39", "addr:street": "Strada L\u0103pu\u0219ului", "amenity": "pharmacy", "healthcare": "pharmacy", "name": "Matia", "opening_hours": "Mo-Fr 08:00-20:00; Sa 08:00-14:00", "phone": "0264-433306"}}, {"type": "node", "id": 7417034291, "lat": 46.755568, "lon": 23.5598611, "tags": {"addr:city": "Cluj-Napoca", "addr:housenumber": "12", "addr:street": "Strada Izlazului", "amenity": "pharmacy", "email": "vivafarmizl@yahoo.com", "healthcare": "pharmacy", "name": "VivaFarm", "opening_hours": "Mo-Fr 08:00-22:00; Sa 08:00-20:00; Su 09:00-20:00", "phone": "0264-421036"}}, {"type": "node", "id": 7417101445, "lat": 46.7952367, "lon": 23.6026601, "tags": {"addr:city": "Cluj-Napoca", "addr:housenumber": "86-90", "addr:street": "Strada Oa\u0219ului", "amenity": "pharmacy", "healthcare": "pharmacy", "name": "Farmacia Arnica", "name:ro": "Farmacia Arnica", "opening_hours": "Mo-Fr 08:00-21:00; Sa 08:00-20:00; Su 08:00-15:00", "phone": "0364-114836"}}, {"type": "node", "id": 7417107937, "lat": 46.7747759, "lon": 23.5930315, "tags": {"amenity": "pharmacy", "healthcare": "pharmacy", "name": "Farmacia Alma", "opening_hours": "Mo-Fr 08:00-21:00; Sa 09:00-16:00; Su 09:00-14:00", "phone": "0264-530268"}}, {"type": "node", "id": 7417112742, "lat": 46.7565412, "lon": 23.5949777, "tags": {"addr:city": "Cluj-Napoca", "addr:housenumber": "109", "addr:street": "Strada Republicii", "amenity": "pharmacy", "healthcare": "pharmacy", "name": "ReoliFarm", "name:ro": "ReoliFarm", "opening_hours": "Mo-Fr 08:30-21:30; Sa 09:00-21:30; Su 10:00-17:00", "phone": "0264-450229"}}, {"type": "node", "id": 7417139591, "lat": 46.7504898, "lon": 23.5619177, "tags": {"addr:housenumber": "74", "addr:street": "Strada Mehedin\u021bi", "amenity": "pharmacy", "healthcare": "pharmacy", "name": "DiaFarm", "opening_hours": "Mo-Fr 08:00-21:00; Sa 09:00-18:00; Su 09:00-15:00"}}, {"type": "node", "id": 7417185160, "lat": 46.767271, "lon": 23.5817792, "tags": {"addr:housenumber": "32", "addr:street": "Calea Mo\u021bilor", "amenity": "pharmacy", "healthcare": "pharmacy", "name": "Pharmalife", "opening_hours": "Mo-Fr 08:00-21:00", "phone": "0748475023"}}, {"type": "node", "id": 7457329940, "lat": 46.7678621, "lon": 23.5835391, "tags": {"addr:city": "Cluj Napoca", "addr:housenumber": "19", "addr:postcode": "400001", "addr:street": "Calea Mo\u021bilor", "amenity": "pharmacy", "dispensing": "yes", "email": "farmaciecluj@yahoo.com", "healthcare": "pharmacy", "name": "Farmacia Chamomilla", "name:ro": "Farmacia Chamomilla", "note": "In incinta policlinicii\n", "opening_hours": "Mo-Fr 08:00-19:00", "phone": "0264 5913639"}}, {"type": "node", "id": 7460554458, "lat": 46.755151, "lon": 23.5585657, "tags": {"addr:city": "Cluj-Napoca", "addr:housenumber": "15", "addr:street": "Strada Prim\u0103verii", "amenity": "pharmacy", "dispensing": "yes", "email": "ducfarm.union@gmail.com", "healthcare": "pharmacy", "name": "Farmacia Ducfarm", "opening_hours": "Mo-Fr 08:00-21:00; Sat-Sun 08:00-20:00", "phone": "0364-110206"}}, {"type": "node", "id": 7462119938, "lat": 46.7583538, "lon": 23.5500446, "tags": {"addr:city": "Cluj-Napoca", "addr:door": "112A", "addr:housenumber": "77", "addr:street": "Calea Flore\u0219ti", "amenity": "pharmacy", "dispensing": "yes", "email": "ducfarm.caleafloresti@gmail.com", "healthcare": "pharmacy", "name": "Ducfarm", "opening_hours": "Mo-Su 07:00-23:00", "phone": "0264-424109"}}, {"type": "node", "id": 7498730828, "lat": 46.7519598, "lon": 23.5468286, "tags": {"addr:flats": "47", "addr:housenumber": "5", "addr:street": "Aleea Cl\u0103bucet", "amenity": "pharmacy", "check_date:opening_hours": "2022-03-23", "contact:email": "remedium.certa@remediumfarm.ro", "healthcare": "pharmacy", "name": "Remedium", "opening_hours": "Mo-Fr 07:00-21:00; Sa 08:00-16:00", "phone": "0264564737;0743161425"}}, {"type": "node", "id": 7498868739, "lat": 46.7565398, "lon": 23.5582167, "tags": {"addr:door": "78", "addr:housenumber": "5", "addr:street": "Ion Me\u0219ter", "addr:unit": "3", "amenity": "pharmacy", "brand": "Farmacia Dona", "brand:wikidata": "Q12726919", "brand:wikipedia": "ro:Dona", "contact:email": "dona185@farmaciiledona.ro", "dispensing": "yes", "healthcare": "pharmacy", "name": "Farmacia Dona", "opening_hours": "Mo-Fr 08:00-19:30; Sa 08:00-17:00; Su 08:00-14:00", "phone": "0372407185"}}, {"type": "node", "id": 7498906128, "lat": 46.783679, "lon": 23.647669, "tags": {"addr:city": "Cluj-Napoca", "addr:housenumber": "26", "addr:street": "Strada Traian Vuia", "amenity": "pharmacy", "contact:email": "fdanafarm@yahoo.com", "healthcare": "pharmacy", "name": "Danafarm", "opening_hours": "Mo-Fr 08:30-19:00", "phone": "0740782404;0264524191"}}, {"type": "node", "id": 8261694953, "lat": 46.7713933, "lon": 23.6249987, "tags": {"addr:housenumber": "58", "addr:street": "Strada Alexandru Vaida Voevod", "alt_name": "Napofarm - Iulius Mall", "amenity": "pharmacy", "healthcare": "pharmacy", "level": "0", "name": "Napofarm", "opening_hours": "Mo-Fr 08:00-22:00; Sa 09:00-19:00; Su 09:00-19:00", "wheelchair": "no"}}, {"type": "node", "id": 8303296128, "lat": 46.7729019, "lon": 23.6285758, "tags": {"amenity": "pharmacy", "brand": "Dr. Max", "brand:wikidata": "Q56317371", "brand:wikipedia": "ro:Sensiblu", "healthcare": "pharmacy", "level": "0", "name": "Dr. Max", "wheelchair": "yes"}}, {"type": "node", "id": 8883611325, "lat": 46.7634867, "lon": 23.5720402, "tags": {"amenity": "pharmacy", "brand": "Dr. Max", "brand:wikidata": "Q56317371", "brand:wikipedia": "ro:Sensiblu", "dispensing": "yes", "healthcare": "pharmacy", "name": "Dr. Max", "opening_hours": "Mo-Su 10:00-22:00"}}, {"type": "node", "id": 9367293017, "lat": 46.7689882, "lon": 23.6300599, "tags": {"amenity": "pharmacy", "dispensing": "yes", "healthcare": "pharmacy", "name": "Magna"}}, {"type": "node", "id": 9369409103, "lat": 46.7588047, "lon": 23.5403983, "tags": {"amenity": "pharmacy", "dispensing": "yes", "healthcare": "pharmacy", "name": "Cromavet"}}, {"type": "node", "id": 9513174901, "lat": 46.7640132, "lon": 23.5877364, "tags": {"amenity": "pharmacy", "dispensing": "yes", "healthcare": "pharmacy", "name": "Ducfarm"}}, {"type": "node", "id": 9513735339, "lat": 46.7695354, "lon": 23.5908972, "tags": {"amenity": "pharmacy", "dispensing": "yes", "healthcare": "pharmacy", "name": "Richter"}}, {"type": "node", "id": 9562129203, "lat": 46.7578769, "lon": 23.5481504, "tags": {"amenity": "pharmacy", "dispensing": "yes", "healthcare": "pharmacy", "name": "Farmacia Europa", "opening_hours": "Mo-Fr 08:15-21:00; Sa 08:00-20:00; PH closed", "operator": "alphega farmacie"}}, {"type": "node", "id": 9919223516, "lat": 46.7790996, "lon": 23.6175856, "tags": {"amenity": "pharmacy", "brand": "Catena", "brand:wikidata": "Q24035728", "dispensing": "yes", "healthcare": "pharmacy", "name": "Catena", "opening_hours": "Mo-Fr 08:00-21:00; Sa 08:00-14:00; Su 09:00-14:00"}}, {"type": "node", "id": 9939712005, "lat": 46.7867334, "lon": 23.606206, "tags": {"amenity": "pharmacy", "dispensing": "yes", "healthcare": "pharmacy", "name": "Ducfarm"}}, {"type": "node", "id": 10035776666, "lat": 46.7762259, "lon": 23.6288339, "tags": {"amenity": "pharmacy", "brand": "Dr. Max", "brand:wikidata": "Q56317371", "dispensing": "yes", "healthcare": "pharmacy", "name": "Dr. Max"}}, {"type": "node", "id": 10246929812, "lat": 46.7813019, "lon": 23.636554, "tags": {"amenity": "pharmacy", "brand": "Help Net", "brand:wikidata": "Q12729923", "healthcare": "pharmacy", "name": "Help Net"}}, {"type": "node", "id": 10255262531, "lat": 46.7640654, "lon": 23.5736632, "tags": {"amenity": "pharmacy", "dispensing": "yes", "healthcare": "pharmacy", "name": "Ropharma", "opening_hours": "Mo-Fr 08:00-20:00; Sa 09:00-14:00"}}, {"type": "node", "id": 10255262532, "lat": 46.7638596, "lon": 23.5734044, "tags": {"amenity": "pharmacy", "brand": "Dr. Max", "brand:wikidata": "Q56317371", "healthcare": "pharmacy", "name": "Dr. Max"}}, {"type": "node", "id": 10292733718, "lat": 46.7572042, "lon": 23.5562282, "tags": {"addr:city": "Cluj-Napoca", "addr:street": "Strada Prim\u0103verii", "amenity": "pharmacy", "healthcare": "pharmacy", "name": "Ducfarm", "website": "https://www.ducfarm.ro/"}}, {"type": "node", "id": 10308359329, "lat": 46.7816378, "lon": 23.6252888, "tags": {"amenity": "pharmacy", "healthcare": "pharmacy", "name": "Farmacia Eco"}}, {"type": "node", "id": 10308359369, "lat": 46.7818881, "lon": 23.6269421, "tags": {"amenity": "pharmacy", "brand": "Dr. Max", "brand:wikidata": "Q56317371", "healthcare": "pharmacy", "name": "Dr. Max"}}, {"type": "node", "id": 10554187057, "lat": 46.7561561, "lon": 23.5583162, "tags": {"amenity": "pharmacy", "brand": "Catena", "brand:wikidata": "Q24035728", "healthcare": "pharmacy", "name": "Catena", "opening_hours": "Mo-Fr 08:00-20:00; Sa 08:00-16:00; Su 09:00-14:00; PH closed"}}, {"type": "node", "id": 10562488054, "lat": 46.7541059, "lon": 23.5553999, "tags": {"amenity": "pharmacy", "brand": "Catena", "brand:wikidata": "Q24035728", "healthcare": "pharmacy", "name": "Catena"}}, {"type": "node", "id": 10572527935, "lat": 46.7565691, "lon": 23.5561923, "tags": {"addr:city": "Cluj-Napoca", "addr:housenumber": "6", "addr:street": "Strada Prim\u0103verii", "amenity": "pharmacy", "brand": "Dr. Max", "brand:wikidata": "Q56317371", "healthcare": "pharmacy", "name": "Dr. Max", "website": "https://www.drmax.ro/"}}, {"type": "node", "id": 10629417104, "lat": 46.7672724, "lon": 23.5491573, "tags": {"amenity": "pharmacy", "healthcare": "pharmacy", "name": "Farmacia Ducfarm"}}, {"type": "node", "id": 10638196375, "lat": 46.7663891, "lon": 23.5502918, "tags": {"amenity": "pharmacy", "brand": "Catena", "brand:wikidata": "Q24035728", "healthcare": "pharmacy", "name": "Catena"}}, {"type": "node", "id": 10707750999, "lat": 46.753891, "lon": 23.5546952, "tags": {"amenity": "pharmacy", "healthcare": "pharmacy", "name": "Farmacia Viva"}}, {"type": "node", "id": 10732411542, "lat": 46.7724848, "lon": 23.5893183, "tags": {"amenity": "pharmacy", "brand": "Farmacia Dona", "brand:wikidata": "Q12726919", "healthcare": "pharmacy", "name": "Farmacia Dona"}}, {"type": "node", "id": 10736562482, "lat": 46.7632088, "lon": 23.5843454, "tags": {"addr:city": "Cluj-Napoca", "addr:housenumber": "2", "addr:street": "Strada Louis Pasteur", "amenity": "pharmacy", "healthcare": "pharmacy", "name": "Farmacia Ducfarm Pasteur"}}, {"type": "node", "id": 10823751066, "lat": 46.7828811, "lon": 23.5877688, "tags": {"amenity": "pharmacy", "brand": "Catena", "brand:wikidata": "Q24035728", "healthcare": "pharmacy", "name": "Catena"}}, {"type": "node", "id": 10939750967, "lat": 46.7525433, "lon": 23.6337033, "tags": {"amenity": "pharmacy", "brand": "Dr. Max", "brand:wikidata": "Q56317371", "healthcare": "pharmacy", "name": "Dr. Max"}}, {"type": "node", "id": 11132637435, "lat": 46.7737558, "lon": 23.5877706, "tags": {"amenity": "pharmacy", "brand": "Dr. Max", "brand:wikidata": "Q56317371", "healthcare": "pharmacy", "name": "Dr. Max"}}, {"type": "node", "id": 11159328770, "lat": 46.7971172, "lon": 23.6618885, "tags": {"addr:city": "Cluj-Napoca", "addr:housenumber": "96-98", "addr:street": "Bulevardul Muncii", "amenity": "pharmacy", "check_date": "2023-08-30", "drive_through": "no", "healthcare": "pharmacy", "level": "0", "name": "Farmacia Vinca", "name:ro": "Farmacia Vinca", "opening_hours": "Mo-Fr 07:00-20:00", "source": "local knowledge;survey"}}, {"type": "node", "id": 11299550370, "lat": 46.7747146, "lon": 23.5891476, "tags": {"amenity": "pharmacy", "healthcare": "pharmacy", "name": "Remedium"}}, {"type": "node", "id": 11396338395, "lat": 46.7698829, "lon": 23.5968504, "tags": {"amenity": "pharmacy", "healthcare": "pharmacy", "name": "Ropharma"}}, {"type": "node", "id": 11432086344, "lat": 46.7696072, "lon": 23.619438, "tags": {"amenity": "pharmacy", "healthcare": "pharmacy", "name": "Ropharma"}}, {"type": "node", "id": 11469032418, "lat": 46.9297016, "lon": 23.8983707, "tags": {"addr:city": "Sic", "addr:postcode": "407540", "amenity": "pharmacy", "drive_through": "no", "healthcare": "pharmacy"}}, {"type": "node", "id": 11491195234, "lat": 46.7549892, "lon": 23.5838187, "tags": {"amenity": "pharmacy", "brand": "Dr. Max", "brand:wikidata": "Q56317371", "healthcare": "pharmacy", "name": "Dr. Max"}}, {"type": "node", "id": 11936817972, "lat": 46.7689755, "lon": 23.608237, "tags": {"amenity": "pharmacy", "check_date": "2025-05-04", "healthcare": "pharmacy", "name": "Dr Max", "opening_hours": "Mo-Fr 08:00-20:00; Sa 08:00-14:00; Su off"}}, {"type": "node", "id": 12125338570, "lat": 46.7201154, "lon": 23.6172476, "tags": {"amenity": "pharmacy", "healthcare": "pharmacy"}}, {"type": "node", "id": 12351012970, "lat": 46.8473007, "lon": 23.5053858, "tags": {"amenity": "pharmacy", "name": "La Tuyafarm"}}, {"type": "node", "id": 12801738626, "lat": 46.762899, "lon": 23.6143596, "tags": {"amenity": "pharmacy", "check_date": "2025-05-04", "healthcare": "pharmacy", "name": "Dr Max", "opening_hours": "Mo-Fr 08:00-20:00; Sa 08:00-14:00; Su off", "payment:cash": "yes", "payment:credit_cards": "yes", "payment:debit_cards": "yes", "wheelchair": "no"}}, {"type": "node", "id": 12827767147, "lat": 46.7692397, "lon": 23.6167132, "tags": {"amenity": "pharmacy", "check_date": "2025-05-11", "healthcare": "pharmacy", "name": "Dr Max", "opening_hours": "Mo-Fr 09:00-17:00; Sa-Su off"}}, {"type": "way", "id": 356900532, "nodes": [3622986790, 3622986791, 3622986792, 3622988093, 3622986790], "tags": {"addr:city": "Cluj-Napoca", "addr:country": "RO", "addr:housenumber": "50", "addr:postcode": "400315", "addr:postcode:source": "Date de la Po\u0219ta Rom\u00e2n\u0103, publicate sub Licen\u021ba pentru Guvernare Deschis\u0103 v1.0 la http://date.gov.ro/organization/posta-romana", "addr:street": "Strada Alexandru Vlahu\u021b\u0103", "amenity": "pharmacy", "building": "yes", "healthcare": "pharmacy", "name": "Farmacia Grigorescu", "opening_hours": "Mo-Fr 08:00-21:00, Sa 08:00-14:00, Su closed"}}, {"type": "way", "id": 506216112, "nodes": [4959847547, 4959847548, 4959847550, 4959847549, 4959847547], "tags": {"addr:city": "Iclod", "amenity": "pharmacy", "building": "yes", "healthcare": "pharmacy", "name": "Farmacia Kalmus"}}]}