{"version": 0.6, "generator": "Overpass API 0.7.62.8 e802775f", "osm3s": {"timestamp_osm_base": "2025-10-06T07:48:26Z", "copyright": "The data included in this document is from www.openstreetmap.org. The data is made available under ODbL."}, "elements": [{"type": "node", "id": 810526901, "lat": 45.1537284, "lon": 18.0121575, "tags": {"addr:postcode": "35000", "addr:street": "Trg Ivane Brli\u0107 Ma\u017eurani\u0107", "amenity": "pharmacy", "dispensing": "yes", "healthcare": "pharmacy", "name": "Ljekarna Korzo", "opening_hours": "Mo-Fr 07:00-20:00;Sa 07:00-13:00", "wheelchair": "no"}}, {"type": "node", "id": 972500221, "lat": 45.1548791, "lon": 18.0655812, "tags": {"amenity": "pharmacy"}}, {"type": "node", "id": 973562160, "lat": 45.1552002, "lon": 18.0194378, "tags": {"amenity": "pharmacy", "healthcare": "pharmacy", "wheelchair": "limited"}}, {"type": "node", "id": 990317319, "lat": 45.1535979, "lon": 18.0207871, "tags": {"amenity": "pharmacy", "healthcare": "pharmacy", "wheelchair": "limited"}}, {"type": "node", "id": 990369366, "lat": 45.1604179, "lon": 18.0112521, "tags": {"addr:city": "Slavonski Brod", "addr:postcode": "35000", "addr:street": "Vukovarska ulica", "amenity": "pharmacy", "healthcare": "pharmacy", "name": "Centralna ljekarna", "opening_hours": "24/7", "phone": "+38535447838", "website": "https://www.ljekarna-sb.hr/", "wheelchair": "no"}}, {"type": "node", "id": 1387922319, "lat": 45.1461008, "lon": 18.0055029, "tags": {"amenity": "pharmacy", "name": "Pharma Nova"}}, {"type": "node", "id": 1387922328, "lat": 45.1479415, "lon": 18.00215, "tags": {"amenity": "pharmacy", "name": "Vidi\u0107 apoteka"}}, {"type": "node", "id": 1738517634, "lat": 45.1901062, "lon": 17.9120824, "tags": {"amenity": "pharmacy", "healthcare": "pharmacy"}}, {"type": "node", "id": 1815403336, "lat": 45.1460626, "lon": 18.0043734, "tags": {"amenity": "pharmacy", "name": "Vidi\u0107 apoteka"}}, {"type": "node", "id": 1917420209, "lat": 45.1691097, "lon": 17.9900973, "tags": {"addr:housenumber": "130", "addr:postcode": "35000", "addr:street": "Zagreba\u010dka ulica", "amenity": "pharmacy", "name": "Joukhadar", "opening_hours": "Mo-Fr 07:00-20:00;Su 07:30-15:00", "source": "local_knowledge", "website": "https://www.ljekarne-joukhadar.hr/"}}, {"type": "node", "id": 1936748313, "lat": 45.1665586, "lon": 18.0012255, "tags": {"addr:city": "Slavonski Brod", "addr:housenumber": "12", "addr:postcode": "35000", "addr:street": "Primorska ulica", "amenity": "pharmacy", "name": "Farmacia", "website": "https://www.farmacia.hr/"}}, {"type": "node", "id": 1942012048, "lat": 45.1531513, "lon": 18.0238164, "tags": {"addr:postcode": "35000", "addr:street": "Josipa Jurja Strossmayera", "amenity": "pharmacy", "healthcare": "pharmacy", "name": "\u0110urkovi\u0107", "source": "local_knowledge"}}, {"type": "node", "id": 1979667835, "lat": 45.1741228, "lon": 18.0544265, "tags": {"addr:city": "Slavonski Brod", "addr:country": "HR", "addr:housenumber": "284", "addr:postcode": "35000", "addr:street": "Osje\u010dka ulica", "amenity": "pharmacy", "healthcare": "pharmacy", "opening_hours": "Mo-Sa 09:00-21:00; Su 09:00-14:00", "payment:cash": "yes", "payment:maestro": "yes", "payment:visa_debit": "yes", "payment:visa_electron": "yes", "phone": "+385 35 258 403", "website": "https://www.farmacia.hr/"}}, {"type": "node", "id": 1979754073, "lat": 45.158716, "lon": 18.01226, "tags": {"addr:housenumber": "7", "addr:postcode": "35000", "addr:street": "Trg pobjede", "amenity": "pharmacy", "healthcare": "pharmacy", "opening_hours": "Mo-Fr 07:00-20:00;Sa 07:00-13:00", "phone": "+38535445229", "website": "https://www.ljekarna-sb.hr/"}}, {"type": "node", "id": 2081662577, "lat": 45.1476719, "lon": 18.0002841, "tags": {"amenity": "pharmacy", "name": "Selena apoteka"}}, {"type": "node", "id": 2511662328, "lat": 45.1572972, "lon": 18.0318611, "tags": {"addr:city": "Slavonski Brod", "amenity": "pharmacy", "healthcare": "pharmacy", "name": "Va\u0161e zdravlje", "wheelchair": "limited", "wheelchair:description": "Ima lift"}}, {"type": "node", "id": 2590872783, "lat": 45.1661175, "lon": 18.0382682, "tags": {"addr:city": "Slavonski Brod", "amenity": "pharmacy", "name": "Ljekarna \"Vinkovi\u0107\"", "wheelchair": "limited", "wheelchair:description": "Toilet ?"}}, {"type": "node", "id": 2781164109, "lat": 45.2098315, "lon": 18.4055517, "tags": {"amenity": "pharmacy", "healthcare": "pharmacy"}}, {"type": "node", "id": 3601214207, "lat": 45.1595886, "lon": 17.9988406, "tags": {"addr:city": "Slavonski Brod", "addr:country": "HR", "addr:housenumber": "7", "addr:postcode": "35000", "addr:street": "Josipa Rimca", "amenity": "pharmacy", "email": "slavonski.brod@mandis-pharm.hr", "layer": "1", "name": "Mandis pharm plus", "opening_hours": "Mo-Su 09:00-21:00", "payment:cash": "yes", "payment:maestro": "yes", "payment:visa_debit": "yes", "payment:visa_electron": "yes", "phone": "+385 35 250 492", "wheelchair": "yes"}}, {"type": "node", "id": 3733650368, "lat": 45.14594, "lon": 18.0088431, "tags": {"addr:city": "Bosanski Brod", "addr:postcode": "74450", "addr:street": "Kralja Petra I Osl.", "amenity": "pharmacy", "name": "Moja Apoteka"}}, {"type": "node", "id": 3999708729, "lat": 45.1738406, "lon": 18.0523468, "tags": {"addr:city": "Slavonski Brod", "addr:country": "HR", "addr:housenumber": "284", "addr:postcode": "35000", "addr:street": "Osje\u010dka", "amenity": "pharmacy", "healthcare": "pharmacy", "name": "DM", "opening_hours": "Mo-Sa 09:00-21:00; Su 09:00-14:00", "payment:american_express": "yes", "payment:cash": "yes", "payment:diners_club": "yes", "payment:maestro": "yes", "payment:mastercard": "yes", "payment:visa": "yes", "payment:visa_debit": "yes", "payment:visa_electron": "yes", "ref": "118"}}, {"type": "node", "id": 3999708730, "lat": 45.1625742, "lon": 18.0185682, "tags": {"addr:city": "Slavonski Brod", "addr:country": "HR", "addr:housenumber": "5", "addr:postcode": "35000", "addr:street": "Naselje Slavonija II", "amenity": "pharmacy", "fax": "+385 35 272 568", "healthcare": "pharmacy", "name": "Farmacia", "opening_hours": "Mo-Sa 07:00-22:00;Su 08:00-20:00", "payment:cash": "yes", "payment:maestro": "yes", "payment:visa_debit": "yes", "payment:visa_electron": "yes", "phone": "+385 35 272 438"}}, {"type": "node", "id": 4239242589, "lat": 45.1860997, "lon": 18.2959798, "tags": {"amenity": "pharmacy", "healthcare": "pharmacy", "name": "Ljekarne Brod"}}, {"type": "node", "id": 5758926821, "lat": 44.9795148, "lon": 17.9097868, "tags": {"addr:street": "1. maja", "amenity": "pharmacy", "name": "Apoteka Stefanovi\u0107", "name:en": "Stefanonivc's Pharmacy"}}, {"type": "node", "id": 9981775310, "lat": 44.9840744, "lon": 17.9056069, "tags": {"amenity": "pharmacy", "dispensing": "yes", "healthcare": "pharmacy"}}, {"type": "node", "id": 10591246305, "lat": 44.9686277, "lon": 18.301105, "tags": {"amenity": "pharmacy", "name": "Expera Pharmacy", "opening_hours": "Mo-Sa 08:00-20:30; Su 08:00-12:00"}}, {"type": "node", "id": 11141877596, "lat": 44.9831676, "lon": 17.9277906, "tags": {"addr:city": "Derventa", "addr:housenumber": "1", "addr:postcode": "74400", "addr:street": "Kninska", "amenity": "pharmacy", "healthcare": "pharmacy", "name": "Crvena Apoteka"}}, {"type": "node", "id": 12188874661, "lat": 45.0155196, "lon": 18.3260503, "tags": {"amenity": "pharmacy", "healthcare": "pharmacy", "name": "BONUS FARM"}}]}