{"version": 0.6, "generator": "Overpass API 0.7.62.8 e802775f", "osm3s": {"timestamp_osm_base": "2025-10-06T08:41:25Z", "copyright": "The data included in this document is from www.openstreetmap.org. The data is made available under ODbL."}, "elements": [{"type": "node", "id": 790268870, "lat": 39.0726835, "lon": 26.8897866, "tags": {"amenity": "pharmacy", "healthcare": "pharmacy", "name": "Ak Eczane"}}, {"type": "node", "id": 3818481868, "lat": 39.1187181, "lon": 27.1769235, "tags": {"addr:city": "Bergama/\u0130zmir", "amenity": "pharmacy", "healthcare": "pharmacy", "name": "U\u015fakl\u0131lar Eczanesi"}}, {"type": "node", "id": 3818481921, "lat": 39.1183541, "lon": 27.177482, "tags": {"addr:city": "Bergama/\u0130zmir", "amenity": "pharmacy", "healthcare": "pharmacy", "name": "Sa\u011fl\u0131k Eczanesi"}}, {"type": "node", "id": 3818561841, "lat": 39.1123462, "lon": 27.1836067, "tags": {"addr:city": "Bergama/\u0130zmir", "addr:postcode": "35700", "amenity": "pharmacy", "healthcare": "pharmacy", "name": "\u00c7a\u011fr\u0131 Eczanesi", "phone": "+90 232 632 0631"}}, {"type": "node", "id": 3818563966, "lat": 39.1108665, "lon": 27.1855438, "tags": {"addr:city": "Bergama/\u0130zmir", "addr:postcode": "35700", "amenity": "pharmacy", "healthcare": "pharmacy", "name": "Galip Eczanesi", "phone": "+90 232 632 1825"}}, {"type": "node", "id": 3927404111, "lat": 39.1178103, "lon": 27.1770518, "tags": {"addr:postcode": "35700", "amenity": "pharmacy", "healthcare": "pharmacy", "name": "Kermes Eczanesi", "phone": "+90 232 633 1520"}}, {"type": "node", "id": 3927404133, "lat": 39.1191366, "lon": 27.177902, "tags": {"amenity": "pharmacy", "healthcare": "pharmacy", "name": "Pamuk\u00e7u Eczanesi"}}, {"type": "node", "id": 3927404134, "lat": 39.119172, "lon": 27.1779422, "tags": {"addr:postcode": "35700", "amenity": "pharmacy", "healthcare": "pharmacy", "name": "Pamuk\u00e7u Eczanesi", "phone": "+90 232 633 1234"}}, {"type": "node", "id": 5704134103, "lat": 39.113429, "lon": 27.1776749, "tags": {"addr:postcode": "35700", "amenity": "pharmacy", "healthcare": "pharmacy", "name": "\u00d6zge Eczanesi", "phone": "+90 232 632 7227"}}, {"type": "node", "id": 5704134521, "lat": 39.1133019, "lon": 27.1766596, "tags": {"addr:postcode": "35700", "amenity": "pharmacy", "healthcare": "pharmacy", "name": "Molval\u0131 Eczanesi", "phone": "+90 232 631 1057"}}, {"type": "node", "id": 7990764031, "lat": 39.1035354, "lon": 27.1662209, "tags": {"addr:postcode": "35700", "amenity": "pharmacy", "healthcare": "pharmacy", "name": "\u00d6zcan Eczanesi", "phone": "+90 232 633 1111"}}, {"type": "node", "id": 7990774286, "lat": 39.1035962, "lon": 27.1666289, "tags": {"addr:postcode": "35700", "amenity": "pharmacy", "healthcare": "pharmacy", "name": "Umut Eczanesi", "phone": "+90 232 632 1656"}}, {"type": "node", "id": 8047046411, "lat": 38.9352038, "lon": 26.9338833, "tags": {"amenity": "pharmacy", "dispensing": "yes", "healthcare": "pharmacy"}}, {"type": "node", "id": 8098919768, "lat": 39.0718043, "lon": 26.8887398, "tags": {"amenity": "pharmacy", "dispensing": "yes", "healthcare": "pharmacy", "name": "Eczane Yaman"}}, {"type": "node", "id": 8098919769, "lat": 39.0717373, "lon": 26.8887162, "tags": {"amenity": "pharmacy", "dispensing": "yes", "healthcare": "pharmacy", "name": "Dikili Eczanesi"}}, {"type": "node", "id": 8098919779, "lat": 39.0710226, "lon": 26.8882275, "tags": {"amenity": "pharmacy", "dispensing": "yes", "healthcare": "pharmacy", "name": "Umut Eczanesi"}}, {"type": "node", "id": 8098919780, "lat": 39.0709733, "lon": 26.8882097, "tags": {"amenity": "pharmacy", "dispensing": "yes", "healthcare": "pharmacy", "name": "Birsen Eczanesi"}}, {"type": "node", "id": 8098919781, "lat": 39.0710099, "lon": 26.8884278, "tags": {"amenity": "pharmacy", "dispensing": "yes", "healthcare": "pharmacy", "name": "Bademli Eczane"}}, {"type": "node", "id": 10043221007, "lat": 39.0701923, "lon": 26.887634, "tags": {"amenity": "pharmacy", "dispensing": "yes", "healthcare": "pharmacy", "name": "\u00c7avdar Eczanesi"}}, {"type": "node", "id": 10074372222, "lat": 39.0757887, "lon": 26.8922229, "tags": {"amenity": "pharmacy", "dispensing": "yes", "healthcare": "pharmacy", "name": "Sevgi Eczanesi"}}, {"type": "node", "id": 10816227220, "lat": 38.8031629, "lon": 26.9712348, "tags": {"addr:housenumber": "57/B", "addr:postcode": "35800", "addr:street": "Atat\u00fcrk Caddesi", "amenity": "pharmacy", "healthcare": "pharmacy", "name": "G\u00fcltekin Eczanesi", "phone": "+90 232 616 6725"}}, {"type": "node", "id": 10816227254, "lat": 38.8028624, "lon": 26.9704286, "tags": {"addr:housenumber": "66", "addr:postcode": "35800", "addr:street": "Atat\u00fcrk Caddesi", "amenity": "pharmacy", "healthcare": "pharmacy", "name": "Bahar Eczanesi", "phone": "+90 232 616 7321"}}, {"type": "node", "id": 10946682206, "lat": 39.1041325, "lon": 27.1667879, "tags": {"amenity": "pharmacy", "healthcare": "pharmacy", "name": "Deniz Eczanesi", "phone": "+90 232 632 3636"}}, {"type": "node", "id": 10946682406, "lat": 39.1103249, "lon": 27.1725034, "tags": {"amenity": "pharmacy", "name": "Alper Eczanesi", "phone": "+90 232 632 0001"}}, {"type": "node", "id": 10946683305, "lat": 39.1135048, "lon": 27.1768037, "tags": {"amenity": "pharmacy", "healthcare": "pharmacy", "name": "Onur Eczanesi", "phone": "+90 232 632 2229"}}, {"type": "node", "id": 10948433805, "lat": 39.1259319, "lon": 27.1775628, "tags": {"amenity": "pharmacy", "name": "Benek Eczanesi", "phone": "+90 232 631 0321"}}, {"type": "node", "id": 10948433806, "lat": 39.1219969, "lon": 27.1804704, "tags": {"amenity": "pharmacy", "healthcare": "pharmacy", "name": "Bizim Eczanesi", "phone": "+90 232 633 5994"}}, {"type": "node", "id": 10948433807, "lat": 39.11906, "lon": 27.1988932, "tags": {"amenity": "pharmacy", "healthcare": "pharmacy", "name": "Mevsim Eczanesi", "phone": "+90 232 631 5478"}}, {"type": "node", "id": 10948433905, "lat": 39.1207579, "lon": 27.1794514, "tags": {"amenity": "pharmacy", "healthcare": "pharmacy", "name": "Merkez Eczanesi", "phone": "+90 232 633 1068"}}, {"type": "node", "id": 10948433906, "lat": 39.116006, "lon": 27.1754244, "tags": {"amenity": "pharmacy", "healthcare": "pharmacy", "name": "\u015eafak Eczanesi", "phone": "+90 232 631 07 06"}}, {"type": "node", "id": 10948434005, "lat": 39.1193506, "lon": 27.177264, "tags": {"amenity": "pharmacy", "healthcare": "pharmacy", "name": "\u0130nci Eczanesi", "phone": "+90 232 632 9460"}}, {"type": "node", "id": 10948434006, "lat": 39.1182438, "lon": 27.1757003, "tags": {"amenity": "pharmacy", "name": "\u015eeker Eczanesi", "phone": "+90 232 633 2638"}}, {"type": "node", "id": 10948434007, "lat": 39.1178787, "lon": 27.1771094, "tags": {"amenity": "pharmacy", "healthcare": "pharmacy", "name": "Emniyet Eczanesi", "phone": "+90 232 633 1573"}}, {"type": "node", "id": 10948434008, "lat": 39.1158491, "lon": 27.1768894, "tags": {"amenity": "pharmacy", "healthcare": "pharmacy", "name": "Duygu Eczanesi", "phone": "+90 232 631 3200"}}, {"type": "node", "id": 10948434009, "lat": 39.1158004, "lon": 27.1776215, "tags": {"addr:housenumber": "21", "addr:street": "Mustafa Yaz\u0131c\u0131 Caddesi", "amenity": "pharmacy", "healthcare": "pharmacy", "name": "Tekin Eczanesi", "phone": "+90 232 631 5049"}}, {"type": "node", "id": 10948434010, "lat": 39.1178455, "lon": 27.1989506, "tags": {"amenity": "pharmacy", "healthcare": "pharmacy", "name": "Bur\u00e7in Eczanesi", "phone": "+90 232 831 2923"}}, {"type": "node", "id": 10948434011, "lat": 39.1190289, "lon": 27.198976, "tags": {"amenity": "pharmacy", "healthcare": "pharmacy", "name": "\u00c7i\u00e7eksever Eczanesi", "phone": "+90 232 632 8777"}}, {"type": "node", "id": 10948434012, "lat": 39.1190854, "lon": 27.1987543, "tags": {"amenity": "pharmacy", "healthcare": "pharmacy", "name": "Pelin Eczanesi", "phone": "+90 232 631 4041"}}, {"type": "node", "id": 10948434013, "lat": 39.1191192, "lon": 27.1986048, "tags": {"amenity": "pharmacy", "healthcare": "pharmacy", "name": "\u0130stanbul Eczanesi", "phone": "+90 232 632 2828"}}, {"type": "node", "id": 10948434105, "lat": 39.1155748, "lon": 27.1774128, "tags": {"addr:housenumber": "1/A", "addr:street": "Kaymakam Kemal Bey Caddesi", "amenity": "pharmacy", "healthcare": "pharmacy", "name": "Toktam\u0131\u015f Eczanesi", "phone": "+90 232 633 4807"}}, {"type": "node", "id": 11835084873, "lat": 38.7970206, "lon": 26.9687429, "tags": {"amenity": "pharmacy", "healthcare": "pharmacy", "name": "\u00d6zdemir Eczanesi", "phone": "+90 232 341 2296"}}, {"type": "node", "id": 11835084874, "lat": 38.7990762, "lon": 26.9741344, "tags": {"amenity": "pharmacy", "healthcare": "pharmacy", "name": "Merkez Eczanesi", "phone": "+90 232 616 2707"}}, {"type": "node", "id": 11835084875, "lat": 38.7863384, "lon": 26.975037, "tags": {"amenity": "pharmacy", "name": "Ufkum Eczanesi", "phone": "+90 232 232 9064"}}, {"type": "node", "id": 11835084876, "lat": 38.787211, "lon": 26.9762792, "tags": {"amenity": "pharmacy", "healthcare": "pharmacy", "name": "Esra Eczanesi", "phone": "+90 232 616 1955"}}, {"type": "node", "id": 11835084877, "lat": 38.7873195, "lon": 26.976181, "tags": {"amenity": "pharmacy", "healthcare": "pharmacy", "name": "Alia\u011fa Deva Eczanesi", "phone": "+90 232 616 7999"}}, {"type": "node", "id": 11835084970, "lat": 38.7986062, "lon": 26.9653591, "tags": {"addr:housenumber": "116/B", "addr:street": "Atat\u00fcrk Caddesi", "amenity": "pharmacy", "healthcare": "pharmacy", "name": "B\u00fc\u015fra Eczanesi", "phone": "+90 232 655 0065"}}, {"type": "node", "id": 11835084971, "lat": 38.8012645, "lon": 26.9733981, "tags": {"amenity": "pharmacy", "healthcare": "pharmacy", "name": "Cansu Eczanesi", "phone": "+90 232 616 1270"}}, {"type": "node", "id": 11835084972, "lat": 38.8026923, "lon": 26.97026, "tags": {"addr:housenumber": "66/C", "addr:street": "Atat\u00fcrk Caddesi", "amenity": "pharmacy", "healthcare": "pharmacy", "name": "Mart\u0131m Eczanesi", "phone": "+90 232 616 3977"}}, {"type": "node", "id": 11835084973, "lat": 38.8027669, "lon": 26.9703498, "tags": {"addr:housenumber": "66/C", "addr:street": "Atat\u00fcrk Caddesi", "amenity": "pharmacy", "healthcare": "pharmacy", "name": "Derman Eczanesi", "phone": "+90 232 617 1151"}}, {"type": "node", "id": 11835085070, "lat": 38.7892585, "lon": 26.9603199, "tags": {"amenity": "pharmacy", "name": "Eyl\u00fcl Y\u0131lmaz Eczanesi", "phone": "+90 232 502 2084"}}, {"type": "node", "id": 11835085071, "lat": 38.7996253, "lon": 26.9702207, "tags": {"amenity": "pharmacy", "healthcare": "pharmacy", "name": "Duru Eczanesi", "phone": "+90 232 616 2523"}}, {"type": "node", "id": 11835085072, "lat": 38.8013753, "lon": 26.9727601, "tags": {"amenity": "pharmacy", "healthcare": "pharmacy", "name": "Melek Eczanesi", "phone": "+90 232 616 1058"}}, {"type": "node", "id": 11835085073, "lat": 38.7875979, "lon": 26.975886, "tags": {"amenity": "pharmacy", "healthcare": "pharmacy", "name": "Sinem Su Eczanesi", "phone": "+90 232 655 5050"}}, {"type": "node", "id": 11835086169, "lat": 38.7902353, "lon": 26.9625085, "tags": {"amenity": "pharmacy", "name": "Deniz Eczanesi", "phone": "+90 232 616 3338"}}, {"type": "node", "id": 11835086269, "lat": 38.7936659, "lon": 26.9709596, "tags": {"addr:postcode": "35800", "amenity": "pharmacy", "healthcare": "pharmacy", "name": "\u0130rem Eczanesi", "phone": "+90 232 616 2699"}}, {"type": "node", "id": 11835086270, "lat": 38.7962959, "lon": 26.9745818, "tags": {"amenity": "pharmacy", "healthcare": "pharmacy", "name": "Edikli Eczanesi", "phone": "+90 232 617 0998"}}, {"type": "node", "id": 11835086271, "lat": 38.7980648, "lon": 26.9742215, "tags": {"amenity": "pharmacy", "healthcare": "pharmacy", "name": "Alia\u011fa Eczanesi", "phone": "+90 232 616 2482"}}, {"type": "node", "id": 11835086272, "lat": 38.8003895, "lon": 26.9748285, "tags": {"amenity": "pharmacy", "healthcare": "pharmacy", "name": "Bilgin Eczanesi", "phone": "+90 232 616 1312"}}, {"type": "node", "id": 11835086273, "lat": 38.8026184, "lon": 26.9701482, "tags": {"addr:housenumber": "68/A", "addr:street": "Atat\u00fcrk Caddesi", "amenity": "pharmacy", "healthcare": "pharmacy", "name": "Berkay Eczanesi", "phone": "+90 232 616 1311"}}, {"type": "node", "id": 11835086274, "lat": 38.7889994, "lon": 26.9747212, "tags": {"addr:housenumber": "33/F", "addr:street": "Cengiz Topel Cd.", "amenity": "pharmacy", "healthcare": "pharmacy", "name": "Akta\u015f Eczanesi", "phone": "+90 542 319 1878"}}, {"type": "node", "id": 11835086275, "lat": 38.7868226, "lon": 26.9760831, "tags": {"amenity": "pharmacy", "healthcare": "pharmacy", "name": "Serhat Eczanesi", "phone": "+90 232 616 4060"}}, {"type": "node", "id": 11835086276, "lat": 38.7870257, "lon": 26.9764289, "tags": {"amenity": "pharmacy", "healthcare": "pharmacy", "name": "B\u00fcy\u00fck Eczanesi", "phone": "+90 232 616 0111"}}, {"type": "node", "id": 11835086369, "lat": 38.7975408, "lon": 26.9744114, "tags": {"amenity": "pharmacy", "name": "Sar\u0131ta\u015f Eczanesi", "phone": "+90 232 616 4985"}}, {"type": "node", "id": 11835086669, "lat": 38.7993633, "lon": 26.9708318, "tags": {"amenity": "pharmacy", "healthcare": "pharmacy", "name": "\u00c7i\u011fdem Eczanesi", "phone": "+90 232 616 4243"}}, {"type": "node", "id": 11836645617, "lat": 38.7461439, "lon": 26.8301361, "tags": {"amenity": "pharmacy", "name": "Yenice Eczanesi", "phone": "+90 232 814 7146"}}, {"type": "node", "id": 11836645618, "lat": 38.7388372, "lon": 26.8384615, "tags": {"amenity": "pharmacy", "name": "Ya\u011fmur Eczanesi", "phone": "+90 232 814 8615"}}, {"type": "node", "id": 11836645619, "lat": 38.7386848, "lon": 26.8393043, "tags": {"amenity": "pharmacy", "name": "Akp\u0131nar Eczanesi", "phone": "+90 232 814 8200"}}, {"type": "node", "id": 11836646191, "lat": 38.7408749, "lon": 26.8372697, "tags": {"amenity": "pharmacy", "name": "K\u0131van\u00e7 Eczanesi", "phone": "+90 232 814 6031"}}, {"type": "node", "id": 12351602377, "lat": 39.1081917, "lon": 27.1741455, "tags": {"amenity": "pharmacy", "healthcare": "pharmacy", "name": "Eymen Eczanesi"}}, {"type": "node", "id": 12359939734, "lat": 39.1262577, "lon": 27.1780153, "tags": {"amenity": "pharmacy", "healthcare": "pharmacy", "name": "Fahri \u0130nan Eczanesi"}}]}