{"version": 0.6, "generator": "Overpass API 0.7.62.8 e802775f", "osm3s": {"timestamp_osm_base": "2025-10-06T08:30:13Z", "copyright": "The data included in this document is from www.openstreetmap.org. The data is made available under ODbL."}, "elements": [{"type": "node", "id": 767272857, "lat": 51.3800615, "lon": 21.1826452, "tags": {"amenity": "pharmacy", "dispensing": "yes", "healthcare": "pharmacy", "name": "Apteka", "ref:csioz": "1095452"}}, {"type": "node", "id": 767276893, "lat": 51.392287, "lon": 21.1538184, "tags": {"addr:city": "Radom", "addr:housenumber": "1a", "addr:postcode": "26-600", "addr:street": "Romualda Traugutta", "amenity": "pharmacy", "healthcare": "pharmacy", "name": "Apteka ca\u0142odobowa Gemini", "opening_hours": "24/7", "ref:csioz": "1095529", "source:addr": "EMUiA (emuia.geoportal.gov.pl)", "source:disused": "Rejestr Aptek MZ", "website": "https://www.geminipolska.com.pl/apteki-stacjonarne/radom/traugutta-1A"}}, {"type": "node", "id": 767280417, "lat": 51.391311, "lon": 21.1624876, "tags": {"addr:city": "Radom", "addr:housenumber": "7J", "addr:postcode": "26-600", "addr:street": "Tadeusza Mazowieckiego", "amenity": "pharmacy", "dispensing": "yes", "healthcare": "pharmacy", "name": "Apteka", "ref:csioz": "1095154"}}, {"type": "node", "id": 767336760, "lat": 51.4100543, "lon": 21.1585228, "tags": {"addr:city": "Radom", "addr:housenumber": "9", "addr:postcode": "26-600", "addr:street": "Boles\u0142awa Chrobrego", "amenity": "pharmacy", "dispensing": "yes", "healthcare": "pharmacy", "name": "Apteka", "ref:csioz": "1095122"}}, {"type": "node", "id": 767389444, "lat": 51.4068699, "lon": 21.1656083, "tags": {"amenity": "pharmacy", "dispensing": "yes", "healthcare": "pharmacy", "name": "Apteka", "ref:csioz": "1095471"}}, {"type": "node", "id": 892708261, "lat": 51.3809754, "lon": 21.1627491, "tags": {"amenity": "pharmacy", "dispensing": "yes", "healthcare": "pharmacy", "name": "Apteka Osiedlowa", "ref:csioz": "1197566"}}, {"type": "node", "id": 1460407339, "lat": 51.1027383, "lon": 20.8564799, "tags": {"addr:housenumber": "104", "addr:street": "Legion\u00f3w", "amenity": "pharmacy", "healthcare": "pharmacy", "name": "Na Zachodnim", "opening_hours": "Mo-Fr 08:00-20:00; Sa 08:00-15:00; Su off", "phone": "+48 41 252 45 48", "wheelchair": "yes"}}, {"type": "node", "id": 1505158424, "lat": 51.3114686, "lon": 21.2504613, "tags": {"addr:city": "Skaryszew", "addr:housenumber": "12", "addr:postcode": "26-640", "addr:street": "Targowa", "amenity": "pharmacy", "dispensing": "yes", "healthcare": "pharmacy", "ref:csioz": "1096010"}}, {"type": "node", "id": 1562700189, "lat": 51.1134489, "lon": 20.8576603, "tags": {"addr:housenumber": "7", "addr:street": "Apteczna", "amenity": "pharmacy", "fixme": "sprawdzi\u0107 godziny otwarcia", "healthcare": "pharmacy"}}, {"type": "node", "id": 1562700247, "lat": 51.1134266, "lon": 20.8561324, "tags": {"amenity": "pharmacy", "check_date": "2024-10-29", "healthcare": "pharmacy", "opening_hours": "Mo-Fr 07:30-20:00; Sa 08:00-15:00", "phone": "+48 41 2521509", "wheelchair": "yes"}}, {"type": "node", "id": 1579344578, "lat": 51.1112907, "lon": 20.8524003, "tags": {"amenity": "pharmacy", "check_date": "2024-10-29", "healthcare": "pharmacy", "opening_hours": "Mo-Sa 07:30-20:30; Su 10:00-18:00", "phone": "+48 41 2531527", "wheelchair": "yes"}}, {"type": "node", "id": 1727405986, "lat": 51.3851591, "lon": 21.1545773, "tags": {"addr:city": "Radom", "addr:housenumber": "6A", "addr:postcode": "26-611", "addr:street": "Jurija Gagarina", "amenity": "pharmacy", "dispensing": "yes", "healthcare": "pharmacy", "name": "Apteka", "official_name": "Komandos\u00f3w", "ref:csioz": "1095230"}}, {"type": "node", "id": 1802576050, "lat": 51.4099369, "lon": 21.1630248, "tags": {"addr:city": "Radom", "addr:housenumber": "19", "addr:postcode": "26-600", "addr:street": "Janusza Kusoci\u0144skiego", "amenity": "pharmacy", "dispensing": "yes", "healthcare": "pharmacy", "name": "Apteka DOZ", "official_name": "Doz Apteka Dbam O Zdrowie", "ref:csioz": "1095263"}}, {"type": "node", "id": 1802590413, "lat": 51.406759, "lon": 21.16445, "tags": {"addr:city": "Radom", "addr:housenumber": "52A", "addr:postcode": "26-600", "addr:street": "Andrzeja Struga", "amenity": "pharmacy", "dispensing": "yes", "healthcare": "pharmacy", "name": "Apteka DOZ", "official_name": "Dbam O Zdrowie", "ref:csioz": "1095483"}}, {"type": "node", "id": 1802591372, "lat": 51.4075009, "lon": 21.1636684, "tags": {"addr:city": "Radom", "addr:housenumber": "57A", "addr:postcode": "26-600", "addr:street": "Andrzeja Struga", "amenity": "pharmacy", "dispensing": "yes", "healthcare": "pharmacy", "name": "Apteka", "ref:csioz": "1095635"}}, {"type": "node", "id": 1888460725, "lat": 51.3893715, "lon": 21.1572173, "tags": {"addr:city": "Radom", "addr:housenumber": "15", "addr:postcode": "26-600", "addr:street": "Kolejowa", "amenity": "pharmacy", "dispensing": "yes", "healthcare": "pharmacy", "name": "Apteka od Serca", "opening_hours": "Mo-Fr 07:30-20:00; Sa 08:00-14:00", "ref:csioz": "1095225"}}, {"type": "node", "id": 1891494648, "lat": 51.387159, "lon": 21.1569944, "tags": {"addr:city": "Radom", "addr:housenumber": "17", "addr:postcode": "26-600", "addr:street": "Aleja J\u00f3zefa Grzecznarowskiego", "amenity": "pharmacy", "dispensing": "yes", "healthcare": "pharmacy", "name": "Polskich Farmaceut\u00f3w", "ref:csioz": "1119013"}}, {"type": "node", "id": 1891494673, "lat": 51.3922673, "lon": 21.1471602, "tags": {"amenity": "pharmacy", "dispensing": "yes", "healthcare": "pharmacy", "name": "Apteka AZ", "official_name": "Apteka Mgr Farm. Alina Zalewska", "ref:csioz": "1095662"}}, {"type": "node", "id": 1891783714, "lat": 51.4009994, "lon": 21.1560547, "tags": {"amenity": "pharmacy", "dispensing": "yes", "healthcare": "pharmacy", "name": "Apteka plus", "ref:csioz": "1095761"}}, {"type": "node", "id": 1902357626, "lat": 51.4066661, "lon": 21.1551283, "tags": {"amenity": "pharmacy", "brand": "Super-Pharm", "brand:en": "Super-Pharm", "brand:he": "\u05e1\u05d5\u05e4\u05e8-\u05e4\u05d0\u05e8\u05dd", "brand:wikidata": "Q13220217", "dispensing": "yes", "healthcare": "pharmacy", "name": "Super-Pharm", "name:ar": "\u0633\u0648\u0628\u064a\u0631 \u0641\u0627\u0631\u0645", "name:en": "Super-Pharm", "name:he": "\u05e1\u05d5\u05e4\u05e8-\u05e4\u05d0\u05e8\u05dd", "name:ru": "\u0421\u0443\u043f\u0435\u0440-\u0424\u0430\u0440\u043c", "opening_hours": "Mo-Sa 09:00-21:00; Su 10:00-20:00", "ref:csioz": "1095988"}}, {"type": "node", "id": 1907075417, "lat": 51.3842873, "lon": 21.1583131, "tags": {"amenity": "pharmacy", "brand": "Gemini", "brand:wikidata": "Q130243797", "dispensing": "yes", "healthcare": "pharmacy", "name": "Gemini", "ref:csioz": "1095165"}}, {"type": "node", "id": 1918886365, "lat": 51.3785019, "lon": 21.1568594, "tags": {"addr:city": "Radom", "addr:housenumber": "7", "addr:postcode": "26-600", "addr:street": "Cisowa", "amenity": "pharmacy", "brand": "Dbam o Zdrowie", "brand:wikidata": "Q62563833", "dispensing": "yes", "healthcare": "pharmacy", "name": "Dbam O Zdrowie", "ref:csioz": "1095133", "short_name": "DOZ"}}, {"type": "node", "id": 1933723870, "lat": 51.3789738, "lon": 21.1648676, "tags": {"addr:city": "Radom", "addr:housenumber": "20", "addr:postcode": "26-600", "addr:street": "Osiedlowa", "amenity": "pharmacy", "dispensing": "yes", "healthcare": "pharmacy", "name": "Apteka", "ref:csioz": "1095367"}}, {"type": "node", "id": 1933806940, "lat": 51.3817369, "lon": 21.1581415, "tags": {"amenity": "pharmacy", "brand": "Dbam o Zdrowie", "brand:wikidata": "Q62563833", "dispensing": "yes", "healthcare": "pharmacy", "name": "Dbam o Zdrowie", "official_name": "Z Alei Grzecznarowskiego Z Galerii Stokrotka", "ref:csioz": "1095426", "short_name": "DOZ"}}, {"type": "node", "id": 1997367210, "lat": 51.1191371, "lon": 20.8648874, "tags": {"amenity": "pharmacy", "healthcare": "pharmacy", "name": "Przy Placu", "opening_hours": "Mo-Fr 08:00-20:00; Sa 08:00-15:00; Su off", "phone": "+48 412537965"}}, {"type": "node", "id": 2130794052, "lat": 51.1269057, "lon": 20.8784658, "tags": {"amenity": "pharmacy", "check_date:opening_hours": "2025-05-13", "dispensing": "yes", "healthcare": "pharmacy", "name": "Plus", "opening_hours": "Mo-Fr 07:30-20:00; Sa 08:00-15:00; Su off", "phone": "+48 412784645"}}, {"type": "node", "id": 2142268712, "lat": 51.0467176, "lon": 20.8342771, "tags": {"addr:housenumber": "9", "addr:postcode": "26-130", "addr:street": "Emilii Peck", "amenity": "pharmacy", "name": "Apteka \u201cW Przychodni\u201d"}}, {"type": "node", "id": 2295986347, "lat": 51.136948, "lon": 20.9119603, "tags": {"amenity": "pharmacy", "healthcare": "pharmacy"}}, {"type": "node", "id": 2519590406, "lat": 51.2489792, "lon": 21.0682621, "tags": {"addr:city": "Wierzbica", "addr:housenumber": "28", "addr:postcode": "26-680", "addr:street": "Ignacego Krasickiego", "amenity": "pharmacy", "dispensing": "yes", "healthcare": "pharmacy", "ref:csioz": "1096029"}}, {"type": "node", "id": 2528645385, "lat": 51.496673, "lon": 21.2362357, "tags": {"amenity": "pharmacy", "dispensing": "yes", "healthcare": "pharmacy", "ref:csioz": "1095845"}}, {"type": "node", "id": 2602394962, "lat": 51.4207324, "lon": 21.1637975, "tags": {"addr:city": "Radom", "addr:housenumber": "46A", "addr:postcode": "26-600", "addr:street": "Boles\u0142awa Chrobrego", "amenity": "pharmacy", "dispensing": "yes", "healthcare": "pharmacy", "name": "Apteka Polskich Farmaceut\u00f3w s.c.", "official_name": "Z Grzecznarowskiego Z Galerii Stokrotka", "ref:csioz": "1173648", "source:addr": "EMUiA (emuia.geoportal.gov.pl)"}}, {"type": "node", "id": 2680516059, "lat": 51.2282333, "lon": 20.8681998, "tags": {"amenity": "pharmacy", "healthcare": "pharmacy", "name": "Apteka", "phone": "48 617 19 22"}}, {"type": "node", "id": 2684945520, "lat": 51.4145662, "lon": 21.1792635, "tags": {"amenity": "pharmacy", "dispensing": "yes", "healthcare": "pharmacy", "official_name": "Od Serca", "operator": "Panaceum", "ref:csioz": "1095351"}}, {"type": "node", "id": 2685726548, "lat": 51.4158443, "lon": 21.174753, "tags": {"addr:city": "Radom", "addr:housenumber": "3B", "addr:postcode": "26-600", "addr:street": "Ignacego Paderewskiego", "amenity": "pharmacy", "dispensing": "yes", "healthcare": "pharmacy", "name": "Apteka", "ref:csioz": "1095380"}}, {"type": "node", "id": 2685897576, "lat": 51.4100373, "lon": 21.1817411, "tags": {"addr:city": "Radom", "addr:housenumber": "39", "addr:postcode": "26-600", "addr:street": "Olszty\u0144ska", "amenity": "pharmacy", "dispensing": "yes", "healthcare": "pharmacy", "name": "Apteka", "ref:csioz": "1095346"}}, {"type": "node", "id": 2775487654, "lat": 51.1248364, "lon": 20.8742273, "tags": {"amenity": "pharmacy", "fixme": "sprawdzi\u0107 godziny otwarcia", "healthcare": "pharmacy"}}, {"type": "node", "id": 2775575515, "lat": 51.121916, "lon": 20.8737678, "tags": {"amenity": "pharmacy", "healthcare": "pharmacy", "name": "Arnika", "opening_hours": "Mo-Sa 07:30-20:30 ; Su 08:30-19:30", "phone": "+48 41 2524763"}}, {"type": "node", "id": 2799867079, "lat": 51.2230179, "lon": 20.8585486, "tags": {"amenity": "pharmacy", "dispensing": "yes", "healthcare": "pharmacy", "name": "Pod Ko\u015bcio\u0142em", "phone": "516 584 564"}}, {"type": "node", "id": 2799867313, "lat": 51.2280461, "lon": 20.859957, "tags": {"amenity": "pharmacy", "dispensing": "yes", "healthcare": "pharmacy"}}, {"type": "node", "id": 2799867314, "lat": 51.2292977, "lon": 20.8610658, "tags": {"amenity": "pharmacy", "dispensing": "yes", "healthcare": "pharmacy"}}, {"type": "node", "id": 3051848936, "lat": 51.1260356, "lon": 20.8687404, "tags": {"amenity": "pharmacy", "fixme": "Czy na pewno tutaj znajduje si\u0119 apteka? Oraz sprawdzi\u0107 godziny otwarcia", "healthcare": "pharmacy"}}, {"type": "node", "id": 3414533232, "lat": 51.1148991, "lon": 20.861283, "tags": {"amenity": "pharmacy", "check_date": "2024-07-28", "healthcare": "pharmacy", "internet_access": "no", "name": "Codzienna", "opening_hours": "Mo-Su 08:00-21:00", "payment:cash": "yes", "payment:coins": "yes", "payment:credit_cards": "yes", "payment:debit_cards": "yes", "phone": "+48 413896060", "wheelchair": "yes"}}, {"type": "node", "id": 3497762911, "lat": 51.1169769, "lon": 20.8922994, "tags": {"amenity": "pharmacy", "check_date:opening_hours": "2025-05-14", "dispensing": "yes", "healthcare": "pharmacy", "name": "Nasza Apteka", "opening_hours": "Mo-Fr 07:30-20:00; Sa 07:30-15:30; Su off", "phone": "+48 412516022"}}, {"type": "node", "id": 3505380247, "lat": 51.1161973, "lon": 20.8804324, "tags": {"addr:city": "Skar\u017cysko-Kamienna", "addr:housenumber": "88", "addr:postcode": "26-110", "addr:street": "Aleja Niepodleg\u0142o\u015bci", "amenity": "pharmacy", "check_date:opening_hours": "2025-08-22", "healthcare": "pharmacy", "name": "Mi\u0119towa", "opening_hours": "Mo-Fr 08:00-20:00; Sa 08:00-14:00; Su off", "phone": "+48 412782177"}}, {"type": "node", "id": 3548670267, "lat": 51.1173922, "lon": 20.8802261, "tags": {"amenity": "pharmacy", "dispensing": "yes", "healthcare": "pharmacy", "name": "Gemini", "opening_hours": "Mo-Fr 07:30-20:00; Sa 07:30-15:30; PH off", "phone": "+48 41 2510730"}}, {"type": "node", "id": 3694155494, "lat": 51.407426, "lon": 21.1435065, "tags": {"addr:city": "Radom", "addr:housenumber": "14", "addr:postcode": "26-600", "addr:street": "J\u00f3zefa Mireckiego", "amenity": "pharmacy", "dispensing": "yes", "healthcare": "pharmacy", "name": "Apteka Codzienna", "ref:csioz": "1095314"}}, {"type": "node", "id": 3816323404, "lat": 51.1166927, "lon": 20.8911192, "tags": {"amenity": "pharmacy", "healthcare": "pharmacy", "name": "Przyjazna", "opening_hours": "Mo-Fr 07:30-20:00; Sa 08:00-15:00; Su off", "phone": "+48 412528126"}}, {"type": "node", "id": 3956727720, "lat": 51.4410004, "lon": 20.9995554, "tags": {"amenity": "pharmacy", "brand": "Nova", "dispensing": "yes", "healthcare": "pharmacy", "name": "Nova", "ref:csioz": "1231145"}}, {"type": "node", "id": 4192249647, "lat": 51.359446, "lon": 20.6289807, "tags": {"addr:city": "Przysucha", "addr:city:simc": "0973777", "addr:housenumber": "19", "addr:postcode": "26-400", "addr:street": "Warszawska", "addr:street:sym_ul": "23682", "amenity": "pharmacy", "dispensing": "yes", "healthcare": "pharmacy", "name": "Apteka 4 Pory Roku", "opening_hours": "Mo-Fr 08:00-20:00; Sa 08:00-14:00", "ref:csioz": "1184542", "source:addr": "emuia.gugik.gov.pl"}}, {"type": "node", "id": 4192251465, "lat": 51.3596802, "lon": 20.6291786, "tags": {"addr:city": "Przysucha", "addr:city:simc": "0973777", "addr:housenumber": "25", "addr:postcode": "26-400", "addr:street": "Warszawska", "addr:street:sym_ul": "23682", "amenity": "pharmacy", "dispensing": "yes", "healthcare": "pharmacy", "name": "Prywatna A&R Agnieszka I Rados\u0142aw Salij Sp. J.", "opening_hours": "Mo-Fr 08:00-20:00; Sa 08:00-15:00", "ref:csioz": "1201222", "source:addr": "emuia.gugik.gov.pl"}}, {"type": "node", "id": 4313563836, "lat": 51.0592894, "lon": 21.0671846, "tags": {"amenity": "pharmacy"}}, {"type": "node", "id": 4314107981, "lat": 51.0648722, "lon": 21.0731647, "tags": {"addr:city": "Starachowice", "addr:housenumber": "6", "addr:postcode": "27-200", "addr:street": "Batalion\u00f3w Ch\u0142opskich", "amenity": "pharmacy", "dispensing": "yes", "drive_through": "no", "healthcare": "pharmacy", "name": "Apteka S\u0142oneczna", "opening_hours": "Mo-Fr 07:00-20:00; Sa 08:00-15:00", "phone": "+48 41 252 73 68"}}, {"type": "node", "id": 4381858606, "lat": 51.0478109, "lon": 20.8316953, "tags": {"amenity": "pharmacy", "healthcare": "pharmacy", "name": "Apteka Centrum"}}, {"type": "node", "id": 4430747291, "lat": 51.3886112, "lon": 21.126947, "tags": {"amenity": "pharmacy", "dispensing": "yes", "healthcare": "pharmacy", "name": "Apteka NOVA", "phone": "+48 48389-99-91", "ref:csioz": "1200894"}}, {"type": "node", "id": 4457539340, "lat": 51.3634053, "lon": 20.7198857, "tags": {"addr:city": "Skrzynno", "addr:housenumber": "14", "addr:postcode": "26-431", "addr:street": "Radomska", "amenity": "pharmacy", "dispensing": "yes", "healthcare": "pharmacy", "name": "Punkt Apteczny A&R Agnieszka I Rados\u0142aw Salij Sp.J.", "opening_hours": "Mo-Fr 09:00-14:00", "ref:csioz": "1196136"}}, {"type": "node", "id": 4498337299, "lat": 51.1176487, "lon": 20.8568459}, {"type": "node", "id": 4498337300, "lat": 51.1175649, "lon": 20.8568032}, {"type": "node", "id": 4498337301, "lat": 51.1175891, "lon": 20.8566796}, {"type": "node", "id": 4498337302, "lat": 51.1176735, "lon": 20.8567228}, {"type": "node", "id": 4501565142, "lat": 51.111855, "lon": 20.8665086}, {"type": "node", "id": 4501565143, "lat": 51.1118181, "lon": 20.8663378}, {"type": "node", "id": 4501565144, "lat": 51.1117756, "lon": 20.866552}, {"type": "node", "id": 4501565147, "lat": 51.1117319, "lon": 20.8663849}, {"type": "node", "id": 4501565148, "lat": 51.1117496, "lon": 20.866467}, {"type": "node", "id": 4501565149, "lat": 51.1117565, "lon": 20.8664633}, {"type": "node", "id": 4539406791, "lat": 51.3580414, "lon": 20.6323486}, {"type": "node", "id": 4539406792, "lat": 51.3579895, "lon": 20.6323157}, {"type": "node", "id": 4539406793, "lat": 51.3580465, "lon": 20.6320864}, {"type": "node", "id": 4539406794, "lat": 51.3580946, "lon": 20.6321163}, {"type": "node", "id": 4539406795, "lat": 51.3580628, "lon": 20.6322475}, {"type": "node", "id": 4539406796, "lat": 51.3580655, "lon": 20.6322493}, {"type": "node", "id": 4542036648, "lat": 51.2278424, "lon": 20.8643529}, {"type": "node", "id": 4542036649, "lat": 51.2279423, "lon": 20.864354}, {"type": "node", "id": 4542036650, "lat": 51.2278376, "lon": 20.8643528}, {"type": "node", "id": 4542036651, "lat": 51.2279432, "lon": 20.8642379}, {"type": "node", "id": 4542036652, "lat": 51.2278381, "lon": 20.8642361}, {"type": "node", "id": 4557111408, "lat": 51.11499, "lon": 20.8847283, "tags": {"addr:city": "Skar\u017cysko-Kamienna", "addr:country": "PL", "addr:housenumber": "34", "addr:postcode": "26-110", "addr:street": "1 Maja", "amenity": "pharmacy", "brand": "Dbam o Zdrowie", "brand:wikidata": "Q62563833", "dispensing": "yes", "drive_through": "no", "healthcare": "pharmacy", "name": "Dbam o Zdrowie", "opening_hours": "Mo-Fr 07:30-20:30; Sa 08:00-16:00; PH off", "phone": "+48 41 251 43 44", "short_name": "DOZ"}}, {"type": "node", "id": 4590993713, "lat": 51.4009893, "lon": 21.1524867, "tags": {"amenity": "pharmacy", "dispensing": "yes", "healthcare": "pharmacy", "name": "Apteka", "ref:csioz": "1095405"}}, {"type": "node", "id": 4603663244, "lat": 51.4052016, "lon": 21.1314879, "tags": {"addr:city": "Radom", "addr:housenumber": "47", "addr:postcode": "26-600", "addr:street": "Genera\u0142a Leopolda Okulickiego", "amenity": "pharmacy", "dispensing": "yes", "healthcare": "pharmacy", "name": "Apteka \"Medella\"", "official_name": "Doz Apteka Dbam O Zdrowie", "ref:csioz": "1111485"}}, {"type": "node", "id": 4620943077, "lat": 51.3638837, "lon": 21.1273245, "tags": {"amenity": "pharmacy", "dispensing": "yes", "healthcare": "pharmacy", "ref:csioz": "1095541"}}, {"type": "node", "id": 4682060800, "lat": 51.4048041, "lon": 21.1416673, "tags": {"amenity": "pharmacy", "dispensing": "yes", "healthcare": "pharmacy", "name": "Apteka AZ", "official_name": "Apteka Mgr Farm. Alina Zalewska", "ref:csioz": "1095757"}}, {"type": "node", "id": 4727949886, "lat": 51.3805844, "lon": 20.9769692, "tags": {"addr:city": "Wolan\u00f3w", "addr:housenumber": "1", "addr:street": "Radomska", "amenity": "pharmacy", "dispensing": "yes", "healthcare": "pharmacy", "name": "Wolan\u00f3w", "ref:csioz": "1096041"}}, {"type": "node", "id": 4727967913, "lat": 51.4046444, "lon": 21.1292968, "tags": {"addr:city": "Radom", "addr:housenumber": "11", "addr:postcode": "26-600", "addr:street": "G\u0142\u00f3wna", "amenity": "pharmacy", "dispensing": "yes", "healthcare": "pharmacy", "name": "Iva-Med", "official_name": "Ivamed", "ref:csioz": "1173829"}}, {"type": "node", "id": 4735814955, "lat": 51.3883216, "lon": 21.1263255, "tags": {"addr:city": "Radom", "addr:housenumber": "100A", "addr:postcode": "26-612", "addr:street": "Boles\u0142awa Limanowskiego", "amenity": "pharmacy", "dispensing": "yes", "healthcare": "pharmacy", "name": "Apteka Miodowa", "opening_hours": "Mo-Fr 08:00-20:00; Sa 08:00-14:00, Su off", "phone": "48 331 00 10", "ref:csioz": "1118828"}}, {"type": "node", "id": 4735818523, "lat": 51.387566, "lon": 21.1266629, "tags": {"amenity": "pharmacy", "dispensing": "yes", "healthcare": "pharmacy", "name": "Apteka Juni-Farm", "opening_hours": "Mo-Fr 08:30-19:00", "phone": "48 360-97-02", "ref:csioz": "1095274"}}, {"type": "node", "id": 4736211405, "lat": 51.3815298, "lon": 21.1695351, "tags": {"amenity": "pharmacy", "dispensing": "yes", "healthcare": "pharmacy", "name": "Dr Zdrowie", "opening_hours": "Mo-Sa 09:00-21:00", "ref:csioz": "1095201", "website": "https://drzdrowie.pl", "wheelchair": "yes"}}, {"type": "node", "id": 4748517529, "lat": 51.4258137, "lon": 21.1562753, "tags": {"amenity": "pharmacy", "brand": "Dr. Max", "brand:wikidata": "Q56317371", "dispensing": "yes", "healthcare": "pharmacy", "name": "Dr. Max", "ref:csioz": "1095624"}}, {"type": "node", "id": 4748703123, "lat": 51.378677, "lon": 21.1269202, "tags": {"amenity": "pharmacy", "dispensing": "yes", "healthcare": "pharmacy", "ref:csioz": "1095507"}}, {"type": "node", "id": 4768297052, "lat": 51.3929191, "lon": 21.1567693, "tags": {"addr:city": "Radom", "addr:housenumber": "15", "addr:postcode": "26-600", "addr:street": "W\u0142adys\u0142awa Beliny-Pra\u017cmowskiego", "amenity": "pharmacy", "brand": "Apteka Rodzinna", "dispensing": "yes", "healthcare": "pharmacy", "name": "Apteka Rodzinna", "ref:csioz": "1095975"}}, {"type": "node", "id": 5175116279, "lat": 51.119371, "lon": 20.8758686, "tags": {"amenity": "pharmacy", "healthcare": "pharmacy", "name": "Apteka SuperNowa", "opening_hours": "Mo-Fr 08:00-20:00; Sa 08:00-15:00"}}, {"type": "node", "id": 5401690123, "lat": 51.0737608, "lon": 21.0127864, "tags": {"amenity": "pharmacy", "name": "cef@rm 36,6", "opening_hours": "Mo-Fr 07:30-19:30;Sa-Su 08:00-13:30", "wheelchair": "yes"}}, {"type": "node", "id": 5885663003, "lat": 51.5132232, "lon": 21.1230557, "tags": {"addr:city": "Jedli\u0144sk", "addr:city:simc": "0624806", "addr:housenumber": "1C", "addr:postcode": "26-660", "addr:street": "Warecka", "amenity": "pharmacy", "dispensing": "yes", "name": "Flos", "ref:csioz": "1095859"}}, {"type": "node", "id": 6008002976, "lat": 51.4184351, "lon": 21.1655332, "tags": {"addr:city": "Radom", "addr:housenumber": "17", "addr:postcode": "26-605", "addr:street": "Ignacego Paderewskiego", "amenity": "pharmacy", "dispensing": "yes", "healthcare": "pharmacy", "name": "Apteka Codzienna", "ref:csioz": "1191889"}}, {"type": "node", "id": 6036730985, "lat": 51.4008539, "lon": 21.1455626, "tags": {"addr:city": "Radom", "addr:housenumber": "2A", "addr:postcode": "26-610", "addr:street": "Lekarska", "amenity": "pharmacy", "dispensing": "yes", "healthcare": "pharmacy", "name": "Centrum Zdrowia", "ref:csioz": "1182984"}}, {"type": "node", "id": 6074010198, "lat": 51.4166046, "lon": 21.1754704, "tags": {"amenity": "pharmacy", "dispensing": "yes", "healthcare": "pharmacy", "name": "Apteka", "opening_hours": "Mo-Fr 08:00-19:00; Sa 08:00-14:00", "ref:csioz": "1095712"}}, {"type": "node", "id": 6083310816, "lat": 51.4089143, "lon": 21.1452015, "tags": {"amenity": "pharmacy", "brand": "Gemini", "brand:wikidata": "Q130243797", "dispensing": "yes", "healthcare": "pharmacy", "name": "Gemini", "ref:csioz": "1223306"}}, {"type": "node", "id": 6135818349, "lat": 51.4066228, "lon": 21.1574752, "tags": {"addr:city": "Radom", "addr:housenumber": "2", "addr:postcode": "26-600", "addr:street": "Boles\u0142awa Chrobrego", "amenity": "pharmacy", "dispensing": "yes", "healthcare": "pharmacy", "name": "Apteka Medella", "official_name": "Doz Apteka Dbam O Zdrowie", "opening_hours": "Mo-Fr 08:00-21:00; Sa 09:00-20:00; Su 10:00-18:00", "ref:csioz": "1169406"}}, {"type": "node", "id": 6145885677, "lat": 51.3959862, "lon": 21.1541326, "tags": {"amenity": "pharmacy", "dispensing": "yes", "healthcare": "pharmacy", "name": "Apteka", "ref:csioz": "1095532"}}, {"type": "node", "id": 6263975834, "lat": 51.3985111, "lon": 21.1621752, "tags": {"addr:city": "Radom", "addr:housenumber": "46", "addr:postcode": "26-610", "addr:street": "25 Czerwca", "amenity": "pharmacy", "dispensing": "yes", "healthcare": "pharmacy", "name": "Apteka AZ", "official_name": "Mgr Farm. Alina Zalewska", "ref:csioz": "1182525"}}, {"type": "node", "id": 6303730292, "lat": 51.4099111, "lon": 21.1539857, "tags": {"addr:city": "Radom", "addr:housenumber": "4", "addr:postcode": "26-600", "addr:street": "Warszawska", "amenity": "pharmacy", "dispensing": "yes", "healthcare": "pharmacy", "ref:csioz": "1095555"}}, {"type": "node", "id": 6345443835, "lat": 51.4024035, "lon": 21.1526595, "tags": {"amenity": "pharmacy", "dispensing": "yes", "healthcare": "pharmacy", "name": "Super Apteka", "official_name": "Superapteka", "ref:csioz": "1174716"}}, {"type": "node", "id": 6361172789, "lat": 51.3981403, "lon": 21.153543, "tags": {"amenity": "pharmacy", "dispensing": "yes", "healthcare": "pharmacy", "name": "Apteka z Galerii Stokrotka", "official_name": "Z Alei Grzecznarowskiego Z Galerii Stokrotka", "ref:csioz": "1095439"}}, {"type": "node", "id": 6898148788, "lat": 51.3868931, "lon": 21.1588855, "tags": {"amenity": "pharmacy", "dispensing": "yes", "healthcare": "pharmacy", "name": "Codzienna", "ref:csioz": "1186938"}}, {"type": "node", "id": 6943793873, "lat": 51.0487546, "lon": 20.8456974, "tags": {"amenity": "pharmacy", "healthcare": "pharmacy", "name": "Apteka Na Bugaju"}}, {"type": "node", "id": 7058073464, "lat": 51.4278161, "lon": 21.1634481, "tags": {"addr:city": "Radom", "addr:housenumber": "3C", "addr:postcode": "26-600", "addr:street": "Mieszka I", "amenity": "pharmacy", "dispensing": "yes", "healthcare": "pharmacy", "name": "Apteka", "ref:csioz": "1095309"}}, {"type": "node", "id": 7104869747, "lat": 51.4293801, "lon": 21.1597981, "tags": {"addr:city": "Radom", "addr:housenumber": "9", "addr:postcode": "26-600", "addr:street": "Kr\u00f3lowej Jadwigi", "amenity": "pharmacy", "brand": "Dbam o Zdrowie", "brand:wikidata": "Q62563833", "dispensing": "yes", "healthcare": "pharmacy", "name": "Dbam o Zdrowie", "official_name": "Dbam O Zdrowie", "ref:csioz": "1095258", "short_name": "DOZ"}}, {"type": "node", "id": 7239451466, "lat": 51.3939964, "lon": 21.1594199, "tags": {"addr:city": "Radom", "addr:housenumber": "5/9", "addr:postcode": "26-600", "addr:street": "25 Czerwca", "amenity": "pharmacy", "dispensing": "yes", "healthcare": "pharmacy", "name": "Apteka Astra", "ref:csioz": "1095089"}}, {"type": "node", "id": 7289015103, "lat": 51.3919942, "lon": 21.1437485, "tags": {"amenity": "pharmacy", "dispensing": "yes", "name": "Apteka", "ref:csioz": "1095697"}}, {"type": "node", "id": 7295111006, "lat": 51.4044898, "lon": 21.1584264, "tags": {"amenity": "pharmacy", "dispensing": "yes", "healthcare": "pharmacy", "name": "Apteka", "ref:csioz": "1095720"}}, {"type": "node", "id": 7431350382, "lat": 51.1458551, "lon": 20.9760087, "tags": {"amenity": "pharmacy", "name": "Punkt Apteczny \u201eJagodne\u201d"}}, {"type": "node", "id": 7446749158, "lat": 51.1923503, "lon": 21.0261636, "tags": {"amenity": "pharmacy", "healthcare": "pharmacy", "name": "Rurarz Iwona. Apteka", "operator": "Iwona Rurarz"}}, {"type": "node", "id": 7699956554, "lat": 51.3999652, "lon": 21.1659787, "tags": {"amenity": "pharmacy", "dispensing": "yes", "healthcare": "pharmacy", "name": "Apteka im. \u0141ukasiewicza", "ref:csioz": "1095619"}}, {"type": "node", "id": 7706936543, "lat": 51.39959, "lon": 21.1666501, "tags": {"amenity": "pharmacy", "brand": "Apteka Rodzinna", "dispensing": "yes", "healthcare": "pharmacy", "name": "Apteka Rodzinna", "ref:csioz": "1117240"}}, {"type": "node", "id": 7717933167, "lat": 51.3970187, "lon": 21.1656222, "tags": {"amenity": "pharmacy", "brand": "Apteka Rodzinna", "dispensing": "yes", "healthcare": "pharmacy", "name": "Apteka Rodzinna", "ref:csioz": "1095704"}}, {"type": "node", "id": 7825794362, "lat": 51.4055395, "lon": 21.1293522, "tags": {"amenity": "pharmacy", "brand": "Cef@Rm 36,6", "dispensing": "yes", "healthcare": "pharmacy", "name": "Cef@Rm 36,6", "ref:csioz": "1095198"}}, {"type": "node", "id": 8454307603, "lat": 51.3846208, "lon": 21.1067491, "tags": {"amenity": "pharmacy", "dispensing": "yes", "healthcare": "pharmacy", "name": "Apteka", "ref:csioz": "1095773"}}, {"type": "node", "id": 8614676542, "lat": 51.3773552, "lon": 21.1429059, "tags": {"amenity": "pharmacy", "dispensing": "yes", "healthcare": "pharmacy", "name": "Apteka DOZ", "official_name": "Doz Apteka Dbam O Zdrowie", "ref:csioz": "1169411"}}, {"type": "node", "id": 8926808784, "lat": 51.1192427, "lon": 21.1854569, "tags": {"amenity": "pharmacy", "dispensing": "yes", "healthcare": "pharmacy", "name": "Punkt Apteczny", "ref:csioz": "1096384"}}, {"type": "node", "id": 8954309008, "lat": 51.3657567, "lon": 21.1319346, "tags": {"amenity": "pharmacy", "dispensing": "yes", "healthcare": "pharmacy", "name": "Po\u0142udnie", "official_name": "Po\u0142udnie Ii", "ref:csioz": "1095418"}}, {"type": "node", "id": 9016729207, "lat": 51.3720311, "lon": 21.1316696, "tags": {"amenity": "pharmacy", "dispensing": "yes", "healthcare": "pharmacy", "name": "Apteka Po\u0142udnie", "ref:csioz": "1095140"}}, {"type": "node", "id": 9655747708, "lat": 51.3566431, "lon": 20.6309155, "tags": {"addr:city": "Przysucha", "addr:housenumber": "6B", "addr:postcode": "26-400", "addr:street": "Legion\u00f3w Polskich", "amenity": "pharmacy", "dispensing": "yes", "ref:csioz": "1095053"}}, {"type": "node", "id": 9655790456, "lat": 51.3578459, "lon": 20.6275131, "tags": {"addr:city": "Przysucha", "addr:housenumber": "10", "addr:postcode": "26-400", "addr:street": "Grodzka", "amenity": "pharmacy", "dispensing": "yes", "name": "Prywatna A&R Agnieszka I Rados\u0142aw Salij Sp. J.", "ref:csioz": "1195732"}}, {"type": "node", "id": 9655809943, "lat": 51.3198287, "lon": 20.684936, "tags": {"addr:city": "Borkowice", "addr:housenumber": "13B", "addr:postcode": "26-422", "addr:street": "ks. Jana Wi\u015bniewskiego", "amenity": "pharmacy", "dispensing": "yes", "healthcare": "pharmacy", "name": "Apteka W Starym Klasztorze", "ref:csioz": "1094992"}}, {"type": "node", "id": 9655819042, "lat": 51.3585912, "lon": 20.6297903, "tags": {"addr:city": "Przysucha", "addr:housenumber": "1", "addr:postcode": "26-400", "addr:street": "Radomska", "amenity": "pharmacy", "dispensing": "yes", "healthcare": "pharmacy", "name": "Apteka Codzienna", "opening_hours": "Mo-Fr 07:30-20:00; Sa 07:30-15:00", "ref:csioz": "1119037"}}, {"type": "node", "id": 9655819408, "lat": 51.3576459, "lon": 20.6338439, "tags": {"addr:city": "Przysucha", "addr:housenumber": "21", "addr:postcode": "26-400", "addr:street": "Radomska", "amenity": "pharmacy", "dispensing": "yes", "ref:csioz": "1095031"}}, {"type": "node", "id": 9659144228, "lat": 51.3760502, "lon": 20.9748421, "tags": {"addr:city": "Wolan\u00f3w", "addr:housenumber": "27", "addr:street": "Polna", "amenity": "pharmacy", "dispensing": "yes", "healthcare": "pharmacy", "ref:csioz": "1228687"}}, {"type": "node", "id": 9659144229, "lat": 51.1685934, "lon": 21.2336129, "tags": {"addr:city": "I\u0142\u017ca", "addr:housenumber": "16AB", "addr:postcode": "27-100", "addr:street": "Danuty Siedzik\u00f3wny \"Inki", "amenity": "pharmacy", "dispensing": "yes", "drive_through": "no", "healthcare": "pharmacy", "name": "Codzienna", "ref:csioz": "1212557"}}, {"type": "node", "id": 9659144230, "lat": 51.5116611, "lon": 21.1214665, "tags": {"addr:city": "Jedli\u0144sk", "addr:city:simc": "0624806", "addr:housenumber": "11/13", "addr:postcode": "26-660", "addr:street": "Warecka", "amenity": "pharmacy", "dispensing": "yes", "name": "Od Serca", "ref:csioz": "1208581"}}, {"type": "node", "id": 9659144231, "lat": 51.3103851, "lon": 21.2536459, "tags": {"addr:city": "Skaryszew", "addr:housenumber": "13", "addr:postcode": "26-640", "addr:street": "Rynek", "amenity": "pharmacy", "dispensing": "yes", "healthcare": "pharmacy", "name": "Witamina", "ref:csioz": "1201189"}}, {"type": "node", "id": 9659144235, "lat": 51.4682128, "lon": 20.9031754, "tags": {"addr:city": "Podgajek", "addr:housenumber": "4", "addr:street": "Ko\u015bcielna", "amenity": "pharmacy", "dispensing": "yes", "ref:csioz": "1118150"}}, {"type": "node", "id": 9659144237, "lat": 51.4655711, "lon": 20.9057774, "tags": {"addr:city": "Przytyk", "addr:housenumber": "3", "addr:street": "Warszawska", "amenity": "pharmacy", "dispensing": "yes", "ref:csioz": "1095969"}}, {"type": "node", "id": 9659144239, "lat": 51.3242797, "lon": 21.0722782, "tags": {"addr:city": "Kowala-St\u0119pocina", "addr:housenumber": "2", "addr:postcode": "26-624", "addr:street": "Jana Paw\u0142a II", "amenity": "pharmacy", "dispensing": "yes", "ref:csioz": "1095884"}}, {"type": "node", "id": 9659144241, "lat": 51.1633146, "lon": 21.2357113, "tags": {"addr:city": "I\u0142\u017ca", "addr:housenumber": "3", "addr:street": "Jana Kochanowskiego", "amenity": "pharmacy", "brand": "Cef@Rm 36,6", "dispensing": "yes", "healthcare": "pharmacy", "name": "Cef@Rm 36,6", "ref:csioz": "1095821"}}, {"type": "node", "id": 9659144242, "lat": 51.1589669, "lon": 21.23381, "tags": {"addr:city": "I\u0142\u017ca", "addr:housenumber": "10", "addr:street": "Osiedle Stanis\u0142awa Staszica", "amenity": "pharmacy", "dispensing": "yes", "healthcare": "pharmacy", "ref:csioz": "1095813"}}, {"type": "node", "id": 9659168885, "lat": 51.4404829, "lon": 20.9993918, "tags": {"addr:housenumber": "2", "addr:place": "Zakrzew-Kolonia", "addr:postcode": "26-652", "amenity": "pharmacy", "dispensing": "yes", "healthcare": "pharmacy", "ref:csioz": "1096055"}}, {"type": "node", "id": 9661126754, "lat": 51.3887587, "lon": 21.1733939, "tags": {"addr:housenumber": "107", "addr:postcode": "26-600", "addr:street": "Juliusza S\u0142owackiego", "amenity": "pharmacy", "dispensing": "yes", "healthcare": "pharmacy", "ref:csioz": "1095447"}}, {"type": "node", "id": 9661126755, "lat": 51.3763102, "lon": 21.1485479, "tags": {"amenity": "pharmacy", "dispensing": "yes", "healthcare": "pharmacy", "name": "Apteka Kosmy i Damiana", "ref:csioz": "1095179"}}, {"type": "node", "id": 9664379273, "lat": 51.3880132, "lon": 21.1253614, "tags": {"amenity": "pharmacy", "dispensing": "yes", "healthcare": "pharmacy", "name": "Apteka Cef@rm 36,6", "ref:csioz": "1095249"}}, {"type": "node", "id": 9664379274, "lat": 51.4070895, "lon": 21.1745756, "tags": {"addr:city": "Radom", "addr:housenumber": "8", "addr:postcode": "26-600", "addr:street": "Grzybowska", "amenity": "pharmacy", "dispensing": "yes", "healthcare": "pharmacy", "name": "Apteka", "ref:csioz": "1095217"}}, {"type": "node", "id": 9664463718, "lat": 51.3900709, "lon": 21.1710118, "tags": {"amenity": "pharmacy", "dispensing": "yes", "healthcare": "pharmacy", "name": "Nasza Apteka", "ref:csioz": "1095460"}}, {"type": "node", "id": 9664463719, "lat": 51.3898072, "lon": 21.1698472, "tags": {"addr:city": "Radom", "addr:housenumber": "9", "addr:postcode": "26-600", "addr:street": "Konstantego Lubo\u0144skiego", "amenity": "pharmacy", "dispensing": "yes", "healthcare": "pharmacy", "ref:csioz": "1095282"}}, {"type": "node", "id": 9664488980, "lat": 51.4381696, "lon": 21.1581744, "tags": {"addr:city": "Radom", "addr:housenumber": "5E", "addr:postcode": "26-617", "addr:street": "Juliana Aleksandrowicza", "amenity": "pharmacy", "brand": "Cosmedica", "dispensing": "yes", "healthcare": "pharmacy", "name": "Cosmedica", "official_name": "Cosmedica Extra!", "ref:csioz": "1186236"}}, {"type": "node", "id": 10671854174, "lat": 51.1178957, "lon": 20.8692121, "tags": {"addr:city": "Skar\u017cysko-Kamienna", "addr:housenumber": "31", "addr:postcode": "26-110", "addr:street": "Stefana \u017beromskiego", "amenity": "pharmacy", "building": "retail", "building:colour": "#f45e6a", "building:levels": "1", "dispensing": "yes", "healthcare": "pharmacy", "name": "Millenium", "opening_hours": "24/7", "phone": "+48 412525603", "roof:colour": "#686870", "roof:shape": "hipped"}}, {"type": "node", "id": 11161774487, "lat": 51.0653288, "lon": 21.0745938}, {"type": "node", "id": 11161774488, "lat": 51.0654087, "lon": 21.0746193}, {"type": "node", "id": 11161774489, "lat": 51.0654417, "lon": 21.0743575}, {"type": "node", "id": 11161774490, "lat": 51.0653617, "lon": 21.074332}, {"type": "node", "id": 12402501406, "lat": 51.1192449, "lon": 20.8770985, "tags": {"amenity": "pharmacy", "healthcare": "pharmacy", "name": "Apteka", "opening_hours": "Mo-Fr 07:00-21:00; Sa 08:00-15:00"}}, {"type": "way", "id": 142960300, "nodes": [4498337302, 4498337301, 4498337300, 4498337299, 4498337302], "tags": {"addr:city": "Skar\u017cysko-Kamienna", "addr:housenumber": "21", "addr:postcode": "26-110", "addr:street": "Aleja Marsza\u0142ka J\u00f3zefa Pi\u0142sudskiego", "amenity": "pharmacy", "building": "retail", "healthcare": "pharmacy", "name": "Centrum", "opening_hours": "Mo-Fr 08:00-20:30; Sa 08:00-15:30; Su off", "phone": "+48 412528036"}}, {"type": "way", "id": 156101404, "nodes": [4501565143, 4501565147, 4501565148, 4501565149, 4501565144, 4501565142, 4501565143], "tags": {"addr:city": "Skar\u017cysko-Kamienna", "addr:housenumber": "44", "addr:postcode": "26-110", "addr:street": "Juliusza S\u0142owackiego", "amenity": "pharmacy", "building": "yes", "check_date:opening_hours": "2024-03-02", "healthcare": "pharmacy", "name": "Arnika", "opening_hours": "Mo-Sa 07:30-20:30 ; Su 08:30-15:00", "opening_hours:signed": "no", "phone": "+48 41 2521473"}}, {"type": "way", "id": 406181289, "nodes": [4539406796, 4539406795, 4539406794, 4539406793, 4539406792, 4539406791, 4539406796], "tags": {"addr:city": "Przysucha", "addr:city:simc": "0973777", "addr:housenumber": "11", "addr:postcode": "26-400", "addr:street": "Radomska", "addr:street:sym_ul": "18316", "amenity": "pharmacy", "building": "yes", "name": "Apteka", "source:addr": "emuia.gugik.gov.pl"}}, {"type": "way", "id": 458163059, "nodes": [4542036651, 4542036652, 4542036650, 4542036648, 4542036649, 4542036651], "tags": {"addr:city": "Szyd\u0142owiec", "amenity": "pharmacy", "building": "yes", "healthcare": "pharmacy", "name": "Apteka", "source": "http://ump.waw.pl/ retrieved 14:34:48 03/30/09 (UMP-Radom/src/POI-Radom.pnt-converted.txt)"}}, {"type": "way", "id": 1204280029, "nodes": [11161774487, 11161774488, 11161774489, 11161774490, 11161774487], "tags": {"addr:city": "Starachowice", "addr:city:simc": "0947930", "addr:housenumber": "11", "addr:postcode": "27-200", "addr:street": "Batalion\u00f3w Ch\u0142opskich", "addr:street:sym_ul": "00868", "amenity": "pharmacy", "building": "yes", "dispensing": "yes", "drive_through": "no", "email": "starachowice@plusapteka.pl", "healthcare": "pharmacy", "mobile": "+48 607 806 807", "name": "Apteka Plus", "opening_hours": "Mo-Fr 08:00-20:00; Sa 08:00-15:00", "phone": "+48 41 274 71 04", "source:addr": "gugik.gov.pl"}}]}