{"version": 0.6, "generator": "Overpass API 0.7.62.8 e802775f", "osm3s": {"timestamp_osm_base": "2025-10-06T07:44:20Z", "copyright": "The data included in this document is from www.openstreetmap.org. The data is made available under ODbL."}, "elements": [{"type": "node", "id": 451234118, "lat": 43.8694863, "lon": 18.4065248, "tags": {"addr:city": "Sarajevo", "addr:housenumber": "4", "addr:postcode": "71000", "addr:street": "Bra\u0107e Begi\u0107", "alt_name": "Apoteke Sarajevo - Apoteka Ko\u0161evsko Brdo", "amenity": "pharmacy", "designation": "Apoteke Sarajevo", "dispensing": "yes", "healthcare": "pharmacy", "name": "Ko\u0161evsko brdo", "source": "http://mz.ks.gov.ba/node/714", "website": "https://www.apoteke-sarajevo.ba/"}}, {"type": "node", "id": 549937642, "lat": 43.8310643, "lon": 18.3058012, "tags": {"amenity": "pharmacy"}}, {"type": "node", "id": 768054616, "lat": 43.8445281, "lon": 18.341905, "tags": {"amenity": "pharmacy"}}, {"type": "node", "id": 768054742, "lat": 43.8450237, "lon": 18.3450806, "tags": {"addr:housenumber": "7", "addr:street": "Trg me\u0111unarodnog prijateljstva", "amenity": "pharmacy", "name": "Apoteke Sarajevo"}}, {"type": "node", "id": 799004729, "lat": 43.830068, "lon": 18.2997477, "tags": {"amenity": "pharmacy"}}, {"type": "node", "id": 816799735, "lat": 43.853523, "lon": 18.3881613, "tags": {"amenity": "pharmacy", "healthcare": "pharmacy"}}, {"type": "node", "id": 915409997, "lat": 43.8663226, "lon": 18.3987275, "tags": {"amenity": "pharmacy", "healthcare": "pharmacy", "name": "Pharmacy Shop"}}, {"type": "node", "id": 938872348, "lat": 43.8585004, "lon": 18.4028621, "tags": {"amenity": "pharmacy", "fixme": "add real name", "healthcare": "pharmacy", "name": "Kranj\u010devi\u0107eva"}}, {"type": "node", "id": 993018376, "lat": 43.829925, "lon": 18.3097781, "tags": {"amenity": "pharmacy", "name": "Al'hana"}}, {"type": "node", "id": 1113786443, "lat": 43.8456944, "lon": 18.3263095, "tags": {"amenity": "pharmacy"}}, {"type": "node", "id": 1113789318, "lat": 43.8552667, "lon": 18.3924826, "tags": {"amenity": "pharmacy", "healthcare": "pharmacy", "name": "Apoteke Sarajevo"}}, {"type": "node", "id": 1232188449, "lat": 43.8283381, "lon": 18.3485333, "tags": {"amenity": "pharmacy", "healthcare": "pharmacy"}}, {"type": "node", "id": 1241735935, "lat": 43.8495861, "lon": 18.367449, "tags": {"amenity": "pharmacy", "healthcare": "pharmacy", "name": "Apoteka Lupriv"}}, {"type": "node", "id": 1275888697, "lat": 43.8804216, "lon": 18.3990153, "tags": {"amenity": "pharmacy", "healthcare": "pharmacy"}}, {"type": "node", "id": 1275888698, "lat": 43.8803943, "lon": 18.4003779, "tags": {"addr:postcode": "71000", "addr:street": "Branilaca \u0160ipa", "amenity": "pharmacy", "healthcare": "pharmacy", "name": "Apoteka Lamela"}}, {"type": "node", "id": 1300564425, "lat": 43.8503361, "lon": 18.3745803, "tags": {"amenity": "pharmacy", "healthcare": "pharmacy"}}, {"type": "node", "id": 1307562804, "lat": 43.8297957, "lon": 18.3383007, "tags": {"amenity": "pharmacy", "healthcare": "pharmacy", "name": "Apoteke Sarajevo"}}, {"type": "node", "id": 1365076777, "lat": 43.8462035, "lon": 18.3807768, "tags": {"addr:housenumber": "2", "addr:postcode": "71000", "addr:street": "Triglavska", "amenity": "pharmacy", "dispensing": "no", "healthcare": "pharmacy", "name": "Hrasno"}}, {"type": "node", "id": 1377616323, "lat": 43.7947006, "lon": 18.0949773, "tags": {"amenity": "pharmacy", "healthcare": "pharmacy", "name": "Apoteka Tar\u010din"}}, {"type": "node", "id": 1447149906, "lat": 43.8563476, "lon": 18.3660404, "tags": {"amenity": "pharmacy", "dispensing": "no", "healthcare": "pharmacy", "name": "Sarajevo Apoteke \"Bu\u0107a Potok\""}}, {"type": "node", "id": 1454026385, "lat": 43.9002128, "lon": 18.3464682, "tags": {"addr:housenumber": "14", "addr:postcode": "71320", "addr:street": "Jo\u0161ani\u010dka", "amenity": "pharmacy", "name": "Apoteka Denida - Vogo\u0161\u0107a", "source": "Survey", "wheelchair": "yes"}}, {"type": "node", "id": 1488569801, "lat": 43.8730107, "lon": 18.4330585, "tags": {"amenity": "pharmacy", "healthcare": "pharmacy", "name": "Apoteka Sedrenik"}}, {"type": "node", "id": 1684383611, "lat": 43.8396083, "lon": 18.3418261, "tags": {"amenity": "pharmacy", "name": "Apoteka"}}, {"type": "node", "id": 1691610406, "lat": 43.8511412, "lon": 18.3680357, "tags": {"amenity": "pharmacy", "healthcare": "pharmacy", "name": "Apoteka Lotus"}}, {"type": "node", "id": 1728577847, "lat": 43.8293373, "lon": 18.3446679, "tags": {"amenity": "pharmacy", "healthcare": "pharmacy", "name": "Apoteka Dobrinja"}}, {"type": "node", "id": 1730674130, "lat": 43.8424975, "lon": 18.3570224, "tags": {"addr:housenumber": "bb", "addr:postcode": "71000", "addr:street": "Safeta Had\u017ei\u0107a", "amenity": "pharmacy", "dispensing": "yes", "healthcare": "pharmacy", "name": "Apoteka \u0160vrakino", "source": "http://www.healthbosnia.com/informacije/apoteke.htm"}}, {"type": "node", "id": 1795491039, "lat": 43.8577015, "lon": 18.3218784, "tags": {"addr:housenumber": "322", "addr:postcode": "71000", "addr:street": "Safeta Zajke", "amenity": "pharmacy", "name": "Unalijek UL 5", "website": "https://unalijek.com/"}}, {"type": "node", "id": 1817725437, "lat": 43.8212527, "lon": 18.3220087, "tags": {"amenity": "pharmacy"}}, {"type": "node", "id": 1840007562, "lat": 43.8519074, "lon": 18.3962507, "tags": {"amenity": "pharmacy", "healthcare": "pharmacy", "name": "Apoteka Grbavica", "opening_hours": "Mo-Fr 07:30-20:00; Sa 07:30-15:00", "wheelchair": "yes"}}, {"type": "node", "id": 1892943133, "lat": 43.9026388, "lon": 18.343417, "tags": {"amenity": "pharmacy", "name": "Apoteka", "wheelchair": "yes"}}, {"type": "node", "id": 1904836241, "lat": 43.820733, "lon": 18.3587037, "tags": {"amenity": "pharmacy", "name": "Crvena apoteka", "name:sr": "\u0426\u0440\u0432\u0435\u043d\u0430 \u0430\u043f\u043e\u0442\u0435\u043a\u0430", "name:sr-Latn": "Crvena apoteka"}}, {"type": "node", "id": 1904836647, "lat": 43.8207137, "lon": 18.3589451, "tags": {"amenity": "pharmacy", "name": "Apoteka Bioritam", "name:sr": "\u0410\u043f\u043e\u0442\u0435\u043a\u0430 \u0411\u0438\u043e\u0440\u0438\u0442\u0430\u043c", "name:sr-Latn": "Apoteka Bioritam"}}, {"type": "node", "id": 1916430038, "lat": 43.8239503, "lon": 18.3639707, "tags": {"amenity": "pharmacy", "name": "Apoteka", "name:sr": "\u0410\u043f\u043e\u0442\u0435\u043a\u0430", "name:sr-Latn": "Apoteka"}}, {"type": "node", "id": 1916430804, "lat": 43.8241491, "lon": 18.361818, "tags": {"amenity": "pharmacy", "name": "Expera", "name:hr": "Ljekarna", "name:sr": "\u0410\u043f\u043e\u0442\u0435\u043a\u0430", "name:sr-Latn": "Apoteka"}}, {"type": "node", "id": 1916432041, "lat": 43.8197622, "lon": 18.3624876, "tags": {"amenity": "pharmacy", "healthcare": "pharmacy", "name": "Apoteka", "name:sr": "\u0410\u043f\u043e\u0442\u0435\u043a\u0430", "name:sr-Latn": "Apoteka"}}, {"type": "node", "id": 1916433317, "lat": 43.7979482, "lon": 18.3904144, "tags": {"amenity": "pharmacy", "name": "Apoteka", "name:sr": "\u0410\u043f\u043e\u0442\u0435\u043a\u0430", "name:sr-Latn": "Apoteka"}}, {"type": "node", "id": 1935885991, "lat": 43.9020263, "lon": 18.3437871, "tags": {"addr:city": "Vogo\u0161\u0107a", "addr:housenumber": "58", "addr:postcode": "71320", "addr:street": "Igmanska", "amenity": "pharmacy", "name": "Apoteka Oaza Zdravlja", "phone": "+387 33 425015", "wheelchair": "limited"}}, {"type": "node", "id": 2007221897, "lat": 43.8547361, "lon": 18.4173199, "tags": {"amenity": "pharmacy", "healthcare": "pharmacy", "name": "Apoteka"}}, {"type": "node", "id": 2007222378, "lat": 43.8551211, "lon": 18.4163221, "tags": {"amenity": "pharmacy", "healthcare": "pharmacy"}}, {"type": "node", "id": 2007276412, "lat": 43.8553435, "lon": 18.4206164, "tags": {"amenity": "pharmacy", "healthcare": "pharmacy"}}, {"type": "node", "id": 2007320471, "lat": 43.8569995, "lon": 18.4141066, "tags": {"addr:city": "Sarajevo", "addr:housenumber": "4", "addr:postcode": "71000", "addr:street": "Reisa D\u017eemaludina \u010cau\u0161evi\u0107a", "amenity": "pharmacy", "dispensing": "yes", "email": "as.skenderija@apoteke-sarajevo.ba", "healthcare": "pharmacy", "name": "Apoteka Skenderija", "opening_hours": "Mo-Fr 07:30-20:00, Sa 07:30-15:00", "operator": "Apoteke Sarajevo", "phone": "+38733714290", "website": "https://www.apoteke-sarajevo.ba/"}}, {"type": "node", "id": 2008184943, "lat": 43.8583698, "lon": 18.4307199, "tags": {"addr:housenumber": "40", "addr:street": "Obala Kulina bana", "amenity": "pharmacy", "healthcare": "pharmacy", "name": "Apoteka Ba\u0161\u010dar\u0161ija", "wheelchair": "yes"}}, {"type": "node", "id": 2018166214, "lat": 43.8530854, "lon": 18.4358945}, {"type": "node", "id": 2018166239, "lat": 43.8531121, "lon": 18.4360888}, {"type": "node", "id": 2018166369, "lat": 43.8531695, "lon": 18.4359777}, {"type": "node", "id": 2023306477, "lat": 43.8796617, "lon": 18.3970437}, {"type": "node", "id": 2023306509, "lat": 43.8796856, "lon": 18.3969445}, {"type": "node", "id": 2023306606, "lat": 43.8797584, "lon": 18.3970884}, {"type": "node", "id": 2023306657, "lat": 43.8797822, "lon": 18.3969892}, {"type": "node", "id": 2038631878, "lat": 43.9594379, "lon": 18.2683214, "tags": {"amenity": "pharmacy", "name": "Apoteka Sarajevo"}}, {"type": "node", "id": 2066116600, "lat": 43.8552347, "lon": 18.3784805, "tags": {"amenity": "pharmacy", "healthcare": "pharmacy"}}, {"type": "node", "id": 2128271932, "lat": 43.8240779, "lon": 18.3548731, "tags": {"amenity": "pharmacy", "healthcare": "pharmacy"}}, {"type": "node", "id": 2129029617, "lat": 43.9027269, "lon": 18.3441167, "tags": {"amenity": "pharmacy", "name": "Apoteka Vogo\u0161\u0107a", "wheelchair": "yes"}}, {"type": "node", "id": 2134792477, "lat": 43.856342, "lon": 18.4085718, "tags": {"addr:city": "Sarajevo", "addr:housenumber": "1", "addr:postcode": "71000", "addr:street": "Mar\u0161ala Tita", "amenity": "pharmacy", "email": "as.marijindvor@apoteke-sarajevo.ba", "fax": "+38733552131", "healthcare": "pharmacy", "name": "De\u017eurna Apoteka Marijin dvor", "opening_hours": "Mo-Su 00:00-24:00", "operator": "Apoteke Sarajevo", "phone": "+38733552130", "website": "https://www.apoteke-sarajevo.ba/"}}, {"type": "node", "id": 2134792478, "lat": 43.8512779, "lon": 18.4021481, "tags": {"amenity": "pharmacy", "healthcare": "pharmacy"}}, {"type": "node", "id": 2145397541, "lat": 43.8215354, "lon": 18.2025886, "tags": {"amenity": "pharmacy", "healthcare": "pharmacy"}}, {"type": "node", "id": 2145397543, "lat": 43.8216438, "lon": 18.2010409, "tags": {"amenity": "pharmacy", "healthcare": "pharmacy", "name": "Apoteka \"Dina\"", "wheelchair": "yes"}}, {"type": "node", "id": 2152548018, "lat": 44.0024581, "lon": 18.1568869, "tags": {"amenity": "pharmacy", "name": "Avicena"}}, {"type": "node", "id": 2152551204, "lat": 43.9937987, "lon": 18.1749311, "tags": {"amenity": "pharmacy", "name": "Apoteka \"Avicena\""}}, {"type": "node", "id": 2152555942, "lat": 43.9928897, "lon": 18.1767885, "tags": {"amenity": "pharmacy", "name": "Apoteka \"Nera\""}}, {"type": "node", "id": 2169436226, "lat": 43.9917209, "lon": 18.1808453}, {"type": "node", "id": 2169436233, "lat": 43.9918341, "lon": 18.1806034}, {"type": "node", "id": 2169436241, "lat": 43.9916936, "lon": 18.1806908}, {"type": "node", "id": 2169436244, "lat": 43.9918844, "lon": 18.180752}, {"type": "node", "id": 2174736712, "lat": 43.8007996, "lon": 18.3041669, "tags": {"amenity": "pharmacy", "name": "Apoteka Kova\u010di"}}, {"type": "node", "id": 2253777875, "lat": 43.9569822, "lon": 18.2679515, "tags": {"addr:street": "Ivana Franje Juki\u0107a", "amenity": "pharmacy", "dispensing": "yes", "name": "Apoteka Viva 7", "source": "OpenStreetMap"}}, {"type": "node", "id": 2322219856, "lat": 43.8628746, "lon": 18.4130923, "tags": {"addr:housenumber": "32", "addr:street": "Ko\u0161evo", "amenity": "pharmacy", "healthcare": "pharmacy", "name": "Apoteka Altea"}}, {"type": "node", "id": 2322294232, "lat": 43.8298398, "lon": 18.309889, "tags": {"amenity": "pharmacy", "healthcare": "pharmacy", "name": "Al hana"}}, {"type": "node", "id": 2382837623, "lat": 43.9425603, "lon": 18.0777521, "tags": {"amenity": "pharmacy", "healthcare": "pharmacy", "name": "Ljekarna Menta"}}, {"type": "node", "id": 2408177239, "lat": 43.9666219, "lon": 18.0536778, "tags": {"amenity": "pharmacy", "name": "Ljekarna"}}, {"type": "node", "id": 2408180417, "lat": 43.9467228, "lon": 18.0742943, "tags": {"amenity": "pharmacy", "name": "Ljekarna"}}, {"type": "node", "id": 2408232627, "lat": 43.9430364, "lon": 18.0808122, "tags": {"amenity": "pharmacy"}}, {"type": "node", "id": 2408729268, "lat": 43.9456328, "lon": 18.0746855, "tags": {"amenity": "pharmacy"}}, {"type": "node", "id": 2422329050, "lat": 43.8656854, "lon": 18.0416579, "tags": {"amenity": "pharmacy"}}, {"type": "node", "id": 2594300040, "lat": 43.8537427, "lon": 18.3830564, "tags": {"addr:housenumber": "8", "addr:postcode": "71000", "addr:street": "Envera \u0160ehovi\u0107a", "amenity": "pharmacy", "healthcare": "pharmacy", "name": "Unalijek UL 4", "website": "https://unalijek.com/"}}, {"type": "node", "id": 2887104301, "lat": 43.8415903, "lon": 18.3455517, "tags": {"addr:city": "Sarajevo", "addr:housenumber": "19", "addr:postcode": "71000", "addr:street": "Trg ZAVNOBIH-a", "amenity": "pharmacy", "name": "Vita"}}, {"type": "node", "id": 2905508693, "lat": 43.845573, "lon": 18.3486166, "tags": {"amenity": "pharmacy"}}, {"type": "node", "id": 2906337754, "lat": 43.8456177, "lon": 18.3492714, "tags": {"amenity": "pharmacy"}}, {"type": "node", "id": 2906809138, "lat": 43.8459466, "lon": 18.3503046, "tags": {"amenity": "pharmacy"}}, {"type": "node", "id": 2959334140, "lat": 43.8617365, "lon": 18.4201346, "tags": {"addr:city": "Sarajevo", "addr:housenumber": "3", "addr:postcode": "71000", "addr:street": "Kevrin potok", "amenity": "pharmacy", "healthcare": "pharmacy", "name": "Apoteka Denida", "opening_hours": "08:00-16:00"}}, {"type": "node", "id": 2994588959, "lat": 43.8426347, "lon": 18.3510969, "tags": {"amenity": "pharmacy"}}, {"type": "node", "id": 3139873601, "lat": 43.8489921, "lon": 18.3849664, "tags": {"amenity": "pharmacy", "healthcare": "pharmacy", "name": "Delfin"}}, {"type": "node", "id": 3627380190, "lat": 43.8333249, "lon": 18.3425091, "tags": {"addr:city": "Sarajevo", "addr:housenumber": "15", "addr:postcode": "71000", "addr:street": "Sulejmana Filipovi\u0107a", "amenity": "pharmacy", "drive_through": "no", "healthcare": "pharmacy", "name": "Apoteka Dobrinja 5"}}, {"type": "node", "id": 3930400301, "lat": 43.8697047, "lon": 18.4061831, "tags": {"addr:city": "Sarajevo", "addr:housenumber": "6", "addr:postcode": "71000", "addr:street": "Bra\u0107e Begi\u0107", "amenity": "pharmacy", "dispensing": "yes", "healthcare": "pharmacy", "name": "Semperviva", "source": "http://mz.ks.gov.ba/node/2505"}}, {"type": "node", "id": 4051758989, "lat": 43.850631, "lon": 18.3958856, "tags": {"amenity": "pharmacy", "name": "Lupriv"}}, {"type": "node", "id": 4231486490, "lat": 43.8559939, "lon": 18.4236253, "tags": {"amenity": "pharmacy", "check_date": "2024-07-02", "healthcare": "pharmacy", "name": "Pharmamed"}}, {"type": "node", "id": 4232095490, "lat": 43.849734, "lon": 18.3731432, "tags": {"addr:street": "Biha\u0107ka", "amenity": "pharmacy", "healthcare": "pharmacy", "name": "Apoteka Dina"}}, {"type": "node", "id": 4243244551, "lat": 43.6557288, "lon": 17.9533651, "tags": {"amenity": "pharmacy", "healthcare": "pharmacy", "name": "Apoteka \u017duni\u0107"}}, {"type": "node", "id": 4243298098, "lat": 43.6556511, "lon": 17.9548267, "tags": {"amenity": "pharmacy", "healthcare": "pharmacy", "name": "Apoteka \"Zdravlje\""}}, {"type": "node", "id": 4248789406, "lat": 43.6557752, "lon": 17.9634306, "tags": {"amenity": "pharmacy", "healthcare": "pharmacy", "name": "Gradska apoteka"}}, {"type": "node", "id": 4302808589, "lat": 43.8597708, "lon": 18.4251308, "tags": {"amenity": "pharmacy", "contact:website": "http://www.megamedica.ba", "healthcare": "pharmacy", "name": "Biljna apoteka Megamedica", "opening_hours": "Mo-Fr 08:00-20:00; Sa 09:00-16:00"}}, {"type": "node", "id": 4302808789, "lat": 43.8591386, "lon": 18.4257241, "tags": {"addr:city": "Sarajevo", "addr:housenumber": "2", "addr:postcode": "71000", "addr:street": "Fra Grge Marti\u0107a", "amenity": "pharmacy", "check_date": "2024-11-19", "email": "as.starigrad@apoteke-sarajevo.ba", "healthcare": "pharmacy", "name": "Apoteka Stari Grad", "opening_hours": "Su-Fr 07:30-20:00; Sa 09:00-20:00"}}, {"type": "node", "id": 4326015990, "lat": 43.8444349, "lon": 18.3957507, "tags": {"amenity": "pharmacy", "name": "Apoteka Vraca"}}, {"type": "node", "id": 4358246696, "lat": 43.8623734, "lon": 18.4412339, "tags": {"amenity": "pharmacy", "healthcare": "pharmacy"}}, {"type": "node", "id": 4457504689, "lat": 43.8798195, "lon": 18.3967909, "tags": {"addr:postcode": "71000", "addr:street": "Dejzina Biki\u0107a", "amenity": "pharmacy", "healthcare": "pharmacy", "name": "Gral", "name:sr": "\u0413\u0440\u0430\u043b", "opening_hours": "Mo-Su 08:00-20:00"}}, {"type": "node", "id": 4748117723, "lat": 43.8387883, "lon": 18.34627, "tags": {"amenity": "pharmacy"}}, {"type": "node", "id": 4883806323, "lat": 43.8270907, "lon": 18.3507472, "tags": {"amenity": "pharmacy", "healthcare": "pharmacy", "name": "Al-Tawil", "name:hr": "Al-Tawil"}}, {"type": "node", "id": 4883808121, "lat": 43.8269978, "lon": 18.3508886, "tags": {"amenity": "pharmacy", "healthcare": "pharmacy", "name": "Betty", "name:hr": "Betty"}}, {"type": "node", "id": 5104375321, "lat": 43.8817986, "lon": 18.3840488, "tags": {"addr:street": "Kobilja Glava", "amenity": "pharmacy", "healthcare": "pharmacy", "name": "Apoteka Sarajevo"}}, {"type": "node", "id": 5183288633, "lat": 43.8570511, "lon": 18.4116499, "tags": {"addr:city": "Sarajevo", "addr:housenumber": "22", "addr:postcode": "71000", "addr:street": "Vrazova", "amenity": "pharmacy", "healthcare": "pharmacy", "name": "Lupriv"}}, {"type": "node", "id": 5390833588, "lat": 43.8617818, "lon": 18.4279937, "tags": {"amenity": "pharmacy", "contact:email": "as.logavina@apoteke-sarajevo.ba", "contact:fax": "+387 33 272241", "contact:phone": "+387 33 272240", "healthcare": "pharmacy", "name": "Apoteke Sarajevo", "opening_hours": "Mo-Fr 07:30-20:00; Sa 07:30-15:00"}}, {"type": "node", "id": 5477627506, "lat": 43.8191401, "lon": 18.3606189, "tags": {"addr:city": "Isto\u010dno Sarajevo", "addr:housenumber": "22", "addr:postcode": "71123", "addr:street": "Spasovdanska", "amenity": "pharmacy", "dispensing": "yes", "healthcare": "pharmacy", "name": "Pharmasan", "name:sr": "\u0424\u0430\u0440\u043c\u0430\u0441\u0430\u043d", "name:sr-Latn": "Pharmasan"}}, {"type": "node", "id": 5477737000, "lat": 43.8239384, "lon": 18.3641872, "tags": {"addr:street": "Stefana Nemanje", "amenity": "pharmacy", "dispensing": "yes", "healthcare": "pharmacy", "name": "Apoteka", "name:sr": "\u0410\u043f\u043e\u0442\u0435\u043a\u0430", "name:sr-Latn": "Apoteka"}}, {"type": "node", "id": 5634612794, "lat": 43.8414081, "lon": 18.3455621, "tags": {"amenity": "pharmacy", "dispensing": "yes", "healthcare": "pharmacy", "name": "Zambak"}}, {"type": "node", "id": 5745431735, "lat": 43.8587138, "lon": 18.4190605, "tags": {"amenity": "pharmacy", "contact:email": "sarajevo@apotekavita.com", "contact:phone": "+387 33 222522", "contact:website": "http://apotekavita.com", "healthcare": "pharmacy", "name": "Apoteka Vita", "opening_hours": "Mo-Fr 08:00-22:00;Sa 09:00-19:00;Su off"}}, {"type": "node", "id": 5745473432, "lat": 43.857968, "lon": 18.4084028, "tags": {"amenity": "pharmacy", "healthcare": "pharmacy", "name": "Apoteka Marijin Dvor", "operator": "MGM Apoteke Kakanj"}}, {"type": "node", "id": 5750996572, "lat": 43.8587592, "lon": 18.418644, "tags": {"addr:city": "Sarajevo", "addr:housenumber": "40", "addr:postcode": "71000", "addr:street": "Mar\u0161ala Tita", "amenity": "pharmacy", "dispensing": "yes", "email": "as.centar@apoteke-sarajevo.ba", "healthcare": "pharmacy", "name": "Apoteka Centar", "opening_hours": "Mo-Sa 07:30-21:00", "operator": "Apoteke Sarajevo", "phone": "+38733714270", "website": "https://www.apoteke-sarajevo.ba/"}}, {"type": "node", "id": 5751002680, "lat": 43.8575766, "lon": 18.4206684, "tags": {"addr:city": "Sarajevo", "addr:housenumber": "21", "addr:postcode": "71000", "addr:street": "Branilaca Sarajeva", "amenity": "pharmacy", "dispensing": "yes", "drive_through": "no", "email": "as.pozoriste@apoteke-sarajevo.ba", "healthcare": "pharmacy", "name": "Apoteka Pozori\u0161te", "opening_hours": "Mo-Fr 07:30-21:00, Sa 09:00-15:00", "operator": "Apoteke Sarajevo", "phone": "+38733259620", "website": "https://www.apoteke-sarajevo.ba/"}}, {"type": "node", "id": 5751015224, "lat": 43.8620535, "lon": 18.4169681, "tags": {"addr:city": "Sarajevo", "addr:housenumber": "29", "addr:postcode": "71000", "addr:street": "\u010cekalu\u0161a", "amenity": "pharmacy", "dispensing": "yes", "email": "as.mejtas@apoteke-sarajevo.ba", "healthcare": "pharmacy", "name": "Apoteka Mejta\u0161", "opening_hours": "Mo-Fr 07:30-20:00, Sa 07:30-15:00", "operator": "Apoteke Sarajevo", "phone": "+38733262410", "website": "https://www.apoteke-sarajevo.ba/"}}, {"type": "node", "id": 5751024397, "lat": 43.8568776, "lon": 18.411396, "tags": {"addr:city": "Sarajevo", "addr:housenumber": "11", "addr:postcode": "71000", "addr:street": "Vrazova", "amenity": "pharmacy", "dispensing": "yes", "email": "as.vrazova@apoteke-sarajevo.ba", "healthcare": "pharmacy", "name": "Apoteka Vrazova", "opening_hours": "Mo-Sa 07:30-20:00", "operator": "Apoteke Sarajevo", "phone": "+38733266535", "website": "https://www.apoteke-sarajevo.ba/"}}, {"type": "node", "id": 5751131327, "lat": 43.8662489, "lon": 18.4133716, "tags": {"addr:city": "Sarajevo", "addr:housenumber": "9", "addr:postcode": "71000", "addr:street": "Bolni\u010dka", "amenity": "pharmacy", "dispensing": "yes", "email": "as.kosevo@apoteke-sarajevo.ba", "healthcare": "pharmacy", "name": "Apoteka Ko\u0161evo", "opening_hours": "Mo-Fr 07:30-20:00, Sa 07:30-15:00", "operator": "Apoteke Sarajevo", "phone": "+38733264120", "website": "https://www.apoteke-sarajevo.ba/"}}, {"type": "node", "id": 5751134347, "lat": 43.8660063, "lon": 18.4051734, "tags": {"addr:city": "Sarajevo", "addr:housenumber": "4", "addr:postcode": "71000", "addr:street": "Bra\u0107e Begi\u0107", "amenity": "pharmacy", "dispensing": "yes", "email": "as.kosevskobrdo@apoteke-sarajevo.ba", "healthcare": "pharmacy", "name": "Apoteka Ko\u0161evsko brdo", "opening_hours": "Mo-Fr 07:30-20:00, Sa 07:30-15:00", "operator": "Apoteke Sarajevo", "website": "https://www.apoteke-sarajevo.ba/"}}, {"type": "node", "id": 5751159624, "lat": 43.8721313, "lon": 18.4189329, "tags": {"addr:city": "Sarajevo", "addr:housenumber": "bb", "addr:postcode": "71000", "addr:street": "Himze Polovine", "amenity": "pharmacy", "dispensing": "yes", "email": "as.breka@apoteke-sarajevo.ba", "healthcare": "pharmacy", "name": "Apoteka Breka", "opening_hours": "Mo-Fr 07:30-20:00, Sa 07:30-15:00", "operator": "Apoteke Sarajevo", "phone": "+38733264150", "website": "https://www.apoteke-sarajevo.ba/"}}, {"type": "node", "id": 5751200620, "lat": 43.8583778, "lon": 18.4305237, "tags": {"amenity": "pharmacy", "dispensing": "yes", "healthcare": "pharmacy", "name": "Apoteka Bosna"}}, {"type": "node", "id": 6175038176, "lat": 43.8690231, "lon": 18.4081438, "tags": {"addr:city": "Sarajevo", "addr:housenumber": "2", "addr:postcode": "71000", "addr:street": "Juki\u0107eva", "alt_name": "Apoteka Medisan", "amenity": "pharmacy", "dispensing": "yes", "healthcare": "pharmacy", "name": "Apoteka Medisan", "source": "http://mz.ks.gov.ba/node/723"}}, {"type": "node", "id": 6352657138, "lat": 43.8951556, "lon": 18.371281, "tags": {"addr:street": "Igmanska", "amenity": "pharmacy", "name": "Apoteka Libero"}}, {"type": "node", "id": 6354589557, "lat": 43.8530282, "lon": 18.4360055}, {"type": "node", "id": 6354589558, "lat": 43.8530682, "lon": 18.4360452}, {"type": "node", "id": 6363409451, "lat": 43.8434436, "lon": 18.2783318, "tags": {"addr:street": "Ulica Osik", "amenity": "pharmacy", "name": "Apoteka"}}, {"type": "node", "id": 6399421181, "lat": 43.8664568, "lon": 18.4181453, "tags": {"addr:housenumber": "35", "addr:street": "Vi\u0161njik", "amenity": "pharmacy", "healthcare": "pharmacy", "name": "Lupriv"}}, {"type": "node", "id": 6400926505, "lat": 43.8379716, "lon": 18.3196606, "tags": {"addr:street": "Dobrinjska", "amenity": "pharmacy", "healthcare": "pharmacy", "name": "Apoteka"}}, {"type": "node", "id": 6489994485, "lat": 43.8517987, "lon": 18.403063, "tags": {"addr:housenumber": "15", "addr:postcode": "71000", "addr:street": "Zagreba\u010dka", "amenity": "pharmacy", "email": "apoteka.medikaliz@hotmail.com", "healthcare": "pharmacy", "name": "Apoteka \"Medikaliz\"", "opening_hours": "Mo-Fr 08:00-20:00; Sa 08:00-15:00", "operator": "mr.ph Mufid Izmirlija", "phone": "+38733215777"}}, {"type": "node", "id": 6775678527, "lat": 43.8583308, "lon": 18.4288353, "tags": {"amenity": "pharmacy", "healthcare": "pharmacy", "name:en": "Apoteka Bosna"}}, {"type": "node", "id": 6997127885, "lat": 43.8610621, "lon": 18.4316021, "tags": {"addr:housenumber": "28", "addr:street": "Safvet-bega Ba\u0161agi\u0107a", "amenity": "pharmacy", "healthcare": "pharmacy", "name": "Apoteka Al Hana", "name:tr": "Al Hana Eczanesi", "opening_hours": "Mo-Fr 07:00-21:00;Sa 08:00-20:00;Su 09:00-17:00", "phone": "+387 33 233122"}}, {"type": "node", "id": 7083860756, "lat": 43.84921, "lon": 18.3523663, "tags": {"amenity": "pharmacy", "contact:email": "info@ark.ba", "contact:phone": "+387 33 615903", "contact:website": "http://www.ark.ba", "healthcare": "pharmacy", "name": "Ark Wellness & Medicinska Oprema"}}, {"type": "node", "id": 8974264252, "lat": 43.9143138, "lon": 18.1269077, "tags": {"amenity": "pharmacy", "drive_through": "no", "healthcare": "pharmacy", "name": "Avicena"}}, {"type": "node", "id": 9031328121, "lat": 43.817055, "lon": 18.3563763, "tags": {"amenity": "pharmacy"}}, {"type": "node", "id": 10183246149, "lat": 43.8214736, "lon": 18.2017323, "tags": {"amenity": "pharmacy"}}, {"type": "node", "id": 10289686509, "lat": 43.8529402, "lon": 18.3789355, "tags": {"amenity": "pharmacy", "healthcare": "pharmacy", "name": "Al Hana"}}, {"type": "node", "id": 10601028005, "lat": 43.8495332, "lon": 18.3648688, "tags": {"amenity": "pharmacy", "healthcare": "pharmacy", "name": "Apoteka Delfin"}}, {"type": "node", "id": 10675912524, "lat": 43.8571668, "lon": 18.3839642, "tags": {"amenity": "pharmacy", "healthcare": "pharmacy", "name": "Eurovita"}}, {"type": "node", "id": 10703011213, "lat": 43.854811, "lon": 18.3996184, "tags": {"amenity": "pharmacy", "healthcare": "pharmacy", "name": "JU Apoteke Sarajevo"}}, {"type": "node", "id": 10724619147, "lat": 43.8504324, "lon": 18.3543322, "tags": {"amenity": "pharmacy", "healthcare": "pharmacy", "name": "Pharmacy"}}, {"type": "node", "id": 10749484304, "lat": 43.8696629, "lon": 18.4178513, "tags": {"amenity": "pharmacy", "healthcare": "pharmacy", "name": "Apoteka Remedija 3"}}, {"type": "node", "id": 10773802069, "lat": 43.8629549, "lon": 18.4395369, "tags": {"addr:housenumber": "21", "addr:street": "Mustafe Dovad\u017eije", "amenity": "pharmacy", "check_date": "2023-03-30", "healthcare": "pharmacy", "level": "0", "name": "Vratnik", "name:sr": "Vratnik", "wheelchair": "yes"}}, {"type": "node", "id": 11026900182, "lat": 43.8509816, "lon": 18.378065, "tags": {"amenity": "pharmacy", "healthcare": "pharmacy", "name": "Verdant"}}, {"type": "node", "id": 11026900183, "lat": 43.8508641, "lon": 18.3780632, "tags": {"amenity": "pharmacy", "healthcare": "pharmacy", "name": "Oaza Zdravlja"}}, {"type": "node", "id": 11026900188, "lat": 43.8515558, "lon": 18.3810503, "tags": {"amenity": "pharmacy", "healthcare": "pharmacy", "name": "Al Hana 2", "opening_hours": "Mo-Su 08:00-22:00"}}, {"type": "node", "id": 11111486207, "lat": 43.8289261, "lon": 18.3571756, "tags": {"addr:postcode": "71000", "addr:street": "Gandijeva", "amenity": "pharmacy", "name": "Apoteka Al hana", "name:en": "Pharmacy \"Al Hana\""}}, {"type": "node", "id": 11315861891, "lat": 43.8225868, "lon": 18.2047902, "tags": {"addr:city": "Had\u017ei\u0107i", "addr:housenumber": "84", "addr:postcode": "71240", "addr:street": "Had\u017eeli", "amenity": "pharmacy", "dispensing": "yes", "healthcare": "pharmacy", "name": "Apoteka Had\u017ei\u0107i", "opening_hours": "24/7"}}, {"type": "node", "id": 11409168989, "lat": 43.8176522, "lon": 18.3621907, "tags": {"addr:housenumber": "34", "addr:street": "Hilandarska", "amenity": "pharmacy", "healthcare": "pharmacy", "name": "Rosic apoteka"}}, {"type": "node", "id": 12088763317, "lat": 43.8582334, "lon": 18.4162739, "tags": {"amenity": "pharmacy", "healthcare": "pharmacy", "name": "B Pharm Pharmacia"}}, {"type": "node", "id": 12089403415, "lat": 43.859613, "lon": 18.4245975, "tags": {"amenity": "pharmacy", "healthcare": "pharmacy"}}, {"type": "node", "id": 13086953206, "lat": 43.8501515, "lon": 18.3624128, "tags": {"amenity": "pharmacy", "healthcare": "pharmacy", "name": "AP Apoteke"}}, {"type": "node", "id": 13086987915, "lat": 43.849973, "lon": 18.3629625, "tags": {"amenity": "pharmacy", "healthcare": "pharmacy", "name": "AP Apoteke"}}, {"type": "way", "id": 191217963, "nodes": [2018166369, 2018166239, 6354589558, 6354589557, 2018166214, 2018166369], "tags": {"addr:housenumber": "22", "addr:street": "Iza Hrida", "amenity": "pharmacy", "building": "yes", "building:levels": "2", "check_date": "2025-04-24", "name": "Apoteka Family", "source": "Bing"}}, {"type": "way", "id": 191752334, "nodes": [2023306657, 2023306606, 2023306477, 2023306509, 2023306657], "tags": {"amenity": "pharmacy", "building": "yes", "healthcare": "pharmacy"}}, {"type": "way", "id": 206886657, "nodes": [2169436233, 2169436244, 2169436226, 2169436241, 2169436233], "tags": {"amenity": "pharmacy", "building": "yes", "name": "Apoteka \"Visoko\""}}]}