{"version": 0.6, "generator": "Overpass API 0.7.62.8 e802775f", "osm3s": {"timestamp_osm_base": "2025-10-06T09:01:48Z", "copyright": "The data included in this document is from www.openstreetmap.org. The data is made available under ODbL."}, "elements": [{"type": "node", "id": 811344803, "lat": 36.6248095, "lon": 29.1249372, "tags": {"amenity": "pharmacy", "check_date": "2023-11-02", "dispensing": "yes", "drive_through": "no", "healthcare": "pharmacy", "name": "\u00d6zcan Eczanesi", "phone": "+90 252 612 20 38"}}, {"type": "node", "id": 2209147302, "lat": 36.6244848, "lon": 29.1154269, "tags": {"amenity": "pharmacy", "dispensing": "yes", "healthcare": "pharmacy", "name": "G\u00fcm\u00fc\u015f Eczanesi", "phone": "+90 252 614 47 85"}}, {"type": "node", "id": 2209147351, "lat": 36.6540296, "lon": 29.119956, "tags": {"amenity": "pharmacy", "healthcare": "pharmacy"}}, {"type": "node", "id": 3957235624, "lat": 36.6532853, "lon": 29.121718, "tags": {"amenity": "pharmacy", "healthcare": "pharmacy"}}, {"type": "node", "id": 3957319284, "lat": 36.6615148, "lon": 29.1133403, "tags": {"amenity": "pharmacy", "healthcare": "pharmacy", "name": "Eczane \u00c7ali\u0219", "opening_hours": "Mo-Su 09:00-19:00"}}, {"type": "node", "id": 3957321860, "lat": 36.6555848, "lon": 29.127824, "tags": {"amenity": "pharmacy", "healthcare": "pharmacy"}}, {"type": "node", "id": 4426789290, "lat": 36.6345166, "lon": 29.1242638, "tags": {"amenity": "pharmacy", "check_date": "2023-11-02", "dispensing": "yes", "drive_through": "no", "healthcare": "pharmacy", "name": "Ba\u015fak Eczanesi"}}, {"type": "node", "id": 5211793024, "lat": 36.6211615, "lon": 29.1328283, "tags": {"amenity": "pharmacy", "healthcare": "pharmacy", "name": "Ba\u015far Eczanesi", "opening_hours": "Mo-Fr 09:00-19:00", "phone": "+90 252 614 93 63"}}, {"type": "node", "id": 5211824021, "lat": 36.6208139, "lon": 29.1147191, "tags": {"amenity": "pharmacy", "check_date": "2023-02-28", "healthcare": "pharmacy", "name": "Hayat Eczanesi", "phone": "+90 252 614 18 68"}}, {"type": "node", "id": 5685124626, "lat": 36.7387178, "lon": 29.2183292, "tags": {"amenity": "pharmacy", "healthcare": "pharmacy", "name:en": "Pharmacy"}}, {"type": "node", "id": 7656617885, "lat": 36.6228427, "lon": 29.1244518, "tags": {"amenity": "pharmacy", "check_date": "2023-04-20", "healthcare": "pharmacy", "name": "Cem Utku Eczanesi", "phone": "+90 252 612 77 70"}}, {"type": "node", "id": 7991330785, "lat": 36.6225825, "lon": 29.1261133, "tags": {"amenity": "pharmacy", "check_date": "2023-11-01", "dispensing": "yes", "drive_through": "no", "healthcare": "pharmacy", "name": "Nilsu Eczanesi", "payment:mastercard": "yes", "payment:visa": "yes", "phone": "+90 252 614 84 00"}}, {"type": "node", "id": 8612254017, "lat": 36.658079, "lon": 29.132141, "tags": {"amenity": "pharmacy", "healthcare": "pharmacy", "name": "Horasan"}}, {"type": "node", "id": 9116558617, "lat": 36.549051, "lon": 29.1248493, "tags": {"amenity": "pharmacy", "check_date": "2025-04-23", "dispensing": "yes", "drive_through": "no", "healthcare": "pharmacy", "name": "Eray Eczanesi", "payment:cash": "yes", "payment:credit_cards": "yes", "payment:debit_cards": "yes", "phone": "+90 252 617 07 31"}}, {"type": "node", "id": 9453483227, "lat": 36.6304825, "lon": 29.123815, "tags": {"amenity": "pharmacy", "dispensing": "yes", "healthcare": "pharmacy", "name": "Melek Eczanesi", "phone": "+90 252 612 17 76"}}, {"type": "node", "id": 9453883804, "lat": 36.622106, "lon": 29.1179314, "tags": {"amenity": "pharmacy", "dispensing": "yes", "healthcare": "pharmacy", "name": "G\u00f6k\u00e7e Eczanesi", "phone": "+90 252 614 16 75"}}, {"type": "node", "id": 9453883872, "lat": 36.6231892, "lon": 29.1153039, "tags": {"amenity": "pharmacy", "check_date": "2023-03-03", "dispensing": "yes", "healthcare": "pharmacy", "name": "Seki Eczanesi", "phone": "+90 252 612 10 93"}}, {"type": "node", "id": 10113447880, "lat": 36.6188402, "lon": 29.1396553, "tags": {"amenity": "pharmacy", "check_date": "2023-09-10", "dispensing": "yes", "healthcare": "pharmacy", "payment:mastercard": "yes", "payment:visa": "yes"}}, {"type": "node", "id": 10113447881, "lat": 36.6185991, "lon": 29.1395373, "tags": {"amenity": "pharmacy", "check_date": "2023-11-05", "dispensing": "yes", "drive_through": "no", "healthcare": "pharmacy", "name": "Gizem Eczanesi"}}, {"type": "node", "id": 10113447882, "lat": 36.6188983, "lon": 29.1393629, "tags": {"amenity": "pharmacy", "check_date": "2023-11-05", "dispensing": "yes", "drive_through": "no", "healthcare": "pharmacy", "name": "Eczane Karabulut"}}, {"type": "node", "id": 10113447887, "lat": 36.62968, "lon": 29.1456273, "tags": {"amenity": "pharmacy", "dispensing": "yes", "healthcare": "pharmacy", "name": "Ye\u015fim Eczanesi", "phone": "+90 252 614 13 55"}}, {"type": "node", "id": 10137930863, "lat": 36.622832, "lon": 29.1143283, "tags": {"amenity": "pharmacy", "check_date": "2022-10-29", "drive_through": "no", "healthcare": "pharmacy", "level": "0", "name": "Demirta\u015f Eczanesi", "payment:mastercard": "yes", "payment:visa": "yes", "phone": "+90 252 614 79 87"}}, {"type": "node", "id": 10156352291, "lat": 36.6185758, "lon": 29.1411381, "tags": {"amenity": "pharmacy", "dispensing": "yes", "healthcare": "pharmacy"}}, {"type": "node", "id": 10157179466, "lat": 36.6307579, "lon": 29.1202847, "tags": {"amenity": "pharmacy", "check_date": "2025-05-31", "drive_through": "no", "healthcare": "pharmacy", "level": "0", "name": "Altay Eczanesi", "payment:mastercard": "yes", "payment:visa": "yes", "phone": "+90 252 612 31 05", "wheelchair": "yes"}}, {"type": "node", "id": 10559770881, "lat": 36.6247273, "lon": 29.1168296, "tags": {"amenity": "pharmacy", "healthcare": "pharmacy", "name": "\u00d6zt\u00fcrk Eczanesi", "phone": "+90 252 612 85 02"}}, {"type": "node", "id": 10559770882, "lat": 36.6245166, "lon": 29.1154257, "tags": {"amenity": "pharmacy", "check_date": "2024-12-31", "dispensing": "yes", "healthcare": "pharmacy", "name": "Balaban Eczanesi", "phone": "+90 252 614 89 86"}}, {"type": "node", "id": 10575081558, "lat": 36.6222492, "lon": 29.1031971, "tags": {"amenity": "pharmacy", "check_date": "2025-01-02", "healthcare": "pharmacy", "name": "Kaya Eczanesi", "phone": "+90 252 614 10 09"}}, {"type": "node", "id": 10579325899, "lat": 36.6341721, "lon": 29.1316482, "tags": {"amenity": "pharmacy", "check_date": "2024-10-21", "dispensing": "yes", "drive_through": "no", "healthcare": "pharmacy", "level": "0", "name": "Alkan Eczanesi", "name:tr": "Alkan Eczanesi", "phone": "+90 252 614 81 18", "wheelchair": "yes"}}, {"type": "node", "id": 10614027698, "lat": 36.6284434, "lon": 29.2178563, "tags": {"amenity": "pharmacy", "healthcare": "pharmacy", "name": "Esenk\u00f6y Defne Eczanesi", "phone": "+90 252 635 77 67"}}, {"type": "node", "id": 10716463106, "lat": 36.656552, "lon": 29.2041519, "tags": {"amenity": "pharmacy", "healthcare": "pharmacy", "name": "Atakan Eczanesi", "phone": "+90 252 646 89 80"}}, {"type": "node", "id": 10716463107, "lat": 36.6400979, "lon": 29.1705803, "tags": {"amenity": "pharmacy", "name": "Var\u00e7in Eczanesi", "phone": "+90 252 646 82 84"}}, {"type": "node", "id": 10716463108, "lat": 36.6295575, "lon": 29.1529812, "tags": {"amenity": "pharmacy", "healthcare": "pharmacy", "name": "Mert Eczanesi", "phone": "+90 252 646 92 83"}}, {"type": "node", "id": 10716463109, "lat": 36.6309809, "lon": 29.1484144, "tags": {"amenity": "pharmacy", "healthcare": "pharmacy", "name": "Aybek Eczanesi", "phone": "+90 252 611 36 89"}}, {"type": "node", "id": 10716463110, "lat": 36.6311289, "lon": 29.1479582, "tags": {"amenity": "pharmacy", "healthcare": "pharmacy", "name": "Y\u00f6r\u00fck Eczanesi", "phone": "+90 252 611 02 00"}}, {"type": "node", "id": 10716465406, "lat": 36.5505703, "lon": 29.1237827, "tags": {"amenity": "pharmacy", "check_date": "2025-04-23", "healthcare": "pharmacy", "name": "\u00d6l\u00fcdeniz Eczanesi", "payment:cash": "yes", "payment:credit_cards": "yes", "payment:debit_cards": "yes", "phone": "+90 252 617 02 84"}}, {"type": "node", "id": 10716465407, "lat": 36.5717537, "lon": 29.1376776, "tags": {"amenity": "pharmacy", "name": "Es Eczanesi", "phone": "+90 252 617 02 84"}}, {"type": "node", "id": 10716465408, "lat": 36.5715526, "lon": 29.1440879, "tags": {"amenity": "pharmacy", "name": "Ovac\u0131k Eczanesi", "phone": "+90 252 616 62 53"}}, {"type": "node", "id": 10716465409, "lat": 36.570347, "lon": 29.1391881, "tags": {"amenity": "pharmacy", "check_date": "2024-12-29", "name": "Kad\u0131k\u00f6y Eczanesi", "phone": "+90 252 616 74 12"}}, {"type": "node", "id": 10716465410, "lat": 36.6264637, "lon": 29.2201292, "tags": {"amenity": "pharmacy", "name": "G\u00fcl Eczanesi", "phone": "+90 252 635 74 15"}}, {"type": "node", "id": 10716465411, "lat": 36.6592203, "lon": 29.1799134, "tags": {"amenity": "pharmacy", "name": "Tolgahan Eczanesi", "phone": "+90 252 613 55 05"}}, {"type": "node", "id": 10716465412, "lat": 36.6412754, "lon": 29.173213, "tags": {"amenity": "pharmacy", "name": "Aysun Eczanesi", "phone": "+90 252 646 96 67"}}, {"type": "node", "id": 10716465413, "lat": 36.6429301, "lon": 29.1756866, "tags": {"amenity": "pharmacy", "name": "Murat Eczanesi", "phone": "+90 252 646 90 84"}}, {"type": "node", "id": 10716465414, "lat": 36.6308535, "lon": 29.1482829, "tags": {"amenity": "pharmacy", "healthcare": "pharmacy", "name": "Merve Eczanesi", "phone": "+90 252 611 00 06"}}, {"type": "node", "id": 10716466805, "lat": 36.5701514, "lon": 29.1388569, "tags": {"amenity": "pharmacy", "check_date": "2024-12-29", "healthcare": "pharmacy", "name": "\u00c7amc\u0131 Eczanesi", "phone": "+90 252 616 77 90", "website": "https://eczanelik.com/mugla-fethiye-camci-eczanesi.html"}}, {"type": "node", "id": 10716466806, "lat": 36.640934, "lon": 29.1725336, "tags": {"amenity": "pharmacy", "name": "Derman Eczanesi", "phone": "+90 252 646 97 88"}}, {"type": "node", "id": 10716466807, "lat": 36.6425958, "lon": 29.1753622, "tags": {"amenity": "pharmacy", "name": "\u00c7a\u011fr\u0131 Eczanesi", "phone": "+90 252 646 42 92"}}, {"type": "node", "id": 10716466808, "lat": 36.6312844, "lon": 29.1484203, "tags": {"amenity": "pharmacy", "healthcare": "pharmacy", "name": "Candan Eczanesi", "phone": "+90 252 611 01 11"}}, {"type": "node", "id": 10716466905, "lat": 36.6294962, "lon": 29.1527914, "tags": {"amenity": "pharmacy", "healthcare": "pharmacy", "name": "Deniz Eczanesi", "phone": "+90 252 646 93 38"}}, {"type": "node", "id": 10718232405, "lat": 36.6220038, "lon": 29.110828, "tags": {"amenity": "pharmacy", "check_date": "2023-12-04", "dispensing": "yes", "healthcare": "pharmacy", "name": "Ero\u011flu Eczanesi", "phone": "+90 252 614 14 97"}}, {"type": "node", "id": 10718232406, "lat": 36.6223182, "lon": 29.1142943, "tags": {"amenity": "pharmacy", "healthcare": "pharmacy", "name": "Kestepli Eczanesi", "phone": "+90 252 614 15 47"}}, {"type": "node", "id": 10718232407, "lat": 36.6234227, "lon": 29.1148578, "tags": {"amenity": "pharmacy", "healthcare": "pharmacy", "name": "Nil Eczanesi", "phone": "+90 252 614 81 88"}}, {"type": "node", "id": 10718232408, "lat": 36.6304996, "lon": 29.123164, "tags": {"amenity": "pharmacy", "dispensing": "yes", "healthcare": "pharmacy", "name": "Minem Eczanesi", "phone": "+90 252 614 10 44"}}, {"type": "node", "id": 10718232409, "lat": 36.6250456, "lon": 29.1248117, "tags": {"amenity": "pharmacy", "check_date": "2023-11-02", "dispensing": "yes", "drive_through": "no", "healthcare": "pharmacy", "name": "Y\u0131lman Eczanesi", "phone": "+90 252 612 41 40"}}, {"type": "node", "id": 10718232410, "lat": 36.6410641, "lon": 29.1305464, "tags": {"amenity": "pharmacy", "healthcare": "pharmacy", "name": "Yeliz Eczanesi", "phone": "+90 252 614 97 90"}}, {"type": "node", "id": 10718232505, "lat": 36.6222177, "lon": 29.1141631, "tags": {"amenity": "pharmacy", "check_date": "2023-04-20", "dispensing": "yes", "drive_through": "no", "healthcare": "pharmacy", "name": "Ak\u0131n Eczanesi", "payment:mastercard": "yes", "payment:visa": "yes", "phone": "+90 252 614 44 49"}}, {"type": "node", "id": 10718232507, "lat": 36.6307241, "lon": 29.1204539, "tags": {"amenity": "pharmacy", "healthcare": "pharmacy", "name": "Fethiye Ada Eczanesi", "phone": "+90 252 613 21 25"}}, {"type": "node", "id": 10718232508, "lat": 36.6306114, "lon": 29.1208762, "tags": {"amenity": "pharmacy", "healthcare": "pharmacy", "name": "\u00c7ar\u015f\u0131 Eczanesi", "phone": "+90 252 614 25 54"}}, {"type": "node", "id": 10718232509, "lat": 36.6325744, "lon": 29.123913, "tags": {"amenity": "pharmacy", "check_date": "2023-11-02", "dispensing": "yes", "drive_through": "no", "healthcare": "pharmacy", "name": "Hisar Eczanesi", "phone": "+90 252 617 02 67"}}, {"type": "node", "id": 10718232605, "lat": 36.6226229, "lon": 29.1143273, "tags": {"amenity": "pharmacy", "check_date": "2023-10-27", "healthcare": "pharmacy", "name": "Manolya Eczanesi", "phone": "+90 252 614 62 93"}}, {"type": "node", "id": 10718232805, "lat": 36.6308006, "lon": 29.1199984, "tags": {"amenity": "pharmacy", "check_date": "2025-05-31", "healthcare": "pharmacy", "name": "Balc\u0131 Eczanesi", "phone": "+90 252 612 99 79"}}, {"type": "node", "id": 10718232806, "lat": 36.6307032, "lon": 29.1206265, "tags": {"amenity": "pharmacy", "check_date": "2025-05-31", "healthcare": "pharmacy", "name": "Tuna Eczanesi", "phone": "+90 252 612 55 23"}}, {"type": "node", "id": 10718232807, "lat": 36.6341527, "lon": 29.1310649, "tags": {"amenity": "pharmacy", "dispensing": "yes", "healthcare": "pharmacy", "name": "Bilgin Eczanesi", "phone": "+90 252 612 80 85"}}, {"type": "node", "id": 10832079339, "lat": 36.5345509, "lon": 29.3808529, "tags": {"amenity": "pharmacy", "check_date": "2023-04-22", "healthcare": "pharmacy"}}, {"type": "node", "id": 11217779140, "lat": 36.693319, "lon": 29.0877676, "tags": {"amenity": "pharmacy", "healthcare": "pharmacy"}}, {"type": "node", "id": 12388280911, "lat": 36.6544141, "lon": 29.1227562, "tags": {"amenity": "pharmacy", "healthcare": "pharmacy"}}]}