{"version": 0.6, "generator": "Overpass API 0.7.62.8 e802775f", "osm3s": {"timestamp_osm_base": "2025-10-06T08:40:23Z", "copyright": "The data included in this document is from www.openstreetmap.org. The data is made available under ODbL."}, "elements": [{"type": "node", "id": 1872953071, "lat": 52.6916466, "lon": 22.0504529, "tags": {"addr:city": "Ma\u0142kinia G\u00f3rna", "addr:housenumber": "33", "addr:street": "Nurska", "amenity": "pharmacy", "dispensing": "yes", "ref:csioz": "1091038"}}, {"type": "node", "id": 2527024201, "lat": 52.8066596, "lon": 21.8853022, "tags": {"addr:city": "Ostr\u00f3w Mazowiecka", "addr:housenumber": "46", "addr:postcode": "07-300", "addr:street": "Genera\u0142a W\u0142adys\u0142awa Sikorskiego", "amenity": "pharmacy", "dispensing": "yes", "operator": "Maria Dorawska", "ref:csioz": "1091067"}}, {"type": "node", "id": 2527587674, "lat": 52.801031, "lon": 21.8904329, "tags": {"addr:city": "Ostr\u00f3w Mazowiecka", "addr:housenumber": "3", "addr:postcode": "07-300", "addr:street": "Stefana Okrzei", "amenity": "pharmacy", "dispensing": "yes", "ref:csioz": "1091095"}}, {"type": "node", "id": 2527587677, "lat": 52.7996173, "lon": 21.8950346, "tags": {"addr:city": "Ostr\u00f3w Mazowiecka", "addr:housename": "Carrefour", "addr:housenumber": "23", "addr:postcode": "07-300", "addr:street": "Ludwika Mieczkowskiego", "amenity": "pharmacy", "brand": "Dr. Max", "brand:wikidata": "Q56317371", "brand:wikipedia": "fr:Dr.Max", "dispensing": "yes", "healthcare": "pharmacy", "name": "Dr. Max", "ref:csioz": "1091474"}}, {"type": "node", "id": 2598915682, "lat": 52.7006312, "lon": 21.8567387, "tags": {"addr:city": "Brok", "addr:housenumber": "36", "addr:postcode": "07-306", "addr:street": "Jana Paw\u0142a II", "amenity": "pharmacy", "dispensing": "yes", "opening_hours": "Mo-Fr 08:30-18:00; Sa 09:00-14:00", "phone": "+48 29 74 570 88", "ref:csioz": "1091505"}}, {"type": "node", "id": 2765011104, "lat": 52.6403416, "lon": 21.847437, "tags": {"addr:city": "Sadowne", "addr:housenumber": "10", "addr:postcode": "07-140", "addr:street": "Plac Ko\u015bcielny", "amenity": "pharmacy", "dispensing": "yes", "phone": "+48 25 675 3217", "ref:csioz": "1097856"}}, {"type": "node", "id": 2765015225, "lat": 52.6334074, "lon": 21.8526111, "tags": {"addr:city": "Sadowne", "addr:housenumber": "82", "addr:street": "Tadeusza Ko\u015bciuszki", "amenity": "pharmacy", "dispensing": "yes", "ref:csioz": "1097923"}}, {"type": "node", "id": 2892530868, "lat": 52.80142, "lon": 21.89792, "tags": {"addr:city": "Ostr\u00f3w Mazowiecka", "addr:housenumber": "20A", "addr:postcode": "07-300", "addr:street": "Pu\u0142kownika Karola Pi\u0142ata", "amenity": "pharmacy", "dispensing": "yes", "name": "T & P", "ref:csioz": "1116294"}}, {"type": "node", "id": 3679019154, "lat": 52.874373, "lon": 21.6725508}, {"type": "node", "id": 3679019160, "lat": 52.8744052, "lon": 21.673}, {"type": "node", "id": 3679019190, "lat": 52.874477, "lon": 21.6725304}, {"type": "node", "id": 3679019200, "lat": 52.8745092, "lon": 21.6729796}, {"type": "node", "id": 4271352030, "lat": 52.8044688, "lon": 21.8987918, "tags": {"addr:city": "Ostr\u00f3w Mazowiecka", "addr:housenumber": "24", "addr:postcode": "07-300", "addr:street": "Tadeusza Ko\u015bciuszki", "amenity": "pharmacy", "brand": "Dbam o Zdrowie", "brand:wikidata": "Q62563833", "dispensing": "yes", "healthcare": "pharmacy", "name": "Dbam o Zdrowie", "operator": "DOZ", "ref:csioz": "1091401"}}, {"type": "node", "id": 5838986668, "lat": 52.7144933, "lon": 21.3665146, "tags": {"amenity": "pharmacy"}}, {"type": "node", "id": 7613515052, "lat": 52.9502101, "lon": 21.757433}, {"type": "node", "id": 7613515053, "lat": 52.9502199, "lon": 21.7572847}, {"type": "node", "id": 9570866959, "lat": 52.9496253, "lon": 21.7582995, "tags": {"amenity": "pharmacy", "name": "Apteka"}}, {"type": "node", "id": 9587414488, "lat": 52.9508021, "lon": 21.405256, "tags": {"addr:city": "M\u0142ynarze", "addr:housenumber": "7a", "addr:postcode": "06-213", "addr:street": "Ostro\u0142\u0119cka", "amenity": "pharmacy", "name": "Rodzinny", "ref:csioz": "1229430"}}, {"type": "node", "id": 9587414489, "lat": 52.8884758, "lon": 21.3983272, "tags": {"addr:city": "R\u00f3\u017can", "addr:city:simc": "0966412", "addr:housenumber": "7", "addr:postcode": "06-230", "addr:street": "Gda\u0144ska", "amenity": "pharmacy", "name": "Na Gda\u0144skiej", "ref:csioz": "1171595"}}, {"type": "node", "id": 9587414490, "lat": 52.8899467, "lon": 21.3968988, "tags": {"addr:city": "R\u00f3\u017can", "addr:city:simc": "0966412", "addr:housenumber": "3", "addr:postcode": "06-230", "addr:street": "Wile\u0144ska", "amenity": "pharmacy", "name": "Apteka (H. i J. Techma\u0144scy)", "ref:csioz": "1116377", "wheelchair": "limited"}}, {"type": "node", "id": 9587414496, "lat": 52.8353808, "lon": 21.3378389, "tags": {"addr:city": "Rzewnie", "addr:housenumber": "22", "addr:postcode": "06-225", "addr:street": "Rzewnie", "amenity": "pharmacy", "healthcare": "pharmacy", "name": "Apteka (M. Szk\u00f3\u0142ka)", "ref:csioz": "1091482"}}, {"type": "node", "id": 9587414497, "lat": 52.8929529, "lon": 21.2215467, "tags": {"addr:city": "Czerwonka W\u0142o\u015bcia\u0144ska", "addr:housenumber": "41A", "addr:postcode": "06-232", "addr:street": "Czerwonka W\u0142o\u015bcia\u0144ska", "amenity": "pharmacy", "name": "Punkt Apteczny (A. Dobkowski)", "ref:csioz": "1091737"}}, {"type": "node", "id": 9624311270, "lat": 52.8046978, "lon": 21.8964265, "tags": {"addr:city": "Ostr\u00f3w Mazowiecka", "addr:housenumber": "38", "addr:street": "3 Maja", "amenity": "pharmacy", "brand": "Dbam o Zdrowie", "brand:wikidata": "Q62563833", "dispensing": "yes", "healthcare": "pharmacy", "name": "Dbam o Zdrowie", "ref:csioz": "1176367"}}, {"type": "node", "id": 9624311286, "lat": 52.6555316, "lon": 21.9805099, "tags": {"addr:housenumber": "165", "addr:place": "Prosty\u0144", "amenity": "pharmacy", "dispensing": "yes", "ref:csioz": "1227609"}}, {"type": "node", "id": 9624311287, "lat": 52.813704, "lon": 21.8894221, "tags": {"addr:city": "Ostr\u00f3w Mazowiecka", "addr:housenumber": "65", "addr:street": "Lubiejewska", "amenity": "pharmacy", "brand": "Dr. Max", "brand:wikidata": "Q56317371", "brand:wikipedia": "fr:Dr.Max", "dispensing": "yes", "healthcare": "pharmacy", "name": "Dr. Max", "ref:csioz": "1208632"}}, {"type": "node", "id": 9624311288, "lat": 52.7969702, "lon": 21.8846648, "tags": {"addr:city": "Ostr\u00f3w Mazowiecka", "addr:housenumber": "10", "addr:street": "R\u00f3\u017ca\u0144ska", "amenity": "pharmacy", "dispensing": "yes", "name": "R\u00f3\u017cana", "ref:csioz": "1190338"}}, {"type": "node", "id": 9624311289, "lat": 52.6936677, "lon": 22.0610338, "tags": {"addr:city": "Ma\u0142kinia G\u00f3rna", "addr:housenumber": "17", "addr:street": "Le\u015bna", "amenity": "pharmacy", "dispensing": "yes", "name": "Bliska", "ref:csioz": "1183535"}}, {"type": "node", "id": 9624311291, "lat": 52.8003795, "lon": 21.8930636, "tags": {"addr:city": "Ostr\u00f3w Mazowiecka", "addr:housenumber": "15", "addr:street": "Partyzant\u00f3w", "amenity": "pharmacy", "dispensing": "yes", "name": "Nowa Farmacja", "ref:csioz": "1116911"}}, {"type": "node", "id": 9624311292, "lat": 52.8084212, "lon": 21.902715, "tags": {"addr:city": "Ostr\u00f3w Mazowiecka", "addr:housenumber": "4", "addr:street": "Armii Krajowej", "amenity": "pharmacy", "dispensing": "yes", "healthcare": "pharmacy", "name": "Bellis", "ref:csioz": "1116283"}}, {"type": "node", "id": 9624311293, "lat": 52.8841024, "lon": 21.80845, "tags": {"addr:housenumber": "31", "addr:place": "Jelonki", "amenity": "pharmacy", "dispensing": "yes", "name": "Punkt Apteczny", "ref:csioz": "1091745"}}, {"type": "node", "id": 9624311295, "lat": 52.929587, "lon": 21.9284824, "tags": {"addr:housenumber": "42", "addr:place": "Stary Luboty\u0144", "amenity": "pharmacy", "dispensing": "yes", "name": "Punkt Apteczny", "ref:csioz": "1091661"}}, {"type": "node", "id": 9624311297, "lat": 52.7994473, "lon": 21.9096813, "tags": {"addr:city": "Ostr\u00f3w Mazowiecka", "addr:housenumber": "6", "addr:street": "Ksawerego Taczanowskiego", "amenity": "pharmacy", "brand": "Rodzinna", "dispensing": "yes", "healthcare": "pharmacy", "name": "Rodzinna", "ref:csioz": "1091327"}}, {"type": "node", "id": 9624311299, "lat": 52.7920974, "lon": 21.914627, "tags": {"addr:city": "Ostr\u00f3w Mazowiecka", "addr:housenumber": "112", "addr:street": "Ma\u0142ki\u0144ska", "amenity": "pharmacy", "dispensing": "yes", "ref:csioz": "1091080"}}, {"type": "node", "id": 9624311300, "lat": 52.8000126, "lon": 21.8888894, "tags": {"addr:city": "Ostr\u00f3w Mazowiecka", "addr:housenumber": "7", "addr:street": "Jagiello\u0144ska", "amenity": "pharmacy", "dispensing": "yes", "ref:csioz": "1091072"}}, {"type": "node", "id": 9624395511, "lat": 52.9297985, "lon": 21.9276503, "tags": {"addr:housenumber": "44", "addr:place": "Stary Luboty\u0144", "amenity": "pharmacy", "brand": "Rodzinna", "dispensing": "yes", "healthcare": "pharmacy", "name": "Rodzinna", "ref:csioz": "1231040"}}, {"type": "node", "id": 9683259816, "lat": 52.5974238, "lon": 21.451969, "tags": {"addr:city": "Wyszk\u00f3w", "addr:housenumber": "63", "addr:postcode": "07-202", "addr:street": "Genera\u0142a J\u00f3zefa Sowi\u0144skiego", "amenity": "pharmacy", "dispensing": "yes", "ref:csioz": "1091303"}}, {"type": "node", "id": 9683268238, "lat": 52.7588978, "lon": 21.5914979, "tags": {"addr:city": "D\u0142ugosiod\u0142o", "addr:housenumber": "26", "addr:postcode": "07-210", "addr:street": "Kr\u00f3lowej Jadwigi", "amenity": "pharmacy", "dispensing": "yes", "ref:csioz": "1091713"}}, {"type": "node", "id": 9683268291, "lat": 52.6862287, "lon": 21.6953182, "tags": {"addr:housenumber": "8", "addr:place": "Por\u0119ba \u015arednia", "addr:postcode": "07-308", "amenity": "pharmacy", "dispensing": "yes", "ref:csioz": "1225146"}}, {"type": "node", "id": 9683286345, "lat": 52.7610179, "lon": 21.5918425, "tags": {"addr:city": "D\u0142ugosiod\u0142o", "addr:housenumber": "12", "addr:postcode": "07-210", "addr:street": "Adama Mickiewicza", "amenity": "pharmacy", "dispensing": "yes", "name": "Cef@Rm 36,6", "ref:csioz": "1116247"}}, {"type": "node", "id": 9683302457, "lat": 52.6015053, "lon": 21.4503313, "tags": {"addr:city": "Wyszk\u00f3w", "addr:housenumber": "28", "addr:postcode": "07-200", "addr:street": "Genera\u0142a J\u00f3zefa Sowi\u0144skiego", "amenity": "pharmacy", "dispensing": "yes", "healthcare": "pharmacy", "name": "Dr. Optima", "ref:csioz": "1091375"}}, {"type": "node", "id": 9683302826, "lat": 52.5957698, "lon": 21.4530852, "tags": {"addr:city": "Wyszk\u00f3w", "addr:housenumber": "24A", "addr:postcode": "07-202", "addr:street": "Pu\u0142tuska", "amenity": "pharmacy", "dispensing": "yes", "name": "Spo\u0142eczna Na Pu\u0142tuskiej Grupa Nowa Farmacja", "ref:csioz": "1206227"}}, {"type": "node", "id": 9683303108, "lat": 52.594973, "lon": 21.4523724, "tags": {"addr:city": "Wyszk\u00f3w", "addr:housenumber": "73", "addr:postcode": "07-200", "addr:street": "Genera\u0142a J\u00f3zefa Sowi\u0144skiego", "amenity": "pharmacy", "brand": "Gemini", "brand:wikidata": "Q130243797", "dispensing": "yes", "healthcare": "pharmacy", "name": "Gemini", "ref:csioz": "1223677"}}, {"type": "node", "id": 9683304667, "lat": 52.5976686, "lon": 21.4301249, "tags": {"addr:city": "Wyszk\u00f3w", "addr:housenumber": "44", "addr:postcode": "07-200", "addr:street": "Centralna", "amenity": "pharmacy", "dispensing": "yes", "ref:csioz": "1091254"}}, {"type": "node", "id": 9683328072, "lat": 52.5986452, "lon": 21.4517715, "tags": {"addr:city": "Wyszk\u00f3w", "addr:housenumber": "57", "addr:postcode": "07-200", "addr:street": "Genera\u0142a J\u00f3zefa Sowi\u0144skiego", "amenity": "pharmacy", "dispensing": "yes", "name": "Gin Medicus Sp\u00f3\u0142ka Z Ograniczon\u0105 Odpowiedzialno\u015bci\u0105 Oddzia\u0142y Szpitalne", "ref:csioz": "1211510"}}, {"type": "node", "id": 9683328250, "lat": 52.5967924, "lon": 21.4365261, "tags": {"addr:city": "Wyszk\u00f3w", "addr:housenumber": "10", "addr:postcode": "07-200", "addr:street": "Centralna", "amenity": "pharmacy", "dispensing": "yes", "name": "Dr Max", "ref:csioz": "1091369"}}, {"type": "node", "id": 9683328291, "lat": 52.6000163, "lon": 21.447873, "tags": {"addr:city": "Wyszk\u00f3w", "addr:housenumber": "81A", "addr:postcode": "07-200", "addr:street": "Stefana Okrzei", "amenity": "pharmacy", "dispensing": "yes", "name": "Apteka Herba Dryll Sp\u00f3\u0142ka Jawna", "ref:csioz": "1091316"}}, {"type": "node", "id": 9683333458, "lat": 52.5995703, "lon": 21.4483552, "tags": {"addr:city": "Wyszk\u00f3w", "addr:housenumber": "15", "addr:postcode": "07-202", "addr:street": "Prosta", "amenity": "pharmacy", "dispensing": "yes", "name": "Dla Ciebie", "ref:csioz": "1091287"}}, {"type": "node", "id": 9683340148, "lat": 52.5951684, "lon": 21.4514717, "tags": {"addr:city": "Wyszk\u00f3w", "addr:housenumber": "62", "addr:postcode": "07-200", "addr:street": "Genera\u0142a J\u00f3zefa Sowi\u0144skiego", "amenity": "pharmacy", "dispensing": "yes", "name": "Z Anio\u0142ami", "ref:csioz": "1091547"}}, {"type": "node", "id": 9683343037, "lat": 52.5968415, "lon": 21.4518739, "tags": {"addr:city": "Wyszk\u00f3w", "addr:housenumber": "65", "addr:postcode": "07-200", "addr:street": "Genera\u0142a J\u00f3zefa Sowi\u0144skiego", "amenity": "pharmacy", "brand": "Dr. Max", "brand:wikidata": "Q56317371", "dispensing": "yes", "healthcare": "pharmacy", "name": "Dr. Max", "ref:csioz": "1091518"}}, {"type": "node", "id": 9683344730, "lat": 52.630214, "lon": 21.588539, "tags": {"addr:city": "Bra\u0144szczyk", "addr:housenumber": "52", "addr:postcode": "07-221", "addr:street": "Jana Paw\u0142a II", "amenity": "pharmacy", "dispensing": "yes", "ref:csioz": "1091206"}}, {"type": "node", "id": 9683345599, "lat": 52.5982132, "lon": 21.4252578, "tags": {"addr:city": "Wyszk\u00f3w", "addr:housenumber": "30", "addr:postcode": "07-200", "addr:street": "gen. W\u0142adys\u0142awa Sikorskiego", "amenity": "pharmacy", "dispensing": "yes", "name": "Panacea", "ref:csioz": "1114675"}}, {"type": "node", "id": 9683353672, "lat": 52.5933566, "lon": 21.4578168, "tags": {"addr:city": "Wyszk\u00f3w", "addr:housenumber": "25", "addr:postcode": "07-200", "addr:street": "Ignacego Daszy\u0144skiego", "amenity": "pharmacy", "dispensing": "yes", "name": "Alta", "ref:csioz": "1091265"}}, {"type": "node", "id": 9683359736, "lat": 52.7143579, "lon": 21.3673341, "tags": {"addr:city": "Rz\u0105\u015bnik", "addr:housenumber": "48", "addr:postcode": "07-205", "addr:street": "Wyszkowska", "amenity": "pharmacy", "dispensing": "yes", "name": "Dziewanna", "ref:csioz": "1112950"}}, {"type": "node", "id": 9683360951, "lat": 52.6004876, "lon": 21.4552534, "tags": {"addr:city": "Wyszk\u00f3w", "addr:housenumber": "2A", "addr:postcode": "07-202", "addr:street": "Prosta", "amenity": "pharmacy", "brand": "Dr. Max", "brand:wikidata": "Q56317371", "dispensing": "yes", "healthcare": "pharmacy", "name": "Dr. Max", "ref:csioz": "1091350"}}, {"type": "node", "id": 13092835601, "lat": 52.9503132, "lon": 21.7574517}, {"type": "node", "id": 13092835602, "lat": 52.9502635, "lon": 21.7572926}, {"type": "node", "id": 13092835603, "lat": 52.9502663, "lon": 21.7572491}, {"type": "node", "id": 13092835604, "lat": 52.950312, "lon": 21.7572575}, {"type": "node", "id": 13092835605, "lat": 52.9503092, "lon": 21.7572997}, {"type": "node", "id": 13092835606, "lat": 52.950323, "lon": 21.7573022}, {"type": "way", "id": 363768598, "nodes": [3679019154, 3679019190, 3679019200, 3679019160, 3679019154], "tags": {"addr:city": "W\u0105sewo", "addr:city:simc": "0522744", "addr:housenumber": "39A", "addr:postcode": "07-311", "addr:street": "Goworowska", "addr:street:sym_ul": "05898", "amenity": "pharmacy", "brand": "Panaceum", "building": "yes", "dispensing": "yes", "healthcare": "pharmacy", "name": "Panaceum", "ref:csioz": "1091115", "source:addr": "wasewo.e-mapa.net"}}, {"type": "way", "id": 815089422, "nodes": [13092835606, 13092835605, 13092835604, 13092835603, 13092835602, 7613515053, 7613515052, 13092835601, 13092835606], "tags": {"addr:city": "Czerwin", "addr:housenumber": "6", "addr:postcode": "07-407", "addr:street": "Tysi\u0105clecia", "amenity": "pharmacy", "building": "yes", "building:levels": "2", "name": "SuperNova", "phone": "+48 604 240 912", "source:building": "BDOT", "source:geometry": "EGiB"}}]}