{"version": 0.6, "generator": "Overpass API 0.7.62.8 e802775f", "osm3s": {"timestamp_osm_base": "2025-10-06T08:40:23Z", "copyright": "The data included in this document is from www.openstreetmap.org. The data is made available under ODbL."}, "elements": [{"type": "node", "id": 1342535570, "lat": 53.6512133, "lon": 20.7924102, "tags": {"amenity": "pharmacy", "dispensing": "yes", "healthcare": "pharmacy", "ref:csioz": "1039652"}}, {"type": "node", "id": 1868586294, "lat": 53.5622819, "lon": 20.9927231, "tags": {"addr:city": "Szczytno", "addr:housenumber": "1", "addr:street": "Jana Lipperta", "amenity": "pharmacy", "dispensing": "yes", "healthcare": "pharmacy", "name": "Stara", "ref:csioz": "1039877"}}, {"type": "node", "id": 1869017904, "lat": 53.5640803, "lon": 20.9871427, "tags": {"addr:city": "Szczytno", "addr:housenumber": "22", "addr:street": "Boles\u0142awa Chrobrego", "amenity": "pharmacy", "brand": "Dbam o Zdrowie", "brand:wikidata": "Q62563833", "dispensing": "yes", "healthcare": "pharmacy", "name": "Dbam o Zdrowie", "opening_hours": "Mo-Fr 08:00-18:00; Sa, Su 09:00-13:00", "ref:csioz": "1039802", "short_name": "DOZ"}}, {"type": "node", "id": 3582803044, "lat": 53.564939, "lon": 20.9918105, "tags": {"addr:city": "Szczytno", "addr:housenumber": "39", "addr:postcode": "12-100", "addr:street": "Odrodzenia", "amenity": "pharmacy", "dispensing": "yes", "healthcare": "pharmacy", "name": "Prima", "opening_hours": "Mo-Su 08:00-21:00", "phone": "+48 89 624 02 37", "ref:csioz": "1039797"}}, {"type": "node", "id": 3733770030, "lat": 53.6394295, "lon": 21.5325874, "tags": {"addr:city": "Ruciane-Nida", "addr:housenumber": "1", "addr:street": "Harcerska", "amenity": "pharmacy", "brand": "Dbam o Zdrowie", "brand:wikidata": "Q62563833", "dispensing": "yes", "healthcare": "pharmacy", "name": "Dbam o Zdrowie", "ref:csioz": "1041822", "source": "survey"}}, {"type": "node", "id": 4988078938, "lat": 53.6521506, "lon": 20.7913425, "tags": {"amenity": "pharmacy", "check_date": "2023-08-21", "dispensing": "yes", "healthcare": "pharmacy", "name": "Apteki Polskie", "opening_hours": "Mo-Fr 08:00-17:00; Sa 09:00-14:00", "payment:mastercard": "yes", "payment:visa": "yes", "ref:csioz": "1188793", "wheelchair": "yes"}}, {"type": "node", "id": 6442585684, "lat": 53.5644021, "lon": 20.9872293, "tags": {"addr:city": "Szczytno", "addr:housenumber": "19", "addr:street": "Tadeusza Ko\u015bciuszki", "amenity": "pharmacy", "dispensing": "yes", "healthcare": "pharmacy", "name": "Gemini", "ref:csioz": "1183902"}}, {"type": "node", "id": 7080684995, "lat": 53.5987646, "lon": 21.3457083, "tags": {"addr:city": "Spychowo", "addr:housenumber": "5", "addr:street": "Mazurska", "amenity": "pharmacy", "dispensing": "yes", "healthcare": "pharmacy", "name": "Punkt Apteczny", "ref:csioz": "1118647"}}, {"type": "node", "id": 9072881702, "lat": 53.7551527, "lon": 21.3405342, "tags": {"addr:city": "Piecki", "addr:city:simc": "0486296", "addr:housenumber": "27C", "addr:postcode": "11-710", "addr:street": "Zwyci\u0119stwa", "amenity": "pharmacy", "dispensing": "yes", "healthcare": "pharmacy", "name": "S\u0105siedzka", "ref:csioz": "1225294"}}, {"type": "node", "id": 9072882426, "lat": 53.7555031, "lon": 21.3411307, "tags": {"addr:city": "Piecki", "addr:city:simc": "0486296", "addr:housenumber": "24", "addr:postcode": "11-710", "addr:street": "Zwyci\u0119stwa", "amenity": "pharmacy", "dispensing": "yes", "healthcare": "pharmacy", "name": "S\u0142oneczna", "opening_hours": "Mo-Fr 08:00-19:00; Sa 08:00-15:00", "ref:csioz": "1039660"}}, {"type": "node", "id": 9597522391, "lat": 53.8580583, "lon": 21.3050255, "tags": {"addr:city": "Mr\u0105gowo", "addr:housenumber": "22C", "addr:street": "Wojska Polskiego", "amenity": "pharmacy", "dispensing": "yes", "healthcare": "pharmacy", "name": "Malinowa", "ref:csioz": "1221708"}}, {"type": "node", "id": 9599194124, "lat": 53.6409092, "lon": 21.534692, "tags": {"addr:city": "Ruciane-Nida", "addr:housenumber": "14A", "addr:street": "Konstantego Ildefonsa Ga\u0142czy\u0144skiego", "amenity": "pharmacy", "brand": "Dbam o Zdrowie", "brand:wikidata": "Q62563833", "dispensing": "yes", "healthcare": "pharmacy", "name": "Dbam o Zdrowie", "ref:csioz": "1041811"}}, {"type": "node", "id": 9601773346, "lat": 53.6978861, "lon": 20.9605233, "tags": {"addr:city": "D\u017awierzuty", "addr:city:simc": "0473164", "addr:housenumber": "16A", "addr:postcode": "12-120", "addr:street": "Szczycie\u0144ska", "amenity": "pharmacy", "brand": "Dbam o Zdrowie", "brand:wikidata": "Q62563833", "dispensing": "yes", "healthcare": "pharmacy", "name": "Punkt Apteczny Dbam o Zdrowie", "ref:csioz": "1225599"}}, {"type": "node", "id": 9601773347, "lat": 53.4831649, "lon": 21.3594385, "tags": {"addr:city": "Rozogi", "addr:housenumber": "1", "addr:street": "Rynek", "amenity": "pharmacy", "dispensing": "yes", "name": "Mazurska", "ref:csioz": "1217767"}}, {"type": "node", "id": 9601773348, "lat": 53.565281, "lon": 21.0052274, "tags": {"addr:city": "Szczytno", "addr:housenumber": "18", "addr:street": "Nauczycielska", "amenity": "pharmacy", "dispensing": "yes", "healthcare": "pharmacy", "name": "Osiedlowa", "opening_hours": "Mo-Fr 08:00-19:00; Sa 09:00-14:00", "ref:csioz": "1181356"}}, {"type": "node", "id": 9601773350, "lat": 53.5601957, "lon": 21.000897, "tags": {"amenity": "pharmacy", "dispensing": "yes", "healthcare": "pharmacy", "name": "Centrum Lek\u00f3w", "operator": "Nowa Farmacja", "ref:csioz": "1179508"}}, {"type": "node", "id": 9601773351, "lat": 53.5650188, "lon": 20.986964, "tags": {"addr:city": "Szczytno", "addr:housenumber": "20", "addr:street": "Tadeusza Ko\u015bciuszki", "amenity": "pharmacy", "brand": "Dbam o Zdrowie", "brand:wikidata": "Q62563833", "dispensing": "yes", "healthcare": "pharmacy", "name": "Dbam o Zdrowie", "ref:csioz": "1117458", "short_name": "DOZ"}}, {"type": "node", "id": 9601773352, "lat": 53.4815324, "lon": 21.3605922, "tags": {"addr:city": "Rozogi", "addr:housenumber": "24C", "addr:postcode": "12-114", "addr:street": "Rynek", "amenity": "pharmacy", "dispensing": "yes", "healthcare": "pharmacy", "name": "Nowa", "ref:csioz": "1111235"}}, {"type": "node", "id": 9601773353, "lat": 53.3997347, "lon": 20.9438955, "tags": {"addr:city": "Wielbark", "addr:city:simc": "0490470", "addr:housenumber": "22A", "addr:postcode": "12-160", "addr:street": "W\u0142adys\u0142awa Jagie\u0142\u0142y", "amenity": "pharmacy", "dispensing": "yes", "name": "Super", "ref:csioz": "1039959"}}, {"type": "node", "id": 9601773354, "lat": 53.4005481, "lon": 20.9422861, "tags": {"addr:city": "Wielbark", "addr:city:simc": "0490470", "addr:housenumber": "1", "addr:postcode": "12-160", "addr:street": "Miko\u0142aja Kopernika", "amenity": "pharmacy", "dispensing": "yes", "name": "Na Zdrowie", "opening_hours": "Mo-Fr 08:00-16:00; Sa 09:00-17:00; Su 08:00-13:00", "ref:csioz": "1039945"}}, {"type": "node", "id": 9601773355, "lat": 53.5630178, "lon": 21.2199762, "tags": {"amenity": "pharmacy", "dispensing": "yes", "name": "Zdrowie", "opening_hours": "Mo-Fr 08:00-16:00; Sa 09:00-12:00", "ref:csioz": "1039921"}}, {"type": "node", "id": 9601773356, "lat": 53.5629723, "lon": 20.9867582, "tags": {"addr:city": "Szczytno", "addr:housenumber": "5", "addr:street": "Boles\u0142awa Chrobrego", "amenity": "pharmacy", "brand": "Dbam o Zdrowie", "brand:wikidata": "Q62563833", "dispensing": "yes", "healthcare": "pharmacy", "name": "Dbam o Zdrowie", "ref:csioz": "1039913", "short_name": "DOZ"}}, {"type": "node", "id": 9601773357, "lat": 53.5639615, "lon": 20.9737252, "tags": {"amenity": "pharmacy", "brand": "Dbam o Zdrowie", "brand:wikidata": "Q62563833", "dispensing": "yes", "healthcare": "pharmacy", "name": "Dbam o Zdrowie", "ref:csioz": "1039900"}}, {"type": "node", "id": 9601773358, "lat": 53.5603474, "lon": 21.0181063, "tags": {"amenity": "pharmacy", "dispensing": "yes", "healthcare": "pharmacy", "name": "Przyjazna", "ref:csioz": "1039844"}}, {"type": "node", "id": 9884611127, "lat": 53.6395113, "lon": 21.5337131, "tags": {"amenity": "pharmacy", "dispensing": "yes", "healthcare": "pharmacy", "name": "\u015aw. Brunona", "opening_hours": "Mo-Fr 08:00-18:00, Sa 08:00-14:00", "ref:csioz": "1214685"}}]}