{"version": 0.6, "generator": "Overpass API 0.7.62.8 e802775f", "osm3s": {"timestamp_osm_base": "2025-10-06T07:58:43Z", "copyright": "The data included in this document is from www.openstreetmap.org. The data is made available under ODbL."}, "elements": [{"type": "node", "id": 2330581208, "lat": 37.9072687, "lon": 22.8807976, "tags": {"amenity": "pharmacy", "healthcare": "pharmacy"}}, {"type": "node", "id": 3416642661, "lat": 37.6294179, "lon": 22.7317284, "tags": {"addr:city": "\u0386\u03c1\u03b3\u03bf\u03c2", "addr:housenumber": "5", "addr:postcode": "21232", "addr:street": "\u039c\u03b5\u03c3\u03c3\u03b7\u03bd\u03af\u03b1\u03c2 \u03ba\u03b1\u03b9 \u0391\u03c1\u03ba\u03b1\u03b4\u03af\u03b1\u03c2", "amenity": "pharmacy", "healthcare": "pharmacy", "name": "\u039a\u03b1\u03c0\u03b5\u03c4\u03ac\u03bd\u03bf\u03c2 \u0393\u03b5\u03ce\u03c1\u03b3\u03b9\u03bf\u03c2", "phone": "+30 2751 062555", "ref:vatin": "EL046228337"}}, {"type": "node", "id": 3818722632, "lat": 37.6386332, "lon": 23.1570245, "tags": {"amenity": "pharmacy", "healthcare": "pharmacy"}}, {"type": "node", "id": 4279065595, "lat": 37.5745034, "lon": 22.839745, "tags": {"amenity": "pharmacy", "healthcare": "pharmacy"}}, {"type": "node", "id": 4279065598, "lat": 37.566725, "lon": 22.8079865, "tags": {"amenity": "pharmacy", "healthcare": "pharmacy"}}, {"type": "node", "id": 4279065600, "lat": 37.5661472, "lon": 22.8039936, "tags": {"amenity": "pharmacy", "healthcare": "pharmacy"}}, {"type": "node", "id": 4281230157, "lat": 37.5661106, "lon": 22.8064709, "tags": {"amenity": "pharmacy", "healthcare": "pharmacy"}}, {"type": "node", "id": 4294671383, "lat": 37.6365986, "lon": 22.7248762, "tags": {"addr:city": "\u0386\u03c1\u03b3\u03bf\u03c2", "addr:housenumber": "41", "addr:postcode": "21232", "addr:street": "\u03a4\u03c3\u03ce\u03ba\u03c1\u03b7", "amenity": "pharmacy", "healthcare": "pharmacy", "name": "\u03a3\u03bc\u03c5\u03c1\u03bd\u03b1\u03af\u03bf\u03c2 \u03a0\u03b1\u03bd\u03b1\u03b3\u03b9\u03ce\u03c4\u03b7\u03c2", "phone": "+30 2751 029850"}}, {"type": "node", "id": 4354750889, "lat": 37.9392354, "lon": 22.9330554, "tags": {"amenity": "pharmacy", "healthcare": "pharmacy", "level": "0"}}, {"type": "node", "id": 4895375878, "lat": 37.9403793, "lon": 22.9311391, "tags": {"amenity": "pharmacy", "healthcare": "pharmacy", "level": "0"}}, {"type": "node", "id": 4897312377, "lat": 37.9406653, "lon": 22.9240328, "tags": {"amenity": "pharmacy", "healthcare": "pharmacy", "level": "0"}}, {"type": "node", "id": 4987554328, "lat": 37.9397569, "lon": 22.930472, "tags": {"amenity": "pharmacy", "healthcare": "pharmacy"}}, {"type": "node", "id": 4990046817, "lat": 37.9374554, "lon": 22.9301739, "tags": {"amenity": "pharmacy", "healthcare": "pharmacy"}}, {"type": "node", "id": 4994895938, "lat": 37.938629, "lon": 22.9300468, "tags": {"amenity": "pharmacy", "healthcare": "pharmacy"}}, {"type": "node", "id": 4994895939, "lat": 37.9389297, "lon": 22.9312394, "tags": {"amenity": "pharmacy", "healthcare": "pharmacy"}}, {"type": "node", "id": 4995393918, "lat": 37.5652296, "lon": 22.800148, "tags": {"amenity": "pharmacy", "healthcare": "pharmacy"}}, {"type": "node", "id": 4998172441, "lat": 37.9409752, "lon": 22.9299743, "tags": {"amenity": "pharmacy", "healthcare": "pharmacy"}}, {"type": "node", "id": 4998172442, "lat": 37.940518, "lon": 22.9294992, "tags": {"amenity": "pharmacy", "healthcare": "pharmacy"}}, {"type": "node", "id": 5009954881, "lat": 37.9372521, "lon": 22.9309347, "tags": {"amenity": "pharmacy", "healthcare": "pharmacy", "name": "\u0393\u03b1\u03ca\u03c4\u03b1\u03bd\u03ac\u03ba\u03b7\u03c2"}}, {"type": "node", "id": 5012496758, "lat": 37.9400705, "lon": 22.9315632, "tags": {"amenity": "pharmacy", "healthcare": "pharmacy"}}, {"type": "node", "id": 5013579887, "lat": 37.9395032, "lon": 22.933801, "tags": {"amenity": "pharmacy", "healthcare": "pharmacy", "name": "\u039c\u03b1\u03bc\u03b1\u03bb\u03bf\u03cd\u03ba\u03b1\u03c2"}}, {"type": "node", "id": 5158734121, "lat": 37.9750747, "lon": 22.9775368, "tags": {"amenity": "pharmacy", "healthcare": "pharmacy"}}, {"type": "node", "id": 5841789700, "lat": 37.6345183, "lon": 22.7265961, "tags": {"addr:city": "\u0386\u03c1\u03b3\u03bf\u03c2", "addr:housenumber": "11", "addr:postcode": "21232", "addr:street": "\u039a\u03b1\u03bb\u03bb\u03ad\u03c1\u03b3\u03b7", "amenity": "pharmacy", "healthcare": "pharmacy", "name": "\u0394\u03b7\u03bc\u03ac\u03ba\u03b7 - \u03a0\u03b9\u03c0\u03ad\u03c1\u03bf\u03c5 \u0392\u03b1\u03c3\u03b9\u03bb\u03b9\u03ba\u03ae", "phone": "+30 2751 020676"}}, {"type": "node", "id": 5841793159, "lat": 37.6352596, "lon": 22.7286075, "tags": {"amenity": "pharmacy", "healthcare": "pharmacy", "name": "\u0394\u03bf\u03bd\u03c4\u03ac \u039a\u03c9\u03bd\u03c3\u03c4\u03b1\u03bd\u03c4\u03af\u03bd\u03b1"}}, {"type": "node", "id": 5841793167, "lat": 37.6350242, "lon": 22.7300177, "tags": {"addr:city": "\u0386\u03c1\u03b3\u03bf\u03c2", "addr:housenumber": "19", "addr:postcode": "21231", "addr:street": "\u0392\u03b1\u03c3\u03b9\u03bb\u03af\u03c3\u03c3\u03b7\u03c2 \u03a3\u03bf\u03c6\u03af\u03b1\u03c2", "amenity": "pharmacy", "healthcare": "pharmacy", "name": "\u039b\u03b5\u03bf\u03bd\u03ac\u03c1\u03b4\u03bf\u03c2 \u0393\u03b5\u03ce\u03c1\u03b3\u03b9\u03bf\u03c2", "operator": "\u0393\u0395\u03a9\u03a1\u0393\u0399\u039f\u03a5 \u039b\u0395\u039f\u039d\u0391\u03a1\u0394\u039f\u03a5 & \u03a3\u0399\u0391 \u0395.\u0395.", "phone": "+30 2751 067445", "ref:vatin": "EL091401361"}}, {"type": "node", "id": 5841798193, "lat": 37.6340727, "lon": 22.7267375, "tags": {"addr:city": "\u0386\u03c1\u03b3\u03bf\u03c2", "addr:housenumber": "5", "addr:postcode": "21232", "addr:street": "\u039a\u03b1\u03c0\u03bf\u03b4\u03b9\u03c3\u03c4\u03c1\u03af\u03bf\u03c5", "amenity": "pharmacy", "healthcare": "pharmacy", "name": "\u03a0\u03b1\u03bd\u03b1\u03b3\u03ac\u03ba\u03b7\u03c2 \u039d\u03b9\u03ba\u03cc\u03bb\u03b1\u03bf\u03c2", "phone": "+30 2751 067700", "ref:vatin": "EL091400038"}}, {"type": "node", "id": 5841799115, "lat": 37.6336896, "lon": 22.7272924, "tags": {"addr:city": "\u0386\u03c1\u03b3\u03bf\u03c2", "addr:housenumber": "14", "addr:postcode": "21232", "addr:street": "\u039a\u03b1\u03c0\u03bf\u03b4\u03b9\u03c3\u03c4\u03c1\u03af\u03bf\u03c5", "amenity": "pharmacy", "healthcare": "pharmacy", "name": "\u039c\u03c0\u03ac\u03c1\u03bb\u03b1\u03c2 \u0395\u03c5\u03ac\u03b3\u03b3\u03b5\u03bb\u03bf\u03c2", "official_name": "\u039d\u03ad\u03bf \u03a6\u03b1\u03c1\u03bc\u03b1\u03ba\u03b5\u03af\u03bf", "phone": "+30 2751 022400", "ref:vatin": "EL800645062"}}, {"type": "node", "id": 5841799128, "lat": 37.634733, "lon": 22.72714, "tags": {"addr:city": "\u0386\u03c1\u03b3\u03bf\u03c2", "addr:housenumber": "1\u03b2", "addr:postcode": "21232", "addr:street": "\u0392\u03b1\u03c3\u03b9\u03bb\u03af\u03c3\u03c3\u03b7\u03c2 \u038c\u03bb\u03b3\u03b1\u03c2", "amenity": "pharmacy", "healthcare": "pharmacy", "name": "\u03a0\u03b1\u03bd\u03b1\u03b3\u03b9\u03c9\u03c4\u03cc\u03c0\u03bf\u03c5\u03bb\u03bf\u03c2 \u0391\u03bd\u03b1\u03c3\u03c4\u03ac\u03c3\u03b9\u03bf\u03c2", "phone": "+30 2751 400787", "ref:vatin": "EL114901001"}}, {"type": "node", "id": 5841801702, "lat": 37.5671154, "lon": 22.801901, "tags": {"addr:city": "\u039d\u03b1\u03cd\u03c0\u03bb\u03b9\u03bf", "addr:housenumber": "37", "addr:postcode": "21100", "addr:street": "\u039c\u03c0\u03bf\u03c5\u03bc\u03c0\u03bf\u03c5\u03bb\u03af\u03bd\u03b1\u03c2", "amenity": "pharmacy", "healthcare": "pharmacy", "name": "\u039c\u03ad\u03bb\u03bb\u03bf\u03c5 - \u03a0\u03b1\u03c0\u03b1\u03b4\u03b7\u03bc\u03cc\u03c0\u03bf\u03c5\u03bb\u03bf\u03c2"}}, {"type": "node", "id": 6037328056, "lat": 37.5530901, "lon": 22.71673, "tags": {"amenity": "pharmacy", "healthcare": "pharmacy", "name": "\u039a\u03bf\u03b9\u03bd\u03c9\u03bd\u03af\u03b1 \u039a\u03bb\u03b7\u03c1\u03bf\u03bd\u03cc\u03bc\u03c9\u03bd \u039a\u03b1\u03c4\u03c3\u03b1\u03c1\u03bf\u03cd \u03a0\u03b1\u03bd\u03b1\u03b3\u03b9\u03ce\u03c4\u03b7", "phone": "+30 2751 047565"}}, {"type": "node", "id": 6959991906, "lat": 37.5655775, "lon": 22.7996252}, {"type": "node", "id": 6959991907, "lat": 37.5655712, "lon": 22.7996483}, {"type": "node", "id": 6959991912, "lat": 37.5657081, "lon": 22.7997615}, {"type": "node", "id": 6959991913, "lat": 37.565588, "lon": 22.7997572}, {"type": "node", "id": 6959991914, "lat": 37.5655882, "lon": 22.7997454}, {"type": "node", "id": 6959991915, "lat": 37.5655695, "lon": 22.7997449}, {"type": "node", "id": 6959991916, "lat": 37.5655783, "lon": 22.7995854}, {"type": "node", "id": 6959991917, "lat": 37.5656174, "lon": 22.7995865}, {"type": "node", "id": 6959991918, "lat": 37.5656183, "lon": 22.7995395}, {"type": "node", "id": 6959996417, "lat": 37.5657065, "lon": 22.7995421}, {"type": "node", "id": 6959996418, "lat": 37.5656491, "lon": 22.7995404}, {"type": "node", "id": 7218046105, "lat": 37.6385218, "lon": 22.8082686, "tags": {"amenity": "pharmacy", "healthcare": "pharmacy"}}, {"type": "node", "id": 7502196001, "lat": 37.6358792, "lon": 22.7323542, "tags": {"addr:city": "\u0386\u03c1\u03b3\u03bf\u03c2", "addr:housenumber": "57", "addr:postcode": "21231", "addr:street": "\u0399\u03bd\u03ac\u03c7\u03bf\u03c5", "amenity": "pharmacy", "dispensing": "yes", "healthcare": "pharmacy", "name": "\u039c\u03c5\u03c4\u03c4\u03ac\u03c2 \u0399\u03c9\u03ac\u03bd\u03bd\u03b7\u03c2"}}, {"type": "node", "id": 7502237298, "lat": 37.6351697, "lon": 22.7278602}, {"type": "node", "id": 7577834635, "lat": 37.5253748, "lon": 22.72489, "tags": {"amenity": "pharmacy", "dispensing": "yes", "healthcare": "pharmacy", "name": "\u039a\u03b1\u03c4\u03c3\u03b1\u03c1\u03bf\u03cd \u0391\u03b3\u03b3\u03b5\u03bb\u03b9\u03ba\u03ae", "phone": "+30 2751 047411"}}, {"type": "node", "id": 7578226864, "lat": 37.6428351, "lon": 22.7282882, "tags": {"addr:city": "\u0386\u03c1\u03b3\u03bf\u03c2", "addr:housenumber": "184", "addr:postcode": "21231", "addr:street": "\u0397\u03c1\u03b1\u03ba\u03bb\u03ad\u03bf\u03c5\u03c2", "amenity": "pharmacy", "dispensing": "yes", "healthcare": "pharmacy", "name": "\u0391\u03c0\u03bf\u03c3\u03c4\u03bf\u03bb\u03cc\u03c0\u03bf\u03c5\u03bb\u03bf\u03c2 \u039c\u03af\u03bb\u03c4\u03bf\u03c2"}}, {"type": "node", "id": 7578226865, "lat": 37.6430881, "lon": 22.7285743}, {"type": "node", "id": 7578226866, "lat": 37.6430334, "lon": 22.7287951}, {"type": "node", "id": 7578226867, "lat": 37.6430752, "lon": 22.7288117}, {"type": "node", "id": 7578226868, "lat": 37.6430936, "lon": 22.7288504}, {"type": "node", "id": 7578226869, "lat": 37.643136, "lon": 22.7288183}, {"type": "node", "id": 7578226870, "lat": 37.6431225, "lon": 22.72879}, {"type": "node", "id": 7578226871, "lat": 37.6431324, "lon": 22.7287552}, {"type": "node", "id": 7578226872, "lat": 37.6431035, "lon": 22.7287421}, {"type": "node", "id": 7578226873, "lat": 37.6431257, "lon": 22.7286638}, {"type": "node", "id": 7691699045, "lat": 37.6352201, "lon": 22.727878}, {"type": "node", "id": 7691699047, "lat": 37.6352072, "lon": 22.7279397}, {"type": "node", "id": 7691699050, "lat": 37.6351553, "lon": 22.7279196}, {"type": "node", "id": 7708058113, "lat": 37.6339338, "lon": 22.7282184, "tags": {"addr:city": "\u0386\u03c1\u03b3\u03bf\u03c2", "addr:housenumber": "4", "addr:postcode": "21232", "addr:street": "\u0394\u03b1\u03bd\u03b1\u03bf\u03cd", "amenity": "pharmacy", "full_name": "\u03a3\u03c5\u03c3\u03c4\u03b5\u03b3\u03b1\u03c3\u03bc\u03ad\u03bd\u03b1 \u03a6\u03b1\u03c1\u03bc\u03b1\u03ba\u03b5\u03af\u03b1 \u03a3\u03b1\u03c1\u03b1\u03bd\u03c4\u03bf\u03c0\u03bf\u03cd\u03bb\u03bf\u03c5 \u0399\u03c9\u03ac\u03bd\u03bd\u03b1 - \u039c\u03c0\u03b9\u03bc\u03c0\u03ae \u0391\u03bd\u03b1\u03c3\u03c4\u03b1\u03c3\u03af\u03b1 - \u0391\u03bd\u03c4\u03c9\u03bd\u03b9\u03ac\u03b4\u03b7\u03c2 \u0395. - \u039b\u03b5\u03c9\u03bd\u03af\u03b4\u03b1\u03c2 \u039a.", "healthcare": "pharmacy", "name": "\u03a3\u03b1\u03c1\u03b1\u03bd\u03c4\u03bf\u03c0\u03bf\u03cd\u03bb\u03bf\u03c5 \u0399. - \u039c\u03c0\u03b9\u03bc\u03c0\u03ae \u0391\u03bd.", "phone": "+30 2751 068487"}}, {"type": "node", "id": 7731471353, "lat": 37.6356946, "lon": 22.7296264, "tags": {"addr:city": "\u0386\u03c1\u03b3\u03bf\u03c2", "addr:housenumber": "12", "addr:postcode": "21231", "addr:street": "\u0391\u03b3\u03b3\u03b5\u03bb\u03ae \u039c\u03c0\u03cc\u03bc\u03c0\u03bf\u03c5", "amenity": "pharmacy", "dispensing": "yes", "full_name": "\u03a3\u03c5\u03c3\u03c4\u03b5\u03b3\u03b1\u03c3\u03bc\u03ad\u03bd\u03b1 \u03a6\u03b1\u03c1\u03bc\u03b1\u03ba\u03b5\u03af\u03b1 \u039a\u03b1\u03c4\u03c3\u03b1\u03c1\u03bf\u03cd \u0391\u03b3\u03b3\u03b5\u03bb\u03b9\u03ba\u03ae - \u0396\u03b1\u03b2\u03b1\u03bb\u03b9\u03ad\u03c1\u03b7 \u03a7\u03ac\u03c1\u03b7", "healthcare": "pharmacy", "name": "\u039a\u03b1\u03c4\u03c3\u03b1\u03c1\u03bf\u03cd \u0391. -\u0396\u03b1\u03b2\u03b1\u03bb\u03b9\u03ad\u03c1\u03b7 \u03a7.", "phone": "+30 2751 066460"}}, {"type": "node", "id": 7774012601, "lat": 37.6320869, "lon": 22.7272216, "tags": {"addr:city": "\u0386\u03c1\u03b3\u03bf\u03c2", "addr:housenumber": "35", "addr:postcode": "21232", "addr:street": "\u0394\u03b1\u03bd\u03b1\u03bf\u03cd", "amenity": "pharmacy", "dispensing": "yes", "healthcare": "pharmacy", "name": "\u03a4\u03c3\u03cc\u03ba\u03bf\u03bb\u03b1\u03c2 \u0393\u03b5\u03ce\u03c1\u03b3\u03b9\u03bf\u03c2", "phone": "+30 2751 022965", "ref:vatin": "EL135559449"}}, {"type": "node", "id": 7918119037, "lat": 37.6358842, "lon": 22.7263241, "tags": {"amenity": "pharmacy", "dispensing": "yes", "healthcare": "pharmacy", "name": "\u0394\u03b9\u03b1\u03bc\u03b1\u03bd\u03c4\u03ae\u03c2 \u0395\u03c5\u03c3\u03c4\u03c1\u03ac\u03c4\u03b9\u03bf\u03c2"}}, {"type": "node", "id": 7918119038, "lat": 37.635396, "lon": 22.7269371, "tags": {"addr:city": "\u0386\u03c1\u03b3\u03bf\u03c2", "addr:housenumber": "27", "addr:postcode": "21232", "addr:street": "\u0392\u03b1\u03c3\u03b9\u03bb\u03ad\u03c9\u03c2 \u039a\u03c9\u03bd\u03c3\u03c4\u03b1\u03bd\u03c4\u03af\u03bd\u03bf\u03c5", "amenity": "pharmacy", "dispensing": "yes", "healthcare": "pharmacy", "name": "\u039a\u03cc\u03bb\u03b9\u03b1 \u03a7\u03c1\u03b9\u03c3\u03c4\u03af\u03bd\u03b1"}}, {"type": "node", "id": 7924343581, "lat": 37.6641476, "lon": 22.7498072, "tags": {"addr:city": "\u038a\u03bd\u03b1\u03c7\u03bf\u03c2", "addr:postcode": "21200", "addr:street": "\u03a0\u03bb\u03b1\u03c4\u03b5\u03af\u03b1 \u0391\u03b3\u03af\u03bf\u03c5 \u0394\u03b7\u03bc\u03b7\u03c4\u03c1\u03af\u03bf\u03c5", "amenity": "pharmacy", "dispensing": "yes", "healthcare": "pharmacy", "name": "\u03a0\u03b9\u03c0\u03ad\u03c1\u03bf\u03c2 \u0397\u03bb\u03af\u03b1\u03c2 \u03a0\u03b1\u03bd\u03b1\u03b3\u03b9\u03ce\u03c4\u03b7\u03c2", "phone": "+30 27510 31210", "source": "http://www.fsargolidas.gr/meli-sillogou.html"}}, {"type": "node", "id": 8120900257, "lat": 37.5863965, "lon": 22.743911, "tags": {"amenity": "pharmacy", "dispensing": "yes", "healthcare": "pharmacy", "name": "\u039a\u03bf\u03c5\u03c1\u03b9\u03ce\u03c4\u03b7\u03c2 \u039a\u03c9\u03bd\u03c3\u03c4\u03b1\u03bd\u03c4\u03af\u03bd\u03bf\u03c2", "phone": "+30 2751 051835"}}, {"type": "node", "id": 8380986976, "lat": 37.5655734, "lon": 22.8081273, "tags": {"amenity": "pharmacy", "healthcare": "pharmacy", "name": "\u03b4\u03c1\u03cc\u03b3\u03b5\u03c2"}}, {"type": "node", "id": 9123143916, "lat": 37.6120807, "lon": 23.0385269, "tags": {"addr:city": "\u039b\u03c5\u03b3\u03bf\u03c5\u03c1\u03b9\u03cc", "addr:housenumber": "97", "addr:postcode": "21052", "addr:street": "\u0391\u03c3\u03ba\u03bb\u03b7\u03c0\u03b9\u03bf\u03cd", "amenity": "pharmacy", "dispensing": "yes", "healthcare": "pharmacy", "name": "\u0393\u03ba\u03bf\u03b2\u03ac\u03c4\u03b7\u03c2 \u039c\u03b9\u03c7\u03b1\u03ae\u03bb", "phone": "+30 2753 022215"}}, {"type": "node", "id": 9123198117, "lat": 37.6117558, "lon": 23.0396583, "tags": {"addr:city": "\u039b\u03c5\u03b3\u03bf\u03c5\u03c1\u03b9\u03cc", "addr:housenumber": "126", "addr:postcode": "21052", "addr:street": "\u0391\u03c3\u03ba\u03bb\u03b7\u03c0\u03b9\u03bf\u03cd", "amenity": "pharmacy", "dispensing": "yes", "healthcare": "pharmacy", "name": "\u03a4\u03bf\u03c5\u03c1\u03bb\u03bf\u03cd\u03ba\u03b7 \u03a7\u03c1\u03c5\u03c3\u03bf\u03cd\u03bb\u03b1", "phone": "+30 2753 022890"}}, {"type": "node", "id": 9265249326, "lat": 37.6342922, "lon": 22.7266356, "tags": {"addr:city": "\u0386\u03c1\u03b3\u03bf\u03c2", "addr:housenumber": "17", "addr:postcode": "21232", "addr:street": "\u039a\u03b1\u03bb\u03bb\u03ad\u03c1\u03b3\u03b7", "amenity": "pharmacy", "dispensing": "yes", "healthcare": "pharmacy", "name": "\u03a0\u03b1\u03b9\u03b4\u03ac\u03ba\u03b7\u03c2 \u03a3\u03c9\u03c4\u03ae\u03c1\u03b9\u03bf\u03c2", "phone": "+30 2751 067615"}}, {"type": "node", "id": 9377073754, "lat": 37.6332716, "lon": 22.7285775, "tags": {"addr:city": "\u0386\u03c1\u03b3\u03bf\u03c2", "addr:housenumber": "25", "addr:postcode": "21232", "addr:street": "\u039a\u03b1\u03c0\u03bf\u03b4\u03b9\u03c3\u03c4\u03c1\u03af\u03bf\u03c5", "amenity": "pharmacy", "dispensing": "yes", "healthcare": "pharmacy", "name": "\u039c\u03c0\u03b1\u03bd\u03c4\u03b1\u03bd\u03ac \u039a\u03c9\u03bd\u03c3\u03c4\u03b1\u03bd\u03c4\u03af\u03bd\u03b1", "phone": "+30 2751 089555", "ref:vatin": "EL123893805"}}, {"type": "node", "id": 9424844891, "lat": 37.8095191, "lon": 22.8697117, "tags": {"amenity": "pharmacy", "healthcare": "pharmacy"}}, {"type": "node", "id": 9424887009, "lat": 37.7874677, "lon": 22.8634648, "tags": {"amenity": "pharmacy", "healthcare": "pharmacy"}}, {"type": "node", "id": 9461787959, "lat": 37.58751, "lon": 22.7450574, "tags": {"amenity": "pharmacy", "healthcare": "pharmacy", "name": "\u0394\u03b5\u03bb\u03b7\u03b3\u03b9\u03bf\u03c1\u03af\u03b4\u03bf\u03c5 \u03a0\u03b1\u03bd\u03b1\u03b3\u03b9\u03ce\u03c4\u03b1 \u03ba\u03b1\u03b9 \u03a3\u0399\u0391 \u039f.\u0395.", "phone": "+30 2751 051597"}}, {"type": "node", "id": 9461837862, "lat": 37.5728054, "lon": 22.8293783, "tags": {"amenity": "pharmacy", "dispensing": "yes", "healthcare": "pharmacy", "name": "\u039c\u03b1\u03bd\u03c4\u03ac \u039c\u03b5\u03c4\u03b1\u03be\u03af\u03b1"}}, {"type": "node", "id": 9461837863, "lat": 37.5728936, "lon": 22.8333851, "tags": {"amenity": "pharmacy", "dispensing": "yes", "healthcare": "pharmacy", "name": "\u039c\u03c0\u03ac\u03c1\u03bb\u03b1 \u0395\u03bb\u03ad\u03bd\u03b7", "phone": "+30 2752 110217"}}, {"type": "node", "id": 9461837864, "lat": 37.5727531, "lon": 22.8319569, "tags": {"amenity": "pharmacy", "dispensing": "yes", "healthcare": "pharmacy", "name": "\u03a6\u03bf\u03c5\u03c3\u03c4\u03bf\u03cd\u03ba\u03bf\u03c5 \u039a\u03b1\u03bd\u03ad\u03bb\u03bb\u03b1 - Capsula"}}, {"type": "node", "id": 9730350038, "lat": 37.9172856, "lon": 22.9993443, "tags": {"amenity": "pharmacy", "healthcare": "pharmacy"}}, {"type": "node", "id": 9732877041, "lat": 37.9380189, "lon": 22.935938, "tags": {"amenity": "pharmacy", "healthcare": "pharmacy", "name": "\u0394\u03b1\u03bd\u03b1\u03ae \u0394. \u039c\u03bf\u03c5\u03c3\u03c4\u03ac\u03ba\u03b1"}}, {"type": "node", "id": 9732912537, "lat": 37.937645, "lon": 22.9315172, "tags": {"amenity": "pharmacy", "healthcare": "pharmacy", "name": "\u039c\u03b7\u03c4\u03c1\u03bf\u03c5", "wheelchair": "designated"}}, {"type": "node", "id": 9732915444, "lat": 37.9376364, "lon": 22.9309267, "tags": {"amenity": "pharmacy", "healthcare": "pharmacy"}}, {"type": "node", "id": 9733187548, "lat": 37.9379654, "lon": 22.9376742, "tags": {"amenity": "pharmacy", "healthcare": "pharmacy"}}, {"type": "node", "id": 9734711554, "lat": 37.9365961, "lon": 22.9298112, "tags": {"amenity": "pharmacy", "healthcare": "pharmacy"}}, {"type": "node", "id": 9734711567, "lat": 37.9353277, "lon": 22.9288762, "tags": {"amenity": "pharmacy", "healthcare": "pharmacy"}}, {"type": "node", "id": 9734711575, "lat": 37.9358966, "lon": 22.9263176, "tags": {"amenity": "pharmacy", "healthcare": "pharmacy"}}, {"type": "node", "id": 9735128867, "lat": 37.9355057, "lon": 22.8430081, "tags": {"amenity": "pharmacy", "healthcare": "pharmacy"}}, {"type": "node", "id": 9737166482, "lat": 37.8036805, "lon": 22.793363, "tags": {"amenity": "pharmacy", "healthcare": "pharmacy"}}, {"type": "node", "id": 9970933817, "lat": 37.5991949, "lon": 22.8444952, "tags": {"addr:postcode": "21100", "amenity": "pharmacy", "healthcare": "pharmacy", "name": "\u03a6\u03b1\u03c1\u03bc\u03b1\u03ba\u03b5\u03b9\u03bf \u03a0\u03b1\u03c0\u03b1\u03b9\u03c9\u03b1\u03bd\u03bd\u03bf\u03c5", "name:el": "\u03a6\u03b1\u03c1\u03bc\u03b1\u03ba\u03b5\u03b9\u03bf \u03a0\u03b1\u03c0\u03b1\u03b9\u03c9\u03b1\u03bd\u03bd\u03bf\u03c5", "name:en": "Papaioannou Pharmacy", "phone": "+302752097170"}}, {"type": "node", "id": 12388478419, "lat": 37.6342695, "lon": 22.7819263, "tags": {"amenity": "pharmacy", "healthcare": "pharmacy", "name": "\u03a3\u03c4\u03b1\u03cd\u03c1\u03bf\u03c5 \u0395\u03bb\u03c0\u03b9\u03bd\u03af\u03ba\u03b7"}}, {"type": "node", "id": 12415315153, "lat": 37.6435639, "lon": 22.7294318, "tags": {"addr:city": "\u0386\u03c1\u03b3\u03bf\u03c2", "addr:housenumber": "200", "addr:postcode": "21231", "addr:street": "\u039a\u03bf\u03c1\u03af\u03bd\u03b8\u03bf\u03c5", "amenity": "pharmacy", "healthcare": "pharmacy", "name": "\u0391\u03c5\u03b3\u03bf\u03c5\u03c3\u03c4\u03cc\u03c0\u03bf\u03c5\u03bb\u03bf\u03c2 \u0392\u03b1\u03c3\u03af\u03bb\u03b5\u03b9\u03bf\u03c2"}}, {"type": "node", "id": 13144920982, "lat": 37.8623566, "lon": 22.9966888, "tags": {"addr:city": "\u039b\u03bf\u03c5\u03c4\u03c1\u03ac \u03a9\u03c1\u03b1\u03af\u03b1\u03c2 \u0395\u03bb\u03ad\u03bd\u03b7\u03c2", "addr:postcode": "21000", "amenity": "pharmacy", "name": "\u0393\u03ba\u03ad\u03bb\u03b7 \u039c\u03b1\u03c1\u03af\u03b1"}}, {"type": "way", "id": 743631825, "nodes": [6959996417, 6959996418, 6959991918, 6959991917, 6959991916, 6959991906, 6959991907, 6959991915, 6959991914, 6959991913, 6959991912, 6959996417], "tags": {"amenity": "pharmacy", "building": "yes", "healthcare": "pharmacy", "historic": "yes", "name": "\u03a0\u03c1\u03ce\u03c4\u03bf \u03a6\u03b1\u03c1\u03bc\u03b1\u03ba\u03b5\u03af\u03bf \u03c4\u03b7\u03c2 \u0395\u03bb\u03bb\u03ac\u03b4\u03bf\u03c2"}}, {"type": "way", "id": 810518348, "nodes": [7578226865, 7578226866, 7578226867, 7578226868, 7578226869, 7578226870, 7578226871, 7578226872, 7578226873, 7578226865], "tags": {"addr:city": "\u0386\u03c1\u03b3\u03bf\u03c2", "addr:housenumber": "186", "addr:postcode": "21231", "addr:street": "\u0397\u03c1\u03b1\u03ba\u03bb\u03ad\u03bf\u03c5\u03c2", "amenity": "pharmacy", "building": "yes", "dispensing": "yes", "healthcare": "pharmacy", "name": "\u03a4\u03b1\u03c1\u03bd\u03ac\u03c1\u03b7 \u03a3\u03bf\u03c6\u03af\u03b1 \u03ba\u03b1\u03b9 \u03a3\u0399\u0391 \u039f.\u0395."}}, {"type": "way", "id": 823824858, "nodes": [7691699045, 7691699047, 7691699050, 7502237298, 7691699045], "tags": {"addr:city": "\u0386\u03c1\u03b3\u03bf\u03c2", "addr:housenumber": "7", "addr:postcode": "21232", "addr:street": "\u0392\u03b1\u03c3\u03b9\u03bb\u03ad\u03c9\u03c2 \u039a\u03c9\u03bd\u03c3\u03c4\u03b1\u03bd\u03c4\u03af\u03bd\u03bf\u03c5", "amenity": "pharmacy", "building": "yes", "building:levels": "1", "dispensing": "yes", "healthcare": "pharmacy", "name": "\u03a0\u03b1\u03c0\u03b1\u03b3\u03b5\u03c9\u03c1\u03b3\u03af\u03bf\u03c5 \u0391\u03c0\u03cc\u03c3\u03c4\u03bf\u03bb\u03bf\u03c2", "phone": "+30 27510 67554", "ref:vatin": "EL082853804"}}]}