{"version": 0.6, "generator": "Overpass API 0.7.62.8 e802775f", "osm3s": {"timestamp_osm_base": "2025-10-06T08:11:00Z", "copyright": "The data included in this document is from www.openstreetmap.org. The data is made available under ODbL."}, "elements": [{"type": "node", "id": 1853179194, "lat": 50.8764245, "lon": 18.4210961}, {"type": "node", "id": 1853179195, "lat": 50.8764405, "lon": 18.4207403}, {"type": "node", "id": 1853179203, "lat": 50.8765207, "lon": 18.4211029}, {"type": "node", "id": 1853179206, "lat": 50.8765299, "lon": 18.4207466}, {"type": "node", "id": 2154541992, "lat": 50.5590213, "lon": 18.8785918, "tags": {"amenity": "pharmacy", "dispensing": "yes", "healthcare": "pharmacy", "name": "Apteka \"Rodzinna\"", "ref:csioz": "1063384"}}, {"type": "node", "id": 2266625762, "lat": 50.5727741, "lon": 18.1557113, "tags": {"addr:city": "Izbicko", "addr:housenumber": "12", "addr:postcode": "47-180", "addr:street": "Powsta\u0144c\u00f3w \u015al\u0105skich", "amenity": "pharmacy", "name": "Vademecum", "ref:csioz": "1107221", "source": "http://sdi.opolskie.pl/mapa_bazowa/request.aspx"}}, {"type": "node", "id": 2406104983, "lat": 50.8764296, "lon": 18.4209187}, {"type": "node", "id": 2406104985, "lat": 50.8764354, "lon": 18.4209191}, {"type": "node", "id": 2603405750, "lat": 50.7074776, "lon": 18.7512207}, {"type": "node", "id": 2603405762, "lat": 50.7075097, "lon": 18.7512988}, {"type": "node", "id": 2603405782, "lat": 50.7075435, "lon": 18.751261}, {"type": "node", "id": 2603405811, "lat": 50.707589, "lon": 18.7513715}, {"type": "node", "id": 3071677333, "lat": 50.8776089, "lon": 18.4165433, "tags": {"addr:city": "Olesno", "addr:housenumber": "18", "addr:postcode": "46-300", "addr:street": "Juliusza S\u0142owackiego", "amenity": "pharmacy", "name": "Apteka \"Osiedlowa\"", "operator": "Maciej Kokot", "phone": "+48 34 358 31 74", "ref:csioz": "1108469"}}, {"type": "node", "id": 3080466565, "lat": 50.8770327, "lon": 18.4184017, "tags": {"addr:city": "Olesno", "addr:housenumber": "28", "addr:postcode": "46-300", "addr:street": "Ma\u0142e Przedmie\u015bcie", "amenity": "pharmacy", "name": "Apteka Rodzinna", "operator": "Maciej Zaklika", "phone": "+48 34 359 81 76", "ref:csioz": "1108416"}}, {"type": "node", "id": 3081294422, "lat": 50.8779795, "lon": 18.4214313, "tags": {"addr:city": "Olesno", "addr:housenumber": "8", "addr:postcode": "46-300", "addr:street": "Jana Pieloka", "amenity": "pharmacy", "healthcare": "pharmacy", "name": "Apteka Prywatna", "operator": "Maciej Kokot", "phone": "+48 34 358 26 61", "ref:csioz": "1108434"}}, {"type": "node", "id": 3081294423, "lat": 50.8775195, "lon": 18.4215229, "tags": {"addr:city": "Olesno", "addr:housenumber": "3", "addr:postcode": "46-300", "addr:street": "Jana Pieloka", "amenity": "pharmacy", "healthcare": "pharmacy", "name": "Apteka", "operator": "Bernadeta Kunicka", "phone": "+48 34 358 42 45", "ref:csioz": "1108427"}}, {"type": "node", "id": 3167217419, "lat": 50.8780809, "lon": 18.4203611, "tags": {"addr:city": "Olesno", "addr:housenumber": "5B", "addr:postcode": "46-300", "addr:street": "Ma\u0142e Przedmie\u015bcie", "amenity": "pharmacy", "dispensing": "yes", "name": "Malwa", "operator": "Bernadeta Kunicka", "phone": "+48 662 949 124", "ref:csioz": "1108403"}}, {"type": "node", "id": 3509595832, "lat": 50.8789507, "lon": 18.4206076, "tags": {"addr:city": "Olesno", "addr:housenumber": "13", "addr:postcode": "46-300", "addr:street": "Jana Pieloka", "amenity": "pharmacy", "healthcare": "pharmacy", "name": "Apteka \"Na dobre i na z\u0142e\"", "operator": "Maciej Zaklika", "phone": "+48 34 358 33 25", "ref:csioz": "1188710"}}, {"type": "node", "id": 3509595833, "lat": 50.8810296, "lon": 18.4129402, "tags": {"amenity": "pharmacy", "name": "Na zdrowie", "operator": "Marek Tomk\u00f3w", "phone": "+48 34 350 96 50"}}, {"type": "node", "id": 4334408149, "lat": 50.604042, "lon": 18.4866166}, {"type": "node", "id": 4334408607, "lat": 50.6038104, "lon": 18.4864084}, {"type": "node", "id": 4334408619, "lat": 50.6038729, "lon": 18.4863142}, {"type": "node", "id": 4334408623, "lat": 50.603907, "lon": 18.4863799}, {"type": "node", "id": 4334408628, "lat": 50.6039336, "lon": 18.4863421}, {"type": "node", "id": 4334408632, "lat": 50.6039629, "lon": 18.4864777}, {"type": "node", "id": 4334408634, "lat": 50.6039797, "lon": 18.4867046}, {"type": "node", "id": 4334408637, "lat": 50.6039898, "lon": 18.4864402}, {"type": "node", "id": 4512246616, "lat": 50.8765366, "lon": 18.4208492}, {"type": "node", "id": 4512246617, "lat": 50.8765376, "lon": 18.4208145}, {"type": "node", "id": 4512246618, "lat": 50.876528, "lon": 18.4208138}, {"type": "node", "id": 4512246619, "lat": 50.8765279, "lon": 18.4208485}, {"type": "node", "id": 4618015823, "lat": 50.6710145, "lon": 18.6784971, "tags": {"addr:city": "Lubliniec", "addr:housenumber": "4", "addr:postcode": "42-700", "addr:street": "Targowa", "amenity": "pharmacy", "dispensing": "yes", "drive_through": "no", "healthcare": "pharmacy", "name": "Arnika", "openfire": "24h", "opening_hours": "24/7", "phone": "+48 34 341 14 01", "ref:csioz": "1065468", "website": "http://www.aptekiarnika.pl/index.php?option=com_content&view=article&id=70:lubliniec&catid=39:nasze-apteki&Itemid=87"}}, {"type": "node", "id": 4618017946, "lat": 50.6697229, "lon": 18.6851074, "tags": {"addr:city": "Lubliniec", "addr:housenumber": "15H", "addr:postcode": "42-700", "addr:street": "Karola Miarki", "amenity": "pharmacy", "dispensing": "yes", "drive_through": "no", "healthcare": "pharmacy", "name": "Centrum", "opening_hours": "Mo-Fr 08:00-20:00; Sa 08:00-16:00", "phone": "+48 34 351 10 56", "ref:csioz": "1065396"}}, {"type": "node", "id": 4693456221, "lat": 50.6703889, "lon": 18.6829793, "tags": {"addr:city": "Lubliniec", "addr:housenumber": "17", "addr:postcode": "42-700", "addr:street": "Adama Mickiewicza", "amenity": "pharmacy", "dispensing": "yes", "drive_through": "no", "healthcare": "pharmacy", "opening_hours": "Mo-Fr 08:00-20:00; Sa 08:00-14:00", "phone": "+48 34 356 15 42", "ref:csioz": "1065413"}}, {"type": "node", "id": 4983372122, "lat": 50.6682806, "lon": 18.6855259, "tags": {"addr:city": "Lubliniec", "addr:housenumber": "2", "addr:postcode": "42-700", "addr:street": "Paw\u0142a Stalmacha", "amenity": "pharmacy", "dispensing": "yes", "drive_through": "no", "email": "apteka.podzlotawaga@op.pl", "healthcare": "pharmacy", "name": "Pod Z\u0142ot\u0105 Wag\u0105", "opening_hours": "Mo-Fr 07:00-20:00; Sa 07:00-14:00; Su 08:00-15:00", "phone": "+48 34 350 69 71", "ref:csioz": "1118976", "website": "https://www.facebook.com/Apteka-Pod-Z\u0142ot\u0105-Wag\u0105-998844126815241"}}, {"type": "node", "id": 5011384621, "lat": 50.6688018, "lon": 18.6836646, "tags": {"addr:city": "Lubliniec", "addr:housenumber": "8", "addr:postcode": "42-700", "addr:street": "J\u00f3zefa Lompy", "amenity": "pharmacy", "dispensing": "yes", "drive_through": "no", "healthcare": "pharmacy", "opening_hours": "Mo-Fr 08:00-20:00; Sa 08:00-14:00", "phone": "+48 34 351 10 57", "ref:csioz": "1065400"}}, {"type": "node", "id": 5036365819, "lat": 50.7646541, "lon": 18.3436302, "tags": {"addr:city": "Z\u0119bowice", "addr:housenumber": "23A", "addr:postcode": "46-048", "addr:street": "Oleska", "amenity": "pharmacy", "phone": "+48 77 421 63 38", "ref:csioz": "1109690"}}, {"type": "node", "id": 5321682762, "lat": 50.8795084, "lon": 18.4203044, "tags": {"addr:city": "Olesno", "addr:housenumber": "15F", "addr:postcode": "46-300", "addr:street": "Jana Pieloka", "amenity": "pharmacy", "dispensing": "yes", "healthcare": "pharmacy", "name": "Twoja Apteka", "phone": "34 375 00 80", "ref:csioz": "1203475"}}, {"type": "node", "id": 5454529946, "lat": 50.6795445, "lon": 18.6786881, "tags": {"addr:city": "Lubliniec", "addr:housenumber": "20 E", "addr:postcode": "42-700", "addr:street": "Oleska", "amenity": "pharmacy", "dispensing": "yes", "healthcare": "pharmacy", "name": "Apteka Artfarm", "opening_hours": "Mo-Fr 08:00-20:00; Sa 08:00-18:00; Su 09:00-18:00", "phone": "+48 34 374 37 72", "ref:csioz": "1185457"}}, {"type": "node", "id": 5454529955, "lat": 50.6667014, "lon": 18.6740095, "tags": {"addr:city": "Lubliniec", "addr:housenumber": "3", "addr:postcode": "42-700", "addr:street": "Marii Sk\u0142odowskiej-Curie", "amenity": "pharmacy", "branch": "Dga 25", "dispensing": "yes", "email": "dga25@lekosfera.pl", "fax": "+48 34 356 58 41", "healthcare": "pharmacy", "name": "Lekosfera", "opening_hours": "Mo-Fr 07:30-21:30; Sa 08:00-21:00; Su[-1] 09:00-21:00", "operator": "Dolno\u015bl\u0105ska Grupa Apteczna", "phone": "+48 34 356 58 40", "ref:csioz": "1215347", "website": "http://grupa-lekosfera.pl/apteka/apteka-lekosfera-dga25-w-kauflandzie-25"}}, {"type": "node", "id": 5454529956, "lat": 50.6643039, "lon": 18.6830734, "tags": {"addr:city": "Lubliniec", "addr:housenumber": "5", "addr:postcode": "42-700", "addr:street": "Majdanek", "amenity": "pharmacy", "dispensing": "yes", "drive_through": "no", "healthcare": "pharmacy", "name": "Apteka Wdz", "opening_hours": "Mo-Fr 08:00-22:00; Sa 08:00-16:00", "phone": "+48 34 351 10 50", "ref:csioz": "1186299"}}, {"type": "node", "id": 5454529957, "lat": 50.6696761, "lon": 18.6860139, "tags": {"addr:city": "Lubliniec", "addr:housenumber": "15C", "addr:postcode": "42-700", "addr:street": "Karola Miarki", "amenity": "pharmacy", "dispensing": "yes", "drive_through": "no", "healthcare": "pharmacy", "name": "Zdrowit", "opening_hours": "Mo-Fr 07:00-20:00; Sa 08:00-20:00", "phone": "+48 34 350 61 52", "ref:csioz": "1118660", "website": "https://aptekizdrowit.pl"}}, {"type": "node", "id": 5567998228, "lat": 50.6746676, "lon": 18.6843007, "tags": {"addr:city": "Lubliniec", "addr:housenumber": "17", "addr:postcode": "42-700", "addr:street": "Cz\u0119stochowska", "amenity": "pharmacy", "brand": "Dbam o Zdrowie", "brand:wikidata": "Q62563833", "dispensing": "yes", "drive_through": "no", "healthcare": "pharmacy", "name": "Dbam o Zdrowie", "opening_hours": "Mo-Su 08:00-20:00", "ref:csioz": "1065363", "short_name": "DOZ", "website": "https://www.doz.pl/apteki/a121185-DOZ_Apteka_Dbam_o_Zdrowie"}}, {"type": "node", "id": 5567998229, "lat": 50.6690068, "lon": 18.6820467, "tags": {"addr:city": "Lubliniec", "addr:housenumber": "6", "addr:postcode": "42-700", "addr:street": "Plac Konrada Ma\u0144ki", "amenity": "pharmacy", "dispensing": "yes", "drive_through": "no", "healthcare": "pharmacy", "name": "Nowa", "opening_hours": "Mo-Sa 08:00-20:00", "phone": "+48 34 351 10 53", "ref:csioz": "1065437"}}, {"type": "node", "id": 5567998232, "lat": 50.6659237, "lon": 18.6865718, "tags": {"addr:city": "Lubliniec", "addr:housenumber": "16", "addr:postcode": "42-700", "addr:street": "Paw\u0142a Stalmacha", "amenity": "pharmacy", "dispensing": "yes", "drive_through": "no", "healthcare": "pharmacy", "name": "Eliksir", "opening_hours": "Mo-Fr 07:30-20:00; Sa 08:00-14:00", "phone": "+48 34 351 03 75", "ref:csioz": "1065459"}}, {"type": "node", "id": 5909713321, "lat": 50.6798219, "lon": 18.2157458, "tags": {"addr:city": "Ozimek", "addr:housenumber": "1", "addr:postcode": "46-040", "addr:street": "Ksi\u0119dza Ka\u0142u\u017cy", "amenity": "pharmacy", "name": "Dbam o Zdrowie", "ref:csioz": "1109058"}}, {"type": "node", "id": 5909713322, "lat": 50.6784967, "lon": 18.2130192, "tags": {"addr:city": "Ozimek", "addr:housenumber": "2", "addr:postcode": "46-040", "addr:street": "Opolska", "amenity": "pharmacy", "name": "Apteka", "opening_hours": "Mo-Fr 07:30-19:00; Sa 08:00-15:00", "ref:csioz": "1109063"}}, {"type": "node", "id": 7893205022, "lat": 50.7076537, "lon": 18.7513009}, {"type": "node", "id": 7893205023, "lat": 50.7076083, "lon": 18.751112}, {"type": "node", "id": 8089611839, "lat": 50.6107459, "lon": 18.4744468, "tags": {"addr:city": "Zawadzkie", "addr:housenumber": "18", "addr:postcode": "47-120", "addr:street": "Opolska", "amenity": "pharmacy", "dispensing": "yes", "healthcare": "pharmacy", "name": "Apteka Na Schodkach", "ref:csioz": "1109615"}}, {"type": "node", "id": 8105907154, "lat": 50.6038983, "lon": 18.4863561}, {"type": "node", "id": 8397831614, "lat": 50.654342, "lon": 18.3853276, "tags": {"addr:city": "Kolonowskie", "addr:housenumber": "6", "addr:postcode": "47-110", "addr:street": "Le\u015bna", "amenity": "pharmacy", "dispensing": "yes", "healthcare": "pharmacy", "name": "Gemini", "opening_hours": "Mo-Fr 08:00-18:00; Su 08:00-14:00", "phone": "+48774611121", "ref:csioz": "1107730", "website": "www.apktekagemini.pl", "wheelchair": "yes"}}, {"type": "node", "id": 8443600728, "lat": 50.5107143, "lon": 18.2998855, "tags": {"addr:city": "Strzelce Opolskie", "addr:housenumber": "4", "addr:postcode": "47-100", "addr:street": "Rynek", "amenity": "pharmacy", "healthcare": "pharmacy", "name": "Sloneczna", "ref:csioz": "1182127"}}, {"type": "node", "id": 8851657046, "lat": 50.5119529, "lon": 18.2969087, "tags": {"addr:city": "Strzelce Opolskie", "addr:housenumber": "1A", "addr:postcode": "47-100", "addr:street": "Juliusza Ligonia", "amenity": "pharmacy", "healthcare": "pharmacy", "name": "Multifarm", "ref:csioz": "1199560"}}, {"type": "node", "id": 9077067130, "lat": 50.5669616, "lon": 18.5392311, "tags": {"addr:city": "Kielcza", "addr:housenumber": "32", "addr:postcode": "47-126", "addr:street": "Opolska", "amenity": "pharmacy", "dispensing": "yes", "healthcare": "pharmacy", "name": "Punkt Apteczny", "ref:csioz": "1228542"}}, {"type": "node", "id": 9610612013, "lat": 50.726959, "lon": 18.4474611, "tags": {"addr:city": "Dobrodzie\u0144", "addr:housenumber": "2", "addr:postcode": "46-380", "addr:street": "Parkowa", "amenity": "pharmacy", "dispensing": "yes", "healthcare": "pharmacy", "name": "Na Dobre I Na Z\u0142e", "phone": "343532062", "ref:csioz": "1195027"}}, {"type": "node", "id": 9610612016, "lat": 50.7282375, "lon": 18.4444955, "tags": {"addr:city": "Dobrodzie\u0144", "addr:housenumber": "2", "addr:postcode": "46-380", "addr:street": "Plac Wolno\u015bci", "amenity": "pharmacy", "dispensing": "yes", "name": "Apteka Rodzinna - Mgr Ryszard Konik", "ref:csioz": "1106893", "website": "https://apteline.pl/"}}, {"type": "node", "id": 9610633333, "lat": 50.7286611, "lon": 18.4427861, "tags": {"addr:city": "Dobrodzie\u0144", "addr:housenumber": "16", "addr:postcode": "46-380", "addr:street": "Plac Wolno\u015bci", "amenity": "pharmacy", "dispensing": "yes", "healthcare": "pharmacy", "ref:csioz": "1106908"}}, {"type": "node", "id": 9610851890, "lat": 50.48996, "lon": 18.4088561, "tags": {"addr:city": "B\u0142otnica Strzelecka", "addr:housenumber": "2", "addr:postcode": "47-100", "addr:street": "Centawska", "amenity": "pharmacy", "dispensing": "yes", "name": "Grzybek", "ref:csioz": "1109742"}}, {"type": "node", "id": 9610851891, "lat": 50.5065661, "lon": 18.2867861, "tags": {"addr:city": "Strzelce Opolskie", "addr:housenumber": "15", "addr:postcode": "47-100", "addr:street": "Osiedle Piast\u00f3w \u015al\u0105skich", "amenity": "pharmacy", "brand": "Dr. Max", "brand:wikidata": "Q56317371", "dispensing": "yes", "healthcare": "pharmacy", "name": "Dr. Max", "ref:csioz": "1109448"}}, {"type": "node", "id": 9610851892, "lat": 50.5108783, "lon": 18.310926, "tags": {"addr:city": "Strzelce Opolskie", "addr:housenumber": "16", "addr:postcode": "47-100", "addr:street": "Stanis\u0142awa Moniuszki", "amenity": "pharmacy", "dispensing": "yes", "healthcare": "pharmacy", "name": "Pro-Pharma Sp. Z O.O.", "ref:csioz": "1124957"}}, {"type": "node", "id": 9610851893, "lat": 50.6077513, "lon": 18.4793499, "tags": {"addr:city": "Zawadzkie", "addr:housenumber": "34", "addr:postcode": "47-120", "addr:street": "Opolska", "amenity": "pharmacy", "dispensing": "yes", "name": "Apteka Gemini", "ref:csioz": "1109628"}}, {"type": "node", "id": 9610851894, "lat": 50.5116305, "lon": 18.2982364, "tags": {"addr:city": "Strzelce Opolskie", "addr:housenumber": "6", "addr:postcode": "47-100", "addr:street": "Opolska", "amenity": "pharmacy", "brand": "Gemini", "brand:wikidata": "Q130243797", "dispensing": "yes", "healthcare": "pharmacy", "name": "Gemini", "ref:csioz": "1109420"}}, {"type": "node", "id": 9610851895, "lat": 50.512659, "lon": 18.3036277, "tags": {"addr:city": "Strzelce Opolskie", "addr:housenumber": "1A", "addr:postcode": "47-100", "addr:street": "Jordanowska", "amenity": "pharmacy", "dispensing": "yes", "healthcare": "pharmacy", "name": "Vita", "ref:csioz": "1109387"}}, {"type": "node", "id": 9610851896, "lat": 50.5423209, "lon": 18.380996, "tags": {"addr:city": "Jemielnica", "addr:housenumber": "16", "addr:postcode": "47-133", "addr:street": "Stara Kolonia", "amenity": "pharmacy", "dispensing": "yes", "name": "Apteka Prima Robert Buszman", "ref:csioz": "1166455"}}, {"type": "node", "id": 9610851897, "lat": 50.5114429, "lon": 18.303625, "tags": {"addr:city": "Strzelce Opolskie", "addr:housenumber": "9", "addr:postcode": "47-100", "addr:street": "Plac Stefana \u017beromskiego", "amenity": "pharmacy", "dispensing": "yes", "healthcare": "pharmacy", "name": "Apteka \u015al\u0105ska", "ref:csioz": "1109461"}}, {"type": "node", "id": 9610851898, "lat": 50.5436726, "lon": 18.3797353, "tags": {"addr:city": "Jemielnica", "addr:housenumber": "14c", "addr:postcode": "47-133", "addr:street": "Nowa Kolonia", "amenity": "pharmacy", "dispensing": "yes", "name": "\"Apteka Rodzinna \"\"Ewa\"\"\"", "ref:csioz": "1107245"}}, {"type": "node", "id": 9610851899, "lat": 50.6027874, "lon": 18.486262, "tags": {"addr:city": "Zawadzkie", "addr:housenumber": "70", "addr:postcode": "47-120", "addr:street": "Opolska", "amenity": "pharmacy", "dispensing": "yes", "name": "Apteka Nowa", "ref:csioz": "1109631"}}, {"type": "node", "id": 9610851901, "lat": 50.6092764, "lon": 18.4752434, "tags": {"addr:city": "Zawadzkie", "addr:housenumber": "6", "addr:postcode": "47-120", "addr:street": "Dworcowa", "amenity": "pharmacy", "dispensing": "yes", "name": "Apteka Cef@Rm 36,6", "ref:csioz": "1109602"}}, {"type": "node", "id": 9610851902, "lat": 50.5100374, "lon": 18.3046791, "tags": {"addr:city": "Strzelce Opolskie", "addr:housenumber": "7", "addr:postcode": "47-100", "addr:street": "Marka Prawego", "amenity": "pharmacy", "brand": "Dbam o Zdrowie", "brand:wikidata": "Q62563833", "dispensing": "yes", "healthcare": "pharmacy", "name": "Dbam o Zdrowie", "ref:csioz": "1109412", "short_name": "DOZ"}}, {"type": "node", "id": 9610851903, "lat": 50.5068527, "lon": 18.28861, "tags": {"addr:city": "Strzelce Opolskie", "addr:housenumber": "21", "addr:postcode": "47-100", "addr:street": "Osiedle Piast\u00f3w \u015al\u0105skich", "amenity": "pharmacy", "dispensing": "yes", "healthcare": "pharmacy", "name": "Libra", "ref:csioz": "1215953"}}, {"type": "node", "id": 9627619495, "lat": 50.5323204, "lon": 18.7217734, "tags": {"addr:city": "Twor\u00f3g", "addr:city:simc": "0223390", "addr:housenumber": "47", "addr:postcode": "42-690", "addr:street": "Zamkowa", "amenity": "pharmacy", "dispensing": "yes", "healthcare": "pharmacy", "ref:csioz": "1073510"}}, {"type": "node", "id": 9627685546, "lat": 50.5317875, "lon": 18.7179819, "tags": {"amenity": "pharmacy", "dispensing": "yes", "healthcare": "pharmacy", "name": "Maria\u0144ska", "ref:csioz": "1070272"}}, {"type": "node", "id": 9627685547, "lat": 50.5699537, "lon": 18.6179996, "tags": {"amenity": "pharmacy", "dispensing": "yes", "healthcare": "pharmacy", "name": "Apteka M\u0142y\u0144ska", "ref:csioz": "1065132"}}, {"type": "node", "id": 9631288478, "lat": 50.6817931, "lon": 18.220439, "tags": {"addr:city": "Ozimek", "addr:housenumber": "31", "addr:postcode": "46-040", "addr:street": "Cz\u0119stochowska", "amenity": "pharmacy", "dispensing": "yes", "name": "Dr. Max", "ref:csioz": "1109049"}}, {"type": "node", "id": 9631288479, "lat": 50.6228644, "lon": 18.136585, "tags": {"addr:city": "Daniec", "addr:housenumber": "12", "addr:postcode": "46-053", "addr:street": "D\u0119bskiej Ku\u017ani", "amenity": "pharmacy", "dispensing": "yes", "ref:csioz": "1109769"}}, {"type": "node", "id": 9631288480, "lat": 50.6801241, "lon": 18.2179123, "tags": {"addr:city": "Ozimek", "addr:housenumber": "19", "addr:postcode": "46-040", "addr:street": "Cz\u0119stochowska", "amenity": "pharmacy", "dispensing": "yes", "ref:csioz": "1109030"}}, {"type": "node", "id": 9631288483, "lat": 50.7636554, "lon": 18.2005021, "tags": {"addr:city": "Kad\u0142ub Turawski", "addr:housenumber": "4", "addr:postcode": "46-046", "addr:street": "G\u0142\u00f3wna", "amenity": "pharmacy", "dispensing": "yes", "healthcare": "pharmacy", "ref:csioz": "1109867"}}, {"type": "node", "id": 9685784037, "lat": 50.835045, "lon": 18.675334, "tags": {"addr:city": "\u0141ugi-Rad\u0142y", "addr:housenumber": "9a", "addr:postcode": "42-142", "addr:street": "Ko\u015bcielna", "amenity": "pharmacy", "dispensing": "yes", "healthcare": "pharmacy", "name": "Veris", "ref:csioz": "1179185"}}, {"type": "node", "id": 9689737208, "lat": 50.510167, "lon": 18.5370818, "tags": {"addr:city": "\u015awibie", "addr:housenumber": "4", "addr:postcode": "44-187", "addr:street": "G\u0142\u00f3wna", "amenity": "pharmacy", "dispensing": "yes", "healthcare": "pharmacy", "ref:csioz": "1172974"}}, {"type": "node", "id": 9689737211, "lat": 50.5084879, "lon": 18.6149523, "tags": {"addr:city": "Wielowie\u015b", "addr:housenumber": "47", "addr:postcode": "44-187", "addr:street": "G\u0142\u00f3wna", "amenity": "pharmacy", "dispensing": "yes", "healthcare": "pharmacy", "name": "Apteka S\u0105siedzka", "ref:csioz": "1210932"}}, {"type": "node", "id": 9689737216, "lat": 50.4652663, "lon": 18.4149367, "tags": {"addr:city": "Kotulin", "addr:housenumber": "10", "addr:postcode": "44-180", "addr:street": "Gliwicka", "amenity": "pharmacy", "dispensing": "yes", "healthcare": "pharmacy", "name": "Grzybek", "ref:csioz": "1072918"}}, {"type": "node", "id": 9713842301, "lat": 50.707644, "lon": 18.7512588}, {"type": "node", "id": 9713842302, "lat": 50.7075189, "lon": 18.7512056}, {"type": "node", "id": 9713842303, "lat": 50.7075102, "lon": 18.7511859}, {"type": "node", "id": 9713842304, "lat": 50.7076391, "lon": 18.7512647}, {"type": "node", "id": 9713842305, "lat": 50.7075791, "lon": 18.7512591, "tags": {"addr:city": "Kochanowice", "addr:housenumber": "2 D", "addr:postcode": "42-713", "addr:street": "Lubliniecka", "amenity": "pharmacy", "dispensing": "yes", "drive_through": "no", "healthcare": "pharmacy", "name": "Apteka Dla Wszystkich", "ref:csioz": "1211426"}}, {"type": "node", "id": 9713878516, "lat": 50.6944703, "lon": 18.5769383, "tags": {"addr:city": "Pawonk\u00f3w", "addr:housenumber": "11", "addr:postcode": "42-772", "addr:street": "Skrzyd\u0142owicka", "amenity": "pharmacy", "dispensing": "yes", "healthcare": "pharmacy", "name": "Vita", "ref:csioz": "1066473"}}, {"type": "node", "id": 9713909617, "lat": 50.8008788, "lon": 18.5725802, "tags": {"addr:city": "Sierak\u00f3w \u015al\u0105ski", "addr:housenumber": "24", "addr:postcode": "42-793", "addr:street": "Oleska", "amenity": "pharmacy", "dispensing": "yes", "healthcare": "pharmacy", "ref:csioz": "1119752"}}, {"type": "node", "id": 9713931854, "lat": 50.7546662, "lon": 18.6117316, "tags": {"addr:city": "Ciasna", "addr:housenumber": "9A", "addr:postcode": "42-793", "addr:street": "Zjednoczenia", "amenity": "pharmacy", "dispensing": "yes", "healthcare": "pharmacy", "name": "Eskulap", "ref:csioz": "1059751"}}, {"type": "node", "id": 9713947472, "lat": 50.6706006, "lon": 18.7534578, "tags": {"addr:city": "Sad\u00f3w", "addr:housenumber": "45A", "addr:postcode": "42-700", "addr:street": "Powsta\u0144c\u00f3w \u015al\u0105skich", "amenity": "pharmacy", "dispensing": "yes", "healthcare": "pharmacy", "name": "Na G\u00f3rce", "ref:csioz": "1073323"}}, {"type": "way", "id": 174662973, "nodes": [1853179203, 4512246619, 4512246616, 4512246617, 4512246618, 1853179206, 1853179195, 2406104985, 2406104983, 1853179194, 1853179203], "tags": {"addr:city": "Olesno", "addr:housenumber": "1", "addr:postcode": "46-300", "addr:street": "Wolno\u015bci", "amenity": "pharmacy", "building": "commercial", "name": "Dbam o Zdrowie", "phone": "+48 34 358 20 92", "ref:csioz": "1108475", "source": "http://sdi.opolskie.pl/mapa_bazowa/request.aspx"}}, {"type": "way", "id": 435533608, "nodes": [4334408632, 4334408637, 4334408628, 4334408623, 8105907154, 4334408619, 4334408607, 4334408634, 4334408149, 4334408632], "tags": {"addr:city": "Zawadzkie", "addr:housenumber": "55", "addr:postcode": "47-120", "addr:street": "Opolska", "amenity": "pharmacy", "building": "yes", "dispensing": "yes", "healthcare": "pharmacy", "name": "Dobra Apteka", "ref:csioz": "1177456", "source": "http://sdi.opolskie.pl/mapa_bazowa/request.aspx"}}, {"type": "way", "id": 846034309, "nodes": [7893205023, 9713842301, 9713842304, 7893205022, 2603405811, 2603405782, 2603405762, 2603405750, 9713842303, 9713842302, 7893205023], "tags": {"addr:city": "Kochanowice", "addr:city:simc": "0134657", "addr:housenumber": "2D", "addr:postcode": "42-713", "addr:street": "Lubliniecka", "addr:street:sym_ul": "11333", "amenity": "pharmacy", "building": "yes", "dispensing": "yes", "drive_through": "no", "healthcare": "pharmacy", "name": "Apteka Dla Wszystkich", "ref:csioz": "1211426", "source": "www.geoportal.gov.pl", "source:addr": "gugik.gov.pl"}}]}