{"version": 0.6, "generator": "Overpass API 0.7.62.8 e802775f", "osm3s": {"timestamp_osm_base": "2025-10-06T08:11:00Z", "copyright": "The data included in this document is from www.openstreetmap.org. The data is made available under ODbL."}, "elements": [{"type": "node", "id": 267287181, "lat": 50.2228838, "lon": 18.7207342, "tags": {"addr:city": "Giera\u0142towice", "addr:housenumber": "76", "addr:postcode": "44-186", "addr:street": "Ksi\u0119dza W\u0142adys\u0142awa Roboty", "amenity": "pharmacy", "dispensing": "yes", "healthcare": "pharmacy", "name": "\u015aw. Barbary", "ref:csioz": "1061795"}}, {"type": "node", "id": 274861172, "lat": 50.221659, "lon": 18.6737327, "tags": {"amenity": "pharmacy", "brand": "Dbam o Zdrowie", "brand:wikidata": "Q62563833", "healthcare": "pharmacy", "name": "Dbam o Zdrowie", "short_name": "DOZ"}}, {"type": "node", "id": 274861174, "lat": 50.222753, "lon": 18.6750804, "tags": {"addr:city": "Knur\u00f3w", "addr:housenumber": "8", "addr:postcode": "44-190", "addr:street": "Ksi\u0119dza Alojzego Kozie\u0142ka", "amenity": "pharmacy", "healthcare": "pharmacy", "name": "Apteka \u015aw. Barbary", "opening_hours": "24/7", "phone": "+48 32 235 13 64", "wheelchair": "limited"}}, {"type": "node", "id": 476584796, "lat": 50.2258402, "lon": 19.0633104, "tags": {"amenity": "pharmacy", "brand": "Dbam o Zdrowie", "brand:wikidata": "Q62563833", "dispensing": "yes", "healthcare": "pharmacy", "name": "Dbam o Zdrowie", "official_name": "Apteka 21", "ref:csioz": "1063857", "short_name": "DOZ"}}, {"type": "node", "id": 588142274, "lat": 50.3448786, "lon": 18.9167908, "tags": {"amenity": "pharmacy", "dispensing": "yes", "email": "aptekanadworcowej@aptekabliskociebie.pl", "healthcare": "pharmacy", "name": "Apteka Blisko Ciebie", "official_name": "Apteka Blisko Ciebie Centrum Tanich Lek\u00f3w", "opening_hours": "24/7", "phone": "+48 32 281 01 65", "ref:csioz": "1058785", "website": "http://www.aptekabliskociebie.pl/index.php/apteki/10-apteki/6-bytom"}}, {"type": "node", "id": 588142278, "lat": 50.3470194, "lon": 18.9203908, "tags": {"addr:street": "Gliwicka", "amenity": "pharmacy", "dispensing": "yes", "healthcare": "pharmacy", "name": "Gemini", "opening_hours": "Mo-Fr 08:00-20:00; Sa 08:00-15:00", "ref:csioz": "1206812"}}, {"type": "node", "id": 588142279, "lat": 50.3472773, "lon": 18.9236505, "tags": {"amenity": "pharmacy", "brand": "Dr. Max", "brand:wikidata": "Q56317371", "dispensing": "yes", "drive_through": "no", "email": "bytom.rynek@drmax.pl", "healthcare": "pharmacy", "name": "Dr. Max", "official_name": "Dr. Max", "opening_hours": "Mo-Su 08:00-22:00", "ref:csioz": "1059097"}}, {"type": "node", "id": 600086750, "lat": 50.259047, "lon": 19.0164762}, {"type": "node", "id": 602553197, "lat": 50.1691092, "lon": 18.9048397, "tags": {"amenity": "pharmacy", "dispensing": "yes", "healthcare": "pharmacy", "name": "Stara Apteka", "ref:csioz": "1065808", "wheelchair": "yes"}}, {"type": "node", "id": 734463664, "lat": 50.3480021, "lon": 18.9099726, "tags": {"amenity": "pharmacy", "brand": "Dbam o Zdrowie", "brand:wikidata": "Q62563833", "check_date": "2024-06-09", "dispensing": "yes", "healthcare": "pharmacy", "name": "Dbam o Zdrowie", "official_name": "Apteka Dbam O Zdrowie", "ref:csioz": "1058704", "short_name": "DOZ"}}, {"type": "node", "id": 788482080, "lat": 50.3544095, "lon": 18.909944, "tags": {"addr:city": "Bytom", "addr:housenumber": "33", "addr:postcode": "41-902", "addr:street": "Strzelc\u00f3w Bytomskich", "amenity": "pharmacy", "dispensing": "yes", "healthcare": "pharmacy", "name": "Na Rogu", "ref:csioz": "1059145"}}, {"type": "node", "id": 1027209256, "lat": 50.3003837, "lon": 18.6455587, "tags": {"amenity": "pharmacy", "dispensing": "yes", "drive_through": "no", "healthcare": "pharmacy", "level": "0", "name": "Pharmakon", "ref:csioz": "1061883", "wheelchair": "yes"}}, {"type": "node", "id": 1035310257, "lat": 50.2970839, "lon": 18.6496817, "tags": {"addr:city": "Gliwice", "addr:housenumber": "12", "addr:postcode": "44-121", "addr:street": "Genera\u0142a W\u0142adys\u0142awa Andersa", "amenity": "pharmacy", "dispensing": "yes", "drive_through": "no", "healthcare": "pharmacy", "name": "Apteka Zdrowit", "opening_hours": "Mo-Fr 08:00-20:00, Sa 08:00-16:00", "ref:csioz": "1061949", "wheelchair": "yes"}}, {"type": "node", "id": 1035798631, "lat": 50.2961532, "lon": 18.6572988, "tags": {"addr:city": "Gliwice", "addr:housenumber": "2", "addr:postcode": "44-100", "addr:street": "Jana III Sobieskiego", "amenity": "pharmacy", "dispensing": "yes", "healthcare": "pharmacy", "name": "Zdrowit", "official_name": "Apteka Zdrowit", "ref:csioz": "1062326"}}, {"type": "node", "id": 1065907074, "lat": 50.2319979, "lon": 18.7887288, "tags": {"addr:city": "Pani\u00f3wki", "addr:housenumber": "1", "addr:postcode": "44-177", "addr:street": "Swobody", "amenity": "pharmacy", "dispensing": "yes", "healthcare": "pharmacy", "name": "Medico", "opening_hours": "Mo-Fr 08:30-17:00; Sa 09:00-12:00", "phone": "+48 32 2386767", "ref:csioz": "1066404"}}, {"type": "node", "id": 1076148755, "lat": 50.2601002, "lon": 19.0184279, "tags": {"amenity": "pharmacy", "dispensing": "yes", "healthcare": "pharmacy", "name": "Pharmavit", "official_name": "Apteka Pharmavit", "opening_hours": "Mo-Fr 07:00-20:00; Sa 08:00-16:00; Su,PH off", "ref:csioz": "1064403"}}, {"type": "node", "id": 1094243591, "lat": 50.2563148, "lon": 18.6562777, "tags": {"amenity": "pharmacy", "dispensing": "yes", "healthcare": "pharmacy", "name": "Apteka Duos", "ref:csioz": "1062284"}}, {"type": "node", "id": 1131347282, "lat": 50.3349427, "lon": 18.8876661, "tags": {"amenity": "pharmacy", "brand": "Dr. Max", "brand:wikidata": "Q56317371", "brand:wikipedia": "fr:Dr.Max", "check_date": "2025-07-24", "check_date:opening_hours": "2025-07-24", "contact:phone": "32 388 51 23", "dispensing": "yes", "drive_through": "no", "healthcare": "pharmacy", "level": "0", "name": "Dr. Max", "opening_hours": "Mo-Fr 08:00-21:00; Sa,Su 09:00-20:00", "ref:csioz": "1058975", "website": "https://drmax.pl/"}}, {"type": "node", "id": 1148050207, "lat": 50.3707068, "lon": 18.847469, "tags": {"addr:city": "Bytom", "addr:housenumber": "106", "addr:postcode": "41-908", "addr:street": "Stolarzowicka", "amenity": "pharmacy", "dispensing": "yes", "healthcare": "pharmacy", "name": "Apteka Cef@Rm 36,6", "ref:csioz": "1059113"}}, {"type": "node", "id": 1148050479, "lat": 50.3686434, "lon": 18.8500255, "tags": {"addr:city": "Bytom", "addr:housenumber": "44", "addr:postcode": "41-908", "addr:street": "Stolarzowicka", "amenity": "pharmacy", "dispensing": "yes", "healthcare": "pharmacy", "name": "Apteka Cef@Rm 36,6", "ref:csioz": "1059121"}}, {"type": "node", "id": 1257791872, "lat": 50.4437374, "lon": 18.8522102}, {"type": "node", "id": 1257802165, "lat": 50.4437014, "lon": 18.8521945}, {"type": "node", "id": 1257812366, "lat": 50.4436579, "lon": 18.8521754}, {"type": "node", "id": 1257833225, "lat": 50.443656, "lon": 18.8521895}, {"type": "node", "id": 1340878759, "lat": 50.3915052, "lon": 18.9616772, "tags": {"amenity": "pharmacy", "dispensing": "yes", "healthcare": "pharmacy", "name": "Apteka Zdrowit", "ref:csioz": "1066576"}}, {"type": "node", "id": 1340880623, "lat": 50.3942534, "lon": 18.9618497, "tags": {"amenity": "pharmacy", "dispensing": "yes", "healthcare": "pharmacy", "name": "Flos", "official_name": "Flos Ii", "ref:csioz": "1066631"}}, {"type": "node", "id": 1361484552, "lat": 50.347647, "lon": 18.9105931, "tags": {"amenity": "pharmacy", "dispensing": "yes", "healthcare": "pharmacy", "name": "Apteka im. \u0141ukasiewicza", "opening_hours": "24/7", "ref:csioz": "1058748", "website": "http://www.calodobowa.com.pl/"}}, {"type": "node", "id": 1428409281, "lat": 50.3477335, "lon": 18.9241717, "tags": {"amenity": "pharmacy", "brand": "Dbam o Zdrowie", "brand:wikidata": "Q62563833", "dispensing": "yes", "healthcare": "pharmacy", "name": "Dbam o Zdrowie", "official_name": "Dbam O Zdrowie", "opening_hours": "Mo-Fr 08:00-18:00; Sa 08:30-13:30", "ref:csioz": "1058876", "short_name": "DOZ"}}, {"type": "node", "id": 1447430685, "lat": 50.1696317, "lon": 18.9097516, "tags": {"addr:city": "Miko\u0142\u00f3w", "addr:housenumber": "28", "addr:street": "Stefana Okrzei", "amenity": "pharmacy", "dispensing": "yes", "healthcare": "pharmacy", "name": "Apteka \u015bw. Wojciecha", "opening_hours": "24/7", "ref:csioz": "1065753"}}, {"type": "node", "id": 1450796194, "lat": 50.2776245, "lon": 18.6564205, "tags": {"amenity": "pharmacy", "brand": "Dr. Max", "brand:wikidata": "Q56317371", "brand:wikipedia": "fr:Dr.Max", "dispensing": "yes", "healthcare": "pharmacy", "name": "Dr. Max", "opening_hours": "24/7", "ref:csioz": "1185838"}}, {"type": "node", "id": 1450796195, "lat": 50.2826425, "lon": 18.6596512, "tags": {"amenity": "pharmacy", "dispensing": "yes", "healthcare": "pharmacy", "name": "Novum", "official_name": "Apteka Corax", "opening_hours": "Mo-Fr 08:00-19:00;Sa 08:00-15:00", "ref:csioz": "1062054"}}, {"type": "node", "id": 1452779563, "lat": 50.2950218, "lon": 18.6522036, "tags": {"amenity": "pharmacy", "dispensing": "yes", "healthcare": "pharmacy", "name": "Aurora", "official_name": "Apteka Corax", "ref:csioz": "1062079"}}, {"type": "node", "id": 1470644824, "lat": 50.1996794, "lon": 18.9786541, "tags": {"addr:city": "Katowice", "addr:housenumber": "2", "addr:postcode": "40-668", "addr:street": "Ba\u017cant\u00f3w", "amenity": "pharmacy", "dispensing": "yes", "healthcare": "pharmacy", "name": "Apteka VITALIS", "ref:csioz": "1063551", "website": "https://www.aptekavitalis.pl/"}}, {"type": "node", "id": 1478321040, "lat": 50.2423013, "lon": 18.8305355, "tags": {"addr:city": "Ruda \u015al\u0105ska", "addr:housenumber": "20E", "addr:postcode": "41-706", "addr:street": "Solidarno\u015bci", "amenity": "pharmacy", "dispensing": "yes", "drive_through": "no", "healthcare": "pharmacy", "name": "Apteka Dr. Max", "opening_hours": "Mo-Sa 08:00-21:00,Su 09:00-21:00", "phone": "+48 32 240 19 43", "ref:csioz": "1191596", "wheelchair": "yes"}}, {"type": "node", "id": 1478321043, "lat": 50.240977, "lon": 18.8327237, "tags": {"amenity": "pharmacy", "dispensing": "yes", "healthcare": "pharmacy", "name": "Apteka \u201e\u015al\u0105ska\u201d", "opening_hours": "Mo-Fr 07:00-20:00; Sa 07:30-14:00", "phone": "+48 32 242 62 01", "ref:csioz": "1067890", "wheelchair": "yes"}}, {"type": "node", "id": 1486020144, "lat": 50.2812689, "lon": 18.671671, "tags": {"addr:city": "Gliwice", "addr:housenumber": "68", "addr:postcode": "44-122", "addr:street": "Franciszka \u017bwirki i Stanis\u0142awa Wigury", "amenity": "pharmacy", "dispensing": "yes", "healthcare": "pharmacy", "name": "G\u0142\u00f3wna", "ref:csioz": "1062480"}}, {"type": "node", "id": 1492838958, "lat": 50.2679006, "lon": 18.8343406, "tags": {"amenity": "pharmacy", "dispensing": "yes", "healthcare": "pharmacy", "name": "Apteka \u015al\u0105ska II", "official_name": "Apteka \u015al\u0105ska Ii", "opening_hours": "Mo-Fr 08:00-18:00; Sa 08:00-13:00", "phone": "+48 32 240 11 90", "ref:csioz": "1067724", "wheelchair": "no"}}, {"type": "node", "id": 1518004598, "lat": 50.2790974, "lon": 19.005393, "tags": {"amenity": "pharmacy", "contact:email": "apteka.katowicka@gmail.com", "contact:phone": "+48 32 782 52 42", "dispensing": "yes", "healthcare": "pharmacy", "name": "Na D\u0119bie", "opening_hours": "Mo-Fr 07:30-19:00; Sa 07:00-14:00; Su,PH off", "ref:csioz": "1111306"}}, {"type": "node", "id": 1519812262, "lat": 50.2845405, "lon": 18.8819882, "tags": {"amenity": "pharmacy", "dispensing": "yes", "healthcare": "pharmacy", "name": "Apteka MEGA", "opening_hours": "Mo-Fr 08:00-20:00; Sa 08:00-14:00", "phone": "+48 32 244 20 48", "ref:csioz": "1067853", "wheelchair": "yes"}}, {"type": "node", "id": 1523642090, "lat": 50.2544712, "lon": 18.9107425, "tags": {"amenity": "pharmacy", "dispensing": "yes", "healthcare": "pharmacy", "name": "Apteka Na Rogu", "opening_hours": "Mo-Fr 08:00-19:00; Sa 08:00-13:00", "phone": "+48 32 342 34 20", "ref:csioz": "1067866", "source": "OSM Tracker, knowledge", "wheelchair": "yes"}}, {"type": "node", "id": 1534233812, "lat": 50.2255823, "lon": 18.96808, "tags": {"amenity": "pharmacy", "brand": "Ziko Apteka", "brand:wikidata": "Q63432892", "dispensing": "yes", "healthcare": "pharmacy", "name": "Ziko Apteka", "opening_hours": "Mo-Fr 08:00-20:00, Sa 08:00-16:00", "payment:cash": "yes", "payment:coins": "yes", "payment:mastercard": "yes", "payment:visa": "yes", "phone": "+48 12 687 57 47", "ref:csioz": "1214583", "short_name": "Ziko", "website": "https://www.ziko.pl/katowice-apteki-drogerie-ziko/panewnicka-40/", "wheelchair": "yes"}}, {"type": "node", "id": 1552319057, "lat": 50.289861, "lon": 18.667702, "tags": {"amenity": "pharmacy", "dispensing": "yes", "healthcare": "pharmacy", "name": "Pod S\u0142o\u0144cem", "ref:csioz": "1062157", "survey:date": "2025-06-05"}}, {"type": "node", "id": 1575377296, "lat": 50.409977, "lon": 18.9478081, "tags": {"amenity": "pharmacy", "dispensing": "yes", "healthcare": "pharmacy", "name": "Apteka", "ref:csioz": "1066716"}}, {"type": "node", "id": 1607413361, "lat": 50.1807241, "lon": 18.7644162}, {"type": "node", "id": 1607413370, "lat": 50.1808141, "lon": 18.7643412}, {"type": "node", "id": 1626774117, "lat": 50.2298586, "lon": 18.9708724, "tags": {"amenity": "pharmacy", "dispensing": "yes", "healthcare": "pharmacy", "level": "0", "name": "Apteka Ksi\u0105\u017c\u0119ca", "opening_hours": "Mo-Su 08:00-24:00", "phone": "+48 32 757 98 02", "ref:csioz": "1064196", "wheelchair": "yes", "wikimedia_commons": "File:20230124 pharmacy Katowice Piotrowicka.jpg"}}, {"type": "node", "id": 1666133196, "lat": 50.3947619, "lon": 18.8719885, "tags": {"amenity": "pharmacy", "dispensing": "yes", "healthcare": "pharmacy", "name": "Apteka Dr. Max", "ref:csioz": "1059244"}}, {"type": "node", "id": 1667082017, "lat": 50.3401042, "lon": 18.8965738, "tags": {"amenity": "pharmacy", "dispensing": "yes", "healthcare": "pharmacy", "name": "Apteka Przyjazna Zdrowiu", "opening_hours": "Mo-Fr 8:00-20:00; Sa 7:30-14:00", "ref:csioz": "1058903", "website": "http://www.przyjaznazdrowiu.pl"}}, {"type": "node", "id": 1687292981, "lat": 50.2728722, "lon": 18.8753668, "tags": {"amenity": "pharmacy", "check_date": "2024-09-24", "dispensing": "yes", "healthcare": "pharmacy", "name": "Apteka Zdrowia", "official_name": "Apteka Zdrowie", "opening_hours": "Mo-Fr 08:00-18:00; Sa 08:00-13:00", "phone": "+48 32 244 56 70", "ref:csioz": "1067797", "source": "OSM Tracker, knowledge", "wheelchair": "yes"}}, {"type": "node", "id": 1706239820, "lat": 50.3656145, "lon": 18.844, "tags": {"addr:city": "Bytom", "addr:housenumber": "63f", "addr:postcode": "41-923", "addr:street": "Alojzego Feli\u0144skiego", "amenity": "pharmacy", "dispensing": "yes", "healthcare": "pharmacy", "name": "Apteka Zdrowit", "ref:csioz": "1058800"}}, {"type": "node", "id": 1707613017, "lat": 50.38749, "lon": 18.6152765, "tags": {"addr:city": "Pyskowice", "addr:housenumber": "83", "addr:postcode": "44-120", "addr:street": "Genera\u0142a W\u0142adys\u0142awa Sikorskiego", "amenity": "pharmacy", "dispensing": "yes", "healthcare": "pharmacy", "name": "Galenova", "ref:csioz": "1067188"}}, {"type": "node", "id": 1717826370, "lat": 50.2592131, "lon": 19.0164949}, {"type": "node", "id": 1720974096, "lat": 50.3139451, "lon": 18.8853907, "tags": {"amenity": "pharmacy", "dispensing": "yes", "email": "apteka24ruda@gmail.com", "healthcare": "pharmacy", "name": "Apteka RODZINNA", "opening_hours": "24/7", "phone": "+48 32 248 38 89", "ref:csioz": "1067844", "wheelchair": "yes"}}, {"type": "node", "id": 1740232271, "lat": 50.1673649, "lon": 18.904291, "tags": {"addr:housename": "Galeria PIK", "addr:housenumber": "14", "addr:postcode": "43-190", "addr:street": "Pszczy\u0144ska", "amenity": "pharmacy", "brand": "Dr. Max", "brand:wikidata": "Q56317371", "brand:wikipedia": "fr:Dr.Max", "dispensing": "yes", "healthcare": "pharmacy", "name": "Dr. Max", "opening_hours": "24/7", "operator": "Dr. Max sp. z o.o.", "ref:csioz": "1065790", "wheelchair": "yes"}}, {"type": "node", "id": 1772146403, "lat": 50.2701112, "lon": 18.8716294, "tags": {"amenity": "pharmacy", "brand": "Dr. Max", "brand:wikidata": "Q56317371", "dispensing": "yes", "healthcare": "pharmacy", "name": "Dr. Max", "opening_hours": "Mo-Fr 08:00-21:00; Sa 08:00-20:00; Su 10:00-18:00", "phone": "+48 32 242 88 55", "ref:csioz": "1194848", "source": "OSM Tracker", "wheelchair": "yes"}}, {"type": "node", "id": 1772728835, "lat": 50.2533419, "lon": 18.9045294, "tags": {"amenity": "pharmacy", "dispensing": "yes", "email": "kochlowice.rodzinna@gmail.com", "healthcare": "pharmacy", "name": "Apteka Rodzinna", "opening_hours": "Mo-Fr 08:00-20:00; Sa 08:00-14:00", "phone": "+48 32 242 7080", "ref:csioz": "1067828", "source": "OSM Tracker, knowledge", "wheelchair": "yes"}}, {"type": "node", "id": 1772853455, "lat": 50.2733218, "lon": 18.8616107, "tags": {"amenity": "pharmacy", "check_date": "2024-09-28", "dispensing": "yes", "healthcare": "pharmacy", "name": "Apteka Ficinus", "opening_hours": "Mo-Fr 08:00-19:00; Sa 08:00-13:00", "phone": "+48 32 244 15 77", "ref:csioz": "1067735", "source": "OSM Tracker", "wheelchair": "limited"}}, {"type": "node", "id": 1773382608, "lat": 50.2685776, "lon": 18.8863818, "tags": {"amenity": "pharmacy", "dispensing": "yes", "drive_through": "no", "healthcare": "pharmacy", "name": "Apteka DOZ", "official_name": "Doz Apteka Dbam O Zdrowie", "opening_hours": "Mo-Fr 08:00-19:00; Sa 08:30-13:00", "operator": "DOZ.pl Sp. z o.o.", "phone": "+48 32 242 11 49", "ref:csioz": "1201571", "source": "OSM Tracker, knowledge", "wheelchair": "no"}}, {"type": "node", "id": 1778432017, "lat": 50.2741919, "lon": 18.9665966, "tags": {"amenity": "pharmacy", "brand": "Dbam o Zdrowie", "brand:wikidata": "Q62563833", "contact:phone": "+48 32 252 28 97", "dispensing": "yes", "healthcare": "pharmacy", "name": "Dbam o Zdrowie", "official_name": "Apteka Dbam O Zdrowie", "opening_hours": "Mo-Sa 09:00-21:00; Jan 26,Apr 13,Apr 27,Jun 29,Aug 31,Dec 07,Dec 14,Dec 21 Su 09:30-19:00; PH off", "ref:csioz": "1064469", "short_name": "DOZ", "website": "https://www.doz.pl/apteki/a101308-Apteka_Dbam_o_Zdrowie"}}, {"type": "node", "id": 1779050025, "lat": 50.2986236, "lon": 18.8341591, "tags": {"amenity": "pharmacy", "dispensing": "yes", "healthcare": "pharmacy", "name": "Pharmakon", "official_name": "Pharmakon", "opening_hours": "Mo-Fr 08:00-20:00; Sa 08:00-13:00", "ref:csioz": "1071777"}}, {"type": "node", "id": 1781606464, "lat": 50.3380682, "lon": 18.7818864, "tags": {"amenity": "pharmacy", "dispensing": "yes", "healthcare": "pharmacy", "name": "Apteka Dbam O Zdrowie", "ref:csioz": "1071650"}}, {"type": "node", "id": 1781606468, "lat": 50.3393257, "lon": 18.7793181, "tags": {"amenity": "pharmacy", "dispensing": "yes", "healthcare": "pharmacy", "name": "FERRUM", "ref:csioz": "1071511"}}, {"type": "node", "id": 1781907750, "lat": 50.3013886, "lon": 18.9997419}, {"type": "node", "id": 1781907751, "lat": 50.3014774, "lon": 18.9998721}, {"type": "node", "id": 1784789233, "lat": 50.2884706, "lon": 18.8754533, "tags": {"amenity": "pharmacy", "dispensing": "yes", "email": "rodzinna.niedurnego@gmail.com", "healthcare": "pharmacy", "name": "Rodzinna", "opening_hours": "Mo-Fr 08:00-20:00; Sa 08:00-16:00; Su 08:00-14:00", "phone": "+48 32 242 00 38", "ref:csioz": "1118652", "source": "OSM Tracker, knowledge"}}, {"type": "node", "id": 1789047067, "lat": 50.281771, "lon": 18.9667347, "tags": {"amenity": "pharmacy", "dispensing": "yes", "healthcare": "pharmacy", "name": "Apteka Dla Zdrowia", "opening_hours": "Mo-Fr 07:30-19:30; Sa 08:00-14:00; PH off", "ref:csioz": "1192579"}}, {"type": "node", "id": 1794911106, "lat": 50.1257748, "lon": 18.9832522, "tags": {"addr:city": "Tychy", "addr:housenumber": "17", "addr:postcode": "43-100", "addr:street": "Stefana Batorego", "amenity": "pharmacy", "delivery": "yes", "dispensing": "yes", "email": "apteka@apteka-andromeda.pl", "fax": "+48 32 322 05 26", "healthcare": "pharmacy", "name": "Apteka Centrum", "opening_hours": "Mo-Fr 08:00-20:00; Sa 08:00-18:00"}}, {"type": "node", "id": 1796713607, "lat": 50.23166, "lon": 18.9825988, "tags": {"amenity": "pharmacy", "brand": "Dr. Max", "brand:wikidata": "Q56317371", "brand:wikipedia": "fr:Dr.Max", "dispensing": "yes", "healthcare": "pharmacy", "name": "Dr. Max", "opening_hours": "Mo-Fr 08:00-20:00; Sa 08:00-15:00; Su off", "ref:csioz": "1064319"}}, {"type": "node", "id": 1796713614, "lat": 50.2331361, "lon": 18.9862421, "tags": {"amenity": "pharmacy", "contact:email": "apteka_medyczna@op.pl", "contact:phone": "+48 32 3556461", "dispensing": "yes", "healthcare": "pharmacy", "name": "Apteka Prima", "opening_hours": "Mo-Fr 08:00-19:00; Sa 08:00-14:00; Su,PH off", "ref:csioz": "1063873"}}, {"type": "node", "id": 1798795227, "lat": 50.3000977, "lon": 18.8215824, "tags": {"amenity": "pharmacy", "dispensing": "yes", "healthcare": "pharmacy", "name": "Apteka Lekus", "official_name": "Apteka Nova Sieciowa", "ref:csioz": "1071492", "website": "http://www.lekus.pl"}}, {"type": "node", "id": 1807101413, "lat": 50.0503944, "lon": 18.4754384, "tags": {"amenity": "pharmacy", "dispensing": "no", "healthcare": "pharmacy", "name": "\u015bw. \u0141ukasza", "opening_hours": "Mo-Fr 08:00-19:00;Sa 08:00-13:00"}}, {"type": "node", "id": 1807109806, "lat": 50.0621359, "lon": 18.4678276, "tags": {"addr:city": "Rybnik", "addr:housenumber": "3", "addr:street": "Ignacego Mo\u015bcickiego", "amenity": "pharmacy", "dispensing": "yes", "healthcare": "pharmacy", "name": "Farmacja", "ref:csioz": "1068189"}}, {"type": "node", "id": 1811662781, "lat": 50.3128318, "lon": 18.8858708, "tags": {"amenity": "pharmacy", "dispensing": "yes", "healthcare": "pharmacy", "name": "Zdrowie 1", "official_name": "Zdrowie I", "opening_hours": "Mo-Fr 08:00-20:00; Sa 08:00-14:00", "phone": "+48 32 244 30 77", "ref:csioz": "1067652", "wheelchair": "yes"}}, {"type": "node", "id": 1812918422, "lat": 50.3158224, "lon": 18.8880703, "tags": {"addr:city": "Ruda \u015al\u0105ska", "addr:housenumber": "34", "addr:postcode": "41-712", "addr:street": "Karola Goduli", "amenity": "pharmacy", "dispensing": "yes", "healthcare": "pharmacy", "name": "Apteka Hygiea", "official_name": "Hygieia", "ref:csioz": "1205483"}}, {"type": "node", "id": 1817058973, "lat": 50.261213, "lon": 19.0195907, "tags": {"amenity": "pharmacy", "brand": "Dbam o Zdrowie", "brand:wikidata": "Q62563833", "contact:email": "apt60810@dbamozdrowie.pl", "contact:phone": "+48 32 205 46 22;+48 736 698 175", "dispensing": "yes", "healthcare": "pharmacy", "name": "Dbam o Zdrowie", "official_name": "Doz Apteka Dbam O Zdrowie", "opening_hours": "Mo-Fr 07:00-19:00; Sa 08:00-14:00; Su,PH off", "ref:csioz": "1064021", "short_name": "DOZ", "website": "https://www.doz.pl/apteki/a60810-DOZ_Apteka_Dbam_o_Zdrowie"}}, {"type": "node", "id": 1818774764, "lat": 50.2905509, "lon": 18.9191734, "tags": {"amenity": "pharmacy", "dispensing": "yes", "healthcare": "pharmacy", "name": "Rodzinna", "opening_hours": "Mo-Fr 07:30-19:00; Sa 08:00-13:00", "ref:csioz": "1069942"}}, {"type": "node", "id": 1828284776, "lat": 50.454693, "lon": 18.519988}, {"type": "node", "id": 1828284777, "lat": 50.454663, "lon": 18.520156}, {"type": "node", "id": 1828284778, "lat": 50.45453, "lon": 18.519918}, {"type": "node", "id": 1828284780, "lat": 50.4545, "lon": 18.520086}, {"type": "node", "id": 1836980475, "lat": 50.2643995, "lon": 18.9369772, "tags": {"amenity": "pharmacy", "dispensing": "yes", "healthcare": "pharmacy", "name": "Apteka Nova Sieciowa", "operator": "Nova Sieciowa", "ref:csioz": "1218078"}}, {"type": "node", "id": 1854772819, "lat": 50.3045558, "lon": 19.0061989, "tags": {"amenity": "pharmacy", "contact:email": "premium.lek.siemianowice@gmail.com", "contact:phone": "+48 32 228 01 60", "dispensing": "yes", "healthcare": "pharmacy", "name": "Apteka Premium-Lek", "opening_hours": "Mo-Su 08:00-20:00", "ref:csioz": "1068571"}}, {"type": "node", "id": 1858615603, "lat": 50.2930301, "lon": 18.6675121, "tags": {"amenity": "pharmacy", "dispensing": "yes", "healthcare": "pharmacy", "name": "Apteka Dbam O Zdrowie", "ref:csioz": "1061826"}}, {"type": "node", "id": 1858616237, "lat": 50.2935921, "lon": 18.6656131, "tags": {"addr:city": "Gliwice", "addr:housenumber": "1", "addr:postcode": "44-100", "addr:street": "Rynek", "amenity": "pharmacy", "check_date:opening_hours": "2024-12-25", "dispensing": "yes", "healthcare": "pharmacy", "name": "DOZ Apteka", "official_name": "Apteka Dbam O Zdrowie", "opening_hours": "Mo-Fr 08:00-19:00; Sa 08:00-14:00", "ref:csioz": "1062292", "website": "https://www.doz.pl/apteki/a67197-Apteka_Dbam_o_Zdrowie"}}, {"type": "node", "id": 1858616755, "lat": 50.2933426, "lon": 18.6627874, "tags": {"amenity": "pharmacy", "dispensing": "yes", "healthcare": "pharmacy", "name": "Cito", "opening_hours": "24/7", "ref:csioz": "1061974", "wheelchair": "yes"}}, {"type": "node", "id": 1880887758, "lat": 50.2364144, "lon": 18.6564157, "tags": {"addr:city": "Knur\u00f3w", "addr:housenumber": "10", "addr:postcode": "44-196", "addr:street": "Wincentego Witosa", "amenity": "pharmacy", "healthcare": "pharmacy", "name": "Apteka \u015aw. Barbary", "opening_hours": "Mo-Fr 08:00-20:00; Sa 08:00-14:00", "ref:csioz": "1064833", "wheelchair": "limited"}}, {"type": "node", "id": 1884906141, "lat": 50.1261601, "lon": 18.9815636, "tags": {"addr:city": "Tychy", "addr:housenumber": "9", "addr:postcode": "43-100", "addr:street": "Ojca Innocentego Boche\u0144skiego", "amenity": "pharmacy", "healthcare": "pharmacy", "name": "Aviacenna", "opening_hours": "Mo-Fr 08:00-22:00;Sa 08:00-14:00", "phone": "+48 32 227 42 85", "wheelchair": "yes"}}, {"type": "node", "id": 1890402846, "lat": 50.2760568, "lon": 18.9758686, "tags": {"amenity": "pharmacy", "dispensing": "yes", "healthcare": "pharmacy", "name": "Akademicka", "ref:csioz": "1064475"}}, {"type": "node", "id": 1892311354, "lat": 50.2954141, "lon": 18.6685916, "tags": {"amenity": "pharmacy", "brand": "Dbam o Zdrowie", "brand:wikidata": "Q62563833", "dispensing": "yes", "healthcare": "pharmacy", "name": "Dbam o Zdrowie", "official_name": "Apteka Dbam O Zdrowie", "opening_hours": "Mo-Fr 09:00-17:00; Sa,Su,PH off", "ref:csioz": "1062414"}}, {"type": "node", "id": 1895908379, "lat": 50.3224824, "lon": 18.6541398, "tags": {"amenity": "pharmacy", "dispensing": "yes", "healthcare": "pharmacy", "name": "Farmacja 24", "ref:csioz": "1061996"}}, {"type": "node", "id": 1895908417, "lat": 50.3222377, "lon": 18.6562021, "tags": {"amenity": "pharmacy", "dispensing": "yes", "healthcare": "pharmacy", "name": "Apteka Marketpol", "ref:csioz": "1062040", "wheelchair": "yes"}}, {"type": "node", "id": 1897273444, "lat": 50.2917296, "lon": 18.9456652, "tags": {"amenity": "pharmacy", "dispensing": "yes", "healthcare": "pharmacy", "name": "Apteka na Z\u0142otym Rogu", "official_name": "Apteka Centrum 1", "ref:csioz": "1059723"}}, {"type": "node", "id": 1897324790, "lat": 50.2990292, "lon": 18.6741505, "tags": {"addr:city": "Gliwice", "addr:housenumber": "10", "addr:postcode": "44-100", "addr:street": "Stanis\u0142awa Dubois", "amenity": "pharmacy", "dispensing": "yes", "healthcare": "pharmacy", "name": "Pharmakon", "official_name": "Pharmakon", "opening_hours": "Mo-Fr 07:30-19:00", "ref:csioz": "1111846"}}, {"type": "node", "id": 1902680800, "lat": 50.2690894, "lon": 19.0382837, "tags": {"amenity": "pharmacy", "contact:email": "aptekaroza3@interia.pl", "contact:phone": "+48 32 203 80 46", "dispensing": "yes", "healthcare": "pharmacy", "name": "Apteka pod Kwiatami", "official_name": "Pod Kwiatami III", "opening_hours": "Mo-Fr 07:30-19:30; Sa 08:00-14:00; Su,PH off", "ref:csioz": "1063983"}}, {"type": "node", "id": 1928587376, "lat": 50.2801971, "lon": 18.977351, "tags": {"amenity": "pharmacy", "contact:phone": "+48322504052", "dispensing": "yes", "healthcare": "pharmacy", "name": "G\u0142\u00f3wna", "official_name": "Apteka G\u0142\u00f3wna", "opening_hours": "Mo-Fr 07:00-20:00; Sa 08:00-16:00", "operator": "Farmacja Sosnowiec sp. z o. o.", "ref:csioz": "1213487", "website": "https://www.aptekiglowne.pl/"}}, {"type": "node", "id": 1928587390, "lat": 50.2752426, "lon": 18.9827936, "tags": {"amenity": "pharmacy", "brand": "Dbam o Zdrowie", "brand:wikidata": "Q62563833", "dispensing": "yes", "healthcare": "pharmacy", "name": "Dbam o Zdrowie", "opening_hours": "Mo-Fr 08:00-20:00; Sa 08:00-15:00; PH off", "ref:csioz": "1170356", "short_name": "DOZ"}}, {"type": "node", "id": 1940652745, "lat": 50.2603373, "lon": 19.0199742, "tags": {"addr:city": "Katowice", "addr:housenumber": "10", "addr:postcode": "40-092", "addr:street": "Adama Mickiewicza", "amenity": "pharmacy", "check_date": "2024-06-28", "dispensing": "yes", "healthcare": "pharmacy", "name": "Apteka Blisko Ciebie", "opening_hours": "24/7", "phone": "+48 32 258 11 11", "ref:csioz": "1064013", "website": "http://www.aptekabliskociebie.pl/index.php/apteki/10-apteki/26-katowice-24h-ul-mickiewicza-10"}}, {"type": "node", "id": 1940652746, "lat": 50.2527873, "lon": 19.0082413, "tags": {"addr:city": "Katowice", "addr:housenumber": "37", "addr:postcode": "40-066", "addr:street": "Miko\u0142owska", "amenity": "pharmacy", "contact:phone": "+48 32 2290010", "contact:website": "http://www.aptekiglowne.pl/", "dispensing": "yes", "healthcare": "pharmacy", "name": "Apteka G\u0142\u00f3wna", "opening_hours": "Mo-Fr 08:00-20:00; Sa 08:00-14:00; Su off", "ref:csioz": "1064037"}}, {"type": "node", "id": 1955654009, "lat": 50.4505718, "lon": 18.8843472, "tags": {"addr:city": "Tarnowskie G\u00f3ry", "addr:housenumber": "23", "addr:postcode": "42-600", "addr:street": "Le\u015bna", "amenity": "pharmacy", "dispensing": "yes", "healthcare": "pharmacy", "name": "Le\u015bna", "official_name": "Apteka Le\u015bna", "opening_hours": "Mo-Fr 08:00-20:00", "ref:csioz": "1181822", "wheelchair": "yes"}}, {"type": "node", "id": 2003866125, "lat": 50.3679098, "lon": 18.4052057, "tags": {"addr:city": "Rudziniec", "addr:housenumber": "75", "addr:postcode": "44-160", "addr:street": "Gliwicka", "amenity": "pharmacy", "healthcare": "pharmacy", "name": "Galenova s.c.", "ref:csioz": "1073282"}}, {"type": "node", "id": 2024544599, "lat": 50.2974777, "lon": 18.9338658, "tags": {"amenity": "pharmacy", "dispensing": "yes", "healthcare": "pharmacy", "name": "Floria\u0144ska", "opening_hours": "Mo-Fr 07:30-22:00; Sa 07:30-20:00; Su 09:00-18:00", "ref:csioz": "1059361"}}, {"type": "node", "id": 2027140000, "lat": 50.2924999, "lon": 18.6565986, "tags": {"amenity": "pharmacy", "dispensing": "yes", "healthcare": "pharmacy", "name": "Staromiejska", "opening_hours": "Mo-Fr 07:00-21:00; Sa 08:00-15:00", "ref:csioz": "1062065"}}, {"type": "node", "id": 2035018288, "lat": 50.2853184, "lon": 18.8754119, "tags": {"amenity": "pharmacy", "dispensing": "yes", "healthcare": "pharmacy", "name": "Apteka Gemini", "official_name": "Apteka Zdrowit", "opening_hours": "Mo-Fr 08:00-19:00; Sa 08:00-13:00", "phone": "+48 32 340 45 19", "ref:csioz": "1067831", "source": "OsmTracker", "wheelchair": "yes"}}, {"type": "node", "id": 2041567289, "lat": 50.4434988, "lon": 18.8524332}, {"type": "node", "id": 2041567290, "lat": 50.4435225, "lon": 18.8523038}, {"type": "node", "id": 2041567291, "lat": 50.4435527, "lon": 18.8524809}, {"type": "node", "id": 2041567292, "lat": 50.4435567, "lon": 18.8524593}, {"type": "node", "id": 2041567293, "lat": 50.4436128, "lon": 18.8523446}, {"type": "node", "id": 2041567294, "lat": 50.443618, "lon": 18.8523163}, {"type": "node", "id": 2041567295, "lat": 50.4436316, "lon": 18.8523224}, {"type": "node", "id": 2041567298, "lat": 50.4436778, "lon": 18.8525374}, {"type": "node", "id": 2061410857, "lat": 50.311007, "lon": 18.9155446, "tags": {"addr:city": "\u015awi\u0119toch\u0142owice", "addr:housenumber": "33", "addr:postcode": "41-608", "addr:street": "Karpacka", "amenity": "pharmacy", "dispensing": "yes", "healthcare": "pharmacy", "name": "Sante", "ref:csioz": "1069934"}}, {"type": "node", "id": 2064595815, "lat": 50.2519509, "lon": 19.0249062, "tags": {"amenity": "pharmacy", "brand": "Dr. Max", "brand:wikidata": "Q56317371", "contact:email": "katowice.powstancow@drmax.com.pl", "contact:phone": "+48 32 2553713", "dispensing": "yes", "healthcare": "pharmacy", "name": "Dr. Max", "opening_hours": "Mo-Fr 07:00-20:00; Sa-Su,PH off", "ref:csioz": "1064264"}}, {"type": "node", "id": 2082778892, "lat": 50.1997097, "lon": 19.0399126, "tags": {"amenity": "pharmacy", "dispensing": "yes", "healthcare": "pharmacy", "name": "Viola", "opening_hours": "Mo-Fr 08:00-19:00; Sa 08:00-14:00", "ref:csioz": "1064343", "wheelchair": "yes"}}, {"type": "node", "id": 2117925302, "lat": 50.1935128, "lon": 18.990122, "tags": {"amenity": "pharmacy", "dispensing": "yes", "healthcare": "pharmacy", "name": "Apteka \u201eSalix\u201d", "ref:csioz": "1213968"}}, {"type": "node", "id": 2120188287, "lat": 50.2695894, "lon": 19.0052033}, {"type": "node", "id": 2120188289, "lat": 50.2695926, "lon": 19.0051898}, {"type": "node", "id": 2120188291, "lat": 50.2695952, "lon": 19.0051914}, {"type": "node", "id": 2120188297, "lat": 50.2696019, "lon": 19.0052105}, {"type": "node", "id": 2120188298, "lat": 50.2696028, "lon": 19.0052067}, {"type": "node", "id": 2120188300, "lat": 50.2696067, "lon": 19.0051321}, {"type": "node", "id": 2120188303, "lat": 50.2696091, "lon": 19.0051338}, {"type": "node", "id": 2120188305, "lat": 50.2696107, "lon": 19.0051157}, {"type": "node", "id": 2120188309, "lat": 50.2696129, "lon": 19.0051171}, {"type": "node", "id": 2120188312, "lat": 50.2696239, "lon": 19.0050601}, {"type": "node", "id": 2120188314, "lat": 50.2696263, "lon": 19.0050614}, {"type": "node", "id": 2120188316, "lat": 50.2696279, "lon": 19.0050436}, {"type": "node", "id": 2120188318, "lat": 50.2696303, "lon": 19.005045}, {"type": "node", "id": 2120188320, "lat": 50.2696367, "lon": 19.005231}, {"type": "node", "id": 2120188321, "lat": 50.2696376, "lon": 19.0052272}, {"type": "node", "id": 2120188330, "lat": 50.2696413, "lon": 19.0049883}, {"type": "node", "id": 2120188337, "lat": 50.2696436, "lon": 19.0049897}, {"type": "node", "id": 2120188339, "lat": 50.269645, "lon": 19.0049721}, {"type": "node", "id": 2120188343, "lat": 50.2696476, "lon": 19.0049735}, {"type": "node", "id": 2120188354, "lat": 50.2696554, "lon": 19.0052418}, {"type": "node", "id": 2121892067, "lat": 50.2591025, "lon": 19.0164824}, {"type": "node", "id": 2121892156, "lat": 50.2591614, "lon": 19.0164891}, {"type": "node", "id": 2126852663, "lat": 50.2966354, "lon": 18.7921566, "tags": {"amenity": "pharmacy", "dispensing": "yes", "healthcare": "pharmacy", "name": "Apteka \u015bw. Anny", "opening_hours": "24/7", "ref:csioz": "1071603"}}, {"type": "node", "id": 2127718140, "lat": 50.3111706, "lon": 18.7881892}, {"type": "node", "id": 2127718193, "lat": 50.311213, "lon": 18.7883441}, {"type": "node", "id": 2127718252, "lat": 50.3112546, "lon": 18.7884825}, {"type": "node", "id": 2134661035, "lat": 50.2278282, "lon": 18.9705189, "tags": {"amenity": "pharmacy", "contact:phone": "+48 32 252 5189", "dispensing": "yes", "healthcare": "pharmacy", "name": "Centrum Zdrowia", "opening_hours": "Mo-Fr 07:00-21:00; Sa 08:00-15:00; Su,PH off", "operator": "Akeso", "ref:csioz": "1063674"}}, {"type": "node", "id": 2135950522, "lat": 50.2701975, "lon": 19.0205739, "tags": {"amenity": "pharmacy", "contact:phone": "+48 32 2058414", "dispensing": "yes", "healthcare": "pharmacy", "name": "Apteka Aqua-Vitae", "opening_hours": "Mo-Sa 08:00-21:00; Su 09:00-20:00", "ref:csioz": "1064381"}}, {"type": "node", "id": 2144781148, "lat": 50.3278267, "lon": 18.7721204, "tags": {"amenity": "pharmacy", "dispensing": "yes", "healthcare": "pharmacy", "name": "Pro-Pharma", "opening_hours": "Mo-Fr 08:00-18:30; Sa 08:00-13:00", "ref:csioz": "1071374"}}, {"type": "node", "id": 2153521877, "lat": 50.3865648, "lon": 18.95044, "tags": {"amenity": "pharmacy", "dispensing": "yes", "healthcare": "pharmacy", "name": "Zdrowit", "official_name": "Apteka Zdrowit", "ref:csioz": "1066677", "source": "UM Piekary \u015al\u0105skie"}}, {"type": "node", "id": 2185587891, "lat": 50.3230129, "lon": 19.0034673, "tags": {"addr:city": "Siemianowice \u015al\u0105skie", "addr:housenumber": "30", "addr:postcode": "41-103", "addr:street": "Ko\u015bcielna", "amenity": "pharmacy", "brand": "Ziko Apteka", "brand:wikidata": "Q63432892", "dispensing": "yes", "healthcare": "pharmacy", "name": "Ziko Apteka", "opening_hours": "Mo-Fr 08:00-20:00; Sa 08:00-16:00", "payment:cash": "yes", "payment:coins": "yes", "payment:mastercard": "yes", "payment:visa": "yes", "phone": "+48 12 687 57 47", "ref:csioz": "1204984", "short_name": "Ziko", "website": "https://www.ziko.pl/siemianowice-slaskie-apteki-drogerie-ziko/koscielna-30/"}}, {"type": "node", "id": 2198003078, "lat": 50.2546413, "lon": 19.0066201, "tags": {"amenity": "pharmacy", "check_date:opening_hours": "2024-09-19", "dispensing": "yes", "healthcare": "pharmacy", "name": "DOZ", "official_name": "Doz Apteka Dbam O Zdrowie", "opening_hours": "Mo-Fr 08:00-19:00; Sa 08:00-13:00", "ref:csioz": "1064308"}}, {"type": "node", "id": 2262917189, "lat": 50.4553424, "lon": 18.8375934}, {"type": "node", "id": 2262917193, "lat": 50.4554145, "lon": 18.8377654}, {"type": "node", "id": 2262960247, "lat": 50.4553958, "lon": 18.8379076}, {"type": "node", "id": 2262977070, "lat": 50.4552672, "lon": 18.8375506}, {"type": "node", "id": 2284697442, "lat": 50.1926302, "lon": 18.4497201, "tags": {"amenity": "pharmacy", "dispensing": "yes", "healthcare": "pharmacy", "name": "Esculap", "ref:csioz": "1068009"}}, {"type": "node", "id": 2293643548, "lat": 50.3546021, "lon": 18.9278245, "tags": {"amenity": "pharmacy", "dispensing": "yes", "healthcare": "pharmacy", "name": "Apteka Rodzinna", "ref:csioz": "1058927", "source": "survey", "survey:date": "2013-05-06", "wheelchair": "yes"}}, {"type": "node", "id": 2316578674, "lat": 50.2975576, "lon": 18.6929384, "tags": {"addr:city": "Gliwice", "addr:housenumber": "57", "addr:postcode": "44-100", "addr:street": "Genera\u0142a Jaros\u0142awa D\u0105browskiego", "amenity": "pharmacy", "dispensing": "yes", "healthcare": "pharmacy", "name": "Sanitas", "ref:csioz": "1061894"}}, {"type": "node", "id": 2340402215, "lat": 50.454516, "lon": 18.520001}, {"type": "node", "id": 2357446452, "lat": 50.4373033, "lon": 18.9077632, "tags": {"addr:city": "Nak\u0142o \u015al\u0105skie", "addr:housenumber": "91", "addr:postcode": "42-620", "addr:street": "G\u0142\u00f3wna", "amenity": "pharmacy", "dispensing": "yes", "healthcare": "pharmacy", "name": "Maria Victoria", "ref:csioz": "1066262"}}, {"type": "node", "id": 2374667352, "lat": 50.3145837, "lon": 18.7677982, "tags": {"amenity": "pharmacy", "dispensing": "yes", "healthcare": "pharmacy", "name": "Apteka OPTIMA", "ref:csioz": "1071396"}}, {"type": "node", "id": 2379484012, "lat": 50.2866491, "lon": 18.7296991, "tags": {"amenity": "pharmacy", "dispensing": "yes", "healthcare": "pharmacy", "name": "Apteka Zdrowit", "ref:csioz": "1062022"}}, {"type": "node", "id": 2383155290, "lat": 50.3486641, "lon": 18.9255372, "tags": {"amenity": "pharmacy", "dispensing": "yes", "healthcare": "pharmacy", "name": "Twoja Apteka", "ref:csioz": "1059035"}}, {"type": "node", "id": 2402342809, "lat": 50.2251846, "lon": 18.9677549, "tags": {"amenity": "pharmacy", "check_date:opening_hours": "2023-09-28", "contact:phone": "+48 32 2526527", "dispensing": "yes", "healthcare": "pharmacy", "name": "Apteka Pod Bazylik\u0105", "opening_hours": "Mo-Fr 08:00-20:00; Sa 08:00-14:00; Su off", "ref:csioz": "1064130"}}, {"type": "node", "id": 2403787481, "lat": 50.2852384, "lon": 18.7885402, "tags": {"amenity": "pharmacy", "dispensing": "yes", "healthcare": "pharmacy", "name": "Apteka FELIX", "ref:csioz": "1071627"}}, {"type": "node", "id": 2416022609, "lat": 50.2233969, "lon": 18.9719845, "tags": {"amenity": "pharmacy", "dispensing": "yes", "healthcare": "pharmacy", "name": "Apteka Ligota", "opening_hours": "Mo-Fr 08:00-19:00", "ref:csioz": "1063899"}}, {"type": "node", "id": 2416022647, "lat": 50.2230421, "lon": 18.9689647, "tags": {"amenity": "pharmacy", "dispensing": "yes", "healthcare": "pharmacy", "name": "Apteka Ligocka", "opening_hours": "Mo-Fr 08:00-20:00; Sa 08:00-14:00; Su off", "operator": "Brukiewicz Ligacz Wojtanowska-Rzytki sp\u00f3\u0142ka jawna", "ref:csioz": "1064241"}}, {"type": "node", "id": 2416022652, "lat": 50.2258841, "lon": 18.975584, "tags": {"amenity": "pharmacy", "dispensing": "yes", "healthcare": "pharmacy", "name": "Centrum Zdrowia", "opening_hours": "Mo-Fr 07:00-21:00; Sa 08:00-15:00; Su,PH off", "operator": "Akeso", "ref:csioz": "1064158"}}, {"type": "node", "id": 2442802801, "lat": 50.4436745, "lon": 18.8547023, "tags": {"addr:city": "Tarnowskie G\u00f3ry", "addr:housenumber": "4", "addr:postcode": "42-600", "addr:street": "Zamkowa", "amenity": "pharmacy", "dispensing": "yes", "healthcare": "pharmacy", "name": "Radosna", "official_name": "Apteka Radosna", "ref:csioz": "1070223"}}, {"type": "node", "id": 2445627745, "lat": 50.4468876, "lon": 18.8623386, "tags": {"amenity": "pharmacy", "brand": "Dr. Max", "brand:wikidata": "Q56317371", "dispensing": "yes", "healthcare": "pharmacy", "name": "Dr. Max", "ref:csioz": "1070085"}}, {"type": "node", "id": 2451470329, "lat": 50.2771694, "lon": 18.6721069, "tags": {"amenity": "pharmacy", "dispensing": "yes", "healthcare": "pharmacy", "name": "Apteka Trynek", "ref:csioz": "1062213"}}, {"type": "node", "id": 2462682261, "lat": 50.3543022, "lon": 18.9099941}, {"type": "node", "id": 2462682263, "lat": 50.35432, "lon": 18.9098604}, {"type": "node", "id": 2462682270, "lat": 50.3543752, "lon": 18.9098788}, {"type": "node", "id": 2462682274, "lat": 50.354415, "lon": 18.9100326}, {"type": "node", "id": 2462682278, "lat": 50.3544454, "lon": 18.9098166}, {"type": "node", "id": 2462682281, "lat": 50.3545002, "lon": 18.9099461}, {"type": "node", "id": 2462720699, "lat": 50.3785488, "lon": 18.9478278, "tags": {"amenity": "pharmacy", "dispensing": "yes", "healthcare": "pharmacy", "name": "Centrum", "official_name": "Centrum - Centrum Tanich Lek\u00f3w", "ref:csioz": "1066592"}}, {"type": "node", "id": 2473724038, "lat": 50.2525297, "lon": 19.0199864, "tags": {"amenity": "pharmacy", "brand": "Ziko Apteka", "brand:wikidata": "Q63432892", "check_date": "2024-01-26", "dispensing": "yes", "healthcare": "pharmacy", "name": "Ziko Apteka", "opening_hours": "Mo-Fr 07:30-21:00, Sa 08:00-16:00", "payment:cash": "yes", "payment:coins": "yes", "payment:mastercard": "yes", "payment:visa": "yes", "phone": "+48 12 687 57 47", "ref:csioz": "1064232", "short_name": "Ziko", "website": "https://www.ziko.pl/katowice-apteki-drogerie-ziko/plebiscytowa-39/"}}, {"type": "node", "id": 2473724039, "lat": 50.2539829, "lon": 19.0269455, "tags": {"amenity": "pharmacy", "dispensing": "yes", "healthcare": "pharmacy", "name": "\u015awiat zdrowia", "opening_hours": "Mo-Fr 08:00-19:00; Sa 08:00-15:00; Su off", "ref:csioz": "1063804", "survey:date": "2013-09-27"}}, {"type": "node", "id": 2508301888, "lat": 50.2110943, "lon": 18.9847603, "tags": {"amenity": "pharmacy", "dispensing": "yes", "healthcare": "pharmacy", "name": "Apteka Centralna", "ref:csioz": "1184215"}}, {"type": "node", "id": 2570701954, "lat": 50.4338456, "lon": 18.8682804, "tags": {"addr:city": "Tarnowskie G\u00f3ry", "addr:housenumber": "44", "addr:postcode": "42-606", "addr:street": "S\u0142onecznik\u00f3w", "amenity": "pharmacy", "dispensing": "yes", "drive_through": "no", "healthcare": "pharmacy", "name": "\u015awi\u0119tego Kamila", "opening_hours": "Mo-Fr 08:00-19:00; Sa 09:00-13:00", "ref:csioz": "1070169", "source": "EMUiA (geoportal.gov.pl)"}}, {"type": "node", "id": 2577565172, "lat": 50.2717666, "lon": 18.7765738, "tags": {"addr:city": "Zabrze", "addr:housenumber": "24", "addr:postcode": "41-800", "addr:street": "Makoszowska", "amenity": "pharmacy", "check_date": "2024-05-25", "dispensing": "yes", "healthcare": "pharmacy", "name": "Apteka Skarbnik", "ref:csioz": "1071484"}}, {"type": "node", "id": 2578758687, "lat": 50.2385664, "lon": 18.8338957, "tags": {"amenity": "pharmacy", "dispensing": "yes", "healthcare": "pharmacy", "name": "Apteka \"Viola\"", "opening_hours": "Mo-Fr 08:00-20:00; Sa 08:00-14:00", "phone": "+48 32 242 65 77", "ref:csioz": "1067815", "wheelchair": "yes"}}, {"type": "node", "id": 2588823835, "lat": 50.1684004, "lon": 18.8885307, "tags": {"amenity": "pharmacy", "healthcare": "pharmacy", "name": "Nowa Apteka", "ref:csioz": "1065824"}}, {"type": "node", "id": 2589248889, "lat": 50.2300784, "lon": 18.9496376, "tags": {"amenity": "pharmacy", "contact:email": "panewniki@aptekavitalis.pl", "contact:phone": "+48 32 256 01 42", "contact:website": "http://aptekavitalis.pl/strona-glowna/nasze-apteki/apteka-panewnicka", "dispensing": "yes", "healthcare": "pharmacy", "name": "Vitalis", "official_name": "Apteka Vitalis 2", "opening_hours": "Mo-Fr 08:00-21:00; Sa 08:00-20:00; Su 09:00-16:00", "ref:csioz": "1178178"}}, {"type": "node", "id": 2694357370, "lat": 50.2876752, "lon": 18.9247958, "tags": {"amenity": "pharmacy", "dispensing": "yes", "healthcare": "pharmacy", "name": "Apteka ca\u0142odobowa", "official_name": "Apteka Rodzinna", "opening_hours": "24/7", "ref:csioz": "1069975"}}, {"type": "node", "id": 2707796707, "lat": 50.3267644, "lon": 18.576515}, {"type": "node", "id": 2722800870, "lat": 50.2434429, "lon": 18.7422931, "tags": {"addr:city": "Przyszowice", "addr:housenumber": "29B", "addr:postcode": "44-178", "addr:street": "Polna", "amenity": "pharmacy", "dispensing": "yes", "healthcare": "pharmacy", "name": "Apteka \u015aw. Anny", "ref:csioz": "1066932"}}, {"type": "node", "id": 2722800871, "lat": 50.244848, "lon": 18.7444704, "tags": {"addr:city": "Przyszowice", "addr:housenumber": "2b", "addr:postcode": "44-178", "addr:street": "Parkowa", "amenity": "pharmacy", "healthcare": "pharmacy", "name": "Apteka \u015aw. Barbary", "ref:csioz": "1218617"}}, {"type": "node", "id": 2750057508, "lat": 50.3013366, "lon": 18.6846007, "tags": {"addr:city": "Gliwice", "addr:housenumber": "18", "addr:postcode": "44-100", "addr:street": "Opolska", "amenity": "pharmacy", "dispensing": "yes", "healthcare": "pharmacy", "name": "APTEKA KOLEJOWA NR 8", "official_name": "Maxfarm Apteka - Zawsze Niskie Ceny", "opening_hours": "07:00-18:00", "ref:csioz": "1062199"}}, {"type": "node", "id": 2750361417, "lat": 50.3043769, "lon": 18.6812887, "tags": {"amenity": "pharmacy", "brand": "Dbam o Zdrowie", "brand:wikidata": "Q62563833", "dispensing": "yes", "healthcare": "pharmacy", "name": "Apteka Dbam O Zdrowie", "phone": "32 232 94 24", "ref:csioz": "1062352"}}, {"type": "node", "id": 2750361433, "lat": 50.3010085, "lon": 18.6815634, "tags": {"amenity": "pharmacy", "brand": "Super-Pharm", "brand:wikidata": "Q13220217", "brand:wikipedia": "en:Super-Pharm", "dispensing": "yes", "healthcare": "pharmacy", "name": "Super-Pharm", "official_name": "Super-Pharm Apteka", "opening_hours": "24/7", "ref:csioz": "1062104"}}, {"type": "node", "id": 2794873851, "lat": 50.2773653, "lon": 19.0083072, "tags": {"amenity": "pharmacy", "brand": "Dr. Max", "brand:wikidata": "Q56317371", "contact:email": "katowice.sciegiennego@drmax.com.pl", "contact:phone": "+48 32 608 10 39", "dispensing": "yes", "healthcare": "pharmacy", "name": "Dr. Max", "old_name": "Magiczna", "opening_hours": "Mo-Sa 08:00-22:00; Su,PH 09:00-21:00", "ref:csioz": "1064434"}}, {"type": "node", "id": 2806952301, "lat": 50.3379935, "lon": 18.8919007, "tags": {"amenity": "pharmacy", "dispensing": "yes", "drive_through": "no", "email": "apteka.rodzinna@onet.pl", "healthcare": "pharmacy", "name": "Apteka Rodzinna", "opening_hours": "Mo-Fr 08:00-20:00; Sa 08:00-14:00", "phone": "322824124", "ref:csioz": "1059202"}}, {"type": "node", "id": 2807198147, "lat": 50.3330849, "lon": 18.9403438}, {"type": "node", "id": 2807198148, "lat": 50.3330846, "lon": 18.9404227}, {"type": "node", "id": 2807198150, "lat": 50.3330845, "lon": 18.9405203}, {"type": "node", "id": 2807198169, "lat": 50.3332485, "lon": 18.9403438}, {"type": "node", "id": 2807198170, "lat": 50.3332486, "lon": 18.9404296}, {"type": "node", "id": 2807198171, "lat": 50.3332479, "lon": 18.9405169}, {"type": "node", "id": 2968633199, "lat": 50.4481321, "lon": 18.8524642, "tags": {"amenity": "pharmacy", "dispensing": "yes", "healthcare": "pharmacy", "name": "Zdrowit", "ref:csioz": "1070073", "source:disused": "Rejestr Aptek MZ"}}, {"type": "node", "id": 2984259067, "lat": 50.2310774, "lon": 18.9732683, "tags": {"amenity": "pharmacy", "contact:phone": "+48 32 254 40 88", "contact:website": "http://www.aptekaisofarm.pl/", "dispensing": "yes", "healthcare": "pharmacy", "name": "Isofarm", "official_name": "Apteka Isofarm", "opening_hours": "24/7", "ref:csioz": "1116167", "wheelchair": "yes"}}, {"type": "node", "id": 3012065523, "lat": 50.1807612, "lon": 18.7645249}, {"type": "node", "id": 3012065524, "lat": 50.1808512, "lon": 18.76445}, {"type": "node", "id": 3025127908, "lat": 50.3419733, "lon": 18.623806, "tags": {"amenity": "pharmacy", "dispensing": "yes", "healthcare": "pharmacy", "name": "Pod \u0141ab\u0119dziem", "ref:csioz": "1062394"}}, {"type": "node", "id": 3048454478, "lat": 50.3992688, "lon": 18.9015577, "tags": {"addr:city": "Radzionk\u00f3w", "addr:housenumber": "5A", "addr:postcode": "41-922", "addr:street": "Szyma\u0142y", "amenity": "pharmacy", "dispensing": "yes", "healthcare": "pharmacy", "name": "Apteka \u201ePod Mandragor\u0105\u201d", "ref:csioz": "1067487"}}, {"type": "node", "id": 3048454525, "lat": 50.4019061, "lon": 18.9050039, "tags": {"addr:city": "Radzionk\u00f3w", "addr:housenumber": "21", "addr:postcode": "41-922", "addr:street": "\u015awi\u0119tego Wojciecha", "amenity": "pharmacy", "dispensing": "yes", "healthcare": "pharmacy", "name": "Apteka Laury", "ref:csioz": "1067498"}}, {"type": "node", "id": 3052575340, "lat": 50.38749, "lon": 18.9538544, "tags": {"amenity": "pharmacy", "healthcare": "pharmacy"}}, {"type": "node", "id": 3130241570, "lat": 50.2108163, "lon": 18.9739513, "tags": {"amenity": "pharmacy", "dispensing": "yes", "healthcare": "pharmacy", "name": "ISOFARM", "official_name": "Apteka Isofarm", "opening_hours": "Mo-Fr 08:00-20:00; Sa 08:00-15:00", "operator": "ISOFARM", "ref:csioz": "1195621", "website": "https://www.zaufane-apteki.pl/"}}, {"type": "node", "id": 3168085028, "lat": 50.2590606, "lon": 19.018408, "tags": {"amenity": "pharmacy", "check_date:opening_hours": "2023-10-25", "contact:phone": "+48 32 209 58 75", "contact:website": "http://aptekiglowne.pl", "dispensing": "yes", "healthcare": "pharmacy", "name": "Apteka G\u0142\u00f3wna", "official_name": "Apteka G\u0142\u00f3wna Centrum Niskich Cen", "opening_hours": "Mo-Su 07:00-22:00", "operator": "Farmacja Polska Apteki G\u0142\u00f3wne Sp. z o.o.", "ref:csioz": "1112380"}}, {"type": "node", "id": 3227096477, "lat": 50.275262, "lon": 18.9837758, "tags": {"amenity": "pharmacy", "dispensing": "yes", "healthcare": "pharmacy", "name": "S\u0142oneczna", "official_name": "Apteka S\u0142oneczna", "ref:csioz": "1171567"}}, {"type": "node", "id": 3255598727, "lat": 50.4012859, "lon": 18.628664, "tags": {"amenity": "pharmacy", "dispensing": "yes", "healthcare": "pharmacy", "name": "Remedium", "ref:csioz": "1067169"}}, {"type": "node", "id": 3270108164, "lat": 50.2203313, "lon": 18.6660775, "tags": {"addr:city": "Knur\u00f3w", "addr:housenumber": "14", "addr:postcode": "44-190", "addr:street": "Niepodleg\u0142o\u015bci", "amenity": "pharmacy", "brand": "Dbam o Zdrowie", "brand:wikidata": "Q62563833", "dispensing": "yes", "healthcare": "pharmacy", "name": "Dbam o Zdrowie", "ref:csioz": "1064811", "short_name": "DOZ"}}, {"type": "node", "id": 3280962562, "lat": 50.3406264, "lon": 18.9330214, "tags": {"amenity": "pharmacy", "dispensing": "yes", "healthcare": "pharmacy", "name": "Gallena. Apteka", "phone": "+48 32 2821467", "ref:csioz": "1058720", "wheelchair": "yes"}}, {"type": "node", "id": 3316467753, "lat": 50.266507, "lon": 18.8823649, "tags": {"addr:city": "Ruda \u015al\u0105ska", "addr:housenumber": "16", "addr:postcode": "41-717", "addr:street": "G\u00f3rno\u015bl\u0105ska", "amenity": "pharmacy", "dispensing": "yes", "healthcare": "pharmacy", "name": "Apteka Dr.Max", "opening_hours": "24/7", "phone": "+48 32 248 41 47", "ref:csioz": "1185907", "website": "https://www.drmax.pl/", "wheelchair": "yes"}}, {"type": "node", "id": 3377697163, "lat": 50.2707131, "lon": 18.9313086, "tags": {"addr:city": "Chorz\u00f3w", "addr:housenumber": "15", "addr:postcode": "41-506", "addr:street": "Graniczna", "amenity": "pharmacy", "dispensing": "yes", "healthcare": "pharmacy", "name": "Apteka Przy Rondzie", "official_name": "Sieciowa Nr 15", "opening_hours": "Mo-Fr 08:00-20:00; Sa 08:00-15:00; Su off", "ref:csioz": "1170370"}}, {"type": "node", "id": 3377697164, "lat": 50.2738712, "lon": 18.9396159, "tags": {"amenity": "pharmacy", "dispensing": "yes", "healthcare": "pharmacy", "name": "Topfarm", "opening_hours": "Mo-Fr 08:00-18:00; Sa 08:00-12:00; Su off", "ref:csioz": "1203491"}}, {"type": "node", "id": 3377697165, "lat": 50.2739347, "lon": 18.9275867, "tags": {"amenity": "pharmacy", "dispensing": "yes", "healthcare": "pharmacy", "name": "Apteka Rodzinna", "opening_hours": "Mo-Fr 08:00-21:00; Sa 08:00-14:00; Su off", "ref:csioz": "1220720"}}, {"type": "node", "id": 3377705677, "lat": 50.2753921, "lon": 18.9367057, "tags": {"amenity": "pharmacy", "contact:phone": "+48 32 2462006", "dispensing": "yes", "healthcare": "pharmacy", "name": "Pod Lwem", "opening_hours": "Mo-Fr 08:00-20:00; Sa 08:00-16:00; Su off", "ref:csioz": "1059591"}}, {"type": "node", "id": 3377940955, "lat": 50.4415732, "lon": 18.818736, "tags": {"addr:city": "Tarnowskie G\u00f3ry", "addr:housenumber": "9A", "addr:postcode": "42-612", "addr:street": "Wincentego Janasa", "amenity": "pharmacy", "description": "Apteka \"Gemini\" dawniej \"Awos\"", "dispensing": "yes", "healthcare": "pharmacy", "name": "Gemini", "official_name": "Apteka Gemini", "opening_hours": "Mo-Fr 08:00-20:00; Sa 08:00-15:00", "phone": "+48 32 413 15 70", "ref:csioz": "1172304", "shop": "medical_supply", "website": "https://www.aptekagemini.pl/"}}, {"type": "node", "id": 3488780521, "lat": 50.3029965, "lon": 18.7913908, "tags": {"addr:city": "Zabrze", "addr:housenumber": "319", "addr:postcode": "41-800", "addr:street": "Wolno\u015bci", "amenity": "pharmacy", "brand": "Dbam o Zdrowie", "brand:wikidata": "Q62563833", "dispensing": "yes", "healthcare": "pharmacy", "name": "Dbam o Zdrowie", "official_name": "Apteka Dbam O Zdrowie", "opening_hours": "Mo-Fr 07:30-19:30; Sa 08:00-15:00", "ref:csioz": "1071753"}}, {"type": "node", "id": 3488780523, "lat": 50.3053077, "lon": 18.7562064, "tags": {"amenity": "pharmacy", "dispensing": "yes", "healthcare": "pharmacy", "name": "Prima", "official_name": "Apteka Prima Dla Zdrowia", "opening_hours": "Mo-Fr 07:30-19:30; Sa 08:00-14:00", "ref:csioz": "1225408"}}, {"type": "node", "id": 3536836437, "lat": 50.1053692, "lon": 18.4765508, "tags": {"addr:city": "Jejkowice", "addr:housenumber": "26", "addr:postcode": "44-290", "addr:street": "G\u0142\u00f3wna", "amenity": "pharmacy", "dispensing": "yes", "healthcare": "pharmacy", "name": "Gminna", "ref:csioz": "1063337"}}, {"type": "node", "id": 3566811352, "lat": 50.2951986, "lon": 18.6869103}, {"type": "node", "id": 3566811361, "lat": 50.2952226, "lon": 18.6869345}, {"type": "node", "id": 3566811374, "lat": 50.2952651, "lon": 18.6867484}, {"type": "node", "id": 3566811378, "lat": 50.2952764, "lon": 18.6869881}, {"type": "node", "id": 3566811390, "lat": 50.295315, "lon": 18.686886}, {"type": "node", "id": 3566811393, "lat": 50.2953209, "lon": 18.6867999}, {"type": "node", "id": 3566811397, "lat": 50.2953356, "lon": 18.6868811}, {"type": "node", "id": 3566811399, "lat": 50.2953382, "lon": 18.6869062}, {"type": "node", "id": 3566811407, "lat": 50.2953746, "lon": 18.6869412}, {"type": "node", "id": 3566811409, "lat": 50.295381, "lon": 18.686965}, {"type": "node", "id": 3566811422, "lat": 50.2954089, "lon": 18.6869911}, {"type": "node", "id": 3566811423, "lat": 50.2954144, "lon": 18.6869766}, {"type": "node", "id": 3566811436, "lat": 50.295441, "lon": 18.6869056}, {"type": "node", "id": 3597082405, "lat": 50.2561536, "lon": 19.0219364, "tags": {"amenity": "pharmacy", "dispensing": "yes", "healthcare": "pharmacy", "name": "Apteka Dr.Max", "opening_hours": "24/7", "ref:csioz": "1064577", "wheelchair": "no"}}, {"type": "node", "id": 3612819592, "lat": 50.1427869, "lon": 18.6333685, "tags": {"addr:city": "Czerwionka-Leszczyny", "addr:housenumber": "35 B", "addr:postcode": "44-238", "addr:street": "Ksi\u0119dza Adolfa Pojdy", "amenity": "pharmacy", "dispensing": "yes", "healthcare": "pharmacy", "name": "Duos", "ref:csioz": "1060247"}}, {"type": "node", "id": 3613470970, "lat": 50.1518174, "lon": 18.675236, "tags": {"addr:city": "Czerwionka-Leszczyny", "addr:housenumber": "12", "addr:postcode": "44-230", "addr:street": "3 Maja", "amenity": "pharmacy", "dispensing": "yes", "healthcare": "pharmacy", "name": "Apteka Dbam O Zdrowie", "ref:csioz": "1060172"}}, {"type": "node", "id": 3613520394, "lat": 50.139713, "lon": 18.6264205, "tags": {"addr:city": "Czerwionka-Leszczyny", "addr:housenumber": "2A", "addr:postcode": "44-238", "addr:street": "Sportowa", "amenity": "pharmacy", "dispensing": "yes", "healthcare": "pharmacy", "name": "Melisa", "opening_hours": "Mo-Fr 07:30-18:30; Sa 07:30-13:30; PH off"}}, {"type": "node", "id": 3614450581, "lat": 50.1635738, "lon": 18.6656882, "tags": {"amenity": "pharmacy", "dispensing": "yes", "healthcare": "pharmacy", "name": "\u015aw.Damiana", "opening_hours": "Mo-Fr 08:00-19:00; Sa 08:00-13:00", "phone": "+48 32 43 11 828", "ref:csioz": "1060239"}}, {"type": "node", "id": 3616083795, "lat": 50.1472582, "lon": 18.6822592, "tags": {"addr:city": "Czerwionka-Leszczyny", "addr:housenumber": "8a", "addr:postcode": "44-230", "addr:street": "Jana Paw\u0142a II", "amenity": "pharmacy", "dispensing": "yes", "healthcare": "pharmacy", "name": "Apteka Dbam O Zdrowie", "ref:csioz": "1060218"}}, {"type": "node", "id": 3662396243, "lat": 50.3244747, "lon": 18.930727, "tags": {"amenity": "pharmacy", "dispensing": "yes", "healthcare": "pharmacy", "name": "Zdrowita", "official_name": "Zdrowita Apteka Sieciowa", "opening_hours": "Mo-Fr 08:00-17:30; Sa 08:00-13:00", "ref:csioz": "1183632"}}, {"type": "node", "id": 3673012225, "lat": 50.3801819, "lon": 18.8906069, "tags": {"amenity": "pharmacy", "brand": "Dbam o Zdrowie", "brand:wikidata": "Q62563833", "dispensing": "yes", "healthcare": "pharmacy", "name": "Dbam o Zdrowie", "ref:csioz": "1059159", "short_name": "DOZ"}}, {"type": "node", "id": 3750595711, "lat": 50.3504592, "lon": 18.8969663, "tags": {"amenity": "pharmacy", "dispensing": "yes", "healthcare": "pharmacy", "name": "Wsp\u00f3lna", "official_name": "Super Apteka", "phone": "+48 32 787 55 99", "ref:csioz": "1059266"}}, {"type": "node", "id": 3751653890, "lat": 50.3064817, "lon": 18.6722401, "tags": {"amenity": "pharmacy", "dispensing": "yes", "healthcare": "pharmacy", "name": "Aptkeka pod R\u00f3\u017c\u0105", "ref:csioz": "1061930"}}, {"type": "node", "id": 3781371132, "lat": 50.256144, "lon": 19.0243441, "tags": {"amenity": "pharmacy", "brand": "Dbam o Zdrowie", "brand:wikidata": "Q62563833", "check_date:opening_hours": "2024-12-20", "contact:email": "apt88205@dbamozdrowie.pl", "contact:phone": "+48 736698077", "dispensing": "yes", "healthcare": "pharmacy", "name": "Dbam o Zdrowie", "official_name": "Apteka Dbam O Zdrowie", "opening_hours": "Mo-Fr 07:30-19:30; Sa 08:00-14:00; Su,PH off", "ref:csioz": "1064566", "short_name": "DOZ", "website": "https://www.doz.pl/apteki/a88205-Apteka_Dbam_o_Zdrowie"}}, {"type": "node", "id": 3798430703, "lat": 50.1788779, "lon": 18.7625996}, {"type": "node", "id": 3798431000, "lat": 50.1789265, "lon": 18.762814}, {"type": "node", "id": 3798431001, "lat": 50.1789305, "lon": 18.7627972}, {"type": "node", "id": 3798431075, "lat": 50.1787441, "lon": 18.7625486}, {"type": "node", "id": 3798431084, "lat": 50.1788381, "lon": 18.7628711}, {"type": "node", "id": 3798861636, "lat": 50.1019328, "lon": 18.7307221}, {"type": "node", "id": 3798861640, "lat": 50.1019938, "lon": 18.7309029}, {"type": "node", "id": 3798863241, "lat": 50.1019816, "lon": 18.7306824}, {"type": "node", "id": 3798863244, "lat": 50.1020331, "lon": 18.7306406}, {"type": "node", "id": 3798863250, "lat": 50.1020949, "lon": 18.7308205}, {"type": "node", "id": 3806410124, "lat": 50.2924487, "lon": 18.9162827, "tags": {"addr:city": "\u015awi\u0119toch\u0142owice", "addr:housenumber": "15-17", "addr:postcode": "41-600", "addr:street": "Bytomska", "amenity": "pharmacy", "check_date:opening_hours": "2025-08-04", "dispensing": "yes", "healthcare": "pharmacy", "name": "S\u0142oneczna", "official_name": "Apteka S\u0142oneczna", "opening_hours": "Mo-Fr 07:00-21:00; Sa 08:00-15:00", "phone": "+48 32 241 00 75", "ref:csioz": "1069876", "wheelchair": "yes"}}, {"type": "node", "id": 3855018940, "lat": 50.2945238, "lon": 18.667008, "tags": {"amenity": "pharmacy", "brand": "Ziko Apteka", "brand:wikidata": "Q63432892", "check_date:opening_hours": "2024-11-07", "dispensing": "yes", "healthcare": "pharmacy", "name": "Ziko Apteka", "opening_hours": "Mo-Fr 08:00-20:00, Sa 08:00-15:00", "payment:cash": "yes", "payment:coins": "yes", "payment:maestro": "yes", "payment:visa": "yes", "phone": "+48 12 687 57 47", "ref:csioz": "1185194", "short_name": "Ziko", "website": "https://www.ziko.pl/gliwice-apteki-drogerie-ziko/zwyciestwa-3/"}}, {"type": "node", "id": 3901381700, "lat": 50.244754, "lon": 18.8398187, "tags": {"addr:city": "Ruda \u015al\u0105ska", "addr:housenumber": "4C", "addr:postcode": "41-706", "addr:street": "Grodzka", "amenity": "pharmacy", "dispensing": "yes", "healthcare": "pharmacy", "name": "Apteka \u201eSALIX\u201d", "opening_hours": "Mo-Fr 08:00-19:00; Sa 08:00-14:00", "phone": "+48 32 242 24 23", "ref:csioz": "1067618", "wheelchair": "yes"}}, {"type": "node", "id": 3901385577, "lat": 50.2704365, "lon": 18.8605627, "tags": {"amenity": "pharmacy", "dispensing": "yes", "healthcare": "pharmacy", "name": "Apteka MEDICAMENTA ET VARIA", "official_name": "Aptekarstwo-Apteka Medicamenta Et Varia", "opening_hours": "Mo-Fr 08:45-16:45", "phone": "+48 32 240 22 75", "ref:csioz": "1067626", "wheelchair": "yes"}}, {"type": "node", "id": 3901410277, "lat": 50.3154014, "lon": 18.8783291, "tags": {"addr:city": "Ruda \u015al\u0105ska", "addr:housenumber": "20", "addr:postcode": "41-712", "addr:street": "Joanny", "amenity": "pharmacy", "dispensing": "yes", "healthcare": "pharmacy", "name": "Apteka Zdrowit", "opening_hours": "Mo-Fr 08:00-20:00; Sa 08:00-14:00", "phone": "+48 32 248 21 72", "ref:csioz": "1177260"}}, {"type": "node", "id": 3901415369, "lat": 50.2673336, "lon": 18.8315703, "tags": {"amenity": "pharmacy", "dispensing": "yes", "healthcare": "pharmacy", "name": "Duos", "phone": "+48 32 240 21 23", "ref:csioz": "1202082", "wheelchair": "yes"}}, {"type": "node", "id": 3901437959, "lat": 50.2745202, "lon": 18.8305344, "tags": {"addr:city": "Ruda \u015al\u0105ska", "addr:housenumber": "51b", "addr:postcode": "41-711", "addr:street": "Ksi\u0119dza J\u00f3zefa Niedzieli", "amenity": "pharmacy", "dispensing": "yes", "healthcare": "pharmacy", "name": "Apteka \u015aw. Barbary", "official_name": "\u015aw. Barbary", "opening_hours": "Mo-Fr 08:00-18:00; Sa 08:00-13:00", "phone": "+48 32 240 21 54", "ref:csioz": "1067719", "wheelchair": "limited"}}, {"type": "node", "id": 3901468423, "lat": 50.2436607, "lon": 18.8442551, "tags": {"addr:city": "Ruda \u015al\u0105ska", "addr:housenumber": "5A", "addr:postcode": "41-706", "addr:street": "Kornela Makuszy\u0144skiego", "amenity": "pharmacy", "dispensing": "yes", "healthcare": "pharmacy", "name": "Apteka MELISSA", "opening_hours": "Mo-Fr 07:00-20:00; Sa 07:00-14:00", "phone": "+48 32 243 31 43", "ref:csioz": "1067743", "wheelchair": "limited"}}, {"type": "node", "id": 3901878053, "lat": 50.3084916, "lon": 18.8576239, "tags": {"amenity": "pharmacy", "dispensing": "yes", "drive_through": "no", "healthcare": "pharmacy", "level": "0", "name": "Apteka \u201eNa Norwida\u201d", "opening_hours": "Mo-Fr 08:00-18:00; Sa 09:00-13:00", "phone": "+48 32 248 22 68", "ref:csioz": "1067781", "wheelchair": "yes"}}, {"type": "node", "id": 3901931773, "lat": 50.2671444, "lon": 18.8989112, "tags": {"amenity": "pharmacy", "dispensing": "yes", "healthcare": "pharmacy", "name": "Apteka S\u0142oneczna", "opening_hours": "Mo-Fr 08:00-19:00; Sa 09:00-13:00", "phone": "+48 32 240 83 96", "ref:csioz": "1067913", "wheelchair": "yes"}}, {"type": "node", "id": 3901954985, "lat": 50.302489, "lon": 18.8536988, "tags": {"amenity": "pharmacy", "brand": "Dbam o Zdrowie", "brand:wikidata": "Q62563833", "dispensing": "yes", "healthcare": "pharmacy", "name": "Dbam o Zdrowie", "official_name": "Apteka Dbam O Zdrowie", "opening_hours": "Mo-Fr 08:00-18:00; Sa 08:00-13:00", "phone": "+48 32 340 38 39", "ref:csioz": "1067968", "short_name": "DOZ", "wheelchair": "yes"}}, {"type": "node", "id": 3901962126, "lat": 50.3145879, "lon": 18.8525204, "tags": {"amenity": "pharmacy", "check_date:opening_hours": "2024-07-13", "dispensing": "yes", "healthcare": "pharmacy", "name": "Apteka \u201eWawelska\u201d", "opening_hours": "Mo-Fr 08:00-19:00; Sa 08:00-13:00", "phone": "+48 32 248 13 13", "ref:csioz": "1067945", "wheelchair": "no"}}, {"type": "node", "id": 3907011313, "lat": 50.2713103, "lon": 19.0056964, "tags": {"amenity": "pharmacy", "contact:facebook": "https://facebook.com/Apteka-Europejska-203404739793490", "contact:phone": "+48 32 605 02 43", "dispensing": "yes", "healthcare": "pharmacy", "level": "0", "name": "Apteka Europejska", "opening_hours": "24/7", "ref:csioz": "1063625"}}, {"type": "node", "id": 3907946999, "lat": 50.2995992, "lon": 18.8530911, "tags": {"amenity": "pharmacy", "brand": "Ziko Apteka", "brand:wikidata": "Q63432892", "dispensing": "yes", "healthcare": "pharmacy", "name": "Ziko Apteka", "opening_hours": "Mo-Fr 08:00-20:00; Sa 08:00-14:00", "payment:cash": "yes", "payment:coins": "yes", "payment:mastercard": "yes", "payment:visa": "yes", "phone": "+48 12 687 57 47", "ref:csioz": "1184464", "short_name": "Ziko", "website": "https://www.ziko.pl/ruda-slaska-apteki-drogerie-ziko/zabrzanska-51/"}}, {"type": "node", "id": 3920519638, "lat": 50.306726, "lon": 18.7857748, "tags": {"amenity": "pharmacy", "dispensing": "yes", "healthcare": "pharmacy", "name": "Apteka S\u0142oneczna", "ref:csioz": "1181920"}}, {"type": "node", "id": 3920519639, "lat": 50.2598783, "lon": 19.0145501, "tags": {"amenity": "pharmacy", "contact:phone": "+48 32 202 20 09", "dispensing": "yes", "healthcare": "pharmacy", "name": "Apteka Zdrowit", "opening_hours": "Mo-Fr 07:00-21:00,Sa 08:00-16:00; PH off", "ref:csioz": "1165072"}}, {"type": "node", "id": 3920520026, "lat": 50.2972236, "lon": 18.9514047, "tags": {"amenity": "pharmacy", "dispensing": "yes", "healthcare": "pharmacy", "name": "Niezapominajka", "official_name": "Niezapominajka Dla Ca\u0142ej Rodziny", "ref:csioz": "1059709"}}, {"type": "node", "id": 3920520361, "lat": 50.3062017, "lon": 18.7873366, "tags": {"addr:city": "Zabrze", "addr:housenumber": "301", "addr:postcode": "41-800", "addr:street": "Wolno\u015bci", "amenity": "pharmacy", "dispensing": "yes", "healthcare": "pharmacy", "name": "Pharmacon", "official_name": "Pharmakon", "opening_hours": "Mo-Fr 08:00-19:00; Sa 08:30-13:30", "ref:csioz": "1071744"}}, {"type": "node", "id": 3920520362, "lat": 50.3069689, "lon": 18.7861233, "tags": {"amenity": "pharmacy", "check_date": "2024-07-05", "dispensing": "yes", "healthcare": "pharmacy", "name": "Pharmacon", "official_name": "Pharmakon", "opening_hours": "Mo-Fr 07:00-20:00; Sa 08:00-14:00", "ref:csioz": "1198043"}}, {"type": "node", "id": 3920520375, "lat": 50.3107063, "lon": 18.7861829, "tags": {"amenity": "pharmacy", "dispensing": "yes", "healthcare": "pharmacy", "name": "Pod Lwem", "official_name": "Apteka Pod Lwem", "ref:csioz": "1180657"}}, {"type": "node", "id": 3920520455, "lat": 50.2589604, "lon": 19.0165944}, {"type": "node", "id": 3920520735, "lat": 50.2951443, "lon": 18.9493915, "tags": {"addr:city": "Chorz\u00f3w", "addr:housenumber": "40", "addr:postcode": "41-500", "addr:street": "Wolno\u015bci", "amenity": "pharmacy", "dispensing": "yes", "healthcare": "pharmacy", "name": "Apteka Hygieia", "ref:csioz": "1210500", "source:addr": "gugik.gov.pl"}}, {"type": "node", "id": 3920520738, "lat": 50.2596171, "lon": 19.019992, "tags": {"amenity": "pharmacy", "brand": "Ziko Apteka", "brand:wikidata": "Q63432892", "contact:phone": "+48 12 687 57 47;+48 32 438 86 16", "dispensing": "yes", "healthcare": "pharmacy", "name": "Ziko Apteka", "opening_hours": "Mo-Fr 07:00-20:00; Sa 08:00-16:00; Su,PH off", "payment:cash": "yes", "payment:coins": "yes", "payment:mastercard": "yes", "payment:visa": "yes", "ref:csioz": "1186995", "short_name": "Ziko", "website": "https://www.ziko.pl/apteki/katowice/3-maja-7/"}}, {"type": "node", "id": 3920520797, "lat": 50.2596663, "lon": 19.0189711, "tags": {"amenity": "pharmacy", "brand": "Dr. Max", "brand:wikidata": "Q56317371", "check_date": "2024-06-07", "contact:email": "katowice.3maja@drmax.com.pl", "dispensing": "yes", "healthcare": "pharmacy", "name": "Dr. Max", "opening_hours": "Mo-Fr 08:00-21:00; Sa 08:00-19:00; Su,PH off", "ref:csioz": "1206313"}}, {"type": "node", "id": 3938097926, "lat": 50.1698406, "lon": 18.9085526, "tags": {"amenity": "pharmacy", "healthcare": "pharmacy", "name": "Apteka Miko\u0142owska", "ref:csioz": "1172542"}}, {"type": "node", "id": 3950705341, "lat": 50.1474782, "lon": 18.6769438, "tags": {"addr:city": "Czerwionka-Leszczyny", "addr:housenumber": "6E", "addr:postcode": "44-230", "addr:street": "Piotra Furgo\u0142a", "amenity": "pharmacy", "dispensing": "yes", "healthcare": "pharmacy", "name": "Duos", "ref:csioz": "1181948"}}, {"type": "node", "id": 3993150494, "lat": 50.2311563, "lon": 18.9521356, "tags": {"amenity": "pharmacy", "dispensing": "yes", "healthcare": "pharmacy", "name": "Apteka Ksi\u0105\u017c\u0119ca", "ref:csioz": "1201279", "source": "survey"}}, {"type": "node", "id": 4033835233, "lat": 50.1476382, "lon": 18.840213, "tags": {"amenity": "pharmacy", "brand": "Dbam o Zdrowie", "brand:wikidata": "Q62563833", "healthcare": "pharmacy", "name": "Dbam o Zdrowie", "payment:cards": "yes", "payment:cash": "yes", "ref:csioz": "1065522", "short_name": "DOZ"}}, {"type": "node", "id": 4110399989, "lat": 50.2481893, "lon": 19.0320854, "tags": {"amenity": "pharmacy", "dispensing": "yes", "healthcare": "pharmacy", "name": "Varia", "ref:csioz": "1064397"}}, {"type": "node", "id": 4172966305, "lat": 50.1687861, "lon": 18.90473, "tags": {"amenity": "pharmacy", "dispensing": "yes", "healthcare": "pharmacy", "level": "0", "name": "Apteka na Rynku", "ref:csioz": "1205934", "wheelchair": "yes"}}, {"type": "node", "id": 4196540106, "lat": 50.2906324, "lon": 18.9233969, "tags": {"addr:housenumber": "8", "addr:street": "Wodna", "amenity": "pharmacy", "dispensing": "yes", "healthcare": "pharmacy", "name": "VITA", "opening_hours": "Mo-Fr 07:00-21:00; Sa 08:00-15:00", "phone": "+48322453149", "ref:csioz": "1069991"}}, {"type": "node", "id": 4208687905, "lat": 50.2762373, "lon": 18.6523801, "tags": {"amenity": "pharmacy", "dispensing": "yes", "healthcare": "pharmacy", "name": "Salvia", "ref:csioz": "1062259"}}, {"type": "node", "id": 4227823894, "lat": 50.3394792, "lon": 18.8924528, "tags": {"addr:city": "Bytom", "addr:housenumber": "3", "addr:postcode": "41-907", "addr:street": "Mazurska", "amenity": "pharmacy", "dispensing": "yes", "drive_through": "no", "fax": "32 388 38 01", "healthcare": "pharmacy", "level": "0", "name": "Nasza Apteka", "opening_hours": "Mo-Fr 08:00-18:00; Sa 09:00-13:00", "operator": "Sylwia Kny\u0107", "phone": "32 286 90 08", "ref:csioz": "1058916"}}, {"type": "node", "id": 4230299701, "lat": 50.0184512, "lon": 18.5137778, "tags": {"addr:city": "Marklowice", "addr:housenumber": "154", "addr:postcode": "44-321", "addr:street": "Wyzwolenia", "amenity": "pharmacy", "healthcare": "pharmacy", "name": "Medikor", "phone": "+48 32 453 14 20", "wheelchair": "yes"}}, {"type": "node", "id": 4249168891, "lat": 50.3056568, "lon": 19.0260708, "tags": {"amenity": "pharmacy", "brand": "Dr. Max", "brand:wikidata": "Q56317371", "brand:wikipedia": "fr:Dr.Max", "contact:phone": "+48 32 761 11 00", "dispensing": "yes", "healthcare": "pharmacy", "name": "Dr. Max", "opening_hours": "Mo-Fr 08:00-20:00; Sa 08:00-18:00; Su,PH off", "ref:csioz": "1068482"}}, {"type": "node", "id": 4253253089, "lat": 50.2590181, "lon": 19.0537289, "tags": {"amenity": "pharmacy", "brand": "Ziko Apteka", "brand:wikidata": "Q63432892", "check_date": "2025-02-10", "dispensing": "yes", "healthcare": "pharmacy", "name": "Ziko Apteka", "opening_hours": "Mo-Fr 08:00-21:00; Sa 08:00-16:00", "payment:cash": "yes", "payment:coins": "yes", "payment:mastercard": "yes", "payment:visa": "yes", "phone": "+48 12 687 57 47", "ref:csioz": "1176720", "short_name": "Ziko", "website": "https://www.ziko.pl/katowice-apteki-drogerie-ziko/1-maja-108/"}}, {"type": "node", "id": 4281067351, "lat": 50.2790172, "lon": 19.0089333, "tags": {"amenity": "pharmacy", "brand": "Dbam o Zdrowie", "brand:wikidata": "Q62563833", "contact:phone": "+48 517 95 95 66", "dispensing": "yes", "healthcare": "pharmacy", "name": "Dbam o Zdrowie", "official_name": "Apteka Bracka", "opening_hours": "Mo-Fr 07:30-20:00; Sa 08:00-15:00; Su,PH off", "ref:csioz": "1063926", "short_name": "DOZ", "website": "https://www.doz.pl/apteki/a161896-DOZ_Apteka_dbam_o_zdrowie", "wheelchair": "yes"}}, {"type": "node", "id": 4283957511, "lat": 50.2708637, "lon": 19.0226698, "tags": {"amenity": "pharmacy", "dispensing": "yes", "healthcare": "pharmacy", "name": "Premium-Lek", "official_name": "Apteka Premium-Lek", "opening_hours": "Mo-Fr 08:00-19:00; Sa 08:00-14:00; PH off", "ref:csioz": "1064059"}}, {"type": "node", "id": 4316410694, "lat": 50.2119198, "lon": 18.9980585, "tags": {"addr:city": "Katowice", "addr:housenumber": "68", "addr:postcode": "40-635", "addr:street": "Zio\u0142owa", "amenity": "pharmacy", "dispensing": "yes", "healthcare": "pharmacy", "name": "Apteka PRIMA", "ref:csioz": "1203076"}}, {"type": "node", "id": 4317976394, "lat": 50.1489496, "lon": 18.8427587, "tags": {"addr:postcode": "43-170", "amenity": "pharmacy", "healthcare": "pharmacy", "name": "Apteka Arnika", "phone": "+48 32 224 38 39", "ref:csioz": "1065506"}}, {"type": "node", "id": 4353699920, "lat": 50.4539645, "lon": 18.5215917, "tags": {"addr:city": "Toszek", "addr:housenumber": "11", "addr:postcode": "44-180", "addr:street": "Gliwicka", "amenity": "pharmacy", "dispensing": "yes", "healthcare": "pharmacy", "name": "Apteka G\u0142\u00f3wna", "ref:csioz": "1220681"}}, {"type": "node", "id": 4353699932, "lat": 50.4535151, "lon": 18.5235303, "tags": {"addr:city": "Toszek", "addr:housenumber": "26", "addr:postcode": "44-180", "addr:street": "Gliwicka", "amenity": "pharmacy", "dispensing": "yes", "healthcare": "pharmacy", "name": "Remedium", "ref:csioz": "1165981"}}, {"type": "node", "id": 4354513750, "lat": 50.2987758, "lon": 19.0029748, "tags": {"amenity": "pharmacy", "contact:phone": "+48 504 929 769", "dispensing": "yes", "healthcare": "pharmacy", "name": "Niezapominajka", "official_name": "Na Skarpie", "opening_hours": "Mo-Fr 07:00-20:00; Sa 07:00-15:00; Su,PH off", "ref:csioz": "1068673"}}, {"type": "node", "id": 4362450887, "lat": 50.3961422, "lon": 18.8795091, "tags": {"addr:city": "Bytom", "addr:housenumber": "250E", "addr:postcode": "41-933", "addr:street": "Strzelc\u00f3w Bytomskich", "amenity": "pharmacy", "dispensing": "yes", "healthcare": "pharmacy", "name": "Apteka Zdrowit", "opening_hours": "Mo-Fr 08:00-20:00; Sa 08:00-14:00", "ref:csioz": "1179409"}}, {"type": "node", "id": 4380630250, "lat": 50.297067, "lon": 18.9354997, "tags": {"addr:city": "Chorz\u00f3w", "addr:housenumber": "20", "addr:postcode": "41-500", "addr:street": "\u017bo\u0142nierzy Wrze\u015bnia", "amenity": "pharmacy", "brand": "Dr. Max", "brand:wikidata": "Q56317371", "dispensing": "yes", "healthcare": "pharmacy", "name": "Dr. Max", "official_name": "Dr. Max", "opening_hours": "24/7", "ref:csioz": "1170335"}}, {"type": "node", "id": 4387279022, "lat": 50.2728774, "lon": 18.9986599, "tags": {"amenity": "pharmacy", "contact:phone": "+48 32 2546481", "dispensing": "yes", "healthcare": "pharmacy", "name": "Apteka", "opening_hours": "Mo-Fr 09:00-17:00; Sa 09:00-13:00; Su,PH off", "ref:csioz": "1063658"}}, {"type": "node", "id": 4450427689, "lat": 50.3040612, "lon": 19.0053643, "tags": {"amenity": "pharmacy", "brand": "Gemini", "brand:wikidata": "Q130243797", "contact:phone": "+48 503740146", "dispensing": "yes", "healthcare": "pharmacy", "name": "Gemini", "opening_hours": "Mo-Fr 07:00-20:00; Sa 07:00-15:00; Su,PH off", "ref:csioz": "1068583", "website": "https://www.geminipolska.com.pl/apteki-stacjonarne/siemianowice-slaskie/niepodleglosci-29"}}, {"type": "node", "id": 4492038254, "lat": 50.0979706, "lon": 18.5479663, "tags": {"addr:city": "Rybnik", "addr:housenumber": "1", "addr:postcode": "44-200", "addr:street": "Miko\u0142owska", "amenity": "pharmacy", "dispensing": "yes", "healthcare": "pharmacy", "name": "Przy Bazylice", "ref:csioz": "1068177"}}, {"type": "node", "id": 4497067156, "lat": 50.2417157, "lon": 18.8306746, "tags": {"amenity": "pharmacy", "dispensing": "yes", "drive_through": "no", "healthcare": "pharmacy", "name": "Apteka Zdrovit", "official_name": "Apteka Zdrowit+", "opening_hours": "Mo-Sa 08:00-20:00", "ref:csioz": "1207554"}}, {"type": "node", "id": 4536707045, "lat": 50.2423225, "lon": 18.992459, "tags": {"amenity": "pharmacy", "brand": "Dr. Max", "brand:wikidata": "Q56317371", "brand:wikipedia": "fr:Dr.Max", "check_date:opening_hours": "2022-02-10", "dispensing": "yes", "healthcare": "pharmacy", "name": "Dr. Max", "opening_hours": "Mo-Fr 08:00-20:00; Sa 08:00-15:00", "ref:csioz": "1063952"}}, {"type": "node", "id": 4574674690, "lat": 50.2276759, "lon": 18.6571153, "tags": {"addr:city": "Knur\u00f3w", "addr:housenumber": "1", "addr:postcode": "44-194", "addr:street": "Stefana Batorego", "amenity": "pharmacy", "healthcare": "pharmacy", "name": "Apteka \u015bw. Barbary 4", "name:pl": "Apteka \u015bw. Barbary 4", "opening_hours": "Mo-Fr 07:00-21:00; Sa 08:00-15:00", "phone": "323362119", "ref:csioz": "1064760", "website": "https://aptekaswbarbary.pl/", "wheelchair": "yes"}}, {"type": "node", "id": 4605513941, "lat": 50.3461129, "lon": 18.9212585, "tags": {"addr:city": "Bytom", "addr:housenumber": "3-5", "addr:postcode": "41-902", "addr:street": "Piast\u00f3w Bytomskich", "amenity": "pharmacy", "dispensing": "yes", "healthcare": "pharmacy", "name": "Apteka Rodzinna", "opening_hours": "Mo-Fr 07:30-21:00; Sa 07:30-14:30", "ref:csioz": "1185461"}}, {"type": "node", "id": 4651387992, "lat": 50.365809, "lon": 18.7903051, "tags": {"amenity": "pharmacy", "dispensing": "yes", "healthcare": "pharmacy", "name": "zdrowit", "official_name": "Apteka Zdrowit+", "opening_hours": "Mo-Fr 08:00-20:00; Sa 08:00-14:00", "ref:csioz": "1206032"}}, {"type": "node", "id": 4701854740, "lat": 50.2841182, "lon": 19.013148, "tags": {"amenity": "pharmacy", "contact:phone": "+48 32 202 33 16", "dispensing": "yes", "healthcare": "pharmacy", "name": "Apteka Premium-Lek", "opening_hours": "Mo-Fr 08:00-20:00; Sa 08:00-14:00; Su,PH off", "ref:csioz": "1221866", "website": "https://www.aptekapremiumlek.pl/"}}, {"type": "node", "id": 4774654969, "lat": 50.3451328, "lon": 18.9168354, "tags": {"amenity": "pharmacy", "dispensing": "yes", "healthcare": "pharmacy", "name": "Apteka S\u0142oneczna", "opening_hours": "Mo-Fr 07:00-20:00; Sa 08:00-16:00", "ref:csioz": "1218696"}}, {"type": "node", "id": 4791121327, "lat": 50.3047512, "lon": 18.9171723, "tags": {"amenity": "pharmacy", "dispensing": "yes", "healthcare": "pharmacy", "name": "Euro apteka", "opening_hours": "Mo-Sa 09:00-21:00; Su 10:00-18:00", "ref:csioz": "1122148"}}, {"type": "node", "id": 4799874804, "lat": 50.3722089, "lon": 18.3227337, "tags": {"amenity": "pharmacy", "healthcare": "pharmacy", "name": "Lawenda"}}, {"type": "node", "id": 4799875247, "lat": 50.3896721, "lon": 18.3490472, "tags": {"amenity": "pharmacy", "healthcare": "pharmacy"}}, {"type": "node", "id": 4799875262, "lat": 50.3892475, "lon": 18.3499653, "tags": {"addr:city": "Ujazd", "addr:housenumber": "13B", "addr:postcode": "47-143", "addr:street": "Plac 1 Maja", "amenity": "pharmacy", "healthcare": "pharmacy", "name": "Apteka Go\u017adzikowej", "ref:csioz": "1177205"}}, {"type": "node", "id": 4815976047, "lat": 50.2696821, "lon": 19.0049639}, {"type": "node", "id": 4823521276, "lat": 50.2761575, "lon": 19.0093294, "tags": {"amenity": "pharmacy", "contact:phone": "+48 32 2041562", "dispensing": "yes", "healthcare": "pharmacy", "name": "S\u0142oneczna", "opening_hours": "Mo-Fr 07:00-19:00; Sa 08:00-15:00; Su,PH off", "recycling:drugs": "yes", "ref:csioz": "1064427"}}, {"type": "node", "id": 4829640929, "lat": 50.2831717, "lon": 19.0147067, "tags": {"amenity": "pharmacy", "dispensing": "yes", "healthcare": "pharmacy", "name": "Apteka Centrum", "official_name": "Centrum-Centrum Tanich Lek\u00f3w", "opening_hours": "Mo-Fr 08:00-19:00; Sa 08:00-14:00; PH off", "ref:csioz": "1063836"}}, {"type": "node", "id": 4885472179, "lat": 50.0955159, "lon": 18.5425289, "tags": {"addr:city": "Rybnik", "addr:housenumber": "8", "addr:postcode": "44-200", "addr:street": "Rynek", "amenity": "pharmacy", "dispensing": "yes", "healthcare": "pharmacy", "name": "Zdrowit+", "ref:csioz": "1205859"}}, {"type": "node", "id": 4903333697, "lat": 50.3959735, "lon": 18.895259, "tags": {"amenity": "pharmacy", "dispensing": "yes", "healthcare": "pharmacy", "name": "Hygieia", "opening_hours": "Mo-Fr 08:00-20:00; Sa 08:00-14:00", "ref:csioz": "1212965"}}, {"type": "node", "id": 4947589377, "lat": 50.3017625, "lon": 19.0196247}, {"type": "node", "id": 4947589378, "lat": 50.3017468, "lon": 19.0197512}, {"type": "node", "id": 4947589379, "lat": 50.3017208, "lon": 19.0197463}, {"type": "node", "id": 4947589380, "lat": 50.3017184, "lon": 19.019765}, {"type": "node", "id": 4947589381, "lat": 50.301625, "lon": 19.0197406}, {"type": "node", "id": 4947589382, "lat": 50.3016602, "lon": 19.0195883}, {"type": "node", "id": 4947589388, "lat": 50.3023387, "lon": 19.0176576, "tags": {"amenity": "pharmacy", "dispensing": "yes", "healthcare": "pharmacy", "name": "Pod Lwem", "official_name": "Apteka Pod Lwem", "opening_hours": "Mo-Fr 08:00-20:00; Sa 08:00-18:00; Su 10:00-18:00", "ref:csioz": "1190656", "source": "survey"}}, {"type": "node", "id": 4956460721, "lat": 50.2596008, "lon": 18.9711155, "tags": {"amenity": "pharmacy", "dispensing": "yes", "healthcare": "pharmacy", "name": "Apteka Zdrowit", "opening_hours": "Mo-Fr 08:00-20:00; Sa 08:00-14:00", "phone": "+48 322539339", "ref:csioz": "1177271"}}, {"type": "node", "id": 5001046211, "lat": 50.2262553, "lon": 18.9771576, "tags": {"addr:city": "Katowice", "addr:housenumber": "1", "addr:postcode": "40-707", "addr:street": "Franciszka\u0144ska", "amenity": "pharmacy", "dispensing": "yes", "healthcare": "pharmacy", "name": "Apteka Zdrowit+", "opening_hours": "Mo-Fr 08:00-20:00; Sa 08:00-16:00; Su,PH off", "phone": "+48 32 710 22 44", "ref:csioz": "1205868"}}, {"type": "node", "id": 5043826330, "lat": 50.2902846, "lon": 18.9669262}, {"type": "node", "id": 5043826333, "lat": 50.2902324, "lon": 18.9669394}, {"type": "node", "id": 5046391745, "lat": 50.2903087, "lon": 18.9668385}, {"type": "node", "id": 5046391770, "lat": 50.290317, "lon": 18.966918}, {"type": "node", "id": 5046391771, "lat": 50.2903, "lon": 18.9667542}, {"type": "node", "id": 5046391772, "lat": 50.2902151, "lon": 18.9667757}, {"type": "node", "id": 5057921087, "lat": 50.2969229, "lon": 18.6576651, "tags": {"addr:city": "Gliwice", "addr:housenumber": "6", "addr:postcode": "44-100", "addr:street": "Kozielska", "amenity": "pharmacy", "dispensing": "yes", "email": "gliwice-kozielska@apteka-sloneczna.com.pl", "healthcare": "pharmacy", "name": "Apteka S\u0142oneczna", "opening_hours": "Mo-Fr 07:00-21:00; Sa 08:00-15:00", "ref:csioz": "1200982", "website": "apteka-sloneczna.com.pl"}}, {"type": "node", "id": 5186550374, "lat": 50.1080701, "lon": 18.4311074, "tags": {"amenity": "pharmacy", "dispensing": "yes", "healthcare": "pharmacy", "phone": "+4832 43 06 273", "ref:csioz": "1072649"}}, {"type": "node", "id": 5253774012, "lat": 50.3120389, "lon": 18.8523378, "tags": {"amenity": "pharmacy", "brand": "Dbam o Zdrowie", "brand:wikidata": "Q62563833", "check_date": "2025-07-01", "dispensing": "yes", "healthcare": "pharmacy", "name": "Dbam o Zdrowie", "official_name": "Apteka Dbam O Zdrowie", "opening_hours": "Mo-Fr 07:30-18:30; Sa 07:30-12:30", "ref:csioz": "1067959", "short_name": "DOZ"}}, {"type": "node", "id": 5269736330, "lat": 50.3520048, "lon": 18.9254452, "tags": {"addr:housenumber": "3A", "addr:postcode": "41-902", "addr:street": "Plac Akademicki", "amenity": "pharmacy", "dispensing": "yes", "healthcare": "pharmacy", "name": "Apteka Pomara\u0144czowa", "ref:csioz": "1115658"}}, {"type": "node", "id": 5269980455, "lat": 50.354379, "lon": 18.9214133, "tags": {"amenity": "pharmacy", "dispensing": "yes", "healthcare": "pharmacy", "name": "Apteka Ja\u015bminowa", "ref:csioz": "1223513"}}, {"type": "node", "id": 5299175977, "lat": 50.3269324, "lon": 18.5765881}, {"type": "node", "id": 5299175978, "lat": 50.3268535, "lon": 18.5766859}, {"type": "node", "id": 5299175980, "lat": 50.3268433, "lon": 18.5764161}, {"type": "node", "id": 5314152595, "lat": 50.3243034, "lon": 19.0029989, "tags": {"addr:city": "Siemianowice \u015al\u0105skie", "addr:housenumber": "61", "addr:postcode": "41-103", "addr:street": "Ko\u015bcielna", "amenity": "pharmacy", "brand": "Dbam o Zdrowie", "brand:wikidata": "Q62563833", "dispensing": "yes", "healthcare": "pharmacy", "name": "Dbam o Zdrowie", "official_name": "Doz Apteka Dbam O Zdrowie", "opening_hours": "Mo-Fr 07:00-18:00; Sa 07:30-13:30; Su,PH off", "ref:csioz": "1068547", "short_name": "DOZ"}}, {"type": "node", "id": 5317124626, "lat": 50.2300247, "lon": 18.6620691, "tags": {"addr:city": "Knur\u00f3w", "addr:housenumber": "1B", "addr:postcode": "44-194", "addr:street": "W\u0142adys\u0142awa \u0141okietka", "amenity": "pharmacy", "check_date:opening_hours": "2023-06-26", "dispensing": "yes", "healthcare": "pharmacy", "image": "http://www.apteka-sloneczna.pl/wp-content/uploads/2015/02/cropped-cropped-naglowek_sloneczna2.png", "name": "Apteka S\u0142oneczna", "opening_hours": "Mo-Fr 07:00-21:00; Sa 08:00-15:00", "phone": "516 995 221", "ref:csioz": "1200996", "survey:date": "2025-04-16", "website": "http://www.apteka-sloneczna.pl/", "wheelchair": "yes"}}, {"type": "node", "id": 5325746369, "lat": 50.4442427, "lon": 18.8256698, "tags": {"addr:city": "Tarnowskie G\u00f3ry", "addr:housenumber": "8", "addr:postcode": "42-612", "addr:street": "Poczdamska", "amenity": "pharmacy", "brand": "Ziko Apteka", "brand:wikidata": "Q63432892", "dispensing": "yes", "healthcare": "pharmacy", "name": "Ziko Apteka", "opening_hours": "Mo-Fr 08:00-20:00; Sa 08:00-15:00", "payment:cash": "yes", "payment:coins": "yes", "payment:mastercard": "yes", "payment:visa": "yes", "phone": "+48 12 687 57 47", "ref:csioz": "1179524", "short_name": "Ziko", "website": "https://www.ziko.pl/tarnowskie-gory-apteki-drogerie-ziko/poczdamska-8/"}}, {"type": "node", "id": 5325760193, "lat": 50.4444185, "lon": 18.8236931, "tags": {"amenity": "pharmacy", "dispensing": "yes", "healthcare": "pharmacy", "ref:csioz": "1070103"}}, {"type": "node", "id": 5428401241, "lat": 50.3521732, "lon": 18.8944926, "tags": {"amenity": "pharmacy", "dispensing": "yes", "healthcare": "pharmacy", "name": "Apteka Gallena", "ref:csioz": "1058892", "source:geometry": "geoportal.gov.pl/isok"}}, {"type": "node", "id": 5545889722, "lat": 50.303887, "lon": 18.9226388, "tags": {"amenity": "pharmacy", "dispensing": "yes", "healthcare": "pharmacy", "name": "APTEKA DR. MAX", "ref:csioz": "1059320"}}, {"type": "node", "id": 5554094889, "lat": 50.3023163, "lon": 18.9125615, "tags": {"amenity": "pharmacy", "dispensing": "yes", "healthcare": "pharmacy", "opening_hours": "Mo-Fr 08:00-18:00; Sa 08:00-13:00", "ref:csioz": "1069988"}}, {"type": "node", "id": 5593051446, "lat": 50.3484593, "lon": 18.9180497, "tags": {"amenity": "pharmacy", "dispensing": "yes", "healthcare": "pharmacy", "name": "Apteka Piekarska", "official_name": "Apteka Radosna", "ref:csioz": "1059024"}}, {"type": "node", "id": 5593051457, "lat": 50.3493478, "lon": 18.9183851, "tags": {"amenity": "pharmacy", "dispensing": "yes", "healthcare": "pharmacy", "name": "Apteka Radosna", "ref:csioz": "1059019"}}, {"type": "node", "id": 5682800624, "lat": 50.2756707, "lon": 18.9085659, "tags": {"addr:city": "\u015awi\u0119toch\u0142owice", "addr:housenumber": "109", "addr:postcode": "41-600", "addr:street": "\u015al\u0105ska", "amenity": "pharmacy", "dispensing": "yes", "healthcare": "pharmacy", "name": "Hygieia", "opening_hours": "Mo-Fr 07:00-21:00; Sa 08:00-20:00", "ref:csioz": "1206466", "website": "https://apteka.hygieia.pl/apteka_swietochlowice"}}, {"type": "node", "id": 5831745049, "lat": 50.1392024, "lon": 18.6204687, "tags": {"addr:city": "Czerwionka-Leszczyny", "addr:housenumber": "15", "addr:postcode": "44-238", "addr:street": "W\u0142adys\u0142awa Broniewskiego", "amenity": "pharmacy", "dispensing": "yes", "healthcare": "pharmacy", "name": "Duos", "operator": "DUOS", "phone": "+48 32 790 44 89", "ref:csioz": "1060205"}}, {"type": "node", "id": 5875400833, "lat": 50.2114019, "lon": 18.7783694, "tags": {"addr:city": "Chud\u00f3w", "addr:housenumber": "2A", "addr:postcode": "44-177", "addr:street": "Zabrska", "amenity": "pharmacy", "dispensing": "yes", "healthcare": "pharmacy", "name": "Apteka w Chudowie", "ref:csioz": "1202895"}}, {"type": "node", "id": 6009322091, "lat": 50.2436826, "lon": 19.0143874, "tags": {"amenity": "pharmacy", "dispensing": "yes", "healthcare": "pharmacy", "name": "Maxfarm", "ref:csioz": "1199612"}}, {"type": "node", "id": 6016058894, "lat": 50.2858903, "lon": 18.9680582, "tags": {"amenity": "pharmacy", "dispensing": "yes", "healthcare": "pharmacy", "name": "Zdrovit+", "official_name": "Apteka Zdrowit+", "opening_hours": "Mo-Sa 08:00-20:00", "ref:csioz": "1207540", "website": "https://aptekizdrowit.pl/"}}, {"type": "node", "id": 6031871325, "lat": 50.301637, "lon": 19.0196221}, {"type": "node", "id": 6031871326, "lat": 50.3017089, "lon": 19.0195986}, {"type": "node", "id": 6031871327, "lat": 50.3017135, "lon": 19.0196125}, {"type": "node", "id": 6032775460, "lat": 50.2659043, "lon": 18.9745684, "tags": {"amenity": "pharmacy", "contact:phone": "+48 32 7822664", "dispensing": "yes", "healthcare": "pharmacy", "name": "Koral", "official_name": "Apteka Prywatna Koral", "opening_hours": "Mo-Fr 08:00-19:00; Sa 08:00-15:00; Su,PH off", "ref:csioz": "1063885"}}, {"type": "node", "id": 6106516772, "lat": 50.3035512, "lon": 19.0134422, "tags": {"amenity": "pharmacy", "brand": "Dr. Max", "brand:wikidata": "Q56317371", "brand:wikipedia": "fr:Dr.Max", "dispensing": "yes", "healthcare": "pharmacy", "name": "Dr. Max", "ref:csioz": "1068505"}}, {"type": "node", "id": 6107700678, "lat": 50.2750327, "lon": 19.0223394, "tags": {"amenity": "pharmacy", "contact:email": "ap_49katowice@poczta.onet.pl", "contact:phone": "+48 32 258 05 56", "dispensing": "yes", "healthcare": "pharmacy", "name": "Apteka", "official_name": "Apteka 49", "opening_hours": "Mo-Su 08:00-22:00", "ref:csioz": "1064362"}}, {"type": "node", "id": 6135433969, "lat": 50.1330628, "lon": 18.9696221, "tags": {"amenity": "pharmacy", "brand": "Dbam o Zdrowie", "brand:wikidata": "Q62563833", "dispensing": "yes", "healthcare": "pharmacy", "name": "Dbam o Zdrowie", "opening_hours": "Mo-Fr 08:00-20:00; Sa 08:00-14:00"}}, {"type": "node", "id": 6156592811, "lat": 50.1272611, "lon": 18.9712643, "tags": {"amenity": "pharmacy", "healthcare": "pharmacy", "name": "Apteka Pe\u0142na Zdrowia", "phone": "+48 32 2165133", "website": "http://www.aptekipelnezdrowia.pl"}}, {"type": "node", "id": 6157601970, "lat": 50.1368313, "lon": 18.9777012, "tags": {"amenity": "pharmacy", "dispensing": "yes", "healthcare": "pharmacy", "name": "Apteka Max", "opening_hours": "Mo-Fr 08:00-20:00; Sa 08:00-16:00", "website": "http://aptekamax.eu/"}}, {"type": "node", "id": 6244099401, "lat": 50.2053721, "lon": 18.9861858, "tags": {"amenity": "pharmacy", "dispensing": "yes", "healthcare": "pharmacy", "name": "Apteka C-Plus", "ref:csioz": "1205532"}}, {"type": "node", "id": 6281108685, "lat": 50.4441894, "lon": 18.8591003, "tags": {"addr:city": "Tarnowskie G\u00f3ry", "addr:housenumber": "16", "addr:postcode": "42-600", "addr:street": "Krakowska", "amenity": "pharmacy", "dispensing": "yes", "healthcare": "pharmacy", "name": "Apteka Radosna", "ref:csioz": "1170577"}}, {"type": "node", "id": 6327479464, "lat": 50.0954117, "lon": 18.5408326, "tags": {"addr:city": "Rybnik", "addr:housenumber": "3", "addr:street": "Raciborska", "amenity": "pharmacy", "dispensing": "yes", "healthcare": "pharmacy", "name": "Damian", "opening_hours": "Mo-Fr 08:00-20:00; Sa 08:00-14:00", "ref:csioz": "1068265"}}, {"type": "node", "id": 6366330331, "lat": 50.2805847, "lon": 18.9732271, "tags": {"amenity": "pharmacy", "contact:phone": "+48323500940;+48609993665", "dispensing": "yes", "healthcare": "pharmacy", "name": "Rodzinna", "opening_hours": "Mo-Fr 08:00-20:00; Sa 08:00-14:00", "ref:csioz": "1164258", "website": "https://e.aptekarodzinna.pl/"}}, {"type": "node", "id": 6367462242, "lat": 50.3452642, "lon": 18.9113858, "tags": {"amenity": "pharmacy", "brand": "Ziko Apteka", "brand:wikidata": "Q63432892", "dispensing": "yes", "healthcare": "pharmacy", "name": "Ziko Apteka", "opening_hours": "Mo-Fr 08:00-21:00, Su 08:00-20:00, Sa 09:00-18:00", "payment:cash": "yes", "payment:coins": "yes", "payment:mastercard": "yes", "payment:visa": "yes", "phone": "+48 12 687 57 47", "ref:csioz": "1174297", "short_name": "Ziko", "website": "https://www.ziko.pl/bytom-apteki-drogerie-ziko/kolejowa-18/"}}, {"type": "node", "id": 6367469034, "lat": 50.2940607, "lon": 18.9536106, "tags": {"amenity": "pharmacy", "brand": "Ziko Apteka", "brand:wikidata": "Q63432892", "dispensing": "yes", "healthcare": "pharmacy", "name": "Ziko Apteka", "opening_hours": "Mo-Fr 08:00-20:00; Sa 08:00-15:00", "payment:cash": "yes", "payment:coins": "yes", "payment:mastercard": "yes", "payment:visa": "yes", "phone": "+48 32 438 86 27", "ref:csioz": "1059679", "short_name": "Ziko", "website": "https://www.ziko.pl/chorzow-apteki-drogerie-ziko/sobieskiego-21/"}}, {"type": "node", "id": 6367477285, "lat": 50.2991193, "lon": 18.9591225, "tags": {"amenity": "pharmacy", "brand": "Ziko Apteka", "brand:wikidata": "Q63432892", "check_date:opening_hours": "2024-12-18", "dispensing": "yes", "healthcare": "pharmacy", "name": "Ziko Apteka", "opening_hours": "Mo-Sa 08:00-21:00, Su 09:00-19:00", "payment:cash": "yes", "payment:coins": "yes", "payment:mastercard": "yes", "payment:visa": "yes", "phone": "+48 12 687 57 47", "ref:csioz": "1211282", "short_name": "Ziko", "website": "https://www.ziko.pl/chorzow-apteki-drogerie-ziko/kosciuszki-9/"}}, {"type": "node", "id": 6367591767, "lat": 50.2980226, "lon": 18.6764048, "tags": {"addr:city": "Gliwice", "addr:housenumber": "10", "addr:postcode": "44-100", "addr:street": "Plac Piast\u00f3w", "amenity": "pharmacy", "brand": "Ziko Apteka", "brand:wikidata": "Q63432892", "dispensing": "yes", "healthcare": "pharmacy", "name": "Ziko Apteka", "opening_hours": "Mo-Fr 07:00-20:00, Sa 08:00-15:00", "payment:cash": "yes", "payment:coins": "yes", "payment:mastercard": "yes", "payment:visa": "yes", "phone": "+48 12 687 57 47", "ref:csioz": "1202063", "short_name": "Ziko", "website": "https://www.ziko.pl/gliwice-apteki-drogerie-ziko/piastow-10/"}}, {"type": "node", "id": 6367710224, "lat": 50.259621, "lon": 19.0198907, "tags": {"amenity": "pharmacy", "branch": "Dermo", "brand": "Ziko Apteka", "brand:wikidata": "Q63432892", "contact:phone": "+48 12 687 57 47;+48 32 438 86 17", "description": "Ziko Dermo zlokalizowana jest w Katowicach przy ulicy 3 Maja 7. Czynna jest przez 6 dni w tygodniu \u2013 od poniedzia\u0142ku do soboty. W niedziele plac\u00f3wka jest nieczynna.", "healthcare": "pharmacy", "name": "Ziko Apteka", "opening_hours": "Mo-Fr 08:00-19:00; Sa 08:00-16:00; Su,PH off", "payment:cash": "yes", "payment:coins": "yes", "payment:mastercard": "yes", "payment:visa": "yes", "shop": "chemist", "short_name": "Ziko", "website": "https://www.ziko.pl/dermo/katowice/3-maja-7/"}}, {"type": "node", "id": 6367726839, "lat": 50.2525197, "lon": 19.0199846, "tags": {"addr:city": "Katowice", "addr:housenumber": "39", "addr:postcode": "40-036", "addr:street": "Plebiscytowa", "amenity": "pharmacy", "branch": "Dermo", "brand": "Ziko Apteka", "brand:wikidata": "Q63432892", "healthcare": "pharmacy", "name": "Ziko Apteka", "opening_hours": "Mo-Fr 08:00-20:00, Sa 08:00-16:00", "payment:cash": "yes", "payment:coins": "yes", "payment:mastercard": "yes", "payment:visa": "yes", "phone": "+48 32 438 86 32", "shop": "chemist", "short_name": "Ziko", "website": "https://www.ziko.pl/katowice-drogerie-ziko/plebiscytowa-39/"}}, {"type": "node", "id": 6373978129, "lat": 50.2683355, "lon": 18.9341893, "tags": {"addr:city": "Chorz\u00f3w", "addr:housenumber": "42", "addr:postcode": "41-506", "addr:street": "Jubileuszowa", "amenity": "pharmacy", "contact:phone": "+48 32 246 40 05", "dispensing": "yes", "drive_through": "no", "healthcare": "pharmacy", "name": "Opieka i Zdrowie", "opening_hours": "Mo-Fr 08:00-18:00; Sa 08:00-14:00", "ref:csioz": "1217429", "wheelchair": "yes"}}, {"type": "node", "id": 6393635246, "lat": 50.3672463, "lon": 18.9808067, "tags": {"addr:city": "Piekary \u015al\u0105skie", "addr:housenumber": "9", "addr:place": "Osiedle Andaluzja", "addr:postcode": "41-949", "amenity": "pharmacy", "brand": "Ziko Apteka", "brand:wikidata": "Q63432892", "dispensing": "yes", "healthcare": "pharmacy", "name": "Ziko Apteka", "opening_hours": "Mo-Fr 07:00-19:00, Sa 07:00-15:00", "payment:cash": "yes", "payment:coins": "yes", "payment:mastercard": "yes", "payment:visa": "yes", "phone": "+48 32 438 86 09", "ref:csioz": "1176656", "short_name": "Ziko", "website": "https://www.ziko.pl/piekary-slaskie-apteki-drogerie-ziko/andaluzja-9/"}}, {"type": "node", "id": 6393651807, "lat": 50.3744467, "lon": 18.9435557, "tags": {"amenity": "pharmacy", "brand": "Ziko Apteka", "brand:wikidata": "Q63432892", "dispensing": "yes", "healthcare": "pharmacy", "name": "Ziko Apteka", "opening_hours": "Mo-Fr 08:00-20:00, Sa 08:00-15:00", "payment:cash": "yes", "payment:coins": "yes", "payment:mastercard": "yes", "payment:visa": "yes", "phone": "+48 12 687 57 47", "ref:csioz": "1190662", "short_name": "Ziko", "website": "https://www.ziko.pl/piekary-slaskie-drogerie-ziko/bytomska-71/"}}, {"type": "node", "id": 6393910873, "lat": 50.0940375, "lon": 18.5436478, "tags": {"addr:city": "Rybnik", "addr:housenumber": "1", "addr:postcode": "44-200", "addr:street": "Boles\u0142awa Chrobrego", "amenity": "pharmacy", "brand": "Ziko Apteka", "brand:wikidata": "Q63432892", "dispensing": "yes", "healthcare": "pharmacy", "level": "0", "name": "Ziko Apteka", "opening_hours": "Mo-Su 09:00-21:00", "payment:cash": "yes", "payment:coins": "yes", "payment:mastercard": "yes", "payment:visa": "yes", "phone": "+48 12 687 57 47", "ref:csioz": "1176439", "short_name": "Ziko", "website": "https://www.ziko.pl/rybnik-apteki-drogerie-ziko/chrobrego-1/"}}, {"type": "node", "id": 6405935865, "lat": 50.2922157, "lon": 18.7825473, "tags": {"amenity": "pharmacy", "brand": "Ziko Apteka", "brand:wikidata": "Q63432892", "dispensing": "yes", "healthcare": "pharmacy", "name": "Ziko Apteka", "opening_hours": "Mo-Fr 08:00-21:00; Sa 08:00-20:00", "payment:cash": "yes", "payment:coins": "yes", "payment:mastercard": "yes", "payment:visa": "yes", "phone": "+48 12 687 57 47", "ref:csioz": "1071363", "short_name": "Ziko", "website": "https://www.ziko.pl/zabrze-apteki-drogerie-ziko/charlesa-de-Gaullea-111-113/"}}, {"type": "node", "id": 6485921750, "lat": 50.2911654, "lon": 18.9166061, "tags": {"addr:housenumber": "3", "addr:postcode": "41-600", "addr:street": "Katowicka", "amenity": "pharmacy", "dispensing": "yes", "healthcare": "pharmacy", "name": "Zdrowit", "official_name": "Apteka Zdrowit", "ref:csioz": "1069969"}}, {"type": "node", "id": 6516351574, "lat": 50.3012895, "lon": 18.9997958}, {"type": "node", "id": 6516351575, "lat": 50.301388, "lon": 18.9999394}, {"type": "node", "id": 6516351576, "lat": 50.301423, "lon": 18.9998847}, {"type": "node", "id": 6516351577, "lat": 50.3014441, "lon": 18.9999178}, {"type": "node", "id": 6522294752, "lat": 50.2941872, "lon": 18.6711822, "tags": {"amenity": "pharmacy", "dispensing": "yes", "healthcare": "pharmacy", "name": "Apteka Prima", "opening_hours": "Mo-Fr 08:00-20:00; Sa 09:00-18:00; Su,PH off", "ref:csioz": "1209408"}}, {"type": "node", "id": 6564871924, "lat": 50.2653227, "lon": 18.997597, "tags": {"amenity": "pharmacy", "check_date": "2024-02-16", "dispensing": "yes", "healthcare": "pharmacy", "opening_hours": "Mo-Fr 08:00-18:00; Sa 09:00-13:00", "phone": "+48 32 352 59 00", "ref:csioz": "1063765"}}, {"type": "node", "id": 6590441884, "lat": 50.2355159, "lon": 18.6635478, "tags": {"addr:city": "Knur\u00f3w", "addr:housenumber": "74", "addr:postcode": "44-190", "addr:street": "1 Maja", "amenity": "pharmacy", "check_date:opening_hours": "2021-11-04", "dispensing": "yes", "healthcare": "pharmacy", "name": "Apteka Zdrowit", "opening_hours": "Mo-Fr 08:00-20:00; Sa 08:00-19:00; Su 10:00-19:00", "phone": "695951210", "ref:csioz": "1184709", "survey:date": "2025-05-13", "wheelchair": "yes"}}, {"type": "node", "id": 6593469071, "lat": 50.2872218, "lon": 18.8756293, "tags": {"amenity": "pharmacy", "dispensing": "yes", "healthcare": "pharmacy", "name": "Apteka S\u0142oneczna", "official_name": "Apteka S\u0142oneczna", "ref:csioz": "1202074"}}, {"type": "node", "id": 6766173335, "lat": 50.1765269, "lon": 18.9684182, "tags": {"amenity": "pharmacy", "dispensing": "yes", "healthcare": "pharmacy", "name": "Apteka pod kwiatami", "official_name": "Pod Kwiatami Vii", "ref:csioz": "1176712"}}, {"type": "node", "id": 6780700221, "lat": 50.0480605, "lon": 18.6007109, "tags": {"addr:city": "Rybnik", "addr:housenumber": "23", "addr:street": "Patriot\u00f3w", "amenity": "pharmacy", "dispensing": "yes", "healthcare": "pharmacy", "name": "Zdrowit", "opening_hours": "Mo-Fr 08:00-20:00; Sa 08:00-18:00", "phone": "+48324247016", "ref:csioz": "1111615", "website": "https://aptekizdrowit.pl/"}}, {"type": "node", "id": 6945761054, "lat": 50.4032847, "lon": 18.6286578, "tags": {"addr:city": "Pyskowice", "addr:housenumber": "9", "addr:postcode": "44-120", "addr:street": "Fryderyka Chopina", "amenity": "pharmacy", "dispensing": "yes", "healthcare": "pharmacy", "name": "Apteka S\u0142oneczna", "ref:csioz": "1203638"}}, {"type": "node", "id": 6945887231, "lat": 50.3985648, "lon": 18.6309897, "tags": {"addr:city": "Pyskowice", "addr:housenumber": "14", "addr:postcode": "44-120", "addr:street": "Kardyna\u0142a Stefana Wyszy\u0144skiego", "amenity": "pharmacy", "dispensing": "yes", "healthcare": "pharmacy", "name": "Zdrowit", "ref:csioz": "1120849"}}, {"type": "node", "id": 6946224893, "lat": 50.3982275, "lon": 18.6224294, "tags": {"addr:city": "Pyskowice", "addr:housenumber": "28", "addr:postcode": "44-120", "addr:street": "Armii Krajowej", "amenity": "pharmacy", "dispensing": "yes", "healthcare": "pharmacy", "name": "Polvita", "ref:csioz": "1067142"}}, {"type": "node", "id": 7052227577, "lat": 50.3101973, "lon": 18.9451117, "tags": {"amenity": "pharmacy", "dispensing": "yes", "healthcare": "pharmacy", "name": "Lege Artis", "phone": "+48 32 2410156", "ref:csioz": "1059464"}}, {"type": "node", "id": 7108871133, "lat": 50.3162618, "lon": 18.9156928, "tags": {"amenity": "pharmacy", "dispensing": "yes", "healthcare": "pharmacy", "name": "Apteka - Pharmakon", "opening_hours": "Mo-Fr 07:00-19:00; Sa 08:00-13:00", "ref:csioz": "1200839"}}, {"type": "node", "id": 7122965681, "lat": 50.0945082, "lon": 18.5414823, "tags": {"addr:city": "Rybnik", "addr:housenumber": "6", "addr:street": "Wojciecha Korfantego", "amenity": "pharmacy", "dispensing": "yes", "healthcare": "pharmacy", "name": "Pod Lwem", "ref:csioz": "1111448"}}, {"type": "node", "id": 7122965682, "lat": 50.0958122, "lon": 18.5437398, "tags": {"addr:city": "Rybnik", "addr:housenumber": "17", "addr:street": "Plac Wolno\u015bci", "amenity": "pharmacy", "dispensing": "yes", "healthcare": "pharmacy", "name": "Pod Lwem", "opening_hours": "Mo-Fr 07:30-20:00; Sa 07:30-14:00", "ref:csioz": "1068233"}}, {"type": "node", "id": 7190305622, "lat": 50.3133872, "lon": 18.8858416, "tags": {"addr:city": "Ruda \u015al\u0105ska", "addr:housenumber": "13", "addr:postcode": "41-712", "addr:street": "Karola Goduli", "amenity": "pharmacy", "dispensing": "yes", "healthcare": "pharmacy", "name": "S\u0142oneczna", "official_name": "Apteka S\u0142oneczna", "opening_hours": "Mo-Fr 07:00-21:00; Sa 08:00-15:00", "ref:csioz": "1183875"}}, {"type": "node", "id": 7315934621, "lat": 50.3016927, "lon": 19.0195952, "tags": {"entrance": "yes", "wheelchair": "yes"}}, {"type": "node", "id": 7397574265, "lat": 50.1808221, "lon": 18.7644742}, {"type": "node", "id": 7407322677, "lat": 50.148863, "lon": 18.8400426, "tags": {"addr:city": "\u0141aziska G\u00f3rne", "addr:housenumber": "2", "addr:postcode": "43-170", "addr:street": "Norberta Barlickiego", "amenity": "pharmacy", "dispensing": "yes", "healthcare": "pharmacy", "name": "Moja Apteka", "opening_hours": "Mo-Fr 07:00-20:00; Sa 08:00-15:00", "payment:cash": "yes", "payment:debit_cards": "yes", "ref:csioz": "1181293"}}, {"type": "node", "id": 7407322678, "lat": 50.1489972, "lon": 18.8403667, "tags": {"amenity": "pharmacy", "dispensing": "yes", "healthcare": "pharmacy", "name": "Apteka Niezapominajka", "payment:cash": "yes", "payment:debit_cards": "yes", "ref:csioz": "1217008"}}, {"type": "node", "id": 7515809704, "lat": 50.2836466, "lon": 18.6670076, "tags": {"amenity": "pharmacy", "dispensing": "yes", "healthcare": "pharmacy", "name": "Apteka Zdrowit", "ref:csioz": "1112165"}}, {"type": "node", "id": 7515809706, "lat": 50.2831072, "lon": 18.6664869, "tags": {"amenity": "pharmacy", "dispensing": "yes", "healthcare": "pharmacy", "name": "Pharmacon", "ref:csioz": "1062409"}}, {"type": "node", "id": 7558176064, "lat": 50.2213638, "lon": 19.0639859, "tags": {"amenity": "pharmacy", "dispensing": "yes", "healthcare": "pharmacy", "name": "Apteka Vitalis", "ref:csioz": "1112662"}}, {"type": "node", "id": 7570139909, "lat": 50.0650126, "lon": 18.5993157, "tags": {"addr:city": "Rybnik", "addr:housenumber": "18", "addr:street": "Stanis\u0142awa Ma\u0142achowskiego", "amenity": "pharmacy", "dispensing": "yes", "healthcare": "pharmacy", "name": "Ave", "ref:csioz": "1068166"}}, {"type": "node", "id": 7647164038, "lat": 50.2911379, "lon": 18.6682127, "tags": {"amenity": "pharmacy", "dispensing": "yes", "healthcare": "pharmacy", "name": "Apteka S\u0142oneczna Biedronka", "opening_hours": "Mo-Fr 08:00-20:00; Sa 08:00-18:00; Su,PH off", "ref:csioz": "1220179", "survey:date": "2025-06-05"}}, {"type": "node", "id": 7761607855, "lat": 50.1888562, "lon": 18.5957514, "tags": {"addr:city": "Wilcza", "addr:housenumber": "123", "addr:postcode": "44-189", "addr:street": "Karola Miarki", "amenity": "pharmacy", "dispensing": "yes", "drive_through": "no", "healthcare": "pharmacy", "name": "\u015aw. Barbary", "ref:csioz": "1073578"}}, {"type": "node", "id": 7939033968, "lat": 50.2991572, "lon": 18.8211502, "tags": {"amenity": "pharmacy", "dispensing": "yes", "healthcare": "pharmacy", "name": "Zdrowit", "official_name": "Apteka Zdrowit", "ref:csioz": "1174644"}}, {"type": "node", "id": 8184461574, "lat": 50.2669072, "lon": 18.9359806, "tags": {"amenity": "pharmacy", "dispensing": "yes", "healthcare": "pharmacy", "name": "Apteka Nova Sieciowa", "opening_hours": "Mo-Sa 07:00-20:00", "operator": "Nova Sieciowa", "ref:csioz": "1177922"}}, {"type": "node", "id": 8283603526, "lat": 50.3483759, "lon": 18.8759905, "tags": {"amenity": "pharmacy", "dispensing": "yes", "drive_through": "no", "healthcare": "pharmacy", "name": "Apteka Dla Ciebie", "ref:csioz": "1058868"}}, {"type": "node", "id": 8306786154, "lat": 50.305643, "lon": 18.7656872, "tags": {"amenity": "pharmacy", "check_date": "2024-03-03", "dispensing": "yes", "healthcare": "pharmacy", "level": "0", "name": "Pharmakon", "opening_hours": "Mo-Fr 08:00-19:00; Sa 08:00-16:00", "ref:csioz": "1071691"}}, {"type": "node", "id": 8341886326, "lat": 50.2433099, "lon": 19.036551, "tags": {"amenity": "pharmacy", "brand": "Dr. Max", "brand:wikidata": "Q56317371", "brand:wikipedia": "fr:Dr.Max", "dispensing": "yes", "healthcare": "pharmacy", "name": "Dr. Max", "ref:csioz": "1063722"}}, {"type": "node", "id": 8392264461, "lat": 50.2983784, "lon": 18.9548922, "tags": {"amenity": "pharmacy", "check_date": "2025-01-10", "contact:phone": "+48 784 917 511", "dispensing": "yes", "healthcare": "pharmacy", "name": "Niezapominajka", "official_name": "Niezapominajka Dla Ca\u0142ej Rodziny", "opening_hours": "Mo-Fr 08:00-20:00; Sa 08:00-16:00; Su,PH off", "ref:csioz": "1059493", "website": "https://apteka-niezapominajka.pl/"}}, {"type": "node", "id": 8428244246, "lat": 50.3477889, "lon": 18.9207479, "tags": {"amenity": "pharmacy", "dispensing": "yes", "healthcare": "pharmacy", "name": "Apteka \u015bw. Anny", "official_name": "Apteka Zdrowit", "ref:csioz": "1058821"}}, {"type": "node", "id": 8514629461, "lat": 50.1020085, "lon": 18.7306604}, {"type": "node", "id": 8565884344, "lat": 50.2518617, "lon": 19.0088052, "tags": {"amenity": "pharmacy", "healthcare": "pharmacy", "name": "AGAfarmax", "note": "Apteka czasowo zamkni\u0119ta, aktualny stan mo\u017cna sprawdzi\u0107, wyszukuj\u0105c identyfikator z ref:csioz w rejestrze CSIOZ, dost\u0119pnym pod adresem https://rejestrymedyczne.ezdrowie.gov.pl/api/filegenerator/getcsv'", "ref:csioz": "1064255", "source:disused": "Rejestr Aptek MZ"}}, {"type": "node", "id": 8567578343, "lat": 50.3333303, "lon": 18.8862122, "tags": {"amenity": "pharmacy", "check_date:opening_hours": "2025-07-24", "contact:phone": "32 388 51 23", "dispensing": "yes", "healthcare": "pharmacy", "name": "Apteka S\u0142oneczna", "opening_hours": "Mo-Sa 07:00-21:00; Su 08:00-15:00", "phone": "32 281 97 06", "ref:csioz": "1058988"}}, {"type": "node", "id": 8590293193, "lat": 50.3681496, "lon": 18.7093494, "tags": {"amenity": "pharmacy", "dispensing": "yes", "healthcare": "pharmacy", "name": "Margofarm", "ref:csioz": "1172982"}}, {"type": "node", "id": 8719118386, "lat": 50.2295568, "lon": 18.6620447, "tags": {"addr:city": "Knur\u00f3w", "addr:housenumber": "13", "addr:postcode": "44-194", "addr:street": "Kazimierza Wielkiego", "amenity": "pharmacy", "check_date:opening_hours": "2023-06-26", "dispensing": "yes", "healthcare": "pharmacy", "name": "Apteka \u015aw. Barbary", "opening_hours": "Mo-Fr 07:00-21:00; Sa 08:00-15:00", "ref:csioz": "1064794", "survey:date": "2025-04-19", "website": "https://aptekaswbarbary.pl/", "wheelchair": "yes"}}, {"type": "node", "id": 8765673600, "lat": 50.2974059, "lon": 18.6660492, "tags": {"addr:city": "Gliwice", "addr:housenumber": "4", "addr:postcode": "44-100", "addr:street": "Plac Marsza\u0142ka J\u00f3zefa Pi\u0142sudskiego", "amenity": "pharmacy", "check_date:opening_hours": "2025-04-16", "dispensing": "yes", "healthcare": "pharmacy", "name": "Apteka Na Pi\u0142sudskiego", "opening_hours": "Mo-Fr 08:00-20:00; Sa 08:00-14:00", "phone": "+48 32 307 25 52", "ref:csioz": "1200361", "wheelchair": "yes"}}, {"type": "node", "id": 8815555348, "lat": 50.303139, "lon": 18.7331582, "tags": {"addr:city": "Zabrze", "addr:housenumber": "16", "addr:postcode": "41-800", "addr:street": "Knurowska", "amenity": "pharmacy", "dispensing": "yes", "healthcare": "pharmacy", "name": "Apteka Maciej\u00f3w", "opening_hours": "Mo-Fr 08:00-20:00; Sa 08:00-15:00", "ref:csioz": "1215006"}}, {"type": "node", "id": 8827160167, "lat": 50.1011549, "lon": 18.5531849, "tags": {"addr:city": "Rybnik", "addr:housenumber": "37", "addr:postcode": "44-200", "addr:street": "Wyzwolenia", "amenity": "pharmacy", "dispensing": "yes", "healthcare": "pharmacy", "name": "Wyzwolenia", "opening_hours": "Mo-Fr 09:00-21:00; Sa 09:00-15:00", "phone": "+48324222309", "ref:csioz": "1068334"}}, {"type": "node", "id": 8831816407, "lat": 50.2590259, "lon": 19.0164723}, {"type": "node", "id": 8831816408, "lat": 50.2590148, "lon": 19.0166031}, {"type": "node", "id": 8831816409, "lat": 50.2592053, "lon": 19.0168123}, {"type": "node", "id": 8831816410, "lat": 50.2589966, "lon": 19.0167742}, {"type": "node", "id": 8880735391, "lat": 50.2583247, "lon": 19.0218997, "tags": {"amenity": "pharmacy", "check_date:opening_hours": "2024-08-06", "dispensing": "yes", "healthcare": "pharmacy", "name": "\u015awi\u0119tego Jana", "opening_hours": "Mo-Fr 07:00-19:00; Sa 09:00-14:00", "ref:csioz": "1064442", "website": "https://www.apteka4poryroku.pl/"}}, {"type": "node", "id": 8888625352, "lat": 50.2687728, "lon": 19.0442574, "tags": {"amenity": "pharmacy", "dispensing": "yes", "healthcare": "pharmacy", "opening_hours": "Mo-Fr 09:00-18:00; Sa 09:00-13:00", "ref:csioz": "1064356"}}, {"type": "node", "id": 8892091751, "lat": 50.2694895, "lon": 19.0461822, "tags": {"addr:city": "Katowice", "addr:housenumber": "14", "addr:postcode": "40-216", "addr:street": "Karpacka", "amenity": "pharmacy", "dispensing": "yes", "healthcare": "pharmacy", "name": "Aloes", "opening_hours": "Mo-Fr 08:00-20:00; Sa 08:00-14:00", "ref:csioz": "1113917"}}, {"type": "node", "id": 8892958930, "lat": 50.2235458, "lon": 18.6708113, "tags": {"addr:city": "Knur\u00f3w", "addr:housenumber": "7", "addr:postcode": "44-190", "addr:street": "1 Maja", "amenity": "pharmacy", "dispensing": "yes", "healthcare": "pharmacy", "name": "\u015aw. Barbary", "opening_hours": "Mo-Fr 08:00-21:00; Sa 08:00-14:00", "ref:csioz": "1064747"}}, {"type": "node", "id": 8953161684, "lat": 50.0960414, "lon": 18.5426059, "tags": {"addr:city": "Rybnik", "addr:housenumber": "4", "addr:postcode": "44-200", "addr:street": "Jana III Sobieskiego", "amenity": "pharmacy", "dispensing": "yes", "healthcare": "pharmacy", "name": "Pod Lwem", "opening_hours": "Mo-Fr 07:00-24:00, Sa 07:00-18:00", "ref:csioz": "1068298"}}, {"type": "node", "id": 9049168648, "lat": 50.1445623, "lon": 18.5447033, "tags": {"addr:city": "Rybnik", "addr:housenumber": "20", "addr:street": "Komisji Edukacji Narodowej", "amenity": "pharmacy", "dispensing": "yes", "healthcare": "pharmacy", "name": "W Golejowie", "ref:csioz": "1068128"}}, {"type": "node", "id": 9105994848, "lat": 50.2845446, "lon": 18.5993585, "tags": {"addr:city": "Gliwice", "addr:housenumber": "3", "addr:postcode": "44-100", "addr:street": "Nauczycielska", "amenity": "pharmacy", "dispensing": "yes", "healthcare": "pharmacy", "name": "Vigor", "opening_hours": "Mo-Fr 08:00-18:00; Sa 09:00-13:00", "ref:csioz": "1062161"}}, {"type": "node", "id": 9174550097, "lat": 50.2698696, "lon": 19.0052266}, {"type": "node", "id": 9174714965, "lat": 50.2698502, "lon": 19.0053558}, {"type": "node", "id": 9174714966, "lat": 50.2698926, "lon": 19.0050879}, {"type": "node", "id": 9174714967, "lat": 50.2696745, "lon": 19.0049916}, {"type": "node", "id": 9196154318, "lat": 50.4160532, "lon": 18.7538947, "tags": {"amenity": "pharmacy", "dispensing": "yes", "healthcare": "pharmacy", "name": "Punkt Apteczny Zbros\u0142awice", "ref:csioz": "1173009"}}, {"type": "node", "id": 9246429884, "lat": 50.3000754, "lon": 18.8526872, "tags": {"amenity": "pharmacy", "dispensing": "yes", "healthcare": "pharmacy", "name": "Zdrowit", "official_name": "Apteka Zdrowit", "opening_hours": "Mo-Fr 08:00-20:00; Sa 08:00-16:00", "ref:csioz": "1187471"}}, {"type": "node", "id": 9246463282, "lat": 50.3000366, "lon": 18.766206, "tags": {"addr:city": "Zabrze", "addr:housenumber": "14", "addr:postcode": "41-800", "addr:street": "Stanis\u0142awa \u017b\u00f3\u0142kiewskiego", "amenity": "pharmacy", "dispensing": "yes", "healthcare": "pharmacy", "name": "Tilia", "opening_hours": "Mo-Fr 08:00-18:00; Sa 08:00-13:00", "ref:csioz": "1071789"}}, {"type": "node", "id": 9389451265, "lat": 50.1537881, "lon": 18.6644533, "tags": {"addr:city": "Czerwionka-Leszczyny", "addr:housenumber": "23", "addr:postcode": "44-230", "addr:street": "3 Maja", "amenity": "pharmacy", "check_date:opening_hours": "2024-06-28", "dispensing": "yes", "healthcare": "pharmacy", "name": "Duos", "opening_hours": "Mo-Fr 07:30-20:00; Sa 08:00-16:00; PH off", "ref:csioz": "1060180"}}, {"type": "node", "id": 9421078564, "lat": 50.2981302, "lon": 18.8525892, "tags": {"amenity": "pharmacy", "dispensing": "yes", "healthcare": "pharmacy", "name": "Cef@rm 36,6", "opening_hours": "Mo-Sa 20:00-21:00; Su 08:00-20:00", "ref:csioz": "1119822"}}, {"type": "node", "id": 9442194526, "lat": 50.378631, "lon": 18.8093515, "tags": {"amenity": "pharmacy", "dispensing": "yes", "healthcare": "pharmacy", "name": "Apteka Pharmakon", "ref:csioz": "1178819"}}, {"type": "node", "id": 9442194539, "lat": 50.3794253, "lon": 18.8103435, "tags": {"amenity": "pharmacy", "brand": "Dbam o Zdrowie", "brand:wikidata": "Q62563833", "dispensing": "yes", "drive_through": "no", "healthcare": "pharmacy", "name": "Dbam o Zdrowie", "ref:csioz": "1071437"}}, {"type": "node", "id": 9476812315, "lat": 50.0925343, "lon": 18.5154641, "tags": {"addr:city": "Rybnik", "addr:housenumber": "126", "addr:postcode": "44-210", "addr:street": "Raciborska", "amenity": "pharmacy", "dispensing": "yes", "healthcare": "pharmacy", "name": "Pod Lwem", "opening_hours": "Mo-Fr 08:00-21:00; Sa 08:00-18:00; PH off", "phone": "+48 887 750 033", "ref:csioz": "1231055"}}, {"type": "node", "id": 9477181184, "lat": 50.3073398, "lon": 18.7836189, "tags": {"amenity": "pharmacy", "dispensing": "yes", "healthcare": "pharmacy", "name": "4 Pory Roku", "official_name": "Apteka 4 Pory Roku Zabrza\u0144skie Centrum Tanich Lek\u00f3w", "opening_hours": "Mo-Fr 08:00-18:00; Sa 08:00-14:00", "ref:csioz": "1071715"}}, {"type": "node", "id": 9481495611, "lat": 50.312694, "lon": 18.7736843, "tags": {"amenity": "pharmacy", "dispensing": "yes", "healthcare": "pharmacy", "name": "Dbam O Zdrowie", "official_name": "Aptek Dbam O Zdrowie", "ref:csioz": "1172516"}}, {"type": "node", "id": 9610851900, "lat": 50.3896506, "lon": 18.3503088, "tags": {"addr:city": "Ujazd", "addr:housenumber": "9", "addr:postcode": "47-143", "addr:street": "Plac 1 Maja", "amenity": "pharmacy", "dispensing": "yes", "healthcare": "pharmacy", "name": "Apteka \"Pod Witra\u017cem\"", "ref:csioz": "1109513"}}, {"type": "node", "id": 9616133307, "lat": 50.3026859, "lon": 18.6892708, "tags": {"addr:city": "Gliwice", "addr:housenumber": "42", "addr:postcode": "44-102", "addr:street": "Lipowa", "amenity": "pharmacy", "dispensing": "yes", "healthcare": "pharmacy", "name": "Medical", "opening_hours": "Mo-Fr 08:00-20:00, Sa 08:00-14:00", "ref:csioz": "1062112"}}, {"type": "node", "id": 9616133308, "lat": 50.3073606, "lon": 18.6189269, "tags": {"amenity": "pharmacy", "dispensing": "yes", "healthcare": "pharmacy", "name": "Apteka Corax", "ref:csioz": "1062087"}}, {"type": "node", "id": 9616133309, "lat": 50.2950095, "lon": 18.6843432, "tags": {"amenity": "pharmacy", "dispensing": "yes", "healthcare": "pharmacy", "name": "Apteka G\u0142\u00f3wna", "official_name": "Apteka G\u0142\u00f3wna Centrum Tanich Lek\u00f3w", "ref:csioz": "1062006"}}, {"type": "node", "id": 9616133310, "lat": 50.3116285, "lon": 18.6182612, "tags": {"addr:city": "Gliwice", "addr:housenumber": "4 A", "addr:postcode": "44-121", "addr:street": "Rubinowa", "amenity": "pharmacy", "dispensing": "yes", "healthcare": "pharmacy", "name": "Apteka Corax", "ref:csioz": "1061958"}}, {"type": "node", "id": 9616133311, "lat": 50.3081051, "lon": 18.6464274, "tags": {"amenity": "pharmacy", "dispensing": "yes", "healthcare": "pharmacy", "name": "Inter Apteka", "ref:csioz": "1183629"}}, {"type": "node", "id": 9616133312, "lat": 50.2814721, "lon": 18.6698058, "tags": {"amenity": "pharmacy", "dispensing": "yes", "healthcare": "pharmacy", "name": "Prima", "ref:csioz": "1173552"}}, {"type": "node", "id": 9616133314, "lat": 50.3385237, "lon": 18.6406805, "tags": {"amenity": "pharmacy", "dispensing": "yes", "healthcare": "pharmacy", "name": "Apteka Zdrowit", "opening_hours": "Mo-Fr 08:00-20:00; Sa 08:00-16:00", "ref:csioz": "1120896"}}, {"type": "node", "id": 9616196217, "lat": 50.2946442, "lon": 18.7289871, "tags": {"amenity": "pharmacy", "dispensing": "yes", "healthcare": "pharmacy", "ref:csioz": "1062318"}}, {"type": "node", "id": 9616196218, "lat": 50.3416252, "lon": 18.6263355, "tags": {"addr:city": "Gliwice", "addr:housenumber": "6", "addr:postcode": "44-109", "addr:street": "Ksi\u0119dza Jerzego Popie\u0142uszki", "amenity": "pharmacy", "dispensing": "yes", "healthcare": "pharmacy", "name": "Apteka Zdrowit", "opening_hours": "Mo-Fr 08:00-20:00; Sa 08:00-16:00", "ref:csioz": "1062033"}}, {"type": "node", "id": 9616196220, "lat": 50.2986412, "lon": 18.6760443, "tags": {"amenity": "pharmacy", "dispensing": "yes", "healthcare": "pharmacy", "name": "Panaceum", "ref:csioz": "1061839"}}, {"type": "node", "id": 9617086149, "lat": 50.2771362, "lon": 18.7061491, "tags": {"addr:city": "Gliwice", "addr:housenumber": "28", "addr:postcode": "44-100", "addr:street": "G\u00f3rnik\u00f3w", "amenity": "pharmacy", "dispensing": "yes", "healthcare": "pharmacy", "name": "Apteka Ligocka", "ref:csioz": "1227961"}}, {"type": "node", "id": 9617086150, "lat": 50.3041703, "lon": 18.6874891, "tags": {"amenity": "pharmacy", "dispensing": "yes", "healthcare": "pharmacy", "name": "Apteka Nova", "ref:csioz": "1219669"}}, {"type": "node", "id": 9617086151, "lat": 50.3232176, "lon": 18.6514231, "tags": {"amenity": "pharmacy", "dispensing": "yes", "healthcare": "pharmacy", "name": "Apteka Zdrowit+", "ref:csioz": "1207565"}}, {"type": "node", "id": 9617086152, "lat": 50.3198199, "lon": 18.6898127, "tags": {"addr:city": "Gliwice", "addr:housenumber": "60", "addr:postcode": "44-105", "addr:street": "Ignacego Paderewskiego", "amenity": "pharmacy", "dispensing": "yes", "drive_through": "no", "healthcare": "pharmacy", "name": "Apteka Zdrowit+", "opening_hours": "Mo-Fr 07:00-20:00; Sa 07:00-19:00", "ref:csioz": "1206572"}}, {"type": "node", "id": 9617086154, "lat": 50.2862429, "lon": 18.7305696, "tags": {"amenity": "pharmacy", "dispensing": "yes", "healthcare": "pharmacy", "name": "Prima", "ref:csioz": "1184486"}}, {"type": "node", "id": 9617086158, "lat": 50.297644, "lon": 18.672221, "tags": {"addr:city": "Gliwice", "addr:housenumber": "43A", "addr:postcode": "44-100", "addr:street": "Zwyci\u0119stwa", "amenity": "pharmacy", "dispensing": "yes", "healthcare": "pharmacy", "name": "Apteka Zdrowit", "ref:csioz": "1062423"}}, {"type": "node", "id": 9617086159, "lat": 50.2837396, "lon": 18.734989, "tags": {"addr:city": "Gliwice", "addr:housenumber": "3", "addr:postcode": "44-119", "addr:street": "Wi\u015blana", "amenity": "pharmacy", "dispensing": "yes", "healthcare": "pharmacy", "name": "Apteka Na Wi\u015blanej", "ref:csioz": "1062383"}}, {"type": "node", "id": 9617086161, "lat": 50.2985836, "lon": 18.6973262, "tags": {"amenity": "pharmacy", "dispensing": "yes", "healthcare": "pharmacy", "name": "Superia", "ref:csioz": "1062185"}}, {"type": "node", "id": 9617086162, "lat": 50.2933143, "lon": 18.7256261, "tags": {"amenity": "pharmacy", "dispensing": "yes", "healthcare": "pharmacy", "name": "Apteka Dla Ciebie", "ref:csioz": "1062173"}}, {"type": "node", "id": 9617086163, "lat": 50.3352402, "lon": 18.6402114, "tags": {"amenity": "pharmacy", "dispensing": "yes", "healthcare": "pharmacy", "name": "Apteka Prywatna S.C mgr farm.Gabriela Siuta,Andrzej Siuta", "opening_hours": "Mo-Fr 08:00-20:00; Sa 08:00-14:00", "ref:csioz": "1062120"}}, {"type": "node", "id": 9617201826, "lat": 50.3036247, "lon": 18.7839545, "tags": {"amenity": "pharmacy", "dispensing": "yes", "healthcare": "pharmacy", "name": "Apteka Farmacja 24", "opening_hours": "PH,Mo-Su 07:00-24:00", "ref:csioz": "1180612"}}, {"type": "node", "id": 9617201827, "lat": 50.2974749, "lon": 18.7872149, "tags": {"addr:city": "Zabrze", "addr:housenumber": "32", "addr:postcode": "41-800", "addr:street": "3 Maja", "amenity": "pharmacy", "brand": "Ziko Apteka", "brand:wikidata": "Q63432892", "dispensing": "yes", "healthcare": "pharmacy", "name": "Ziko Apteka", "opening_hours": "Mo-Fr 08:00-20:00; Sa 08:00-16:00", "payment:cash": "yes", "payment:coins": "yes", "payment:mastercard": "yes", "payment:visa": "yes", "phone": "+48 12 687 57 47", "ref:csioz": "1174270", "short_name": "Ziko", "website": "https://www.ziko.pl/zabrze-apteki-drogerie-ziko/3-Maja-32/"}}, {"type": "node", "id": 9617201828, "lat": 50.2958208, "lon": 18.779882, "tags": {"amenity": "pharmacy", "dispensing": "yes", "healthcare": "pharmacy", "name": "Mirmi\u0142ek", "ref:csioz": "1071565"}}, {"type": "node", "id": 9617201829, "lat": 50.3181073, "lon": 18.7521354, "tags": {"amenity": "pharmacy", "brand": "Dbam o Zdrowie", "brand:wikidata": "Q62563833", "dispensing": "yes", "healthcare": "pharmacy", "name": "Dbam o Zdrowie", "ref:csioz": "1071540", "short_name": "DOZ"}}, {"type": "node", "id": 9617201830, "lat": 50.36162, "lon": 18.7650567, "tags": {"amenity": "pharmacy", "dispensing": "yes", "healthcare": "pharmacy", "name": "Apteka S\u0105siedzka", "ref:csioz": "1071476"}}, {"type": "node", "id": 9617201831, "lat": 50.3651704, "lon": 18.7979344, "tags": {"amenity": "pharmacy", "dispensing": "yes", "healthcare": "pharmacy", "name": "Eskulap", "ref:csioz": "1071459"}}, {"type": "node", "id": 9617201832, "lat": 50.3084612, "lon": 18.7840151, "tags": {"amenity": "pharmacy", "dispensing": "yes", "healthcare": "pharmacy", "name": "Pharmakon", "ref:csioz": "1071445"}}, {"type": "node", "id": 9617201833, "lat": 50.3043239, "lon": 18.7856641, "tags": {"amenity": "pharmacy", "dispensing": "yes", "healthcare": "pharmacy", "name": "Asclepios", "opening_hours": "Mo-Fr 08:00-19:00; Sa 09:00-14:00", "ref:csioz": "1071273"}}, {"type": "node", "id": 9617201834, "lat": 50.299308, "lon": 18.7864743, "tags": {"amenity": "pharmacy", "brand": "Dbam o Zdrowie", "brand:wikidata": "Q62563833", "dispensing": "yes", "healthcare": "pharmacy", "name": "Dbam o Zdrowie", "ref:csioz": "1071261", "short_name": "DOZ"}}, {"type": "node", "id": 9617201835, "lat": 50.3026693, "lon": 18.7858217, "tags": {"amenity": "pharmacy", "brand": "Dbam o Zdrowie", "brand:wikidata": "Q62563833", "dispensing": "yes", "healthcare": "pharmacy", "name": "Dbam o Zdrowie", "opening_hours": "Mo-Fr 07:30-19:30; Sa 08:00-15:00", "ref:csioz": "1071257", "short_name": "DOZ"}}, {"type": "node", "id": 9617201837, "lat": 50.3700974, "lon": 18.7876526, "tags": {"amenity": "pharmacy", "dispensing": "yes", "healthcare": "pharmacy", "name": "Artemida", "ref:csioz": "1071413"}}, {"type": "node", "id": 9617201838, "lat": 50.3191678, "lon": 18.8204375, "tags": {"amenity": "pharmacy", "dispensing": "yes", "healthcare": "pharmacy", "name": "Doz Apteka. Dbam O Zdrowie. Apteka Biskupice", "ref:csioz": "1071349"}}, {"type": "node", "id": 9617656910, "lat": 50.2974783, "lon": 18.8297098, "tags": {"amenity": "pharmacy", "dispensing": "yes", "healthcare": "pharmacy", "name": "Pharmakon", "ref:csioz": "1222824"}}, {"type": "node", "id": 9617656911, "lat": 50.3205591, "lon": 18.8230275, "tags": {"amenity": "pharmacy", "dispensing": "yes", "healthcare": "pharmacy", "name": "Dr. Max", "ref:csioz": "1071358"}}, {"type": "node", "id": 9617656912, "lat": 50.3018713, "lon": 18.7862991, "tags": {"amenity": "pharmacy", "dispensing": "yes", "healthcare": "pharmacy", "name": "Pharmakon", "opening_hours": "Mo-Fr 07:30-20:00; Sa 08:00-14:00", "ref:csioz": "1206899"}}, {"type": "node", "id": 9617656913, "lat": 50.2975718, "lon": 18.783094, "tags": {"amenity": "pharmacy", "check_date": "2024-05-04", "dispensing": "yes", "healthcare": "pharmacy", "name": "Felix", "opening_hours": "Mo-Fr 08:30-18:00; Sa 08:30-13:00", "ref:csioz": "1071579"}}, {"type": "node", "id": 9617656914, "lat": 50.3653078, "lon": 18.7906221, "tags": {"amenity": "pharmacy", "dispensing": "yes", "healthcare": "pharmacy", "name": "Apteka Dbam O Zdrowie", "ref:csioz": "1071330"}}, {"type": "node", "id": 9617656915, "lat": 50.296881, "lon": 18.7869635, "tags": {"amenity": "pharmacy", "dispensing": "yes", "healthcare": "pharmacy", "name": "Pharmakon", "ref:csioz": "1071285"}}, {"type": "node", "id": 9617656916, "lat": 50.3221352, "lon": 18.7700307, "tags": {"amenity": "pharmacy", "dispensing": "yes", "drive_through": "no", "healthcare": "pharmacy", "name": "Apteka Corax", "opening_hours": "Mo-Sa 08:00-20:00", "ref:csioz": "1071301"}}, {"type": "node", "id": 9617859118, "lat": 50.3179427, "lon": 18.7772948, "tags": {"amenity": "pharmacy", "dispensing": "yes", "healthcare": "pharmacy", "name": "Apteka Zdrowit+", "opening_hours": "Mo-Sa 08:00-20:00", "ref:csioz": "1206055"}}, {"type": "node", "id": 9621938153, "lat": 50.2662107, "lon": 18.8934544, "tags": {"addr:city": "Ruda \u015al\u0105ska", "addr:housenumber": "4b", "addr:postcode": "41-705", "addr:street": "Franciszka Wilka", "amenity": "pharmacy", "dispensing": "yes", "drive_through": "no", "healthcare": "pharmacy", "name": "Apteka Zdrowit", "ref:csioz": "1179423"}}, {"type": "node", "id": 9621938154, "lat": 50.2730096, "lon": 18.8668154, "tags": {"amenity": "pharmacy", "dispensing": "yes", "healthcare": "pharmacy", "name": "Apteka Wirecka", "official_name": "Aptekarstwo-Apteka Wirecka", "opening_hours": "Mo-Fr 08:00-20:00; Sa 08:00-13:30", "phone": "+48 32 240 26 53", "ref:csioz": "1067596", "wheelchair": "yes"}}, {"type": "node", "id": 9622431107, "lat": 50.2717369, "lon": 18.8553592, "tags": {"addr:city": "Ruda \u015al\u0105ska", "addr:housenumber": "30", "addr:postcode": "41-710", "addr:street": "Ludomira R\u00f3\u017cyckiego", "amenity": "pharmacy", "dispensing": "yes", "healthcare": "pharmacy", "name": "Apteka Nova", "official_name": "Apteka Nova Sieciowa", "ref:csioz": "1203427"}}, {"type": "node", "id": 9623570352, "lat": 50.3070601, "lon": 18.9022244, "tags": {"amenity": "pharmacy", "dispensing": "yes", "healthcare": "pharmacy", "name": "Apteka Dbam O Zdrowie", "ref:csioz": "1069892"}}, {"type": "node", "id": 9623780043, "lat": 50.3062744, "lon": 18.9475413, "tags": {"amenity": "pharmacy", "dispensing": "yes", "healthcare": "pharmacy", "name": "Duos", "ref:csioz": "1059611"}}, {"type": "node", "id": 9623780044, "lat": 50.2856578, "lon": 18.9599143, "tags": {"amenity": "pharmacy", "dispensing": "yes", "healthcare": "pharmacy", "name": "Franciszka\u0144ska", "ref:csioz": "1059432"}}, {"type": "node", "id": 9623780045, "lat": 50.2987508, "lon": 18.9419045, "tags": {"amenity": "pharmacy", "dispensing": "yes", "healthcare": "pharmacy", "name": "Lux - Lek", "official_name": "Lux - Lek Ii", "ref:csioz": "1059407"}}, {"type": "node", "id": 9623780046, "lat": 50.3080635, "lon": 18.9453289, "tags": {"amenity": "pharmacy", "dispensing": "yes", "healthcare": "pharmacy", "name": "Apteka Premium-Lek", "ref:csioz": "1059399"}}, {"type": "node", "id": 9623780047, "lat": 50.3024945, "lon": 18.973276, "tags": {"amenity": "pharmacy", "dispensing": "yes", "healthcare": "pharmacy", "name": "Pod Matk\u0105 Bosk\u0105", "ref:csioz": "1059575"}}, {"type": "node", "id": 9623875409, "lat": 50.2735869, "lon": 18.9310948, "tags": {"amenity": "pharmacy", "dispensing": "yes", "healthcare": "pharmacy", "name": "Sieciowa Nr 77", "ref:csioz": "1216286"}}, {"type": "node", "id": 9623875410, "lat": 50.2795505, "lon": 18.9478128, "tags": {"amenity": "pharmacy", "dispensing": "yes", "healthcare": "pharmacy", "name": "4 Pory Roku", "ref:csioz": "1208869"}}, {"type": "node", "id": 9623875411, "lat": 50.2934934, "lon": 18.9496968, "tags": {"amenity": "pharmacy", "dispensing": "yes", "healthcare": "pharmacy", "name": "Damian", "official_name": "Damian Vii", "ref:csioz": "1205380"}}, {"type": "node", "id": 9623875412, "lat": 50.2929943, "lon": 18.9473886, "tags": {"amenity": "pharmacy", "dispensing": "yes", "healthcare": "pharmacy", "name": "Apteka S\u0142oneczna", "ref:csioz": "1198035"}}, {"type": "node", "id": 9623875413, "lat": 50.2859312, "lon": 18.9530659, "tags": {"amenity": "pharmacy", "branch": "Apteka Melissa", "brand": "Dbam o Zdrowie", "brand:wikidata": "Q62563833", "dispensing": "yes", "healthcare": "pharmacy", "name": "Dbam o Zdrowie", "ref:csioz": "1111499", "short_name": "DOZ"}}, {"type": "node", "id": 9623875414, "lat": 50.2871014, "lon": 18.9586161, "tags": {"amenity": "pharmacy", "dispensing": "yes", "healthcare": "pharmacy", "name": "Przyjazna", "ref:csioz": "1176154"}}, {"type": "node", "id": 9624127726, "lat": 50.2962651, "lon": 19.0210931, "tags": {"addr:city": "Siemianowice \u015al\u0105skie", "addr:housenumber": "19", "addr:postcode": "41-100", "addr:street": "Okr\u0119\u017cna", "amenity": "pharmacy", "dispensing": "yes", "healthcare": "pharmacy", "name": "Apteka Nova Sieciowa", "ref:csioz": "1220748"}}, {"type": "node", "id": 9624127728, "lat": 50.3231925, "lon": 19.010529, "tags": {"amenity": "pharmacy", "dispensing": "yes", "healthcare": "pharmacy", "ref:csioz": "1068685"}}, {"type": "node", "id": 9624127729, "lat": 50.3162722, "lon": 19.0020105, "tags": {"addr:city": "Siemianowice \u015al\u0105skie", "addr:housenumber": "1A", "addr:postcode": "41-103", "addr:street": "W\u0142adys\u0142awa Andersa", "amenity": "pharmacy", "dispensing": "yes", "healthcare": "pharmacy", "name": "Apteka S\u0142oneczna", "ref:csioz": "1068552"}}, {"type": "node", "id": 9624127730, "lat": 50.2936992, "lon": 19.0190824, "tags": {"amenity": "pharmacy", "dispensing": "yes", "healthcare": "pharmacy", "name": "Elixir", "ref:csioz": "1068496"}}, {"type": "node", "id": 9624127731, "lat": 50.3224697, "lon": 19.0030399, "tags": {"amenity": "pharmacy", "dispensing": "yes", "healthcare": "pharmacy", "name": "Dr.Max", "not:brand:wikidata": "Q56317371", "ref:csioz": "1068539"}}, {"type": "node", "id": 9626876701, "lat": 50.3459729, "lon": 18.8500453, "tags": {"amenity": "pharmacy", "dispensing": "yes", "healthcare": "pharmacy", "name": "Apteka Medialis Pharm", "ref:csioz": "1058697"}}, {"type": "node", "id": 9626876702, "lat": 50.3391944, "lon": 18.869348, "tags": {"amenity": "pharmacy", "check_date": "2024-05-31", "dispensing": "yes", "healthcare": "pharmacy", "name": "Dla Ciebie", "ref:csioz": "1206124"}}, {"type": "node", "id": 9626876703, "lat": 50.3557499, "lon": 18.901278, "tags": {"amenity": "pharmacy", "dispensing": "yes", "healthcare": "pharmacy", "name": "Olimpijska", "ref:csioz": "1058969"}}, {"type": "node", "id": 9626876704, "lat": 50.3658505, "lon": 18.843759, "tags": {"amenity": "pharmacy", "dispensing": "yes", "healthcare": "pharmacy", "name": "Apteka Cef@Rm 36,6", "ref:csioz": "1058799"}}, {"type": "node", "id": 9627101810, "lat": 50.3435272, "lon": 18.9147683, "tags": {"amenity": "pharmacy", "dispensing": "yes", "healthcare": "pharmacy", "name": "Apteka Zdrowit", "ref:csioz": "1173350"}}, {"type": "node", "id": 9627101811, "lat": 50.352274, "lon": 18.8981298, "tags": {"amenity": "pharmacy", "dispensing": "yes", "healthcare": "pharmacy", "name": "Saturn", "ref:csioz": "1058884"}}, {"type": "node", "id": 9627165507, "lat": 50.3874315, "lon": 18.8802161, "tags": {"addr:city": "Bytom", "addr:housenumber": "1", "addr:postcode": "41-914", "addr:street": "Plac Stefana \u017beromskiego", "amenity": "pharmacy", "dispensing": "yes", "healthcare": "pharmacy", "name": "Citrus", "ref:csioz": "1059056"}}, {"type": "node", "id": 9627165508, "lat": 50.3401868, "lon": 18.9016908, "tags": {"amenity": "pharmacy", "dispensing": "yes", "healthcare": "pharmacy", "name": "Apteka Rodzinna", "ref:csioz": "1211934"}}, {"type": "node", "id": 9627165509, "lat": 50.3479392, "lon": 18.9201718, "tags": {"amenity": "pharmacy", "dispensing": "yes", "healthcare": "pharmacy", "name": "Apteka Radosna", "ref:csioz": "1195390"}}, {"type": "node", "id": 9627165510, "lat": 50.3331549, "lon": 18.9404076, "tags": {"addr:city": "Bytom", "addr:housenumber": "59b", "addr:postcode": "41-902", "addr:street": "Chorzowska", "amenity": "pharmacy", "dispensing": "yes", "healthcare": "pharmacy", "name": "Apteka Lawenda", "ref:csioz": "1170614"}}, {"type": "node", "id": 9627546436, "lat": 50.369928, "lon": 18.9431919, "tags": {"amenity": "pharmacy", "dispensing": "yes", "healthcare": "pharmacy", "name": "Dr.Max", "ref:csioz": "1066545"}}, {"type": "node", "id": 9627546437, "lat": 50.3737663, "lon": 18.947658, "tags": {"addr:city": "Piekary \u015al\u0105skie", "addr:housenumber": "17", "addr:postcode": "41-940", "addr:street": "Prymasa Stefana Wyszy\u0144skiego", "amenity": "pharmacy", "dispensing": "yes", "healthcare": "pharmacy", "name": "Centrum", "official_name": "Centrum - Centrum Tanich Lek\u00f3w", "opening_hours": "24/7", "ref:csioz": "1066615"}}, {"type": "node", "id": 9627546438, "lat": 50.3950107, "lon": 18.9572231, "tags": {"amenity": "pharmacy", "dispensing": "yes", "healthcare": "pharmacy", "name": "Flos", "ref:csioz": "1066584"}}, {"type": "node", "id": 9627546439, "lat": 50.3850867, "lon": 18.9441563, "tags": {"amenity": "pharmacy", "dispensing": "yes", "healthcare": "pharmacy", "name": "Apteka Przy Bazylice", "ref:csioz": "1229342"}}, {"type": "node", "id": 9627546440, "lat": 50.3750964, "lon": 18.9436319, "tags": {"amenity": "pharmacy", "dispensing": "yes", "healthcare": "pharmacy", "name": "Apteka Zdrowit", "ref:csioz": "1178824"}}, {"type": "node", "id": 9627546441, "lat": 50.373683, "lon": 18.9455608, "tags": {"amenity": "pharmacy", "dispensing": "yes", "healthcare": "pharmacy", "name": "Apteka S\u0142oneczna", "opening_hours": "Mo-Fr 07:00-21:00; Sa 07:00-15:00", "ref:csioz": "1122519"}}, {"type": "node", "id": 9627546442, "lat": 50.3895941, "lon": 18.9605006, "tags": {"amenity": "pharmacy", "dispensing": "yes", "healthcare": "pharmacy", "name": "Melisa", "ref:csioz": "1066703"}}, {"type": "node", "id": 9627546443, "lat": 50.363485, "lon": 18.9893415, "tags": {"addr:city": "Piekary \u015al\u0105skie", "addr:housenumber": "65a", "addr:postcode": "41-949", "addr:street": "Marii Sk\u0142odowskiej-Curie", "amenity": "pharmacy", "dispensing": "yes", "healthcare": "pharmacy", "name": "Apteka Zdrowit", "ref:csioz": "1066690"}}, {"type": "node", "id": 9627546444, "lat": 50.3464016, "lon": 18.9809048, "tags": {"addr:city": "Piekary \u015al\u0105skie", "addr:housenumber": "9", "addr:postcode": "41-946", "addr:street": "Biskupa Herberta Bednorza", "amenity": "pharmacy", "dispensing": "yes", "healthcare": "pharmacy", "ref:csioz": "1066513"}}, {"type": "node", "id": 9627546445, "lat": 50.3907469, "lon": 18.9520063, "tags": {"amenity": "pharmacy", "dispensing": "yes", "healthcare": "pharmacy", "name": "Gallena", "ref:csioz": "1066666"}}, {"type": "node", "id": 9627619486, "lat": 50.450486, "lon": 18.8592163, "tags": {"addr:city": "Tarnowskie G\u00f3ry", "addr:housenumber": "5", "addr:postcode": "42-600", "addr:street": "Tadeusza Ko\u015bciuszki", "amenity": "pharmacy", "brand": "Dbam o Zdrowie", "brand:wikidata": "Q62563833", "dispensing": "yes", "drive_through": "no", "healthcare": "pharmacy", "name": "Dbam o Zdrowie", "opening_hours": "Mo-Sa 09:00-21:00", "ref:csioz": "1070020", "short_name": "DOZ"}}, {"type": "node", "id": 9627619487, "lat": 50.4791669, "lon": 18.8023074, "tags": {"addr:city": "Tarnowskie G\u00f3ry", "addr:housenumber": "1", "addr:postcode": "42-609", "addr:street": "Armii Krajowej", "amenity": "pharmacy", "dispensing": "yes", "healthcare": "pharmacy", "name": "Pod Mandragor\u0105", "ref:csioz": "1070004"}}, {"type": "node", "id": 9627619488, "lat": 50.3997794, "lon": 18.9020675, "tags": {"addr:city": "Radzionk\u00f3w", "addr:housenumber": "1A", "addr:postcode": "41-922", "addr:street": "Szyma\u0142y", "amenity": "pharmacy", "brand": "Dbam o Zdrowie", "brand:wikidata": "Q62563833", "dispensing": "yes", "healthcare": "pharmacy", "name": "Dbam o Zdrowie", "ref:csioz": "1220736", "short_name": "DOZ"}}, {"type": "node", "id": 9627619489, "lat": 50.4405141, "lon": 18.9352963, "tags": {"amenity": "pharmacy", "dispensing": "yes", "healthcare": "pharmacy", "name": "S\u0105siedzka", "ref:csioz": "1178808"}}, {"type": "node", "id": 9627619493, "lat": 50.3854398, "lon": 18.9001033, "tags": {"amenity": "pharmacy", "dispensing": "yes", "healthcare": "pharmacy", "name": "Apteka Kinga", "ref:csioz": "1181936"}}, {"type": "node", "id": 9627685544, "lat": 50.4754355, "lon": 18.7980896, "tags": {"addr:city": "Tarnowskie G\u00f3ry", "addr:housenumber": "83", "addr:postcode": "42-680", "addr:street": "Zag\u00f3rska", "amenity": "pharmacy", "dispensing": "yes", "healthcare": "pharmacy", "name": "Pod Mandragor\u0105", "ref:csioz": "1203434"}}, {"type": "node", "id": 9627685545, "lat": 50.4153975, "lon": 18.7556741, "tags": {"addr:city": "Zbros\u0142awice", "addr:housenumber": "100A", "addr:postcode": "42-674", "addr:street": "Wolno\u015bci", "amenity": "pharmacy", "dispensing": "yes", "healthcare": "pharmacy", "name": "Margofarm", "ref:csioz": "1195830"}}, {"type": "node", "id": 9627685548, "lat": 50.3825389, "lon": 18.7644231, "tags": {"amenity": "pharmacy", "dispensing": "yes", "healthcare": "pharmacy", "name": "Apteka S\u0105siedzka", "ref:csioz": "1070853"}}, {"type": "node", "id": 9627685549, "lat": 50.4040406, "lon": 18.7235017, "tags": {"amenity": "pharmacy", "dispensing": "yes", "healthcare": "pharmacy", "name": "Apteka", "official_name": "Brak Nazwy", "ref:csioz": "1063431"}}, {"type": "node", "id": 9627685550, "lat": 50.3983914, "lon": 18.8963619, "tags": {"addr:city": "Radzionk\u00f3w", "addr:housenumber": "1B", "addr:postcode": "41-922", "addr:street": "Emila Gajdasa", "amenity": "pharmacy", "dispensing": "yes", "healthcare": "pharmacy", "ref:csioz": "1224086"}}, {"type": "node", "id": 9627685551, "lat": 50.448716, "lon": 18.855944, "tags": {"addr:city": "Tarnowskie G\u00f3ry", "addr:housenumber": "8", "addr:postcode": "42-600", "addr:street": "Adama Mickiewicza", "amenity": "pharmacy", "dispensing": "yes", "healthcare": "pharmacy", "name": "Apteka Centrum", "ref:csioz": "1213724"}}, {"type": "node", "id": 9627685552, "lat": 50.4442353, "lon": 18.8579599, "tags": {"addr:city": "Tarnowskie G\u00f3ry", "addr:housenumber": "10", "addr:postcode": "42-600", "addr:street": "Krakowska", "amenity": "pharmacy", "dispensing": "yes", "healthcare": "pharmacy", "name": "Apteka S\u0142oneczna", "ref:csioz": "1195504"}}, {"type": "node", "id": 9627685553, "lat": 50.4469997, "lon": 18.8507446, "tags": {"amenity": "pharmacy", "dispensing": "yes", "healthcare": "pharmacy", "name": "Apteka Zdrowit", "ref:csioz": "1170491"}}, {"type": "node", "id": 9627685554, "lat": 50.4430268, "lon": 18.8289424, "tags": {"addr:city": "Tarnowskie G\u00f3ry", "addr:housenumber": "53", "addr:postcode": "42-600", "addr:street": "Fi\u0144ska", "amenity": "pharmacy", "dispensing": "yes", "healthcare": "pharmacy", "name": "Apteka Zdrowit", "ref:csioz": "1116180"}}, {"type": "node", "id": 9627685555, "lat": 50.4459979, "lon": 18.828375, "tags": {"addr:city": "Tarnowskie G\u00f3ry", "addr:housenumber": "2", "addr:postcode": "42-612", "addr:street": "Szwedzka", "amenity": "pharmacy", "dispensing": "yes", "healthcare": "pharmacy", "name": "Avicenna", "ref:csioz": "1070175"}}, {"type": "node", "id": 9627685556, "lat": 50.4461751, "lon": 18.8617101, "tags": {"amenity": "pharmacy", "dispensing": "yes", "healthcare": "pharmacy", "name": "Zdrowit", "official_name": "Apteka Zdrowit", "ref:csioz": "1070142"}}, {"type": "node", "id": 9627685557, "lat": 50.4513894, "lon": 18.8544264, "tags": {"addr:city": "Tarnowskie G\u00f3ry", "addr:housenumber": "21", "addr:postcode": "42-600", "addr:street": "Stefana Okrzei", "amenity": "pharmacy", "dispensing": "yes", "healthcare": "pharmacy", "name": "\u015aw. Miko\u0142aja", "ref:csioz": "1070061"}}, {"type": "node", "id": 9629108280, "lat": 50.2545461, "lon": 19.0196981, "tags": {"amenity": "pharmacy", "dispensing": "yes", "healthcare": "pharmacy", "name": "4 Pory Roku", "ref:csioz": "1063812"}}, {"type": "node", "id": 9629108281, "lat": 50.2100677, "lon": 18.9781629, "tags": {"amenity": "pharmacy", "dispensing": "yes", "healthcare": "pharmacy", "name": "Maria\u0144ska", "ref:csioz": "1063682"}}, {"type": "node", "id": 9629108282, "lat": 50.265544, "lon": 19.0208777, "tags": {"amenity": "pharmacy", "check_date": "2024-08-14", "dispensing": "yes", "healthcare": "pharmacy", "name": "Apteka \u017by\u0142ka", "opening_hours": "Mo-Fr 08:00-19:00; Sa 08:00-13:30", "ref:csioz": "1063649"}}, {"type": "node", "id": 9629108283, "lat": 50.2720775, "lon": 19.0317062, "tags": {"amenity": "pharmacy", "contact:phone": "+48 32 2583038;+48 32 2585186", "dispensing": "yes", "healthcare": "pharmacy", "name": "Apteka Larix", "opening_hours": "Mo-Fr 08:00-19:00; Sa 08:00-14:00; Su,PH off", "ref:csioz": "1063601"}}, {"type": "node", "id": 9629108284, "lat": 50.25536, "lon": 19.0173477, "tags": {"amenity": "pharmacy", "check_date": "2023-07-07", "dispensing": "yes", "healthcare": "pharmacy", "ref:csioz": "1063546"}}, {"type": "node", "id": 9629108285, "lat": 50.1758911, "lon": 18.970538, "tags": {"amenity": "pharmacy", "dispensing": "yes", "healthcare": "pharmacy", "name": "Apteka \u201eSalix\u201d s.c.", "opening_hours": "Mo-Fr 08:00-19:00; Sa 08:00-14:00", "ref:csioz": "1064528"}}, {"type": "node", "id": 9629148460, "lat": 50.2607673, "lon": 19.0428051, "tags": {"amenity": "pharmacy", "dispensing": "yes", "healthcare": "pharmacy", "name": "Apteka Pod Kwiatami", "official_name": "Apteka Pod Kwiatami V", "ref:csioz": "1111183"}}, {"type": "node", "id": 9629148461, "lat": 50.2552359, "lon": 19.0276458, "tags": {"addr:city": "Katowice", "addr:housenumber": "2-4", "addr:postcode": "40-025", "addr:street": "Ksi\u0119dza J\u00f3zefa Szafranka", "amenity": "pharmacy", "dispensing": "yes", "healthcare": "pharmacy", "name": "Apteka Na Francuskiej", "official_name": "Apteka Na Francuskiej Tanie Leki", "opening_hours": "Mo-Fr 08:00-20:00; Sa 08:00-16:00", "ref:csioz": "1064416"}}, {"type": "node", "id": 9629148462, "lat": 50.2239028, "lon": 18.95125, "tags": {"amenity": "pharmacy", "dispensing": "yes", "healthcare": "pharmacy", "name": "Apteka Dbam O Zdrowie", "ref:csioz": "1064000"}}, {"type": "node", "id": 9629769573, "lat": 50.2094191, "lon": 18.9802244, "tags": {"amenity": "pharmacy", "dispensing": "yes", "healthcare": "pharmacy", "name": "Apteka Farmaceut\u00f3w", "ref:csioz": "1188497"}}, {"type": "node", "id": 9629769574, "lat": 50.2033172, "lon": 18.9844099, "tags": {"amenity": "pharmacy", "dispensing": "yes", "healthcare": "pharmacy", "name": "Apteka Zdrowit", "ref:csioz": "1185333"}}, {"type": "node", "id": 9629769575, "lat": 50.2203289, "lon": 18.9907994, "tags": {"amenity": "pharmacy", "dispensing": "yes", "healthcare": "pharmacy", "name": "4 Pory Roku", "ref:csioz": "1177613"}}, {"type": "node", "id": 9629769576, "lat": 50.2674627, "lon": 19.0084457, "tags": {"amenity": "pharmacy", "dispensing": "yes", "healthcare": "pharmacy", "name": "Pharmcentrum", "ref:csioz": "1119920", "shop": "medical_supply"}}, {"type": "node", "id": 9629769577, "lat": 50.2578369, "lon": 19.0397861, "tags": {"amenity": "pharmacy", "check_date": "2025-02-10", "dispensing": "yes", "healthcare": "pharmacy", "name": "Apteka 4 Pory Roku", "opening_hours": "Mo-Fr 08:00-20:00; Sa 08:00-16:00", "ref:csioz": "1115663"}}, {"type": "node", "id": 9630171639, "lat": 50.2525499, "lon": 19.0151524, "tags": {"amenity": "pharmacy", "brand": "Dbam o Zdrowie", "brand:wikidata": "Q62563833", "dispensing": "yes", "healthcare": "pharmacy", "name": "Dbam o Zdrowie", "opening_hours": "Mo-Fr 07:30-18:00; Sa 08:00-13:00", "ref:csioz": "1064163", "short_name": "DOZ"}}, {"type": "node", "id": 9630171640, "lat": 50.268917, "lon": 19.0276383, "tags": {"amenity": "pharmacy", "contact:phone": "+48 32 2588962", "dispensing": "yes", "healthcare": "pharmacy", "name": "Eskulap", "opening_hours": "Mo-Fr 08:00-19:00; Sa 08:00-14:00; Su,PH off", "ref:csioz": "1064117"}}, {"type": "node", "id": 9630171641, "lat": 50.2504092, "lon": 19.0334909, "tags": {"addr:city": "Katowice", "addr:housenumber": "45", "addr:postcode": "40-018", "addr:street": "Graniczna", "amenity": "pharmacy", "dispensing": "yes", "healthcare": "pharmacy", "name": "Apteka \u015al\u0105ska-Twoja Apteka", "ref:csioz": "1063787"}}, {"type": "node", "id": 9630171642, "lat": 50.2666802, "lon": 18.9901174, "tags": {"amenity": "pharmacy", "contact:phone": "+48 32 253 91 14", "dispensing": "yes", "healthcare": "pharmacy", "name": "Apteka S\u0142owia\u0144ska", "opening_hours": "Mo-Fr 08:00-18:00; Sa-Su,PH off", "ref:csioz": "1063567"}}, {"type": "node", "id": 9630252077, "lat": 50.2166309, "lon": 18.9847632, "tags": {"amenity": "pharmacy", "dispensing": "yes", "healthcare": "pharmacy", "name": "Angelius", "ref:csioz": "1111592"}}, {"type": "node", "id": 9630252078, "lat": 50.2612072, "lon": 19.0385401, "tags": {"amenity": "pharmacy", "dispensing": "yes", "healthcare": "pharmacy", "name": "Apteka W Gwiazdach-Twoja Apteka", "ref:csioz": "1064335"}}, {"type": "node", "id": 9630395278, "lat": 50.1838755, "lon": 18.9978789, "tags": {"amenity": "pharmacy", "dispensing": "yes", "healthcare": "pharmacy", "name": "Apteka Pod Kwiatami", "official_name": "Apteka Pod Kwiatami Vi", "ref:csioz": "1220761"}}, {"type": "node", "id": 9630416787, "lat": 50.2253122, "lon": 19.0631665, "tags": {"amenity": "pharmacy", "dispensing": "yes", "healthcare": "pharmacy", "name": "U Aptekarzy", "ref:csioz": "1216566"}}, {"type": "node", "id": 9630416790, "lat": 50.2235892, "lon": 19.0599265, "tags": {"amenity": "pharmacy", "dispensing": "yes", "healthcare": "pharmacy", "name": "Agafarmax", "official_name": "Apteka Agafarmax Na Giszowcu", "ref:csioz": "1172795"}}, {"type": "node", "id": 9630416793, "lat": 50.2247292, "lon": 19.0629603, "tags": {"addr:city": "Katowice", "addr:housenumber": "28", "addr:postcode": "40-486", "addr:street": "Mys\u0142owicka", "amenity": "pharmacy", "dispensing": "yes", "healthcare": "pharmacy", "name": "Apteka Sieciowa Nr 1", "official_name": "Sieciowa Nr 1", "ref:csioz": "1200097"}}, {"type": "node", "id": 9630466536, "lat": 50.2078024, "lon": 18.9821756, "tags": {"amenity": "pharmacy", "dispensing": "yes", "healthcare": "pharmacy", "name": "Apteka G\u0142\u00f3wna", "ref:csioz": "1205876"}}, {"type": "node", "id": 9630466537, "lat": 50.2776423, "lon": 18.9762344, "tags": {"amenity": "pharmacy", "dispensing": "yes", "healthcare": "pharmacy", "name": "Bliska", "ref:csioz": "1204968"}}, {"type": "node", "id": 9630466539, "lat": 50.2318772, "lon": 18.9633755, "tags": {"amenity": "pharmacy", "dispensing": "yes", "healthcare": "pharmacy", "name": "Apteka Ksi\u0105\u017c\u0119ca", "opening_hours": "Mo-Sa 08:00-22:00", "ref:csioz": "1202096"}}, {"type": "node", "id": 9630466541, "lat": 50.236535, "lon": 19.0079936, "tags": {"amenity": "pharmacy", "dispensing": "yes", "healthcare": "pharmacy", "name": "Apteka 4 Pory Roku", "ref:csioz": "1115682"}}, {"type": "node", "id": 9634120803, "lat": 50.3331654, "lon": 18.9403438, "tags": {"entrance": "yes"}}, {"type": "node", "id": 9689737209, "lat": 50.2712083, "lon": 18.5333991, "tags": {"addr:city": "So\u015bnicowice", "addr:housenumber": "19", "addr:postcode": "44-153", "addr:street": "Gliwicka", "amenity": "pharmacy", "dispensing": "yes", "healthcare": "pharmacy", "name": "Margofarm", "ref:csioz": "1069712"}}, {"type": "node", "id": 9689737210, "lat": 50.2142855, "lon": 18.5618305, "tags": {"addr:city": "Pilchowice", "addr:housenumber": "1", "addr:postcode": "44-145", "addr:street": "Damrota", "amenity": "pharmacy", "dispensing": "yes", "healthcare": "pharmacy", "name": "Doz Apteka Dbam O Zdrowie", "ref:csioz": "1116755"}}, {"type": "node", "id": 9689737212, "lat": 50.4546317, "lon": 18.5198754, "tags": {"addr:city": "Toszek", "addr:housenumber": "2", "addr:postcode": "44-180", "addr:street": "Strzelecka", "amenity": "pharmacy", "dispensing": "yes", "healthcare": "pharmacy", "name": "Piast", "ref:csioz": "1070246"}}, {"type": "node", "id": 9689737213, "lat": 50.1912563, "lon": 18.6294329, "tags": {"addr:city": "Knur\u00f3w", "addr:housenumber": "1", "addr:postcode": "44-193", "addr:street": "Stanis\u0142awa Staszica", "amenity": "pharmacy", "dispensing": "yes", "healthcare": "pharmacy", "name": "\u015aw. Barbary 3", "ref:csioz": "1064822"}}, {"type": "node", "id": 9689737215, "lat": 50.214222, "lon": 18.5629812, "tags": {"addr:city": "Pilchowice", "addr:housenumber": "22", "addr:postcode": "44-145", "addr:street": "Dworcowa", "amenity": "pharmacy", "dispensing": "yes", "healthcare": "pharmacy", "name": "Apteka \u015aw. Barbary", "ref:csioz": "1212344"}}, {"type": "node", "id": 9689808017, "lat": 50.2482906, "lon": 18.6164805, "tags": {"addr:city": "\u017bernica", "addr:housenumber": "2", "addr:postcode": "44-144", "addr:street": "Powsta\u0144c\u00f3w \u015al\u0105skich", "amenity": "pharmacy", "dispensing": "yes", "healthcare": "pharmacy", "name": "Aptekarius", "ref:csioz": "1073681"}}, {"type": "node", "id": 9776616464, "lat": 50.1035717, "lon": 18.8825233, "tags": {"addr:city": "Gosty\u0144", "addr:housenumber": "368", "addr:postcode": "43-176", "addr:street": "Pszczy\u0144ska", "amenity": "pharmacy", "dispensing": "yes", "healthcare": "pharmacy", "ref:csioz": "1062535"}}, {"type": "node", "id": 9776644917, "lat": 50.1502332, "lon": 18.8392772, "tags": {"addr:city": "\u0141aziska G\u00f3rne", "addr:housenumber": "1B", "addr:postcode": "43-170", "addr:street": "Plac Ratuszowy", "amenity": "pharmacy", "brand": "Dr. Max", "brand:wikidata": "Q56317371", "dispensing": "yes", "healthcare": "pharmacy", "name": "Dr. Max", "ref:csioz": "1219421"}}, {"type": "node", "id": 9776647970, "lat": 50.1418492, "lon": 18.8650821, "tags": {"addr:city": "\u0141aziska G\u00f3rne", "addr:housenumber": "2", "addr:postcode": "43-170", "addr:street": "Stanis\u0142awa Staszica", "amenity": "pharmacy", "dispensing": "yes", "healthcare": "pharmacy", "name": "Moja Apteka", "ref:csioz": "1065511"}}, {"type": "node", "id": 9776648208, "lat": 50.1261172, "lon": 18.8000494, "tags": {"addr:city": "Orzesze", "addr:housenumber": "144", "addr:postcode": "43-187", "addr:street": "Miko\u0142owska", "amenity": "pharmacy", "dispensing": "yes", "healthcare": "pharmacy", "name": "Margofarm", "ref:csioz": "1172253"}}, {"type": "node", "id": 9776648379, "lat": 50.1787682, "lon": 18.7626392}, {"type": "node", "id": 9776648380, "lat": 50.1787753, "lon": 18.7626346}, {"type": "node", "id": 9776648381, "lat": 50.1788069, "lon": 18.762508}, {"type": "node", "id": 9776648382, "lat": 50.1788381, "lon": 18.7626254}, {"type": "node", "id": 9776655713, "lat": 50.1214757, "lon": 18.8093393, "tags": {"addr:city": "Orzesze", "addr:housenumber": "208", "addr:postcode": "43-187", "addr:street": "Miko\u0142owska", "amenity": "pharmacy", "dispensing": "yes", "healthcare": "pharmacy", "name": "Szpital", "ref:csioz": "1205314"}}, {"type": "node", "id": 9776655831, "lat": 50.136146, "lon": 18.8741132, "tags": {"addr:city": "\u0141aziska G\u00f3rne", "addr:housenumber": "12B", "addr:postcode": "43-170", "addr:street": "Wyrska", "amenity": "pharmacy", "dispensing": "yes", "healthcare": "pharmacy", "name": "Apteka \u015aw. Anny", "ref:csioz": "1198871"}}, {"type": "node", "id": 9776656487, "lat": 50.1426976, "lon": 18.7772039, "tags": {"addr:city": "Orzesze", "addr:housenumber": "17", "addr:postcode": "43-180", "addr:street": "Miko\u0142owska", "amenity": "pharmacy", "dispensing": "yes", "healthcare": "pharmacy", "name": "Melissa", "ref:csioz": "1200974"}}, {"type": "node", "id": 9776658852, "lat": 50.1703699, "lon": 18.9055759, "tags": {"addr:city": "Miko\u0142\u00f3w", "addr:housenumber": "10", "addr:postcode": "43-190", "addr:street": "Jana Paw\u0142a II", "amenity": "pharmacy", "dispensing": "yes", "healthcare": "pharmacy", "name": "Majowa", "opening_hours": "Mo-Fr 08:00-16:00; Sa 08:00-13:00", "ref:csioz": "1122508"}}, {"type": "node", "id": 9776660044, "lat": 50.1449011, "lon": 18.7746934, "tags": {"addr:city": "Orzesze", "addr:housenumber": "17A", "addr:postcode": "43-180", "addr:street": "Rynek", "amenity": "pharmacy", "dispensing": "yes", "healthcare": "pharmacy", "name": "Twoje Zdrowie", "ref:csioz": "1198493"}}, {"type": "node", "id": 9776663603, "lat": 50.1447637, "lon": 18.776284, "tags": {"addr:city": "Orzesze", "addr:housenumber": "3", "addr:postcode": "43-180", "addr:street": "\u015awi\u0119tego Wawrzy\u0144ca", "amenity": "pharmacy", "dispensing": "yes", "healthcare": "pharmacy", "name": "Apteka Pod Wie\u017c\u0105", "ref:csioz": "1066387"}}, {"type": "node", "id": 9776668812, "lat": 50.1113746, "lon": 18.7953303, "tags": {"addr:city": "Orzesze", "addr:housenumber": "11A", "addr:postcode": "43-186", "addr:street": "Katowicka", "amenity": "pharmacy", "dispensing": "yes", "healthcare": "pharmacy", "name": "Libra", "ref:csioz": "1066365"}}, {"type": "node", "id": 9776673632, "lat": 50.131594, "lon": 18.8996, "tags": {"addr:city": "Wyry", "addr:housenumber": "3", "addr:postcode": "43-175", "addr:street": "Tysi\u0105clecia", "amenity": "pharmacy", "dispensing": "yes", "healthcare": "pharmacy", "name": "Apteka Im.\u0141ukasiewicza", "ref:csioz": "1071248"}}, {"type": "node", "id": 9776675552, "lat": 50.1852016, "lon": 18.7986869, "tags": {"addr:city": "Miko\u0142\u00f3w", "addr:housenumber": "29", "addr:postcode": "43-196", "addr:street": "Ksi\u0119dza Franciszka G\u00f3rka", "amenity": "pharmacy", "dispensing": "yes", "healthcare": "pharmacy", "name": "W Bujakowie", "ref:csioz": "1065731"}}, {"type": "node", "id": 9776676883, "lat": 50.1703241, "lon": 18.9070574, "tags": {"addr:city": "MIKO\u0141\u00d3W", "addr:housenumber": "17", "addr:postcode": "43-190", "addr:street": "Stefana Okrzei", "amenity": "pharmacy", "dispensing": "yes", "healthcare": "pharmacy", "name": "Apteka Przy Starym Ko\u015bciele", "ref:csioz": "1065744"}}, {"type": "node", "id": 9776678846, "lat": 50.1720553, "lon": 18.9022855, "tags": {"addr:city": "Miko\u0142\u00f3w", "addr:housenumber": "14", "addr:postcode": "43-190", "addr:street": "Konstantego Prusa", "amenity": "pharmacy", "dispensing": "yes", "healthcare": "pharmacy", "name": "Piastowska", "ref:csioz": "1065728"}}, {"type": "node", "id": 9965960225, "lat": 50.1300476, "lon": 18.7130987, "tags": {"addr:city": "Be\u0142k", "addr:housenumber": "72B", "addr:postcode": "44-230", "addr:street": "G\u0142\u00f3wna", "amenity": "pharmacy", "dispensing": "yes", "fixme": "Sprawdzi\u0107 poprawno\u015b\u0107 lokalizacji", "healthcare": "pharmacy", "name": "Margaretka", "ref:csioz": "1212497"}}, {"type": "node", "id": 9965993526, "lat": 50.1300402, "lon": 18.6699934, "tags": {"addr:city": "STANOWICE", "addr:housenumber": "20", "addr:postcode": "44-230", "addr:street": "Szkolna", "amenity": "pharmacy", "dispensing": "yes", "healthcare": "pharmacy", "name": "Passiflora", "ref:csioz": "1073380"}}, {"type": "node", "id": 9965998256, "lat": 50.1204418, "lon": 18.6283455, "tags": {"addr:city": "Przeg\u0119dza", "addr:housenumber": "97", "addr:postcode": "44-238", "addr:street": "Miko\u0142owska", "amenity": "pharmacy", "dispensing": "yes", "healthcare": "pharmacy", "name": "\u015aw. Damiana", "ref:csioz": "1066880"}}, {"type": "node", "id": 9966006249, "lat": 50.1390376, "lon": 18.6275867, "tags": {"addr:city": "Czerwionka-Leszczyny", "addr:housenumber": "6", "addr:postcode": "44-238", "addr:street": "Gustawa Morcinka", "amenity": "pharmacy", "dispensing": "yes", "healthcare": "pharmacy", "name": "Melisa", "ref:csioz": "1060252"}}, {"type": "node", "id": 9966010886, "lat": 50.1696511, "lon": 18.7069088, "tags": {"addr:city": "Czerwionka-Leszczyny", "addr:housenumber": "37", "addr:postcode": "44-230", "addr:street": "Jesionka", "amenity": "pharmacy", "dispensing": "yes", "healthcare": "pharmacy", "name": "Doz Apteka Dbam O Zdrowie", "ref:csioz": "1060226"}}, {"type": "node", "id": 9966043798, "lat": 50.0491742, "lon": 18.4761274, "tags": {"addr:city": "Radlin", "addr:housenumber": "12", "addr:postcode": "44-310", "addr:street": "Wojciecha Korfantego", "amenity": "pharmacy", "dispensing": "yes", "drive_through": "no", "healthcare": "pharmacy", "name": "Apteka Pod Lwem", "opening_hours": "Mo-Fr 08:00-20:00; Sa 08:00-14:00", "ref:csioz": "1200043"}}, {"type": "node", "id": 9966105238, "lat": 50.0502457, "lon": 18.4742061, "tags": {"addr:city": "Radlin", "addr:housenumber": "3", "addr:postcode": "44-310", "addr:street": "Wojciecha Korfantego", "amenity": "pharmacy", "dispensing": "yes", "healthcare": "pharmacy", "name": "Apteka Premium-Lek", "ref:csioz": "1213992"}}, {"type": "node", "id": 9966109522, "lat": 50.0525276, "lon": 18.4697041, "tags": {"addr:city": "Radlin", "addr:housenumber": "15", "addr:postcode": "44-310", "addr:street": "J\u00f3zefa Hallera", "amenity": "pharmacy", "dispensing": "yes", "healthcare": "pharmacy", "name": "Galen", "ref:csioz": "1215495"}}, {"type": "node", "id": 9966116034, "lat": 50.0466602, "lon": 18.4849459, "tags": {"addr:city": "Radlin", "addr:housenumber": "6", "addr:postcode": "44-310", "addr:street": "W\u0142adys\u0142awa Orkana", "amenity": "pharmacy", "dispensing": "yes", "healthcare": "pharmacy", "name": "Doz Apteka Dbam O Zdrowie Pod Jask\u00f3\u0142k\u0105", "ref:csioz": "1067422"}}, {"type": "node", "id": 10031744317, "lat": 50.2367894, "lon": 19.0048834, "tags": {"addr:housenumber": "6", "addr:street": "Gawron\u00f3w", "amenity": "pharmacy", "healthcare": "pharmacy", "name": "Rossmann", "opening_hours": "Mo-Sa 09:00-21:00", "website": "https://www.rossmann.pl/drogerie/Drogeria-Rossmann-gawronow-6,katowice,24,1826"}}, {"type": "node", "id": 10044063207, "lat": 50.1125789, "lon": 18.5215649, "tags": {"addr:city": "Rybnik", "addr:housenumber": "46", "addr:street": "Energetyk\u00f3w", "amenity": "pharmacy", "dispensing": "yes", "healthcare": "pharmacy", "name": "S\u0142oneczna", "ref:csioz": "1164338"}}, {"type": "node", "id": 10172279627, "lat": 50.0467123, "lon": 18.6025343, "tags": {"addr:city": "Rybnik", "addr:housenumber": "11", "addr:street": "Patriot\u00f3w", "amenity": "pharmacy", "dispensing": "yes", "healthcare": "pharmacy", "name": "Topfarm", "ref:csioz": "1220697"}}, {"type": "node", "id": 10172279628, "lat": 50.0452877, "lon": 18.5881195, "tags": {"addr:city": "Rybnik", "addr:housenumber": "12", "addr:street": "Jastrz\u0119bska", "amenity": "pharmacy", "dispensing": "yes", "healthcare": "pharmacy", "name": "Pod Lwem", "ref:csioz": "1206580"}}, {"type": "node", "id": 10172279629, "lat": 50.050202, "lon": 18.6025717, "tags": {"addr:city": "Rybnik", "addr:housenumber": "20", "addr:street": "J\u00f3zefa Lompy", "amenity": "pharmacy", "dispensing": "yes", "healthcare": "pharmacy", "name": "Pod Lwem", "ref:csioz": "1204900"}}, {"type": "node", "id": 10172279630, "lat": 50.0954642, "lon": 18.5324705, "tags": {"addr:city": "Rybnik", "addr:housenumber": "1", "addr:street": "Zebrzydowicka", "amenity": "pharmacy", "brand": "Dbam o Zdrowie", "brand:wikidata": "Q62563833", "dispensing": "yes", "healthcare": "pharmacy", "name": "Dbam o Zdrowie", "opening_hours": "Mo-Fr 08:00-21:00", "ref:csioz": "1200516", "short_name": "DOZ"}}, {"type": "node", "id": 10172279631, "lat": 50.0653864, "lon": 18.551631, "tags": {"addr:city": "Rybnik", "addr:housenumber": "8", "addr:street": "Kupiecka", "amenity": "pharmacy", "dispensing": "yes", "healthcare": "pharmacy", "ref:csioz": "1193500"}}, {"type": "node", "id": 10172279632, "lat": 50.1126716, "lon": 18.5456799, "tags": {"addr:city": "Rybnik", "addr:housenumber": "45", "addr:street": "Gliwicka", "amenity": "pharmacy", "dispensing": "yes", "healthcare": "pharmacy", "name": "Cef@Rm 36,6", "ref:csioz": "1181045"}}, {"type": "node", "id": 10172279633, "lat": 50.1420272, "lon": 18.6010513, "tags": {"addr:city": "Rybnik", "addr:housenumber": "3", "addr:street": "Zofii Na\u0142kowskiej", "amenity": "pharmacy", "dispensing": "yes", "healthcare": "pharmacy", "name": "Passiflora", "ref:csioz": "1180206"}}, {"type": "node", "id": 10172279634, "lat": 50.1024197, "lon": 18.5242751, "tags": {"addr:city": "Rybnik", "addr:housenumber": "23", "addr:street": "W\u0142adys\u0142awa Broniewskiego", "amenity": "pharmacy", "dispensing": "yes", "healthcare": "pharmacy", "name": "Pod Lwem", "ref:csioz": "1177668"}}, {"type": "node", "id": 10172279635, "lat": 50.0640422, "lon": 18.495135, "tags": {"addr:city": "Rybnik", "addr:housenumber": "8", "addr:street": "J\u00f3zefa Rymera", "amenity": "pharmacy", "dispensing": "yes", "healthcare": "pharmacy", "name": "Galen", "ref:csioz": "1171572"}}, {"type": "node", "id": 10172279636, "lat": 50.0976476, "lon": 18.5337536, "tags": {"addr:city": "Rybnik", "addr:housenumber": "16", "addr:street": "\u015awi\u0119tego J\u00f3zefa", "amenity": "pharmacy", "dispensing": "yes", "healthcare": "pharmacy", "name": "Pod Lwem", "ref:csioz": "1166215"}}, {"type": "node", "id": 10172279637, "lat": 50.0901205, "lon": 18.5299006, "tags": {"addr:city": "Rybnik", "addr:housenumber": "60", "addr:street": "W\u0142adys\u0142awa Stanis\u0142awa Reymonta", "amenity": "pharmacy", "dispensing": "yes", "healthcare": "pharmacy", "opening_hours": "Mo-Fr 08:00-22:00; Sa 08:00-15:00", "ref:csioz": "1068279"}}, {"type": "node", "id": 10172279638, "lat": 50.0964885, "lon": 18.5374449, "tags": {"addr:city": "Rybnik", "addr:housenumber": "16", "addr:street": "Raciborska", "amenity": "pharmacy", "dispensing": "yes", "healthcare": "pharmacy", "name": "Dr Zdrowie", "ref:csioz": "1068254"}}, {"type": "node", "id": 10172279639, "lat": 50.1272558, "lon": 18.523307, "tags": {"addr:city": "Rybnik", "addr:housenumber": "48", "addr:street": "Podmiejska", "amenity": "pharmacy", "dispensing": "yes", "healthcare": "pharmacy", "name": "Przy Elektrowni", "ref:csioz": "1068240"}}, {"type": "node", "id": 10172279640, "lat": 50.0842887, "lon": 18.5452483, "tags": {"addr:city": "Rybnik", "addr:housenumber": "4A", "addr:street": "Parkowa", "amenity": "pharmacy", "dispensing": "yes", "healthcare": "pharmacy", "name": "Na Parkowej", "ref:csioz": "1068206"}}, {"type": "node", "id": 10172279641, "lat": 50.0951317, "lon": 18.5261912, "tags": {"addr:city": "Rybnik", "addr:housenumber": "100", "addr:street": "Jana Kotucza", "amenity": "pharmacy", "brand": "Dbam o Zdrowie", "brand:wikidata": "Q62563833", "dispensing": "yes", "healthcare": "pharmacy", "name": "Dbam o Zdrowie", "ref:csioz": "1068144", "short_name": "DOZ"}}, {"type": "node", "id": 10172279642, "lat": 50.0982389, "lon": 18.5220082, "tags": {"addr:city": "Rybnik", "addr:housenumber": "13", "addr:street": "Kardyna\u0142a Boles\u0142awa Kominka", "amenity": "pharmacy", "dispensing": "yes", "healthcare": "pharmacy", "name": "\u015aw. Anny", "ref:csioz": "1068115"}}, {"type": "node", "id": 10172279643, "lat": 50.0559408, "lon": 18.4834175, "tags": {"addr:city": "Rybnik", "addr:housenumber": "140B", "addr:street": "G\u00f3rno\u015bl\u0105ska", "amenity": "pharmacy", "dispensing": "yes", "healthcare": "pharmacy", "name": "Hetma\u0144ska", "ref:csioz": "1068095"}}, {"type": "node", "id": 10172279644, "lat": 50.0986881, "lon": 18.5523852, "tags": {"addr:city": "Rybnik", "addr:housenumber": "3", "addr:street": "By\u0142ych Wi\u0119\u017ani\u00f3w Politycznych", "amenity": "pharmacy", "dispensing": "yes", "healthcare": "pharmacy", "name": "S\u0142oneczna", "ref:csioz": "1068051"}}, {"type": "node", "id": 10172279645, "lat": 50.0706898, "lon": 18.5485487, "tags": {"addr:city": "Rybnik", "addr:housenumber": "93A", "addr:street": "1 Maja", "amenity": "pharmacy", "dispensing": "yes", "healthcare": "pharmacy", "name": "Chwa\u0142owice", "ref:csioz": "1068023"}}, {"type": "node", "id": 10695590353, "lat": 50.4380119, "lon": 18.9442927, "tags": {"amenity": "pharmacy", "dispensing": "yes", "healthcare": "pharmacy", "name": "Apteka S\u0105siedzka", "opening_hours": "Mo-Fr 07:30-20:30; Sa 07:30-15:30; PH off", "wheelchair": "yes"}}, {"type": "node", "id": 11075714319, "lat": 50.1784577, "lon": 18.8854759}, {"type": "node", "id": 11075714320, "lat": 50.1783189, "lon": 18.8854522}, {"type": "node", "id": 11075714321, "lat": 50.1783958, "lon": 18.8854946}, {"type": "node", "id": 11075714323, "lat": 50.1784065, "lon": 18.8854476}, {"type": "node", "id": 11075714508, "lat": 50.1783511, "lon": 18.8853104}, {"type": "node", "id": 11075714617, "lat": 50.1784792, "lon": 18.8853811}, {"type": "node", "id": 11358586778, "lat": 50.4436638, "lon": 18.8525311}, {"type": "node", "id": 11410169018, "lat": 50.2904628, "lon": 18.6577217, "tags": {"amenity": "pharmacy", "healthcare": "pharmacy", "name": "S\u0142oneczna", "opening_hours": "Mo-Fr 07:00-21:00; Sa 08:00-15:00", "phone": "+48 32 332 04 12"}}, {"type": "node", "id": 11631302148, "lat": 50.214067, "lon": 18.973757, "tags": {"amenity": "pharmacy", "brand": "Ziko Apteka", "brand:wikidata": "Q63432892", "healthcare": "pharmacy", "name": "Ziko Apteka", "short_name": "Ziko"}}, {"type": "node", "id": 12128234138, "lat": 50.3204252, "lon": 18.9416705}, {"type": "node", "id": 12128256935, "lat": 50.3202737, "lon": 18.9417241}, {"type": "node", "id": 12229253376, "lat": 50.3112624, "lon": 18.7885065}, {"type": "node", "id": 12229350030, "lat": 50.3112646, "lon": 18.7885131}, {"type": "node", "id": 12229350031, "lat": 50.3113114, "lon": 18.7884897}, {"type": "node", "id": 12229350032, "lat": 50.3112905, "lon": 18.7883767}, {"type": "node", "id": 12229350033, "lat": 50.3114058, "lon": 18.788324}, {"type": "node", "id": 12229350037, "lat": 50.3113375, "lon": 18.7880727}, {"type": "node", "id": 12229350038, "lat": 50.3111616, "lon": 18.7881521}, {"type": "node", "id": 12309428041, "lat": 50.1783723, "lon": 18.8853221}, {"type": "node", "id": 12599078621, "lat": 50.2237025, "lon": 18.9864407}, {"type": "node", "id": 12599081843, "lat": 50.2238954, "lon": 18.9864462}, {"type": "node", "id": 12599081846, "lat": 50.2238313, "lon": 18.9861841}, {"type": "node", "id": 12599081848, "lat": 50.2237973, "lon": 18.9861404}, {"type": "node", "id": 12599081849, "lat": 50.2238542, "lon": 18.986214}, {"type": "node", "id": 12599081850, "lat": 50.2238807, "lon": 18.9861643}, {"type": "node", "id": 12599081851, "lat": 50.2239297, "lon": 18.9862268}, {"type": "node", "id": 12599081852, "lat": 50.2239382, "lon": 18.9862438}, {"type": "node", "id": 12599081853, "lat": 50.2239462, "lon": 18.9863902}, {"type": "node", "id": 12599081854, "lat": 50.2239245, "lon": 18.9863909}, {"type": "node", "id": 12599081855, "lat": 50.2238593, "lon": 18.986515}, {"type": "node", "id": 12599081856, "lat": 50.2238034, "lon": 18.9864424}, {"type": "node", "id": 12599081857, "lat": 50.2237572, "lon": 18.9865292}, {"type": "node", "id": 12599081858, "lat": 50.2236986, "lon": 18.9864531}, {"type": "node", "id": 12647440173, "lat": 50.3204064, "lon": 18.9416772}, {"type": "node", "id": 12648051893, "lat": 50.1986496, "lon": 19.0434491, "tags": {"amenity": "pharmacy", "healthcare": "pharmacy", "name": "Apteka Na Rynku", "opening_hours": "Mo-Fr 08:00-16:00"}}, {"type": "node", "id": 12862856062, "lat": 50.3202509, "lon": 18.9415645}, {"type": "node", "id": 12862856063, "lat": 50.3204021, "lon": 18.941511}, {"type": "node", "id": 13063401443, "lat": 50.454514, "lon": 18.52}, {"type": "node", "id": 13063401444, "lat": 50.454603, "lon": 18.51995}, {"type": "node", "id": 13063401445, "lat": 50.454691, "lon": 18.519988}, {"type": "way", "id": 147530405, "nodes": [3798430703, 9776648382, 9776648381, 3798431075, 9776648379, 9776648380, 3798431084, 3798431000, 3798431001, 3798430703], "tags": {"addr:city": "Ornontowice", "addr:housenumber": "3", "addr:postcode": "43-178", "addr:street": "Klasztorna", "amenity": "pharmacy", "building": "yes", "name": "Apteka Nova", "opening_hours": "Mo-Fr 09:00-18:00; Sa 08:00-12:00; Su,PH off", "ref:csioz": "1066340", "source:addr": "EMUiA"}}, {"type": "way", "id": 171857321, "nodes": [1828284777, 1828284776, 13063401445, 13063401444, 1828284778, 2340402215, 13063401443, 1828284780, 1828284777], "tags": {"addr:city": "Toszek", "addr:housenumber": "2A", "addr:postcode": "44-180", "addr:street": "Strzelecka", "amenity": "pharmacy", "building": "residential", "source:addr": "EMUiA@iMPA (toszek.e-mapa.net)", "source:building": "EGiB"}}, {"type": "way", "id": 193631423, "nodes": [1257791872, 2041567298, 11358586778, 2041567291, 2041567292, 2041567289, 2041567290, 2041567293, 2041567294, 2041567295, 1257833225, 1257812366, 1257802165, 1257791872], "tags": {"amenity": "pharmacy", "building": "yes", "healthcare": "pharmacy"}}, {"type": "way", "id": 216978967, "nodes": [2262960247, 2262917193, 2262917189, 2262977070, 2262960247], "tags": {"addr:city": "Tarnowskie G\u00f3ry", "addr:housenumber": "189", "addr:postcode": "42-680", "addr:street": "Zag\u00f3rska", "amenity": "pharmacy", "brand": "Dr. Max", "brand:wikidata": "Q56317371", "building:part": "room", "dispensing": "yes", "healthcare": "pharmacy", "name": "Dr. Max", "official_name": "Apteka Lekosfera Dga20", "ref:csioz": "1070188", "source": "survey"}}, {"type": "way", "id": 238426929, "nodes": [2462682261, 2462682274, 2462682281, 2462682278, 2462682270, 2462682263, 2462682261], "tags": {"BytomGIS:id": "4044", "addr:city": "Bytom", "addr:housenumber": "33a", "addr:postcode": "41-902", "addr:street": "Strzelc\u00f3w Bytomskich", "amenity": "pharmacy", "building": "yes", "dispensing": "yes", "healthcare": "pharmacy", "name": "Na Rogu", "ref:csioz": "1059145", "source": "Ortofotomapa Bytom", "source:addr": "BytomGIS"}}, {"type": "way", "id": 276089365, "nodes": [2807198171, 2807198170, 2807198169, 9634120803, 2807198147, 2807198148, 2807198150, 2807198171], "tags": {"addr:city": "Bytom", "addr:housenumber": "57", "addr:postcode": "41-902", "addr:street": "Chorzowska", "amenity": "pharmacy", "building": "yes", "dispensing": "yes", "healthcare": "pharmacy"}}, {"type": "way", "id": 297331449, "nodes": [3012065523, 1607413361, 1607413370, 3012065524, 7397574265, 3012065523], "tags": {"addr:city": "Ornontowice", "addr:housenumber": "4", "addr:postcode": "43-178", "addr:street": "Zwyci\u0119stwa", "amenity": "pharmacy", "building": "yes", "name": "Apteka \u015aw. Stanis\u0142awa", "opening_hours": "Mo-Fr 07:30-19:30; Sa 08:00-14:00; Su off; PH off", "ref:csioz": "1176681", "source:addr": "EMUiA"}}, {"type": "way", "id": 350960780, "nodes": [3566811436, 3566811393, 3566811374, 3566811352, 3566811361, 3566811378, 3566811390, 3566811397, 3566811399, 3566811407, 3566811409, 3566811422, 3566811423, 3566811436], "tags": {"addr:city": "Brzesko", "addr:housenumber": "3", "addr:postcode": "32-800", "addr:street": "Kr\u00f3lowej Jadwigi", "amenity": "pharmacy", "building": "yes", "healthcare": "pharmacy", "name": "Cef@rm 36,6", "source:addr": "EMUiA (emuia.gugik.gov.pl)"}}, {"type": "way", "id": 376475279, "nodes": [3798863244, 8514629461, 3798863241, 3798861636, 3798861640, 3798863250, 3798863244], "tags": {"amenity": "pharmacy", "building": "yes", "name": "Punkt Apteczny", "ref:csioz": "1230443"}}, {"type": "way", "id": 504611340, "nodes": [4947589377, 4947589378, 4947589379, 4947589380, 4947589381, 6031871325, 4947589382, 7315934621, 6031871326, 6031871327, 4947589377], "tags": {"addr:city": "Siemianowice \u015al\u0105skie", "addr:housenumber": "2", "addr:postcode": "41-100", "addr:street": "Olimpijska", "amenity": "pharmacy", "building": "yes", "dispensing": "yes", "healthcare": "pharmacy", "name": "Centrum Zdrowia", "opening_hours": "Mo-Fr 07:30-20:00,Sa 08:00-16:00; PH off", "ref:csioz": "1215480"}}, {"type": "way", "id": 517039196, "nodes": [5046391772, 5043826333, 5043826330, 5046391770, 5046391745, 5046391771, 5046391772], "tags": {"amenity": "pharmacy", "contact:email": "apteka.parkowa@duos.pl", "contact:phone": "+48 32 771 35 44", "dispensing": "yes", "healthcare": "pharmacy", "indoor": "room", "level": "0", "name": "Duos", "opening_hours": "Mo-Sa 09:00-21:00; Jan 26,Apr 13,Apr 27,Jun 29,Aug 31,Dec 07,Dec 14,Dec 21 Su 10:00-20:00; PH off", "ref:csioz": "1198883", "website": "https://duos.pl/apteki-chorzow"}}, {"type": "way", "id": 548528616, "nodes": [5299175980, 2707796707, 5299175978, 5299175977, 5299175980], "tags": {"addr:city": "Gliwice", "addr:housenumber": "4", "addr:postcode": "44-164", "addr:street": "Sopocka", "amenity": "pharmacy", "building": "retail", "dispensing": "yes", "healthcare": "pharmacy", "name": "Ambra", "ref:csioz": "1118209", "source:addr": "EMUiA (emuia.gugik.gov.pl)"}}, {"type": "way", "id": 694066873, "nodes": [6516351574, 6516351575, 6516351576, 6516351577, 1781907751, 1781907750, 6516351574], "tags": {"amenity": "pharmacy", "brand": "Dbam o Zdrowie", "brand:wikidata": "Q62563833", "contact:email": "ea-109@euroapteka.pl", "contact:phone": "+48 885 866 878;+48 517 446 651", "dispensing": "yes", "healthcare": "pharmacy", "indoor": "room", "name": "Dbam o Zdrowie", "opening_hours": "Mo-Sa 09:00-21:00; Jan 26,Apr 13,Apr 27,Jun 29,Aug 31,Dec 07,Dec 14,Dec 21 Su 10:00-17:00; PH off", "ref:csioz": "1122556", "short_name": "DOZ", "website": "https://www.doz.pl/apteki/a121440-DOZ_Apteka_Dbam_o_Zdrowie"}}, {"type": "way", "id": 954229780, "nodes": [8831816410, 3920520455, 8831816408, 8831816407, 600086750, 2121892067, 2121892156, 1717826370, 8831816409, 8831816410], "tags": {"amenity": "pharmacy", "brand": "Super-Pharm", "brand:en": "Super-Pharm", "brand:he": "\u05e1\u05d5\u05e4\u05e8-\u05e4\u05d0\u05e8\u05dd", "brand:wikidata": "Q13220217", "contact:phone": "+48 32 6610299 \"sklep\";+48 32 6610294 \"apteka\"", "dispensing": "yes", "healthcare": "pharmacy", "indoor": "room", "level": "0", "name": "Super-Pharm", "name:ar": "\u0633\u0648\u0628\u064a\u0631 \u0641\u0627\u0631\u0645", "name:en": "Super-Pharm", "name:he": "\u05e1\u05d5\u05e4\u05e8-\u05e4\u05d0\u05e8\u05dd", "name:ru": "\u0421\u0443\u043f\u0435\u0440-\u0424\u0430\u0440\u043c", "official_name": "Super-Pharm Apteka", "opening_hours": "Mo-Sa 09:00-21:00; Su[-1] 10:00-20:00; PH off", "ref:csioz": "1119286", "shop": "chemist", "website": "https://superpharm.pl/sklep/super-pharm-galeria-katowicka"}}, {"type": "way", "id": 993074099, "nodes": [9174714966, 9174550097, 9174714965, 2120188354, 2120188320, 2120188321, 2120188298, 2120188297, 2120188287, 2120188289, 2120188291, 2120188303, 2120188300, 2120188305, 2120188309, 2120188314, 2120188312, 2120188316, 2120188318, 2120188337, 2120188330, 2120188339, 2120188343, 9174714967, 4815976047, 9174714966], "tags": {"amenity": "pharmacy", "brand": "Super-Pharm", "brand:en": "Super-Pharm", "brand:he": "\u05e1\u05d5\u05e4\u05e8-\u05e4\u05d0\u05e8\u05dd", "brand:wikidata": "Q13220217", "brand:wikipedia": "en:Super-Pharm", "contact:phone": "+48 32 359 76 80", "dispensing": "yes", "healthcare": "pharmacy", "indoor": "room", "level": "0", "name": "Super-Pharm", "name:ar": "\u0633\u0648\u0628\u064a\u0631 \u0641\u0627\u0631\u0645", "name:en": "Super-Pharm", "name:he": "\u05e1\u05d5\u05e4\u05e8-\u05e4\u05d0\u05e8\u05dd", "name:ru": "\u0421\u0443\u043f\u0435\u0440-\u0424\u0430\u0440\u043c", "official_name": "Super-Pharm Apteka", "opening_hours": "Mo-Th,Sa 10:00-21:00; Fr 10:00-22:00; Su[-1] 10:00-21:00; PH off", "ref:csioz": "1063617", "shop": "chemist", "website": "https://superpharm.pl/sklep/super-pharm-silesia-city-center"}}, {"type": "way", "id": 1193201652, "nodes": [11075714320, 11075714321, 11075714323, 11075714319, 11075714617, 12309428041, 11075714508, 11075714320], "tags": {"amenity": "pharmacy", "healthcare": "pharmacy", "indoor": "room", "level": "0", "name": "Cosmedica"}}, {"type": "way", "id": 1309914709, "nodes": [12862856062, 12128256935, 12647440173, 12128234138, 12862856063, 12862856062], "tags": {"amenity": "pharmacy", "brand": "Dbam o Zdrowie", "brand:wikidata": "Q62563833", "healthcare": "pharmacy", "indoor": "room", "level": "0", "name": "Dbam o Zdrowie", "short_name": "DOZ"}}, {"type": "way", "id": 1321574718, "nodes": [12229350037, 12229350033, 12229350032, 12229350031, 12229350030, 12229253376, 2127718252, 2127718193, 2127718140, 12229350038, 12229350037], "tags": {"amenity": "pharmacy", "brand": "Super-Pharm", "brand:en": "Super-Pharm", "brand:he": "\u05e1\u05d5\u05e4\u05e8-\u05e4\u05d0\u05e8\u05dd", "brand:wikidata": "Q13220217", "healthcare": "pharmacy", "indoor": "room", "level": "0", "name": "Super-Pharm", "name:ar": "\u0633\u0648\u0628\u064a\u0631 \u0641\u0627\u0631\u0645", "name:en": "Super-Pharm", "name:he": "\u05e1\u05d5\u05e4\u05e8-\u05e4\u05d0\u05e8\u05dd", "name:ru": "\u0421\u0443\u043f\u0435\u0440-\u0424\u0430\u0440\u043c"}}, {"type": "way", "id": 1360974905, "nodes": [12599081857, 12599081856, 12599081855, 12599081843, 12599081854, 12599081853, 12599081852, 12599081851, 12599081850, 12599081849, 12599081846, 12599081848, 12599078621, 12599081858, 12599081857], "tags": {"amenity": "pharmacy", "indoor": "room", "level": "0", "name": "Dr. Max"}}]}