{"version": 0.6, "generator": "Overpass API 0.7.62.8 e802775f", "osm3s": {"timestamp_osm_base": "2025-10-06T08:12:00Z", "copyright": "The data included in this document is from www.openstreetmap.org. The data is made available under ODbL."}, "elements": [{"type": "node", "id": 291183414, "lat": 40.6467525, "lon": 22.9491462, "tags": {"addr:city": "\u0398\u03b5\u03c3\u03c3\u03b1\u03bb\u03bf\u03bd\u03af\u03ba\u03b7;\u0394\u03ae\u03bc\u03bf\u03c2 \u03a3\u03c5\u03ba\u03b5\u03ce\u03bd", "addr:country": "GR", "addr:housenumber": "4", "addr:street": "\u039f\u03b4\u03cc\u03c2 \u039c\u03b9\u03c7. \u039a\u03b1\u03c1\u03b1\u03bf\u03bb\u03ae", "amenity": "pharmacy", "healthcare": "pharmacy", "name": "\u03a7\u03b5\u03bb\u03b2\u03b1\u03c4\u03b6\u03cc\u03b3\u03bb\u03bf\u03c5-\u0392\u03b1\u03c1\u03b4\u03b1\u03bb\u03ae \u039e\u03ad\u03bd\u03b7", "note:addr:city": "I mention the municipality because different municipalities in the same city can have the same name for a street. Strange as it might sound, completely disorganised country;-)", "phone": "+30-2310-610741", "source": "Small paper bag which held some products that were bought"}}, {"type": "node", "id": 359590089, "lat": 40.6477209, "lon": 22.9507527, "tags": {"addr:street": "\u0395\u03bb\u03b5\u03c5\u03b8\u03b5\u03c1\u03af\u03bf\u03c5 \u0392\u03b5\u03bd\u03b9\u03b6\u03ad\u03bb\u03bf\u03c5", "amenity": "pharmacy", "healthcare": "pharmacy", "source": "Kaart Ground Survey 2018"}}, {"type": "node", "id": 428470439, "lat": 40.6480685, "lon": 22.9482068, "tags": {"addr:housenumber": "17", "addr:street": "\u039d\u03b9\u03ba\u03bf\u03bb\u03ac\u03bf\u03c5 \u03a0\u03b1\u03c1\u03b1\u03c3\u03ba\u03b5\u03c5\u03ac", "amenity": "pharmacy", "healthcare": "pharmacy", "name": "\u0392\u03b1\u03c3\u03b9\u03bb\u03b5\u03b9\u03ac\u03b4\u03b7\u03c2 \u03a7\u03c1. \u0392\u03b1\u03c3\u03af\u03bb\u03b5\u03b9\u03bf\u03c2", "phone": "+30-2310-615800", "source": "address,name,phone: receipt by purchase early August 2009"}}, {"type": "node", "id": 434537770, "lat": 40.6173647, "lon": 22.9595814, "tags": {"addr:street": "\u0391\u03bb\u03b5\u03be\u03ac\u03bd\u03b4\u03c1\u03bf\u03c5 \u03a0\u03b1\u03c0\u03b1\u03bd\u03b1\u03c3\u03c4\u03b1\u03c3\u03af\u03bf\u03c5", "amenity": "pharmacy", "fixme": "name", "healthcare": "pharmacy", "source": "Kaart Ground Survey 2018"}}, {"type": "node", "id": 434537774, "lat": 40.6200434, "lon": 22.9578869, "tags": {"amenity": "pharmacy", "healthcare": "pharmacy"}}, {"type": "node", "id": 434537776, "lat": 40.6204801, "lon": 22.9573454, "tags": {"addr:street": "\u03a3\u03c4\u03c1\u03b1\u03c4\u03bf\u03cd", "amenity": "pharmacy", "check_date": "2025-05-16", "healthcare": "pharmacy", "name": "\u0393\u03ba\u03bf\u03bb\u03bf\u03b2\u03cc\u03b4\u03b1 \u0399\u03c9\u03ac\u03bd\u03bd\u03b1", "source": "Kaart Ground Survey 2018"}}, {"type": "node", "id": 434537797, "lat": 40.6299574, "lon": 22.9532391, "tags": {"amenity": "pharmacy", "healthcare": "pharmacy", "name": "\u03a3\u03b5\u03c1\u03b2\u03ac\u03c2", "wheelchair": "no"}}, {"type": "node", "id": 434537798, "lat": 40.6303033, "lon": 22.9532659, "tags": {"amenity": "pharmacy", "fixme:location": "yes", "healthcare": "pharmacy", "name": "\u03a3\u03ba\u03c1\u03ad\u03ba\u03b1 \u0391\u03bd\u03b4\u03c1\u03bf\u03bc\u03ac\u03c7\u03b7", "wheelchair": "limited"}}, {"type": "node", "id": 434537801, "lat": 40.6322612, "lon": 22.9522788, "tags": {"amenity": "pharmacy", "healthcare": "pharmacy"}}, {"type": "node", "id": 434537803, "lat": 40.6346031, "lon": 22.952872, "tags": {"amenity": "pharmacy", "healthcare": "pharmacy"}}, {"type": "node", "id": 492167599, "lat": 40.5870995, "lon": 22.9531598, "tags": {"amenity": "pharmacy", "healthcare": "pharmacy"}}, {"type": "node", "id": 541427126, "lat": 40.6090902, "lon": 23.1007527, "tags": {"addr:city": "\u03a7\u03bf\u03c1\u03c4\u03b9\u03ac\u03c4\u03b7\u03c2", "addr:housenumber": "78", "addr:postcode": "57010", "addr:street": "\u039c\u03b1\u03c1\u03c4\u03cd\u03c1\u03c9\u03bd 2\u03b1\u03c2 \u03a3\u03b5\u03c0\u03c4\u03b5\u03bc\u03b2\u03c1\u03af\u03bf\u03c5", "amenity": "pharmacy", "check_date": "2025-09-02", "dispensing": "yes", "healthcare": "pharmacy", "name": "\u03a6\u03b1\u03c1\u03bc\u03b1\u03ba\u03b5\u03af\u03bf \u0391\u03c3\u03b7\u03bc\u03af\u03bd\u03b1 \u03a3\u03b1\u03bb\u03b9\u03ac\u03c1\u03b1", "operator": "\u0391\u03c3\u03b7\u03bc\u03af\u03bd\u03b1 \u03a3\u03b1\u03bb\u03b9\u03ac\u03c1\u03b1", "phone": "+30 2310 349434;+30 2310 349495"}}, {"type": "node", "id": 659614632, "lat": 40.6180604, "lon": 22.9595038, "tags": {"amenity": "pharmacy", "healthcare": "pharmacy", "name": "\u0394\u03cc\u03c1\u03c4\u03b7"}}, {"type": "node", "id": 663256461, "lat": 40.6077371, "lon": 22.9596856, "tags": {"amenity": "pharmacy", "healthcare": "pharmacy"}}, {"type": "node", "id": 663256462, "lat": 40.6085912, "lon": 22.9589933, "tags": {"amenity": "pharmacy", "healthcare": "pharmacy"}}, {"type": "node", "id": 663256463, "lat": 40.6090596, "lon": 22.9587884, "tags": {"addr:street": "\u0394\u03b7\u03bc\u03b7\u03c4\u03c1\u03af\u03bf\u03c5 \u039c\u03b7\u03c4\u03c1\u03bf\u03c0\u03bf\u03cd\u03bb\u03bf\u03c5", "amenity": "pharmacy", "fixme": "name", "healthcare": "pharmacy", "source": "Kaart Ground Survey 2018"}}, {"type": "node", "id": 663256464, "lat": 40.6076673, "lon": 22.9574739, "tags": {"amenity": "pharmacy", "healthcare": "pharmacy"}}, {"type": "node", "id": 707139381, "lat": 40.6174378, "lon": 22.9583082, "tags": {"amenity": "pharmacy", "healthcare": "pharmacy"}}, {"type": "node", "id": 707139388, "lat": 40.6168802, "lon": 22.957263, "tags": {"amenity": "pharmacy", "healthcare": "pharmacy"}}, {"type": "node", "id": 707139398, "lat": 40.6180735, "lon": 22.9584504, "tags": {"amenity": "pharmacy", "healthcare": "pharmacy"}}, {"type": "node", "id": 829453085, "lat": 40.6164352, "lon": 22.9729813, "tags": {"amenity": "pharmacy", "healthcare": "pharmacy"}}, {"type": "node", "id": 854004206, "lat": 40.6206474, "lon": 22.955679, "tags": {"amenity": "pharmacy", "drive_through": "no", "healthcare": "pharmacy"}}, {"type": "node", "id": 854004210, "lat": 40.6207227, "lon": 22.9548261, "tags": {"amenity": "pharmacy", "drive_through": "no", "healthcare": "pharmacy"}}, {"type": "node", "id": 1100321490, "lat": 40.6569703, "lon": 22.9584007, "tags": {"amenity": "pharmacy", "healthcare": "pharmacy"}}, {"type": "node", "id": 1200172786, "lat": 40.6116705, "lon": 22.9849611, "tags": {"amenity": "pharmacy", "healthcare": "pharmacy", "operator": "\u0391\u03b2\u03c1\u03b1\u03bc\u03af\u03b4\u03bf\u03c5"}}, {"type": "node", "id": 1201889682, "lat": 40.6106592, "lon": 22.9856374, "tags": {"amenity": "pharmacy", "healthcare": "pharmacy"}}, {"type": "node", "id": 1202474904, "lat": 40.6163412, "lon": 22.9702624, "tags": {"amenity": "pharmacy", "healthcare": "pharmacy"}}, {"type": "node", "id": 1202474907, "lat": 40.6162924, "lon": 22.9706143, "tags": {"amenity": "pharmacy", "healthcare": "pharmacy"}}, {"type": "node", "id": 1202474947, "lat": 40.6168124, "lon": 22.9716672, "tags": {"amenity": "pharmacy", "fixme": "is there really 3 pharmacies next to each other?", "healthcare": "pharmacy"}}, {"type": "node", "id": 1202474953, "lat": 40.6168604, "lon": 22.9713452, "tags": {"amenity": "pharmacy", "fixme": "is there really 3 pharmacies next to each other?", "healthcare": "pharmacy"}}, {"type": "node", "id": 1234908724, "lat": 40.61711, "lon": 22.9548395, "tags": {"amenity": "pharmacy", "healthcare": "pharmacy"}}, {"type": "node", "id": 1234908726, "lat": 40.6190621, "lon": 22.9576746, "tags": {"amenity": "pharmacy", "healthcare": "pharmacy"}}, {"type": "node", "id": 1264426121, "lat": 40.6320428, "lon": 22.9512599, "tags": {"amenity": "pharmacy", "fixme": "is it still open? website is down", "healthcare": "pharmacy", "name": "\u0391. \u03a3\u03a4\u0391\u03a5\u03a1\u0391\u039a\u0391\u039a\u0397 - \u0399. \u03a3\u03a5\u039b\u039b\u0399\u0393\u039d\u0391\u039a\u0397 & \u03a3\u0399\u0391 \u039f\u0395", "opening_hours": "Mo-Fr 08:30-21:00; Sa 10:30-15:00", "website": "https://www.iama.gr/", "wheelchair": "limited"}}, {"type": "node", "id": 1316177884, "lat": 40.6357671, "lon": 23.2474672, "tags": {"addr:city": "\u039b\u03b1\u03b3\u03ba\u03b1\u03b4\u03af\u03ba\u03b9\u03b1", "addr:postcode": "57012", "amenity": "pharmacy", "operator": "\u0391\u03bd\u03b1\u03c3\u03c4\u03b1\u03c3\u03af\u03b1 \u03a3\u03b9\u03cc\u03c0\u03b7", "shop": "chemist"}}, {"type": "node", "id": 1540597131, "lat": 40.6391946, "lon": 22.939962, "tags": {"addr:housenumber": "29A", "addr:postcode": "54630", "addr:street": "\u03a0\u03c4\u03bf\u03bb\u03b5\u03bc\u03b1\u03af\u03c9\u03bd", "amenity": "pharmacy", "designation": "\u03a6\u03b1\u03c1\u03bc\u03b1\u03ba\u03b1\u03c0\u03bf\u03b8\u03b7\u03ba\u03b7", "dispensing": "yes", "healthcare": "pharmacy", "name": "\u03a6\u03b1\u03c1\u03bc\u03b1\u03ba\u03b1\u03c0\u03bf\u03b8\u03b7\u03ba\u03b7 \u039b\u03b9\u03b1\u03c6\u03b1\u03c1\u03bc", "source": "GPS"}}, {"type": "node", "id": 1633822573, "lat": 40.3063162, "lon": 23.2087309, "tags": {"amenity": "pharmacy", "healthcare": "pharmacy"}}, {"type": "node", "id": 1656188256, "lat": 40.637917, "lon": 22.9429358, "tags": {"amenity": "pharmacy", "healthcare": "pharmacy", "source": "http://walking-papers.org/scan-large.php?id=hg9skgxd Original uploaded file"}}, {"type": "node", "id": 1656216836, "lat": 40.6377534, "lon": 22.9439942, "tags": {"amenity": "pharmacy", "healthcare": "pharmacy", "name": "\u03a6\u03b1\u03c1\u03bc\u03b1\u03ba\u03b5\u03af\u03bf \u039d\u03b5\u03bb\u03bb\u03b7 \u039b\u03bf\u03c1\u03c4\u03bf\u03c5 \u03a3\u03ba\u03b1\u03c4\u03c3\u03b7\u03bc\u03b1", "source": "http://walking-papers.org/scan-large.php?id=hg9skgxd Original uploaded file"}}, {"type": "node", "id": 1704876858, "lat": 40.6423596, "lon": 22.9453377, "tags": {"addr:street": "\u039f\u03bb\u03c5\u03bc\u03c0\u03b9\u03ac\u03b4\u03bf\u03c2", "amenity": "pharmacy", "healthcare": "pharmacy", "name": "\u03c6\u03b1\u03c1\u03bc\u03b1\u03ba\u03b5\u03af\u03bf", "source": "Kaart Ground Survey 2018"}}, {"type": "node", "id": 1704947609, "lat": 40.6149925, "lon": 22.9771634, "tags": {"amenity": "pharmacy", "healthcare": "pharmacy"}}, {"type": "node", "id": 1705270706, "lat": 40.6406973, "lon": 22.9436113, "tags": {"amenity": "pharmacy", "healthcare": "pharmacy"}}, {"type": "node", "id": 1708527198, "lat": 40.6394891, "lon": 22.9425233, "tags": {"amenity": "pharmacy", "healthcare": "pharmacy", "note": "\u03a5\u03c0\u03ac\u03c1\u03c7\u03bf\u03c5\u03bd 3 \u03c6\u03b1\u03c1\u03bc\u03b1\u03ba\u03b5\u03af\u03b1 \u03c3\u03b5 \u03b1\u03c0\u03cc\u03c3\u03c4\u03b1\u03c3\u03b7 10 \u03bc\u03ad\u03c4\u03c1\u03c9\u03bd"}}, {"type": "node", "id": 1708527375, "lat": 40.6413509, "lon": 22.9442119, "tags": {"addr:street": "\u039a\u03b1\u03c3\u03c3\u03ac\u03bd\u03b4\u03c1\u03bf\u03c5", "amenity": "pharmacy", "healthcare": "pharmacy", "source": "Kaart Ground Survey 2018"}}, {"type": "node", "id": 1708527421, "lat": 40.6398444, "lon": 22.9428544, "tags": {"addr:city": "\u0398\u03b5\u03c3\u03c3\u03b1\u03bb\u03bf\u03bd\u03af\u03ba\u03b7", "addr:housenumber": "75", "addr:postcode": "54630", "addr:street": "\u038a\u03c9\u03bd\u03bf\u03c2 \u0394\u03c1\u03b1\u03b3\u03bf\u03cd\u03bc\u03b7", "amenity": "pharmacy", "dispensing": "yes", "healthcare": "pharmacy", "opening_hours": "Mo,We 08:30-15:30; Tu,Th,Fr 08:30-21:00; Sa 09:00-14:30", "phone": "+302310534614"}}, {"type": "node", "id": 1708595491, "lat": 40.6426822, "lon": 22.9441566, "tags": {"amenity": "pharmacy", "healthcare": "pharmacy", "name": "\u03c6\u03b1\u03c1\u03bc\u03b1\u03ba\u03b5\u03af\u03bf '\u039c\u03a9\u03a5\u03a3\u039f\u0393\u039b\u039f\u03a5 \u039c. \u0391\u0398\u0391\u039d\u0391\u03a3\u0399\u039f\u03a3'"}}, {"type": "node", "id": 1708900389, "lat": 40.6155337, "lon": 22.954882, "tags": {"amenity": "pharmacy", "healthcare": "pharmacy"}}, {"type": "node", "id": 1728938758, "lat": 40.5013434, "lon": 22.925112, "tags": {"amenity": "pharmacy", "healthcare": "pharmacy"}}, {"type": "node", "id": 1750710766, "lat": 40.5989386, "lon": 22.9875767, "tags": {"amenity": "pharmacy", "healthcare": "pharmacy", "name": "\u039a\u03bf\u03c5\u03c1\u03c4\u03af\u03b4\u03b7\u03c2 \u0393\u03b5\u03ce\u03c1\u03b3\u03b9\u03bf\u03c2"}}, {"type": "node", "id": 1759687045, "lat": 40.5846204, "lon": 22.9523693, "tags": {"addr:city": "\u039a\u03b1\u03bb\u03b1\u03bc\u03b1\u03c1\u03b9\u03ac", "addr:country": "GR", "addr:housenumber": "45", "addr:postcode": "55131", "addr:street": "\u0391\u03bc\u03b9\u03c3\u03bf\u03cd", "amenity": "pharmacy", "dispensing": "yes", "healthcare": "pharmacy", "int_name": "Pharmacy Kalamaria Thessaloniki", "name": "\u03a6\u0391\u03a1\u039c\u0391\u039a\u0395\u0399\u039f \u039a\u0391\u039b\u0391\u039c\u0391\u03a1\u0399\u0391 \u0398\u0395\u03a3\u03a3\u0391\u039b\u039f\u039d\u0399\u039a\u0397\u03a3", "source": "geodata.gov.gr"}}, {"type": "node", "id": 1761262013, "lat": 40.5886009, "lon": 22.9659269, "tags": {"addr:city": "\u039a\u03b1\u03bb\u03b1\u03bc\u03b1\u03c1\u03b9\u03ac", "addr:country": "GR", "addr:housenumber": "4", "addr:postcode": "55134", "addr:street": "\u03a3\u03c9\u03ba\u03c1\u03ac\u03c4\u03bf\u03c5\u03c2", "amenity": "pharmacy", "healthcare": "pharmacy", "source": "geodata.gov.gr"}}, {"type": "node", "id": 1777989571, "lat": 40.6379618, "lon": 22.9470109, "tags": {"addr:housenumber": "81", "addr:street": "\u039f\u03bb\u03cd\u03bc\u03c0\u03bf\u03c5", "amenity": "pharmacy", "dispensing": "yes", "healthcare": "pharmacy", "name": "Pharmacy 128"}}, {"type": "node", "id": 1899706831, "lat": 40.6530166, "lon": 22.9951077, "tags": {"amenity": "pharmacy", "healthcare": "pharmacy", "name": "\u03a4\u03b1\u03bc\u03ba\u03b1\u03c4\u03b6\u03cc\u03b3\u03bb\u03bf\u03c5 \u039a\u03c5\u03c1\u03b9\u03b1\u03ba\u03ae"}}, {"type": "node", "id": 1899706876, "lat": 40.6562414, "lon": 22.991608, "tags": {"amenity": "pharmacy", "healthcare": "pharmacy"}}, {"type": "node", "id": 1899706878, "lat": 40.6525111, "lon": 22.997305, "tags": {"amenity": "pharmacy", "healthcare": "pharmacy"}}, {"type": "node", "id": 1899706888, "lat": 40.6587075, "lon": 22.9826593, "tags": {"amenity": "pharmacy", "healthcare": "pharmacy"}}, {"type": "node", "id": 1900203838, "lat": 40.6481166, "lon": 22.9293442, "tags": {"addr:housenumber": "48", "addr:postcode": "54629", "addr:street": "\u0391\u03b3\u03af\u03c9\u03bd \u03a0\u03ac\u03bd\u03c4\u03c9\u03bd", "amenity": "pharmacy", "dispensing": "yes", "healthcare": "pharmacy", "name": "\u0391\u03c3\u03bb\u03b1\u03bd\u03af\u03b4\u03bf\u03c5 \u039f\u03bb\u03c5\u03bc\u03c0\u03af\u03b1", "name:el": "\u0391\u03c3\u03bb\u03b1\u03bd\u03af\u03b4\u03bf\u03c5 \u039f\u03bb\u03c5\u03bc\u03c0\u03af\u03b1", "source": "Kaart Ground Survey 2018"}}, {"type": "node", "id": 1912508577, "lat": 40.6499501, "lon": 22.9226727, "tags": {"amenity": "pharmacy", "healthcare": "pharmacy"}}, {"type": "node", "id": 1912508588, "lat": 40.6503611, "lon": 22.9252022, "tags": {"amenity": "pharmacy", "healthcare": "pharmacy"}}, {"type": "node", "id": 1912543838, "lat": 40.6512597, "lon": 22.9279317, "tags": {"amenity": "pharmacy", "healthcare": "pharmacy"}}, {"type": "node", "id": 1912543841, "lat": 40.6482706, "lon": 22.927405, "tags": {"amenity": "pharmacy", "healthcare": "pharmacy"}}, {"type": "node", "id": 1912543854, "lat": 40.65021, "lon": 22.9295566, "tags": {"amenity": "pharmacy", "healthcare": "pharmacy"}}, {"type": "node", "id": 1912543855, "lat": 40.6482965, "lon": 22.9292802, "tags": {"addr:housenumber": "57", "addr:postcode": "54629", "addr:street": "\u0391\u03b3\u03af\u03c9\u03bd \u03a0\u03ac\u03bd\u03c4\u03c9\u03bd", "amenity": "pharmacy", "dispensing": "yes", "healthcare": "pharmacy", "name": "\u0391\u03c1\u03b3\u03c5\u03c1\u03b9\u03ac\u03b4\u03b7\u03c2 \u03a0\u03b1\u03cd\u03bb\u03bf\u03c2", "name:el": "\u0391\u03c1\u03b3\u03c5\u03c1\u03b9\u03ac\u03b4\u03b7\u03c2 \u03a0\u03b1\u03cd\u03bb\u03bf\u03c2", "source": "Kaart Ground Survey 2018"}}, {"type": "node", "id": 1912555110, "lat": 40.6528324, "lon": 22.9218915, "tags": {"amenity": "pharmacy", "healthcare": "pharmacy", "name": "\u03a0\u03b1\u03c0\u03b1\u03ba\u03c9\u03bd\u03c3\u03c4\u03b1\u03bd\u03c4\u03af\u03bd\u03bf\u03c5+\u03a3\u03c4\u03c1\u03b9\u03ba\u03bf\u03cd\u03b4\u03b7"}}, {"type": "node", "id": 1918454470, "lat": 40.6378859, "lon": 22.9406801, "tags": {"amenity": "pharmacy", "healthcare": "pharmacy"}}, {"type": "node", "id": 1918454492, "lat": 40.6345089, "lon": 22.9464481, "tags": {"addr:city": "\u0398\u03b5\u03c3\u03c3\u03b1\u03bb\u03bf\u03bd\u03af\u03ba\u03b7", "addr:housenumber": "102", "addr:postcode": "54623", "addr:street": "\u0395\u03b3\u03bd\u03b1\u03c4\u03af\u03b1", "amenity": "pharmacy", "healthcare": "pharmacy", "operator": "Misioudi Ioanna"}}, {"type": "node", "id": 1918454496, "lat": 40.6343867, "lon": 22.9441988, "tags": {"amenity": "pharmacy", "healthcare": "pharmacy", "wheelchair": "limited"}}, {"type": "node", "id": 1928707441, "lat": 40.6529266, "lon": 22.9290729, "tags": {"amenity": "pharmacy", "healthcare": "pharmacy"}}, {"type": "node", "id": 1928707444, "lat": 40.6530854, "lon": 22.9288793, "tags": {"amenity": "pharmacy", "healthcare": "pharmacy"}}, {"type": "node", "id": 1928707459, "lat": 40.6527171, "lon": 22.9284768, "tags": {"amenity": "pharmacy", "healthcare": "pharmacy"}}, {"type": "node", "id": 1942386901, "lat": 40.6517039, "lon": 22.9227664, "tags": {"addr:city": "\u0391\u03bc\u03c0\u03b5\u03bb\u03cc\u03ba\u03b7\u03c0\u03bf\u03b9", "addr:housenumber": "40", "addr:postcode": "56123", "addr:street": "\u0393\u03b9\u03ac\u03bd\u03bd\u03b7 \u03a7\u03b1\u03bb\u03ba\u03af\u03b4\u03b7", "amenity": "pharmacy", "healthcare": "pharmacy", "name": "\u03a7\u03b1\u03c4\u03b6\u03cc\u03c0\u03bf\u03c5\u03bb\u03bf\u03c2", "source": "Kaart Ground Survey 2018"}}, {"type": "node", "id": 1942386904, "lat": 40.6496507, "lon": 22.9280278, "tags": {"amenity": "pharmacy", "healthcare": "pharmacy"}}, {"type": "node", "id": 1942386906, "lat": 40.6522163, "lon": 22.9312629, "tags": {"addr:street": "28\u03b7\u03c2 \u039f\u03ba\u03c4\u03c9\u03b2\u03c1\u03af\u03bf\u03c5", "amenity": "pharmacy", "healthcare": "pharmacy", "name": "\u03a7\u03b1\u03c4\u03b6\u03b7\u03c3\u03ac\u03b2\u03b2\u03b1", "source": "Kaart Ground Survey 2018"}}, {"type": "node", "id": 1954597478, "lat": 40.608842, "lon": 22.9690065, "tags": {"amenity": "pharmacy", "dispensing": "yes", "healthcare": "pharmacy", "name": "\u039b\u03b5\u03c9\u03bd\u03af\u03b4\u03b7 - \u0393\u03b1\u03bb\u03bf\u03b2\u03b1\u03c4\u03c3\u03ad\u03b1"}}, {"type": "node", "id": 1956443917, "lat": 40.6533411, "lon": 22.936391, "tags": {"amenity": "pharmacy", "healthcare": "pharmacy"}}, {"type": "node", "id": 1956477903, "lat": 40.6502584, "lon": 22.9375689, "tags": {"amenity": "pharmacy", "healthcare": "pharmacy"}}, {"type": "node", "id": 1956477936, "lat": 40.6518971, "lon": 22.9422073, "tags": {"addr:street": "\u0391\u03bd\u03b4\u03c1\u03ad\u03b1 \u03a0\u03b1\u03c0\u03b1\u03bd\u03b4\u03c1\u03ad\u03bf\u03c5", "amenity": "pharmacy", "healthcare": "pharmacy"}}, {"type": "node", "id": 1956477940, "lat": 40.6508219, "lon": 22.9385645, "tags": {"addr:city": "\u039d\u03b5\u03ac\u03c0\u03bf\u03bb\u03b7", "addr:housenumber": "53", "addr:postcode": "56728", "addr:street": "\u0395\u03bb\u03b5\u03c5\u03b8\u03b5\u03c1\u03af\u03bf\u03c5 \u0392\u03b5\u03bd\u03b9\u03b6\u03ad\u03bb\u03bf\u03c5", "amenity": "pharmacy", "healthcare": "pharmacy", "name": "\u039a\u03b1\u03bb\u03bf\u03b3\u03b9\u03ac\u03bd\u03bd\u03b7\u03c2", "operator": "Kalogiannis Athanasios"}}, {"type": "node", "id": 1956477941, "lat": 40.6529981, "lon": 22.9257416, "tags": {"addr:street": "\u03a6\u03b9\u03bb\u03b9\u03c0\u03c0\u03bf\u03c5\u03c0\u03cc\u03bb\u03b5\u03c9\u03c2", "amenity": "pharmacy", "fixme": "name", "healthcare": "pharmacy", "source": "Kaart Ground Survey 2018"}}, {"type": "node", "id": 1956477946, "lat": 40.6518763, "lon": 22.9272789, "tags": {"amenity": "pharmacy", "healthcare": "pharmacy"}}, {"type": "node", "id": 1956477949, "lat": 40.6515668, "lon": 22.93985, "tags": {"addr:street": "\u0395\u03bb\u03b5\u03c5\u03b8\u03b5\u03c1\u03af\u03bf\u03c5 \u0392\u03b5\u03bd\u03b9\u03b6\u03ad\u03bb\u03bf\u03c5", "amenity": "pharmacy", "healthcare": "pharmacy", "source": "Kaart Ground Survey 2018"}}, {"type": "node", "id": 1956477958, "lat": 40.6528032, "lon": 22.9264084, "tags": {"amenity": "pharmacy", "healthcare": "pharmacy"}}, {"type": "node", "id": 1956481919, "lat": 40.6518277, "lon": 22.9247565, "tags": {"addr:street": "\u0395\u03bb\u03b5\u03c5\u03b8\u03b5\u03c1\u03af\u03bf\u03c5 \u0392\u03b5\u03bd\u03b9\u03b6\u03ad\u03bb\u03bf\u03c5", "amenity": "pharmacy", "healthcare": "pharmacy", "name": "\u03a4\u03b6\u03b9\u03b2\u03b5\u03bb\u03b5\u03ba\u03af\u03b4\u03bf\u03c5", "operator": "\u03a4\u03b6\u03b9\u03b2\u03b5\u03bb\u03b5\u03ba\u03af\u03b4\u03bf\u03c5 \u039a. \u0391\u03bd\u03b1\u03c3\u03c4\u03b1\u03c3\u03af\u03b1", "source": "Kaart Ground Survey 2018"}}, {"type": "node", "id": 1956483592, "lat": 40.6385557, "lon": 22.934791, "tags": {"addr:city": "\u0398\u03b5\u03c3\u03c3\u03b1\u03bb\u03bf\u03bd\u03af\u03ba\u03b7", "addr:housenumber": "2", "addr:postcode": "54626", "addr:street": "\u03a6\u03c1\u03ac\u03b3\u03ba\u03c9\u03bd", "amenity": "pharmacy", "healthcare": "pharmacy", "name": "\u03a0\u03bf\u03bb\u03af\u03c4\u03b7\u03c2", "operator": "\u0394\u03b7\u03bc\u03ae\u03c4\u03c1\u03b7\u03c2 \u03a0\u03bf\u03bb\u03af\u03c4\u03b7\u03c2"}}, {"type": "node", "id": 1956483594, "lat": 40.6384164, "lon": 22.9356605, "tags": {"amenity": "pharmacy", "healthcare": "pharmacy"}}, {"type": "node", "id": 1960411532, "lat": 40.6411994, "lon": 23.0246604, "tags": {"amenity": "pharmacy", "healthcare": "pharmacy"}}, {"type": "node", "id": 1960411568, "lat": 40.6405915, "lon": 23.0263674, "tags": {"amenity": "pharmacy", "healthcare": "pharmacy"}}, {"type": "node", "id": 1973795646, "lat": 40.6468693, "lon": 22.9547113, "tags": {"addr:street": "\u039c\u03b5\u03bb\u03af\u03bd\u03b1 \u039c\u03b5\u03c1\u03ba\u03bf\u03c5\u03c1\u03b7", "amenity": "pharmacy", "fixme": "name", "healthcare": "pharmacy", "source": "Kaart Ground Survey 2018"}}, {"type": "node", "id": 1991322929, "lat": 40.6413739, "lon": 22.933976, "tags": {"addr:housenumber": "6", "addr:postcode": "54629", "addr:street": "\u039c\u03bf\u03bd\u03b1\u03c3\u03c4\u03b7\u03c1\u03af\u03bf\u03c5", "amenity": "pharmacy", "dispensing": "yes", "healthcare": "pharmacy", "name": "\u0394\u03ad\u03bb\u03bb\u03b9\u03bf\u03c5", "name:el": "\u0394\u03ad\u03bb\u03bb\u03b9\u03bf\u03c5", "wheelchair": "yes"}}, {"type": "node", "id": 1991322947, "lat": 40.6397331, "lon": 22.9371326, "tags": {"amenity": "pharmacy", "healthcare": "pharmacy", "operator": "Tympanidou Sotiropoulou Sofia"}}, {"type": "node", "id": 1991322956, "lat": 40.6395654, "lon": 22.937527, "tags": {"amenity": "pharmacy", "healthcare": "pharmacy"}}, {"type": "node", "id": 1991322961, "lat": 40.640693, "lon": 22.9358373, "tags": {"amenity": "pharmacy", "healthcare": "pharmacy"}}, {"type": "node", "id": 2001357888, "lat": 40.6033235, "lon": 22.9727899, "tags": {"amenity": "pharmacy", "healthcare": "pharmacy"}}, {"type": "node", "id": 2002335591, "lat": 40.6397061, "lon": 22.9447282, "tags": {"addr:city": "\u0398\u03b5\u03c3\u03c3\u03b1\u03bb\u03bf\u03bd\u03af\u03ba\u03b7", "amenity": "pharmacy", "healthcare": "pharmacy", "name": "\u039c\u03ac\u03c4\u03c4\u03b1", "operator": "\u039c\u03b5\u03c1\u03cc\u03c0\u03b7 \u039c\u03ac\u03c4\u03c4\u03b1"}}, {"type": "node", "id": 2002335592, "lat": 40.6379457, "lon": 22.9484229, "tags": {"amenity": "pharmacy", "healthcare": "pharmacy", "name": "\u039c\u03b9\u03c7\u03b1\u03bb\u03bf\u03b3\u03bb\u03bf\u03c5 \u0392\u03ac\u03bb\u03b9\u03b1"}}, {"type": "node", "id": 2002335594, "lat": 40.6374687, "lon": 22.9500243, "tags": {"amenity": "pharmacy", "healthcare": "pharmacy"}}, {"type": "node", "id": 2002335599, "lat": 40.6355014, "lon": 22.9536358, "tags": {"amenity": "pharmacy", "healthcare": "pharmacy"}}, {"type": "node", "id": 2002335602, "lat": 40.6365239, "lon": 22.9506923, "tags": {"addr:city": "\u0398\u03b5\u03c3\u03c3\u03b1\u03bb\u03bf\u03bd\u03af\u03ba\u03b7", "addr:housenumber": "128", "addr:postcode": "54635", "addr:street": "\u0391\u03b3\u03af\u03bf\u03c5 \u0394\u03b7\u03bc\u03b7\u03c4\u03c1\u03af\u03bf\u03c5", "amenity": "pharmacy", "currency:BCH": "yes", "healthcare": "pharmacy", "name": "Pharmacy 128", "website": "https://www.pharmacy128.gr/"}}, {"type": "node", "id": 2002335606, "lat": 40.6363483, "lon": 22.9518029, "tags": {"amenity": "pharmacy", "healthcare": "pharmacy"}}, {"type": "node", "id": 2002335611, "lat": 40.6375323, "lon": 22.9488151, "tags": {"amenity": "pharmacy", "healthcare": "pharmacy"}}, {"type": "node", "id": 2002362119, "lat": 40.636943, "lon": 22.9533303, "tags": {"amenity": "pharmacy", "healthcare": "pharmacy"}}, {"type": "node", "id": 2002362120, "lat": 40.6375379, "lon": 22.9516548, "tags": {"addr:street": "\u039a\u03b1\u03c3\u03c3\u03ac\u03bd\u03b4\u03c1\u03bf\u03c5", "amenity": "pharmacy", "healthcare": "pharmacy", "source": "Kaart Ground Survey 2018"}}, {"type": "node", "id": 2002362121, "lat": 40.6403526, "lon": 22.9466459, "tags": {"amenity": "pharmacy", "healthcare": "pharmacy"}}, {"type": "node", "id": 2002362122, "lat": 40.6380562, "lon": 22.9512124, "tags": {"amenity": "pharmacy", "healthcare": "pharmacy"}}, {"type": "node", "id": 2002362124, "lat": 40.6397426, "lon": 22.9478745, "tags": {"amenity": "pharmacy", "healthcare": "pharmacy"}}, {"type": "node", "id": 2002362126, "lat": 40.6408476, "lon": 22.9456338, "tags": {"amenity": "pharmacy", "healthcare": "pharmacy"}}, {"type": "node", "id": 2002362128, "lat": 40.6391122, "lon": 22.9491172, "tags": {"amenity": "pharmacy", "healthcare": "pharmacy"}}, {"type": "node", "id": 2002362129, "lat": 40.63838, "lon": 22.9501474, "tags": {"amenity": "pharmacy", "healthcare": "pharmacy"}}, {"type": "node", "id": 2002363741, "lat": 40.6430198, "lon": 22.9388199, "tags": {"addr:city": "\u0398\u03b5\u03c3\u03c3\u03b1\u03bb\u03bf\u03bd\u03af\u03ba\u03b7", "addr:housenumber": "17", "addr:postcode": "54632", "addr:street": "\u0391\u03b3\u03af\u03bf\u03c5 \u0394\u03b7\u03bc\u03b7\u03c4\u03c1\u03af\u03bf\u03c5", "amenity": "pharmacy", "healthcare": "pharmacy", "name": "\u03a7\u03b1\u03c4\u03b6\u03bf\u03c0\u03bf\u03cd\u03bb\u03bf\u03c5 \u0395. - \u0392\u03c1\u03cd\u03b6\u03b1 \u0394.", "operator": "Chatzopoulou E. - Vryza D."}}, {"type": "node", "id": 2002363742, "lat": 40.6430924, "lon": 22.9381567, "tags": {"amenity": "pharmacy", "healthcare": "pharmacy"}}, {"type": "node", "id": 2002363743, "lat": 40.6422183, "lon": 22.942569, "tags": {"addr:street": "\u039a\u03b1\u03c3\u03c3\u03ac\u03bd\u03b4\u03c1\u03bf\u03c5", "amenity": "pharmacy", "healthcare": "pharmacy", "name": "\u039a\u03c9\u03c3\u03c4\u03b1\u03c2 \u0396\u03c9\u03b3\u03c1\u03b1\u03c6\u03bf\u03c5", "source": "Kaart Ground Survey 2018"}}, {"type": "node", "id": 2172107712, "lat": 40.5966485, "lon": 22.9626128, "tags": {"amenity": "pharmacy", "healthcare": "pharmacy"}}, {"type": "node", "id": 2172238105, "lat": 40.6420588, "lon": 22.9316216, "tags": {"amenity": "pharmacy", "healthcare": "pharmacy"}}, {"type": "node", "id": 2269054564, "lat": 40.3836487, "lon": 23.4454137, "tags": {"addr:city": "\u03a0\u03bf\u03bb\u03cd\u03b3\u03c5\u03c1\u03bf\u03c2", "addr:postcode": "63100", "amenity": "pharmacy", "healthcare": "pharmacy", "name": "\u0393\u03ba\u03ac\u03bb\u03b7"}}, {"type": "node", "id": 2276984380, "lat": 40.6027328, "lon": 22.9720091, "tags": {"addr:housenumber": "20", "addr:street": "\u0393\u03c5\u03bc\u03bd\u03b1\u03c3\u03b9\u03ac\u03c1\u03c7\u03bf\u03c5 \u0392\u03b1\u03c3\u03b9\u03bb\u03b5\u03af\u03bf\u03c5 \u039c\u03c5\u03c3\u03c4\u03b1\u03ba\u03af\u03b4\u03bf\u03c5", "amenity": "pharmacy", "dispensing": "yes", "healthcare": "pharmacy", "name": "\u0393\u03b9\u03b1\u03bd\u03bd\u03bf\u03c0\u03bf\u03cd\u03bb\u03bf\u03c5 \u039d\u03af\u03ba\u03b7", "name:el": "\u0393\u03b9\u03b1\u03bd\u03bd\u03bf\u03c0\u03bf\u03cd\u03bb\u03bf\u03c5 \u039d\u03af\u03ba\u03b7", "source": "Kaart Ground Survey 2018"}}, {"type": "node", "id": 2482014910, "lat": 40.6143522, "lon": 22.980549, "tags": {"addr:housenumber": "16", "amenity": "pharmacy", "healthcare": "pharmacy"}}, {"type": "node", "id": 2612246186, "lat": 40.5815806, "lon": 22.9474524, "tags": {"addr:city": "\u039a\u03b1\u03bb\u03b1\u03bc\u03b1\u03c1\u03b9\u03ac", "addr:housenumber": "17", "addr:postcode": "55132", "addr:street": "\u03a7\u03b7\u03bb\u03ae\u03c2", "amenity": "pharmacy", "drive_through": "yes", "healthcare": "pharmacy", "name": "Pharmascy", "operator": "Sofrona Maria"}}, {"type": "node", "id": 2613006668, "lat": 40.6361594, "lon": 22.936438, "tags": {"amenity": "pharmacy", "healthcare": "pharmacy", "source": "survey"}}, {"type": "node", "id": 2656742471, "lat": 40.6566558, "lon": 22.9889542, "tags": {"amenity": "pharmacy", "healthcare": "pharmacy"}}, {"type": "node", "id": 2668580697, "lat": 40.6166983, "lon": 22.9720141, "tags": {"amenity": "pharmacy", "healthcare": "pharmacy"}}, {"type": "node", "id": 2783659035, "lat": 40.6136579, "lon": 22.9804902, "tags": {"addr:housenumber": "159", "addr:street": "\u0393\u03c1\u03b7\u03b3\u03bf\u03c1\u03af\u03bf\u03c5 \u039b\u03b1\u03bc\u03c0\u03c1\u03ac\u03ba\u03b7", "amenity": "pharmacy", "healthcare": "pharmacy"}}, {"type": "node", "id": 2796266528, "lat": 40.620218, "lon": 22.9660051, "tags": {"amenity": "pharmacy", "healthcare": "pharmacy", "opening_hours": "Mo-Sa 08:30-20:30"}}, {"type": "node", "id": 2808388671, "lat": 40.615259, "lon": 22.9756859, "tags": {"amenity": "pharmacy", "fixme": "name", "healthcare": "pharmacy"}}, {"type": "node", "id": 2938006125, "lat": 40.6567339, "lon": 22.9881339, "tags": {"amenity": "pharmacy", "healthcare": "pharmacy", "name": "\u039d\u03c4\u03ac\u03b3\u03ba\u03b1\u03c2 \u03a7\u03c1\u03ae\u03c3\u03c4\u03bf\u03c2"}}, {"type": "node", "id": 3126009343, "lat": 40.6040332, "lon": 22.9600034, "tags": {"addr:housenumber": "2", "addr:postcode": "54248", "addr:street": "\u0394\u03b7\u03bc\u03b7\u03c4\u03c1\u03af\u03bf\u03c5 \u0393\u03bf\u03c5\u03b6\u03ad\u03bb\u03b7", "amenity": "pharmacy", "dispensing": "yes", "healthcare": "pharmacy", "name": "\u0394\u03c1\u03af\u03b3\u03ba\u03b1 \u03a3\u03c5\u03bc\u03b5\u03ce\u03bd\u03b1", "name:el": "\u03a6\u03b1\u03c1\u03bc\u03b1\u03ba\u03b5\u03af\u03bf \u0394\u03c1\u03af\u03b3\u03ba\u03b1 \u03a3\u03c5\u03bc\u03b5\u03ce\u03bd\u03b1"}}, {"type": "node", "id": 3126140388, "lat": 40.5849367, "lon": 22.9541496, "tags": {"amenity": "pharmacy", "dispensing": "no", "healthcare": "pharmacy"}}, {"type": "node", "id": 3126144210, "lat": 40.5857376, "lon": 22.9546769, "tags": {"addr:city": "\u039a\u03b1\u03bb\u03b1\u03bc\u03b1\u03c1\u03b9\u03ac", "addr:housenumber": "98", "addr:postcode": "55133", "addr:street": "\u0391\u03b9\u03b3\u03b1\u03af\u03bf\u03c5", "amenity": "pharmacy", "dispensing": "no", "healthcare": "pharmacy", "operator": "Karagiannidou Spandou Afroditi"}}, {"type": "node", "id": 3138800928, "lat": 40.5835848, "lon": 22.9677369, "tags": {"addr:housenumber": "20", "addr:postcode": "55134", "addr:street": "\u03a6\u03b9\u03bb\u03b1\u03b4\u03b5\u03bb\u03c6\u03b5\u03af\u03b1\u03c2", "amenity": "pharmacy", "healthcare": "pharmacy"}}, {"type": "node", "id": 3138806423, "lat": 40.5844872, "lon": 22.9675894, "tags": {"addr:housenumber": "38", "addr:postcode": "55134", "addr:street": "\u039a\u03b1\u03c1\u03b1\u03b2\u03b1\u03b3\u03b3\u03ad\u03bb\u03b7", "amenity": "pharmacy", "healthcare": "pharmacy"}}, {"type": "node", "id": 3164463916, "lat": 40.583249, "lon": 22.9563418, "tags": {"amenity": "pharmacy", "healthcare": "pharmacy"}}, {"type": "node", "id": 3300735363, "lat": 40.581477, "lon": 22.9531673, "tags": {"addr:city": "\u039a\u03b1\u03bb\u03b1\u03bc\u03b1\u03c1\u03b9\u03ac", "addr:housenumber": "130", "addr:postcode": "55132", "addr:street": "\u03a0\u03cc\u03bd\u03c4\u03bf\u03c5", "amenity": "pharmacy", "healthcare": "pharmacy", "operator": "\u039d\u03b1\u03c5\u03c3\u03b9\u03ba\u03b1 \u039b\u03b1\u03b3\u03ba\u03b1"}}, {"type": "node", "id": 3373277293, "lat": 40.6563528, "lon": 22.9385484, "tags": {"addr:city": "\u039d\u03b5\u03ac\u03c0\u03bf\u03bb\u03b7", "addr:housenumber": "24", "addr:postcode": "56727", "addr:street": "\u03a0\u03b1\u03c4\u03c1\u03b9\u03ac\u03c1\u03c7\u03bf\u03c5 \u0393\u03c1\u03b7\u03b3\u03bf\u03c1\u03af\u03bf\u03c5 \u0395'", "amenity": "pharmacy", "healthcare": "pharmacy", "name": "Sittopoulou Zoi", "phone": "+302310556405"}}, {"type": "node", "id": 3387627188, "lat": 40.6502708, "lon": 22.9312908, "tags": {"addr:street": "\u039a\u03b1\u03bb\u03bb\u03b9\u03b8\u03ad\u03b1\u03c2", "amenity": "pharmacy", "healthcare": "pharmacy", "name": "\u039a\u03bf\u03bd\u03c4\u03bf\u03cd\u03c1\u03bf\u03b3\u03bb\u03bf\u03c5"}}, {"type": "node", "id": 3391382583, "lat": 40.6503998, "lon": 22.9453666, "tags": {"amenity": "pharmacy", "healthcare": "pharmacy"}}, {"type": "node", "id": 3646429834, "lat": 40.631504, "lon": 22.9650565, "tags": {"addr:housenumber": "13", "addr:postcode": "54636", "addr:street": "\u0391\u03bd\u03b1\u03ba\u03c4\u03bf\u03c1\u03af\u03bf\u03c5", "amenity": "pharmacy", "dispensing": "yes", "healthcare": "pharmacy", "name": "\u039a\u03c1\u03b1\u03c3\u03c3\u03ac \u0395\u03c5\u03b1\u03b3\u03b3\u03b5\u03bb\u03af\u03b1", "phone": "+30 2310 208785", "source": "Kaart Ground Survey 2018"}}, {"type": "node", "id": 3738847162, "lat": 40.5741433, "lon": 22.9621148, "tags": {"addr:city": "\u039a\u03b1\u03bb\u03b1\u03bc\u03b1\u03c1\u03b9\u03ac", "addr:housenumber": "2", "addr:postcode": "55132", "addr:street": "\u039a\u03b1\u03bc\u03c0\u03bf\u03cd\u03c1\u03bf\u03b3\u03bb\u03bf\u03c5", "amenity": "pharmacy", "healthcare": "pharmacy", "operator": "Koudaki Anastasia"}}, {"type": "node", "id": 3738847164, "lat": 40.5831718, "lon": 22.9533669, "tags": {"amenity": "pharmacy", "healthcare": "pharmacy"}}, {"type": "node", "id": 3738847167, "lat": 40.5825178, "lon": 22.9655651, "tags": {"amenity": "pharmacy", "healthcare": "pharmacy"}}, {"type": "node", "id": 3738890378, "lat": 40.5711948, "lon": 22.9579309, "tags": {"addr:city": "\u039a\u03b1\u03bb\u03b1\u03bc\u03b1\u03c1\u03b9\u03ac", "addr:housenumber": "47", "addr:postcode": "55132", "addr:street": "\u039a\u03bf\u03c5\u03bd\u03c4\u03bf\u03c5\u03c1\u03b9\u03ce\u03c4\u03bf\u03c5", "amenity": "pharmacy", "healthcare": "pharmacy", "name": "\u03a7\u03b1\u03c1\u03ac\u03bc\u03bf\u03b3\u03bb\u03bf\u03c5 \u03a3\u03c4\u03c5\u03bb\u03b9\u03b1\u03bd\u03cc\u03c2", "phone": "+30 2310 459820"}}, {"type": "node", "id": 3738890389, "lat": 40.5730779, "lon": 22.9550005, "tags": {"addr:city": "\u039a\u03b1\u03bb\u03b1\u03bc\u03b1\u03c1\u03b9\u03ac", "addr:housenumber": "7-9", "addr:postcode": "55132", "addr:street": "\u039a\u03bf\u03c5\u03bd\u03c4\u03bf\u03c5\u03c1\u03b9\u03ce\u03c4\u03bf\u03c5", "amenity": "pharmacy", "healthcare": "pharmacy", "name": "\u0391\u03c0\u03bf\u03c3\u03c4\u03cc\u03bb\u03bf\u03c5 \u0391\u03bd\u03b4\u03c1\u03ad\u03b1\u03c2", "operator": "\u0391\u03c0\u03bf\u03c3\u03c4\u03cc\u03bb\u03bf\u03c5 \u0391\u03bd\u03b4\u03c1\u03ad\u03b1\u03c2 & \u03a3\u03b9\u03b1 \u039f.\u0395."}}, {"type": "node", "id": 3738890782, "lat": 40.5698231, "lon": 22.9704179, "tags": {"amenity": "pharmacy", "healthcare": "pharmacy"}}, {"type": "node", "id": 3738890793, "lat": 40.5789539, "lon": 22.9471789, "tags": {"amenity": "pharmacy", "healthcare": "pharmacy"}}, {"type": "node", "id": 3738891357, "lat": 40.5748791, "lon": 22.9516548, "tags": {"addr:city": "\u039a\u03b1\u03bb\u03b1\u03bc\u03b1\u03c1\u03b9\u03ac", "addr:housenumber": "34", "addr:postcode": "55132", "addr:street": "\u0391\u03b4\u03b1\u03bc\u03ac\u03bd\u03c4\u03b9\u03bf\u03c5 \u039a\u03bf\u03c1\u03b1\u03ae", "amenity": "pharmacy", "facebook": "www.facebook.com/pharmacy36.6", "healthcare": "pharmacy", "name": "Pharmacy 36.6", "operator": "\u039f\u03b9\u03ba\u03bf\u03bd\u03bf\u03bc\u03af\u03b4\u03bf\u03c5 \u039f\u03c5\u03c1\u03b1\u03bd\u03af\u03b1", "phone": "+30 2310 434461"}}, {"type": "node", "id": 3738891364, "lat": 40.5762615, "lon": 22.9494465, "tags": {"addr:city": "\u039a\u03b1\u03bb\u03b1\u03bc\u03b1\u03c1\u03b9\u03ac", "addr:housenumber": "6", "addr:postcode": "55132", "addr:street": "\u0391\u03b4\u03b1\u03bc\u03ac\u03bd\u03c4\u03b9\u03bf\u03c5 \u039a\u03bf\u03c1\u03b1\u03ae", "amenity": "pharmacy", "healthcare": "pharmacy", "name": "\u03a6\u03b9\u03bb\u03bf\u03c3\u03ce\u03c6 \u039d\u03c4\u03ad\u03bb\u03b9\u03b1", "phone": "+30 2310 029409"}}, {"type": "node", "id": 3738891370, "lat": 40.5770394, "lon": 22.947946, "tags": {"amenity": "pharmacy", "healthcare": "pharmacy"}}, {"type": "node", "id": 3738891373, "lat": 40.5783982, "lon": 22.9463891, "tags": {"amenity": "pharmacy", "healthcare": "pharmacy"}}, {"type": "node", "id": 3738891547, "lat": 40.5800856, "lon": 22.94976, "tags": {"amenity": "pharmacy", "healthcare": "pharmacy"}}, {"type": "node", "id": 3738891895, "lat": 40.6341076, "lon": 22.9472175, "tags": {"amenity": "pharmacy", "healthcare": "pharmacy", "name": "\u03a0\u03b1\u03ca\u03c0\u03ac\u03c4\u03b7 \u03a0\u03bb\u03bf\u03c5\u03bc\u03c0\u03ae"}}, {"type": "node", "id": 3738891896, "lat": 40.6352886, "lon": 22.9449616, "tags": {"amenity": "pharmacy", "healthcare": "pharmacy"}}, {"type": "node", "id": 3738891977, "lat": 40.5748568, "lon": 22.9652795, "tags": {"addr:street": "\u039c\u03b1\u03ba\u03b5\u03b4\u03bf\u03bd\u03af\u03b1\u03c2", "amenity": "pharmacy", "healthcare": "pharmacy", "name": "\u03a4\u03b1\u03bf\u03c5\u03c3\u03b1\u03bd\u03af\u03b4\u03b7\u03c2"}}, {"type": "node", "id": 3738892014, "lat": 40.5836591, "lon": 22.9652556, "tags": {"amenity": "pharmacy", "healthcare": "pharmacy"}}, {"type": "node", "id": 3738892154, "lat": 40.5811026, "lon": 22.9513223, "tags": {"amenity": "pharmacy", "healthcare": "pharmacy"}}, {"type": "node", "id": 3738892160, "lat": 40.5760189, "lon": 22.9507349, "tags": {"addr:city": "\u039a\u03b1\u03bb\u03b1\u03bc\u03b1\u03c1\u03b9\u03ac", "addr:housenumber": "18", "addr:postcode": "55132", "addr:street": "\u0391\u03b3\u03af\u03bf\u03c5 \u039d\u03b9\u03ba\u03bf\u03bb\u03ac\u03bf\u03c5", "amenity": "pharmacy", "healthcare": "pharmacy", "name": "\u0394\u03ad\u03bb\u03b9\u03bf\u03c2 \u03a0\u03b1\u03bd\u03b1\u03b3\u03b9\u03ce\u03c4\u03b7\u03c2", "phone": "+30 2310 457128"}}, {"type": "node", "id": 3738892544, "lat": 40.6319583, "lon": 22.9448742, "tags": {"amenity": "pharmacy", "healthcare": "pharmacy", "name": "\u03a6\u03b1\u03c1\u03bc\u03b1\u03ba\u03b5\u03af\u03bf\u03bd", "wheelchair": "no"}}, {"type": "node", "id": 3738892550, "lat": 40.6315075, "lon": 22.9443048, "tags": {"amenity": "pharmacy", "healthcare": "pharmacy", "wheelchair": "no"}}, {"type": "node", "id": 3738892559, "lat": 40.6303452, "lon": 22.9516919, "tags": {"addr:city": "\u0398\u03b5\u03c3\u03c3\u03b1\u03bb\u03bf\u03bd\u03af\u03ba\u03b7", "addr:housenumber": "45", "addr:postcode": "54621", "addr:street": "\u0391\u03bb\u03ad\u03be\u03b1\u03bd\u03b4\u03c1\u03bf\u03c5 \u03a3\u03b2\u03ce\u03bb\u03bf\u03c5", "amenity": "pharmacy", "dispensing": "yes", "drive_through": "no", "healthcare": "pharmacy", "note": "big sign \"\u03c6\u03b1\u03c1\u03bc\u03b1\u03ba\u03b5\u03af\u03bf\"", "wheelchair": "limited"}}, {"type": "node", "id": 3738893045, "lat": 40.6383355, "lon": 22.9474825, "tags": {"amenity": "pharmacy", "healthcare": "pharmacy"}}, {"type": "node", "id": 3738893083, "lat": 40.6305337, "lon": 22.9530037, "tags": {"amenity": "pharmacy", "healthcare": "pharmacy", "wheelchair": "no"}}, {"type": "node", "id": 3738893104, "lat": 40.6343734, "lon": 22.945838, "tags": {"amenity": "pharmacy", "healthcare": "pharmacy"}}, {"type": "node", "id": 3738893108, "lat": 40.6339056, "lon": 22.9453482, "tags": {"amenity": "pharmacy", "healthcare": "pharmacy", "wheelchair": "no"}}, {"type": "node", "id": 3738893231, "lat": 40.5856137, "lon": 22.9667824, "tags": {"amenity": "pharmacy", "healthcare": "pharmacy"}}, {"type": "node", "id": 3738894321, "lat": 40.6327361, "lon": 22.952553, "tags": {"amenity": "pharmacy", "healthcare": "pharmacy"}}, {"type": "node", "id": 3738894322, "lat": 40.6315898, "lon": 22.9527866, "tags": {"amenity": "pharmacy", "full_name": "\u0395\u03bb\u03b5\u03c5\u03b8\u03ad\u03c1\u03b9\u03bf\u03c2 \u03a4\u03b5\u03c0\u03b5\u03c1\u03b9\u03ba\u03af\u03b4\u03b7\u03c2", "healthcare": "pharmacy", "name": "\u03a4\u03b5\u03c0\u03b5\u03c1\u03b9\u03ba\u03af\u03b4\u03b7\u03c2", "name:el": "\u03a4\u03b5\u03c0\u03b5\u03c1\u03b9\u03ba\u03af\u03b4\u03b7\u03c2", "wheelchair": "no"}}, {"type": "node", "id": 3738894713, "lat": 40.5794788, "lon": 22.9445711, "tags": {"amenity": "pharmacy", "healthcare": "pharmacy"}}, {"type": "node", "id": 3738896164, "lat": 40.5793603, "lon": 22.9479727, "tags": {"amenity": "pharmacy", "healthcare": "pharmacy"}}, {"type": "node", "id": 3738896184, "lat": 40.633558, "lon": 22.9483027, "tags": {"amenity": "pharmacy", "dispensing": "yes", "healthcare": "pharmacy", "name": "\u03a3\u03c0\u03b1\u03bd\u03af\u03b4\u03b7\u03c2 \u0394\u03b7\u03bc\u03ae\u03c4\u03c1\u03b9\u03bf\u03c2"}}, {"type": "node", "id": 3738896187, "lat": 40.6334662, "lon": 22.9451866, "tags": {"amenity": "pharmacy", "healthcare": "pharmacy", "wheelchair": "yes"}}, {"type": "node", "id": 3738896210, "lat": 40.6345843, "lon": 22.9414117, "tags": {"amenity": "pharmacy", "healthcare": "pharmacy", "wheelchair": "limited"}}, {"type": "node", "id": 3738896213, "lat": 40.6338395, "lon": 22.9425985, "tags": {"amenity": "pharmacy", "healthcare": "pharmacy", "wheelchair": "limited"}}, {"type": "node", "id": 3738896233, "lat": 40.5717754, "lon": 22.9590545, "tags": {"amenity": "pharmacy", "healthcare": "pharmacy"}}, {"type": "node", "id": 3738896843, "lat": 40.632799, "lon": 22.9434214, "tags": {"amenity": "pharmacy", "healthcare": "pharmacy"}}, {"type": "node", "id": 3738896969, "lat": 40.6297224, "lon": 22.9474455, "tags": {"addr:city": "\u0398\u03b5\u03c3\u03c3\u03b1\u03bb\u03bf\u03bd\u03af\u03ba\u03b7", "addr:housenumber": "102", "addr:postcode": "54622", "addr:street": "\u0399\u03c9\u03ac\u03bd\u03bd\u03b7 \u03a4\u03c3\u03b9\u03bc\u03b9\u03c3\u03ba\u03ae", "amenity": "pharmacy", "dispensing": "yes", "healthcare": "pharmacy", "name": "\u0393\u03ba\u03b1\u03c4\u03b6\u03bf\u03cd\u03bb\u03b7 \u03a1\u03af\u03c4\u03b1", "wheelchair": "no"}}, {"type": "node", "id": 3738896984, "lat": 40.6122071, "lon": 22.957078, "tags": {"amenity": "pharmacy", "healthcare": "pharmacy"}}, {"type": "node", "id": 3738897601, "lat": 40.6364462, "lon": 22.9521699, "tags": {"amenity": "pharmacy", "healthcare": "pharmacy"}}, {"type": "node", "id": 3738897775, "lat": 40.5945072, "lon": 22.9593193, "tags": {"addr:housenumber": "7", "addr:postcode": "54655", "addr:street": "\u0392\u03bf\u03cd\u03bb\u03b3\u03b1\u03c1\u03b7", "amenity": "pharmacy", "dispensing": "yes", "healthcare": "pharmacy", "name": "\u0391\u03bd\u03b1\u03c3\u03c4\u03b1\u03c3\u03b9\u03ac\u03b4\u03bf\u03c5 \u0391\u03b9\u03ba\u03b1\u03c4\u03b5\u03c1\u03af\u03bd\u03b7", "name:el": "\u0391\u03bd\u03b1\u03c3\u03c4\u03b1\u03c3\u03b9\u03ac\u03b4\u03bf\u03c5 \u0391\u03b9\u03ba\u03b1\u03c4\u03b5\u03c1\u03af\u03bd\u03b7", "phone": "+30 2310 412771"}}, {"type": "node", "id": 3738897783, "lat": 40.6115276, "lon": 22.9570269, "tags": {"amenity": "pharmacy", "healthcare": "pharmacy"}}, {"type": "node", "id": 3738898969, "lat": 40.6315204, "lon": 22.9490613, "tags": {"amenity": "pharmacy", "healthcare": "pharmacy", "wheelchair": "no"}}, {"type": "node", "id": 3738899001, "lat": 40.5846078, "lon": 22.9528124, "tags": {"amenity": "pharmacy", "healthcare": "pharmacy"}}, {"type": "node", "id": 3738899497, "lat": 40.6306128, "lon": 22.9508105, "tags": {"amenity": "pharmacy", "healthcare": "pharmacy", "name": "\u039c\u03c0\u03af\u03ba\u03bf\u03c5 \u038c\u03bb\u03b3\u03b1", "wheelchair": "no"}}, {"type": "node", "id": 3738899762, "lat": 40.6278996, "lon": 22.9496462, "tags": {"amenity": "pharmacy", "healthcare": "pharmacy"}}, {"type": "node", "id": 3738899773, "lat": 40.635362, "lon": 22.9386417, "tags": {"amenity": "pharmacy", "healthcare": "pharmacy"}}, {"type": "node", "id": 3738899788, "lat": 40.58469, "lon": 22.9579732, "tags": {"amenity": "pharmacy", "healthcare": "pharmacy"}}, {"type": "node", "id": 3738899789, "lat": 40.5727521, "lon": 22.9663422, "tags": {"amenity": "pharmacy", "healthcare": "pharmacy"}}, {"type": "node", "id": 3738899840, "lat": 40.6313265, "lon": 22.9494182, "tags": {"amenity": "pharmacy", "healthcare": "pharmacy", "wheelchair": "no"}}, {"type": "node", "id": 3738900029, "lat": 40.6326342, "lon": 22.9450686, "tags": {"amenity": "pharmacy", "healthcare": "pharmacy", "wheelchair": "limited"}}, {"type": "node", "id": 3738900162, "lat": 40.6315524, "lon": 22.951397, "tags": {"amenity": "pharmacy", "healthcare": "pharmacy", "wheelchair": "no"}}, {"type": "node", "id": 3738900164, "lat": 40.6310933, "lon": 22.9525809, "tags": {"amenity": "pharmacy", "healthcare": "pharmacy", "wheelchair": "yes"}}, {"type": "node", "id": 3738900309, "lat": 40.6387731, "lon": 22.9346693, "tags": {"addr:city": "\u0398\u03b5\u03c3\u03c3\u03b1\u03bb\u03bf\u03bd\u03af\u03ba\u03b7", "addr:housenumber": "1", "addr:postcode": "54626", "addr:street": "\u03a6\u03c1\u03ac\u03b3\u03ba\u03c9\u03bd", "amenity": "pharmacy", "healthcare": "pharmacy", "level": "0"}}, {"type": "node", "id": 3770746457, "lat": 40.6126014, "lon": 22.9815273, "tags": {"amenity": "pharmacy", "healthcare": "pharmacy"}}, {"type": "node", "id": 3770746458, "lat": 40.6124893, "lon": 22.9655497, "tags": {"addr:housenumber": "26", "addr:street": "\u039a\u03bb\u03b5\u03ac\u03bd\u03b8\u03bf\u03c5\u03c2", "amenity": "pharmacy", "healthcare": "pharmacy", "name": "\u03a6\u03b5\u03b9\u03b4\u03ac\u03bd\u03c4\u03c3\u03b7"}}, {"type": "node", "id": 3907363065, "lat": 40.6054068, "lon": 22.9788432, "tags": {"addr:housenumber": "14", "addr:postcode": "54454", "addr:street": "\u03a3\u03b5\u03c1\u03c1\u03ce\u03bd", "amenity": "pharmacy", "healthcare": "pharmacy", "name": "\u0391\u03c0\u03bf\u03c3\u03c4\u03cc\u03bb\u03bf\u03c5 \u039a\u03c9\u03bd\u03c3\u03c4\u03b1\u03bd\u03c4\u03af\u03bd\u03b1"}}, {"type": "node", "id": 3908056056, "lat": 40.6097031, "lon": 22.9746603, "tags": {"addr:housenumber": "48", "addr:postcode": "54454", "addr:street": "\u0392\u03bf\u03c3\u03c0\u03cc\u03c1\u03bf\u03c5", "amenity": "pharmacy", "fixme": "name", "healthcare": "pharmacy"}}, {"type": "node", "id": 3908058894, "lat": 40.6097826, "lon": 22.9742638, "tags": {"addr:housenumber": "22", "addr:street": "\u0392\u03b9\u03b6\u03cd\u03b7\u03c2", "amenity": "pharmacy", "healthcare": "pharmacy", "name": "\u039d. \u039d\u0391\u03a4\u03a3\u0399\u0394\u039f\u03a5 - \u0391. \u0394\u039f\u03a5\u039c\u03a0\u0391"}}, {"type": "node", "id": 3908440381, "lat": 40.6072195, "lon": 22.9759538, "tags": {"amenity": "pharmacy", "healthcare": "pharmacy", "name": "\u039c\u03b1\u03c4\u03b6\u03b9\u03ac\u03c1\u03b7\u03c2 \u03a3\u03c0\u03cd\u03c1\u03bf\u03c2"}}, {"type": "node", "id": 3932461583, "lat": 40.6519156, "lon": 22.9479698, "tags": {"addr:city": "\u0398\u03b5\u03c3\u03c3\u03b1\u03bb\u03bf\u03bd\u03af\u03ba\u03b7", "addr:street": "\u0391\u03bd\u03b4\u03c1\u03ad\u03b1 \u03a0\u03b1\u03c0\u03b1\u03bd\u03b4\u03c1\u03ad\u03bf\u03c5", "amenity": "pharmacy", "healthcare": "pharmacy", "name": "\u0393\u03ba\u03cc\u03b3\u03ba\u03b1 \u0392\u03bf\u03c5\u03bb\u03bf\u03c5\u03b2\u03bf\u03cd\u03c4\u03b7"}}, {"type": "node", "id": 3961326546, "lat": 40.4668147, "lon": 22.969579, "tags": {"addr:city": "\u03a4\u03c1\u03af\u03bb\u03bf\u03c6\u03bf\u03c2", "addr:postcode": "57500", "amenity": "pharmacy", "dispensing": "yes", "healthcare": "pharmacy", "name": "\u03a6\u03b1\u03c1\u03bc\u03b1\u03ba\u03b5\u03af\u03bf \u039b\u03b9\u03ac\u03bd\u03c4\u03b1 \u0399\u03c6\u03b9\u03b3\u03ad\u03bd\u03b5\u03b9\u03b1"}}, {"type": "node", "id": 3981176717, "lat": 40.6122224, "lon": 23.0995257, "tags": {"addr:city": "\u03a7\u03bf\u03c1\u03c4\u03b9\u03ac\u03c4\u03b7\u03c2", "addr:housenumber": "2", "addr:postcode": "57010", "addr:street": "25\u03b7\u03c2 \u039c\u03b1\u03c1\u03c4\u03af\u03bf\u03c5", "amenity": "pharmacy", "check_date": "2025-09-02", "dispensing": "yes", "drive_through": "no", "healthcare": "pharmacy", "name": "\u039a\u03b1\u03c4\u03c3\u03b1\u03c1\u03bf\u03cd \u0395\u03c5\u03b1\u03b3\u03b3\u03b5\u03bb\u03af\u03b1", "opening_hours": "Mo-Fr 09:00-21:00", "phone": "+30 2310 351770"}}, {"type": "node", "id": 4159081608, "lat": 40.6187102, "lon": 22.9552019, "tags": {"addr:street": "\u03a3\u03c0\u03ac\u03c1\u03c4\u03b7\u03c2", "amenity": "pharmacy", "healthcare": "pharmacy", "name": "\u03a0\u03b1\u03c5\u03bb\u03b9\u03ce\u03c4\u03b7"}}, {"type": "node", "id": 4281669394, "lat": 40.6336496, "lon": 22.9394381, "tags": {"amenity": "pharmacy", "healthcare": "pharmacy", "wheelchair": "yes"}}, {"type": "node", "id": 4281669401, "lat": 40.640187, "lon": 22.9367326, "tags": {"amenity": "pharmacy", "healthcare": "pharmacy"}}, {"type": "node", "id": 4283992904, "lat": 40.6354263, "lon": 22.9421556, "tags": {"amenity": "pharmacy", "healthcare": "pharmacy", "level": "0", "name": "\u03a4\u03b1\u03b9\u03bb\u03b9\u03b3\u03ba\u03b1\u03c1\u03af\u03b4\u03b7\u03c2", "wheelchair": "yes"}}, {"type": "node", "id": 4283992910, "lat": 40.6350001, "lon": 22.9411421, "tags": {"amenity": "pharmacy", "healthcare": "pharmacy", "name": "\u03a0\u03b1\u03bd\u03c4\u03b6\u03ac\u03ba\u03b7"}}, {"type": "node", "id": 4290216795, "lat": 40.6074364, "lon": 22.9674706, "tags": {"addr:housenumber": "30", "addr:postcode": "54453", "addr:street": "\u039a\u03b1\u03bd\u03ac\u03c1\u03b7", "amenity": "pharmacy", "dispensing": "yes", "healthcare": "pharmacy", "name": "\u03a4\u03c3\u03b9\u03cc\u03bd\u03c4\u03c3\u03b7 \u0391. - \u03a4\u03c3\u03b9\u03cc\u03bd\u03c4\u03c3\u03b7\u03c2 \u03a7.", "operator": "\u03a4\u03c3\u03b9\u03cc\u03bd\u03c4\u03c3\u03b7 \u0386\u03bd\u03bd\u03b1 - \u03a4\u03c3\u03b9\u03cc\u03bd\u03c4\u03c3\u03b7\u03c2 \u03a7\u03c1\u03ae\u03c3\u03c4\u03bf\u03c2"}}, {"type": "node", "id": 4290271590, "lat": 40.6058, "lon": 22.9745954, "tags": {"addr:street": "\u0391\u03c0\u03cc\u03bb\u03bb\u03c9\u03bd\u03bf\u03c2", "amenity": "pharmacy", "fixme": "name", "healthcare": "pharmacy", "name": "\u03a0\u03b1\u03c0\u03b1\u03b4\u03bf\u03c0\u03bf\u03cd\u03bb\u03bf\u03c5 \u03a3\u03bf\u03c6\u03af\u03b1", "source": "Kaart Ground Survey 2018"}}, {"type": "node", "id": 4318009694, "lat": 40.610002, "lon": 22.9789392, "tags": {"amenity": "pharmacy", "healthcare": "pharmacy"}}, {"type": "node", "id": 4374531586, "lat": 40.6149784, "lon": 22.9627707, "tags": {"addr:city": "\u0398\u03b5\u03c3\u03c3\u03b1\u03bb\u03bf\u03bd\u03af\u03ba\u03b7", "addr:housenumber": "27", "addr:postcode": "54639", "addr:street": "\u0391\u03bb\u03b5\u03be\u03ac\u03bd\u03b4\u03c1\u03bf\u03c5 \u03a0\u03b1\u03c0\u03b1\u03bd\u03b1\u03c3\u03c4\u03b1\u03c3\u03af\u03bf\u03c5", "amenity": "pharmacy", "healthcare": "pharmacy", "website": "https://www.thess-farmakeio.gr/"}}, {"type": "node", "id": 4374561165, "lat": 40.638011, "lon": 22.9397272, "tags": {"addr:housenumber": "38", "addr:street": "\u0395\u03b3\u03bd\u03b1\u03c4\u03af\u03b1", "amenity": "pharmacy", "healthcare": "pharmacy", "name": "\u03a0\u03b1\u03bd\u03b1\u03b3\u03b9\u03c9\u03c4\u03cc\u03c0\u03bf\u03c5\u03bb\u03bf\u03c2"}}, {"type": "node", "id": 4375353116, "lat": 40.6069569, "lon": 22.9784164, "tags": {"amenity": "pharmacy", "healthcare": "pharmacy", "name": "\u0391\u03c4\u03bb\u03b1\u03bd\u03c4\u03af\u03b4\u03bf\u03c2"}}, {"type": "node", "id": 4375353124, "lat": 40.6073159, "lon": 22.9796861, "tags": {"addr:housenumber": "13", "addr:postcode": "54454", "addr:street": "\u0391\u03bd\u03b4\u03c1\u03ad\u03b1 \u03a7\u03b1\u03bd\u03b4\u03c1\u03b9\u03bd\u03bf\u03cd", "amenity": "pharmacy", "dispensing": "yes", "healthcare": "pharmacy", "name": "\u03a6\u03b1\u03c1\u03bc\u03b1\u03ba\u03b5\u03af\u03bf \u03a1\u03ac\u03bc\u03bc\u03bf\u03c2 \u0395\u03c5\u03b8\u03cd\u03bc\u03b9\u03bf\u03c2-\u0393\u03b5\u03ce\u03c1\u03b3\u03b9\u03bf\u03c2"}}, {"type": "node", "id": 4375353149, "lat": 40.6064674, "lon": 22.9774243, "tags": {"addr:street": "\u039d\u03b1\u03c5\u03c0\u03bb\u03af\u03bf\u03c5", "amenity": "pharmacy", "healthcare": "pharmacy", "name": "\u039d\u03b9\u03ba\u03b7\u03c6\u03cc\u03c1\u03bf\u03c5 \u039a. \u039c\u03b5\u03bb\u03c0\u03bf\u03bc\u03ad\u03bd\u03b7"}}, {"type": "node", "id": 4413878676, "lat": 40.6155501, "lon": 22.9749001, "tags": {"amenity": "pharmacy", "healthcare": "pharmacy", "name": "\u0393\u03c1\u03b7\u03b3\u03bf\u03c1\u03b9\u03ac\u03b4\u03b7\u03c2 \u03a3\u03b9\u03b4\u03ad\u03c1\u03b7\u03c2"}}, {"type": "node", "id": 4416137790, "lat": 40.6354047, "lon": 22.938692, "tags": {"addr:housenumber": "17", "addr:street": "\u038a\u03c9\u03bd\u03bf\u03c2 \u0394\u03c1\u03b1\u03b3\u03bf\u03cd\u03bc\u03b7", "amenity": "pharmacy", "healthcare": "pharmacy"}}, {"type": "node", "id": 4439733263, "lat": 40.5998304, "lon": 22.9598434, "tags": {"amenity": "pharmacy", "dispensing": "yes", "healthcare": "pharmacy", "name": "\u039d\u03b1\u03c4\u03c3\u03bf\u03cd\u03c1\u03b1 \u039c\u03b1\u03c1\u03af\u03b1"}}, {"type": "node", "id": 4565300335, "lat": 40.6002392, "lon": 22.988358, "tags": {"addr:street": "\u03a0\u03bf\u03bb\u03c5\u03c4\u03b5\u03c7\u03bd\u03b5\u03af\u03bf\u03c5", "amenity": "pharmacy", "healthcare": "pharmacy", "name": "\u0396\u03b1\u03c1\u03ba\u03ac\u03b4\u03b1"}}, {"type": "node", "id": 4576898700, "lat": 40.6020799, "lon": 22.9713767, "tags": {"addr:city": "\u0398\u03b5\u03c3\u03c3\u03b1\u03bb\u03bf\u03bd\u03af\u03ba\u03b7", "addr:housenumber": "15", "addr:street": "\u039d\u03b9\u03ba\u03bf\u03bb\u03ac\u03bf\u03c5 \u03a0\u03bb\u03b1\u03c3\u03c4\u03ae\u03c1\u03b1", "amenity": "pharmacy", "dispensing": "yes", "healthcare": "pharmacy", "name": "\u03a6\u03b1\u03c1\u03bc\u03b1\u03ba\u03b5\u03af\u03bf \u039a\u03bf\u03c5\u03bb\u03af\u03ba\u03b1\u03c2 \u0394\u03b7\u03bc\u03ae\u03c4\u03c1\u03b9\u03bf\u03c2"}}, {"type": "node", "id": 4648272389, "lat": 40.5999994, "lon": 22.9880335, "tags": {"addr:housenumber": "15", "addr:postcode": "55535", "addr:street": "\u03a0\u039f\u039b\u03a5\u03a4\u0395\u03a7\u039d\u0395\u0399\u039f\u03a5", "amenity": "pharmacy", "healthcare": "pharmacy", "name": "\u039c\u0391\u03a1\u0399\u0391 \u0393. \u0396\u0391\u03a1\u039a\u0391\u0394\u0391", "name:el": "\u039c\u0391\u03a1\u0399\u0391 \u0393. \u0396\u0391\u03a1\u039a\u0391\u0394\u0391", "name:en": "MARIA ZARKADA", "phone": "2310309948"}}, {"type": "node", "id": 4656456365, "lat": 40.5027424, "lon": 22.9273593, "tags": {"amenity": "pharmacy", "healthcare": "pharmacy"}}, {"type": "node", "id": 4661266708, "lat": 40.5064853, "lon": 22.9261545, "tags": {"amenity": "pharmacy", "healthcare": "pharmacy"}}, {"type": "node", "id": 4710552725, "lat": 40.6305132, "lon": 22.9526649, "tags": {"amenity": "pharmacy", "healthcare": "pharmacy", "level": "0"}}, {"type": "node", "id": 4710552758, "lat": 40.6298688, "lon": 22.9525598, "tags": {"amenity": "pharmacy", "healthcare": "pharmacy", "level": "0", "name": "\u0391\u03bd\u03b4\u03c1\u03ad\u03bf\u03c5 \u0395\u03b9\u03c1\u03ae\u03bd\u03b7"}}, {"type": "node", "id": 4721151524, "lat": 40.6361467, "lon": 22.9432771, "tags": {"amenity": "pharmacy", "healthcare": "pharmacy", "level": "0", "operator": "\u0391\u03bb\u03ad\u03be\u03b1\u03bd\u03b4\u03c1\u03bf\u03c2 \u03a4\u03c3\u03b1\u03ba\u03af\u03c1\u03bf\u03b3\u03bb\u03bf\u03c5", "wheelchair": "limited"}}, {"type": "node", "id": 4721151526, "lat": 40.6113618, "lon": 22.9857748, "tags": {"amenity": "pharmacy", "healthcare": "pharmacy", "level": "0", "operator": "\u039c\u03b9\u03c7\u03b1\u03b7\u03bb\u03af\u03b4\u03b7\u03c2 \u0399\u03bf\u03c1\u03b4\u03ac\u03bd\u03b7\u03c2"}}, {"type": "node", "id": 4729118588, "lat": 40.6001363, "lon": 22.9836285, "tags": {"amenity": "pharmacy", "healthcare": "pharmacy"}}, {"type": "node", "id": 4808499658, "lat": 40.3068905, "lon": 23.2043868, "tags": {"amenity": "pharmacy", "healthcare": "pharmacy"}}, {"type": "node", "id": 4809638375, "lat": 40.6077336, "lon": 22.9939367, "tags": {"amenity": "pharmacy", "healthcare": "pharmacy", "name": "\u0392\u03b1\u03bb\u03b1\u03c1\u03bf\u03cd\u03c4\u03c3\u03bf\u03c5"}}, {"type": "node", "id": 4839507021, "lat": 40.6217427, "lon": 22.9699747, "tags": {"addr:housenumber": "12", "addr:postcode": "55337", "addr:street": "\u0395\u03bb\u03b5\u03c5\u03b8\u03b5\u03c1\u03af\u03b1\u03c2", "amenity": "pharmacy", "healthcare": "pharmacy", "name": "\u0396\u03c9\u0390\u03b4\u03b7-\u039a\u03b1\u03c1\u03c4\u03ac\u03bb\u03b7 \u0394\u03b9\u03bf\u03bd\u03c5\u03c3\u03af\u03b1", "name:el": "\u0396\u03c9\u0390\u03b4\u03b7-\u039a\u03b1\u03c1\u03c4\u03ac\u03bb\u03b7 \u0394\u03b9\u03bf\u03bd\u03c5\u03c3\u03af\u03b1", "phone": "2310919424"}}, {"type": "node", "id": 4868565607, "lat": 40.612958, "lon": 22.982635, "tags": {"amenity": "pharmacy", "healthcare": "pharmacy"}}, {"type": "node", "id": 4885807114, "lat": 40.5819541, "lon": 22.9608672, "tags": {"amenity": "pharmacy", "healthcare": "pharmacy"}}, {"type": "node", "id": 4885807115, "lat": 40.5813435, "lon": 22.9595603, "tags": {"amenity": "pharmacy", "healthcare": "pharmacy"}}, {"type": "node", "id": 4885807116, "lat": 40.5819428, "lon": 22.957391, "tags": {"addr:street": "\u039a\u03b1\u03c5\u03ba\u03ac\u03c3\u03bf\u03c5", "amenity": "pharmacy", "healthcare": "pharmacy"}}, {"type": "node", "id": 4908888090, "lat": 40.5994184, "lon": 22.9871088, "tags": {"amenity": "pharmacy", "healthcare": "pharmacy"}}, {"type": "node", "id": 4955835021, "lat": 40.6010708, "lon": 22.950615, "tags": {"amenity": "pharmacy", "check_date": "2022-08-31", "healthcare": "pharmacy"}}, {"type": "node", "id": 5001532921, "lat": 40.607237, "lon": 22.9609051, "tags": {"addr:housenumber": "53", "addr:postcode": "54644", "addr:street": "\u039c\u03ac\u03c1\u03ba\u03bf\u03c5 \u039c\u03c0\u03cc\u03c4\u03c3\u03b1\u03c1\u03b7", "amenity": "pharmacy", "dispensing": "yes", "healthcare": "pharmacy", "name": "\u039f\u03b9\u03ba\u03bf\u03bd\u03bf\u03bc\u03af\u03b4\u03b7 \u03a7\u03ac\u03c1\u03b1 - \u0394\u03ae\u03bc\u03b7\u03c4\u03c1\u03b1", "name:el": "\u039f\u03b9\u03ba\u03bf\u03bd\u03bf\u03bc\u03af\u03b4\u03b7 \u03a7\u03ac\u03c1\u03b1-\u0394\u03ae\u03bc\u03b7\u03c4\u03c1\u03b1", "phone": "2310864007"}}, {"type": "node", "id": 5030315212, "lat": 40.6161498, "lon": 22.9631414, "tags": {"addr:street": "\u039a\u03c9\u03bd\u03c3\u03c4\u03b1\u03bd\u03c4\u03af\u03bd\u03bf\u03c5 \u039a\u03b1\u03c1\u03b1\u03bc\u03b1\u03bd\u03bb\u03ae", "amenity": "pharmacy", "dispensing": "yes", "fixme": "name", "healthcare": "pharmacy"}}, {"type": "node", "id": 5030376805, "lat": 40.6163614, "lon": 22.9592176, "tags": {"addr:housenumber": "30", "addr:street": "\u039a\u03c9\u03bd\u03c3\u03c4\u03b1\u03bd\u03c4\u03b9\u03bd\u03bf\u03c5\u03c0\u03cc\u03bb\u03b5\u03c9\u03c2", "amenity": "pharmacy", "fixme": "name", "healthcare": "pharmacy"}}, {"type": "node", "id": 5076125810, "lat": 40.4645345, "lon": 22.8610428, "tags": {"amenity": "pharmacy", "healthcare": "pharmacy"}}, {"type": "node", "id": 5146723529, "lat": 40.3815988, "lon": 23.4455857, "tags": {"addr:city": "\u03a0\u03bf\u03bb\u03cd\u03b3\u03c5\u03c1\u03bf\u03c2", "addr:postcode": "63100", "addr:street": "\u0391\u03c3\u03ba\u03bb\u03b7\u03c0\u03b9\u03bf\u03cd", "amenity": "pharmacy", "healthcare": "pharmacy", "name": "\u03a6\u03b1\u03c1\u03bc\u03b1\u03ba\u03b5\u03af\u03bf \u039a\u03ac\u03bb\u03c6\u03b1 \u0399. \u0395\u03c5\u03b1\u03b3\u03b3\u03b5\u03bb\u03af\u03b1", "phone": "+30 23710 25151"}}, {"type": "node", "id": 5151887858, "lat": 40.3795037, "lon": 23.4430488, "tags": {"addr:city": "\u03a0\u03bf\u03bb\u03cd\u03b3\u03c5\u03c1\u03bf\u03c2", "addr:housenumber": "22", "addr:postcode": "63100", "addr:street": "\u03a7\u03b1\u03c1\u03b9\u03bb\u03ac\u03bf\u03c5 \u03a4\u03c1\u03b9\u03ba\u03bf\u03cd\u03c0\u03b7", "amenity": "pharmacy", "healthcare": "pharmacy", "name": "\u03a3\u03c4\u03ad\u03bb\u03bb\u03b1 \u0393\u03b1\u03bb\u03ac\u03bd\u03b7-\u03a4\u03c3\u03ac\u03bb\u03b1"}}, {"type": "node", "id": 5151887860, "lat": 40.3790623, "lon": 23.4423181, "tags": {"addr:city": "\u03a0\u03bf\u03bb\u03cd\u03b3\u03c5\u03c1\u03bf\u03c2", "addr:postcode": "63100", "amenity": "pharmacy", "healthcare": "pharmacy", "name": "\u0386\u03bd\u03bd\u03b1 \u039a\u03b5\u03bd\u03c4\u03ae"}}, {"type": "node", "id": 5236502389, "lat": 40.6091548, "lon": 22.9905968, "tags": {"amenity": "pharmacy", "healthcare": "pharmacy", "name": "\u039d\u03c4\u03ad\u03bc\u03ba\u03b1\u03c2 \u0391\u03bd\u03b1\u03c3\u03c4\u03ac\u03c3\u03b9\u03bf\u03c2"}}, {"type": "node", "id": 5260521424, "lat": 40.570342, "lon": 22.972332, "tags": {"amenity": "pharmacy", "healthcare": "pharmacy", "name": "Spandonidi pharmacy"}}, {"type": "node", "id": 5298236307, "lat": 40.632202, "lon": 22.9424415, "tags": {"addr:city": "\u0398\u03b5\u03c3\u03c3\u03b1\u03bb\u03bf\u03bd\u03af\u03ba\u03b7", "addr:housenumber": "47", "addr:street": "\u039c\u03b7\u03c4\u03c1\u03bf\u03c0\u03cc\u03bb\u03b5\u03c9\u03c2", "amenity": "pharmacy", "healthcare": "pharmacy"}}, {"type": "node", "id": 5303150197, "lat": 40.5959249, "lon": 22.9565358, "tags": {"addr:city": "\u0398\u03b5\u03c3\u03c3\u03b1\u03bb\u03bf\u03bd\u03af\u03ba\u03b7", "addr:housenumber": "11", "addr:postcode": "54646", "addr:street": "\u039d\u03ad\u03c3\u03c4o\u03c1\u03bf\u03c2 \u03a4\u03cd\u03c0\u03b1", "amenity": "pharmacy", "healthcare": "pharmacy", "name": "\u03a7\u03b1\u03bb\u03ba\u03af\u03b4\u03b7\u03c2", "operator": "\u03a7\u03b1\u03bb\u03ba\u03af\u03b4\u03b7\u03c2 \u039d\u03b9\u03ba\u03cc\u03bb\u03b1\u03bf\u03c2"}}, {"type": "node", "id": 5309212801, "lat": 40.6209358, "lon": 22.9611695, "tags": {"amenity": "pharmacy", "healthcare": "pharmacy"}}, {"type": "node", "id": 5337439650, "lat": 40.5997074, "lon": 22.9530974, "tags": {"addr:city": "\u0398\u03b5\u03c3\u03c3\u03b1\u03bb\u03bf\u03bd\u03af\u03ba\u03b7", "addr:housenumber": "56", "addr:postcode": "54645", "addr:street": "\u039a\u03af\u03bc\u03c9\u03bd\u03bf\u03c2 \u0392\u03cc\u03b3\u03b1", "amenity": "pharmacy", "healthcare": "pharmacy", "operator": "Manolis Vasileios"}}, {"type": "node", "id": 5351309564, "lat": 40.6593352, "lon": 22.9462626, "tags": {"addr:city": "\u03a0\u03bf\u03bb\u03af\u03c7\u03bd\u03b7", "addr:housenumber": "39", "addr:postcode": "56533", "addr:street": "\u0395\u03bb\u03c0\u03af\u03b4\u03bf\u03c2", "amenity": "pharmacy", "healthcare": "pharmacy", "operator": "Siggridis Dimitris"}}, {"type": "node", "id": 5372883861, "lat": 40.6109161, "lon": 22.9823173, "tags": {"amenity": "pharmacy", "healthcare": "pharmacy", "name": "\u03a6\u03b9\u03bb\u03b9\u03c0\u03c0\u03af\u03b4\u03bf\u03c5 \u0392\u03b1\u03c3\u03b9\u03bb\u03b9\u03ba\u03ae"}}, {"type": "node", "id": 5382719872, "lat": 40.609851, "lon": 22.9900795, "tags": {"amenity": "pharmacy", "healthcare": "pharmacy"}}, {"type": "node", "id": 5389422818, "lat": 40.5861008, "lon": 22.9557765, "tags": {"addr:city": "\u039a\u03b1\u03bb\u03b1\u03bc\u03b1\u03c1\u03b9\u03ac", "addr:housenumber": "73", "addr:postcode": "55133", "addr:street": "\u0391\u03b9\u03b3\u03b1\u03af\u03bf\u03c5", "amenity": "pharmacy", "healthcare": "pharmacy", "operator": "Savaidou Despina"}}, {"type": "node", "id": 5389466343, "lat": 40.5838779, "lon": 22.9533377, "tags": {"addr:city": "\u039a\u03b1\u03bb\u03b1\u03bc\u03b1\u03c1\u03b9\u03ac", "addr:housenumber": "41", "addr:postcode": "55133", "addr:street": "\u03a0\u03cc\u03bd\u03c4\u03bf\u03c5", "amenity": "pharmacy", "healthcare": "pharmacy", "operator": "Galani Stamatia"}}, {"type": "node", "id": 5398809708, "lat": 40.6525708, "lon": 22.9394154, "tags": {"addr:city": "\u039d\u03b5\u03ac\u03c0\u03bf\u03bb\u03b7", "addr:housenumber": "33", "addr:postcode": "56728", "addr:street": "\u0391\u03bd\u03b4\u03c1\u03ad\u03b1 \u03a0\u03b1\u03c0\u03b1\u03bd\u03b4\u03c1\u03ad\u03bf\u03c5", "amenity": "pharmacy", "healthcare": "pharmacy", "operator": "Naoum Panagiotis"}}, {"type": "node", "id": 5413039691, "lat": 40.6025724, "lon": 22.9661068, "tags": {"addr:city": "\u0398\u03b5\u03c3\u03c3\u03b1\u03bb\u03bf\u03bd\u03af\u03ba\u03b7", "addr:housenumber": "100", "addr:postcode": "54249", "addr:street": "25\u03b7\u03c2 \u039c\u03b1\u03c1\u03c4\u03af\u03bf\u03c5", "amenity": "pharmacy", "dispensing": "yes", "drive_through": "no", "healthcare": "pharmacy", "name": "\u0393\u03c1\u03b1\u03bc\u03bc\u03b1\u03c4\u03b9\u03ba\u03cc\u03c0\u03bf\u03c5\u03bb\u03bf\u03c2 \u0394\u03b7\u03bc\u03ae\u03c4\u03c1\u03b9\u03bf\u03c2", "operator": "Grammatikopoulos Dimitrios"}}, {"type": "node", "id": 5455056981, "lat": 40.6389132, "lon": 22.9419724, "tags": {"amenity": "pharmacy", "healthcare": "pharmacy"}}, {"type": "node", "id": 5455056982, "lat": 40.6451761, "lon": 22.9426207, "tags": {"amenity": "pharmacy", "healthcare": "pharmacy"}}, {"type": "node", "id": 5455057101, "lat": 40.6400724, "lon": 22.9521745, "tags": {"addr:street": "\u0391\u03b3\u03af\u03b1\u03c2 \u03a3\u03bf\u03c6\u03af\u03b1\u03c2", "amenity": "pharmacy", "healthcare": "pharmacy", "name": "\u0393\u03ba\u03bf\u03cd\u03b2\u03b1 - \u03a0\u03b5\u03c1\u03ac\u03ba\u03b7", "source": "Kaart Ground Survey 2018"}}, {"type": "node", "id": 5455057113, "lat": 40.6408396, "lon": 22.9494613, "tags": {"amenity": "pharmacy", "healthcare": "pharmacy"}}, {"type": "node", "id": 5455057128, "lat": 40.6399776, "lon": 22.9587498, "tags": {"amenity": "pharmacy", "healthcare": "pharmacy"}}, {"type": "node", "id": 5455057137, "lat": 40.6369157, "lon": 22.9528856, "tags": {"amenity": "pharmacy", "healthcare": "pharmacy"}}, {"type": "node", "id": 5455057169, "lat": 40.6396455, "lon": 22.9514475, "tags": {"amenity": "pharmacy", "healthcare": "pharmacy"}}, {"type": "node", "id": 5502799157, "lat": 40.6133628, "lon": 22.9844508, "tags": {"amenity": "pharmacy", "healthcare": "pharmacy", "name": "\u0394\u03b1\u03c1\u03b4\u03b1\u03bb\u03ac \u0399\u03c9."}}, {"type": "node", "id": 5655666572, "lat": 40.5985627, "lon": 22.9747037, "tags": {"amenity": "pharmacy", "dispensing": "yes", "healthcare": "pharmacy"}}, {"type": "node", "id": 5716974173, "lat": 40.6067144, "lon": 22.9691102, "tags": {"addr:housenumber": "44", "addr:postcode": "54453", "addr:street": "\u039a\u03b1\u03bd\u03ac\u03c1\u03b7", "amenity": "pharmacy", "dispensing": "yes", "healthcare": "pharmacy", "name": "\u039c\u03bf\u03bb\u03b1\u03b3\u03b9\u03b1\u03bd\u03bd\u03af\u03b4\u03bf\u03c5 \u0391\u03bb\u03b5\u03be\u03af\u03b1-\u03a7\u03b1\u03c1\u03af\u03ba\u03bb\u03b5\u03b9\u03b1"}}, {"type": "node", "id": 5716974176, "lat": 40.6078441, "lon": 22.9662934, "tags": {"addr:housenumber": "90", "addr:postcode": "54644", "addr:street": "\u0391\u03bb\u03b5\u03be\u03ac\u03bd\u03b4\u03c1\u03bf\u03c5 \u03a0\u03b1\u03c0\u03b1\u03bd\u03b1\u03c3\u03c4\u03b1\u03c3\u03af\u03bf\u03c5", "amenity": "pharmacy", "dispensing": "yes", "healthcare": "pharmacy", "name": "\u039c\u03af\u03b3\u03ba\u03bf\u03c5 \u0399. - \u039c\u03c0\u03b1\u03bc\u03c0\u03b1\u03bb\u03af\u03c4\u03b7\u03c2 \u0393.", "operator": "\u039c\u03af\u03b3\u03ba\u03bf\u03c5 \u0399\u03c9\u03ac\u03bd\u03bd\u03b1 - \u039c\u03c0\u03b1\u03bc\u03c0\u03b1\u03bb\u03af\u03c4\u03b7\u03c2 \u0393\u03b5\u03ce\u03c1\u03b3\u03b9\u03bf\u03c2", "phone": "+30 2310 903077"}}, {"type": "node", "id": 5768710807, "lat": 40.6404786, "lon": 22.9337775, "tags": {"addr:street": "\u0391\u03b9\u03c3\u03ce\u03c0\u03bf\u03c5", "amenity": "pharmacy", "healthcare": "pharmacy", "source": "Kaart Ground Survey"}}, {"type": "node", "id": 5768941975, "lat": 40.6542206, "lon": 22.9547471, "tags": {"addr:street": "\u039a\u03bf\u03bd\u03c4\u03bf\u03c3\u03cc\u03b3\u03bb\u03bf\u03c5", "amenity": "pharmacy", "healthcare": "pharmacy", "source": "Kaart Ground Survey"}}, {"type": "node", "id": 5770526794, "lat": 40.650578, "lon": 22.9585477, "tags": {"addr:street": "\u0395\u03c0\u03c4\u03b1\u03c0\u03c5\u03c1\u03b3\u03af\u03bf\u03c5", "amenity": "pharmacy", "fixme": "name", "healthcare": "pharmacy", "source": "Kaart Ground Survey"}}, {"type": "node", "id": 5770605818, "lat": 40.6449464, "lon": 22.9491353, "tags": {"addr:street": "\u0395\u03bb\u03b5\u03c5\u03b8\u03b5\u03c1\u03af\u03bf\u03c5 \u0392\u03b5\u03bd\u03b9\u03b6\u03ad\u03bb\u03bf\u03c5", "amenity": "pharmacy", "healthcare": "pharmacy", "source": "Kaart Ground Survey"}}, {"type": "node", "id": 5770738078, "lat": 40.6510424, "lon": 22.936032, "tags": {"addr:street": "\u039a. \u039a\u03b1\u03c1\u03b1\u03bc\u03b1\u03bd\u03bb\u03ae", "amenity": "pharmacy", "fixme": "name", "healthcare": "pharmacy", "source": "Kaart Ground Survey"}}, {"type": "node", "id": 5770738079, "lat": 40.6496788, "lon": 22.9375192, "tags": {"addr:street": "\u03a5\u03c0\u03bf\u03c3\u03bc\u03b7\u03bd\u03b1\u03b3\u03bf\u03cd \u0399\u03c9\u03ac\u03bd\u03bd\u03bf\u03c5 \u03a7\u03b1\u03c4\u03b6\u03bf\u03cd\u03b4\u03b7", "amenity": "pharmacy", "healthcare": "pharmacy", "source": "Kaart Ground Survey"}}, {"type": "node", "id": 5770944645, "lat": 40.6519739, "lon": 22.9383335, "tags": {"addr:street": "\u0391\u03bd\u03b4\u03c1\u03ad\u03b1 \u03a0\u03b1\u03c0\u03b1\u03bd\u03b4\u03c1\u03ad\u03bf\u03c5", "amenity": "pharmacy", "healthcare": "pharmacy", "source": "Kaart Ground Survey"}}, {"type": "node", "id": 5770944651, "lat": 40.6556693, "lon": 22.9393924, "tags": {"addr:street": "\u03a0\u03b1\u03bd\u03b1\u03b3\u03ae \u03a4\u03c3\u03b1\u03bb\u03b4\u03ac\u03c1\u03b7", "amenity": "pharmacy", "healthcare": "pharmacy", "name": "\u03a0\u03b5\u03c4\u03c1\u03b7\u03c7\u03bf\u03c2", "source": "Kaart Ground Survey"}}, {"type": "node", "id": 5771530414, "lat": 40.6518722, "lon": 22.9569627, "tags": {"addr:street": "\u0395\u03c0\u03c4\u03b1\u03c0\u03c5\u03c1\u03b3\u03af\u03bf\u03c5", "amenity": "pharmacy", "fixme": "name", "healthcare": "pharmacy", "source": "Kaart Ground Survey"}}, {"type": "node", "id": 5771530419, "lat": 40.6543633, "lon": 22.9513728, "tags": {"addr:street": "\u0391\u03bd\u03b4\u03c1\u03ad\u03b1 \u03a0\u03b1\u03c0\u03b1\u03bd\u03b4\u03c1\u03ad\u03bf\u03c5", "amenity": "pharmacy", "healthcare": "pharmacy", "source": "Kaart Ground Survey"}}, {"type": "node", "id": 5771651132, "lat": 40.6493169, "lon": 22.9517518, "tags": {"addr:street": "\u0391\u03bd\u03b4\u03c1\u03ad\u03bf\u03c5 \u0394\u03b7\u03bc\u03b7\u03c4\u03c1\u03af\u03bf\u03c5", "amenity": "pharmacy", "healthcare": "pharmacy", "source": "Kaart Ground Survey"}}, {"type": "node", "id": 5773262981, "lat": 40.6508486, "lon": 22.9498118, "tags": {"addr:street": "\u03a1\u03ae\u03b3\u03b1 \u03a6\u03b5\u03c1\u03b1\u03af\u03bf\u03c5", "amenity": "pharmacy", "healthcare": "pharmacy", "source": "Kaart Ground Survey"}}, {"type": "node", "id": 5773262987, "lat": 40.6512865, "lon": 22.9490064, "tags": {"addr:street": "\u0391\u03bd\u03b1\u03be\u03b1\u03b3\u03cc\u03c1\u03b1", "amenity": "pharmacy", "healthcare": "pharmacy", "source": "Kaart Ground Survey"}}, {"type": "node", "id": 5773326818, "lat": 40.6508334, "lon": 22.9515337, "tags": {"addr:street": "\u0399\u03c0\u03c0\u03bf\u03ba\u03c1\u03ac\u03c4\u03bf\u03c5\u03c2", "amenity": "pharmacy", "healthcare": "pharmacy", "source": "Kaart Ground Survey"}}, {"type": "node", "id": 5773609070, "lat": 40.6510623, "lon": 22.9533496, "tags": {"addr:street": "\u03a1\u03ae\u03b3\u03b1 \u03a6\u03b5\u03c1\u03b1\u03af\u03bf\u03c5", "amenity": "pharmacy", "fixme": "name", "healthcare": "pharmacy", "source": "Kaart Ground Survey"}}, {"type": "node", "id": 5773625527, "lat": 40.6415345, "lon": 22.9599542, "tags": {"addr:street": "\u0395\u03bb\u03b5\u03c5\u03b8\u03b5\u03c1\u03af\u03bf\u03c5 \u0392\u03b5\u03bd\u03b9\u03b6\u03ad\u03bb\u03bf\u03c5", "amenity": "pharmacy", "fixme": "name", "healthcare": "pharmacy", "source": "Kaart Ground Survey"}}, {"type": "node", "id": 5773960845, "lat": 40.6493534, "lon": 22.9408477, "tags": {"addr:street": "\u03a1\u03ae\u03b3\u03b1 \u03a6\u03b5\u03c1\u03b1\u03af\u03bf\u03c5", "amenity": "pharmacy", "healthcare": "pharmacy", "source": "Kaart Ground Survey"}}, {"type": "node", "id": 5773969758, "lat": 40.6473113, "lon": 22.9432821, "tags": {"addr:street": "\u03a0\u03b1\u03c0\u03b1\u03bd\u03b1\u03c3\u03c4\u03b1\u03c3\u03af\u03bf\u03c5 \u0391\u03bb\u03b5\u03be\u03ac\u03bd\u03b4\u03c1\u03bf\u03c5", "amenity": "pharmacy", "healthcare": "pharmacy", "source": "Kaart Ground Survey"}}, {"type": "node", "id": 5779443799, "lat": 40.6473255, "lon": 22.9457914, "tags": {"addr:street": "\u03a0\u03b1\u03c0\u03b1\u03bd\u03b1\u03c3\u03c4\u03b1\u03c3\u03af\u03bf\u03c5 \u0391\u03bb\u03b5\u03be\u03ac\u03bd\u03b4\u03c1\u03bf\u03c5", "amenity": "pharmacy", "healthcare": "pharmacy", "name": "\u0396\u03b1\u03c6\u03b5\u03b9\u03c1\u03b9\u03ac\u03b4\u03bf\u03c5", "name:el": "\u0396\u03b1\u03c6\u03b5\u03b9\u03c1\u03b9\u03ac\u03b4\u03bf\u03c5", "name:en": "Zafiriadou", "source": "Kaart Ground Survey"}}, {"type": "node", "id": 5785008163, "lat": 40.6554129, "lon": 22.9310243, "tags": {"addr:street": "\u039c\u03b5\u03c3\u03bf\u03bb\u03bf\u03b3\u03b3\u03b9\u03bf\u03c5", "amenity": "pharmacy", "healthcare": "pharmacy", "name": "\u039b\u03b1\u03b6\u03b1\u03c1\u03af\u03b4\u03bf\u03c5", "source": "Kaart Ground Survey"}}, {"type": "node", "id": 5787884034, "lat": 40.5467042, "lon": 23.0176106}, {"type": "node", "id": 5787884035, "lat": 40.5466953, "lon": 23.0175669}, {"type": "node", "id": 5787884036, "lat": 40.5464921, "lon": 23.0176744}, {"type": "node", "id": 5787884037, "lat": 40.5465585, "lon": 23.0177759}, {"type": "node", "id": 5787884040, "lat": 40.5472736, "lon": 23.0191469, "tags": {"addr:city": "\u0398\u03ad\u03c1\u03bc\u03b7", "addr:housenumber": "36", "addr:postcode": "57001", "addr:street": "\u03a0\u03bb\u03b1\u03c4\u03b5\u03af\u03b1 \u03a0\u03b1\u03c1\u03b1\u03bc\u03ac\u03bd\u03b1", "amenity": "pharmacy", "healthcare": "pharmacy", "name": "\u0396\u03bf\u03c5\u03c1\u03bd\u03b1\u03c4\u03b6\u03ae \u0395\u03c5\u03b8\u03c5\u03bc\u03af\u03b1", "source": "Kaart Ground Survey 2018"}}, {"type": "node", "id": 5787884256, "lat": 40.5457285, "lon": 23.0195625, "tags": {"addr:city": "\u0398\u03ad\u03c1\u03bc\u03b7", "addr:housenumber": "34", "addr:postcode": "57001", "addr:street": "\u0392\u03b1\u03c3\u03b9\u03bb\u03b9\u03ba\u03ae\u03c2 \u03a4\u03b1\u03b2\u03ac\u03ba\u03b7", "amenity": "pharmacy", "healthcare": "pharmacy", "name": "\u03a6\u03b1\u03bd\u03bf\u03c5\u03bb\u03ac\u03c2 \u03a3\u03c0\u03c5\u03c1\u03af\u03b4\u03c9\u03bd", "source": "Kaart Ground Survey 2018"}}, {"type": "node", "id": 5790160595, "lat": 40.5910112, "lon": 23.0363228, "tags": {"addr:city": "\u03a0\u03b1\u03bd\u03cc\u03c1\u03b1\u03bc\u03b1", "addr:housenumber": "14", "addr:postcode": "55236", "addr:street": "\u039a\u03bf\u03bc\u03bd\u03b7\u03bd\u03ce\u03bd", "amenity": "pharmacy", "dispensing": "yes", "healthcare": "pharmacy", "name": "\u03a6\u03b1\u03c1\u03bc\u03b1\u03ba\u03b5\u03af\u03bf \u0391\u03c5\u03b3\u03b5\u03c1\u03b9\u03bd\u03bf\u03cd \u03a3. - \u03a7\u03ac\u03ca\u03b4\u03b1 \u03a7.", "source": "Kaart Ground Survey 2018;local knowledge"}}, {"type": "node", "id": 5790160618, "lat": 40.5915975, "lon": 23.0402575, "tags": {"addr:city": "\u03a0\u03b1\u03bd\u03cc\u03c1\u03b1\u03bc\u03b1", "addr:housenumber": "63", "addr:postcode": "55236", "addr:street": "\u039a\u03bf\u03bc\u03bd\u03b7\u03bd\u03ce\u03bd", "amenity": "pharmacy", "dispensing": "yes", "healthcare": "pharmacy", "level": "0", "name": "\u03a6\u03b1\u03c1\u03bc\u03b1\u03ba\u03b5\u03af\u03bf Panorama", "opening_hours": "Mo-Fr 08:30-14:30, 17:00-21:00; Sa 09:00-14:30", "phone": "+30 2310 344206", "source": "Kaart Ground Survey 2018"}}, {"type": "node", "id": 5798975732, "lat": 40.6088813, "lon": 22.9535964, "tags": {"addr:housenumber": "89", "addr:postcode": "54643", "addr:street": "\u0392\u03b1\u03c3\u03b9\u03bb\u03af\u03c3\u03c3\u03b7\u03c2 \u038c\u03bb\u03b3\u03b1\u03c2", "amenity": "pharmacy", "dispensing": "yes", "healthcare": "pharmacy", "name": "\u039a\u03bf\u03c5\u03ba\u03bf\u03c5\u03c1\u03ae \u0395\u03bb\u03ad\u03bd\u03b7", "name:el": "\u039a\u03bf\u03c5\u03ba\u03bf\u03c5\u03c1\u03ae \u0395\u03bb\u03ad\u03bd\u03b7", "source": "Kaart Ground Survey 2018"}}, {"type": "node", "id": 5798975746, "lat": 40.6053076, "lon": 22.9529035, "tags": {"addr:street": "\u0392\u03b1\u03c3\u03b9\u03bb\u03af\u03c3\u03c3\u03b7\u03c2 \u038c\u03bb\u03b3\u03b1\u03c2", "amenity": "pharmacy", "fixme": "name", "healthcare": "pharmacy", "source": "Kaart Ground Survey 2018"}}, {"type": "node", "id": 5799013533, "lat": 40.6544068, "lon": 22.930351, "tags": {"addr:city": "\u0391\u03bc\u03c0\u03b5\u03bb\u03cc\u03ba\u03b7\u03c0\u03bf\u03b9", "addr:housenumber": "61", "addr:postcode": "56123", "addr:street": "\u0395\u03bb\u03b5\u03c5\u03b8\u03b5\u03c1\u03af\u03b1\u03c2", "amenity": "pharmacy", "drive_through": "no", "healthcare": "pharmacy", "name": "\u03a0\u03b1\u03c0\u03b1\u03b3\u03b5\u03c9\u03c1\u03b3\u03af\u03bf\u03c5", "operator": "\u03a0\u03b1\u03c0\u03b1\u03b3\u03b5\u03c9\u03c1\u03b3\u03af\u03bf\u03c5 \u039c\u03b9\u03bb\u03c4\u03b9\u03ac\u03b4\u03b7\u03c2", "source": "Kaart Ground Survey 2018"}}, {"type": "node", "id": 5799013540, "lat": 40.6500325, "lon": 22.9336173, "tags": {"addr:street": "28\u03b7\u03c2 \u039f\u03ba\u03c4\u03c9\u03b2\u03c1\u03af\u03bf\u03c5", "amenity": "pharmacy", "fixme": "name", "healthcare": "pharmacy", "source": "Kaart Ground Survey 2018"}}, {"type": "node", "id": 5799028413, "lat": 40.6057699, "lon": 22.9526602, "tags": {"addr:street": "\u0392\u03b1\u03c3\u03b9\u03bb\u03af\u03c3\u03c3\u03b7\u03c2 \u038c\u03bb\u03b3\u03b1\u03c2", "amenity": "pharmacy", "fixme": "name", "healthcare": "pharmacy", "source": "Kaart Ground Survey 2018"}}, {"type": "node", "id": 5799226013, "lat": 40.6130138, "lon": 22.9538727, "tags": {"addr:street": "\u0392\u03b1\u03c3\u03b9\u03bb\u03af\u03c3\u03c3\u03b7\u03c2 \u038c\u03bb\u03b3\u03b1\u03c2", "amenity": "pharmacy", "fixme": "name", "healthcare": "pharmacy", "source": "Kaart Ground Survey 2018"}}, {"type": "node", "id": 5799226022, "lat": 40.6104296, "lon": 22.9534152, "tags": {"addr:street": "\u0392\u03b1\u03c3\u03b9\u03bb\u03af\u03c3\u03c3\u03b7\u03c2 \u038c\u03bb\u03b3\u03b1\u03c2", "amenity": "pharmacy", "dispensing": "yes", "healthcare": "pharmacy", "name": "\u0392\u03b1\u03c3\u03b9\u03bb\u03b5\u03b9\u03ac\u03b4\u03bf\u03c5 \u0392\u03b9\u03ba\u03c4\u03ce\u03c1\u03b9\u03b1", "name:el": "\u0392\u03b1\u03c3\u03b9\u03bb\u03b5\u03b9\u03ac\u03b4\u03bf\u03c5 \u0392\u03b9\u03ba\u03c4\u03ce\u03c1\u03b9\u03b1", "source": "Kaart Ground Survey 2018"}}, {"type": "node", "id": 5799226038, "lat": 40.6145099, "lon": 22.9543223, "tags": {"addr:street": "\u0392\u03b1\u03c3\u03b9\u03bb\u03af\u03c3\u03c3\u03b7\u03c2 \u038c\u03bb\u03b3\u03b1\u03c2", "amenity": "pharmacy", "fixme": "name", "healthcare": "pharmacy", "source": "Kaart Ground Survey 2018"}}, {"type": "node", "id": 5799226047, "lat": 40.612517, "lon": 22.9543168, "tags": {"addr:street": "\u0392\u03b1\u03c3\u03b9\u03bb\u03af\u03c3\u03c3\u03b7\u03c2 \u038c\u03bb\u03b3\u03b1\u03c2", "amenity": "pharmacy", "healthcare": "pharmacy", "name": "\u0396\u03b1\u03c7\u03ac\u03c1\u03b7 \u0391\u03c1\u03b9\u03c3\u03c4\u03b5\u03af\u03b4\u03b7", "source": "Kaart Ground Survey 2018"}}, {"type": "node", "id": 5799227362, "lat": 40.6110489, "lon": 22.9539237, "tags": {"addr:housenumber": "65", "addr:postcode": "54642", "addr:street": "\u0392\u03b1\u03c3\u03b9\u03bb\u03af\u03c3\u03c3\u03b7\u03c2 \u038c\u03bb\u03b3\u03b1\u03c2", "amenity": "pharmacy", "dispensing": "yes", "healthcare": "pharmacy", "name": "\u0396\u0391\u0393\u039a\u0391\u03a3 \u0391\u039d\u0391\u03a3\u03a4\u0391\u03a3\u0399\u039f\u03a3", "name:el": "\u0396\u0391\u0393\u039a\u0391\u03a3 \u0391\u039d\u0391\u03a3\u03a4\u0391\u03a3\u0399\u039f\u03a3", "source": "Kaart Ground Survey 2018"}}, {"type": "node", "id": 5799227371, "lat": 40.6098023, "lon": 22.9536098, "tags": {"addr:housenumber": "81", "addr:postcode": "54642", "addr:street": "\u0392\u03b1\u03c3\u03b9\u03bb\u03af\u03c3\u03c3\u03b7\u03c2 \u038c\u03bb\u03b3\u03b1\u03c2", "amenity": "pharmacy", "check_date": "2024-01-31", "dispensing": "yes", "healthcare": "pharmacy", "name": "\u039a\u03b1\u03c1\u03b1\u03ba\u03ac\u03c3\u03b7 \u03a7\u03c1\u03b9\u03c3\u03c4\u03af\u03bd\u03b1", "name:el": "\u039a\u03b1\u03c1\u03b1\u03ba\u03ac\u03c3\u03b7 \u03a7\u03c1\u03b9\u03c3\u03c4\u03af\u03bd\u03b1", "source": "Kaart Ground Survey 2018"}}, {"type": "node", "id": 5799539669, "lat": 40.6104156, "lon": 22.9598165, "tags": {"addr:street": "\u0393\u03b1\u03bc\u03b2\u03ad\u03c4\u03b1", "amenity": "pharmacy", "fixme": "name", "healthcare": "pharmacy", "source": "Kaart Ground Survey 2018"}}, {"type": "node", "id": 5799539679, "lat": 40.6144454, "lon": 22.960126, "tags": {"addr:city": "\u0398\u03b5\u03c3\u03c3\u03b1\u03bb\u03bf\u03bd\u03af\u03ba\u03b7", "addr:postcode": "54641", "addr:street": "\u039a\u03c9\u03bd\u03c3\u03c4\u03b1\u03bd\u03c4\u03b9\u03bd\u03bf\u03c5\u03c0\u03cc\u03bb\u03b5\u03c9\u03c2", "amenity": "pharmacy", "healthcare": "pharmacy"}}, {"type": "node", "id": 5799606526, "lat": 40.6103938, "lon": 22.9582036, "tags": {"addr:street": "28\u03b7\u03c2 \u039f\u03ba\u03c4\u03c9\u03b2\u03c1\u03af\u03bf\u03c5", "amenity": "pharmacy", "fixme": "name", "healthcare": "pharmacy", "source": "Kaart Ground Survey 2018"}}, {"type": "node", "id": 5799650223, "lat": 40.6071326, "lon": 22.9616378, "tags": {"addr:housenumber": "76", "addr:postcode": "54644", "addr:street": "\u039c\u03ac\u03c1\u03ba\u03bf\u03c5 \u039c\u03c0\u03cc\u03c4\u03c3\u03b1\u03c1\u03b7", "amenity": "pharmacy", "dispensing": "yes", "healthcare": "pharmacy", "name": "\u0392\u03bb\u03b1\u03c7\u03cc\u03c0\u03bf\u03c5\u03bb\u03bf\u03c2 \u039a\u03c9\u03bd\u03c3\u03c4\u03b1\u03bd\u03c4\u03af\u03bd\u03bf\u03c2", "name:el": "\u0392\u03bb\u03b1\u03c7\u03cc\u03c0\u03bf\u03c5\u03bb\u03bf\u03c2 \u039a\u03c9\u03bd\u03c3\u03c4\u03b1\u03bd\u03c4\u03af\u03bd\u03bf\u03c2", "source": "Kaart Ground Survey 2018;local knowledge"}}, {"type": "node", "id": 5799650246, "lat": 40.609271, "lon": 22.9577087, "tags": {"addr:housenumber": "75\u0391", "addr:postcode": "54642", "addr:street": "\u0394\u03b5\u03bb\u03c6\u03ce\u03bd", "amenity": "pharmacy", "dispensing": "yes", "healthcare": "pharmacy", "name": "\u039c\u03c0\u03af\u03c4\u03b6\u03b9\u03bf\u03c5 \u03a3\u03c4\u03b5\u03c6\u03b1\u03bd\u03af\u03b1", "name:el": "\u03a6\u03b1\u03c1\u03bc\u03b1\u03ba\u03b5\u03af\u03bf \u039c\u03c0\u03af\u03c4\u03b6\u03b9\u03bf\u03c5 \u03a3\u03c4\u03b5\u03c6\u03b1\u03bd\u03af\u03b1", "source": "Kaart Ground Survey 2018"}}, {"type": "node", "id": 5799717213, "lat": 40.6071728, "lon": 22.9590182, "tags": {"addr:housenumber": "41", "addr:postcode": "54644", "addr:street": "\u039c\u03ac\u03c1\u03ba\u03bf\u03c5 \u039c\u03c0\u03cc\u03c4\u03c3\u03b1\u03c1\u03b7", "amenity": "pharmacy", "dispensing": "yes", "healthcare": "pharmacy", "name": "\u03a4\u03c3\u03af\u03ba\u03b1 \u0391\u03c6\u03c1\u03bf\u03b4\u03af\u03c4\u03b7", "name:el": "\u03a4\u03c3\u03af\u03ba\u03b1 \u0391\u03c6\u03c1\u03bf\u03b4\u03af\u03c4\u03b7"}}, {"type": "node", "id": 5799817367, "lat": 40.6068399, "lon": 22.9558254, "tags": {"addr:street": "\u039c\u03ac\u03c1\u03ba\u03bf\u03c5 \u039c\u03c0\u03cc\u03c4\u03c3\u03b1\u03c1\u03b7", "amenity": "pharmacy", "fixme": "name", "healthcare": "pharmacy", "source": "Kaart Ground Survey 2018"}}, {"type": "node", "id": 5801778965, "lat": 40.604969, "lon": 22.9606524, "tags": {"addr:housenumber": "62", "addr:postcode": "54248", "addr:street": "\u03a0\u03ad\u03c4\u03c1\u03bf\u03c5 \u03a3\u03c5\u03bd\u03b4\u03af\u03ba\u03b1", "amenity": "pharmacy", "check_date": "2025-08-17", "dispensing": "yes", "healthcare": "pharmacy", "name": "\u03a7\u03c1\u03c5\u03c3\u03bf\u03bc\u03b1\u03bb\u03bb\u03af\u03b4\u03b7\u03c2 \u039c\u03b9\u03c7\u03b1\u03ae\u03bb", "name:el": "\u03a7\u03c1\u03c5\u03c3\u03bf\u03bc\u03b1\u03bb\u03bb\u03af\u03b4\u03b7\u03c2 \u039c\u03b9\u03c7\u03b1\u03ae\u03bb", "source": "Kaart Ground Survey 2018;local knowledge"}}, {"type": "node", "id": 5801778970, "lat": 40.6045981, "lon": 22.9589804, "tags": {"addr:housenumber": "56", "addr:postcode": "54248", "addr:street": "\u03a0\u03ad\u03c4\u03c1\u03bf\u03c5 \u03a3\u03c5\u03bd\u03b4\u03af\u03ba\u03b1", "amenity": "pharmacy", "dispensing": "yes", "healthcare": "pharmacy", "name": "\u039a\u03b1\u03c1\u03b1\u03bd\u03c4\u03b6\u03b9\u03ba\u03ac\u03ba\u03b7 \u0393\u03b5\u03c9\u03c1\u03b3\u03af\u03b1", "name:el": "\u039a\u03b1\u03c1\u03b1\u03bd\u03c4\u03b6\u03b9\u03ba\u03ac\u03ba\u03b7 \u0393\u03b5\u03c9\u03c1\u03b3\u03af\u03b1", "source": "Kaart Ground Survey 2018"}}, {"type": "node", "id": 5801858659, "lat": 40.6054712, "lon": 22.9619703, "tags": {"addr:housenumber": "77", "addr:postcode": "54644", "addr:street": "\u03a0\u03ad\u03c4\u03c1\u03bf\u03c5 \u03a3\u03c5\u03bd\u03b4\u03af\u03ba\u03b1", "amenity": "pharmacy", "check_date": "2025-08-17", "dispensing": "yes", "healthcare": "pharmacy", "name": "\u0392\u03b1\u03c3\u03b4\u03ad\u03ba\u03b7 \u0399\u03c9\u03ac\u03bd\u03bd\u03b1", "name:el": "\u0392\u03b1\u03c3\u03b4\u03ad\u03ba\u03b7 \u0399\u03c9\u03ac\u03bd\u03bd\u03b1", "source": "Kaart Ground Survey 2018;local knowledge"}}, {"type": "node", "id": 5801919248, "lat": 40.6132989, "lon": 22.9638545, "tags": {"addr:street": "\u0391\u03bb\u03b5\u03be\u03ac\u03bd\u03b4\u03c1\u03bf\u03c5 \u03a0\u03b1\u03c0\u03b1\u03bd\u03b1\u03c3\u03c4\u03b1\u03c3\u03af\u03bf\u03c5", "amenity": "pharmacy", "fixme": "name", "healthcare": "pharmacy", "level": "0", "name": "\u03a6\u03b1\u03c1\u03bc\u03b1\u03ba\u03b5\u03af\u03bf \u03a0\u03b1\u03c0\u03b1\u03c1\u03af\u03c3\u03b2\u03b1 \u0391\u03bb\u03af\u03ba\u03b7 \u0394\u03ad\u03c3\u03c0\u03bf\u03b9\u03bd\u03b1", "source": "Kaart Ground Survey 2018"}}, {"type": "node", "id": 5801989891, "lat": 40.6582657, "lon": 22.9567864, "tags": {"addr:street": "40 \u0395\u03ba\u03ba\u03bb\u03b7\u03c3\u03b9\u03ce\u03bd", "amenity": "pharmacy", "fixme": "name", "healthcare": "pharmacy", "source": "Kaart Ground Survey 2018"}}, {"type": "node", "id": 5802048525, "lat": 40.6166003, "lon": 22.9632202, "tags": {"amenity": "pharmacy", "fixme": "name", "healthcare": "pharmacy", "source": "Kaart Ground Survey 2018"}}, {"type": "node", "id": 5802073613, "lat": 40.6547556, "lon": 22.9921411, "tags": {"addr:street": "\u03a0\u03b1\u03c0\u03b1\u03bd\u03b9\u03ba\u03bf\u03bb\u03ac\u03bf\u03c5", "amenity": "pharmacy", "healthcare": "pharmacy", "source": "Kaart Ground Survey 2018"}}, {"type": "node", "id": 5802073638, "lat": 40.6606601, "lon": 22.9806111, "tags": {"addr:street": "\u03a0\u03b1\u03c0\u03b1\u03bd\u03b9\u03ba\u03bf\u03bb\u03ac\u03bf\u03c5", "amenity": "pharmacy", "healthcare": "pharmacy", "source": "Kaart Ground Survey 2018"}}, {"type": "node", "id": 5802140874, "lat": 40.6575064, "lon": 22.9844533, "tags": {"addr:street": "\u03a0\u03b1\u03c0\u03b1\u03bd\u03b9\u03ba\u03bf\u03bb\u03ac\u03bf\u03c5", "amenity": "pharmacy", "healthcare": "pharmacy", "source": "Kaart Ground Survey 2018"}}, {"type": "node", "id": 5802318626, "lat": 40.6610379, "lon": 22.9540243, "tags": {"addr:city": "\u03a0\u03bf\u03bb\u03af\u03c7\u03bd\u03b7", "addr:housenumber": "40", "addr:postcode": "56532", "addr:street": "\u03a6\u03b9\u03bb\u03af\u03c0\u03c0\u03bf\u03c5", "amenity": "pharmacy", "drive_through": "no", "healthcare": "pharmacy", "name": "\u0399\u03b1\u03c4\u03c1\u03cc\u03c0\u03bf\u03c5\u03bb\u03bf\u03c2", "name:el": "\u0399\u03b1\u03c4\u03c1\u03cc\u03c0\u03bf\u03c5\u03bb\u03bf\u03c2", "name:en": "Iatropoulos", "phone": "+30 2310657807", "source": "Kaart Ground Survey 2018"}}, {"type": "node", "id": 5802377413, "lat": 40.613308, "lon": 22.9693502, "tags": {"amenity": "pharmacy", "fixme": "name", "healthcare": "pharmacy", "name": "\u039c\u0391\u03a1\u0399\u039d\u039f\u03a5 \u039c\u0391\u03a1\u0399\u0391 & \u03a3\u0399\u0391 \u039f\u0395", "opening_hours": "\"doesn't open at the times it says\"", "source": "Kaart Ground Survey 2018"}}, {"type": "node", "id": 5802377418, "lat": 40.6114059, "lon": 22.9703349, "tags": {"amenity": "pharmacy", "fixme": "name", "healthcare": "pharmacy", "source": "Kaart Ground Survey 2018"}}, {"type": "node", "id": 5802377423, "lat": 40.6099727, "lon": 22.9711123, "tags": {"amenity": "pharmacy", "fixme": "name", "healthcare": "pharmacy", "source": "Kaart Ground Survey 2018"}}, {"type": "node", "id": 5802377435, "lat": 40.6132876, "lon": 22.9676018, "tags": {"addr:housenumber": "109", "addr:postcode": "54453", "addr:street": "\u03a0\u03b1\u03c0\u03ac\u03c6\u03b7", "amenity": "pharmacy", "dispensing": "yes", "healthcare": "pharmacy", "name": "\u039a\u03b1\u03c4\u03c3\u03b9\u03bd\u03b7 \u03a0\u03b1\u03c1\u03b1\u03c3\u03ba\u03b5\u03c5\u03ae", "source": "Kaart Ground Survey 2018"}}, {"type": "node", "id": 5802377441, "lat": 40.6136372, "lon": 22.9686189, "tags": {"amenity": "pharmacy", "healthcare": "pharmacy", "name": "\u0396\u03bf\u03cd\u03b3\u03c1\u03b7 \u0394\u03ae\u03bc. -\u039a\u03b1\u03c1\u03b1\u03bc\u03bf\u03cd\u03b6\u03b7 \u0391\u03b9\u03ba.", "source": "Kaart Ground Survey 2018"}}, {"type": "node", "id": 5802377452, "lat": 40.6107907, "lon": 22.9686494, "tags": {"amenity": "pharmacy", "fixme": "name", "healthcare": "pharmacy", "source": "Kaart Ground Survey 2018"}}, {"type": "node", "id": 5802389199, "lat": 40.580927, "lon": 23.0296325, "tags": {"addr:street": "\u03a0\u03b1\u03bd\u03bf\u03c1\u03ac\u03bc\u03b1\u03c4\u03bf\u03c2", "amenity": "pharmacy", "healthcare": "pharmacy", "source": "Kaart Ground Survey 2018"}}, {"type": "node", "id": 5802429879, "lat": 40.5910457, "lon": 23.0329465, "tags": {"addr:street": "\u0399\u03b1\u03c3\u03c9\u03bd\u03af\u03b4\u03bf\u03c5", "amenity": "pharmacy", "fixme": "name", "healthcare": "pharmacy", "source": "Kaart Ground Survey 2018"}}, {"type": "node", "id": 5804475589, "lat": 40.5692213, "lon": 22.9600905, "tags": {"addr:city": "\u039a\u03b1\u03bb\u03b1\u03bc\u03b1\u03c1\u03b9\u03ac", "addr:housenumber": "17", "addr:postcode": "55132", "addr:street": "\u0391\u03ca\u03b4\u03b9\u03bd\u03af\u03bf\u03c5", "amenity": "pharmacy", "healthcare": "pharmacy", "name": "\u0394\u03b1\u03c3\u03ba\u03b1\u03bb\u03ac\u03ba\u03b7\u03c2", "opening_hours": "Mo-Fr 08:00-21:00, Sa 09:00-17:00", "operator": "\u0394\u03b1\u03c3\u03ba\u03b1\u03bb\u03ac\u03ba\u03b7\u03c2 \u039d. \u039c\u03ac\u03c1\u03b9\u03bf\u03c2", "phone": "+30 2310 458880", "source": "Kaart Ground Survey 2018"}}, {"type": "node", "id": 5804639562, "lat": 40.6120819, "lon": 22.9745775, "tags": {"addr:street": "\u039c\u03b9\u03ba\u03c1\u03ac\u03c2 \u0391\u03c3\u03af\u03b1\u03c2", "amenity": "pharmacy", "fixme": "name", "healthcare": "pharmacy", "source": "Kaart Ground Survey 2018"}}, {"type": "node", "id": 5804639567, "lat": 40.6118625, "lon": 22.9751746, "tags": {"addr:street": "\u039c\u03b9\u03ba\u03c1\u03ac\u03c2 \u0391\u03c3\u03af\u03b1\u03c2", "amenity": "pharmacy", "fixme": "name", "healthcare": "pharmacy", "source": "Kaart Ground Survey 2018"}}, {"type": "node", "id": 5804639572, "lat": 40.6125675, "lon": 22.9765508, "tags": {"addr:street": "\u03a0\u03c1\u03b1\u03be\u03b1\u03b3\u03cc\u03c1\u03b1", "amenity": "pharmacy", "fixme": "name", "healthcare": "pharmacy", "source": "Kaart Ground Survey 2018"}}, {"type": "node", "id": 5804686650, "lat": 40.5698552, "lon": 22.959173, "tags": {"addr:city": "\u039a\u03b1\u03bb\u03b1\u03bc\u03b1\u03c1\u03b9\u03ac", "addr:housenumber": "63", "addr:postcode": "55132", "addr:street": "\u039a\u03bf\u03c5\u03bd\u03c4\u03bf\u03c5\u03c1\u03b9\u03ce\u03c4\u03bf\u03c5", "amenity": "pharmacy", "dispensing": "yes", "drive_through": "no", "healthcare": "pharmacy", "name": "\u039a\u03bf\u03c5\u03b4\u03bf\u03cd\u03bd\u03b7-\u03a3\u03c4\u03b1\u03bc\u03ad\u03bb\u03bf\u03c2", "opening_hours": "Mo-Fr 08:00-21:00", "phone": "+30 2310 442842", "source": "Kaart Ground Survey 2018"}}, {"type": "node", "id": 5804690470, "lat": 40.5746437, "lon": 22.9678698, "tags": {"addr:street": "\u039a\u03c9\u03bd\u03c3\u03c4\u03b1\u03bd\u03c4\u03af\u03bd\u03bf\u03c5 \u039a\u03b1\u03c1\u03b1\u03bc\u03b1\u03bd\u03bb\u03ae", "amenity": "pharmacy", "healthcare": "pharmacy", "source": "Kaart Ground Survey 2018"}}, {"type": "node", "id": 5804866373, "lat": 40.6190537, "lon": 22.9748797, "tags": {"addr:housenumber": "45", "addr:postcode": "54351", "addr:street": "\u0391\u03b3\u03af\u03b1\u03c2 \u039c\u03b1\u03c1\u03af\u03bd\u03b1\u03c2", "amenity": "pharmacy", "dispensing": "yes", "healthcare": "pharmacy", "name": "\u0398\u03b5\u03bf\u03c7\u03ac\u03c1\u03b7 \u0391\u03b9\u03ba\u03b1\u03c4\u03b5\u03c1\u03af\u03bd\u03b7", "source": "Kaart Ground Survey 2018"}}, {"type": "node", "id": 5805098950, "lat": 40.6207252, "lon": 22.9663702, "tags": {"addr:housenumber": "68", "addr:postcode": "54638", "addr:street": "\u039a\u03b1\u03c4\u03c3\u03b9\u03bc\u03af\u03b4\u03b7", "amenity": "pharmacy", "dispensing": "yes", "healthcare": "pharmacy", "name": "\u03a7\u03b9\u03cc\u03bd\u03bf\u03c5 \u0398\u03b5\u03bf\u03b4\u03ce\u03c1\u03b1", "name:el": "\u03a7\u03b9\u03cc\u03bd\u03bf\u03c5 \u0398\u03b5\u03bf\u03b4\u03ce\u03c1\u03b1", "name:en": "BoxPharmacy", "source": "Kaart Ground Survey 2018", "website": "https://www.boxpharmacy.gr/"}}, {"type": "node", "id": 5805099660, "lat": 40.6215988, "lon": 22.968762, "tags": {"addr:street": "\u0395\u03bb\u03b5\u03c5\u03b8\u03b5\u03c1\u03af\u03bf\u03c5 \u0392\u03b5\u03bd\u03b9\u03b6\u03ad\u03bb\u03bf\u03c5", "amenity": "pharmacy", "healthcare": "pharmacy", "source": "Kaart Ground Survey 2018"}}, {"type": "node", "id": 5805191512, "lat": 40.5663009, "lon": 22.9601949, "tags": {"addr:street": "\u03a3. \u039b\u03c5\u03ba\u03bf\u03cd\u03b4\u03b7", "amenity": "pharmacy", "healthcare": "pharmacy", "source": "Kaart Ground Survey 2018"}}, {"type": "node", "id": 5805228212, "lat": 40.6579979, "lon": 22.9576796, "tags": {"addr:street": "\u0392\u03af\u03c4\u03c3\u03b9", "amenity": "pharmacy", "fixme": "name", "healthcare": "pharmacy", "source": "Kaart Ground Survey 2018"}}, {"type": "node", "id": 5805283181, "lat": 40.5709906, "lon": 22.9585751, "tags": {"addr:city": "\u039a\u03b1\u03bb\u03b1\u03bc\u03b1\u03c1\u03b9\u03ac", "addr:housenumber": "28", "addr:postcode": "55135", "addr:street": "\u0392\u03c1\u03c5\u03bf\u03cd\u03bb\u03c9\u03bd", "amenity": "pharmacy", "healthcare": "pharmacy", "name": "\u03a0\u03cd\u03c1\u03b6\u03b1 \u0393\u03b5\u03c9\u03c1\u03b3\u03af\u03b1", "operator": "\u03a0\u03cd\u03c1\u03b6\u03b1 \u0393. \u0393\u03b5\u03c9\u03c1\u03b3\u03af\u03b1", "source": "Kaart Ground Survey 2018"}}, {"type": "node", "id": 5805326277, "lat": 40.5676639, "lon": 22.9609817, "tags": {"addr:street": "\u039c\u03bf\u03c3\u03c7\u03bf\u03c0\u03cc\u03bb\u03b5\u03c9\u03c2", "amenity": "pharmacy", "healthcare": "pharmacy", "source": "Kaart Ground Survey 2018"}}, {"type": "node", "id": 5807246760, "lat": 40.6170304, "lon": 22.9599556, "tags": {"addr:street": "\u0391\u03bb\u03b5\u03be\u03ac\u03bd\u03b4\u03c1\u03bf\u03c5 \u03a0\u03b1\u03c0\u03b1\u03bd\u03b1\u03c3\u03c4\u03b1\u03c3\u03af\u03bf\u03c5", "amenity": "pharmacy", "fixme": "name", "healthcare": "pharmacy", "source": "Kaart Ground Survey 2018"}}, {"type": "node", "id": 5807310421, "lat": 40.6163407, "lon": 22.9551534, "tags": {"addr:street": "\u039a\u03c9\u03bd\u03c3\u03c4\u03b1\u03bd\u03c4\u03b9\u03bd\u03bf\u03c5\u03c0\u03cc\u03bb\u03b5\u03c9\u03c2", "amenity": "pharmacy", "healthcare": "pharmacy", "source": "Kaart Ground Survey 2018"}}, {"type": "node", "id": 5807365945, "lat": 40.5494408, "lon": 23.0232193, "tags": {"addr:street": "\u039a\u03b1\u03c0\u03b5\u03c4\u03ac\u03bd \u03a7\u03ac\u03c8\u03b1", "amenity": "pharmacy", "healthcare": "pharmacy", "source": "Kaart Ground Survey 2018"}}, {"type": "node", "id": 5807620270, "lat": 40.6081893, "lon": 22.9766448, "tags": {"addr:street": "\u0391\u03bc\u03c6\u03b9\u03c0\u03cc\u03bb\u03b5\u03c9\u03c2", "amenity": "pharmacy", "fixme": "name", "healthcare": "pharmacy", "name": "\u03a4\u03c3\u03b1\u03bb\u03af\u03ba\u03b7 \u0395\u03c5\u03b1\u03bd\u03b8\u03af\u03b1", "source": "Kaart Ground Survey 2018"}}, {"type": "node", "id": 5807620271, "lat": 40.6077343, "lon": 22.9783861, "tags": {"addr:street": "\u0394\u03bf\u03c1\u03c5\u03bb\u03b1\u03af\u03bf\u03c5", "amenity": "pharmacy", "healthcare": "pharmacy", "name": "\u03a1\u03cc\u03b2\u03b1 \u039a\u03c9\u03bd\u03c4\u03b1\u03bd\u03c4\u03af\u03b1", "source": "Kaart Ground Survey 2018"}}, {"type": "node", "id": 5807917576, "lat": 40.6028181, "lon": 22.9746656, "tags": {"addr:housenumber": "41", "addr:postcode": "54250", "addr:street": "\u039d\u03b9\u03ba\u03bf\u03bb\u03ac\u03bf\u03c5 \u03a0\u03bb\u03b1\u03c3\u03c4\u03ae\u03c1\u03b1", "amenity": "pharmacy", "dispensing": "yes", "healthcare": "pharmacy", "name": "\u0394\u03cc\u03c1\u03c4\u03b7 \u0391\u03bd\u03b1\u03c3\u03c4\u03b1\u03c3\u03af\u03b1", "name:el": "\u0394\u03cc\u03c1\u03c4\u03b7 \u0391\u03bd\u03b1\u03c3\u03c4\u03b1\u03c3\u03af\u03b1"}}, {"type": "node", "id": 5807917584, "lat": 40.6002123, "lon": 22.9741494, "tags": {"addr:street": "\u0393\u03b9\u03ac\u03bd\u03bd\u03b7 \u0391\u03b3\u03b3\u03ad\u03bb\u03bf\u03c5", "amenity": "pharmacy", "fixme": "name", "healthcare": "pharmacy", "source": "Kaart Ground Survey 2018"}}, {"type": "node", "id": 5808111526, "lat": 40.5761811, "lon": 22.9654033, "tags": {"addr:street": "\u039a\u03c9\u03bd\u03c3\u03c4\u03b1\u03bd\u03c4\u03af\u03bd\u03bf\u03c5 \u039a\u03b1\u03c1\u03b1\u03bc\u03b1\u03bd\u03bb\u03ae", "amenity": "pharmacy", "healthcare": "pharmacy", "source": "Kaart Ground Survey 2018"}}, {"type": "node", "id": 5812682209, "lat": 40.6007209, "lon": 22.9646771, "tags": {"addr:housenumber": "167", "addr:postcode": "54249", "addr:street": "\u039a\u03c9\u03bd\u03c3\u03c4\u03b1\u03bd\u03c4\u03af\u03bd\u03bf\u03c5 \u039a\u03b1\u03c1\u03b1\u03bc\u03b1\u03bd\u03bb\u03ae", "amenity": "pharmacy", "dispensing": "yes", "healthcare": "pharmacy", "name": "\u03a1\u03bf\u03cd\u03ba\u03b1 \u03a4\u03b6\u03ad\u03bd\u03b7", "name:el": "\u03a1\u03bf\u03cd\u03ba\u03b1 \u03a4\u03b6\u03ad\u03bd\u03b7", "name:en": "Jenny Rouka Pharmacy", "source": "Kaart Ground Survey 2018", "website": "https://www.roukapharmacy.gr/"}}, {"type": "node", "id": 5812793963, "lat": 40.5825066, "lon": 22.9600082, "tags": {"addr:street": "\u039a\u03b1\u03c5\u03ba\u03ac\u03c3\u03bf\u03c5", "amenity": "pharmacy", "healthcare": "pharmacy", "source": "Kaart Ground Survey 2018"}}, {"type": "node", "id": 5812793971, "lat": 40.5854634, "lon": 22.9620601, "tags": {"addr:street": "\u0391\u03c1\u03b9\u03c3\u03c4\u03bf\u03c4\u03ad\u03bb\u03bf\u03c5\u03c2", "amenity": "pharmacy", "healthcare": "pharmacy", "source": "Kaart Ground Survey 2018"}}, {"type": "node", "id": 5812793977, "lat": 40.5859268, "lon": 22.9620212, "tags": {"addr:street": "\u03a0\u03b5\u03c1\u03b9\u03ba\u03bb\u03ad\u03bf\u03c5\u03c2", "amenity": "pharmacy", "healthcare": "pharmacy", "source": "Kaart Ground Survey 2018"}}, {"type": "node", "id": 5812793992, "lat": 40.5890702, "lon": 22.9608679, "tags": {"addr:street": "\u0395\u03b8\u03bd\u03b9\u03ba\u03ae\u03c2 \u0391\u03bd\u03c4\u03b9\u03c3\u03c4\u03ac\u03c3\u03b5\u03c9\u03c2", "amenity": "pharmacy", "healthcare": "pharmacy", "source": "Kaart Ground Survey 2018"}}, {"type": "node", "id": 5812949772, "lat": 40.5852851, "lon": 22.9604495, "tags": {"addr:street": "\u03a0\u03b5\u03c1\u03b9\u03ba\u03bb\u03ad\u03bf\u03c5\u03c2", "amenity": "pharmacy", "healthcare": "pharmacy", "source": "Kaart Ground Survey 2018"}}, {"type": "node", "id": 5812949777, "lat": 40.5862659, "lon": 22.9589903, "tags": {"addr:street": "\u03a0\u03c1\u03bf\u03c0\u03bf\u03bd\u03c4\u03af\u03b4\u03bf\u03c2", "amenity": "pharmacy", "healthcare": "pharmacy", "source": "Kaart Ground Survey 2018"}}, {"type": "node", "id": 5812949783, "lat": 40.5889536, "lon": 22.9596515, "tags": {"addr:street": "\u0391\u03b9\u03b3\u03b1\u03af\u03bf\u03c5", "amenity": "pharmacy", "healthcare": "pharmacy", "source": "Kaart Ground Survey 2018"}}, {"type": "node", "id": 5812949788, "lat": 40.5876917, "lon": 22.9611331, "tags": {"addr:street": "\u0395\u03b8\u03bd\u03b9\u03ba\u03ae\u03c2 \u0391\u03bd\u03c4\u03b9\u03c3\u03c4\u03ac\u03c3\u03b5\u03c9\u03c2", "amenity": "pharmacy", "healthcare": "pharmacy", "name": "\u0393\u03ba\u03b5\u03c1\u03bc\u03ac\u03bd\u03b7 \u0391\u03bb\u03af\u03ba\u03b7", "source": "Kaart Ground Survey 2018"}}, {"type": "node", "id": 5812949793, "lat": 40.5858316, "lon": 22.9626593, "tags": {"addr:street": "\u0395\u03b8\u03bd\u03b9\u03ba\u03ae\u03c2 \u0391\u03bd\u03c4\u03b9\u03c3\u03c4\u03ac\u03c3\u03b5\u03c9\u03c2", "amenity": "pharmacy", "healthcare": "pharmacy", "name": "\u03a4\u03b6\u03ce\u03b3\u03b1 - \u03a4\u03c3\u03b1\u03b3\u03b3\u03b1\u03b4\u03bf\u03cd\u03c1\u03b1", "source": "Kaart Ground Survey 2018"}}, {"type": "node", "id": 5812949802, "lat": 40.5853508, "lon": 22.9631441, "tags": {"addr:street": "\u0395\u03b8\u03bd\u03b9\u03ba\u03ae\u03c2 \u0391\u03bd\u03c4\u03b9\u03c3\u03c4\u03ac\u03c3\u03b5\u03c9\u03c2", "amenity": "pharmacy", "healthcare": "pharmacy", "opening_hours": "Mo-Sa 09:00-23:00", "source": "Kaart Ground Survey 2018"}}, {"type": "node", "id": 5812949813, "lat": 40.5839367, "lon": 22.9642287, "tags": {"addr:street": "\u0395\u03b8\u03bd\u03b9\u03ba\u03ae\u03c2 \u0391\u03bd\u03c4\u03b9\u03c3\u03c4\u03ac\u03c3\u03b5\u03c9\u03c2", "amenity": "pharmacy", "healthcare": "pharmacy", "source": "Kaart Ground Survey 2018"}}, {"type": "node", "id": 5813195560, "lat": 40.6137297, "lon": 22.9803441, "tags": {"addr:street": "\u0393\u03c1\u03b7\u03b3\u03bf\u03c1\u03af\u03bf\u03c5 \u039b\u03b1\u03bc\u03c0\u03c1\u03ac\u03ba\u03b7", "amenity": "pharmacy", "healthcare": "pharmacy", "source": "Kaart Ground Survey 2018"}}, {"type": "node", "id": 5813195561, "lat": 40.6132585, "lon": 22.9813243, "tags": {"addr:street": "\u0393\u03c1\u03b7\u03b3\u03bf\u03c1\u03af\u03bf\u03c5 \u039b\u03b1\u03bc\u03c0\u03c1\u03ac\u03ba\u03b7", "amenity": "pharmacy", "healthcare": "pharmacy", "source": "Kaart Ground Survey 2018"}}, {"type": "node", "id": 5813312921, "lat": 40.6167945, "lon": 22.9773152, "tags": {"addr:street": "\u0394\u03b9\u03b1\u03b3\u03cc\u03c1\u03b1", "amenity": "pharmacy", "fixme": "name", "healthcare": "pharmacy", "source": "Kaart Ground Survey 2018"}}, {"type": "node", "id": 5813316433, "lat": 40.6107139, "lon": 22.9773259, "tags": {"addr:street": "\u0392\u03b9\u03b6\u03cd\u03b7\u03c2", "amenity": "pharmacy", "healthcare": "pharmacy", "source": "Kaart Ground Survey 2018"}}, {"type": "node", "id": 5813342019, "lat": 40.6099881, "lon": 22.9845241, "tags": {"addr:street": "\u03a7\u03c1\u03b9\u03c3\u03c4\u03bf\u03c6\u03cc\u03c1\u03bf\u03c5 \u03a0\u03b5\u03c1\u03b1\u03b9\u03b2\u03bf\u03cd", "amenity": "pharmacy", "healthcare": "pharmacy", "source": "Kaart Ground Survey 2018"}}, {"type": "node", "id": 5813353615, "lat": 40.6165519, "lon": 22.9735535, "tags": {"addr:street": "\u0391\u03b3\u03af\u03b1\u03c2 \u039c\u03b1\u03c1\u03af\u03bd\u03b1\u03c2", "amenity": "pharmacy", "fixme": "name", "healthcare": "pharmacy", "source": "Kaart Ground Survey 2018"}}, {"type": "node", "id": 5813406300, "lat": 40.6182005, "lon": 22.9785755, "tags": {"addr:street": "\u0394\u03b9\u03b1\u03b3\u03cc\u03c1\u03b1", "amenity": "pharmacy", "fixme": "name", "healthcare": "pharmacy", "name": "\u039a\u03b5\u03c1\u03b1\u03bc\u03b9\u03b4\u03b9\u03ce\u03c4\u03bf\u03c5", "source": "Kaart Ground Survey 2018"}}, {"type": "node", "id": 5852004915, "lat": 40.6292322, "lon": 22.9483271, "tags": {"addr:housenumber": "112", "addr:postcode": "53622", "addr:street": "\u0399\u03c9\u03ac\u03bd\u03bd\u03b7 \u03a4\u03c3\u03b9\u03bc\u03b9\u03c3\u03ba\u03ae", "amenity": "pharmacy", "email": "flessas.pharmacy@yahoo.gr", "healthcare": "pharmacy", "name": "\u03a6\u039b\u0395\u03a3\u03a3\u0391\u03a3 \u03a0\u0391\u039d\u0391\u0393\u0399\u03a9\u03a4\u0397\u03a3", "name:el": "\u03a6\u039b\u0395\u03a3\u03a3\u0391\u03a3 \u03a0\u0391\u039d\u0391\u0393\u0399\u03a9\u03a4\u0397\u03a3", "name:en": "FLESSAS\u2019 PHARMACY", "opening_hours": "Mo-Sa 08:00-21:00", "phone": "+302310276733", "website": "http://www.facebook.com/flessas.pharmacy", "wheelchair": "limited"}}, {"type": "node", "id": 5868704037, "lat": 40.6434246, "lon": 22.9349631, "tags": {"amenity": "pharmacy", "healthcare": "pharmacy"}}, {"type": "node", "id": 5887276518, "lat": 40.5873117, "lon": 22.9628582, "tags": {"amenity": "pharmacy", "dispensing": "yes", "healthcare": "pharmacy", "name": "\u0391\u03c1\u03b5\u03c4\u03ae \u03a4\u03b5\u03c1\u03b6\u03af\u03b4\u03bf\u03c5"}}, {"type": "node", "id": 5894491521, "lat": 40.3128491, "lon": 23.0633307, "tags": {"amenity": "pharmacy", "dispensing": "yes", "healthcare": "pharmacy"}}, {"type": "node", "id": 5907132769, "lat": 40.3118817, "lon": 23.0632884, "tags": {"amenity": "pharmacy", "healthcare": "pharmacy"}}, {"type": "node", "id": 5907132771, "lat": 40.3140977, "lon": 23.0634517, "tags": {"amenity": "pharmacy", "dispensing": "yes", "healthcare": "pharmacy"}}, {"type": "node", "id": 5918646638, "lat": 40.5992616, "lon": 22.9643053, "tags": {"addr:housenumber": "172", "addr:postcode": "54248", "addr:street": "\u039a\u03c9\u03bd\u03c3\u03c4\u03b1\u03bd\u03c4\u03af\u03bd\u03bf\u03c5 \u039a\u03b1\u03c1\u03b1\u03bc\u03b1\u03bd\u03bb\u03ae", "amenity": "pharmacy", "dispensing": "yes", "healthcare": "pharmacy", "name": "\u0393\u03b5\u03ce\u03c1\u03b3\u03b9\u03bf\u03c2 \u03a1\u03bf\u03cd\u03c0\u03b1\u03c2", "name:el": "\u03a6\u03b1\u03c1\u03bc\u03b1\u03ba\u03b5\u03af\u03bf \u0393\u03b5\u03ce\u03c1\u03b3\u03b9\u03bf\u03c2 \u03a1\u03bf\u03cd\u03c0\u03b1\u03c2"}}, {"type": "node", "id": 5926916988, "lat": 40.6448749, "lon": 22.9261636, "tags": {"amenity": "pharmacy", "dispensing": "yes", "healthcare": "pharmacy"}}, {"type": "node", "id": 5968915299, "lat": 40.6196242, "lon": 22.9569543, "tags": {"addr:city": "Thessalon\u00edki", "amenity": "pharmacy", "dispensing": "yes", "healthcare": "pharmacy", "payment:cash": "yes", "payment:credit_cards": "yes"}}, {"type": "node", "id": 5975991875, "lat": 40.6199852, "lon": 22.9693244, "tags": {"amenity": "pharmacy", "dispensing": "yes", "healthcare": "pharmacy"}}, {"type": "node", "id": 5975991877, "lat": 40.6024741, "lon": 22.9691895, "tags": {"addr:city": "\u0398\u03b5\u03c3\u03c3\u03b1\u03bb\u03bf\u03bd\u03af\u03ba\u03b7", "addr:housenumber": "140", "addr:postcode": "54249", "addr:street": "\u0391\u03bb\u03b5\u03be\u03ac\u03bd\u03b4\u03c1\u03bf\u03c5 \u03a0\u03b1\u03c0\u03b1\u03bd\u03b1\u03c3\u03c4\u03b1\u03c3\u03af\u03bf\u03c5", "amenity": "pharmacy", "dispensing": "yes", "healthcare": "pharmacy", "name": "\u039a\u03ad\u03b6\u03bf\u03c2 \u0394\u03b7\u03bc\u03ae\u03c4\u03c1\u03b9\u03bf\u03c2", "phone": "+30 2310 301213"}}, {"type": "node", "id": 5975991881, "lat": 40.6030702, "lon": 22.9701046, "tags": {"addr:postcode": "54250", "amenity": "pharmacy", "dispensing": "yes", "healthcare": "pharmacy"}}, {"type": "node", "id": 6007041872, "lat": 40.6426388, "lon": 22.9391056, "tags": {"amenity": "pharmacy", "dispensing": "yes", "healthcare": "pharmacy"}}, {"type": "node", "id": 6013295637, "lat": 40.586959, "lon": 22.9617628, "tags": {"amenity": "pharmacy", "dispensing": "yes", "healthcare": "pharmacy", "name": "\u039c\u03b1\u03c1\u03af\u03b1 \u0394. \u03a0\u03ac\u03bd\u03b1"}}, {"type": "node", "id": 6053759637, "lat": 40.6083428, "lon": 22.9562463, "tags": {"amenity": "pharmacy", "healthcare": "pharmacy"}}, {"type": "node", "id": 6053773404, "lat": 40.6062945, "lon": 22.9532456, "tags": {"amenity": "pharmacy", "healthcare": "pharmacy"}}, {"type": "node", "id": 6053773405, "lat": 40.6104554, "lon": 22.9560398, "tags": {"amenity": "pharmacy", "healthcare": "pharmacy"}}, {"type": "node", "id": 6053784099, "lat": 40.6209317, "lon": 22.9622118, "tags": {"amenity": "pharmacy", "healthcare": "pharmacy"}}, {"type": "node", "id": 6053784102, "lat": 40.609132, "lon": 22.9576804, "tags": {"amenity": "pharmacy", "healthcare": "pharmacy"}}, {"type": "node", "id": 6053789587, "lat": 40.6216128, "lon": 22.9620636, "tags": {"amenity": "pharmacy", "healthcare": "pharmacy"}}, {"type": "node", "id": 6053793189, "lat": 40.6129906, "lon": 22.960769, "tags": {"amenity": "pharmacy", "healthcare": "pharmacy"}}, {"type": "node", "id": 6068712887, "lat": 40.6315409, "lon": 22.9470683, "tags": {"amenity": "pharmacy", "healthcare": "pharmacy"}}, {"type": "node", "id": 6100515470, "lat": 40.63105, "lon": 22.9464438, "tags": {"amenity": "pharmacy", "healthcare": "pharmacy"}}, {"type": "node", "id": 6118502443, "lat": 40.6339512, "lon": 22.9467477, "tags": {"addr:city": "\u0398\u03b5\u03c3\u03c3\u03b1\u03bb\u03bf\u03bd\u03af\u03ba\u03b7", "addr:housenumber": "44", "addr:street": "\u0391\u03b3\u03af\u03b1\u03c2 \u03a3\u03bf\u03c6\u03af\u03b1\u03c2", "amenity": "pharmacy", "healthcare": "pharmacy", "name": "\u039c\u03b1\u03bd\u03bf\u03c5\u03c3\u03af\u03b4\u03b7\u03c2", "opening_hours": "Mo-Fr 08:30-21:00; Sa 09:00-17:00; Su off"}}, {"type": "node", "id": 6206045124, "lat": 40.5758076, "lon": 22.9494636, "tags": {"addr:city": "\u0391\u03c1\u03b5\u03c4\u03c3\u03bf\u03cd", "addr:housenumber": "12", "addr:postcode": "55132", "addr:street": "\u0395\u03c5\u03b5\u03bb\u03c0\u03af\u03b4\u03bf\u03c5 \u0394\u03b7\u03bc\u03ae\u03c4\u03c1\u03b9\u03bf\u03c5", "amenity": "pharmacy", "dispensing": "yes", "healthcare": "pharmacy", "name": "\u0396\u03c5\u03bc\u03ac\u03ba\u03b1 \u0391\u03bd\u03b1\u03c3\u03c4\u03b1\u03c3\u03af\u03b1"}}, {"type": "node", "id": 6368278521, "lat": 40.6218463, "lon": 22.9652765, "tags": {"amenity": "pharmacy", "dispensing": "yes", "healthcare": "pharmacy", "name": "\u03a6\u03c9\u03c4\u03b9\u03ac\u03b4\u03bf\u03c5 \u03a3\u03bf\u03c6\u03af\u03b1"}}, {"type": "node", "id": 6560768683, "lat": 40.4125925, "lon": 23.0067689, "tags": {"amenity": "pharmacy", "healthcare": "pharmacy"}}, {"type": "node", "id": 6742397876, "lat": 40.5994211, "lon": 22.9588368, "tags": {"addr:housenumber": "7", "addr:postcode": "54248", "addr:street": "\u039a\u03b1\u03c1\u03b1\u03ba\u03ac\u03c3\u03b7", "amenity": "pharmacy", "dispensing": "yes", "healthcare": "pharmacy", "name": "\u03a6\u03b1\u03c1\u03bc\u03b1\u03ba\u03b5\u03af\u03bf \u0391\u03bd\u03c4\u03c9\u03bd\u03cc\u03c0\u03bf\u03c5\u03bb\u03bf\u03c2 \u0394\u03b7\u03bc\u03ae\u03c4\u03c1\u03b9\u03bf\u03c2"}}, {"type": "node", "id": 6746232119, "lat": 40.6043491, "lon": 22.9679322, "tags": {"addr:city": "\u0398\u03b5\u03c3\u03c3\u03b1\u03bb\u03bf\u03bd\u03af\u03ba\u03b7", "addr:housenumber": "45", "addr:postcode": "54249", "addr:street": "\u0398\u03b5\u03bf\u03b4\u03ce\u03c1\u03bf\u03c5 \u039d\u03ac\u03c4\u03c3\u03b9\u03bd\u03b1", "amenity": "pharmacy", "dispensing": "yes", "healthcare": "pharmacy", "name": "\u039e\u03b1\u03bd\u03b8\u03cc\u03c0\u03bf\u03c5\u03bb\u03bf\u03c2 \u03a7\u03c1\u03ae\u03c3\u03c4\u03bf\u03c2", "phone": "+30 2310 302964"}}, {"type": "node", "id": 6796281528, "lat": 40.4610607, "lon": 22.8613854, "tags": {"addr:city": "\u039d\u03ad\u03b1 \u039c\u03b7\u03c7\u03b1\u03bd\u03b9\u03ce\u03bd\u03b1", "addr:postcode": "57004", "addr:street": "\u0391\u03b3\u03af\u03bf\u03c5 \u039d\u03b9\u03ba\u03bf\u03bb\u03ac\u03bf\u03c5", "amenity": "pharmacy", "dispensing": "yes", "healthcare": "pharmacy", "name": "\u03a6\u03b1\u03c1\u03bc\u03b1\u03ba\u03b5\u03af\u03bf \u03a0\u0395\u039d\u03a4\u0391\u03a1\u0391\u039a\u0397\u03a3 \u0393\u0395\u03a9\u03a1\u0393\u0399\u039f\u03a3 \u039a\u0391\u0399 \u03a3\u0399\u0391 \u0395.\u0395."}}, {"type": "node", "id": 6796298703, "lat": 40.4641088, "lon": 22.8592499, "tags": {"addr:city": "\u039d\u03ad\u03b1 \u039c\u03b7\u03c7\u03b1\u03bd\u03b9\u03ce\u03bd\u03b1", "addr:housenumber": "31", "addr:postcode": "57004", "addr:street": "\u0391\u03b3\u03af\u03bf\u03c5 \u039d\u03b9\u03ba\u03bf\u03bb\u03ac\u03bf\u03c5", "amenity": "pharmacy", "dispensing": "yes", "healthcare": "pharmacy", "name": "\u03a6\u03b1\u03c1\u03bc\u03b1\u03ba\u03b5\u03af\u03bf \u039a\u03b1\u03c4\u03c3\u03b1\u0390\u03c4\u03b7 \u0395\u03bb\u03b9\u03c3\u03ac\u03b2\u03b5\u03c4 & \u03a3\u0399\u0391 \u0395.\u0395."}}, {"type": "node", "id": 6827083333, "lat": 40.6123742, "lon": 22.9648731, "tags": {"addr:city": "\u0398\u03b5\u03c3\u03c3\u03b1\u03bb\u03bf\u03bd\u03af\u03ba\u03b7", "addr:housenumber": "24", "addr:postcode": "54453", "addr:street": "\u039a\u03bb\u03b5\u03ac\u03bd\u03b8\u03bf\u03c5\u03c2", "amenity": "pharmacy", "ele": "-1", "healthcare": "pharmacy", "name": "eshop128.gr", "name:en": "Pharmacy128 | Eshop128", "opening_hours": "Mo-Fr 08:00-21:00, Sa 08:00-20:00", "website": "https://www.pharmacy128.gr/"}}, {"type": "node", "id": 6892178485, "lat": 40.6355815, "lon": 22.947036, "tags": {"amenity": "pharmacy", "healthcare": "pharmacy"}}, {"type": "node", "id": 6896185787, "lat": 40.6196138, "lon": 22.9568729, "tags": {"amenity": "pharmacy", "healthcare": "pharmacy"}}, {"type": "node", "id": 6896185789, "lat": 40.6190426, "lon": 22.9542027, "tags": {"amenity": "pharmacy", "healthcare": "pharmacy"}}, {"type": "node", "id": 6896951287, "lat": 40.6324742, "lon": 22.9504458, "tags": {"amenity": "pharmacy", "healthcare": "pharmacy"}}, {"type": "node", "id": 6896951288, "lat": 40.6328814, "lon": 22.9507719, "tags": {"amenity": "pharmacy", "healthcare": "pharmacy", "name": "\u0396\u03ac\u03c7\u03bf\u03c2 \u0393\u03b5\u03ce\u03c1\u03b3\u03b9\u03bf\u03c2", "opening_hours:signed": "no", "wheelchair": "yes"}}, {"type": "node", "id": 6896951688, "lat": 40.6355134, "lon": 22.9502442, "tags": {"amenity": "pharmacy", "healthcare": "pharmacy"}}, {"type": "node", "id": 6896951695, "lat": 40.64098, "lon": 22.9403207, "tags": {"amenity": "pharmacy", "healthcare": "pharmacy"}}, {"type": "node", "id": 6896951698, "lat": 40.6417254, "lon": 22.9399946, "tags": {"amenity": "pharmacy", "healthcare": "pharmacy", "name": "\u03a4\u03c3\u03b9\u03ce\u03c0\u03b7 \u0386\u03bd\u03bd\u03b1"}}, {"type": "node", "id": 6896951699, "lat": 40.6425834, "lon": 22.9392117, "tags": {"amenity": "pharmacy", "healthcare": "pharmacy"}}, {"type": "node", "id": 6896951703, "lat": 40.6413129, "lon": 22.9422648, "tags": {"amenity": "pharmacy", "healthcare": "pharmacy", "name": "\u03bc\u03b5\u03bb\u03ad\u03c4\u03b7\u03c2 \u03ba\u03bf\u03c3\u03bc\u03b1\u03c2"}}, {"type": "node", "id": 6896951786, "lat": 40.6404422, "lon": 22.9422671, "tags": {"amenity": "pharmacy", "healthcare": "pharmacy"}}, {"type": "node", "id": 6896969886, "lat": 40.6412475, "lon": 22.9483248, "tags": {"amenity": "pharmacy", "healthcare": "pharmacy"}}, {"type": "node", "id": 6897850995, "lat": 40.6052294, "lon": 22.9525419, "tags": {"amenity": "pharmacy", "healthcare": "pharmacy"}}, {"type": "node", "id": 6897851096, "lat": 40.6096452, "lon": 22.960039, "tags": {"amenity": "pharmacy", "healthcare": "pharmacy"}}, {"type": "node", "id": 6897851098, "lat": 40.6122411, "lon": 22.9610162, "tags": {"amenity": "pharmacy", "healthcare": "pharmacy"}}, {"type": "node", "id": 6897851288, "lat": 40.6355836, "lon": 22.9484451, "tags": {"amenity": "pharmacy", "check_date": "2022-08-31", "healthcare": "pharmacy", "name": "\u03a3\u03b9\u03ce\u03c4\u03b1"}}, {"type": "node", "id": 6897851291, "lat": 40.6345391, "lon": 22.9508464, "tags": {"amenity": "pharmacy", "healthcare": "pharmacy", "name": "\u03a4\u03ad\u03b6\u03b9\u03b1\u03c2 \u03a3. \u03a3\u03c9\u03c4\u1f20\u03c1\u03b9\u03bf\u03c2", "opening_hours:signed": "no", "wheelchair": "yes"}}, {"type": "node", "id": 6897851304, "lat": 40.608726, "lon": 22.9532675, "tags": {"addr:housenumber": "74", "addr:postcode": "54643", "addr:street": "\u0392\u03b1\u03c3\u03b9\u03bb\u03af\u03c3\u03c3\u03b7\u03c2 \u038c\u03bb\u03b3\u03b1\u03c2", "amenity": "pharmacy", "dispensing": "yes", "healthcare": "pharmacy", "name": "\u0392\u03a1\u0395\u03a4\u03a4\u0391 \u039a\u03a5\u03a1\u0399\u0391\u039a\u0397 - \u0392\u03a1\u0395\u03a4\u03a4\u0391 \u0391\u039d\u039d\u0391", "name:el": "\u0392\u03a1\u0395\u03a4\u03a4\u0391 \u039a\u03a5\u03a1\u0399\u0391\u039a\u0397 - \u0392\u03a1\u0395\u03a4\u03a4\u0391 \u0391\u039d\u039d\u0391"}}, {"type": "node", "id": 6897851306, "lat": 40.6056823, "lon": 22.9566002, "tags": {"amenity": "pharmacy", "healthcare": "pharmacy"}}, {"type": "node", "id": 6898520992, "lat": 40.63657, "lon": 22.9401102, "tags": {"amenity": "pharmacy", "healthcare": "pharmacy", "name": "\u039a\u03c5\u03c1\u03bf\u03b4\u03ae\u03bc\u03bf\u03c5 \u0391\u03bb\u03ba\u03bc\u03ae\u03bd\u03b7"}}, {"type": "node", "id": 6898520993, "lat": 40.635316, "lon": 22.941827, "tags": {"amenity": "pharmacy", "healthcare": "pharmacy", "level": "0"}}, {"type": "node", "id": 6898521097, "lat": 40.6337891, "lon": 22.9459047, "tags": {"amenity": "pharmacy", "healthcare": "pharmacy", "name": "\u0391\u03c0\u03bf\u03c3\u03c4\u03cc\u03bb\u03bf\u03c5"}}, {"type": "node", "id": 6899849485, "lat": 40.6389584, "lon": 22.9413186, "tags": {"amenity": "pharmacy", "healthcare": "pharmacy"}}, {"type": "node", "id": 6900269199, "lat": 40.6479614, "lon": 22.9379208, "tags": {"amenity": "pharmacy", "healthcare": "pharmacy"}}, {"type": "node", "id": 6900269219, "lat": 40.6510744, "lon": 22.944664, "tags": {"amenity": "pharmacy", "healthcare": "pharmacy"}}, {"type": "node", "id": 6900269223, "lat": 40.6500439, "lon": 22.9436104, "tags": {"amenity": "pharmacy", "healthcare": "pharmacy", "name": "\u03a6\u03b1\u03c1\u03bc\u03b1\u03ba\u03b5\u03af\u03bf \u039a\u03c5\u03c1\u03b9\u03ac\u03ba\u03bf\u03c2 \u03a0. \u039a\u03bf\u03c4\u03c3\u03b1\u03bb\u03ae\u03c2"}}, {"type": "node", "id": 6900269230, "lat": 40.6386041, "lon": 22.9420332, "tags": {"amenity": "pharmacy", "healthcare": "pharmacy"}}, {"type": "node", "id": 6900283091, "lat": 40.6468523, "lon": 22.9383615, "tags": {"amenity": "pharmacy", "healthcare": "pharmacy"}}, {"type": "node", "id": 6900283093, "lat": 40.6520364, "lon": 22.9383996, "tags": {"amenity": "pharmacy", "healthcare": "pharmacy"}}, {"type": "node", "id": 6900283489, "lat": 40.6513594, "lon": 22.9375095, "tags": {"amenity": "pharmacy", "healthcare": "pharmacy"}}, {"type": "node", "id": 6900283494, "lat": 40.654077, "lon": 22.9390749, "tags": {"amenity": "pharmacy", "healthcare": "pharmacy"}}, {"type": "node", "id": 7023359880, "lat": 40.6027254, "lon": 22.9628355, "tags": {"addr:housenumber": "158", "addr:postcode": "54248", "addr:street": "\u0393\u03b1\u03bc\u03b2\u03ad\u03c4\u03c4\u03b1", "amenity": "pharmacy", "dispensing": "yes", "healthcare": "pharmacy", "name": "\u03a0\u03b9\u03c4\u03b1\u03c1\u03ac\u03ba\u03b7 \u039a\u03c5\u03c1\u03b9\u03b1\u03ba\u03ae", "name:el": "\u03a0\u03b9\u03c4\u03b1\u03c1\u03ac\u03ba\u03b7 \u039a\u03c5\u03c1\u03b9\u03b1\u03ba\u03ae"}}, {"type": "node", "id": 7023400075, "lat": 40.6024722, "lon": 22.9647134, "tags": {"addr:city": "\u0398\u03b5\u03c3\u03c3\u03b1\u03bb\u03bf\u03bd\u03af\u03ba\u03b7", "addr:housenumber": "99", "addr:postcode": "54249", "addr:street": "25\u03b7\u03c2 \u039c\u03b1\u03c1\u03c4\u03af\u03bf\u03c5", "amenity": "pharmacy", "dispensing": "yes", "healthcare": "pharmacy", "name": "\u03a0\u03b1\u03c0\u03b1\u03b4\u03ad\u03bb\u03b7\u03c2"}}, {"type": "node", "id": 7023441337, "lat": 40.6039568, "lon": 22.966515, "tags": {"addr:housenumber": "31", "addr:postcode": "54249", "addr:street": "\u0398\u03b5\u03bf\u03b4\u03ce\u03c1\u03bf\u03c5 \u039d\u03ac\u03c4\u03c3\u03b9\u03bd\u03b1", "amenity": "pharmacy", "dispensing": "yes", "healthcare": "pharmacy", "name": "\u03a3\u03b5\u03b2\u03b1\u03c3\u03c4\u03bf\u03c0\u03bf\u03cd\u03bb\u03bf\u03c5 \u0391. - \u03a4\u03c3\u03ac\u03ba\u03b1\u03c2 \u039c.", "name:el": "\u03a3\u03b5\u03b2\u03b1\u03c3\u03c4\u03bf\u03c0\u03bf\u03cd\u03bb\u03bf\u03c5 \u0391\u03bd\u03b1\u03c3\u03c4\u03b1\u03c3\u03af\u03b1 - \u03a4\u03c3\u03ac\u03ba\u03b1\u03c2 \u039c\u03b9\u03c7\u03b1\u03ae\u03bb", "phone": "+30 2310 311712"}}, {"type": "node", "id": 7044780028, "lat": 40.6088815, "lon": 22.9838147, "tags": {"addr:street": "\u03a7\u03c1\u03b9\u03c3\u03c4\u03bf\u03c6\u03cc\u03c1\u03bf\u03c5 \u03a0\u03b5\u03c1\u03b1\u03b9\u03b2\u03bf\u03cd", "amenity": "pharmacy", "dispensing": "yes", "drive_through": "no", "healthcare": "pharmacy"}}, {"type": "node", "id": 7080118732, "lat": 40.6371364, "lon": 22.9465892, "tags": {"amenity": "pharmacy", "dispensing": "yes", "healthcare": "pharmacy"}}, {"type": "node", "id": 7086094503, "lat": 40.6298224, "lon": 22.9464199, "tags": {"amenity": "pharmacy", "dispensing": "yes", "healthcare": "pharmacy"}}, {"type": "node", "id": 7086284653, "lat": 40.6322619, "lon": 22.9419378, "tags": {"amenity": "pharmacy", "dispensing": "yes", "healthcare": "pharmacy"}}, {"type": "node", "id": 7107747722, "lat": 40.6085559, "lon": 22.967836, "tags": {"amenity": "pharmacy", "dispensing": "yes", "healthcare": "pharmacy", "name": "\u039a\u03bf\u03c4\u03c3\u03b1\u03bc\u03c0\u03b1\u03c3\u03ac\u03ba\u03bf\u03c5 \u03a0\u03b1\u03bd\u03b1\u03b3\u03b9\u03ce\u03c4\u03b1", "phone": "+30 2310 947150"}}, {"type": "node", "id": 7124281010, "lat": 40.631922, "lon": 22.9470945, "tags": {"amenity": "pharmacy", "dispensing": "yes", "healthcare": "pharmacy"}}, {"type": "node", "id": 7124289523, "lat": 40.6355396, "lon": 22.9497558, "tags": {"amenity": "pharmacy", "dispensing": "yes", "healthcare": "pharmacy"}}, {"type": "node", "id": 7124289532, "lat": 40.6340195, "lon": 22.9494184, "tags": {"amenity": "pharmacy", "dispensing": "yes", "healthcare": "pharmacy"}}, {"type": "node", "id": 7180457239, "lat": 40.5901691, "lon": 22.9612763, "tags": {"addr:city": "\u039a\u03b7\u03c6\u03b9\u03c3\u03b9\u03ac", "addr:housenumber": "13", "addr:postcode": "55134", "addr:street": "\u0391\u03b9\u03b3\u03b1\u03af\u03bf\u03c5", "amenity": "pharmacy", "dispensing": "yes", "email": "nikoltsiospharmacy@gmail.com", "healthcare": "pharmacy", "name": "\u039d\u03b9\u03ba\u03cc\u03bb\u03c4\u03c3\u03b9\u03bf\u03c2 - \u03a7\u03b1\u03b4\u03b9\u03ac"}}, {"type": "node", "id": 7183448737, "lat": 40.5854536, "lon": 22.9472393, "tags": {"addr:city": "\u039a\u03b1\u03bb\u03b1\u03bc\u03b1\u03c1\u03b9\u03ac", "addr:housenumber": "95-97", "addr:postcode": "55131", "addr:street": "\u039c\u03b7\u03c4\u03c1\u03bf\u03c0\u03bf\u03bb\u03af\u03c4\u03bf\u03c5 \u039a\u03b1\u03bb\u03bb\u03af\u03b4\u03bf\u03c5", "amenity": "pharmacy", "dispensing": "yes", "drive_through": "no", "healthcare": "pharmacy", "name": "\u039a\u03b1\u03c1\u03bf\u03cd\u03c4\u03b1\u03c2", "phone": "+30 2310 412013"}}, {"type": "node", "id": 7229119449, "lat": 40.5699446, "lon": 22.9726045, "tags": {"addr:city": "\u039a\u03b1\u03bb\u03b1\u03bc\u03b1\u03c1\u03b9\u03ac", "addr:housenumber": "1", "addr:street": "\u039d\u03b9\u03ba\u03bf\u03bb\u03ac\u03bf\u03c5 \u03a3\u03c4\u03c1\u03b1\u03c4\u03bf\u03cd", "amenity": "pharmacy", "dispensing": "yes", "healthcare": "pharmacy", "name": "\u03a6\u0391\u03a1\u039c\u0391\u039a\u0395\u0399\u039f \u03a0\u0391\u03a5\u039b\u0399\u0394\u0397\u03a3 \u039a\u039f\u03a3\u039c\u0391\u03a3 - PHARMACY PAVLIDIS KOSMAS"}}, {"type": "node", "id": 7397517413, "lat": 40.6301505, "lon": 22.9456577, "tags": {"addr:city": "\u0398\u03b5\u03c3\u03c3\u03b1\u03bb\u03bf\u03bd\u03af\u03ba\u03b7", "addr:housenumber": "66", "addr:postcode": "54622", "addr:street": "\u039c\u03b7\u03c4\u03c1\u03bf\u03c0\u03cc\u03bb\u03b5\u03c9\u03c2", "amenity": "pharmacy", "dispensing": "yes", "drive_through": "no", "healthcare": "pharmacy", "name": "\u0399\u03b1\u03c4\u03c1\u03bf\u03cd - \u03a0\u03b1\u03c0\u03b1\u03ba\u03ce\u03c3\u03c4\u03b1", "name:el": "\u0399\u03b1\u03c4\u03c1\u03bf\u03cd - \u03a0\u03b1\u03c0\u03b1\u03ba\u03ce\u03c3\u03c4\u03b1", "name:en": "Iatrou - Papakosta"}}, {"type": "node", "id": 7632368667, "lat": 40.5972339, "lon": 22.9810357, "tags": {"addr:city": "\u0398\u03b5\u03c3\u03c3\u03b1\u03bb\u03bf\u03bd\u03af\u03ba\u03b7", "addr:housenumber": "14", "addr:postcode": "55535", "addr:street": "\u039c\u03b5\u03b3\u03ac\u03bb\u03bf\u03c5 \u0391\u03bb\u03b5\u03be\u03ac\u03bd\u03b4\u03c1\u03bf\u03c5", "amenity": "pharmacy", "dispensing": "yes", "healthcare": "pharmacy", "name": "\u03a6\u03b1\u03c1\u03bc\u03b1\u03ba\u03b5\u03af\u03bf \u039c\u03bf\u03cd\u03b3\u03b9\u03bf\u03c5 \u0395\u03b9\u03c1\u03ae\u03bd\u03b7"}}, {"type": "node", "id": 7633358633, "lat": 40.6045683, "lon": 22.9687611, "tags": {"addr:city": "\u0398\u03b5\u03c3\u03c3\u03b1\u03bb\u03bf\u03bd\u03af\u03ba\u03b7", "addr:housenumber": "123", "addr:postcode": "54250", "addr:street": "\u0391\u03bb\u03b5\u03be\u03ac\u03bd\u03b4\u03c1\u03bf\u03c5 \u03a0\u03b1\u03c0\u03b1\u03bd\u03b1\u03c3\u03c4\u03b1\u03c3\u03af\u03bf\u03c5", "amenity": "pharmacy", "dispensing": "yes", "healthcare": "pharmacy", "name": "\u039c\u03c0\u03c1\u03bf\u03c5\u03c3\u03ac\u03bb\u03b7\u03c2 \u0391\u03bd\u03b4\u03c1\u03ad\u03b1\u03c2", "name:el": "\u039a.\u039a. \u039c\u03c0\u03c1\u03bf\u03c5\u03c3\u03ac\u03bb\u03b7 \u0391\u03bd\u03b4\u03c1\u03ad\u03b1", "phone": "+30 2310 306438"}}, {"type": "node", "id": 7634879844, "lat": 40.6033425, "lon": 22.9678645, "tags": {"addr:city": "\u0398\u03b5\u03c3\u03c3\u03b1\u03bb\u03bf\u03bd\u03af\u03ba\u03b7", "addr:housenumber": "129", "addr:postcode": "54249", "addr:street": "25\u03b7\u03c2 \u039c\u03b1\u03c1\u03c4\u03af\u03bf\u03c5", "amenity": "pharmacy", "dispensing": "yes", "healthcare": "pharmacy", "name": "\u039d\u03b9\u03ba\u03bf\u03bb\u03b1\u0390\u03b4\u03bf\u03c5 \u0395. - \u0399\u03c9\u03c3\u03b7\u03c6\u03af\u03b4\u03bf\u03c5 \u0395.", "name:el": "\u039d\u03b9\u03ba\u03bf\u03bb\u03b1\u0390\u03b4\u03bf\u03c5 \u0395\u03c5\u03bc\u03bf\u03c1\u03c6\u03af\u03b1 - \u0399\u03c9\u03c3\u03b7\u03c6\u03af\u03b4\u03bf\u03c5 \u0395\u03c5\u03b1\u03bd\u03b8\u03af\u03b1", "phone": "+30 2310 300238"}}, {"type": "node", "id": 7642502147, "lat": 40.6074163, "lon": 22.9628101, "tags": {"addr:city": "\u0398\u03b5\u03c3\u03c3\u03b1\u03bb\u03bf\u03bd\u03af\u03ba\u03b7", "addr:housenumber": "88", "addr:postcode": "54644", "addr:street": "\u039c\u03ac\u03c1\u03ba\u03bf\u03c5 \u039c\u03c0\u03cc\u03c4\u03c3\u03b1\u03c1\u03b7", "amenity": "pharmacy", "dispensing": "yes", "healthcare": "pharmacy"}}, {"type": "node", "id": 7645641979, "lat": 40.6002493, "lon": 22.956793, "tags": {"addr:housenumber": "41", "addr:postcode": "54645", "addr:street": "25\u03b7\u03c2 \u039c\u03b1\u03c1\u03c4\u03af\u03bf\u03c5", "amenity": "pharmacy", "dispensing": "yes", "healthcare": "pharmacy", "name": "\u03a6\u03b1\u03c1\u03bc\u03b1\u03ba\u03b5\u03af\u03bf \u0391\u03bd\u03b5\u03bc\u03bf\u03cd\u03b4\u03b7 \u039a\u03b1\u03bb\u03bb\u03b9\u03c1\u03cc\u03b7", "name:el": "\u03a6\u03b1\u03c1\u03bc\u03b1\u03ba\u03b5\u03af\u03bf \u0391\u03bd\u03b5\u03bc\u03bf\u03cd\u03b4\u03b7 \u039a\u03b1\u03bb\u03bb\u03b9\u03c1\u03cc\u03b7"}}, {"type": "node", "id": 7645753367, "lat": 40.5984473, "lon": 22.9551007, "tags": {"addr:housenumber": "166", "addr:postcode": "54646", "addr:street": "\u0392\u03b1\u03c3\u03b9\u03bb\u03af\u03c3\u03c3\u03b7\u03c2 \u038c\u03bb\u03b3\u03b1\u03c2", "amenity": "pharmacy", "dispensing": "yes", "healthcare": "pharmacy", "name": "\u03a0\u03b1\u03c1\u03b1\u03c3\u03ba\u03b5\u03c5\u03ac\u03ba\u03b7\u03c2 \u0393\u03b5\u03ce\u03c1\u03b3\u03b9\u03bf\u03c2"}}, {"type": "node", "id": 8233431576, "lat": 40.3795107, "lon": 23.4405198, "tags": {"amenity": "pharmacy", "dispensing": "yes", "healthcare": "pharmacy", "name": "\u03a6\u03b1\u03c1\u03bc\u03b1\u03ba\u03b5\u03af\u03bf \u03a0\u03b1\u03c0\u03b1\u03bc\u03ac\u03be\u03b9\u03bc\u03bf\u03c5 \u0399\u03cc\u03bb\u03b7-\u0391\u03b8\u03b1\u03bd\u03b1\u03c3\u03af\u03b1"}}, {"type": "node", "id": 8233652120, "lat": 40.4694923, "lon": 22.9693329, "tags": {"addr:city": "\u03a4\u03c1\u03af\u03bb\u03bf\u03c6\u03bf\u03c2", "addr:housenumber": "50", "addr:postcode": "57500", "addr:street": "\u039c\u03b5\u03b3\u03ac\u03bb\u03bf\u03c5 \u0391\u03bb\u03b5\u03be\u03ac\u03bd\u03b4\u03c1\u03bf\u03c5", "amenity": "pharmacy", "dispensing": "yes", "healthcare": "pharmacy", "name": "\u03a6\u03b1\u03c1\u03bc\u03b1\u03ba\u03b5\u03af\u03bf \u039a\u03c9\u03c3\u03c4\u03af\u03ba\u03b1\u03c2 \u039a\u03c9\u03bd\u03c3\u03c4\u03b1\u03bd\u03c4\u03af\u03bd\u03bf\u03c2"}}, {"type": "node", "id": 8460338614, "lat": 40.6307409, "lon": 23.0424125, "tags": {"addr:city": "\u0395\u03be\u03bf\u03c7\u03ae", "addr:housenumber": "18", "addr:postcode": "57010", "addr:street": "\u03a0\u03b1\u03c0\u03b1\u03bd\u03b9\u03ba\u03bf\u03bb\u03ac\u03bf\u03c5", "amenity": "pharmacy", "dispensing": "yes", "healthcare": "pharmacy", "name": "\u03a0\u03b1\u03c1\u03af\u03c3\u03b7-\u03a4\u03c5\u03c1\u03b9\u03bb\u03b9\u03ce\u03bc\u03b7 \u0386\u03bd\u03bd\u03b1"}}, {"type": "node", "id": 8460338615, "lat": 40.6299685, "lon": 23.0435295, "tags": {"addr:city": "\u0395\u03be\u03bf\u03c7\u03ae", "addr:postcode": "57010", "addr:street": "\u03a0\u03b1\u03c0\u03b1\u03bd\u03b9\u03ba\u03bf\u03bb\u03ac\u03bf\u03c5", "amenity": "pharmacy", "dispensing": "yes", "healthcare": "pharmacy", "name": "\u03a3\u03c0\u03c5\u03c1\u03af\u03b4\u03bf\u03c5 \u0392\u03b1\u03bb\u03b5\u03bd\u03c4\u03af\u03bd\u03b7 - \u03a3\u03c0\u03c5\u03c1\u03af\u03b4\u03bf\u03c5 \u0395\u03c5\u03b1\u03bd\u03b8\u03af\u03b1"}}, {"type": "node", "id": 8463563006, "lat": 40.4757642, "lon": 22.9574527, "tags": {"addr:city": "\u03a0\u03bb\u03b1\u03b3\u03b9\u03ac\u03c1\u03b9", "addr:street": "\u039c\u03b9\u03b1\u03bf\u03cd\u03bb\u03b7", "amenity": "pharmacy", "dispensing": "yes", "healthcare": "pharmacy", "name": "\u03a6\u03b1\u03c1\u03bc\u03b1\u03ba\u03b5\u03af\u03bf \u039c\u03b1\u03c5\u03c1\u03bf\u03bc\u03ac\u03c4\u03b7", "website": "https://pharmavromati.gr/"}}, {"type": "node", "id": 8463563007, "lat": 40.4736397, "lon": 22.9567581, "tags": {"addr:city": "\u03a0\u03bb\u03b1\u03b3\u03b9\u03ac\u03c1\u03b9", "addr:housenumber": "32", "addr:postcode": "57500", "addr:street": "\u039c\u03b9\u03b1\u03bf\u03cd\u03bb\u03b7", "amenity": "pharmacy", "dispensing": "yes", "healthcare": "pharmacy", "name": "\u0391\u03b3\u03b3\u03bf\u03c5\u03c1\u03ac \u0391\u03c1\u03b5\u03c4\u03ae", "name:el": "\u03a6\u03b1\u03c1\u03bc\u03b1\u03ba\u03b5\u03af\u03bf \u0391\u03b3\u03b3\u03bf\u03c5\u03c1\u03ac \u0391\u03c1\u03b5\u03c4\u03ae"}}, {"type": "node", "id": 8463563008, "lat": 40.471713, "lon": 22.9573802, "tags": {"addr:city": "\u03a0\u03bb\u03b1\u03b3\u03b9\u03ac\u03c1\u03b9", "addr:housenumber": "47", "addr:postcode": "57500", "addr:street": "\u039c\u03b9\u03b1\u03bf\u03cd\u03bb\u03b7", "amenity": "pharmacy", "dispensing": "yes", "healthcare": "pharmacy", "name": "\u03a6\u03b1\u03c1\u03bc\u03b1\u03ba\u03b5\u03af\u03bf \u039c\u03b1\u03c1\u03b9\u03bd\u03bf\u03cd\u03b4\u03b7 \u0395\u03c5\u03c6\u03c1\u03bf\u03c3\u03cd\u03bd\u03b7"}}, {"type": "node", "id": 8463595784, "lat": 40.4757102, "lon": 22.972431, "tags": {"addr:city": "\u03a4\u03c1\u03af\u03bb\u03bf\u03c6\u03bf\u03c2", "addr:housenumber": "21", "addr:postcode": "57500", "addr:street": "\u039c\u03b5\u03b3\u03ac\u03bb\u03bf\u03c5 \u0391\u03bb\u03b5\u03be\u03ac\u03bd\u03b4\u03c1\u03bf\u03c5", "amenity": "pharmacy", "dispensing": "yes", "healthcare": "pharmacy", "name": "\u03a6\u03b1\u03c1\u03bc\u03b1\u03ba\u03b5\u03af\u03bf \u03a3\u03ba\u03bf\u03c1\u03b4\u03ad\u03bb\u03b7 \u0391\u03bd\u03b1\u03c3\u03c4\u03b1\u03c3\u03af\u03b1", "website": "https://farmakeiotrilofos.gr/"}}, {"type": "node", "id": 8463595785, "lat": 40.4678669, "lon": 22.9694988, "tags": {"addr:city": "\u03a4\u03c1\u03af\u03bb\u03bf\u03c6\u03bf\u03c2", "addr:housenumber": "12", "addr:postcode": "57500", "addr:street": "\u0395\u03bb\u03b5\u03c5\u03b8\u03b5\u03c1\u03af\u03b1\u03c2", "amenity": "pharmacy", "dispensing": "yes", "healthcare": "pharmacy", "name": "\u03a6\u03b1\u03c1\u03bc\u03b1\u03ba\u03b5\u03af\u03bf \u03a3\u03b1\u03bc\u03b1\u03c1\u03ac \u0391\u03b3\u03bd\u03ae"}}, {"type": "node", "id": 8463968520, "lat": 40.4304562, "lon": 22.9274899, "tags": {"addr:city": "\u0395\u03c0\u03b1\u03bd\u03bf\u03bc\u03ae", "addr:housenumber": "35", "addr:postcode": "57500", "addr:street": "\u0392\u03b1\u03c3\u03b9\u03bb\u03ad\u03c9\u03c2 \u039a\u03c9\u03bd\u03c3\u03c4\u03b1\u03bd\u03c4\u03af\u03bd\u03bf\u03c5", "amenity": "pharmacy", "dispensing": "yes", "fixme": "not sure of exact location on map", "healthcare": "pharmacy", "name": "\u03a6\u03b1\u03c1\u03bc\u03b1\u03ba\u03b5\u03af\u03bf \u039a\u03bf\u03bb\u03b9\u03bf\u03cd\u03c3\u03b9\u03bf\u03c5 \u0391\u03bd\u03b1\u03c3\u03c4\u03b1\u03c3\u03af\u03b1"}}, {"type": "node", "id": 8463968521, "lat": 40.4284953, "lon": 22.9282028, "tags": {"addr:city": "\u0395\u03c0\u03b1\u03bd\u03bf\u03bc\u03ae", "addr:housenumber": "28", "addr:postcode": "57500", "addr:street": "28\u03b7\u03c2 \u039f\u03ba\u03c4\u03c9\u03b2\u03c1\u03af\u03bf\u03c5", "amenity": "pharmacy", "dispensing": "yes", "healthcare": "pharmacy", "name": "\u03a6\u03b1\u03c1\u03bc\u03b1\u03ba\u03b5\u03af\u03bf \u0391\u03bd\u03b1\u03b3\u03bd\u03ce\u03c3\u03c4\u03bf\u03c5 \u0391\u03c0\u03cc\u03c3\u03c4\u03bf\u03bb\u03bf\u03c2"}}, {"type": "node", "id": 8463968522, "lat": 40.4280815, "lon": 22.9287438, "tags": {"addr:city": "\u0395\u03c0\u03b1\u03bd\u03bf\u03bc\u03ae", "addr:postcode": "57500", "amenity": "pharmacy", "dispensing": "yes", "healthcare": "pharmacy", "name": "\u03a3\u0391\u03a1\u0391\u03a6\u0397 \u03a3\u03a4\u03a5\u039b\u0399\u0391\u039d\u0397 & \u03a3\u0399\u0391 \u0395.\u0395."}}, {"type": "node", "id": 8463968523, "lat": 40.4281761, "lon": 22.9287758, "tags": {"addr:city": "\u0395\u03c0\u03b1\u03bd\u03bf\u03bc\u03ae", "addr:postcode": "57500", "amenity": "pharmacy", "dispensing": "yes", "healthcare": "pharmacy", "name": "\u03a6\u03b1\u03c1\u03bc\u03b1\u03ba\u03b5\u03af\u03bf \u039b\u03ac\u03c4\u03c3\u03b9\u03bf\u03c5 \u03a0\u03b1\u03bd\u03b1\u03b3\u03b9\u03ce\u03c4\u03b1"}}, {"type": "node", "id": 8463968524, "lat": 40.4272077, "lon": 22.9284039, "tags": {"addr:city": "\u0395\u03c0\u03b1\u03bd\u03bf\u03bc\u03ae", "addr:postcode": "57500", "addr:street": "25\u03b7\u03c2 \u039c\u03b1\u03c1\u03c4\u03af\u03bf\u03c5", "amenity": "pharmacy", "dispensing": "yes", "fixme": "Note sure of exact location on map", "healthcare": "pharmacy", "name": "\u03a6\u03b1\u03c1\u03bc\u03b1\u03ba\u03b5\u03af\u03bf \u03a4\u03b6\u03ad\u03ba\u03bf\u03c5 \u0395\u03b9\u03c1\u03ae\u03bd\u03b7"}}, {"type": "node", "id": 8463968525, "lat": 40.4270377, "lon": 22.9270882, "tags": {"addr:city": "\u0395\u03c0\u03b1\u03bd\u03bf\u03bc\u03ae", "addr:postcode": "57500", "amenity": "pharmacy", "dispensing": "yes", "healthcare": "pharmacy", "name": "\u03a6\u03b1\u03c1\u03bc\u03b1\u03ba\u03b5\u03af\u03bf \u0393\u03a1\u0391\u039c\u039c\u0395\u039d\u039f\u03a5 \u039c\u0395\u039b\u0395\u03a4\u0399\u039d\u0397"}}, {"type": "node", "id": 8476293401, "lat": 40.4578056, "lon": 22.8656782, "tags": {"addr:city": "\u039d\u03ad\u03b1 \u039c\u03b7\u03c7\u03b1\u03bd\u03b9\u03ce\u03bd\u03b1", "addr:housenumber": "34", "addr:postcode": "57004", "addr:street": "\u039c\u03b5\u03bb\u03af\u03bd\u03b1\u03c2 \u039c\u03b5\u03c1\u03ba\u03bf\u03cd\u03c1\u03b7", "amenity": "pharmacy", "dispensing": "yes", "healthcare": "pharmacy", "name": "\u03a6\u03b1\u03c1\u03bc\u03b1\u03ba\u03b5\u03af\u03bf \u03a4\u03c3\u03b1\u03b3\u03ba\u03b1\u03c1\u03ac\u03ba\u03b7 \u039c\u03b1\u03c1\u03af\u03b1"}}, {"type": "node", "id": 8476293402, "lat": 40.4637192, "lon": 22.8593292, "tags": {"addr:city": "\u039d\u03ad\u03b1 \u039c\u03b7\u03c7\u03b1\u03bd\u03b9\u03ce\u03bd\u03b1", "addr:postcode": "57004", "amenity": "pharmacy", "dispensing": "yes", "healthcare": "pharmacy", "name": "\u03a6\u03b1\u03c1\u03bc\u03b1\u03ba\u03b5\u03af\u03bf \u03a7\u03b1\u03c1\u03af\u03c3\u03b7\u03c2 \u0394\u03b7\u03bc\u03ae\u03c4\u03c1\u03b9\u03bf\u03c2"}}, {"type": "node", "id": 8476293403, "lat": 40.4663416, "lon": 22.8601949, "tags": {"addr:city": "\u039d\u03ad\u03b1 \u039c\u03b7\u03c7\u03b1\u03bd\u03b9\u03ce\u03bd\u03b1", "addr:housenumber": "9", "addr:postcode": "57004", "addr:street": "\u039a. \u0392\u03ac\u03c1\u03bd\u03b1\u03bb\u03b7", "amenity": "pharmacy", "dispensing": "yes", "healthcare": "pharmacy", "name": "\u03a6\u03b1\u03c1\u03bc\u03b1\u03ba\u03b5\u03af\u03bf \u03a0\u03b1\u03c0\u03b1\u03b4\u03b9\u03ce\u03c4\u03b7\u03c2 \u039d\u03b9\u03ba\u03cc\u03bb\u03b1\u03bf\u03c2"}}, {"type": "node", "id": 8485203956, "lat": 40.5478168, "lon": 23.047441, "tags": {"addr:city": "\u03a4\u03c1\u03b9\u03ac\u03b4\u03b9", "addr:housenumber": "15", "addr:postcode": "57001", "addr:street": "\u0391\u03b5\u03c1\u03bf\u03c0\u03bf\u03c1\u03af\u03b1\u03c2 \u03a3\u03c4\u03c1\u03b1\u03c4\u03bf\u03cd", "amenity": "pharmacy", "dispensing": "yes", "healthcare": "pharmacy", "name": "\u03a0\u03b1\u03bd\u03bf\u03c0\u03bf\u03cd\u03bb\u03bf\u03c5 \u0395\u03c5\u03c6\u03c1\u03bf\u03c3\u03cd\u03bd\u03b7"}}, {"type": "node", "id": 8485203957, "lat": 40.5463601, "lon": 23.0489898, "tags": {"addr:city": "\u03a4\u03c1\u03b9\u03ac\u03b4\u03b9", "addr:postcode": "57001", "amenity": "pharmacy", "dispensing": "yes", "healthcare": "pharmacy", "name": "\u0392\u03af\u03b3\u03ba\u03bb\u03b1\u03c2 \u039a\u03c9\u03bd\u03c3\u03c4\u03b1\u03bd\u03c4\u03af\u03bd\u03bf\u03c2"}}, {"type": "node", "id": 8529766596, "lat": 40.6054222, "lon": 22.964483, "tags": {"addr:housenumber": "5", "addr:postcode": "54249", "addr:street": "\u0393\u03b9\u03ac\u03bd\u03bd\u03b7 \u03a7\u03b1\u03bb\u03ba\u03af\u03b4\u03b7", "amenity": "pharmacy", "dispensing": "yes", "healthcare": "pharmacy", "name": "\u03a0\u03b1\u03c5\u03bb\u03af\u03b4\u03b7\u03c2 \u03a0. - \u03a0\u03b1\u03c5\u03bb\u03af\u03b4\u03bf\u03c5 \u039c.", "name:el": "\u03a0\u03b1\u03c5\u03bb\u03af\u03b4\u03b7\u03c2 \u03a0\u03b1\u03c1\u03b1\u03c3\u03ba\u03b5\u03c5\u03ac\u03c2 - \u03a0\u03b1\u03c5\u03bb\u03af\u03b4\u03bf\u03c5 \u039c\u03b1\u03c1\u03af\u03b1"}}, {"type": "node", "id": 8529766608, "lat": 40.6063498, "lon": 22.9660512, "tags": {"addr:housenumber": "11", "addr:postcode": "54644", "addr:street": "\u0391\u03bb\u03b5\u03be\u03ac\u03bd\u03b4\u03c1\u03bf\u03c5 \u03a3\u03c4\u03b1\u03cd\u03c1\u03bf\u03c5", "amenity": "pharmacy", "check_date": "2025-08-17", "dispensing": "yes", "healthcare": "pharmacy", "name": "\u039a\u03c9\u03bd\u03c3\u03c4\u03b1\u03bd\u03c4\u03b9\u03bd\u03af\u03b4\u03b7\u03c2 \u03a7\u03c1\u03ae\u03c3\u03c4\u03bf\u03c2", "name:el": "\u03a6\u03b1\u03c1\u03bc\u03b1\u03ba\u03b5\u03af\u03bf \u039a\u03c9\u03bd\u03c3\u03c4\u03b1\u03bd\u03c4\u03b9\u03bd\u03af\u03b4\u03b7\u03c2 \u03a7\u03c1\u03ae\u03c3\u03c4\u03bf\u03c2"}}, {"type": "node", "id": 8536293706, "lat": 40.6637135, "lon": 23.11585, "tags": {"addr:city": "\u0386\u03b3\u03b9\u03bf\u03c2 \u0392\u03b1\u03c3\u03af\u03bb\u03b5\u03b9\u03bf\u03c2", "addr:postcode": "57200", "amenity": "pharmacy", "dispensing": "yes", "healthcare": "pharmacy"}}, {"type": "node", "id": 8536892829, "lat": 40.601388, "lon": 22.9617963, "tags": {"addr:housenumber": "66", "addr:postcode": "54248", "addr:street": "25\u03b7\u03c2 \u039c\u03b1\u03c1\u03c4\u03af\u03bf\u03c5", "amenity": "pharmacy", "healthcare": "pharmacy", "name": "\u03a6\u03b1\u03c1\u03bc\u03b1\u03ba\u03b5\u03af\u03bf \u03c4\u03b7\u03c2 \u03a6\u03cd\u03c3\u03b7\u03c2", "name:el": "\u03a6\u03b1\u03c1\u03bc\u03b1\u03ba\u03b5\u03af\u03bf \u03c4\u03b7\u03c2 \u03a6\u03cd\u03c3\u03b7\u03c2", "phone": "+30 2310 311528", "website": "https://physislaboratory.com/"}}, {"type": "node", "id": 8536892832, "lat": 40.6009444, "lon": 22.9604016, "tags": {"amenity": "pharmacy", "dispensing": "yes", "healthcare": "pharmacy", "name": "\u0395\u03bc\u03bc\u03b1\u03bd\u03bf\u03c5\u03b7\u03bb\u03af\u03b4\u03bf\u03c5 - \u039d\u03c4\u03bf\u03b3\u03c1\u03b1\u03bc\u03b1\u03c4\u03b6\u03ae \u0395\u03bb\u03ad\u03bd\u03b7"}}, {"type": "node", "id": 8538686654, "lat": 40.6196279, "lon": 22.9623673, "tags": {"addr:housenumber": "22", "addr:street": "\u039a\u03c9\u03bd\u03c3\u03c4\u03b1\u03bd\u03c4\u03af\u03bd\u03bf\u03c5 \u039a\u03b1\u03c1\u03b1\u03bc\u03b1\u03bd\u03bb\u03ae", "amenity": "pharmacy", "dispensing": "yes", "healthcare": "pharmacy", "name": "\u0393\u03c1\u03b7\u03b3\u03bf\u03c1\u03b9\u03ac\u03b4\u03bf\u03c5 \u0386\u03bd\u03bd\u03b1"}}, {"type": "node", "id": 8541252118, "lat": 40.6075974, "lon": 23.1014871, "tags": {"addr:city": "\u03a7\u03bf\u03c1\u03c4\u03b9\u03ac\u03c4\u03b7\u03c2", "addr:housenumber": "96", "addr:postcode": "57010", "addr:street": "\u039c\u03b1\u03c1\u03c4\u03cd\u03c1\u03c9\u03bd 2\u03b1\u03c2 \u03a3\u03b5\u03c0\u03c4\u03b5\u03bc\u03b2\u03c1\u03af\u03bf\u03c5", "amenity": "pharmacy", "dispensing": "yes", "healthcare": "pharmacy", "name": "\u03a3\u03c4\u03b5\u03c1\u03b3\u03b9\u03b1\u03bd\u03bf\u03cd \u03a3\u03c4\u03ad\u03bb\u03bb\u03b1"}}, {"type": "node", "id": 8541252119, "lat": 40.6141983, "lon": 23.0986651, "tags": {"addr:city": "\u03a7\u03bf\u03c1\u03c4\u03b9\u03ac\u03c4\u03b7\u03c2", "addr:housenumber": "26", "addr:postcode": "57010", "addr:street": "\u039c\u03b1\u03c1\u03c4\u03cd\u03c1\u03c9\u03bd 2\u03b1\u03c2 \u03a3\u03b5\u03c0\u03c4\u03b5\u03bc\u03b2\u03c1\u03af\u03bf\u03c5", "amenity": "pharmacy", "check_date": "2025-09-02", "dispensing": "yes", "drive_through": "no", "email": "dmelenikioti@yahoo.gr", "healthcare": "pharmacy", "name": "\u039c\u03b5\u03bb\u03b5\u03bd\u03b9\u03ba\u03b9\u03ce\u03c4\u03b7 \u0394\u03ad\u03c3\u03c0\u03bf\u03b9\u03bd\u03b1", "opening_hours": "Mo-Fr 09:00-21:00; Sa 09:00-17:00", "phone": "+30 2310 351750"}}, {"type": "node", "id": 8541529900, "lat": 40.5994674, "lon": 22.9728338, "tags": {"addr:housenumber": "16", "addr:street": "\u0393\u03b9\u03ac\u03bd\u03bd\u03b7 \u0391\u03b3\u03b3\u03ad\u03bb\u03bf\u03c5", "amenity": "pharmacy", "dispensing": "yes", "healthcare": "pharmacy", "name": "\u03a6\u03b1\u03c1\u03bc\u03b1\u03ba\u03b5\u03af\u03bf \u0393\u03ba\u03ac\u03bd\u03b1\u03c2 \u039c\u03b9\u03c7\u03b1\u03ae\u03bb"}}, {"type": "node", "id": 8541529903, "lat": 40.5984134, "lon": 22.9724866, "tags": {"addr:housenumber": "11", "addr:street": "\u0391\u03bb\u03ba\u03b1\u03bc\u03ad\u03bd\u03bf\u03c5\u03c2", "amenity": "pharmacy", "dispensing": "yes", "healthcare": "pharmacy", "name": "\u03a0\u03b1\u03c0\u03b1\u03ca\u03c9\u03ac\u03bd\u03bd\u03bf\u03c5 \u0395\u03c5\u03b8\u03c5\u03bc\u03af\u03b1"}}, {"type": "node", "id": 8542108158, "lat": 40.6327451, "lon": 22.9653098, "tags": {"addr:housenumber": "9", "addr:postcode": "54636", "addr:street": "\u0397\u03c1\u03b1\u03ba\u03bb\u03b5\u03af\u03b1\u03c2", "amenity": "pharmacy", "check_date": "2025-03-23", "contact:phone": "2310219864", "dispensing": "yes", "healthcare": "pharmacy", "name": "\u03a6\u03b1\u03c1\u03bc\u03b1\u03ba\u03b5\u03af\u03bf \u039c\u03b1\u03bd\u03bf\u03c5\u03ba\u03ac\u03ba\u03b7 \u03a6\u03b5\u03b3\u03b3\u03b1\u03c1\u03ad\u03bd\u03b9\u03b1", "website": "https://fegareniapharmacy.gr/"}}, {"type": "node", "id": 8556841293, "lat": 40.605185, "lon": 22.9682327, "tags": {"addr:housenumber": "110", "addr:postcode": "54249", "addr:street": "\u0391\u03bb\u03b5\u03be\u03ac\u03bd\u03b4\u03c1\u03bf\u03c5 \u03a0\u03b1\u03c0\u03b1\u03bd\u03b1\u03c3\u03c4\u03b1\u03c3\u03af\u03bf\u03c5", "amenity": "pharmacy", "dispensing": "yes", "healthcare": "pharmacy"}}, {"type": "node", "id": 8556841295, "lat": 40.6066876, "lon": 22.9674957, "tags": {"addr:housenumber": "101", "addr:street": "\u0391\u03bb\u03b5\u03be\u03ac\u03bd\u03b4\u03c1\u03bf\u03c5 \u03a0\u03b1\u03c0\u03b1\u03bd\u03b1\u03c3\u03c4\u03b1\u03c3\u03af\u03bf\u03c5", "amenity": "pharmacy", "healthcare": "pharmacy"}}, {"type": "node", "id": 8557924290, "lat": 40.6010059, "lon": 22.9680018, "tags": {"addr:housenumber": "76", "addr:postcode": "54249", "addr:street": "\u0391\u03bb\u03ba\u03bc\u03ae\u03bd\u03b7\u03c2", "amenity": "pharmacy", "dispensing": "yes", "healthcare": "pharmacy", "name": "\u0391\u03ba\u03c1\u03af\u03c4\u03b1\u03c2 \u03a3\u03c4\u03b1\u03cd\u03c1\u03bf\u03c2"}}, {"type": "node", "id": 8557924296, "lat": 40.6026342, "lon": 22.9689281, "tags": {"addr:housenumber": "82", "addr:postcode": "54249", "addr:street": "\u039c\u03b1\u03c1\u03b1\u03c3\u03bb\u03ae", "amenity": "pharmacy", "dispensing": "yes", "healthcare": "pharmacy", "name": "\u03a0\u03b1\u03bb\u03b9\u03b1\u03bd\u03b9\u03ce\u03c4\u03b7 \u0394\u03ae\u03bc\u03b7\u03c4\u03c1\u03b1", "phone": "+30 2310 300018"}}, {"type": "node", "id": 8567407359, "lat": 40.6008944, "lon": 22.962803, "tags": {"addr:housenumber": "131", "addr:postcode": "54248", "addr:street": "\u039c\u03b1\u03ba\u03b5\u03b4\u03bf\u03bd\u03af\u03b1\u03c2", "amenity": "pharmacy", "dispensing": "yes", "healthcare": "pharmacy", "name": "\u0391\u03bd\u03b1\u03c3\u03c4\u03b1\u03c3\u03af\u03bf\u03c5 \u0391\u03bc\u03b1\u03bb\u03af\u03b1. - \u039c\u03c0\u03bf\u03cd\u03c3\u03bc\u03c0\u03bf\u03c5 \u039f\u03bb\u03c5\u03bc\u03c0\u03af\u03b1", "name:el": "\u0391\u03bd\u03b1\u03c3\u03c4\u03b1\u03c3\u03af\u03bf\u03c5 \u0391\u03bc\u03b1\u03bb\u03af\u03b1. - \u039c\u03c0\u03bf\u03cd\u03c3\u03bc\u03c0\u03bf\u03c5 \u039f\u03bb\u03c5\u03bc\u03c0\u03af\u03b1"}}, {"type": "node", "id": 8576349638, "lat": 40.6042884, "lon": 22.9677213, "tags": {"addr:housenumber": "43", "addr:postcode": "54249", "addr:street": "\u0398\u03b5\u03bf\u03b4\u03ce\u03c1\u03bf\u03c5 \u039d\u03ac\u03c4\u03c3\u03b9\u03bd\u03b1", "amenity": "pharmacy", "dispensing": "yes", "healthcare": "pharmacy", "name": "\u03a6\u03b1\u03c1\u03bc\u03b1\u03ba\u03b5\u03af\u03bf \u039c\u03c0\u03bf\u03c5\u03c1\u03ac\u03bd\u03b7 \u0391\u03b8\u03b7\u03bd\u03ac", "name:el": "\u039c\u03c0\u03bf\u03c5\u03c1\u03ac\u03bd\u03b7 \u0391\u03b8\u03b7\u03bd\u03ac", "phone": "+30 2310 315336"}}, {"type": "node", "id": 8576658725, "lat": 40.6056257, "lon": 22.9666625, "tags": {"addr:housenumber": "17", "addr:postcode": "54249", "addr:street": "\u0391\u03bd\u03c4\u03c9\u03bd\u03af\u03bf\u03c5 \u0394\u03b1\u03bd\u03b9\u03cc\u03bb\u03bf\u03c5", "amenity": "pharmacy", "dispensing": "yes", "healthcare": "pharmacy"}}, {"type": "node", "id": 8583858478, "lat": 40.5986667, "lon": 22.9574415, "tags": {"addr:housenumber": "56", "addr:postcode": "54646", "addr:street": "\u039a\u03c1\u03ae\u03c4\u03b7\u03c2", "amenity": "pharmacy", "dispensing": "yes", "healthcare": "pharmacy", "name": "\u03a3\u0391\u0391\u039d\u03a4 \u0399\u03a3\u0391\u0391\u039a"}}, {"type": "node", "id": 8601653193, "lat": 40.6043257, "lon": 22.9582052, "tags": {"addr:housenumber": "138", "addr:postcode": "54248", "addr:street": "\u0394\u03b5\u03bb\u03c6\u03ce\u03bd", "amenity": "pharmacy", "dispensing": "yes", "healthcare": "pharmacy", "name": "\u03a6\u03b1\u03c1\u03bc\u03b1\u03ba\u03b5\u03af\u03bf \u03a3\u03b1\u03bc\u03b1\u03c1\u03ac \u0391\u03bd\u03b1\u03c3\u03c4\u03b1\u03c3\u03af\u03b1"}}, {"type": "node", "id": 8601764385, "lat": 40.601574, "lon": 22.9625093, "tags": {"addr:housenumber": "76", "addr:postcode": "54248", "addr:street": "25\u03b7\u03c2 \u039c\u03b1\u03c1\u03c4\u03af\u03bf\u03c5", "amenity": "pharmacy", "dispensing": "yes", "healthcare": "pharmacy", "name": "\u039a\u03b1\u03c1\u03b1\u03c0\u03b1\u03c4\u03c3\u03ac\u03c2 \u0398\u03b5\u03bf\u03b4\u03cc\u03c3\u03b9\u03bf\u03c2"}}, {"type": "node", "id": 8625402935, "lat": 40.603694, "lon": 22.9643077, "tags": {"addr:housenumber": "135", "addr:postcode": "54249", "addr:street": "\u039a\u03c9\u03bd\u03c3\u03c4\u03b1\u03bd\u03c4\u03af\u03bd\u03bf\u03c5 \u039a\u03b1\u03c1\u03b1\u03bc\u03b1\u03bd\u03bb\u03ae", "amenity": "pharmacy", "dispensing": "yes", "healthcare": "pharmacy", "name": "\u039a\u03b1\u03c1\u03b1\u03b2\u03b1\u03c3\u03af\u03bb\u03b7\u03c2 \u0392.", "name:el": "\u039a\u03b1\u03c1\u03b1\u03b2\u03b1\u03c3\u03af\u03bb\u03b7\u03c2 \u0392\u03b1\u03c3\u03af\u03bb\u03b5\u03b9\u03bf\u03c2"}}, {"type": "node", "id": 8626476286, "lat": 40.5989603, "lon": 22.9634766, "tags": {"addr:housenumber": "140", "addr:postcode": "54248", "addr:street": "\u039c\u03b1\u03ba\u03b5\u03b4\u03bf\u03bd\u03af\u03b1\u03c2", "amenity": "pharmacy", "dispensing": "yes", "healthcare": "pharmacy", "name": "\u03a4\u03ac\u03c4\u03c3\u03b9\u03bf\u03c2 \u0399\u03c9\u03ac\u03bd\u03bd\u03b7\u03c2"}}, {"type": "node", "id": 8629902314, "lat": 40.5968959, "lon": 22.95926, "tags": {"addr:housenumber": "208", "addr:postcode": "54248", "addr:street": "\u0394\u03b5\u03bb\u03c6\u03ce\u03bd", "amenity": "pharmacy", "dispensing": "yes", "healthcare": "pharmacy", "name": "\u039a\u03b5\u03c1\u03bc\u03b1\u03bd\u03af\u03b4\u03b7\u03c2 \u03a0\u03b1\u03bd\u03b1\u03b3\u03b9\u03ce\u03c4\u03b7\u03c2"}}, {"type": "node", "id": 8629939318, "lat": 40.5976281, "lon": 22.9603232, "tags": {"amenity": "pharmacy", "dispensing": "yes", "healthcare": "pharmacy", "name": "\u03a6\u03c5\u03c1\u03c6\u03cd\u03c1\u03b7 \u0392\u03b1\u03c3\u03b9\u03bb\u03b9\u03ba\u03ae"}}, {"type": "node", "id": 8629939324, "lat": 40.5992295, "lon": 22.9624491, "tags": {"addr:housenumber": "26", "addr:postcode": "54248", "addr:street": "\u03a0\u03b1\u03c4\u03c1\u03b9\u03ac\u03c1\u03c7\u03bf\u03c5 \u0393\u03c1\u03b7\u03b3\u03bf\u03c1\u03af\u03bf\u03c5 \u0395'", "amenity": "pharmacy", "dispensing": "yes", "healthcare": "pharmacy", "name": "\u03a4\u03b1\u03c7\u03c4\u03b1\u03bb\u03af\u03b4\u03bf\u03c5 - \u0395\u03c5\u03b8\u03c5\u03bc\u03b9\u03ac\u03b4\u03bf\u03c5"}}, {"type": "node", "id": 8629939330, "lat": 40.5997909, "lon": 22.9651165, "tags": {"addr:housenumber": "44", "addr:postcode": "54249", "addr:street": "\u03a0\u03b1\u03c4\u03c1\u03b9\u03ac\u03c1\u03c7\u03bf\u03c5 \u0393\u03c1\u03b7\u03b3\u03bf\u03c1\u03af\u03bf\u03c5 \u0395'", "amenity": "pharmacy", "dispensing": "yes", "healthcare": "pharmacy", "name": "\u03a3\u03bc\u03b1\u03c1\u03bf\u03c0\u03bf\u03cd\u03bb\u03bf\u03c5 \u038c\u03bb\u03b3\u03b1"}}, {"type": "node", "id": 8629939333, "lat": 40.6012099, "lon": 22.9665065, "tags": {"addr:housenumber": "10", "addr:postcode": "54249", "addr:street": "\u0391\u03b4\u03c1\u03b9\u03b1\u03bd\u03bf\u03c5\u03c0\u03cc\u03bb\u03b5\u03c9\u03c2", "amenity": "pharmacy", "dispensing": "yes", "healthcare": "pharmacy", "name": "\u03a0\u03b1\u03c7\u03c4\u03ac \u0398\u03b5\u03bf\u03b4\u03ce\u03c1\u03b1"}}, {"type": "node", "id": 8722406398, "lat": 40.6014866, "lon": 22.9699769, "tags": {"addr:housenumber": "157", "addr:street": "\u0391\u03bb\u03b5\u03be\u03ac\u03bd\u03b4\u03c1\u03bf\u03c5 \u03a0\u03b1\u03c0\u03b1\u03bd\u03b1\u03c3\u03c4\u03b1\u03c3\u03af\u03bf\u03c5", "amenity": "pharmacy", "dispensing": "yes", "healthcare": "pharmacy", "name": "\u0394\u03b1\u03c5\u03af\u03b4 \u039a\u03c9\u03bd\u03c3\u03c4\u03b1\u03bd\u03c4\u03af\u03bd\u03bf\u03c2"}}, {"type": "node", "id": 8744876995, "lat": 40.6006479, "lon": 22.9582523, "tags": {"addr:housenumber": "55", "addr:postcode": "54248", "addr:street": "25\u03b7\u03c2 \u039c\u03b1\u03c1\u03c4\u03af\u03bf\u03c5", "amenity": "pharmacy", "check_date": "2025-08-30", "dispensing": "yes", "healthcare": "pharmacy", "name": "\u039c\u03c0\u03b1\u03be\u03b5\u03b2\u03ac\u03bd\u03b7\u03c2 \u0392\u03b1\u03c3\u03af\u03bb\u03b5\u03b9\u03bf\u03c2", "name:el": "\u039c\u03c0\u03b1\u03be\u03b5\u03b2\u03ac\u03bd\u03b7\u03c2 \u0392\u03b1\u03c3\u03af\u03bb\u03b5\u03b9\u03bf\u03c2"}}, {"type": "node", "id": 8783709399, "lat": 40.5911478, "lon": 23.0376824, "tags": {"addr:housenumber": "39", "addr:postcode": "55236", "addr:street": "\u039a\u03bf\u03bc\u03bd\u03b7\u03bd\u03ce\u03bd", "amenity": "pharmacy", "dispensing": "yes", "healthcare": "pharmacy", "name": "A-Pharmacy", "name:el": "\u0391\u03bd\u03b4\u03c1\u03b5\u03ac\u03b4\u03b7\u03c2", "name:en": "A-Pharmacy", "website": "https://www.a-pharmacy.gr/"}}, {"type": "node", "id": 8784851576, "lat": 40.6080286, "lon": 22.9653917, "tags": {"addr:housenumber": "106", "addr:postcode": "54644", "addr:street": "\u039c\u03ac\u03c1\u03ba\u03bf\u03c5 \u039c\u03c0\u03cc\u03c4\u03c3\u03b1\u03c1\u03b7", "amenity": "pharmacy", "dispensing": "yes", "healthcare": "pharmacy", "name": "\u03a6\u03b1\u03c1\u03bc\u03b1\u03ba\u03b5\u03af\u03bf \u039a\u03b1\u03bb\u03bf\u03b3\u03b5\u03c1\u03ac\u03ba\u03b7\u03c2 \u039c\u03b9\u03c7\u03b1\u03ae\u03bb", "name:el": "\u03a6\u03b1\u03c1\u03bc\u03b1\u03ba\u03b5\u03af\u03bf \u039a\u03b1\u03bb\u03bf\u03b3\u03b5\u03c1\u03ac\u03ba\u03b7\u03c2 \u039c\u03b9\u03c7\u03b1\u03ae\u03bb"}}, {"type": "node", "id": 8788360617, "lat": 40.5583158, "lon": 23.0211955, "tags": {"addr:street": "\u03a0\u03b1\u03bd\u03bf\u03c1\u03ac\u03bc\u03b1\u03c4\u03bf\u03c2", "amenity": "pharmacy", "healthcare": "pharmacy", "name": "\u039a\u03cd\u03c1\u03bf\u03c5 \u03a3\u03c4\u03b1\u03c5\u03c1\u03bf\u03cd\u03bb\u03b1", "name:el": "\u039a\u03cd\u03c1\u03bf\u03c5 \u03a3\u03c4\u03b1\u03c5\u03c1\u03bf\u03cd\u03bb\u03b1", "name:en": "Kyrou Stauroula", "opening_hours": "Mo-Tu, Th-Fr 08:30-21:00; We 08:30-15:00; Sa 09:00-14:30", "phone": "2315510415"}}, {"type": "node", "id": 8879853173, "lat": 40.6086739, "lon": 22.9656983, "tags": {"amenity": "pharmacy", "dispensing": "yes", "healthcare": "pharmacy", "name": "\u03a6\u03b5\u03bb\u03ad\u03ba\u03b7-\u0393\u03b9\u03b1\u03bd\u03bd\u03af\u03ba\u03b7 \u039c\u03b1\u03c1\u03af\u03b1"}}, {"type": "node", "id": 8879858702, "lat": 40.6093352, "lon": 22.9651783, "tags": {"addr:housenumber": "78", "addr:postcode": "54644", "addr:street": "\u0391\u03bb\u03b5\u03be\u03ac\u03bd\u03b4\u03c1\u03bf\u03c5 \u03a0\u03b1\u03c0\u03b1\u03bd\u03b1\u03c3\u03c4\u03b1\u03c3\u03af\u03bf\u03c5", "amenity": "pharmacy", "check_date": "2025-05-16", "dispensing": "yes", "healthcare": "pharmacy", "name": "\u0396\u03ac\u03c7\u03bf\u03c2 \u0391\u03bb\u03ad\u03be\u03b1\u03bd\u03b4\u03c1\u03bf\u03c2", "name:el": "\u03a6\u03b1\u03c1\u03bc\u03b1\u03ba\u03b5\u03af\u03bf \u0396\u03ac\u03c7\u03bf\u03c2 \u0391\u03bb\u03ad\u03be\u03b1\u03bd\u03b4\u03c1\u03bf\u03c2"}}, {"type": "node", "id": 8890915945, "lat": 40.6083011, "lon": 22.9667384, "tags": {"amenity": "pharmacy", "dispensing": "yes", "healthcare": "pharmacy", "name": "\u0399\u03c9\u03c3\u03b7\u03c6\u03af\u03b4\u03b7\u03c2 \u039a\u03c9\u03bd\u03c3\u03c4\u03b1\u03bd\u03c4\u03af\u03bd\u03bf\u03c2"}}, {"type": "node", "id": 8928191586, "lat": 40.5979102, "lon": 22.9618347, "tags": {"addr:housenumber": "30", "addr:postcode": "54248", "addr:street": "\u039c\u03b5\u03bb\u03b5\u03bd\u03af\u03ba\u03bf\u03c5", "amenity": "pharmacy", "dispensing": "yes", "healthcare": "pharmacy", "name": "\u03a0\u03b1\u03c3\u03c7\u03b1\u03bb\u03af\u03b4\u03bf\u03c5 \u0394\u03ad\u03c3\u03c0\u03bf\u03b9\u03bd\u03b1", "name:el": "\u03a6\u03b1\u03c1\u03bc\u03b1\u03ba\u03b5\u03af\u03bf \u03a0\u03b1\u03c3\u03c7\u03b1\u03bb\u03af\u03b4\u03bf\u03c5 \u0394\u03ad\u03c3\u03c0\u03bf\u03b9\u03bd\u03b1"}}, {"type": "node", "id": 8929285227, "lat": 40.6002063, "lon": 22.9661618, "tags": {"addr:housenumber": "3", "addr:postcode": "54249", "addr:street": "\u039b\u03ac\u03c1\u03b9\u03c3\u03b1\u03c2", "amenity": "pharmacy", "dispensing": "yes", "healthcare": "pharmacy", "name": "\u039a\u03b1\u03c1\u03bb\u03b9\u03ce\u03c4\u03b7 \u0395\u03bb\u03ad\u03bd\u03b7-\u03a7\u03c1\u03b9\u03c3\u03c4\u03af\u03bd\u03b1", "name:el": "\u039a\u03b1\u03c1\u03bb\u03b9\u03ce\u03c4\u03b7 \u0395\u03bb\u03ad\u03bd\u03b7-\u03a7\u03c1\u03b9\u03c3\u03c4\u03af\u03bd\u03b1"}}, {"type": "node", "id": 8935430582, "lat": 40.6062616, "lon": 22.9614683, "tags": {"addr:housenumber": "120", "addr:postcode": "54644", "addr:street": "\u0393\u03b1\u03bc\u03b2\u03ad\u03c4\u03c4\u03b1", "amenity": "pharmacy", "dispensing": "yes", "healthcare": "pharmacy", "name": "\u0391\u03bd\u03b4\u03c1\u03ad\u03bf\u03c5 \u0394\u03ae\u03bc\u03b7\u03c4\u03c1\u03b1", "name:el": "\u03a6\u03b1\u03c1\u03bc\u03b1\u03ba\u03b5\u03af\u03bf \u0391\u03bd\u03b4\u03c1\u03ad\u03bf\u03c5 \u0394\u03ae\u03bc\u03b7\u03c4\u03c1\u03b1"}}, {"type": "node", "id": 8950733735, "lat": 40.6123395, "lon": 22.9738892, "tags": {"amenity": "pharmacy", "healthcare": "pharmacy", "name": "\u039c\u03b1\u03ba\u03c1\u03af\u03b4\u03b7\u03c2", "opening_hours": "Mo-Fr 08:00-21:00"}}, {"type": "node", "id": 9002925716, "lat": 40.6568067, "lon": 22.9870222}, {"type": "node", "id": 9023411465, "lat": 40.6045721, "lon": 22.9575065, "tags": {"addr:housenumber": "43", "addr:postcode": "54643", "addr:street": "\u03a0\u03ad\u03c4\u03c1\u03bf\u03c5 \u03a3\u03c5\u03bd\u03b4\u03af\u03ba\u03b1", "amenity": "pharmacy", "dispensing": "yes", "healthcare": "pharmacy", "name": "\u0392\u03b5\u03b6\u03cd\u03bd\u03b9\u03b1\u03c2 \u0393\u03b5\u03ce\u03c1\u03b3\u03b9\u03bf\u03c2"}}, {"type": "node", "id": 9023411468, "lat": 40.6044553, "lon": 22.9558144, "tags": {"amenity": "pharmacy", "dispensing": "yes", "healthcare": "pharmacy", "name": "\u039a\u03b1\u03c1\u03b1\u03bd\u03c4\u03b6\u03ad\u03bb\u03b7 \u0391\u03bd\u03b1\u03c3\u03c4\u03b1\u03c3\u03af\u03b1"}}, {"type": "node", "id": 9023518141, "lat": 40.6041343, "lon": 22.9545883, "tags": {"addr:housenumber": "18", "addr:postcode": "54643", "addr:street": "\u03a0\u03ad\u03c4\u03c1\u03bf\u03c5 \u03a3\u03c5\u03bd\u03b4\u03af\u03ba\u03b1", "amenity": "pharmacy", "dispensing": "yes", "healthcare": "pharmacy", "name": "\u039a\u03c9\u03bd\u03c3\u03c4\u03b1\u03bd\u03c4\u03b9\u03bd\u03af\u03b4\u03bf\u03c5 \u0391\u03b8\u03b7\u03bd\u03ac", "name:el": "\u039a\u03c9\u03bd\u03c3\u03c4\u03b1\u03bd\u03c4\u03b9\u03bd\u03af\u03b4\u03bf\u03c5 \u0391\u03b8\u03b7\u03bd\u03ac"}}, {"type": "node", "id": 9029600245, "lat": 40.6059017, "lon": 22.9578371, "tags": {"addr:housenumber": "122", "addr:postcode": "54643", "addr:street": "\u0394\u03b5\u03bb\u03c6\u03ce\u03bd", "amenity": "pharmacy", "dispensing": "yes", "fixme": "name", "healthcare": "pharmacy"}}, {"type": "node", "id": 9029600246, "lat": 40.6066578, "lon": 22.9576164, "tags": {"addr:housenumber": "114", "addr:postcode": "54643", "addr:street": "\u0394\u03b5\u03bb\u03c6\u03ce\u03bd", "amenity": "pharmacy", "dispensing": "yes", "fixme": "name", "healthcare": "pharmacy"}}, {"type": "node", "id": 9029702481, "lat": 40.6110684, "lon": 22.9867205, "tags": {"addr:housenumber": "236", "addr:street": "\u0393\u03c1\u03b7\u03b3\u03bf\u03c1\u03af\u03bf\u03c5 \u039b\u03b1\u03bc\u03c0\u03c1\u03ac\u03ba\u03b7", "amenity": "pharmacy", "healthcare": "pharmacy"}}, {"type": "node", "id": 9035771608, "lat": 40.5973188, "lon": 22.9584111, "tags": {"addr:housenumber": "65", "addr:postcode": "54248", "addr:street": "\u039a\u03c1\u03ae\u03c4\u03b7\u03c2", "amenity": "pharmacy", "dispensing": "yes", "healthcare": "pharmacy", "name": "\u03a4\u03ac\u03c3\u03b9\u03bf\u03c5 \u03a3\u03bf\u03c5\u03bb\u03c4\u03ac\u03bd\u03b1", "name:el": "\u03a4\u03ac\u03c3\u03b9\u03bf\u03c5 \u03a3\u03bf\u03c5\u03bb\u03c4\u03ac\u03bd\u03b1"}}, {"type": "node", "id": 9039691420, "lat": 40.5466269, "lon": 23.0175216}, {"type": "node", "id": 9039691421, "lat": 40.546684, "lon": 23.0175797}, {"type": "node", "id": 9039691424, "lat": 40.5466491, "lon": 23.0174964}, {"type": "node", "id": 9050477781, "lat": 40.600525, "lon": 22.9703861, "tags": {"addr:housenumber": "173", "addr:postcode": "54250", "addr:street": "\u0391\u03bb\u03b5\u03be\u03ac\u03bd\u03b4\u03c1\u03bf\u03c5 \u03a0\u03b1\u03c0\u03b1\u03bd\u03b1\u03c3\u03c4\u03b1\u03c3\u03af\u03bf\u03c5", "amenity": "pharmacy", "dispensing": "yes", "healthcare": "pharmacy", "name": "\u03a0\u03b1\u03bd\u03c4\u03ac\u03b6\u03bf\u03b3\u03bb\u03bf\u03c5", "name:el": "\u03a0\u03b1\u03bd\u03c4\u03ac\u03b6\u03bf\u03b3\u03bb\u03bf\u03c5", "website": "https://pandapharmacy.gr/"}}, {"type": "node", "id": 9070872551, "lat": 40.6091336, "lon": 22.9715507, "tags": {"amenity": "pharmacy", "dispensing": "yes", "healthcare": "pharmacy", "name": "\u039c\u03b1\u03bd\u03ce\u03bb\u03b7\u03c2 \u0394\u03b7\u03bc\u03ae\u03c4\u03c1\u03b9\u03bf\u03c2", "phone": "+30 2310 917771"}}, {"type": "node", "id": 9070914388, "lat": 40.606221, "lon": 22.9712937, "tags": {"addr:housenumber": "39", "addr:postcode": "54453", "addr:street": "\u039c\u03b9\u03c7\u03b1\u03ae\u03bb \u03a7\u03bf\u03c5\u03c1\u03bc\u03bf\u03cd\u03b6\u03b7", "amenity": "pharmacy", "check_date": "2025-08-17", "dispensing": "yes", "healthcare": "pharmacy", "name": "\u039a\u03b1\u03bb\u03b1\u03ca\u03c4\u03b6\u03ae \u0394\u03ae\u03bc\u03b7\u03c4\u03c1\u03b1", "name:el": "\u039a\u03b1\u03bb\u03b1\u03ca\u03c4\u03b6\u03ae \u0394\u03ae\u03bc\u03b7\u03c4\u03c1\u03b1", "phone": "+30 2310 922942"}}, {"type": "node", "id": 9079373183, "lat": 40.6083679, "lon": 22.973708, "tags": {"addr:housenumber": "1", "addr:postcode": "54453", "addr:street": "\u03a6\u03b1\u03b9\u03ac\u03ba\u03c9\u03bd", "amenity": "pharmacy", "dispensing": "yes", "healthcare": "pharmacy"}}, {"type": "node", "id": 9119079434, "lat": 40.5782759, "lon": 23.0131156}, {"type": "node", "id": 9119079435, "lat": 40.5782738, "lon": 23.0131073}, {"type": "node", "id": 9119079436, "lat": 40.5783094, "lon": 23.0132473}, {"type": "node", "id": 9119079437, "lat": 40.5783981, "lon": 23.0132083}, {"type": "node", "id": 9119079438, "lat": 40.5783624, "lon": 23.0130682}, {"type": "node", "id": 9129063269, "lat": 40.5837687, "lon": 23.027108}, {"type": "node", "id": 9129063270, "lat": 40.5837446, "lon": 23.0271048}, {"type": "node", "id": 9129063271, "lat": 40.5837725, "lon": 23.0270575}, {"type": "node", "id": 9129063272, "lat": 40.5837405, "lon": 23.027159}, {"type": "node", "id": 9129063273, "lat": 40.5838246, "lon": 23.0271699}, {"type": "node", "id": 9129063274, "lat": 40.5838325, "lon": 23.0270653}, {"type": "node", "id": 9176920104, "lat": 40.4731499, "lon": 23.0913516, "tags": {"amenity": "pharmacy", "dispensing": "yes", "healthcare": "pharmacy", "name": "\u03a3\u03bc\u03b1\u03c1\u03ac\u03b3\u03b4\u03b1 \u03a0\u03b1\u03c3\u03c7\u03b1\u03bb\u03af\u03b4\u03bf\u03c5"}}, {"type": "node", "id": 9176920105, "lat": 40.4729057, "lon": 23.0921169, "tags": {"amenity": "pharmacy", "dispensing": "yes", "healthcare": "pharmacy", "name": "\u0392\u03b1\u03c3\u03af\u03bb\u03b5\u03b9\u03bf\u03c2 \u0392\u03b1\u03c3\u03b9\u03bb\u03b5\u03b9\u03ac\u03b4\u03b7\u03c2"}}, {"type": "node", "id": 9269526909, "lat": 40.6316549, "lon": 23.1898563, "tags": {"addr:city": "\u0392\u03b1\u03c3\u03b9\u03bb\u03bf\u03cd\u03b4\u03b9", "amenity": "pharmacy", "dispensing": "yes", "healthcare": "pharmacy"}}, {"type": "node", "id": 9340996510, "lat": 40.5950054, "lon": 22.9599246, "tags": {"addr:housenumber": "16", "addr:postcode": "54248", "addr:street": "\u0392\u03bf\u03cd\u03bb\u03b3\u03b1\u03c1\u03b7", "amenity": "pharmacy", "dispensing": "yes", "healthcare": "pharmacy", "name": "\u039c\u03b1\u03bd\u03c4\u03b6\u03bf\u03cd\u03ba\u03b1 \u0399\u03c9\u03ac\u03bd\u03bd\u03b1", "name:el": "\u039c\u03b1\u03bd\u03c4\u03b6\u03bf\u03cd\u03ba\u03b1 \u0399\u03c9\u03ac\u03bd\u03bd\u03b1", "opening_hours": "Mo-Fr 08:00-21:00; Sa 09:00-20:00", "phone": "+30 2310 321778"}}, {"type": "node", "id": 9508126905, "lat": 40.4734234, "lon": 22.9567796, "tags": {"addr:housenumber": "34", "addr:postcode": "57500", "addr:street": "\u039c\u03b9\u03b1\u03bf\u03cd\u03bb\u03b7", "amenity": "pharmacy", "dispensing": "yes", "healthcare": "pharmacy"}}, {"type": "node", "id": 9520609874, "lat": 40.6501439, "lon": 22.9453659, "tags": {"amenity": "pharmacy", "dispensing": "yes", "healthcare": "pharmacy", "name": "\u03a6\u03b1\u03c1\u03bc\u03b1\u03ba\u03b5\u03af\u03bf \u03a4\u03b6\u03af\u03ba\u03b1\u03bb\u03bf\u03c5 \u0394. \u03a7\u03ac\u03ca\u03b4\u03c9"}}, {"type": "node", "id": 9559952640, "lat": 40.6014038, "lon": 22.9589074, "tags": {"addr:housenumber": "77", "addr:postcode": "54248", "addr:street": "\u03a3\u03cc\u03bb\u03c9\u03bd\u03bf\u03c2", "amenity": "pharmacy", "dispensing": "yes", "healthcare": "pharmacy", "name": "\u039a\u03b1\u03c1\u03b1\u03b3\u03b5\u03c9\u03c1\u03b3\u03af\u03bf\u03c5 \u0394\u03b7\u03bc\u03ae\u03c4\u03c1\u03b9\u03bf\u03c2", "name:el": "\u03a6\u03b1\u03c1\u03bc\u03b1\u03ba\u03b5\u03af\u03bf \u039a\u03b1\u03c1\u03b1\u03b3\u03b5\u03c9\u03c1\u03b3\u03af\u03bf\u03c5 \u0394\u03b7\u03bc\u03ae\u03c4\u03c1\u03b9\u03bf\u03c2"}}, {"type": "node", "id": 9559952641, "lat": 40.601405, "lon": 22.9726909, "tags": {"addr:housenumber": "33", "addr:postcode": "54250", "addr:street": "\u0393\u03c5\u03bc\u03bd\u03b1\u03c3\u03b9\u03ac\u03c1\u03c7\u03bf\u03c5 \u0392\u03b1\u03c3\u03b9\u03bb\u03b5\u03af\u03bf\u03c5 \u039c\u03c5\u03c3\u03c4\u03b1\u03ba\u03af\u03b4\u03bf\u03c5", "amenity": "pharmacy", "dispensing": "yes", "healthcare": "pharmacy", "name": "\u039a\u03b1\u03bb\u03bf\u03b3\u03b5\u03c1\u03ac\u03c2 \u0393\u03b5\u03ce\u03c1\u03b3\u03b9\u03bf\u03c2", "name:el": "\u03a6\u03b1\u03c1\u03bc\u03b1\u03ba\u03b5\u03af\u03bf \u039a\u03b1\u03bb\u03bf\u03b3\u03b5\u03c1\u03ac\u03c2 \u0393\u03b5\u03ce\u03c1\u03b3\u03b9\u03bf\u03c2"}}, {"type": "node", "id": 9592606708, "lat": 40.4755914, "lon": 22.8696982, "tags": {"addr:city": "\u039d\u03ad\u03b1 \u039a\u03b5\u03c1\u03b1\u03c3\u03b9\u03ac", "addr:housenumber": "9", "addr:postcode": "57004", "addr:street": "\u03a0\u03b5\u03c1\u03b1\u03af\u03b1\u03c2 - \u039d\u03ad\u03b1\u03c2 \u039c\u03b7\u03c7\u03b1\u03bd\u03b9\u03ce\u03bd\u03b1\u03c2", "amenity": "pharmacy", "dispensing": "yes", "drive_through": "no", "healthcare": "pharmacy", "name": "\u03a6\u03b1\u03c1\u03bc\u03b1\u03ba\u03b5\u03af\u03bf \u0392\u03b9\u03ba\u03cc\u03c0\u03bf\u03c5\u03bb\u03bf\u03c2 \u03a3\u03c4\u03ad\u03bb\u03b9\u03bf\u03c2", "name:el": "\u03a6\u03b1\u03c1\u03bc\u03b1\u03ba\u03b5\u03af\u03bf \u0392\u03b9\u03ba\u03cc\u03c0\u03bf\u03c5\u03bb\u03bf\u03c2 \u03a3\u03c4\u03ad\u03bb\u03b9\u03bf\u03c2", "name:en": "Pharmacy Vikopoulos Stelios", "operator": "\u0392\u03b9\u03ba\u03cc\u03c0\u03bf\u03c5\u03bb\u03bf\u03c2 \u03a3\u03c4\u03ad\u03bb\u03b9\u03bf\u03c2", "phone": "+30 2392034422"}}, {"type": "node", "id": 9624629317, "lat": 40.6081017, "lon": 22.9629326, "tags": {"addr:housenumber": "128", "addr:postcode": "54644", "addr:street": "\u039a\u03c9\u03bd\u03c3\u03c4\u03b1\u03bd\u03c4\u03b9\u03bd\u03bf\u03c5\u03c0\u03cc\u03bb\u03b5\u03c9\u03c2", "amenity": "pharmacy", "dispensing": "yes", "healthcare": "pharmacy", "name": "\u03a6\u03b5\u03c1\u03b5\u03bd\u03c4\u03af\u03bd\u03bf\u03c5 \u03a3\u03bf\u03c6\u03af\u03b1 - \u03a0\u03b1\u03bd\u03c4\u03b1\u03b6\u03af\u03b4\u03b7\u03c2 \u0398\u03b5\u03cc\u03b4\u03c9\u03c1\u03bf\u03c2", "name:el": "\u03a6\u03b1\u03c1\u03bc\u03b1\u03ba\u03b5\u03af\u03bf \u03a6\u03b5\u03c1\u03b5\u03bd\u03c4\u03af\u03bd\u03bf\u03c5 \u03a3. - \u03a0\u03b1\u03bd\u03c4\u03b1\u03b6\u03af\u03b4\u03b7\u03c2 \u0398."}}, {"type": "node", "id": 9707597128, "lat": 40.5847226, "lon": 22.952925, "tags": {"addr:city": "\u039a\u03b1\u03bb\u03b1\u03bc\u03b1\u03c1\u03b9\u03ac", "addr:housenumber": "68", "addr:postcode": "55131", "addr:street": "\u03a0\u03cc\u03bd\u03c4\u03bf\u03c5", "amenity": "pharmacy", "dispensing": "yes", "healthcare": "pharmacy", "name": "\u03a3\u03a4\u0391\u039c\u0391\u03a4\u0397 \u0395\u039b\u0395\u039d\u0397", "operator": "\u03a3\u03a4\u0391\u039c\u0391\u03a4\u0397 \u0395\u039b\u0395\u039d\u0397 \u0395\u039b\u0395\u03a5\u0398\u0395\u03a1\u0399\u0391"}}, {"type": "node", "id": 9868363939, "lat": 40.5755859, "lon": 22.9532088, "tags": {"addr:city": "\u039a\u03b1\u03bb\u03b1\u03bc\u03b1\u03c1\u03b9\u03ac", "addr:housenumber": "27", "addr:postcode": "55132", "addr:street": "\u039a\u03b1\u03c1\u03b1\u03c4\u03ac\u03c3\u03bf\u03c5 \u03a4\u03ac\u03c3\u03bf\u03c5", "amenity": "pharmacy", "dispensing": "yes", "healthcare": "pharmacy", "name": "\u039a\u03b1\u03c3\u03c4\u03b5\u03c1\u03af\u03b4\u03bf\u03c5 \u039d\u03b9\u03ba\u03bf\u03bb\u03bb\u03ad\u03c4\u03b1", "phone": "+30 2310 443766"}}, {"type": "node", "id": 9928641548, "lat": 40.608709, "lon": 22.9671716, "tags": {"addr:housenumber": "97", "addr:postcode": "54453", "addr:street": "\u039c\u03ac\u03c1\u03ba\u03bf\u03c5 \u039c\u03c0\u03cc\u03c4\u03c3\u03b1\u03c1\u03b7", "amenity": "pharmacy", "dispensing": "yes", "healthcare": "pharmacy"}}, {"type": "node", "id": 9928641549, "lat": 40.6090175, "lon": 22.9685595, "tags": {"addr:housenumber": "109", "addr:postcode": "54453", "addr:street": "\u039c\u03ac\u03c1\u03ba\u03bf\u03c5 \u039c\u03c0\u03cc\u03c4\u03c3\u03b1\u03c1\u03b7", "amenity": "pharmacy", "dispensing": "yes", "healthcare": "pharmacy", "name": "\u039c\u03bf\u03c5\u03c3\u03c4\u03b1\u03ba\u03af\u03b4\u03bf\u03c5 \u03a7. - \u039c\u03bf\u03c5\u03c3\u03c4\u03b1\u03ba\u03af\u03b4\u03b7\u03c2 \u03a6.", "name:el": "\u03a6\u03b1\u03c1\u03bc\u03b1\u03ba\u03b5\u03af\u03bf \u039c\u03bf\u03c5\u03c3\u03c4\u03b1\u03ba\u03af\u03b4\u03bf\u03c5 \u03a7. - \u039c\u03bf\u03c5\u03c3\u03c4\u03b1\u03ba\u03af\u03b4\u03b7\u03c2 \u03a6."}}, {"type": "node", "id": 10061648617, "lat": 40.5990882, "lon": 22.9550858, "tags": {"amenity": "pharmacy", "healthcare": "pharmacy", "name": "\u0393\u03b5\u03ce\u03c1\u03b3\u03b9\u03bf\u03c2 \u0399. \u039c\u03c0\u03bb\u03bf\u03cd\u03ba\u03b1\u03c2 & \u03a3\u0399\u0391"}}, {"type": "node", "id": 10062554718, "lat": 40.6077599, "lon": 22.9535437, "tags": {"amenity": "pharmacy", "healthcare": "pharmacy", "name": "\u039d. \u0399. \u0392\u03b1\u03c3\u03b9\u03bb\u03b5\u03b9\u03ac\u03b4\u03b7\u03c2"}}, {"type": "node", "id": 10062566619, "lat": 40.6011826, "lon": 22.9538171, "tags": {"amenity": "pharmacy", "healthcare": "pharmacy", "name": "\u0399. \u03a0\u0391\u03a0\u0391\u0394\u039f\u03a0\u039f\u03a5\u039b\u039f\u03a3"}}, {"type": "node", "id": 10069320488, "lat": 40.6388545, "lon": 22.9351997, "tags": {"amenity": "pharmacy", "healthcare": "pharmacy", "name": "\u03a0\u03bf\u03bb\u03af\u03c4\u03b7\u03c2 \u0394\u03b7\u03bc\u03ae\u03c4\u03c1\u03b9\u03bf\u03c2"}}, {"type": "node", "id": 10087844322, "lat": 40.5996188, "lon": 22.9514195, "tags": {"amenity": "pharmacy", "healthcare": "pharmacy"}}, {"type": "node", "id": 10087844324, "lat": 40.5993818, "lon": 22.9518262, "tags": {"amenity": "pharmacy", "healthcare": "pharmacy", "name": "\u0399\u03c9\u03ac\u03bd\u03bd\u03b1 \u0391. \u039a\u03bf\u03ba\u03ba\u03b9\u03bd\u03af\u03b4\u03bf\u03c5"}}, {"type": "node", "id": 10087844329, "lat": 40.5992437, "lon": 22.9531033, "tags": {"amenity": "pharmacy", "healthcare": "pharmacy", "name": "\u0391. \u039c\u03c0\u03b9\u03bd\u03c4\u03b9\u03b2\u03ac\u03bd\u03bf\u03c2"}}, {"type": "node", "id": 10087853317, "lat": 40.6002412, "lon": 22.9538884, "tags": {"amenity": "pharmacy", "healthcare": "pharmacy", "name": "\u039d\u03af\u03ba\u03bf\u03c2 \u03a7\u03b1\u03c1\u03b1\u03bb\u03ac\u03bc\u03c0\u03bf\u03c5\u03c2"}}, {"type": "node", "id": 10103752618, "lat": 40.6033396, "lon": 22.9528539, "tags": {"amenity": "pharmacy", "healthcare": "pharmacy", "name": "\u0392\u03b1\u03c3\u03af\u03bb\u03b7\u03c2 \u0394\u03bf\u03c5\u03bc\u03c0\u03b1\u03bb\u03b1\u03ba\u03af\u03b4\u03b7\u03c2"}}, {"type": "node", "id": 10103752919, "lat": 40.6071411, "lon": 22.957238, "tags": {"amenity": "pharmacy", "healthcare": "pharmacy", "name": "\u0399. \u0392\u03b1\u03c3\u03b9\u03bb\u03b5\u03b9\u03ac\u03b4\u03bf\u03c5"}}, {"type": "node", "id": 10104393117, "lat": 40.6026573, "lon": 22.9613293, "tags": {"amenity": "pharmacy", "healthcare": "pharmacy", "name": "\u03a4\u03b1\u03c3\u03b9\u03bf\u03cd\u03bb\u03b1\u03c2 \u03a3\u03c4\u03ad\u03c1\u03b3\u03b9\u03bf\u03c2"}}, {"type": "node", "id": 10113534522, "lat": 40.6340105, "lon": 22.9533436, "tags": {"amenity": "pharmacy", "healthcare": "pharmacy"}}, {"type": "node", "id": 10157379517, "lat": 40.6366247, "lon": 22.9538917, "tags": {"amenity": "pharmacy", "healthcare": "pharmacy", "name": "\u0391\u03bd\u03c4\u03b9\u03b3\u03cc\u03bd\u03b7 \u039a\u03b1\u03c1\u03b1\u03b2\u03b1\u03c3\u03b9\u03bb\u03af\u03b4\u03bf\u03c5"}}, {"type": "node", "id": 10289196027, "lat": 40.6227098, "lon": 22.9715719, "tags": {"amenity": "pharmacy", "healthcare": "pharmacy", "name": "\u039a\u03b1\u03c4\u03c3\u03b1\u03c1\u03bf\u03cd \u03a3\u03bf\u03c6\u03af\u03b1"}}, {"type": "node", "id": 10763339486, "lat": 40.5940707, "lon": 22.9735721, "tags": {"addr:housenumber": "1", "addr:postcode": "55535", "addr:street": "\u039c\u03b9\u03c7\u03b1\u03ae\u03bb \u03a8\u03b5\u03bb\u03bb\u03bf\u03cd", "amenity": "pharmacy", "healthcare": "pharmacy", "name": "\u039a\u03c9\u03c3\u03c4\u03ae \u039a\u03c9\u03bd\u03c3\u03c4\u03b1\u03bd\u03c4\u03af\u03b1"}}, {"type": "node", "id": 10839148193, "lat": 40.602169, "lon": 22.9637104, "tags": {"addr:housenumber": "95", "addr:postcode": "54248", "addr:street": "25\u03b7\u03c2 \u039c\u03b1\u03c1\u03c4\u03af\u03bf\u03c5", "amenity": "pharmacy", "dispensing": "yes", "fixme": "name", "healthcare": "pharmacy"}}, {"type": "node", "id": 11009686958, "lat": 40.5713846, "lon": 23.2894739, "tags": {"amenity": "pharmacy", "healthcare": "pharmacy"}}, {"type": "node", "id": 11011904660, "lat": 40.5745946, "lon": 23.2849855, "tags": {"amenity": "pharmacy", "healthcare": "pharmacy"}}, {"type": "node", "id": 11051440138, "lat": 40.6199391, "lon": 22.9538845, "tags": {"amenity": "pharmacy", "check_date": "2023-07-17", "healthcare": "pharmacy"}}, {"type": "node", "id": 11051454566, "lat": 40.6184042, "lon": 22.9546761, "tags": {"amenity": "pharmacy", "check_date": "2023-07-17", "healthcare": "pharmacy"}}, {"type": "node", "id": 11171698504, "lat": 40.6468656, "lon": 22.9205764, "tags": {"amenity": "pharmacy", "healthcare": "pharmacy", "level": "0"}}, {"type": "node", "id": 11173161560, "lat": 40.6350746, "lon": 22.9465609, "tags": {"amenity": "pharmacy", "healthcare": "pharmacy", "name": "\u0392\u03b1\u03b3\u03b9\u03ce\u03bd\u03b1"}}, {"type": "node", "id": 11189349479, "lat": 40.5056247, "lon": 22.9325196, "tags": {"amenity": "pharmacy"}}, {"type": "node", "id": 11446097600, "lat": 40.4638588, "lon": 22.8583981, "tags": {"amenity": "pharmacy", "healthcare": "pharmacy"}}, {"type": "node", "id": 11510690563, "lat": 40.6392602, "lon": 22.9394148, "tags": {"amenity": "pharmacy", "healthcare": "pharmacy"}}, {"type": "node", "id": 11799556269, "lat": 40.6113867, "lon": 22.9651745, "tags": {"amenity": "pharmacy", "healthcare": "pharmacy"}}, {"type": "node", "id": 11807007144, "lat": 40.6401723, "lon": 23.029304, "tags": {"amenity": "pharmacy", "dispensing": "yes", "healthcare": "pharmacy"}}, {"type": "node", "id": 11836652597, "lat": 40.6526423, "lon": 22.9222222, "tags": {"amenity": "pharmacy", "healthcare": "pharmacy"}}, {"type": "node", "id": 11930227647, "lat": 40.4698536, "lon": 22.9938762, "tags": {"amenity": "pharmacy", "healthcare": "pharmacy"}}, {"type": "node", "id": 11960106422, "lat": 40.6400602, "lon": 22.9408224, "tags": {"amenity": "pharmacy", "healthcare": "pharmacy", "level": "0", "name": "\u03a7\u03b1\u03c4\u03b6\u03b7\u03c0\u03b1\u03bd\u03c4\u03b5\u03bb\u03ae"}}, {"type": "node", "id": 11970205125, "lat": 40.6548969, "lon": 22.9237023, "tags": {"addr:city": "\u0391\u03bc\u03c0\u03b5\u03bb\u03cc\u03ba\u03b7\u03c0\u03bf\u03b9", "addr:housenumber": "28", "addr:street": "\u039c\u03b5\u03b3\u03ac\u03bb\u03bf\u03c5 \u0391\u03bb\u03b5\u03be\u03ac\u03bd\u03b4\u03c1\u03bf\u03c5", "amenity": "pharmacy", "healthcare": "pharmacy", "name": "\u03a4\u03c3\u03b9\u03b1\u03ba\u03af\u03c1\u03b7\u03c2"}}, {"type": "node", "id": 11970205130, "lat": 40.6547707, "lon": 22.9232901, "tags": {"amenity": "pharmacy", "healthcare": "pharmacy"}}, {"type": "node", "id": 11974947292, "lat": 40.6343034, "lon": 22.9393144, "tags": {"amenity": "pharmacy", "healthcare": "pharmacy"}}, {"type": "node", "id": 11974947297, "lat": 40.6345364, "lon": 22.9391375, "tags": {"amenity": "pharmacy", "healthcare": "pharmacy"}}, {"type": "node", "id": 11993396231, "lat": 40.6302944, "lon": 22.9478034, "tags": {"addr:city": "\u0398\u03b5\u03c3\u03c3\u03b1\u03bb\u03bf\u03bd\u03af\u03ba\u03b7", "addr:housenumber": "22", "addr:postcode": "54622", "addr:street": "\u03a0\u03b1\u03cd\u03bb\u03bf\u03c5 \u039c\u03b5\u03bb\u03ac", "amenity": "pharmacy", "healthcare": "pharmacy", "name": "\u03a4\u03c3\u03b9\u03bd\u03cc\u03c0\u03bf\u03c5\u03bb\u03bf\u03c2", "operator": "\u0398\u03b5\u03cc\u03b4\u03c9\u03c1\u03bf\u03c2 \u03a4\u03c3\u03b9\u03bd\u03cc\u03c0\u03bf\u03c5\u03bb\u03bf\u03c2"}}, {"type": "node", "id": 11993563578, "lat": 40.6283426, "lon": 22.9506124, "tags": {"amenity": "pharmacy", "healthcare": "pharmacy"}}, {"type": "node", "id": 11997565119, "lat": 40.6330963, "lon": 22.9473263, "tags": {"amenity": "pharmacy", "healthcare": "pharmacy"}}, {"type": "node", "id": 11998491916, "lat": 40.6390896, "lon": 22.936286, "tags": {"amenity": "pharmacy", "healthcare": "pharmacy"}}, {"type": "node", "id": 12014720871, "lat": 40.6006378, "lon": 22.9559379, "tags": {"addr:housenumber": "75", "addr:street": "\u0391\u03bb\u03b5\u03be\u03b1\u03bd\u03b4\u03c1\u03b5\u03af\u03b1\u03c2", "amenity": "pharmacy", "healthcare": "pharmacy"}}, {"type": "node", "id": 12082533258, "lat": 40.6434323, "lon": 22.9375113, "tags": {"addr:city": "\u0398\u03b5\u03c3\u03c3\u03b1\u03bb\u03bf\u03bd\u03af\u03ba\u03b7", "addr:street": "\u0391\u03b3\u03af\u03bf\u03c5 \u0394\u03b7\u03bc\u03b7\u03c4\u03c1\u03af\u03bf\u03c5", "amenity": "pharmacy", "dispensing": "yes", "healthcare": "pharmacy", "name": "\u039a\u03b1\u03b6\u03ba\u03bf\u03cd\u03c4\u03b7\u03c2"}}, {"type": "node", "id": 12082868521, "lat": 40.6343723, "lon": 22.9519753, "tags": {"addr:city": "\u0398\u03b5\u03c3\u03c3\u03b1\u03bb\u03bf\u03bd\u03af\u03ba\u03b7", "addr:housenumber": "20", "addr:street": "\u0391\u03c1\u03c1\u03b9\u03b1\u03bd\u03bf\u03cd", "amenity": "pharmacy", "dispensing": "yes", "healthcare": "pharmacy", "name": "\u03a1\u03b1\u03bd\u03c4\u03b1\u03b2\u03ad\u03bb\u03bb\u03b1"}}, {"type": "node", "id": 12107037528, "lat": 40.5519015, "lon": 23.0183678, "tags": {"addr:city": "\u0398\u03ad\u03c1\u03bc\u03b7", "addr:housenumber": "49", "addr:postcode": "57001", "addr:street": "\u03a4\u03b1\u03b2\u03ac\u03ba\u03b7", "amenity": "pharmacy", "healthcare": "pharmacy"}}, {"type": "node", "id": 12125229601, "lat": 40.6038278, "lon": 22.9626152, "tags": {"amenity": "pharmacy", "healthcare": "pharmacy", "outdoor_seating": "no"}}, {"type": "node", "id": 12165829460, "lat": 40.4969896, "lon": 22.9879727, "tags": {"amenity": "pharmacy", "healthcare": "pharmacy"}}, {"type": "node", "id": 12175394247, "lat": 40.6340916, "lon": 22.9428007, "tags": {"amenity": "pharmacy", "healthcare": "pharmacy"}}, {"type": "node", "id": 12178895821, "lat": 40.6340554, "lon": 22.9422416, "tags": {"addr:city": "\u0398\u03b5\u03c3\u03c3\u03b1\u03bb\u03bf\u03bd\u03af\u03ba\u03b7", "addr:housenumber": "11", "addr:postcode": "54624", "addr:street": "\u0391\u03c1\u03b9\u03c3\u03c4\u03bf\u03c4\u03ad\u03bb\u03bf\u03c5\u03c2", "amenity": "pharmacy", "healthcare": "pharmacy"}}, {"type": "node", "id": 12179614330, "lat": 40.6370912, "lon": 22.9384194, "tags": {"amenity": "pharmacy", "healthcare": "pharmacy"}}, {"type": "node", "id": 12241947228, "lat": 40.5716199, "lon": 22.9544931, "tags": {"addr:city": "\u039a\u03b1\u03bb\u03b1\u03bc\u03b1\u03c1\u03b9\u03ac", "addr:housenumber": "4", "addr:postcode": "55132", "addr:street": "\u03a0\u03bf\u03c3\u03b5\u03b9\u03b4\u03ce\u03bd\u03bf\u03c2", "amenity": "pharmacy", "healthcare": "pharmacy", "name": "\u0391\u03ba\u03c1\u03af\u03c4\u03b1\u03c2 \u0399. - \u0391\u03ba\u03c1\u03af\u03c4\u03b1 \u0391.", "opening_hours": "Mo-Sa 09:00-15:00, Tu/Th/Fr 17:30-21:00", "phone": "+30 2310 438640"}}, {"type": "node", "id": 12299394919, "lat": 40.6442526, "lon": 22.9292948, "tags": {"amenity": "pharmacy", "healthcare": "pharmacy", "level": "0"}}, {"type": "node", "id": 12643855594, "lat": 40.6402889, "lon": 22.9388135, "tags": {"addr:city": "\u0398\u03b5\u03c3\u03c3\u03b1\u03bb\u03bf\u03bd\u03af\u03ba\u03b7", "addr:postcode": "546 30", "addr:street": "\u039a\u03b1\u03c1\u03b1\u03bf\u03bb\u03ae \u03ba\u03b1\u03b9 \u0394\u03b7\u03bc\u03b7\u03c4\u03c1\u03af\u03bf\u03c5", "amenity": "pharmacy", "healthcare": "pharmacy"}}, {"type": "node", "id": 12680346950, "lat": 40.6348185, "lon": 22.9458403, "tags": {"addr:city": "\u0398\u03b5\u03c3\u03c3\u03b1\u03bb\u03bf\u03bd\u03af\u03ba\u03b7", "addr:housenumber": "96", "addr:postcode": "54623", "addr:street": "\u0395\u03b3\u03bd\u03b1\u03c4\u03af\u03b1", "amenity": "pharmacy", "healthcare": "pharmacy"}}, {"type": "node", "id": 12680460247, "lat": 40.6323679, "lon": 22.9464749, "tags": {"amenity": "pharmacy", "healthcare": "pharmacy"}}, {"type": "node", "id": 12701789828, "lat": 40.6092311, "lon": 22.9632096, "tags": {"amenity": "pharmacy"}}, {"type": "node", "id": 12704543101, "lat": 40.6498253, "lon": 22.9522439, "tags": {"amenity": "pharmacy", "healthcare": "pharmacy", "name": "\u039c\u03b1\u03c1\u03af\u03b1 \u0396\u03b9\u03ce\u03b3\u03b1"}}, {"type": "node", "id": 12741198953, "lat": 40.5732476, "lon": 22.9553633, "tags": {"addr:city": "\u039a\u03b1\u03bb\u03b1\u03bc\u03b1\u03c1\u03b9\u03ac", "addr:housenumber": "10", "addr:postcode": "55132", "addr:street": "\u03a3\u03bc\u03cd\u03c1\u03bd\u03b7\u03c2", "amenity": "pharmacy", "healthcare": "pharmacy", "name": "\u039a\u03c5\u03bd\u03b7\u03b3\u03bf\u03c0\u03bf\u03cd\u03bb\u03bf\u03c5 \u039c\u03b1\u03b3\u03b4\u03b1\u03bb\u03b7\u03bd\u03ae", "opening_hours": "Mo-Fr 08:30-14:00; Tu,Th,Fr 17:00-20:30", "phone": "+30 2310 436670"}}, {"type": "node", "id": 12885851829, "lat": 40.6423341, "lon": 22.9577488, "tags": {"amenity": "pharmacy", "healthcare": "pharmacy"}}, {"type": "node", "id": 12908977712, "lat": 40.6125603, "lon": 22.9870572, "tags": {"amenity": "pharmacy", "healthcare": "pharmacy"}}, {"type": "node", "id": 12911230509, "lat": 40.6139349, "lon": 22.9793291, "tags": {"amenity": "pharmacy", "healthcare": "pharmacy"}}, {"type": "node", "id": 12925529226, "lat": 40.6097153, "lon": 22.9729569, "tags": {"amenity": "pharmacy", "healthcare": "pharmacy", "name": "\u039a\u03c9\u03c3\u03c4\u03b9\u03ba\u03af\u03b4\u03bf\u03c5 \u03a3\u03bf\u03c6\u03af\u03b1"}}, {"type": "node", "id": 13037145581, "lat": 40.6118009, "lon": 22.9580016, "tags": {"amenity": "pharmacy", "healthcare": "pharmacy", "name": "\u03a0\u03bb\u03b1\u03c3\u03c4\u03b7\u03c1\u03b1 \u039b\u03bf\u03c5\u03bb\u03b1"}}, {"type": "node", "id": 13037157114, "lat": 40.6121916, "lon": 22.9605377, "tags": {"amenity": "pharmacy", "healthcare": "pharmacy", "name": "\u039a\u03c9\u03bd\u03c3\u03c4\u03b1\u03bd\u03c4\u03af\u03b1\u03c2 \u0391\u03ca\u03bd\u03c4\u03b6\u03ae \u039a\u03bf\u03c5\u03c4\u03c3\u03bf\u03c5\u03c6\u03bb\u03b9\u03b1\u03bd\u03b9\u03ce\u03c4\u03b7"}}, {"type": "node", "id": 13037165521, "lat": 40.6120241, "lon": 22.9590466, "tags": {"amenity": "pharmacy", "healthcare": "pharmacy", "name": "\u03a6\u03c4\u03b1\u03ba\u03b1\u03c2 \u03a3. \u03a7\u03c1\u03b7\u03c3\u03c4\u03bf\u03c2"}}, {"type": "node", "id": 13041383014, "lat": 40.6099325, "lon": 23.1003861, "tags": {"addr:city": "\u03a7\u03bf\u03c1\u03c4\u03b9\u03ac\u03c4\u03b7\u03c2", "addr:housenumber": "70", "addr:postcode": "57010", "addr:street": "\u039c\u03b1\u03c1\u03c4\u03cd\u03c1\u03c9\u03bd 2\u03b1\u03c2 \u03a3\u03b5\u03c0\u03c4\u03b5\u03bc\u03b2\u03c1\u03af\u03bf\u03c5", "amenity": "pharmacy", "check_date": "2025-09-03", "drive_through": "no", "healthcare": "pharmacy", "name": "\u03a6\u03b1\u03c1\u03bc\u03b1\u03ba\u03b5\u03af\u03bf \u039a\u03ce\u03c3\u03c4\u03b1\u03c2 \u039c\u03c0\u03bf\u03c3\u03b4\u03b5\u03bb\u03b1\u03ba\u03af\u03b4\u03b7\u03c2", "opening_hours": "Mo-Fr 09:00-21:00; Sa 09:00-14:30", "operator": "\u039a\u03ce\u03c3\u03c4\u03b1\u03c2 \u039c\u03c0\u03bf\u03c3\u03b4\u03b5\u03bb\u03b1\u03ba\u03af\u03b4\u03b7\u03c2", "phone": "+30 2310 349 659"}}, {"type": "node", "id": 13057833953, "lat": 40.5916251, "lon": 23.0340511, "tags": {"addr:city": "\u03a0\u03b1\u03bd\u03cc\u03c1\u03b1\u03bc\u03b1", "addr:housenumber": "9", "addr:postcode": "55236", "addr:street": "\u039a\u03bf\u03bc\u03bd\u03b7\u03bd\u03ce\u03bd", "amenity": "pharmacy", "drive_through": "no", "healthcare": "pharmacy", "name": "\u03a0\u03b1\u03c0\u03b1\u03b3\u03b5\u03c9\u03c1\u03b3\u03af\u03bf\u03c5 \u0395\u03bb\u03ad\u03bd\u03b7", "phone": ":+30 2314 071200"}}, {"type": "node", "id": 13057890018, "lat": 40.5911076, "lon": 23.0337008, "tags": {"amenity": "pharmacy", "check_date": "2025-09-02", "drive_through": "no", "healthcare": "pharmacy", "name": "\u03a4\u0396\u0399\u039d\u03a4\u0396\u0397\u03a3 \u03a0\u039b\u0391\u03a4\u03a9\u039d"}}, {"type": "node", "id": 13077864924, "lat": 40.5837706, "lon": 23.0270825, "tags": {"entrance": "main"}}, {"type": "node", "id": 13107928102, "lat": 40.63662, "lon": 22.9417396, "tags": {"amenity": "pharmacy", "healthcare": "pharmacy"}}, {"type": "node", "id": 13116086657, "lat": 40.638539, "lon": 22.9348378, "tags": {"addr:city": "\u0398\u03b5\u03c3\u03c3\u03b1\u03bb\u03bf\u03bd\u03af\u03ba\u03b7", "addr:housenumber": "2", "addr:postcode": "54626", "addr:street": "\u03a6\u03c1\u03ac\u03b3\u03ba\u03c9\u03bd", "amenity": "pharmacy", "healthcare": "pharmacy", "name": "\u03a4\u03c3\u03b1\u03c7\u03b1\u03bb\u03af\u03b4\u03bf\u03c5", "operator": "\u039c\u03ac\u03c1\u03b8\u03b1 \u03a4\u03c3\u03b1\u03c7\u03b1\u03bb\u03af\u03b4\u03bf\u03c5"}}, {"type": "node", "id": 13119121023, "lat": 40.6012735, "lon": 22.9550163, "tags": {"amenity": "pharmacy", "healthcare": "pharmacy"}}, {"type": "node", "id": 13121712031, "lat": 40.656763, "lon": 22.9870212}, {"type": "node", "id": 13121712032, "lat": 40.6567614, "lon": 22.9871425}, {"type": "node", "id": 13121712033, "lat": 40.6568051, "lon": 22.9871435}, {"type": "node", "id": 13131874301, "lat": 40.5910127, "lon": 23.0361645, "tags": {"addr:city": "\u03a0\u03b1\u03bd\u03cc\u03c1\u03b1\u03bc\u03b1", "addr:housenumber": "14", "addr:postcode": "55236", "addr:street": "\u039a\u03bf\u03bc\u03bd\u03b7\u03bd\u03ce\u03bd", "amenity": "pharmacy", "contact:facebook": "aetherialpharmacypanorama", "contact:instagram": "aetherial_pharmacy", "email": "aetherialpharmacy@gmail.com", "healthcare": "pharmacy", "name": "\u03a6\u03b1\u03c1\u03bc\u03b1\u03ba\u03b5\u03af\u03bf \u039a\u03bf\u03c4\u03c1\u03af\u03b4\u03bf\u03c5 \u0392\u03b1\u03c3\u03b9\u03bb\u03b5\u03af\u03b1 \u0397\u03bb\u03b9\u03ac\u03bd\u03b1", "opening_hours": "Mo-Fr 08:15-21:00; Sa 09:00-20:00", "phone": "+30 2310 331405", "website": "https://aetherialpharmacy.gr/"}}, {"type": "node", "id": 13144365645, "lat": 40.6024917, "lon": 22.9571069, "tags": {"amenity": "pharmacy", "healthcare": "pharmacy", "name": "\u03a6\u0395\u039d\u0399\u0391 \u0396\u03a9\u03a4\u039f\u03a5"}}, {"type": "node", "id": 13144390612, "lat": 40.6034174, "lon": 22.9573933, "tags": {"amenity": "pharmacy", "healthcare": "pharmacy", "name": "\u039c\u03c5\u03c1\u03c3\u03b9\u03bd\u03b7 \u03a3\u03c4\u03b1\u03bb\u03b9\u03ba\u03b1"}}, {"type": "way", "id": 611285649, "nodes": [5787884037, 5787884036, 9039691420, 9039691424, 5787884035, 9039691421, 5787884034, 5787884037], "tags": {"addr:street": "\u0391\u03b3\u03af\u03bf\u03c5 \u039d\u03b9\u03ba\u03bf\u03bb\u03ac\u03bf\u03c5", "amenity": "pharmacy", "building": "apartments", "healthcare": "pharmacy", "source": "Kaart Ground Survey 2018"}}, {"type": "way", "id": 986534216, "nodes": [9119079438, 9119079437, 9119079436, 9119079434, 9119079435, 9119079438], "tags": {"addr:city": "\u03a0\u03b1\u03bd\u03cc\u03c1\u03b1\u03bc\u03b1", "addr:housenumber": "31", "addr:postcode": "55236", "addr:street": "\u03a6\u03b9\u03bb\u03b5\u03bb\u03bb\u03ae\u03bd\u03c9\u03bd", "amenity": "pharmacy", "building": "yes", "healthcare": "pharmacy", "name": "\u0396\u03b9\u03ac\u03ba\u03b1\u03c2 \u0393\u03b5\u03ce\u03c1\u03b3\u03b9\u03bf\u03c2", "operator": "\u0396\u03b9\u03ac\u03ba\u03b1\u03c2 \u0393\u03b5\u03ce\u03c1\u03b3\u03b9\u03bf\u03c2", "phone": "+30 2310 340239"}}, {"type": "way", "id": 987647889, "nodes": [9129063274, 9129063273, 9129063272, 9129063270, 9129063269, 13077864924, 9129063271, 9129063274], "tags": {"addr:city": "\u03a0\u03b1\u03bd\u03cc\u03c1\u03b1\u03bc\u03b1", "addr:housenumber": "4", "addr:postcode": "55236", "addr:street": "\u0391\u03b4\u03b1\u03bc\u03b1\u03bd\u03c4\u03af\u03bf\u03c5 \u039a\u03bf\u03c1\u03b1\u03ae", "amenity": "pharmacy", "building": "yes", "email": "ekeramo@gmail.com", "healthcare": "pharmacy", "name": "\u039a\u03b5\u03c1\u03b1\u03bc\u03bf\u03c0\u03bf\u03cd\u03bb\u03bf\u03c5 \u0395\u03b9\u03c1\u03ae\u03bd\u03b7", "operator": "\u039a\u03b5\u03c1\u03b1\u03bc\u03bf\u03c0\u03bf\u03cd\u03bb\u03bf\u03c5 \u0395\u03b9\u03c1\u03ae\u03bd\u03b7", "phone": "+30 2310 346440"}}, {"type": "way", "id": 1427370186, "nodes": [9002925716, 13121712031, 13121712032, 13121712033, 9002925716], "tags": {"addr:city": "\u0394\u03b7\u03bc\u03bf\u03c4\u03b9\u03ba\u03ae \u0395\u03bd\u03cc\u03c4\u03b7\u03c4\u03b1 \u03a0\u03b5\u03cd\u03ba\u03c9\u03bd", "addr:housenumber": "6", "addr:postcode": "57010", "addr:street": "\u03a3\u03b9\u03ba\u03b5\u03bb\u03b9\u03b1\u03bd\u03bf\u03cd", "amenity": "pharmacy", "building": "yes", "building:levels": "1", "check_date": "2025-09-05", "healthcare": "pharmacy", "name": "\u0394\u03c1\u03bf\u03c3\u03bf\u03c0\u03bf\u03cd\u03bb\u03bf\u03c5 / \u03a7\u03b1\u03c4\u03b6\u03b7\u03c0\u03b1\u03bd\u03b1\u03b3\u03b9\u03ce\u03c4\u03bf\u03c5", "shop": "chemist"}}]}