{"version": 0.6, "generator": "Overpass API 0.7.62.8 e802775f", "osm3s": {"timestamp_osm_base": "2025-10-06T08:41:25Z", "copyright": "The data included in this document is from www.openstreetmap.org. The data is made available under ODbL."}, "elements": [{"type": "node", "id": 663870132, "lat": 44.7194518, "lon": 25.3210556, "tags": {"amenity": "pharmacy"}}, {"type": "node", "id": 663870135, "lat": 44.71993, "lon": 25.3175845, "tags": {"amenity": "pharmacy", "shop": "general"}}, {"type": "node", "id": 663870142, "lat": 44.7203291, "lon": 25.3182122, "tags": {"amenity": "pharmacy", "healthcare": "pharmacy", "name": "Valeriana"}}, {"type": "node", "id": 1215403440, "lat": 44.9189284, "lon": 25.4592557, "tags": {"amenity": "pharmacy", "healthcare": "pharmacy", "name": "Farm ES"}}, {"type": "node", "id": 3688516210, "lat": 45.066306, "lon": 25.2524504, "tags": {"addr:city": "Voine\u0219ti", "amenity": "pharmacy", "name": "Flora", "source": "survey 09.08.2015"}}, {"type": "node", "id": 3688545545, "lat": 45.1064212, "lon": 25.2271223, "tags": {"addr:city": "Gemenea Br\u0103tule\u0219ti", "amenity": "pharmacy", "healthcare": "pharmacy", "name": "Vinca Farm", "source": "survey 09.08.2015"}}, {"type": "node", "id": 3953180060, "lat": 45.0744558, "lon": 25.4347676, "tags": {"amenity": "pharmacy", "name": "Village Pharm"}}, {"type": "node", "id": 3953180071, "lat": 45.0773386, "lon": 25.4337242, "tags": {"amenity": "pharmacy", "name": "Farmacia Valeriana"}}, {"type": "node", "id": 4068076271, "lat": 44.719101, "lon": 25.3218616, "tags": {"amenity": "pharmacy", "name": "Village farm"}}, {"type": "node", "id": 4235469112, "lat": 44.9285947, "lon": 25.439009, "tags": {"addr:street": "Calea C\u00e2mpulung", "amenity": "pharmacy", "name": "Rondo Farm"}}, {"type": "node", "id": 4235469121, "lat": 44.9287141, "lon": 25.4405633, "tags": {"addr:city": "T\u00e2rgovi\u0219te", "addr:street": "Strada Constantin Br\u00e2ncoveanu", "amenity": "pharmacy", "healthcare": "pharmacy", "name": "Belladonna"}}, {"type": "node", "id": 4243964862, "lat": 44.9273319, "lon": 25.4660511, "tags": {"addr:street": "Calea Domneasc\u0103", "amenity": "pharmacy", "name": "Rondo Farm"}}, {"type": "node", "id": 4246103765, "lat": 44.9231601, "lon": 25.4656658, "tags": {"addr:city": "T\u00e2rgovi\u0219te", "addr:street": "Bulevardul Independen\u021bei", "amenity": "pharmacy", "brand": "Catena", "brand:wikidata": "Q24035728", "healthcare": "pharmacy", "name": "Catena"}}, {"type": "node", "id": 4246103766, "lat": 44.9232823, "lon": 25.4660393, "tags": {"addr:city": "T\u00e2rgovi\u0219te", "addr:street": "Bulevardul Independen\u021bei", "amenity": "pharmacy", "brand": "Dr. Max", "brand:wikidata": "Q56317371", "healthcare": "pharmacy", "name": "Dr. Max"}}, {"type": "node", "id": 4398544804, "lat": 44.9154694, "lon": 25.4816551, "tags": {"addr:street": "Strada Petru Cercel", "amenity": "pharmacy", "name": "MedimFarm"}}, {"type": "node", "id": 4816632591, "lat": 44.9308586, "lon": 25.4475674, "tags": {"addr:street": "Strada Constantin Br\u00e2ncoveanu", "amenity": "pharmacy", "name": "Catena"}}, {"type": "node", "id": 5184333331, "lat": 44.9235837, "lon": 25.4515275, "tags": {"amenity": "pharmacy", "healthcare": "pharmacy", "name": "HelpNet"}}, {"type": "node", "id": 5261589327, "lat": 44.9550936, "lon": 24.9327206, "tags": {"amenity": "pharmacy", "name": "Simina Pharma"}}, {"type": "node", "id": 6258807465, "lat": 44.9173601, "lon": 25.481781, "tags": {"addr:street": "Calea Ploie\u0219ti", "amenity": "pharmacy", "name": "Depo Med"}}, {"type": "node", "id": 6262090790, "lat": 44.9253515, "lon": 25.4644042, "tags": {"addr:city": "T\u00e2rgovi\u0219te", "addr:street": "Bulevardul Independen\u021bei", "amenity": "pharmacy", "brand": "Catena", "brand:wikidata": "Q24035728", "healthcare": "pharmacy", "name": "Catena"}}, {"type": "node", "id": 6262090791, "lat": 44.9253038, "lon": 25.4644456, "tags": {"addr:street": "Bulevardul Independen\u021bei", "amenity": "pharmacy", "healthcare": "pharmacy", "name": "Farmacia Maxi Farma"}}, {"type": "node", "id": 6262090823, "lat": 44.9259844, "lon": 25.4632401, "tags": {"addr:city": "T\u00e2rgovi\u0219te", "addr:street": "Bulevardul Independen\u021bei", "amenity": "pharmacy", "healthcare": "pharmacy", "name": "Belladonna"}}, {"type": "node", "id": 6262090824, "lat": 44.9255813, "lon": 25.4636291, "tags": {"addr:city": "T\u00e2rgovi\u0219te", "addr:street": "Bulevardul Independen\u021bei", "amenity": "pharmacy", "healthcare": "pharmacy", "name": "Farmacia Valmed"}}, {"type": "node", "id": 6262338861, "lat": 44.9308387, "lon": 25.4493052, "tags": {"addr:street": "Strada Constantin Br\u00e2ncoveanu", "amenity": "pharmacy", "name": "Perseea Farm"}}, {"type": "node", "id": 6264190849, "lat": 44.9203986, "lon": 25.4758549, "tags": {"addr:street": "Strada Radu de la Afuma\u021bi", "amenity": "pharmacy", "fixme": "name", "healthcare": "pharmacy"}}, {"type": "node", "id": 6264310986, "lat": 44.9303193, "lon": 25.4496883, "tags": {"addr:street": "Strada Ion Ghica", "amenity": "pharmacy", "name": "Farmacia Richter"}}, {"type": "node", "id": 6264590932, "lat": 44.9166992, "lon": 25.4712011, "tags": {"addr:street": "Bulevardul Ion C. Br\u0103tianu", "amenity": "pharmacy", "fixme": "name"}}, {"type": "node", "id": 6264799738, "lat": 44.9218438, "lon": 25.4673775, "tags": {"addr:city": "T\u00e2rgovi\u0219te", "addr:street": "Bulevardul Independen\u021bei", "amenity": "pharmacy", "brand": "Catena", "brand:wikidata": "Q24035728", "healthcare": "pharmacy", "name": "Catena"}}, {"type": "node", "id": 6266191628, "lat": 44.9233707, "lon": 25.4514304, "tags": {"addr:street": "Bulevardul Tudor Vladimirescu", "amenity": "pharmacy", "healthcare": "pharmacy", "name": "Farmacia Maxi Farma"}}, {"type": "node", "id": 6266399257, "lat": 44.9238806, "lon": 25.4511595, "tags": {"addr:street": "Bulevardul Tudor Vladimirescu", "amenity": "pharmacy", "healthcare": "pharmacy", "name": "Farmacie Medifarm"}}, {"type": "node", "id": 6266553335, "lat": 44.9197284, "lon": 25.4780791, "tags": {"addr:street": "Calea Bucure\u0219ti", "amenity": "pharmacy", "fixme": "name", "healthcare": "pharmacy"}}, {"type": "node", "id": 6266838853, "lat": 44.9280108, "lon": 25.4647804, "tags": {"addr:street": "Calea Domneasc\u0103", "amenity": "pharmacy", "name": "VallerianaMed"}}, {"type": "node", "id": 6266979542, "lat": 44.9304085, "lon": 25.4539061, "tags": {"addr:street": "Strada Maior Eugen Brezi\u0219eanu", "amenity": "pharmacy", "name": "Farmacia Hyperici"}}, {"type": "node", "id": 6499575688, "lat": 45.0351945, "lon": 25.2861471, "tags": {"amenity": "pharmacy", "name": "Farmacie", "name:en": "Pharmacy"}}, {"type": "node", "id": 6503673585, "lat": 44.9129466, "lon": 25.3212485, "tags": {"amenity": "pharmacy", "dispensing": "yes", "healthcare": "pharmacy", "name": "Farmacia Aconitiline"}}, {"type": "node", "id": 6932801884, "lat": 44.8185243, "lon": 24.9429393, "tags": {"amenity": "pharmacy", "brand": "Dr. Max", "brand:wikidata": "Q12740640", "brand:wikipedia": "ro:Sensiblu", "dispensing": "yes", "healthcare": "pharmacy", "name": "Dr. Max"}}, {"type": "node", "id": 7826745201, "lat": 44.9113971, "lon": 25.4641718, "tags": {"addr:city": "T\u00e2rgovi\u0219te", "addr:postcode": "130026", "addr:street": "Bulevardul Regele Ferdinand", "amenity": "pharmacy", "brand": "Dr. Max", "brand:wikidata": "Q56317371", "dispensing": "yes", "healthcare": "pharmacy", "name": "Dr. Max", "operator": "Dr.Max", "website": "https://www.drmax.ro"}}, {"type": "node", "id": 8645244100, "lat": 44.9117392, "lon": 25.4636441, "tags": {"addr:city": "T\u00e2rgovi\u0219te", "addr:postcode": "130026", "addr:street": "Bulevardul Regele Ferdinand", "amenity": "pharmacy", "brand": "Help Net", "brand:wikidata": "Q12729923", "dispensing": "yes", "healthcare": "pharmacy", "name": "Help Net"}}, {"type": "node", "id": 8777018695, "lat": 45.0757691, "lon": 25.4344855, "tags": {"amenity": "pharmacy", "dispensing": "yes", "healthcare": "pharmacy", "name": "Hygea"}}, {"type": "node", "id": 8780479571, "lat": 45.0792488, "lon": 25.4335774, "tags": {"amenity": "pharmacy", "dispensing": "yes", "healthcare": "pharmacy", "name": "Help Net"}}, {"type": "node", "id": 9262982554, "lat": 44.7209359, "lon": 25.3162927, "tags": {"addr:city": "G\u0103e\u0219ti", "addr:street": "Strada Nicolae Titulescu", "amenity": "pharmacy", "dispensing": "yes", "healthcare": "pharmacy", "name": "Olmifarm"}}, {"type": "node", "id": 9753360521, "lat": 44.9272469, "lon": 25.4566255, "tags": {"amenity": "pharmacy", "dispensing": "yes", "healthcare": "pharmacy", "name": "Farmacia Hiperici"}}, {"type": "node", "id": 9918855885, "lat": 44.9215819, "lon": 25.4669459, "tags": {"addr:city": "T\u00e2rgovi\u0219te", "addr:postcode": "130180", "addr:street": "Strada Independen\u021bei", "amenity": "pharmacy", "dispensing": "yes", "healthcare": "pharmacy", "name": "Help Net", "not:brand:wikidata": "Q12729923"}}, {"type": "node", "id": 10221188128, "lat": 44.9206187, "lon": 25.4543197, "tags": {"addr:city": "T\u00e2rgovi\u0219te", "addr:street": "Strada Colonel Dumitru B\u0103lt\u0103re\u021bu", "amenity": "pharmacy", "healthcare": "pharmacy", "name": "Farmacia Rondo Farm"}}, {"type": "node", "id": 10754086746, "lat": 44.8078993, "lon": 25.0844265, "tags": {"addr:city": "Topoloveni", "addr:street": "Calea Bucure\u0219ti", "amenity": "pharmacy", "healthcare": "pharmacy", "name": "Omnia 2"}}, {"type": "node", "id": 11664911179, "lat": 44.9627873, "lon": 25.461055, "tags": {"addr:city": "Vifor\u00e2ta", "addr:street": "Strada Mihai Viteazul", "amenity": "pharmacy", "healthcare": "pharmacy", "name": "Farmacie Viforata"}}, {"type": "node", "id": 11948135747, "lat": 44.8084686, "lon": 25.0821697, "tags": {"addr:city": "Topoloveni", "addr:street": "Strada Parcului", "amenity": "pharmacy", "healthcare": "pharmacy", "name": "Farmacie", "operator": "Farmacia Omnia Farmimpex S.R.L."}}, {"type": "node", "id": 12320180041, "lat": 44.936653, "lon": 24.9075271}, {"type": "node", "id": 12320180042, "lat": 44.9366379, "lon": 24.907629}, {"type": "node", "id": 12320180043, "lat": 44.9365771, "lon": 24.9076129}, {"type": "node", "id": 12320180044, "lat": 44.9365885, "lon": 24.9075217}, {"type": "way", "id": 1331554922, "nodes": [12320180041, 12320180042, 12320180043, 12320180044, 12320180041], "tags": {"addr:street": "DN73D", "amenity": "pharmacy", "building": "yes", "dispensing": "yes", "healthcare": "pharmacy"}}]}