{"version": 0.6, "generator": "Overpass API 0.7.62.8 e802775f", "osm3s": {"timestamp_osm_base": "2025-10-06T07:48:26Z", "copyright": "The data included in this document is from www.openstreetmap.org. The data is made available under ODbL."}, "elements": [{"type": "node", "id": 4360395789, "lat": 39.753343, "lon": 20.6488363, "tags": {"amenity": "pharmacy", "healthcare": "pharmacy", "name": "\u039c\u03c0\u03b1\u03ba\u03b1\u03c4\u03c3\u03bf\u03cd\u03bb\u03b1\u03c2 \u039a\u03c9\u03bd/\u03bd\u03bf\u03c2", "phone": "+30 2658 023444"}}, {"type": "node", "id": 5221253945, "lat": 39.8886943, "lon": 20.6242038, "tags": {"amenity": "pharmacy", "healthcare": "pharmacy"}}, {"type": "node", "id": 9193330971, "lat": 40.0323698, "lon": 20.1768746, "tags": {"amenity": "pharmacy", "healthcare": "pharmacy"}}, {"type": "node", "id": 9811255582, "lat": 39.7891, "lon": 20.7394377, "tags": {"amenity": "pharmacy", "healthcare": "pharmacy", "name": "\u0392\u03bb\u03ac\u03c7\u03bf\u03c2 \u0393\u03b5\u03ce\u03c1\u03b3\u03b9\u03bf\u03c2"}}, {"type": "node", "id": 9814088858, "lat": 40.0141192, "lon": 20.5595363, "tags": {"amenity": "pharmacy", "healthcare": "pharmacy"}}, {"type": "node", "id": 9817519835, "lat": 40.1520977, "lon": 20.598586, "tags": {"amenity": "pharmacy", "healthcare": "pharmacy"}}, {"type": "node", "id": 9939829727, "lat": 39.8607514, "lon": 20.5675001, "tags": {"amenity": "pharmacy", "healthcare": "pharmacy"}}, {"type": "node", "id": 11074051086, "lat": 39.8226201, "lon": 20.7285746, "tags": {"addr:city": "\u0391\u03c3\u03c0\u03c1\u03ac\u03b3\u03b3\u03b5\u03bb\u03bf\u03b9", "amenity": "pharmacy", "healthcare": "pharmacy", "name": "\u0398\u0395\u039c\u0395\u039b\u0397\u03a3 \u0394. \u0398\u03a9\u039c\u0391\u03a3", "name:el": "\u0398\u0395\u039c\u0395\u039b\u0397\u03a3 \u0394. \u0398\u03a9\u039c\u0391\u03a3", "operator": "\u0398\u0395\u039c\u0395\u039b\u0397\u03a3 \u0394. \u0398\u03a9\u039c\u0391\u03a3", "phone": "+302653025903"}}]}