{"version": 0.6, "generator": "Overpass API 0.7.62.8 e802775f", "osm3s": {"timestamp_osm_base": "2025-10-06T08:47:24Z", "copyright": "The data included in this document is from www.openstreetmap.org. The data is made available under ODbL."}, "elements": [{"type": "node", "id": 11663364370, "lat": 39.7500405, "lon": 27.5795844, "tags": {"amenity": "pharmacy", "healthcare": "pharmacy", "name": "Balya Eczanesi", "phone": "+90 537 789 6810"}}, {"type": "node", "id": 11663364371, "lat": 39.7492577, "lon": 27.5775649, "tags": {"amenity": "pharmacy", "healthcare": "pharmacy", "name": "Do\u011fan Eczanesi", "phone": "+90 266 486 1159"}}, {"type": "node", "id": 11663365369, "lat": 39.749455, "lon": 27.5775939, "tags": {"amenity": "pharmacy", "healthcare": "pharmacy", "name": "Ne\u015fe Eczanesi", "phone": "+90 266 486 2044"}}, {"type": "node", "id": 11663610469, "lat": 39.8533582, "lon": 27.40217, "tags": {"amenity": "pharmacy", "name": "Lale Eczanesi", "phone": "+90 286 494 8378"}}, {"type": "node", "id": 11663610470, "lat": 39.929764, "lon": 27.2568137, "tags": {"amenity": "pharmacy", "healthcare": "pharmacy", "name": "\u00c7elik Eczanesi", "phone": "+90 286 474 4117"}}, {"type": "node", "id": 11663610669, "lat": 39.85114, "lon": 27.2508314, "tags": {"amenity": "pharmacy", "name": "Can Eczanesi"}}, {"type": "node", "id": 11663610670, "lat": 39.9297405, "lon": 27.2572653, "tags": {"amenity": "pharmacy", "healthcare": "pharmacy", "name": "Yenice Eczanesi", "phone": "+90 286 474 4130"}}, {"type": "node", "id": 11663610769, "lat": 39.8120429, "lon": 27.2127289, "tags": {"amenity": "pharmacy", "name": "G\u00fcven Eczanesi"}}, {"type": "node", "id": 11663610770, "lat": 39.8122268, "lon": 27.213209, "tags": {"amenity": "pharmacy", "name": "Kalk\u0131m Eczanesi", "phone": "+90 286 484 7038"}}, {"type": "node", "id": 11663610771, "lat": 39.9302561, "lon": 27.259469, "tags": {"amenity": "pharmacy", "healthcare": "pharmacy", "name": "Beg\u00fcm Eczanesi", "phone": "+90 286 773 1117"}}, {"type": "node", "id": 11663610772, "lat": 39.9296185, "lon": 27.2569637, "tags": {"amenity": "pharmacy", "healthcare": "pharmacy", "name": "Bizim Eczanesi", "phone": "+90 286 474 3825"}}, {"type": "node", "id": 11663610773, "lat": 39.9297864, "lon": 27.2567006, "tags": {"amenity": "pharmacy", "healthcare": "pharmacy", "name": "Dost Eczanesi", "phone": "+90 286 474 4252"}}, {"type": "node", "id": 11663610869, "lat": 39.9299094, "lon": 27.258111, "tags": {"amenity": "pharmacy", "healthcare": "pharmacy", "name": "\u00d6zlem Eczanesi", "phone": "+90 286 474 4130"}}, {"type": "node", "id": 11664435670, "lat": 40.0215723, "lon": 27.0541033, "tags": {"amenity": "pharmacy", "name": "Kar\u015f\u0131yaka Eczanesi", "phone": "+90 286 416 0604"}}, {"type": "node", "id": 11664435671, "lat": 40.0371226, "lon": 27.0693363, "tags": {"amenity": "pharmacy", "healthcare": "pharmacy", "name": "Bat\u0131 Eczanesi", "phone": "+90 286 416 5599"}}, {"type": "node", "id": 11664435672, "lat": 40.0358392, "lon": 27.0648748, "tags": {"amenity": "pharmacy", "healthcare": "pharmacy", "name": "Terzialan Eczanesi", "phone": "+90 286 445 4222"}}, {"type": "node", "id": 11664435673, "lat": 40.0310795, "lon": 27.0544377, "tags": {"amenity": "pharmacy", "healthcare": "pharmacy", "name": "\u0130stiklal Eczanesi", "phone": "+90 286 416 1755"}}, {"type": "node", "id": 11664435674, "lat": 40.03032, "lon": 27.0513749, "tags": {"amenity": "pharmacy", "healthcare": "pharmacy", "name": "Yan\u0131k Eczanesi", "phone": "+90 286 416 1124"}}, {"type": "node", "id": 11664435675, "lat": 40.0288461, "lon": 27.0498649, "tags": {"amenity": "pharmacy", "healthcare": "pharmacy", "name": "Ak\u0131n Eczanesi", "phone": "+90 286 416 9502"}}, {"type": "node", "id": 11664435769, "lat": 40.0289441, "lon": 27.0532268, "tags": {"amenity": "pharmacy", "healthcare": "pharmacy", "name": "Nur Eczanesi i", "name:tr": "Nur Eczanesi", "phone": "+90 286 416 2780"}}, {"type": "node", "id": 11664435770, "lat": 40.0277977, "lon": 27.0476738, "tags": {"amenity": "pharmacy", "healthcare": "pharmacy", "name": "Gizem Eczanesi", "phone": "+90 286 416 1411"}}, {"type": "node", "id": 11664435869, "lat": 40.0299967, "lon": 27.0523019, "tags": {"amenity": "pharmacy", "healthcare": "pharmacy", "name": "\u00d6zt\u00fcrk Eczanesi", "phone": "+90 286 416 5745"}}, {"type": "node", "id": 11664435969, "lat": 40.0294105, "lon": 27.0508741, "tags": {"amenity": "pharmacy", "healthcare": "pharmacy", "name": "Akku\u015f Eczanesi", "phone": "+90 286 416 5194"}}, {"type": "node", "id": 11664436069, "lat": 40.0290962, "lon": 27.0504711, "tags": {"amenity": "pharmacy", "healthcare": "pharmacy", "name": "Sa\u011fl\u0131k Eczanesi", "phone": "+90 286 416 2478"}}, {"type": "node", "id": 11664436169, "lat": 40.0286219, "lon": 27.0493707, "tags": {"amenity": "pharmacy", "healthcare": "pharmacy", "name": "\u00c7evre Eczanesi", "phone": "+90 286 416 7103"}}, {"type": "node", "id": 11664436170, "lat": 40.0267509, "lon": 27.0437528, "tags": {"amenity": "pharmacy", "healthcare": "pharmacy", "name": "Sevda \u00c7\u0131ldan Eczanesi", "phone": "+90 286 416 8624"}}, {"type": "node", "id": 11664436269, "lat": 40.0282381, "lon": 27.0481994, "tags": {"amenity": "pharmacy", "healthcare": "pharmacy", "name": "Hayrunnisa Eczanesi", "phone": "+90 286 416 9125"}}, {"type": "node", "id": 11664436270, "lat": 40.0275788, "lon": 27.0473701, "tags": {"amenity": "pharmacy", "healthcare": "pharmacy", "name": "G\u00fcler Eczanesi", "phone": "+90 286 416 2516"}}, {"type": "node", "id": 11664436271, "lat": 40.0286123, "lon": 27.0467985, "tags": {"amenity": "pharmacy", "healthcare": "pharmacy", "name": "Derman Eczanesi", "phone": "+90 286 416 1586"}}]}