{"version": 0.6, "generator": "Overpass API 0.7.62.8 e802775f", "osm3s": {"timestamp_osm_base": "2025-10-06T07:45:26Z", "copyright": "The data included in this document is from www.openstreetmap.org. The data is made available under ODbL."}, "elements": [{"type": "node", "id": 4792090516, "lat": 40.1017877, "lon": 19.7441504, "tags": {"amenity": "pharmacy", "healthcare": "pharmacy"}}, {"type": "node", "id": 6528681185, "lat": 40.1017791, "lon": 19.7459387, "tags": {"amenity": "pharmacy", "name": "Kontrate me"}}, {"type": "node", "id": 7900540485, "lat": 40.3262437, "lon": 19.4728534, "tags": {"amenity": "pharmacy", "healthcare": "pharmacy"}}, {"type": "node", "id": 7949054782, "lat": 40.1014438, "lon": 19.7444551, "tags": {"amenity": "pharmacy"}}, {"type": "node", "id": 9802563884, "lat": 40.0617961, "lon": 19.857204, "tags": {"amenity": "pharmacy", "check_date": "2024-09-02", "name": "Ema's Pharmacy", "payment:cash": "yes", "payment:mastercard": "yes", "payment:visa_debit": "yes"}}, {"type": "node", "id": 12820453909, "lat": 40.1554268, "lon": 19.6329074, "tags": {"amenity": "pharmacy", "healthcare": "pharmacy"}}]}