{"version": 0.6, "generator": "Overpass API 0.7.62.8 e802775f", "osm3s": {"timestamp_osm_base": "2025-10-06T08:34:14Z", "copyright": "The data included in this document is from www.openstreetmap.org. The data is made available under ODbL."}, "elements": [{"type": "node", "id": 476219016, "lat": 53.35889, "lon": 20.42632, "tags": {"addr:city": "Nidzica", "addr:housenumber": "10", "addr:street": "Plac Wolno\u015bci", "amenity": "pharmacy", "dispensing": "yes", "healthcare": "pharmacy", "name": "S\u0142oneczna", "phone": "+48896257668", "ref:csioz": "1039549", "source": "http://ump.waw.pl/ retrieved 12:40:28 08/23/09 (UMP-Ciechanow/src/POI-Ciechanow.szpitale.pnt-converted.txt)"}}, {"type": "node", "id": 476219065, "lat": 53.35866, "lon": 20.42249, "tags": {"addr:city": "Nidzica", "addr:housenumber": "8", "addr:street": "Tadeusza Ko\u015bciuszki", "amenity": "pharmacy", "dispensing": "yes", "healthcare": "pharmacy", "phone": "+48896252134", "ref:csioz": "1039558", "source": "http://ump.waw.pl/ retrieved 12:40:28 08/23/09 (UMP-Ciechanow/src/POI-Ciechanow.szpitale.pnt-converted.txt)"}}, {"type": "node", "id": 476219070, "lat": 53.3617152, "lon": 20.4220872, "tags": {"addr:city": "Nidzica", "addr:housenumber": "14", "addr:street": "Romualda Traugutta", "amenity": "pharmacy", "brand": "Dbam o Zdrowie", "brand:wikidata": "Q62563833", "dispensing": "yes", "healthcare": "pharmacy", "name": "Dbam o Zdrowie", "ref:csioz": "1178691", "short_name": "DOZ"}}, {"type": "node", "id": 476219355, "lat": 53.36059, "lon": 20.42613, "tags": {"addr:city": "Nidzica", "addr:housenumber": "1", "addr:street": "Adama Mickiewicza", "amenity": "pharmacy", "dispensing": "yes", "healthcare": "pharmacy", "name": "Centrum", "phone": "+48896253216", "ref:csioz": "1039525", "source": "http://ump.waw.pl/ retrieved 12:40:28 08/23/09 (UMP-Ciechanow/src/POI-Ciechanow.szpitale.pnt-converted.txt)"}}, {"type": "node", "id": 1504314176, "lat": 53.583181, "lon": 20.2862482, "tags": {"amenity": "pharmacy", "dispensing": "yes", "healthcare": "pharmacy", "name": "Apteka S\u0142oneczna", "opening_hours": "Mo-Sa 07:00-22:00", "ref:csioz": "1184894"}}, {"type": "node", "id": 1504314177, "lat": 53.5828221, "lon": 20.2855081, "tags": {"amenity": "pharmacy", "dispensing": "yes", "healthcare": "pharmacy", "name": "Apteka Remedium", "ref:csioz": "1039574"}}, {"type": "node", "id": 1504314195, "lat": 53.5824242, "lon": 20.2894392, "tags": {"amenity": "pharmacy", "brand": "Dbam o Zdrowie", "brand:wikidata": "Q62563833", "dispensing": "yes", "healthcare": "pharmacy", "name": "Dbam o Zdrowie", "official_name": "Doz Apteka. Dbam O Zdrowie. Mgr Farm. Dorota Stempin", "ref:csioz": "1039596", "short_name": "DOZ"}}, {"type": "node", "id": 9598219424, "lat": 53.3586855, "lon": 20.4263041, "tags": {"addr:city": "Nidzica", "addr:housenumber": "13", "addr:street": "Plac Wolno\u015bci", "amenity": "pharmacy", "dispensing": "yes", "fixme": "Lokalizacja do weryfikacji", "healthcare": "pharmacy", "name": "Miejska", "ref:csioz": "1199886"}}, {"type": "node", "id": 9598219425, "lat": 53.3645684, "lon": 20.4304384, "tags": {"addr:city": "Nidzica", "addr:housenumber": "28", "addr:street": "1 Maja", "amenity": "pharmacy", "brand": "Dbam o Zdrowie", "brand:wikidata": "Q62563833", "dispensing": "yes", "healthcare": "pharmacy", "name": "Dbam o Zdrowie", "ref:csioz": "1198289", "short_name": "DOZ"}}, {"type": "node", "id": 9598219426, "lat": 53.361705, "lon": 20.4225454, "tags": {"addr:city": "Nidzica", "addr:housenumber": "12", "addr:street": "Romualda Traugutta", "amenity": "pharmacy", "dispensing": "yes", "healthcare": "pharmacy", "name": "S\u0142oneczna", "ref:csioz": "1180571"}}, {"type": "node", "id": 9598219427, "lat": 53.3024304, "lon": 20.2807065, "tags": {"addr:city": "Koz\u0142owo", "addr:housenumber": "3", "addr:street": "Mazurska", "amenity": "pharmacy", "dispensing": "yes", "fixme": "Lokalizacja do weryfikacji", "ref:csioz": "1039307"}}, {"type": "node", "id": 9598219428, "lat": 53.3139765, "lon": 20.6728759, "tags": {"addr:city": "Janowo", "addr:housenumber": "60", "addr:street": "Przasnyska", "amenity": "pharmacy", "dispensing": "yes", "name": "Punkt Apteczny", "ref:csioz": "1016452"}}, {"type": "node", "id": 9598219429, "lat": 53.2947893, "lon": 20.5251436, "tags": {"addr:housenumber": "149", "addr:place": "Janowiec Ko\u015bcielny", "addr:postcode": "13-111", "amenity": "pharmacy", "dispensing": "yes", "name": "Punkt Apteczny", "ref:csioz": "1015048"}}, {"type": "node", "id": 9601769836, "lat": 53.5401998, "lon": 20.084836, "tags": {"addr:housenumber": "57", "addr:place": "Gierzwa\u0142d", "amenity": "pharmacy", "dispensing": "yes", "fixme": "Lokalizacja do weryfikacji", "name": "Punkt Apteczny", "ref:csioz": "1227130"}}, {"type": "node", "id": 9601773359, "lat": 53.5304416, "lon": 20.7317317, "tags": {"addr:city": "Jedwabno", "addr:housenumber": "5", "addr:street": "Wielbarska", "amenity": "pharmacy", "dispensing": "yes", "fixme": "Lokalizacja do weryfikacji", "ref:csioz": "1039134"}}, {"type": "node", "id": 9668525526, "lat": 53.582096, "lon": 20.284479, "tags": {"amenity": "pharmacy", "dispensing": "yes", "healthcare": "pharmacy", "name": "Apteka S\u0142oneczna", "ref:csioz": "1192650"}}, {"type": "node", "id": 9668978432, "lat": 53.6571777, "lon": 20.4006692, "tags": {"amenity": "pharmacy", "dispensing": "yes", "healthcare": "pharmacy", "official_name": "Apteki Arnika", "ref:csioz": "1178669"}}]}