{"version": 0.6, "generator": "Overpass API 0.7.62.8 e802775f", "osm3s": {"timestamp_osm_base": "2025-10-06T08:53:43Z", "copyright": "The data included in this document is from www.openstreetmap.org. The data is made available under ODbL."}, "elements": [{"type": "node", "id": 4236706690, "lat": 39.6422166, "lon": 27.8809089, "tags": {"amenity": "pharmacy", "healthcare": "pharmacy", "name": "Balk\u0131r Eczanesi", "phone": "+90 266 243 4945"}}, {"type": "node", "id": 4849125754, "lat": 39.6650047, "lon": 27.9094243, "tags": {"addr:city": "Bal\u0131kesir", "addr:district": "Karesi", "amenity": "pharmacy", "healthcare": "pharmacy", "name": "M\u00fcderris Eczanesi", "phone": "+90 266 241 7766"}}, {"type": "node", "id": 4849125755, "lat": 39.6650485, "lon": 27.9094893, "tags": {"addr:city": "Bal\u0131kesir", "addr:district": "Karesi", "amenity": "pharmacy", "healthcare": "pharmacy", "name": "Ceyda Eczanesi", "phone": "+90 266 246 4679"}}, {"type": "node", "id": 4849125756, "lat": 39.6650877, "lon": 27.9095686, "tags": {"addr:city": "Bal\u0131kesir", "addr:district": "Karesi", "amenity": "pharmacy", "healthcare": "pharmacy", "name": "Kurtdereli Eczanesi", "phone": "+90 266 552 3640"}}, {"type": "node", "id": 4849125757, "lat": 39.6651675, "lon": 27.9097109, "tags": {"addr:city": "Bal\u0131kesir", "addr:district": "Karesi", "amenity": "pharmacy", "healthcare": "pharmacy", "name": "Feyza Eczanesi", "phone": "+90 266 246 4979"}}, {"type": "node", "id": 4849125764, "lat": 39.6658154, "lon": 27.910033, "tags": {"addr:city": "Bal\u0131kesir", "addr:district": "Karesi", "amenity": "pharmacy", "healthcare": "pharmacy", "name": "Selin K\u00fc\u00e7\u00fck Eczanesi", "phone": "+90 266 246 4066"}}, {"type": "node", "id": 4849125797, "lat": 39.6528378, "lon": 27.8921585, "tags": {"amenity": "pharmacy", "healthcare": "pharmacy", "name": "Acar Eczanesi", "phone": "+90 266 244 4497"}}, {"type": "node", "id": 4849125798, "lat": 39.6527222, "lon": 27.89219, "tags": {"amenity": "pharmacy", "healthcare": "pharmacy", "name": "G\u00f6kben Eczanesi", "phone": "+90 266 249 8100"}}, {"type": "node", "id": 4849125831, "lat": 39.6528807, "lon": 27.8924695, "tags": {"amenity": "pharmacy", "healthcare": "pharmacy", "name": "Vatan Eczanesi", "phone": "+90 266 241 0962"}}, {"type": "node", "id": 5165000026, "lat": 39.6454908, "lon": 27.8786936, "tags": {"amenity": "pharmacy", "healthcare": "pharmacy", "name": "Dedeba\u015f Eczanesi", "phone": "+90 266 243 0507"}}, {"type": "node", "id": 5165000027, "lat": 39.645585, "lon": 27.8787792, "tags": {"amenity": "pharmacy", "healthcare": "pharmacy", "name": "Aytekin Eczanesi", "phone": "+90 266 244 4201"}}, {"type": "node", "id": 5362796663, "lat": 39.6628412, "lon": 27.8982135, "tags": {"amenity": "pharmacy", "healthcare": "pharmacy", "name": "\u0130lgi Eczanesi", "phone": "+90 266 228 1470"}}, {"type": "node", "id": 5674246946, "lat": 39.6541649, "lon": 27.8838323, "tags": {"amenity": "pharmacy", "dispensing": "yes", "healthcare": "pharmacy", "name": "Ya\u015fam Eczanesi", "phone": "+90 266 243 7300"}}, {"type": "node", "id": 5903271254, "lat": 39.6536035, "lon": 27.897255, "tags": {"amenity": "pharmacy", "dispensing": "yes", "healthcare": "pharmacy", "name": "Hanc\u0131lar Eczanesi", "phone": "+90 266 239 2060"}}, {"type": "node", "id": 5903300041, "lat": 39.6529152, "lon": 27.8915027, "tags": {"amenity": "pharmacy", "dispensing": "yes", "healthcare": "pharmacy", "name": "Efe Eczanesi", "phone": "+90 266 244 6212"}}, {"type": "node", "id": 5903300042, "lat": 39.6530579, "lon": 27.8903451, "tags": {"amenity": "pharmacy", "dispensing": "yes", "healthcare": "pharmacy", "name": "I\u015f\u0131k Eczanesi", "phone": "+90 266 249 5008"}}, {"type": "node", "id": 5903300047, "lat": 39.6534232, "lon": 27.8902975, "tags": {"addr:city": "Bal\u0131kesir", "addr:district": "Karesi", "addr:street": "\u00d6mer Alibey Caddesi", "amenity": "pharmacy", "dispensing": "yes", "healthcare": "pharmacy", "name": "Buket Eczanesi", "phone": "+90 266 243 9307"}}, {"type": "node", "id": 5903300048, "lat": 39.6534736, "lon": 27.8903214, "tags": {"addr:city": "Bal\u0131kesir", "addr:district": "Karesi", "addr:street": "\u00d6mer Alibey Caddesi", "amenity": "pharmacy", "dispensing": "yes", "healthcare": "pharmacy", "name": "Hekimo\u011flu Eczanesi", "phone": "+90 266 249 3737"}}, {"type": "node", "id": 5903300085, "lat": 39.6536449, "lon": 27.8903889, "tags": {"addr:city": "Bal\u0131kesir", "addr:district": "Karesi", "addr:street": "\u00d6mer Alibey Caddesi", "amenity": "pharmacy", "dispensing": "yes", "healthcare": "pharmacy", "name": "Balkan Eczanesi", "phone": "+90 266 243 5082"}}, {"type": "node", "id": 5977642286, "lat": 39.647499, "lon": 27.8817716, "tags": {"amenity": "pharmacy", "dispensing": "yes", "healthcare": "pharmacy", "name": "Yenisu Eczanesi", "phone": "+90 266 241 1826"}}, {"type": "node", "id": 5977658116, "lat": 39.6454012, "lon": 27.8788672, "tags": {"amenity": "pharmacy", "dispensing": "yes", "healthcare": "pharmacy", "name": "\u00c7etinel Eczanesi", "phone": "+90 266 243 9693"}}, {"type": "node", "id": 5997125525, "lat": 39.6351547, "lon": 27.8827065, "tags": {"amenity": "pharmacy", "dispensing": "yes", "healthcare": "pharmacy", "name": "Buse Eczanesi"}}, {"type": "node", "id": 6004328840, "lat": 39.6454009, "lon": 27.8819121, "tags": {"amenity": "pharmacy", "dispensing": "yes", "healthcare": "pharmacy", "name": "S\u0131hhat Eczanesi", "phone": "+90 266 243 9771"}}, {"type": "node", "id": 6004328884, "lat": 39.6465772, "lon": 27.8823453, "tags": {"amenity": "pharmacy", "dispensing": "yes", "healthcare": "pharmacy", "name": "Seymen Eczanesi", "phone": "+90 266 241 0324"}}, {"type": "node", "id": 6004328994, "lat": 39.6466879, "lon": 27.8824327, "tags": {"amenity": "pharmacy", "dispensing": "yes", "healthcare": "pharmacy", "name": "Kent Eczanesi"}}, {"type": "node", "id": 6004328995, "lat": 39.6467759, "lon": 27.8821551, "tags": {"amenity": "pharmacy", "dispensing": "yes", "healthcare": "pharmacy", "name": "Tun\u00e7 Eczanesi", "phone": "+90 266 243 5456"}}, {"type": "node", "id": 6056597668, "lat": 39.6508852, "lon": 27.8808127, "tags": {"amenity": "pharmacy", "dispensing": "yes", "healthcare": "pharmacy", "name": "Bacako\u011flu Eczanesi", "phone": "+90 266 241 5952"}}, {"type": "node", "id": 6056705343, "lat": 39.6513, "lon": 27.8881976, "tags": {"amenity": "pharmacy", "dispensing": "yes", "healthcare": "pharmacy", "name": "Canan Eczanesi", "phone": "+90 266 249 0704"}}, {"type": "node", "id": 6120663761, "lat": 39.654903, "lon": 27.888875, "tags": {"amenity": "pharmacy", "dispensing": "yes", "healthcare": "pharmacy", "name": "Nilay Eczanesi", "phone": "+90 266 241 2285"}}, {"type": "node", "id": 6120663762, "lat": 39.6549143, "lon": 27.8887479, "tags": {"amenity": "pharmacy", "dispensing": "yes", "healthcare": "pharmacy", "name": "K\u0131n\u0131k Eczanesi", "phone": "+90 533 488 6466"}}, {"type": "node", "id": 6120663763, "lat": 39.6549967, "lon": 27.8891345, "tags": {"amenity": "pharmacy", "dispensing": "yes", "healthcare": "pharmacy", "name": "Canbey Eczanesi", "phone": "+90 266 241 1753"}}, {"type": "node", "id": 6161057978, "lat": 39.6406316, "lon": 27.8813677, "tags": {"amenity": "pharmacy", "dispensing": "yes", "healthcare": "pharmacy", "name": "Denizler Eczanesi", "phone": "+90 266 243 0817"}}, {"type": "node", "id": 6191533197, "lat": 39.6539908, "lon": 27.8555834, "tags": {"amenity": "pharmacy", "dispensing": "yes", "healthcare": "pharmacy", "name": "Dilek Eczanesi", "phone": "+90 266 224 6110"}}, {"type": "node", "id": 6300580188, "lat": 39.6469755, "lon": 27.8825613, "tags": {"amenity": "pharmacy", "dispensing": "yes", "healthcare": "pharmacy", "name": "Din\u00e7 Eczanesi", "phone": "+90 266 241 2098"}}, {"type": "node", "id": 6300602644, "lat": 39.6473054, "lon": 27.8843504, "tags": {"amenity": "pharmacy", "dispensing": "yes", "healthcare": "pharmacy", "name": "Cankorur Eczanesi", "phone": "+90 266 243 4316"}}, {"type": "node", "id": 6304986041, "lat": 39.6464871, "lon": 27.8828142, "tags": {"amenity": "pharmacy", "dispensing": "yes", "healthcare": "pharmacy", "name": "Asri Eczane", "phone": "+90 266 239 7383"}}, {"type": "node", "id": 6305004496, "lat": 39.646553, "lon": 27.8825987, "tags": {"amenity": "pharmacy", "dispensing": "yes", "healthcare": "pharmacy", "name": "\u0130rem Eczanesi", "phone": "+90 266 245 0550"}}, {"type": "node", "id": 6322364321, "lat": 39.6621829, "lon": 27.8845798, "tags": {"amenity": "pharmacy", "dispensing": "yes", "healthcare": "pharmacy", "name": "Huzur Eczanesi", "phone": "+90 266 243 5677"}}, {"type": "node", "id": 6332455092, "lat": 39.6422045, "lon": 27.9148512, "tags": {"amenity": "pharmacy", "dispensing": "yes", "healthcare": "pharmacy", "name": "Mutlu Eczanesi", "phone": "+90 266 245 5022"}}, {"type": "node", "id": 6332455100, "lat": 39.6422294, "lon": 27.9147115, "tags": {"amenity": "pharmacy", "dispensing": "yes", "healthcare": "pharmacy", "name": "Yonca Eczanesi"}}, {"type": "node", "id": 6438338994, "lat": 39.6376628, "lon": 27.9093456, "tags": {"amenity": "pharmacy", "dispensing": "yes", "healthcare": "pharmacy", "name": "Ay\u015feg\u00fcl Eczanesi", "phone": "+90 266 239 5801"}}, {"type": "node", "id": 6629598285, "lat": 39.6396222, "lon": 27.8805196, "tags": {"amenity": "pharmacy", "dispensing": "yes", "healthcare": "pharmacy", "name": "Mehmet\u00e7ik Eczanesi", "phone": "+90 266 245 5467"}}, {"type": "node", "id": 11496188369, "lat": 39.6199531, "lon": 27.9014194, "tags": {"amenity": "pharmacy", "healthcare": "pharmacy", "name": "Elif Eczanesi", "phone": "+90 266 221 0202"}}, {"type": "node", "id": 11496188370, "lat": 39.6192002, "lon": 27.8968544, "tags": {"amenity": "pharmacy", "healthcare": "pharmacy", "name": "Bar\u0131\u015f Eczanesi", "phone": "+90 266 223 0307"}}, {"type": "node", "id": 11496188371, "lat": 39.6216618, "lon": 27.8963742, "tags": {"amenity": "pharmacy", "healthcare": "pharmacy", "name": "Ceylan Eczanesi", "phone": "+90 266 221 7239"}}, {"type": "node", "id": 11496188372, "lat": 39.6228751, "lon": 27.8983839, "tags": {"amenity": "pharmacy", "healthcare": "pharmacy", "name": "Eren Eczanesi", "phone": "+90 266 221 4177"}}, {"type": "node", "id": 11496188373, "lat": 39.6273414, "lon": 27.9005269, "tags": {"amenity": "pharmacy", "healthcare": "pharmacy", "name": "Dilara Eczanesi", "phone": "+90 266 223 0644"}}, {"type": "node", "id": 11496188374, "lat": 39.6191126, "lon": 27.8886192, "tags": {"amenity": "pharmacy", "healthcare": "pharmacy", "name": "Mavi Eczanesi", "phone": "+90 266 221 7575"}}, {"type": "node", "id": 11496188375, "lat": 39.618859, "lon": 27.8881046, "tags": {"amenity": "pharmacy", "healthcare": "pharmacy", "name": "Buse Eczanesi", "phone": "+90 266 243 4544"}}, {"type": "node", "id": 11496188376, "lat": 39.6126682, "lon": 27.8889604, "tags": {"amenity": "pharmacy", "healthcare": "pharmacy", "name": "\u00c7imen Eczanesi", "phone": "+90 266 221 0056"}}, {"type": "node", "id": 11496188377, "lat": 39.6129058, "lon": 27.8893644, "tags": {"amenity": "pharmacy", "healthcare": "pharmacy", "name": "\u00d6zen Eczanesi", "phone": "+90 266 221 9542"}}, {"type": "node", "id": 11496188378, "lat": 39.6133423, "lon": 27.8887266, "tags": {"amenity": "pharmacy", "healthcare": "pharmacy", "name": "Deniz Eczanesi", "phone": "+90 266 221 8064"}}, {"type": "node", "id": 11496188379, "lat": 39.6132937, "lon": 27.8889204, "tags": {"amenity": "pharmacy", "healthcare": "pharmacy", "name": "Ka\u00e7ar Eczanesi", "phone": "+90 266 223 0260"}}, {"type": "node", "id": 11496188380, "lat": 39.6132472, "lon": 27.889182, "tags": {"amenity": "pharmacy", "healthcare": "pharmacy", "name": "Yaprak Alver Eczanesi", "phone": "+90 266 221 8684"}}, {"type": "node", "id": 11496188381, "lat": 39.6132703, "lon": 27.8896152, "tags": {"amenity": "pharmacy", "healthcare": "pharmacy", "name": "Demir Eczanesi", "phone": "+90 266 221 0021"}}, {"type": "node", "id": 11496188382, "lat": 39.6222535, "lon": 27.8803192, "tags": {"amenity": "pharmacy", "healthcare": "pharmacy", "name": "Organik Eczanesi", "phone": "+90 266 223 0323"}}, {"type": "node", "id": 11496188383, "lat": 39.6206207, "lon": 27.8764948, "tags": {"amenity": "pharmacy", "healthcare": "pharmacy", "name": "\u0130nan Eczanesi", "phone": "+90 266 221 5919"}}, {"type": "node", "id": 11496188569, "lat": 39.6273555, "lon": 27.9006813, "tags": {"amenity": "pharmacy", "healthcare": "pharmacy", "name": "Beril Eczanesi", "phone": "+90 266 245 0249"}}, {"type": "node", "id": 11496188570, "lat": 39.6127426, "lon": 27.8891005, "tags": {"amenity": "pharmacy", "healthcare": "pharmacy", "name": "Soylu Eczanesi", "phone": "+90 266 221 8965"}}, {"type": "node", "id": 11496188571, "lat": 39.6128276, "lon": 27.8892472, "tags": {"amenity": "pharmacy", "healthcare": "pharmacy", "name": "Budako\u011flu Eczanesi", "phone": "+90 266 221 9171"}}, {"type": "node", "id": 11496188572, "lat": 39.6130158, "lon": 27.8890409, "tags": {"amenity": "pharmacy", "healthcare": "pharmacy", "name": "\u015eelale Eczanesi", "phone": "+90 530 020 2970"}}, {"type": "node", "id": 11496188573, "lat": 39.613388, "lon": 27.8885581, "tags": {"amenity": "pharmacy", "healthcare": "pharmacy", "name": "Saran Eczanesi", "phone": "+90 266 502 3020"}}, {"type": "node", "id": 11496188574, "lat": 39.6136607, "lon": 27.8893699, "tags": {"amenity": "pharmacy", "healthcare": "pharmacy", "name": "Nar\u00e7i\u00e7e\u011fi Eczanesi", "phone": "+90 266 502 1999"}}, {"type": "node", "id": 11496188669, "lat": 39.613365, "lon": 27.8897916, "tags": {"amenity": "pharmacy", "healthcare": "pharmacy", "name": "Akdeniz Eczanesi", "phone": "+90 266 221 9393"}}, {"type": "node", "id": 11496188670, "lat": 39.6287629, "lon": 27.879877, "tags": {"amenity": "pharmacy", "healthcare": "pharmacy", "name": "Beg\u00fcm Eczanesi", "phone": "+90 266 221 8336"}}, {"type": "node", "id": 11496188769, "lat": 39.6315464, "lon": 27.8795636, "tags": {"amenity": "pharmacy", "healthcare": "pharmacy", "name": "Karadeniz Eczanesi", "phone": "+90 266 244 9497"}}, {"type": "node", "id": 11496592869, "lat": 39.6352602, "lon": 27.8864694, "tags": {"amenity": "pharmacy", "healthcare": "pharmacy", "name": "Vitamin Eczanesi", "phone": "+90 266 221 1372"}}, {"type": "node", "id": 11496592969, "lat": 39.6355834, "lon": 27.8913806, "tags": {"amenity": "pharmacy", "healthcare": "pharmacy", "name": "Bah\u00e7elievler Aynur Eczanesi", "phone": "+90 266 241 3186"}}, {"type": "node", "id": 11496592970, "lat": 39.6318568, "lon": 27.8927097, "tags": {"amenity": "pharmacy", "healthcare": "pharmacy", "name": "Palab\u0131y\u0131k Eczanesi", "phone": "+90 266 241 3079"}}, {"type": "node", "id": 11496593069, "lat": 39.6317162, "lon": 27.8929199, "tags": {"amenity": "pharmacy", "healthcare": "pharmacy", "name": "Y\u00f6r\u00fcko\u011flu Eczanesi", "phone": "+90 266 999 1997"}}, {"type": "node", "id": 11496593070, "lat": 39.6314293, "lon": 27.8935139, "tags": {"amenity": "pharmacy", "healthcare": "pharmacy", "name": "Gezer Eczanesi", "phone": "+90 266 249 1200"}}, {"type": "node", "id": 11496593071, "lat": 39.6366693, "lon": 27.8970528, "tags": {"amenity": "pharmacy", "healthcare": "pharmacy", "name": "Eski Dedeba\u015f Eczanesi", "phone": "+90 266 241 6239"}}, {"type": "node", "id": 11496593072, "lat": 39.6369694, "lon": 27.8972107, "tags": {"amenity": "pharmacy", "healthcare": "pharmacy", "name": "Ulu", "name:tr": "Ulu Eczanesi", "phone": "+90 266 245 2345"}}, {"type": "node", "id": 11496593073, "lat": 39.636888, "lon": 27.8966087, "tags": {"amenity": "pharmacy", "healthcare": "pharmacy", "name": "Stad Eczanesi", "phone": "+90 266 243 0508"}}, {"type": "node", "id": 11496593169, "lat": 39.631853, "lon": 27.8930207, "tags": {"amenity": "pharmacy", "healthcare": "pharmacy", "name": "Ahu Eczanesi", "phone": "+90 266 999 1889"}}, {"type": "node", "id": 11496593170, "lat": 39.6368975, "lon": 27.8968687, "tags": {"amenity": "pharmacy", "healthcare": "pharmacy", "name": "\u0130lkay Eczanesi", "phone": "+90 266 244 7515"}}, {"type": "node", "id": 11496593269, "lat": 39.6369964, "lon": 27.8964767, "tags": {"amenity": "pharmacy", "healthcare": "pharmacy", "name": "Y\u00fccel Eczanesi", "phone": "+90 266 249 8888"}}, {"type": "node", "id": 11496593369, "lat": 39.6422383, "lon": 27.91543, "tags": {"amenity": "pharmacy", "healthcare": "pharmacy", "name": "\u00d6ztuzcu Eczanesi", "phone": "+90 266 239 3934"}}, {"type": "node", "id": 11497081069, "lat": 39.6745167, "lon": 27.9028541, "tags": {"amenity": "pharmacy", "healthcare": "pharmacy", "name": "\u0130nci Eczanesi", "phone": "+90 266 227 2010"}}, {"type": "node", "id": 11497081070, "lat": 39.661957, "lon": 27.909876, "tags": {"amenity": "pharmacy", "healthcare": "pharmacy", "name": "G\u00f6k\u00e7e Eczanesi", "phone": "+90 266 999 1848"}}, {"type": "node", "id": 11497081169, "lat": 39.6670957, "lon": 27.9047079, "tags": {"amenity": "pharmacy", "healthcare": "pharmacy", "name": "Tirito\u011flu Eczanesi", "phone": "+90 266 244 4004"}}, {"type": "node", "id": 11497081170, "lat": 39.6685752, "lon": 27.8930344, "tags": {"amenity": "pharmacy", "healthcare": "pharmacy", "name": "Ebru Eczanesi", "phone": "+90 266 227 7803"}}, {"type": "node", "id": 11497081171, "lat": 39.6684303, "lon": 27.8929568, "tags": {"amenity": "pharmacy", "healthcare": "pharmacy", "name": "\u00dc\u00e7elda\u015f Eczanesi", "phone": "+90 266 244 3940"}}, {"type": "node", "id": 11497081172, "lat": 39.6661091, "lon": 27.8728905, "tags": {"amenity": "pharmacy", "healthcare": "pharmacy", "name": "Kumcu Eczanesi", "phone": "+90 266 227 5262"}}, {"type": "node", "id": 11497081369, "lat": 39.6687417, "lon": 27.8931512, "tags": {"addr:street": "Kay\u0131ran Sokak", "amenity": "pharmacy", "healthcare": "pharmacy", "name": "Manolya Eczanesi", "phone": "+90 554 500 1027"}}, {"type": "node", "id": 11497081370, "lat": 39.662397, "lon": 27.8977932, "tags": {"amenity": "pharmacy", "healthcare": "pharmacy", "name": "Ar\u0131 Eczanesi", "phone": "+90 266 221 9721"}}, {"type": "node", "id": 11497081371, "lat": 39.6629236, "lon": 27.8981097, "tags": {"amenity": "pharmacy", "healthcare": "pharmacy", "name": "\u00dcmit Eczanesi", "phone": "+90 266 227 1818"}}, {"type": "node", "id": 11497081372, "lat": 39.6622276, "lon": 27.8844518, "tags": {"amenity": "pharmacy", "healthcare": "pharmacy", "name": "\u00d6zg\u00fcr Eczanesi", "phone": "+90 266 227 5970"}}, {"type": "node", "id": 11497081569, "lat": 39.662606, "lon": 27.8975212, "tags": {"amenity": "pharmacy", "healthcare": "pharmacy", "name": "Doruk Eczanesi", "phone": "+90 266 227 1545"}}, {"type": "node", "id": 11497081669, "lat": 39.6622509, "lon": 27.8839, "tags": {"amenity": "pharmacy", "healthcare": "pharmacy", "name": "Kepsutlu Eczanesi", "phone": "+90 266 241 5527"}}, {"type": "node", "id": 11497081670, "lat": 39.6583707, "lon": 27.874319, "tags": {"amenity": "pharmacy", "healthcare": "pharmacy", "name": "Sakarya Eczanesi", "phone": "+90 266 239 0646"}}, {"type": "node", "id": 11497081769, "lat": 39.666039, "lon": 27.8729007, "tags": {"amenity": "pharmacy", "healthcare": "pharmacy", "name": "Sinem Eczanesi", "phone": "+90 266 227 3090"}}, {"type": "node", "id": 11497081869, "lat": 39.6587313, "lon": 27.8739753, "tags": {"amenity": "pharmacy", "healthcare": "pharmacy", "name": "\u00c7al\u0131klar Eczanesi", "phone": "+90 266 244 3930"}}, {"type": "node", "id": 11497581969, "lat": 39.6570587, "lon": 27.8612567, "tags": {"amenity": "pharmacy", "healthcare": "pharmacy", "name": "\u015eeyma Eczanesi", "phone": "+90 266 224 1024"}}, {"type": "node", "id": 11497582069, "lat": 39.6552723, "lon": 27.8577806, "tags": {"amenity": "pharmacy", "healthcare": "pharmacy", "name": "\u00c7\u0131nar Eczanesi", "phone": "+90 266 224 2122"}}, {"type": "node", "id": 11497582070, "lat": 39.6395859, "lon": 27.8789278, "tags": {"amenity": "pharmacy", "healthcare": "pharmacy", "name": "Alp Eczanesi", "phone": "+90 266 243 9467"}}, {"type": "node", "id": 11497582071, "lat": 39.6511248, "lon": 27.8809307, "tags": {"amenity": "pharmacy", "healthcare": "pharmacy", "name": "Yeni Kavuno\u011flu Eczanesi", "phone": "+90 266 241 6129"}}, {"type": "node", "id": 11497582072, "lat": 39.6518329, "lon": 27.8833253, "tags": {"amenity": "pharmacy", "healthcare": "pharmacy", "name": "Emek Eczanesi", "phone": "+90 266 241 4057"}}, {"type": "node", "id": 11497582073, "lat": 39.6513155, "lon": 27.8842767, "tags": {"amenity": "pharmacy", "healthcare": "pharmacy", "name": "G\u00fcven Eczanesi", "phone": "+90 266 243 4315"}}, {"type": "node", "id": 11497582074, "lat": 39.6462793, "lon": 27.8839237, "tags": {"amenity": "pharmacy", "healthcare": "pharmacy", "name": "Ye\u015filli Eczanesi", "phone": "+90 266 241 2502"}}, {"type": "node", "id": 11497582075, "lat": 39.6453998, "lon": 27.8820259, "tags": {"amenity": "pharmacy", "healthcare": "pharmacy", "name": "U\u011furlu Eczanesi", "phone": "+90 266 243 0599"}}, {"type": "node", "id": 11497582169, "lat": 39.6539213, "lon": 27.8553375, "tags": {"amenity": "pharmacy", "healthcare": "pharmacy", "name": "Kas\u0131rga Eczanesi", "phone": "+90 266 224 1675"}}, {"type": "node", "id": 11497582170, "lat": 39.6527423, "lon": 27.873005, "tags": {"amenity": "pharmacy", "healthcare": "pharmacy", "name": "Aras Eczanesi", "phone": "+90 266 249 9818"}}, {"type": "node", "id": 11497582171, "lat": 39.6479444, "lon": 27.8816554, "tags": {"amenity": "pharmacy", "healthcare": "pharmacy", "name": "Hayat Eczanesi", "phone": "+90 266 245 0397"}}, {"type": "node", "id": 11497582172, "lat": 39.6502507, "lon": 27.8808144, "tags": {"amenity": "pharmacy", "healthcare": "pharmacy", "name": "Karesi Eczanesi", "phone": "+90 266 243 0410"}}, {"type": "node", "id": 11497582173, "lat": 39.6525543, "lon": 27.8841164, "tags": {"amenity": "pharmacy", "healthcare": "pharmacy", "name": "Perihan Eczanesi", "phone": "+90 266 241 6097"}}, {"type": "node", "id": 11497582174, "lat": 39.6511352, "lon": 27.8875894, "tags": {"amenity": "pharmacy", "healthcare": "pharmacy", "name": "\u00d6zmen \u015eule Eczanesi", "phone": "+90 266 241 5509"}}, {"type": "node", "id": 11497582175, "lat": 39.6515046, "lon": 27.8891463, "tags": {"amenity": "pharmacy", "healthcare": "pharmacy", "name": "Yeni Ege Eczanesi", "phone": "+90 266 241 5535"}}, {"type": "node", "id": 11497582176, "lat": 39.6453693, "lon": 27.8821674, "tags": {"amenity": "pharmacy", "healthcare": "pharmacy", "name": "\u00c7a\u011fda\u015f Eczanesi", "phone": "+90 266 243 1690"}}, {"type": "node", "id": 11497582177, "lat": 39.6416411, "lon": 27.8819199, "tags": {"amenity": "pharmacy", "healthcare": "pharmacy", "name": "Kemal K\u0131ymaz Eczanesi", "phone": "+90 266 245 3404"}}, {"type": "node", "id": 11497582178, "lat": 39.640996, "lon": 27.8812286, "tags": {"amenity": "pharmacy", "healthcare": "pharmacy", "name": "Caner Eczanesi", "phone": "+90 266 239 6502"}}, {"type": "node", "id": 11497582269, "lat": 39.6477986, "lon": 27.8830032, "tags": {"amenity": "pharmacy", "healthcare": "pharmacy", "name": "\u00d6zmelek Eczanesi", "phone": "+90 266 241 1559"}}, {"type": "node", "id": 11497582270, "lat": 39.6499483, "lon": 27.8828244, "tags": {"amenity": "pharmacy", "healthcare": "pharmacy", "name": "\u00d6ntan Eczanesi", "phone": "+90 266 243 0505"}}, {"type": "node", "id": 11497582769, "lat": 39.653072, "lon": 27.8837528, "tags": {"amenity": "pharmacy", "healthcare": "pharmacy", "name": "Y\u0131lmaz Eczanesi", "phone": "+90 266 243 9555"}}, {"type": "node", "id": 11497582770, "lat": 39.6427319, "lon": 27.881108, "tags": {"amenity": "pharmacy", "healthcare": "pharmacy", "name": "Serra Eczanesi", "phone": "+90 266 243 0421"}}, {"type": "node", "id": 11497582771, "lat": 39.6413305, "lon": 27.8817492, "tags": {"amenity": "pharmacy", "healthcare": "pharmacy", "name": "\u00c7ardakl\u0131 Eczanesi", "phone": "+90 266 243 5577"}}, {"type": "node", "id": 11497582772, "lat": 39.641018, "lon": 27.8813312, "tags": {"amenity": "pharmacy", "healthcare": "pharmacy", "name": "S\u00f6zdemir Eczanesi", "phone": "+90 266 241 6394"}}, {"type": "node", "id": 11497582869, "lat": 39.6457159, "lon": 27.880902, "tags": {"amenity": "pharmacy", "healthcare": "pharmacy", "name": "Karahan Eczanesi", "phone": "+90 266 239 2314"}}, {"type": "node", "id": 11499309569, "lat": 39.6532469, "lon": 27.8984985, "tags": {"amenity": "pharmacy", "healthcare": "pharmacy", "name": "Yeni Hisar Eczanesi", "phone": "+90 266 246 0122"}}, {"type": "node", "id": 11499309570, "lat": 39.6534172, "lon": 27.8939726, "tags": {"addr:housenumber": "46/1", "addr:street": "Turgut Reis Caddesi", "amenity": "pharmacy", "healthcare": "pharmacy", "name": "Bilgi\u00e7 Eczanesi", "phone": "+90 266 239 7789"}}, {"type": "node", "id": 11499309571, "lat": 39.6537735, "lon": 27.8904113, "tags": {"addr:city": "Bal\u0131kesir", "addr:district": "Karesi", "addr:street": "\u00d6mer Alibey Caddesi", "amenity": "pharmacy", "healthcare": "pharmacy", "name": "\u00d6zen\u00e7 Eczanesi", "phone": "+90 266 245 6555"}}, {"type": "node", "id": 11499309572, "lat": 39.6538402, "lon": 27.8904379, "tags": {"addr:city": "Bal\u0131kesir", "addr:district": "Karesi", "addr:street": "\u00d6mer Alibey Caddesi", "amenity": "pharmacy", "healthcare": "pharmacy", "name": "Duygu Eczanesi", "phone": "+90 266 243 4122"}}, {"type": "node", "id": 11499309573, "lat": 39.6539117, "lon": 27.8904672, "tags": {"addr:city": "Bal\u0131kesir", "addr:district": "Karesi", "addr:street": "\u00d6mer Alibey Caddesi", "amenity": "pharmacy", "healthcare": "pharmacy", "name": "\u015eeker Eczanesi", "phone": "+90 266 245 3906"}}, {"type": "node", "id": 11499309574, "lat": 39.6544341, "lon": 27.8907032, "tags": {"addr:city": "Bal\u0131kesir", "addr:district": "Karesi", "addr:street": "\u00d6mer Alibey Caddesi", "amenity": "pharmacy", "healthcare": "pharmacy", "name": "\u0130lter Eczanesi", "phone": "+90 266 239 1319"}}, {"type": "node", "id": 11499309669, "lat": 39.6529434, "lon": 27.8926861, "tags": {"amenity": "pharmacy", "healthcare": "pharmacy", "name": "Tunal\u0131lar Eczanesi", "phone": "+90 266 249 8282"}}, {"type": "node", "id": 11499309670, "lat": 39.6528709, "lon": 27.8912404, "tags": {"amenity": "pharmacy", "healthcare": "pharmacy", "name": "Yeni Akdeniz Eczanesi", "phone": "+90 266 576 2854"}}, {"type": "node", "id": 11499309671, "lat": 39.6537186, "lon": 27.8903951, "tags": {"addr:city": "Bal\u0131kesir", "addr:district": "Karesi", "addr:street": "\u00d6mer Alibey Caddesi", "amenity": "pharmacy", "healthcare": "pharmacy", "name": "Deva Eczanesi", "phone": "+90 266 249 9295"}}, {"type": "node", "id": 11499309672, "lat": 39.6539754, "lon": 27.8905009, "tags": {"addr:city": "Bal\u0131kesir", "addr:district": "Karesi", "addr:street": "\u00d6mer Alibey Caddesi", "amenity": "pharmacy", "healthcare": "pharmacy", "name": "Volkan Eczanesi", "phone": "+90 266 244 6260"}}, {"type": "node", "id": 11499309769, "lat": 39.6533309, "lon": 27.8893416, "tags": {"amenity": "pharmacy", "healthcare": "pharmacy", "name": "Koray Eczanesi", "phone": "+90 266 243 0268"}}, {"type": "node", "id": 11499309770, "lat": 39.6532637, "lon": 27.8899125, "tags": {"amenity": "pharmacy", "healthcare": "pharmacy", "name": "K\u0131ral Eczanesi", "phone": "+90 266 245 5298"}}, {"type": "node", "id": 11499309771, "lat": 39.6548551, "lon": 27.8891691, "tags": {"amenity": "pharmacy", "healthcare": "pharmacy", "name": "Yusuf Eczanesi", "phone": "+90 266 239 3757"}}, {"type": "node", "id": 11499309869, "lat": 39.6534007, "lon": 27.8900816, "tags": {"amenity": "pharmacy", "healthcare": "pharmacy", "name": "\u00d6v\u00fcn\u00e7 Eczanesi", "phone": "+90 266 249 5000"}}, {"type": "node", "id": 11499309969, "lat": 39.6542513, "lon": 27.8906232, "tags": {"addr:city": "Bal\u0131kesir", "addr:district": "Karesi", "addr:street": "\u00d6mer Alibey Caddesi", "amenity": "pharmacy", "healthcare": "pharmacy", "name": "Acaro\u011flu Eczanesi", "phone": "+90 266 243 1314"}}, {"type": "node", "id": 11499309970, "lat": 39.6543286, "lon": 27.8906623, "tags": {"addr:city": "Bal\u0131kesir", "addr:district": "Karesi", "addr:street": "\u00d6mer Alibey Caddesi", "amenity": "pharmacy", "healthcare": "pharmacy", "name": "Alver Eczanesi", "phone": "+90 266 239 4950"}}, {"type": "node", "id": 11644705769, "lat": 39.5728945, "lon": 27.9834501, "tags": {"amenity": "pharmacy", "name": "Atk\u00f6y Eczanesi", "phone": "+90 266 267 2070"}}, {"type": "node", "id": 11644705770, "lat": 39.3919082, "lon": 28.1314961, "tags": {"amenity": "pharmacy", "name": "Ulubak Eczanesi", "phone": "+90 266 614 5020"}}, {"type": "node", "id": 11644705869, "lat": 39.5236157, "lon": 27.8920675, "tags": {"amenity": "pharmacy", "name": "Za\u011fnos Eczanesi", "phone": "+90 266 221 4500"}}, {"type": "node", "id": 11644705870, "lat": 39.393979, "lon": 28.130413, "tags": {"amenity": "pharmacy", "name": "G\u00f6kmen Eczanesi", "phone": "+90 266 614 4303"}}, {"type": "node", "id": 11644705871, "lat": 39.394116, "lon": 28.1321329, "tags": {"amenity": "pharmacy", "healthcare": "pharmacy", "name": "Bigadi\u00e7 Eczanesi", "phone": "+90 266 614 1059"}}, {"type": "node", "id": 11644705872, "lat": 39.3938208, "lon": 28.1317587, "tags": {"amenity": "pharmacy", "healthcare": "pharmacy", "name": "Halk Eczanesi", "phone": "+90 266 614 1573"}}, {"type": "node", "id": 11644705873, "lat": 39.3935999, "lon": 28.1318577, "tags": {"amenity": "pharmacy", "healthcare": "pharmacy", "name": "Can Eczanesi", "phone": "+90 266 614 3210"}}, {"type": "node", "id": 11644705874, "lat": 39.3925591, "lon": 28.1320081, "tags": {"amenity": "pharmacy", "name": "Ege Eczanesi", "phone": "+90 266 614 5535"}}, {"type": "node", "id": 11644705875, "lat": 39.3944024, "lon": 28.1330276, "tags": {"amenity": "pharmacy", "healthcare": "pharmacy", "name": "Furkan Eczanesi", "phone": "+90 266 614 5575"}}, {"type": "node", "id": 11644705969, "lat": 39.4004237, "lon": 28.1283756, "tags": {"amenity": "pharmacy", "name": "Sa\u011fl\u0131k S\u0131hhat Eczanesi", "phone": "+90 266 614 4424"}}, {"type": "node", "id": 11644705970, "lat": 39.4002341, "lon": 28.1329434, "tags": {"amenity": "pharmacy", "name": "Miray Eczanesi", "phone": "+90 266 614 3579"}}, {"type": "node", "id": 11644705971, "lat": 39.3994533, "lon": 28.1328666, "tags": {"amenity": "pharmacy", "name": "Elif Eczanesi", "phone": "+90 266 614 1616"}}, {"type": "node", "id": 11644705972, "lat": 39.3948361, "lon": 28.1310172, "tags": {"amenity": "pharmacy", "healthcare": "pharmacy", "name": "Ayd\u0131n Eczanesi", "phone": "+90 266 614 5183"}}, {"type": "node", "id": 11644705973, "lat": 39.3942957, "lon": 28.1310896, "tags": {"amenity": "pharmacy", "healthcare": "pharmacy", "name": "Burak Eczanesi", "phone": "+90 266 614 6200"}}, {"type": "node", "id": 11644706169, "lat": 39.4002987, "lon": 28.1283849, "tags": {"amenity": "pharmacy", "name": "Merve Eczanesi", "phone": "+90 266 614 4944"}}, {"type": "node", "id": 11644710269, "lat": 39.3941703, "lon": 28.1323383, "tags": {"amenity": "pharmacy", "healthcare": "pharmacy", "name": "K\u0131rb\u0131y\u0131klar Eczanesi", "phone": "+90 266 614 2055"}}, {"type": "node", "id": 11644710369, "lat": 39.3932703, "lon": 28.1318127, "tags": {"amenity": "pharmacy", "name": "Y\u0131ld\u0131z Eczanesi", "phone": "+90 266 614 2290"}}, {"type": "node", "id": 11644710469, "lat": 39.3903443, "lon": 28.1296019, "tags": {"amenity": "pharmacy", "name": "Bilgon Eczanesi", "phone": "+90 266 614 1006"}}, {"type": "node", "id": 11645081969, "lat": 39.688405, "lon": 28.155643, "tags": {"amenity": "pharmacy", "healthcare": "pharmacy", "name": "Kepsut Eczanesi", "phone": "+90 266 576 2326"}}, {"type": "node", "id": 11645081970, "lat": 39.6882099, "lon": 28.1562928, "tags": {"amenity": "pharmacy", "healthcare": "pharmacy", "name": "\u015eifa Eczanesi", "phone": "+90 266 576 2120"}}, {"type": "node", "id": 11645082069, "lat": 39.6881499, "lon": 28.1564694, "tags": {"amenity": "pharmacy", "healthcare": "pharmacy", "name": "Filiz Eczanesi", "phone": "+90 266 576 1565"}}, {"type": "node", "id": 11645082169, "lat": 39.6883711, "lon": 28.1565309, "tags": {"amenity": "pharmacy", "healthcare": "pharmacy", "name": "Avc\u0131 Eczanesi", "phone": "+90 266 576 1012"}}, {"type": "node", "id": 11645082269, "lat": 39.6884772, "lon": 28.1566342, "tags": {"amenity": "pharmacy", "healthcare": "pharmacy", "name": "Kara Eczanesi", "phone": "+90 266 576 1300"}}, {"type": "node", "id": 11645082270, "lat": 39.6887915, "lon": 28.1567997, "tags": {"amenity": "pharmacy", "healthcare": "pharmacy", "name": "Esra Eczanesi", "phone": "+90 266 676 1666"}}, {"type": "node", "id": 11645082271, "lat": 39.688912, "lon": 28.1568778, "tags": {"amenity": "pharmacy", "healthcare": "pharmacy", "name": "Elif Eczanesi", "phone": "+90 266 576 3323"}}, {"type": "node", "id": 12335344301, "lat": 39.6635637, "lon": 27.912034, "tags": {"amenity": "pharmacy", "healthcare": "pharmacy", "name": "Feyza Eczanesi", "phone": "+90 266 246 4979"}}]}