{"version": 0.6, "generator": "Overpass API 0.7.62.8 e802775f", "osm3s": {"timestamp_osm_base": "2025-10-06T08:24:06Z", "copyright": "The data included in this document is from www.openstreetmap.org. The data is made available under ODbL."}, "elements": [{"type": "node", "id": 624452815, "lat": 46.1263728, "lon": 22.7917944, "tags": {"amenity": "pharmacy", "name": "Richter"}}, {"type": "node", "id": 769202164, "lat": 46.130238, "lon": 22.7909946, "tags": {"addr:city": "Brad", "addr:housenumber": "5", "addr:street": "Bulevardul Republicii", "amenity": "pharmacy", "brand": "Remedia", "name": "Farmacia \u201eSf\u00e2ntul Nicolae\u201d"}}, {"type": "node", "id": 769202165, "lat": 46.1314774, "lon": 22.7901911, "tags": {"addr:city": "Brad", "addr:housenumber": "24", "addr:street": "Bulevardul Republicii", "amenity": "pharmacy", "dispensing": "yes", "drive_through": "no", "healthcare": "pharmacy", "name": "Cris Farm Exim"}}, {"type": "node", "id": 769202166, "lat": 46.1309148, "lon": 22.7903326, "tags": {"addr:city": "Brad", "addr:housenumber": "1", "addr:street": "Bulevardul Republicii", "amenity": "pharmacy", "brand": "Remedia", "name": "Sf\u00e2nta Varvara"}}, {"type": "node", "id": 769202168, "lat": 46.1280927, "lon": 22.7920783, "tags": {"addr:city": "Brad", "addr:housenumber": "9", "addr:street": "Bulevardul Republicii", "amenity": "pharmacy", "name": "Hygea Farmimpex"}}, {"type": "node", "id": 3373589950, "lat": 46.2748407, "lon": 23.0630611, "tags": {"addr:city": "Abrud", "addr:housenumber": "13", "addr:street": "Pia\u021ba Eroilor", "amenity": "pharmacy", "name": "Elisan", "source": "data.gov.ro"}}, {"type": "node", "id": 3387934014, "lat": 46.1748211, "lon": 22.7665909}, {"type": "node", "id": 3387934087, "lat": 46.1749195, "lon": 22.7663415}, {"type": "node", "id": 3387934300, "lat": 46.1749121, "lon": 22.766599}, {"type": "node", "id": 3387934311, "lat": 46.1748285, "lon": 22.7663361}, {"type": "node", "id": 3680033610, "lat": 46.1747164, "lon": 22.7157973, "tags": {"amenity": "pharmacy", "name": "Farmacia Delphinium"}}, {"type": "node", "id": 4260163689, "lat": 46.2747057, "lon": 23.0636367, "tags": {"addr:street": "Pia\u021ba Eroilor", "amenity": "pharmacy", "name": "Farmacia Remedia"}}, {"type": "node", "id": 4573205700, "lat": 46.3097205, "lon": 22.5211945, "tags": {"amenity": "pharmacy", "name": "Farmacie", "name:ro": "Farmacie"}}, {"type": "node", "id": 5144791382, "lat": 46.1251437, "lon": 22.790539, "tags": {"addr:city": "Brad", "addr:postcode": "335200", "addr:street": "Strada General Vasile Milea", "amenity": "pharmacy", "drive_through": "no", "name": "Farmacia Catena", "operator": "Farmacia Catena"}}, {"type": "node", "id": 5287263258, "lat": 46.1901739, "lon": 22.9365261, "tags": {"amenity": "pharmacy", "healthcare": "pharmacy", "name": "Farmacia Remedia"}}, {"type": "node", "id": 6708128314, "lat": 46.2678625, "lon": 23.0777962, "tags": {"amenity": "pharmacy", "name": "Farmacia Romani\u021ba"}}, {"type": "node", "id": 6715040350, "lat": 46.1294439, "lon": 22.7918693, "tags": {"amenity": "pharmacy", "name": "Catena"}}, {"type": "node", "id": 12073212722, "lat": 46.1237066, "lon": 22.8637048, "tags": {"amenity": "pharmacy", "healthcare": "pharmacy", "name": "Terra Farm"}}, {"type": "node", "id": 12073224382, "lat": 46.1237207, "lon": 22.8636008}, {"type": "node", "id": 12073224383, "lat": 46.1236533, "lon": 22.8636528}, {"type": "node", "id": 12073224384, "lat": 46.1237286, "lon": 22.8638338}, {"type": "node", "id": 12073224385, "lat": 46.1238383, "lon": 22.8637184}, {"type": "node", "id": 12073224386, "lat": 46.1238038, "lon": 22.8636438}, {"type": "node", "id": 12073224387, "lat": 46.1237505, "lon": 22.8636709}, {"type": "way", "id": 331694896, "nodes": [3387934087, 3387934311, 3387934014, 3387934300, 3387934087], "tags": {"amenity": "pharmacy", "building": "yes", "healthcare": "pharmacy"}}, {"type": "way", "id": 1303664775, "nodes": [12073224382, 12073224383, 12073224384, 12073224385, 12073224386, 12073224387, 12073224382], "tags": {"amenity": "pharmacy", "building": "yes", "healthcare": "pharmacy", "name": "Terra Farm"}}]}