{"version": 0.6, "generator": "Overpass API 0.7.62.8 e802775f", "osm3s": {"timestamp_osm_base": "2025-10-06T08:11:00Z", "copyright": "The data included in this document is from www.openstreetmap.org. The data is made available under ODbL."}, "elements": [{"type": "node", "id": 1873513804, "lat": 51.0140263, "lon": 18.5689532, "tags": {"addr:housenumber": "180", "addr:place": "\u017bytni\u00f3w", "amenity": "pharmacy", "name": "Punkt Apteczny"}}, {"type": "node", "id": 3239164455, "lat": 51.2963225, "lon": 18.1615561, "tags": {"amenity": "pharmacy", "brand": "Dr. Max", "brand:wikidata": "Q56317371", "brand:wikipedia": "fr:Dr.Max", "dispensing": "yes", "drive_through": "no", "healthcare": "pharmacy", "name": "Dr. Max", "ref:csioz": "1171899"}}, {"type": "node", "id": 3239164653, "lat": 51.2931323, "lon": 18.1567094, "tags": {"amenity": "pharmacy", "brand": "Dr. Max", "brand:wikidata": "Q56317371", "dispensing": "yes", "healthcare": "pharmacy", "name": "Dr. Max", "ref:csioz": "1021297"}}, {"type": "node", "id": 3239165260, "lat": 51.294537, "lon": 18.1637401, "tags": {"amenity": "pharmacy", "dispensing": "yes", "healthcare": "pharmacy", "ref:csioz": "1011740"}}, {"type": "node", "id": 3239166086, "lat": 51.294668, "lon": 18.1580355, "tags": {"amenity": "pharmacy", "dispensing": "yes", "healthcare": "pharmacy", "name": "\u015aw. Rocha", "ref:csioz": "1012407"}}, {"type": "node", "id": 3239167161, "lat": 51.2946932, "lon": 18.1561714, "tags": {"amenity": "pharmacy", "brand": "Dr. Max", "brand:wikidata": "Q56317371", "dispensing": "yes", "healthcare": "pharmacy", "name": "Dr. Max", "ref:csioz": "1121100"}}, {"type": "node", "id": 3239175005, "lat": 51.2953464, "lon": 18.1503063, "tags": {"amenity": "pharmacy", "dispensing": "yes", "healthcare": "pharmacy", "name": "W Rynku", "ref:csioz": "1121097"}}, {"type": "node", "id": 3747431777, "lat": 50.870622, "lon": 18.213623, "tags": {"addr:housenumber": "99A", "addr:place": "Lasowice Wielkie", "addr:postcode": "46-282", "amenity": "pharmacy", "name": "Apteka", "ref:csioz": "1107888"}}, {"type": "node", "id": 3815563440, "lat": 50.9887554, "lon": 18.2134343, "tags": {"addr:city": "Kluczbork", "addr:housenumber": "101", "addr:postcode": "46-203", "addr:street": "Byczy\u0144ska", "amenity": "pharmacy", "brand": "Dr. Max", "brand:wikidata": "Q56317371", "healthcare": "pharmacy", "name": "Dr. Max", "ref:csioz": "1107597"}}, {"type": "node", "id": 3967583865, "lat": 50.9740353, "lon": 18.2250906, "tags": {"addr:city": "Kluczbork", "addr:housenumber": "26", "addr:postcode": "46-200", "addr:street": "Katowicka", "amenity": "pharmacy", "healthcare": "pharmacy", "name": "Apteka Go\u017adzikowej", "ref:csioz": "1121847"}}, {"type": "node", "id": 4473562397, "lat": 51.2137382, "lon": 18.1030226, "tags": {"amenity": "pharmacy", "ref:csioz": "1053843"}}, {"type": "node", "id": 4875869121, "lat": 50.9753777, "lon": 18.2117759, "tags": {"addr:city": "Kluczbork", "addr:housenumber": "20", "addr:postcode": "46-200", "addr:street": "Grunwaldzka", "amenity": "pharmacy", "healthcare": "pharmacy", "name": "Apteka Gemini", "ref:csioz": "1107610", "wheelchair": "yes"}}, {"type": "node", "id": 5120215499, "lat": 50.9682219, "lon": 18.2166906, "tags": {"amenity": "pharmacy", "healthcare": "pharmacy", "name": "Apteka Dla Wszystkich"}}, {"type": "node", "id": 8930868088, "lat": 51.0278508, "lon": 18.4224144, "tags": {"addr:city": "Gorz\u00f3w \u015al\u0105ski", "addr:housenumber": "3", "addr:postcode": "46-310", "addr:street": "Rynek", "amenity": "pharmacy", "check_date": "2025-08-23", "healthcare": "pharmacy", "image": "https://photos.app.goo.gl/oYsM2Ex6GSsoy5B69", "opening_hours": "Mo-Fr 08:00-17:00; Sa 08:00-14:00", "ref:csioz": "1107157", "url": "https://fotopolska.eu/345604,obiekt.html?map_z=18"}}, {"type": "node", "id": 8931353734, "lat": 51.0282599, "lon": 18.4216703, "tags": {"addr:city": "Gorz\u00f3w \u015al\u0105ski", "addr:housenumber": "8", "addr:postcode": "46-310", "addr:street": "Rynek", "amenity": "pharmacy", "check_date": "2025-08-23", "dispensing": "yes", "healthcare": "pharmacy", "name": "Radix", "opening_hours": "Mo-Fr 08:00-17:00; Sa 08:00-14:00", "ref:csioz": "1107161"}}, {"type": "node", "id": 8946697546, "lat": 50.9761996, "lon": 18.2165488, "tags": {"addr:city": "Kluczbork", "addr:housenumber": "14", "addr:postcode": "46-200", "addr:street": "Jagiello\u0144ska", "amenity": "pharmacy", "name": "Apteka Dbam o zdrowie", "ref:csioz": "1107629"}}, {"type": "node", "id": 9610612014, "lat": 51.0602565, "lon": 18.4524232, "tags": {"addr:city": "Praszka", "addr:housenumber": "35", "addr:postcode": "46-320", "addr:street": "Kaliska", "amenity": "pharmacy", "dispensing": "yes", "name": "Apteka Przyjazna Lekfarm", "opening_hours": "Mo-Fr 07:00-19:00; Sa 08:00-14:00", "ref:csioz": "1121253"}}, {"type": "node", "id": 9610612015, "lat": 51.0541317, "lon": 18.4484911, "tags": {"addr:city": "Praszka", "addr:housenumber": "15", "addr:postcode": "46-320", "addr:street": "Tadeusza Ko\u015bciuszki", "amenity": "pharmacy", "dispensing": "yes", "healthcare": "pharmacy", "name": "Lekfarm", "ref:csioz": "1109160"}}, {"type": "node", "id": 9610624717, "lat": 51.0551081, "lon": 18.4482829, "tags": {"addr:city": "Praszka", "addr:housenumber": "31", "addr:postcode": "46-320", "addr:street": "Senatorska", "amenity": "pharmacy", "dispensing": "yes", "healthcare": "pharmacy", "name": "Apteka Burchaci\u0144scy", "ref:csioz": "1121159"}}, {"type": "node", "id": 9610633332, "lat": 50.9335475, "lon": 18.5362208, "tags": {"addr:city": "Rad\u0142\u00f3w", "addr:housenumber": "3", "addr:postcode": "46-331", "addr:street": "D\u0142uga", "amenity": "pharmacy", "dispensing": "yes", "name": "Apfarm", "ref:csioz": "1229745"}}, {"type": "node", "id": 9610633334, "lat": 51.0229361, "lon": 18.4244648, "tags": {"addr:city": "Gorz\u00f3w \u015al\u0105ski", "addr:housenumber": "1", "addr:postcode": "46-310", "addr:street": "Towarowa", "amenity": "pharmacy", "check_date": "2025-08-23", "dispensing": "yes", "healthcare": "pharmacy", "location": "indoors", "name": "Magnolia", "opening_hours": "Mo-Fr 08:00-18:00; Sa 08:00-14:00", "ref:csioz": "1177109"}}, {"type": "node", "id": 9610633336, "lat": 51.0568638, "lon": 18.4506087, "tags": {"addr:city": "Praszka", "addr:housenumber": "1", "addr:postcode": "46-320", "addr:street": "Plac Grunwaldzki", "amenity": "pharmacy", "dispensing": "yes", "healthcare": "pharmacy", "ref:csioz": "1109183"}}, {"type": "node", "id": 9653619698, "lat": 51.1142104, "lon": 18.2131943, "tags": {"addr:city": "Byczyna", "addr:housenumber": "2", "addr:postcode": "46-220", "addr:street": "Ko\u015bcielna", "amenity": "pharmacy", "dispensing": "yes", "healthcare": "pharmacy", "ref:csioz": "1105963"}}, {"type": "node", "id": 9653619699, "lat": 50.9667737, "lon": 18.1346592, "tags": {"addr:city": "Bogacica", "addr:housenumber": "6", "addr:postcode": "46-243", "addr:street": "Wolno\u015bci", "amenity": "pharmacy", "dispensing": "yes", "name": "Jag\u00f3dka S.C.", "ref:csioz": "1105795"}}, {"type": "node", "id": 9653619701, "lat": 50.9761122, "lon": 18.205322, "tags": {"addr:city": "Kluczbork", "addr:housenumber": "20", "addr:postcode": "46-200", "addr:street": "Byczy\u0144ska", "amenity": "pharmacy", "dispensing": "yes", "name": "Libra", "ref:csioz": "1107581"}}, {"type": "node", "id": 9653619702, "lat": 50.9729911, "lon": 18.2115528, "tags": {"addr:city": "Kluczbork", "addr:housenumber": "12", "addr:postcode": "46-200", "addr:street": "Marsza\u0142ka J\u00f3zefa Pi\u0142sudskiego", "amenity": "pharmacy", "brand": "Ziko Apteka", "brand:wikidata": "Q63432892", "dispensing": "yes", "healthcare": "pharmacy", "name": "Ziko Apteka", "ref:csioz": "1221498", "short_name": "Ziko", "website": "https://zikoapteka.pl/apteki/kluczbork/marszalka-pilsudskiego-12/"}}, {"type": "node", "id": 9653619703, "lat": 50.9735671, "lon": 18.2133472, "tags": {"addr:city": "Kluczbork", "addr:housenumber": "5", "addr:postcode": "46-200", "addr:street": "Ksi\u0119dza Piotra \u015aciegiennego", "amenity": "pharmacy", "dispensing": "yes", "name": "Apteka Zdrowit", "ref:csioz": "1192909"}}, {"type": "node", "id": 9653619704, "lat": 50.974094, "lon": 18.2133096, "tags": {"addr:city": "Kluczbork", "addr:housenumber": "24", "addr:postcode": "46-200", "addr:street": "Podwale", "amenity": "pharmacy", "dispensing": "yes", "name": "Apteka Rodzinna", "ref:csioz": "1107678"}}, {"type": "node", "id": 9653619706, "lat": 51.0506398, "lon": 18.1224981, "tags": {"addr:city": "Ska\u0142\u0105gi", "addr:housenumber": "41", "addr:postcode": "46-262", "addr:street": "Wo\u0142czy\u0144ska", "amenity": "pharmacy", "dispensing": "yes", "name": "Domowy Punkt Apteczny", "ref:csioz": "1228772"}}, {"type": "node", "id": 9653619707, "lat": 50.9056461, "lon": 18.2587731, "tags": {"addr:city": "Lasowice Ma\u0142e", "addr:housenumber": "28", "addr:postcode": "46-280", "addr:street": "Odrodzenia", "amenity": "pharmacy", "dispensing": "yes", "name": "Zdrowie", "ref:csioz": "1109907"}}, {"type": "node", "id": 9653619708, "lat": 50.9755532, "lon": 18.2115555, "tags": {"addr:city": "Kluczbork", "addr:housenumber": "2", "addr:postcode": "46-203", "addr:street": "Ludwika Wary\u0144skiego", "amenity": "pharmacy", "dispensing": "yes", "name": "Ziko Apteka", "ref:csioz": "1107701", "website": "https://zikoapteka.pl/apteki/kluczbork/warynskiego-2/"}}, {"type": "node", "id": 9653619709, "lat": 50.9798478, "lon": 18.2104826, "tags": {"addr:city": "Kluczbork", "addr:housenumber": "14A", "addr:postcode": "46-203", "addr:street": "Juliusza Ligonia", "amenity": "pharmacy", "dispensing": "yes", "name": "Ziko Apteka", "ref:csioz": "1209741", "website": "https://zikoapteka.pl/apteki/kluczbork/ligonia-14a/"}}, {"type": "node", "id": 9653619712, "lat": 50.9725047, "lon": 18.2176441, "tags": {"addr:city": "Kluczbork", "addr:housenumber": "20", "addr:postcode": "46-200", "addr:street": "Krakowska", "amenity": "pharmacy", "dispensing": "yes", "healthcare": "pharmacy", "name": "Apteka Spo\u0142eczna Na Krakowskiej Grupa Nowa Farmacja", "opening_hours": "Mo-Fr 08:00-20:00; Sa 09:00-16:00", "ref:csioz": "1195366"}}, {"type": "node", "id": 9653619713, "lat": 50.9733103, "lon": 18.2150048, "tags": {"addr:city": "Kluczbork", "addr:housenumber": "21", "addr:postcode": "46-200", "addr:street": "Rynek", "amenity": "pharmacy", "brand": "Dbam o Zdrowie", "brand:wikidata": "Q62563833", "dispensing": "yes", "healthcare": "pharmacy", "name": "Dbam o Zdrowie", "ref:csioz": "1107686", "short_name": "DOZ"}}, {"type": "node", "id": 10281889125, "lat": 51.1688571, "lon": 18.3882079, "tags": {"amenity": "pharmacy", "dispensing": "yes", "healthcare": "pharmacy", "name": "Magnolia", "ref:csioz": "1022494"}}, {"type": "node", "id": 10589863897, "lat": 51.2669159, "lon": 18.4467966, "tags": {"addr:housenumber": "11", "addr:place": "Bia\u0142a Parcela", "addr:postcode": "98-350", "amenity": "pharmacy", "dispensing": "yes", "healthcare": "pharmacy", "name": "Apteka Katarzyna Burchaci\u0144ska", "ref:csioz": "1010174"}}, {"type": "node", "id": 10589863898, "lat": 51.2664656, "lon": 18.4467432, "tags": {"addr:housenumber": "40", "addr:place": "Bia\u0142a Druga", "addr:postcode": "98-350", "amenity": "pharmacy", "dispensing": "yes", "healthcare": "pharmacy", "name": "Punkt Apteczny Panaceum", "ref:csioz": "1231049"}}, {"type": "node", "id": 10589914149, "lat": 51.295049, "lon": 18.1637606, "tags": {"amenity": "pharmacy", "dispensing": "yes", "healthcare": "pharmacy", "name": "Drofarm", "ref:csioz": "1200723"}}, {"type": "node", "id": 10589914150, "lat": 51.3065137, "lon": 18.3233941, "tags": {"amenity": "pharmacy", "dispensing": "yes", "healthcare": "pharmacy", "name": "\u015aw. Miko\u0142aja", "ref:csioz": "1016876"}}, {"type": "node", "id": 10589914151, "lat": 51.1717498, "lon": 18.288368, "tags": {"amenity": "pharmacy", "dispensing": "yes", "healthcare": "pharmacy", "ref:csioz": "1011580"}}, {"type": "node", "id": 10589914153, "lat": 51.25843, "lon": 18.3234767, "tags": {"amenity": "pharmacy", "dispensing": "yes", "healthcare": "pharmacy", "name": "Familia", "ref:csioz": "1017613"}}, {"type": "node", "id": 10589914154, "lat": 51.1973485, "lon": 18.1903315, "tags": {"amenity": "pharmacy", "dispensing": "yes", "healthcare": "pharmacy", "name": "Przyjazna", "ref:csioz": "1009636"}}, {"type": "node", "id": 10589914166, "lat": 51.1741454, "lon": 18.4557861, "tags": {"amenity": "pharmacy", "dispensing": "yes", "healthcare": "pharmacy", "name": "Punkt Apteczny", "ref:csioz": "1230805"}}, {"type": "node", "id": 10589914167, "lat": 51.1737413, "lon": 18.4567913, "tags": {"amenity": "pharmacy", "dispensing": "yes", "healthcare": "pharmacy", "name": "Punkt Apteczny", "ref:csioz": "1019953"}}, {"type": "node", "id": 12475976708, "lat": 51.0531326, "lon": 18.4520233, "tags": {"amenity": "pharmacy", "healthcare": "pharmacy", "name": "Magnolia"}}, {"type": "node", "id": 13131794451, "lat": 51.1129701, "lon": 18.2060644, "tags": {"amenity": "pharmacy", "healthcare": "pharmacy"}}]}