{"version": 0.6, "generator": "Overpass API 0.7.62.8 e802775f", "osm3s": {"timestamp_osm_base": "2025-10-06T09:08:00Z", "copyright": "The data included in this document is from www.openstreetmap.org. The data is made available under ODbL."}, "elements": [{"type": "node", "id": 1526958226, "lat": 55.5973934, "lon": 23.1972195, "tags": {"addr:city": "Tytuv\u0117nai", "addr:contact": "yes", "addr:housenumber": "4", "addr:street": "J. Basanavi\u010diaus g.", "amenity": "pharmacy", "dispensing": "no", "drive_through": "yes", "name": "Eurovaistin\u0117", "opening_hours": "Mo-Fr 08:00-18:00; Sa 08:00-14:30", "phone": "+370 800 50 005", "website": "https://www.eurovaistine.lt/"}}, {"type": "node", "id": 1526958239, "lat": 55.5963392, "lon": 23.1974621, "tags": {"addr:city": "Tytuv\u0117nai", "addr:contact": "yes", "addr:housenumber": "2", "addr:postcode": "86494", "addr:street": "\u0160iluvos g.", "amenity": "pharmacy", "brand:wikidata": "Q15857801", "brand:wikipedia": "lt:Gintarin\u0117 vaistin\u0117", "dispensing": "no", "email": "tytuvenai_siluvos2@gintarine.lt", "name": "Gintarin\u0117 vaistin\u0117", "opening_hours": "Mo-Fr 08:00-17:00; Sa 08:00-16:00", "opening_hours:url": "http://www.gintarine.lt/index.php?option=com_jumi&fileid=6&itemid=282", "operator": "Gintarin\u0117 vaistin\u0117", "phone": "+37065641283", "website": "https://www.gintarine.lt/", "wheelchair": "yes"}}, {"type": "node", "id": 1818313101, "lat": 55.3796382, "lon": 23.1139782, "tags": {"amenity": "pharmacy"}}, {"type": "node", "id": 1818313319, "lat": 55.3834552, "lon": 23.1192274, "tags": {"amenity": "pharmacy"}}, {"type": "node", "id": 7671808194, "lat": 55.3977005, "lon": 22.9019237, "tags": {"addr:city": "Vidukl\u0117", "addr:contact": "yes", "addr:housenumber": "3", "addr:postcode": "60348", "addr:street": "K\u0119stu\u010dio g.", "amenity": "pharmacy", "name": "Camelia"}}, {"type": "node", "id": 7755780581, "lat": 55.380606, "lon": 23.116499, "tags": {"addr:city": "Raseiniai", "addr:contact": "yes", "addr:housenumber": "5", "addr:postcode": "60150", "addr:street": "Maironio g.", "amenity": "pharmacy", "contact:facebook": "https://www.facebook.com/BENUvaistine", "contact:instagram": "https://www.instagram.com/benu_vaistine/", "email": "benu.7203@benu.lt", "name": "Benu", "opening_hours": "Mo-Fr 09:00-17:00", "operator": "BENU Vaistin\u0117 UAB", "phone": "+370 698 26355", "website": "https://www.benu.lt"}}, {"type": "node", "id": 7755780584, "lat": 55.3834929, "lon": 23.1193462, "tags": {"addr:city": "Raseiniai", "addr:contact": "yes", "addr:housenumber": "23", "addr:postcode": "60128", "addr:street": "Vytauto Did\u017eiojo g.", "amenity": "pharmacy", "contact:facebook": "https://www.facebook.com/BENUvaistine", "contact:instagram": "https://www.instagram.com/benu_vaistine/", "email": "benu.7201@benu.lt", "name": "Benu", "opening_hours": "Mo-Fr 09:00-18:00", "operator": "BENU Vaistin\u0117 UAB", "phone": "+370 698 26399", "website": "https://www.benu.lt"}}, {"type": "node", "id": 11144589507, "lat": 55.3788065, "lon": 23.1134438, "tags": {"amenity": "pharmacy", "name": "Euro Vaistin\u0117", "opening_hours": "Mo-Fr 08:00-20:00; Sa, Su 09:00-18:00"}}]}