{"version": 0.6, "generator": "Overpass API 0.7.62.8 e802775f", "osm3s": {"timestamp_osm_base": "2025-10-06T08:40:23Z", "copyright": "The data included in this document is from www.openstreetmap.org. The data is made available under ODbL."}, "elements": [{"type": "node", "id": 2049522381, "lat": 50.6954743, "lon": 22.9784336, "tags": {"amenity": "pharmacy", "dispensing": "yes", "healthcare": "pharmacy", "name": "nasza Apteka, Grabscy S.J.", "name:pl": "nasza Apteka, Grabscy S.J.", "opening_hours": "Mo-Fr 08:00-18:00; Sa 08:00-15:00", "phone": "+48846451244", "ref:csioz": "1154067"}}, {"type": "node", "id": 2337990026, "lat": 50.7219684, "lon": 22.6669966, "tags": {"amenity": "pharmacy", "dispensing": "yes", "healthcare": "pharmacy", "name": "Apteka przy Rynku", "opening_hours": "Mo-Fr 08:00-17:00", "phone": "+48 84 685 80 50", "ref:csioz": "1155033"}}, {"type": "node", "id": 2337990215, "lat": 50.7213243, "lon": 22.6673655, "tags": {"amenity": "pharmacy", "dispensing": "yes", "healthcare": "pharmacy", "name": "Apteka", "opening_hours": "Mo-Fr 07:30-17:00; Sa 07:30-13:00", "phone": "+48 84 685 81 71", "ref:csioz": "1155371"}}, {"type": "node", "id": 2502303661, "lat": 50.7069847, "lon": 22.4098409, "tags": {"addr:city": "Jan\u00f3w Lubelski", "addr:housenumber": "2", "addr:postcode": "23-300", "addr:street": "Rynek", "amenity": "pharmacy", "brand": "Dbam o Zdrowie", "brand:wikidata": "Q62563833", "dispensing": "yes", "healthcare": "pharmacy", "name": "Dbam o Zdrowie", "opening_hours": "Mo-Fr 08:00-20:00; Sa 08:00-16:00", "ref:csioz": "1196519", "short_name": "DOZ", "source:addr": "EMUiA (emuia.geoportal.gov.pl)", "wheelchair": "no"}}, {"type": "node", "id": 2502305905, "lat": 50.7074394, "lon": 22.410785, "tags": {"addr:city": "Jan\u00f3w Lubelski", "addr:housenumber": "3", "addr:postcode": "23-300", "addr:street": "Jana Kili\u0144skiego", "amenity": "pharmacy", "brand": "Dbam o Zdrowie", "brand:wikidata": "Q62563833", "dispensing": "yes", "healthcare": "pharmacy", "name": "Dbam o Zdrowie", "opening_hours": "Mo-Fr 08:00-19:00; Sa 08:00-15:00", "ref:csioz": "1158567", "short_name": "DOZ", "wheelchair": "no"}}, {"type": "node", "id": 2510992539, "lat": 50.6710273, "lon": 22.6713836, "tags": {"amenity": "pharmacy", "dispensing": "yes", "email": "apteka.frampol@wp.pl", "healthcare": "pharmacy", "name:signed": "no", "opening_hours": "Mo-Fr 07:00-18:00; Sa 07:00-15:00", "payment:cash": "yes", "payment:contactless": "yes", "payment:maestro": "yes", "payment:mastercard": "yes", "payment:visa": "yes", "phone": "+48 84 685 70 04", "ref:csioz": "1154970"}}, {"type": "node", "id": 2675860004, "lat": 50.773075, "lon": 22.6030688}, {"type": "node", "id": 2675860010, "lat": 50.7730809, "lon": 22.603262}, {"type": "node", "id": 2675860017, "lat": 50.7731986, "lon": 22.6030594}, {"type": "node", "id": 2675860024, "lat": 50.7732045, "lon": 22.6032526}, {"type": "node", "id": 2807765583, "lat": 50.821444, "lon": 22.746238, "tags": {"amenity": "pharmacy", "dispensing": "yes", "healthcare": "pharmacy", "name": "Nowa", "opening_hours": "Mo-Fr 08:00-18:00; Sa 08:00-13:00", "ref:csioz": "1187670"}}, {"type": "node", "id": 2807765804, "lat": 50.8224533, "lon": 22.7447091, "tags": {"amenity": "pharmacy", "dispensing": "yes", "healthcare": "pharmacy", "opening_hours": "Mo-Fr 08:00-16:00; Sa 08:00-14:00", "phone": "+48 84 683 42 26", "ref:csioz": "1153976"}}, {"type": "node", "id": 2831132828, "lat": 50.5293067, "lon": 22.7148088, "tags": {"amenity": "pharmacy", "dispensing": "yes", "healthcare": "pharmacy", "name": "Przy Szpitalu", "opening_hours": "Mo-Fr 08:00-19:30; Sa 08:00-15:00", "phone": "+48 84 686 44 98", "ref:csioz": "1154233"}}, {"type": "node", "id": 2845763293, "lat": 50.5326786, "lon": 22.7194864, "tags": {"amenity": "pharmacy", "dispensing": "yes", "healthcare": "pharmacy", "name": "Przy Dworcu", "opening_hours": "Mo-Fr 08:00-19:00; Sa 08:00-15:00", "phone": "+48 84 686 71 77", "ref:csioz": "1154673"}}, {"type": "node", "id": 2845789253, "lat": 50.53283, "lon": 22.7172562, "tags": {"amenity": "pharmacy", "dispensing": "yes", "healthcare": "pharmacy", "name": "Apteka od Serca", "opening_hours": "Mo-We,Fr 08:00-19:00; Th 08:00-21:00; Sa 08:00-15:00", "ref:csioz": "1153762"}}, {"type": "node", "id": 2859981943, "lat": 50.5314263, "lon": 22.7145306, "tags": {"amenity": "pharmacy", "dispensing": "yes", "healthcare": "pharmacy", "name": "Pod Gwiazd\u0105", "opening_hours": "24/7", "ref:csioz": "1154128"}}, {"type": "node", "id": 2859981948, "lat": 50.5332545, "lon": 22.7037448, "tags": {"addr:city": "Bi\u0142goraj", "addr:housenumber": "2a", "addr:postcode": "23-400", "addr:street": "Polna", "amenity": "pharmacy", "dispensing": "yes", "healthcare": "pharmacy", "name": "Twoja Apteka", "opening_hours": "Mo-Fr 08:00-21:00; Sa 08:00-17:00", "phone": "+48 84 6867943", "ref:csioz": "1154636", "source:addr": "UM Bi\u0142goraj (emuia.gugik.gov.pl)"}}, {"type": "node", "id": 2859981950, "lat": 50.5259282, "lon": 22.7130711, "tags": {"amenity": "pharmacy", "dispensing": "yes", "healthcare": "pharmacy", "name": "Apteka", "opening_hours": "Mo-Fr 08:00-20:00; Sa 08:00-15:00", "phone": "+48 84 686 69 99", "ref:csioz": "1155347"}}, {"type": "node", "id": 2859981980, "lat": 50.5282203, "lon": 22.7147888, "tags": {"amenity": "pharmacy", "dispensing": "yes", "healthcare": "pharmacy", "name": "Apteka", "opening_hours": "Mo-Fr 08:00-19:00; Sa 08:00-15:00", "phone": "+48 84 686 17 31", "ref:csioz": "1154713"}}, {"type": "node", "id": 2859981982, "lat": 50.5305411, "lon": 22.7170516, "tags": {"amenity": "pharmacy", "dispensing": "yes", "healthcare": "pharmacy", "name": "Apteka od Serca", "opening_hours": "Mo-Sa 07:00-21:00", "ref:csioz": "1154539"}}, {"type": "node", "id": 2859983518, "lat": 50.5338858, "lon": 22.7189598, "tags": {"amenity": "pharmacy", "dispensing": "yes", "healthcare": "pharmacy", "name": "Apteka", "opening_hours": "Mo-Fr 08:00-19:00; Sa 08:00-15:00", "phone": "+48 84 686 44 20", "ref:csioz": "1155157"}}, {"type": "node", "id": 2859983519, "lat": 50.5363508, "lon": 22.7202798, "tags": {"amenity": "pharmacy", "dispensing": "yes", "healthcare": "pharmacy", "name:signed": "no", "opening_hours": "Mo-Fr 07:30-20:00; Sa 08:00-15:00", "ref:csioz": "1154956"}}, {"type": "node", "id": 2859983531, "lat": 50.5386102, "lon": 22.7242982, "tags": {"amenity": "pharmacy", "dispensing": "yes", "healthcare": "pharmacy", "name": "Apteka Rodzinna", "opening_hours": "Mo-Fr 08:00-19:00; Sa 08:00-15:00", "phone": "+48 84 686 52 78", "ref:csioz": "1154943"}}, {"type": "node", "id": 2859983532, "lat": 50.5438604, "lon": 22.7259747, "tags": {"amenity": "pharmacy", "dispensing": "yes", "healthcare": "pharmacy", "name:signed": "no", "opening_hours": "Mo-Fr 08:00-20:00; Sa 08:00-15:00", "phone": "+48 84 686 12 30", "ref:csioz": "1154505"}}, {"type": "node", "id": 2861978109, "lat": 50.53554, "lon": 22.7213942, "tags": {"amenity": "pharmacy", "dispensing": "yes", "healthcare": "pharmacy", "name": "Apteka Premium-Lek", "opening_hours": "Mo-Fr 08:00-18:00; Sa 08:00-15:00", "phone": "+48 84 686 52 77", "ref:csioz": "1155120"}}, {"type": "node", "id": 2874554502, "lat": 50.7011941, "lon": 22.4213149, "tags": {"addr:city": "Jan\u00f3w Lubelski", "addr:housenumber": "77", "addr:postcode": "23-300", "addr:street": "Jana Zamoyskiego", "amenity": "pharmacy", "dispensing": "yes", "healthcare": "pharmacy", "name": "Apteka przy Ani-Medzie", "opening_hours": "Mo-Fr 07:00-19:00; Sa 08:00-15:00", "ref:csioz": "1158181"}}, {"type": "node", "id": 3001392150, "lat": 50.69428, "lon": 22.97833, "tags": {"addr:city": "Szczebrzeszyn", "addr:housenumber": "25", "addr:postcode": "22-460", "addr:street": "Plac Tadeusza Ko\u015bciuszki", "amenity": "pharmacy", "dispensing": "yes", "opening_hours": "Mo-Fr 08:00-18:00; Sa 08:00-13:00", "ref:csioz": "1208011", "source:addr": "szczebrzeszyn.e-mapa.net"}}, {"type": "node", "id": 3022168234, "lat": 50.6135116, "lon": 22.9663586, "tags": {"amenity": "pharmacy", "dispensing": "yes", "healthcare": "pharmacy", "name": "Apteka Roztocze", "ref:csioz": "1164077"}}, {"type": "node", "id": 3524575805, "lat": 50.5728662, "lon": 22.8849899, "tags": {"amenity": "pharmacy", "dispensing": "yes", "healthcare": "pharmacy", "name": "Apteka od Serca", "opening_hours": "Mo-Fr 08:00-18:00; Sa 08:00-12:00", "ref:csioz": "1164053"}}, {"type": "node", "id": 3861260565, "lat": 50.5431951, "lon": 22.7213255, "tags": {"amenity": "pharmacy", "dispensing": "yes", "healthcare": "pharmacy", "opening_hours": "Mo-Fr 08:00-19:00; Sa 08:00-15:00", "phone": "+48 84 686 54 63", "ref:csioz": "1155173"}}, {"type": "node", "id": 3909328006, "lat": 50.5397544, "lon": 22.7217546, "tags": {"amenity": "pharmacy", "dispensing": "yes", "healthcare": "pharmacy", "name": "Apteka Premium-Lek", "opening_hours": "Mo-Sa 08:00-20:00", "phone": "+48 84 530 29 89", "ref:csioz": "1210398"}}, {"type": "node", "id": 4086301398, "lat": 50.5342471, "lon": 22.7229581, "tags": {"amenity": "pharmacy", "dispensing": "yes", "healthcare": "pharmacy", "name": "Apteka Nova", "opening_hours": "Mo-Fr 08:00-20:00; Sa 09:00-19:00", "ref:csioz": "1201855"}}, {"type": "node", "id": 4308887255, "lat": 50.7072201, "lon": 22.4116781, "tags": {"addr:city": "Jan\u00f3w Lubelski", "addr:housenumber": "4", "addr:postcode": "23-300", "addr:street": "Bialska", "amenity": "pharmacy", "dispensing": "yes", "healthcare": "pharmacy", "name": "Zdrojowa", "opening_hours": "Mo-Fr 07:00-20:00; Sa 7:00-15:00, Su 08:00-15:00", "ref:csioz": "1157493", "wheelchair": "no"}}, {"type": "node", "id": 4519603176, "lat": 50.700108, "lon": 22.5312592, "tags": {"addr:housenumber": "226", "addr:place": "Krzemie\u0144 Pierwszy", "addr:postcode": "23-304", "amenity": "pharmacy", "dispensing": "yes", "name": "Sana", "name:pl": "Sana", "opening_hours": "Mo-Fr 09:00-17:00", "phone": "+48 15 8752030", "ref:csioz": "1106222", "source:addr": "EMUiA (emuia.geoportal.gov.pl)", "wheelchair": "yes"}}, {"type": "node", "id": 4715538543, "lat": 50.8136579, "lon": 22.529386, "tags": {"amenity": "pharmacy", "dispensing": "yes", "name": "Punkt apteczny", "opening_hours": "Mo-Fr 08:30-15:30", "phone": "+48 15 8712238", "ref:csioz": "1106233"}}, {"type": "node", "id": 4715538544, "lat": 50.758116, "lon": 22.4825147, "tags": {"amenity": "pharmacy", "dispensing": "yes", "name": "Apteka", "opening_hours": "Mo-Fr 09:00-16:00", "phone": "+48 15 8711002", "ref:csioz": "1163180"}}, {"type": "node", "id": 4715538551, "lat": 50.8487041, "lon": 22.4948076, "tags": {"amenity": "pharmacy", "dispensing": "yes", "name": "Apteka", "opening_hours": "Mo-Fr 08:00-16:00; Sa 08:00-13:00", "phone": "+48 15 8745115", "ref:csioz": "1162264"}}, {"type": "node", "id": 4738631588, "lat": 50.7057092, "lon": 22.4127022, "tags": {"addr:city": "Jan\u00f3w Lubelski", "addr:housenumber": "25", "addr:postcode": "23-300", "addr:street": "Jana Zamoyskiego", "amenity": "pharmacy", "dispensing": "yes", "healthcare": "pharmacy", "name": "Sana", "operator": "Apteka \"SANA\" Aniela Mucha", "phone": "+48158725059", "ref:csioz": "1158490"}}, {"type": "node", "id": 4739770032, "lat": 50.9106692, "lon": 22.8368368, "tags": {"addr:city": "\u017b\u00f3\u0142kiewka", "addr:housenumber": "18", "addr:postcode": "22-335", "addr:street": "Hetmana \u017b\u00f3\u0142kiewskiego", "amenity": "pharmacy", "dispensing": "yes", "healthcare": "pharmacy", "opening_hours": "Mo-Fr 07:00-17:00; Sa 08:00-15:00", "phone": "+48 84 6831793", "ref:csioz": "1157215"}}, {"type": "node", "id": 4739770034, "lat": 50.9100141, "lon": 22.8362888, "tags": {"addr:city": "\u017b\u00f3\u0142kiewka", "addr:housenumber": "25", "addr:postcode": "22-335", "addr:street": "Hetmana \u017b\u00f3\u0142kiewskiego", "amenity": "pharmacy", "dispensing": "yes", "healthcare": "pharmacy", "opening_hours": "Mo-Fr 07:00-17:00; Sa 08:00-15:00", "phone": "+48 84 6831648", "ref:csioz": "1157145"}}, {"type": "node", "id": 4739770037, "lat": 50.8801138, "lon": 22.9741384, "tags": {"addr:housenumber": "64", "addr:place": "Rudnik", "addr:postcode": "22-330", "amenity": "pharmacy", "dispensing": "yes", "healthcare": "pharmacy", "name": "Punkt Apteczny", "opening_hours": "Mo-Fr 08:00-16:00; Sa 09:00-11:00", "phone": "+48 84 6841127", "ref:csioz": "1230600"}}, {"type": "node", "id": 4944013924, "lat": 50.7446503, "lon": 22.8324871, "tags": {"addr:city": "Radecznica", "addr:housenumber": "2", "addr:postcode": "22-463", "addr:street": "Boles\u0142awa Prusa", "amenity": "pharmacy", "dispensing": "yes", "name": "Apteka", "name:pl": "Apteka", "opening_hours": "Mo-Fr 08:00-17:00; Sa 08:00-13:00", "ref:csioz": "1155185"}}, {"type": "node", "id": 4965931222, "lat": 50.8038171, "lon": 23.0422485, "tags": {"amenity": "pharmacy", "dispensing": "yes", "name": "Urtica", "name:pl": "Urtica", "opening_hours": "Mo-Fr 08:00-18:00; Sa 08:00-12:00", "ref:csioz": "1154458"}}, {"type": "node", "id": 5011616921, "lat": 50.9088046, "lon": 22.6654258, "tags": {"addr:housenumber": "7", "addr:street": "Rynek Jab\u0142onowskich", "amenity": "pharmacy", "dispensing": "yes", "healthcare": "pharmacy", "name": "Vitamar Mgr Mariola Stanicka", "opening_hours": "Mo-Fr 07:30-18:00; Sa 07:30-13:00", "ref:csioz": "1166429"}}, {"type": "node", "id": 5011665522, "lat": 50.9090496, "lon": 22.6660643, "tags": {"amenity": "pharmacy", "dispensing": "yes", "healthcare": "pharmacy", "opening_hours": "Mo-Fr 08:00-18:00; Sa 08:00-12:00", "ref:csioz": "1158804"}}, {"type": "node", "id": 5684527637, "lat": 50.5303191, "lon": 22.7081262, "tags": {"amenity": "pharmacy", "brand": "Dr. Max", "brand:wikidata": "Q56317371", "brand:wikipedia": "fr:Dr.Max", "dispensing": "yes", "healthcare": "pharmacy", "name": "Dr. Max", "opening_hours": "Mo-Sa 08:00-20:00; Su 09:00-19:00", "operator": "Dr.Max Sp. z o. o.", "operator:type": "private", "payment:cash": "yes", "payment:credit_cards": "yes", "payment:debit_cards": "yes", "phone": "+48 84 627 46 13", "ref:csioz": "1216544", "wheelchair": "yes"}}, {"type": "node", "id": 5777599029, "lat": 50.7168547, "lon": 23.0272561, "tags": {"amenity": "pharmacy", "dispensing": "yes", "healthcare": "pharmacy", "opening_hours": "Mo-Fr 08:00-18:00; Sa 08:00-13:00", "ref:csioz": "1203442"}}, {"type": "node", "id": 5784309589, "lat": 50.8544504, "lon": 22.3337187, "tags": {"amenity": "pharmacy", "dispensing": "yes", "healthcare": "pharmacy", "opening_hours": "Mo-Fr 08:00-13:00; Sa 09:00-18:00", "ref:csioz": "1207083"}}, {"type": "node", "id": 6070502296, "lat": 50.5315759, "lon": 22.7202302, "tags": {"amenity": "pharmacy", "dispensing": "yes", "healthcare": "pharmacy", "ref:csioz": "1215011"}}, {"type": "node", "id": 6649685622, "lat": 50.5170768, "lon": 22.670366, "tags": {"amenity": "pharmacy", "healthcare": "pharmacy", "name": "Punkt Apteczny - Monika \u0141ukasik", "ref:csioz": "1195998"}}, {"type": "node", "id": 7867684576, "lat": 50.6151406, "lon": 22.9749209, "tags": {"air_conditioning": "yes", "amenity": "pharmacy", "dispensing": "yes", "email": "apteka.zwierzyniec@o2.pl", "healthcare": "pharmacy", "name": "Moja Apteka", "opening_hours": "Mo-Tu 08:00-18:00, We 07:00-18:00, Th-Fr 08:00-18:00, Sa 08:00-15:00", "operator": "Moja Sp. z o.o.", "operator:type": "private", "phone": "+48 84 687 20 72", "ref:csioz": "1188882", "shop": "chemist"}}, {"type": "node", "id": 8189080711, "lat": 50.7030059, "lon": 22.4276171, "tags": {"addr:city": "Jan\u00f3w Lubelski", "addr:housenumber": "2", "addr:postcode": "23-300", "addr:street": "Liliowa", "amenity": "pharmacy", "dispensing": "yes", "drive_through": "no", "healthcare": "pharmacy", "long_name": "Dbam o Zdrowie \"S\u0142oneczna\"", "name": "Nowa Farmacja", "opening_hours": "Mo-Fr 07:00-20:00; Sa 08:00-20:00", "ref:csioz": "1188481"}}, {"type": "node", "id": 9314287303, "lat": 50.6964847, "lon": 22.9830963, "tags": {"amenity": "pharmacy", "dispensing": "yes", "healthcare": "pharmacy", "ref:csioz": "1155104"}}, {"type": "node", "id": 9543447561, "lat": 50.6721754, "lon": 22.6693638, "tags": {"amenity": "pharmacy", "email": "kristikaib@o2.pl", "healthcare": "pharmacy", "opening_hours": "Mo-Fr 08:00-15:00", "phone": "+48 607 523 343", "ref:csioz": "1221853"}}, {"type": "node", "id": 9560479239, "lat": 50.7080755, "lon": 22.413014, "tags": {"addr:city": "Jan\u00f3w Lubelski", "addr:housenumber": "28", "addr:postcode": "23-300", "addr:street": "Bialska", "amenity": "pharmacy", "healthcare": "pharmacy", "name": "Apteka Janowska", "ref:csioz": "1163146"}}, {"type": "node", "id": 9560479240, "lat": 50.702365, "lon": 22.432348, "tags": {"addr:city": "Jan\u00f3w Lubelski", "addr:housenumber": "149", "addr:postcode": "23-300", "addr:street": "Jana Zamoyskiego", "amenity": "pharmacy", "healthcare": "pharmacy", "name": "Mediq", "ref:csioz": "1162614"}}, {"type": "node", "id": 9560479242, "lat": 50.7048469, "lon": 22.4171997, "tags": {"addr:city": "Jan\u00f3w Lubelski", "addr:housenumber": "5", "addr:postcode": "23-300", "addr:street": "Jana Paw\u0142a II", "amenity": "pharmacy", "dispensing": "yes", "healthcare": "pharmacy", "name": "Apteka przy Zdrowiu", "opening_hours": "Mo-Fr 07:30-20:00; Sa 08:00-15:00", "ref:csioz": "1161610"}}, {"type": "node", "id": 9560479243, "lat": 50.7056507, "lon": 22.4122874, "tags": {"addr:city": "Jan\u00f3w Lubelski", "addr:housenumber": "22", "addr:postcode": "23-300", "addr:street": "Jana Zamoyskiego", "amenity": "pharmacy", "healthcare": "pharmacy", "name": "Medica", "opening_hours": "Mo-Fr 07:30-19:00; Sa 08:00-14:00", "ref:csioz": "1157974"}}, {"type": "node", "id": 9560479244, "lat": 50.7038184, "lon": 22.4168524, "tags": {"addr:city": "Jan\u00f3w Lubelski", "addr:housenumber": "2", "addr:postcode": "23-300", "addr:street": "Ogrodowa", "amenity": "pharmacy", "dispensing": "yes", "healthcare": "pharmacy", "name": "Apteka od Serca", "ref:csioz": "1209906"}}, {"type": "node", "id": 9560479247, "lat": 50.7907414, "lon": 22.3976417, "tags": {"amenity": "pharmacy", "name": "Punkt apteczny", "opening_hours": "Mo-Fr 08:00-15:00; Sa 08:30-12:00", "operator": "mgr farm. Marta Widz", "ref:csioz": "1106303", "wheelchair": "yes"}}, {"type": "node", "id": 9568828658, "lat": 50.6956828, "lon": 22.9817891, "tags": {"amenity": "pharmacy", "dispensing": "yes", "healthcare": "pharmacy", "opening_hours": "Mo,We-Fr 08:00-18:00;Sa 08:00-17:00;PH closed;Tu 07:00-18:00", "phone": "+48846821061", "ref:csioz": "1155339"}}, {"type": "node", "id": 9568828659, "lat": 50.6974316, "lon": 22.9811104, "tags": {"amenity": "pharmacy", "dispensing": "yes", "ref:csioz": "1155040"}}, {"type": "node", "id": 9568828660, "lat": 50.68009, "lon": 22.845136, "tags": {"amenity": "pharmacy", "dispensing": "yes", "ref:csioz": "1154474"}}, {"type": "node", "id": 9568828663, "lat": 50.727073, "lon": 23.014417, "tags": {"amenity": "pharmacy", "dispensing": "yes", "ref:csioz": "1106463"}}, {"type": "node", "id": 10285933707, "lat": 50.6894649, "lon": 22.7503582, "tags": {"amenity": "pharmacy", "dispensing": "yes", "email": "p.aptecznyteodorowka@onet.pl", "healthcare": "pharmacy", "name": "Punkt Apteczny", "phone": "+48 693 963 999", "ref:csioz": "1230996"}}, {"type": "node", "id": 10591992553, "lat": 50.6693245, "lon": 22.6265735, "tags": {"amenity": "pharmacy", "dispensing": "yes", "healthcare": "pharmacy", "name": "Punkt Apteczny", "ref:csioz": "1231268"}}, {"type": "node", "id": 10592022918, "lat": 50.9107069, "lon": 22.8343845, "tags": {"amenity": "pharmacy", "dispensing": "yes", "healthcare": "pharmacy", "opening_hours": "Mo-Fr 08:00-16:00; Sa 08:00-13:00", "phone": "+48 84 6831353", "ref:csioz": "1157100"}}, {"type": "node", "id": 10592489986, "lat": 50.8888268, "lon": 22.5891307, "tags": {"amenity": "pharmacy", "dispensing": "yes", "fixme": "Lokalizacja do weryfikacji", "healthcare": "pharmacy", "ref:csioz": "1158010"}}, {"type": "node", "id": 12157321562, "lat": 50.7062077, "lon": 22.4120103, "tags": {"amenity": "pharmacy", "healthcare": "pharmacy", "name": "Pi\u0142sudskiego 21", "opening_hours": "Mo-Fr 08:00-19:00; Sa 08:00-15:00"}}, {"type": "way", "id": 261953552, "nodes": [2675860017, 2675860024, 2675860010, 2675860004, 2675860017], "tags": {"addr:city": "Chrzan\u00f3w", "addr:city:simc": "0789230", "addr:housenumber": "111", "addr:place": "Chrzan\u00f3w Trzeci", "addr:postcode": "23-305", "amenity": "pharmacy", "building": "yes", "dispensing": "yes", "name": "Apteka Centrum", "opening_hours": "Mo-Fr 08:00-16:00; Th 08:00-18:00", "phone": "+48 15 8755256", "ref:csioz": "1229095", "source:addr": "emuia1.gugik.gov.pl"}}]}