{"version": 0.6, "generator": "Overpass API 0.7.62.8 e802775f", "osm3s": {"timestamp_osm_base": "2025-10-06T07:54:35Z", "copyright": "The data included in this document is from www.openstreetmap.org. The data is made available under ODbL."}, "elements": [{"type": "node", "id": 903653436, "lat": 43.8560976, "lon": 19.8412998, "tags": {"amenity": "pharmacy", "dispensing": "yes", "email": "office@apotekaue.rs", "government": "healthcare", "healthcare": "pharmacy", "int_name": "Centar", "medical_supply": "yes", "name": "\u0426\u0435\u043d\u0442\u0430\u0440", "name:sr": "\u0426\u0435\u043d\u0442\u0430\u0440", "name:sr-Latn": "Centar", "opening_hours": "Mo-Fr 07:00-22:00; Sa 08:00-22:00; PH off", "operator": "Apoteka U\u017eice", "operator:type": "government", "phone": "+3813131514207", "website": "http://www.apotekaue.rs/", "wheelchair": "limited"}}, {"type": "node", "id": 903656068, "lat": 43.858595, "lon": 19.8407802, "tags": {"amenity": "pharmacy", "name": "Majka i dete", "wheelchair": "yes"}}, {"type": "node", "id": 2408736171, "lat": 43.8567491, "lon": 19.8331638, "tags": {"amenity": "pharmacy"}}, {"type": "node", "id": 4082675236, "lat": 43.633415, "lon": 20.1513453, "tags": {"amenity": "pharmacy"}}, {"type": "node", "id": 4948810622, "lat": 43.8523026, "lon": 19.8563334, "tags": {"amenity": "pharmacy", "int_name": "Herba", "name": "\u0425\u0435\u0440\u0431\u0430", "wheelchair": "yes"}}, {"type": "node", "id": 5830741899, "lat": 43.9972482, "lon": 19.907226, "tags": {"amenity": "pharmacy", "brand": "\u041a\u0440\u0448\u0435\u043d\u043a\u043e\u0432\u0438\u045b", "brand:wikidata": "Q132782214", "healthcare": "pharmacy", "int_name": "Krsenkovic", "name": "\u041a\u0440\u0448\u0435\u043d\u043a\u043e\u0432\u0438\u045b", "name:sr": "\u041a\u0440\u0448\u0435\u043d\u043a\u043e\u0432\u0438\u045b", "name:sr-Latn": "Kr\u0161enkovi\u0107"}}, {"type": "node", "id": 5830742005, "lat": 43.9970049, "lon": 19.9072782, "tags": {"amenity": "pharmacy", "healthcare": "pharmacy", "name": "Fillyfarm"}}, {"type": "node", "id": 7830540082, "lat": 43.8519833, "lon": 19.8569429, "tags": {"amenity": "pharmacy", "brand": "\u041a\u0440\u0448\u0435\u043d\u043a\u043e\u0432\u0438\u045b", "brand:wikidata": "Q132782214", "healthcare": "pharmacy", "int_name": "Krsenkovic", "name": "\u041a\u0440\u0448\u0435\u043d\u043a\u043e\u0432\u0438\u045b", "name:sr": "\u041a\u0440\u0448\u0435\u043d\u043a\u043e\u0432\u0438\u045b", "name:sr-Latn": "Kr\u0161enkovi\u0107"}}, {"type": "node", "id": 8007742689, "lat": 43.854946, "lon": 19.8446201, "tags": {"amenity": "pharmacy", "healthcare": "pharmacy", "name": "Benu"}}, {"type": "node", "id": 8007742712, "lat": 43.8548519, "lon": 19.8448877, "tags": {"amenity": "pharmacy", "brand": "\u041a\u0440\u0448\u0435\u043d\u043a\u043e\u0432\u0438\u045b", "brand:wikidata": "Q132782214", "healthcare": "pharmacy", "int_name": "Krsenkovic", "name": "\u041a\u0440\u0448\u0435\u043d\u043a\u043e\u0432\u0438\u045b", "name:sr": "\u041a\u0440\u0448\u0435\u043d\u043a\u043e\u0432\u0438\u045b", "name:sr-Latn": "Kr\u0161enkovi\u0107"}}, {"type": "node", "id": 8007742714, "lat": 43.8548004, "lon": 19.8449906, "tags": {"amenity": "pharmacy", "brand": "\u041a\u0440\u0448\u0435\u043d\u043a\u043e\u0432\u0438\u045b", "brand:wikidata": "Q132782214", "healthcare": "pharmacy", "int_name": "Krsenkovic", "name": "\u041a\u0440\u0448\u0435\u043d\u043a\u043e\u0432\u0438\u045b", "name:sr": "\u041a\u0440\u0448\u0435\u043d\u043a\u043e\u0432\u0438\u045b", "name:sr-Latn": "Kr\u0161enkovi\u0107"}}, {"type": "node", "id": 8085979434, "lat": 43.8573649, "lon": 19.8419064, "tags": {"amenity": "pharmacy", "name": "Benu"}}, {"type": "node", "id": 8085979458, "lat": 43.8572601, "lon": 19.8421726, "tags": {"amenity": "pharmacy", "name": "Menta"}}, {"type": "node", "id": 8119478446, "lat": 43.8574061, "lon": 19.8422366, "tags": {"amenity": "pharmacy", "dispensing": "yes", "email": "office@apotekaue.rs", "government": "healthcare", "healthcare": "pharmacy", "int_name": "Zdravlje", "medical_supply": "yes", "name": "\u0417\u0434\u0440\u0430\u0432\u0459\u0435", "name:sr": "\u0417\u0434\u0440\u0430\u0432\u0459\u0435", "name:sr-Latn": "Zdravlje", "office": "government", "opening_hours": "24/7", "operator": "Apoteka U\u017eice", "operator:type": "government", "phone": "+38131510238", "website": "http://www.apotekaue.rs/", "wheelchair": "yes"}}, {"type": "node", "id": 8119478496, "lat": 43.8571789, "lon": 19.8428904, "tags": {"amenity": "pharmacy", "brand": "\u041a\u0440\u0448\u0435\u043d\u043a\u043e\u0432\u0438\u045b", "brand:wikidata": "Q132782214", "healthcare": "pharmacy", "int_name": "Krsenkovic", "name": "\u041a\u0440\u0448\u0435\u043d\u043a\u043e\u0432\u0438\u045b", "name:sr": "\u041a\u0440\u0448\u0435\u043d\u043a\u043e\u0432\u0438\u045b", "name:sr-Latn": "Kr\u0161enkovi\u0107"}}, {"type": "node", "id": 8151100433, "lat": 43.8561913, "lon": 19.8406726, "tags": {"amenity": "pharmacy", "brand": "\u041a\u0440\u0448\u0435\u043d\u043a\u043e\u0432\u0438\u045b", "brand:wikidata": "Q132782214", "healthcare": "pharmacy", "int_name": "Krsenkovic", "name": "\u041a\u0440\u0448\u0435\u043d\u043a\u043e\u0432\u0438\u045b", "name:sr": "\u041a\u0440\u0448\u0435\u043d\u043a\u043e\u0432\u0438\u045b", "name:sr-Latn": "Kr\u0161enkovi\u0107"}}, {"type": "node", "id": 8184385372, "lat": 43.847012, "lon": 20.0403487, "tags": {"amenity": "pharmacy", "dispensing": "yes", "healthcare": "pharmacy", "name": "Dr Bra\u0161anac"}}, {"type": "node", "id": 8339880052, "lat": 43.8538186, "lon": 19.8460982, "tags": {"amenity": "pharmacy", "dispensing": "yes", "email": "office@apotekaue.rs", "healthcare": "pharmacy", "int_name": "Apotekarska ustanova \u201eUzice\u201d", "medical_supply": "yes", "name": "\u0410\u043f\u043e\u0442\u0435\u043a\u0430\u0440\u0441\u043a\u0430 \u0443\u0441\u0442\u0430\u043d\u043e\u0432\u0430 \u201e\u0423\u0436\u0438\u0446\u0435\u201d", "name:sr": "\u0410\u043f\u043e\u0442\u0435\u043a\u0430\u0440\u0441\u043a\u0430 \u0443\u0441\u0442\u0430\u043d\u043e\u0432\u0430 \u201e\u0423\u0436\u0438\u0446\u0435\u201d", "name:sr-Latn": "Apotekarska ustanova \u201eU\u017eice\u201d", "operator": "Apoteka U\u017eice", "operator:type": "government", "phone": "+38131514 642", "website": "http://www.apotekaue.rs/", "wheelchair": "yes"}}, {"type": "node", "id": 8346352000, "lat": 43.8533339, "lon": 19.8457319, "tags": {"amenity": "pharmacy", "brand": "Benu", "brand:wikidata": "Q62562792", "healthcare": "pharmacy", "name": "Benu"}}, {"type": "node", "id": 8373397556, "lat": 43.8540152, "lon": 19.8458268, "tags": {"amenity": "pharmacy", "healthcare": "pharmacy", "int_name": "Braca Filipovic", "name": "Bra\u0107a Filipovi\u0107", "opening_hours": "Mo-Fr 07:00-21:00; Sa 07:00-17:00; Su 08:00-14:00"}}, {"type": "node", "id": 8401641522, "lat": 43.8538305, "lon": 19.8445427, "tags": {"amenity": "pharmacy", "int_name": "Lek", "name": "\u041b\u0435\u043a", "name:sr": "\u041b\u0435\u043a", "name:sr-Latn": "lek"}}, {"type": "node", "id": 8401641547, "lat": 43.8545406, "lon": 19.8449523, "tags": {"amenity": "pharmacy", "name": "Betty"}}, {"type": "node", "id": 8419134515, "lat": 43.8563876, "lon": 19.8394297, "tags": {"amenity": "pharmacy", "name": "Lily"}}, {"type": "node", "id": 8422707653, "lat": 43.8538631, "lon": 19.8439764, "tags": {"amenity": "pharmacy", "int_name": "Arsic", "name": "\u0410\u0440\u0441\u0438\u045b"}}, {"type": "node", "id": 8426869208, "lat": 43.8549032, "lon": 19.8431402, "tags": {"amenity": "pharmacy", "name": "Iva"}}, {"type": "node", "id": 8468815433, "lat": 43.8558005, "lon": 19.8414328, "tags": {"amenity": "pharmacy", "name": "Tanja lek"}}, {"type": "node", "id": 8508268423, "lat": 43.8561086, "lon": 19.8392956, "tags": {"amenity": "pharmacy", "name": "Betty"}}, {"type": "node", "id": 9379984391, "lat": 43.8585216, "lon": 19.8411656, "tags": {"amenity": "pharmacy", "name": "Belladonna"}}, {"type": "node", "id": 9855877759, "lat": 43.8591698, "lon": 20.1367763, "tags": {"amenity": "pharmacy", "dispensing": "yes", "healthcare": "pharmacy", "name": "\u0414\u0440 \u0414\u0440\u0430\u0433\u0438\u0448\u0430 \u041c\u0438\u0448\u043e\u0432\u0438\u045b", "name:en": "Dr Dragisa Misovic", "name:sr-Latn": "Dr Dragi\u0161a Mi\u0161ovic", "opening_hours": "Mo-Fr 07:00-20:00; Sa 07:00-14:00; Su 08:00-12:00", "website": "http://www.apotekacacak.co.rs/lucani"}}, {"type": "node", "id": 11978680567, "lat": 43.7514691, "lon": 20.0984401, "tags": {"amenity": "pharmacy", "healthcare": "pharmacy"}}, {"type": "node", "id": 12806851631, "lat": 43.9970786, "lon": 19.9069874, "tags": {"amenity": "pharmacy", "healthcare": "pharmacy"}}]}