{"version": 0.6, "generator": "Overpass API 0.7.62.8 e802775f", "osm3s": {"timestamp_osm_base": "2025-10-06T09:01:48Z", "copyright": "The data included in this document is from www.openstreetmap.org. The data is made available under ODbL."}, "elements": [{"type": "node", "id": 11646397270, "lat": 39.5857332, "lon": 28.6274866, "tags": {"amenity": "pharmacy", "healthcare": "pharmacy", "name": "\u00d6zden Eczanesi", "phone": "+90 266 662 1100"}}, {"type": "node", "id": 11646397271, "lat": 39.5857547, "lon": 28.6278307, "tags": {"amenity": "pharmacy", "healthcare": "pharmacy", "name": "G\u00fcl Eczanesi", "phone": "+90 266 662 4405"}}, {"type": "node", "id": 11646397969, "lat": 39.5842904, "lon": 28.6281184, "tags": {"amenity": "pharmacy", "healthcare": "pharmacy", "name": "Korkmaz Eczanesi", "phone": "+90 266 662 12788"}}, {"type": "node", "id": 11646397970, "lat": 39.5848949, "lon": 28.6277163, "tags": {"amenity": "pharmacy", "healthcare": "pharmacy", "name": "Y\u00fcksel Eczanesi", "phone": "+90 266 662 3867"}}, {"type": "node", "id": 11646397971, "lat": 39.5853109, "lon": 28.6271991, "tags": {"amenity": "pharmacy", "healthcare": "pharmacy", "name": "Zuhal Yarma Eczanesi", "phone": "+90 266 662 6262"}}, {"type": "node", "id": 11646398069, "lat": 39.5849604, "lon": 28.628559, "tags": {"amenity": "pharmacy", "healthcare": "pharmacy", "name": "Dursunbey Eczanesi", "phone": "+90 266 662 1754"}}, {"type": "node", "id": 11646398070, "lat": 39.5855132, "lon": 28.6278231, "tags": {"amenity": "pharmacy", "name": "Yellice", "name:tr": "Yellice Eczanesi", "phone": "+90 266 662 1307"}}, {"type": "node", "id": 11646398071, "lat": 39.5858827, "lon": 28.628279, "tags": {"amenity": "pharmacy", "healthcare": "pharmacy", "name": "Kaya Eczanesi", "phone": "+90 266 662 3300"}}, {"type": "node", "id": 11646398269, "lat": 39.5847709, "lon": 28.6275068, "tags": {"amenity": "pharmacy", "healthcare": "pharmacy", "name": "Durbal Eczanesi", "phone": "+90 266 662 1565"}}]}