{"version": 0.6, "generator": "Overpass API 0.7.62.8 e802775f", "osm3s": {"timestamp_osm_base": "2025-10-06T08:03:46Z", "copyright": "The data included in this document is from www.openstreetmap.org. The data is made available under ODbL."}, "elements": [{"type": "node", "id": 411843310, "lat": 46.2619374, "lon": 20.1362119, "tags": {"amenity": "pharmacy", "description": "Szeged \u00e1lland\u00f3 \u00fcgyeletes patik\u00e1ja", "dispensing": "yes", "healthcare": "pharmacy", "name": "Vasas Szent P\u00e9ter Gy\u00f3gyszert\u00e1r", "opening_hours": "24/7", "wheelchair": "yes"}}, {"type": "node", "id": 899520052, "lat": 46.2525175, "lon": 20.1476262, "tags": {"addr:city": "Szeged", "addr:housenumber": "3", "addr:postcode": "6720", "addr:street": "Klauz\u00e1l t\u00e9r", "amenity": "pharmacy", "brand": "Gy\u00f6ngy Patik\u00e1k", "contact:phone": "+36 62 547 174", "contact:website": "https://gyongypatikak.hu/patika/kigyo-gyogyszertar-szeged", "healthcare": "pharmacy", "name": "K\u00edgy\u00f3 Patika", "opening_hours": "Mo-Fr 08:00-20:00; Sa,Su,PH 09:00-17:00", "wheelchair": "limited"}}, {"type": "node", "id": 1000725666, "lat": 46.2731304, "lon": 20.1604266, "tags": {"addr:city": "Szeged", "addr:housenumber": "38", "addr:postcode": "6723", "addr:street": "Budapesti k\u00f6r\u00fat", "amenity": "pharmacy", "brand": "Pingvin Patika", "brand:wikidata": "Q105626461", "contact:mobile": "+36 30 935 9179", "contact:phone": "+36 62 555 440", "contact:website": "https://pingvinpatika.hu/", "healthcare": "pharmacy", "name": "Pingvin Patika", "name:en": "Penguin Pharmacy", "note": "bej\u00e1rat a J\u00f3zsef Attila sgt. fel\u0151l", "opening_hours": "Mo-Fr 07:30-18:30; Sa 08:00-13:00", "operator": "Pharma Quelle Bt.", "wheelchair": "yes"}}, {"type": "node", "id": 1217305343, "lat": 46.250727, "lon": 20.1459878, "tags": {"amenity": "pharmacy", "brand": "Pingvin Patika", "brand:wikidata": "Q105626461", "check_date:opening_hours": "2024-11-25", "dispensing": "yes", "healthcare": "pharmacy", "name": "Pingvin Patika", "name:en": "Penguin Pharmacy", "opening_hours": "Mo-Fr 07:30-19:30; Sa 08:00-13:00; PH off", "phone": "+36 62 426 330", "website": "https://pingvinpatika.hu/", "wheelchair": "yes"}}, {"type": "node", "id": 1240913246, "lat": 46.2551177, "lon": 20.1445703, "tags": {"addr:city": "Szeged", "addr:housenumber": "1", "addr:postcode": "6722", "addr:street": "Bart\u00f3k t\u00e9r", "amenity": "pharmacy", "check_date:opening_hours": "2024-12-22", "contact:phone": "+36 62 540 218", "email": "bartokpatikabt@invitel.hu", "healthcare": "pharmacy", "name": "m\u00e1ltai Gy\u00f3gyszert\u00e1r", "opening_hours": "Mo-Fr 07:30-18:30; Sa 07:00-12:30", "operator": "Bart\u00f3k Patika Bt.", "wheelchair": "no"}}, {"type": "node", "id": 1240913256, "lat": 46.248105, "lon": 20.1452402, "tags": {"addr:city": "Szeged", "addr:housenumber": "95", "addr:postcode": "6722", "addr:street": "Tisza Lajos k\u00f6r\u00fat", "alt_name": "Kabay-Med Patika", "amenity": "pharmacy", "brand": "Alma Gy\u00f3gyszert\u00e1r", "brand:wikidata": "Q105626221", "contact:email": "info@kabaysz.paticard.hu", "contact:phone": "+36 62 420 763", "contact:website": "https://www.kabaypatika.hu/;http://www.kabaysz.paticard.hu", "dispensing": "yes", "drinking_water:refill": "yes", "healthcare": "pharmacy", "name": "Kabay Patika", "opening_hours": "Mo-Fr 07:00-21:00; Sa 08:00-15:00; PH off", "operator": "Kabay-Med Bt."}}, {"type": "node", "id": 1251056295, "lat": 46.2652108, "lon": 20.1420555, "tags": {"amenity": "pharmacy", "contact:phone": "+36 62 491 785", "dispensing": "yes", "healthcare": "pharmacy", "name": "H\u00e1rs Gy\u00f3gyszert\u00e1r", "opening_hours": "Mo-Fr 07:30-12:00,13:30-18:00; Sa 09:00-12:00; PH off", "wheelchair": "yes"}}, {"type": "node", "id": 1700394717, "lat": 46.2699637, "lon": 20.1512396, "tags": {"addr:city": "Szeged", "addr:housenumber": "1", "addr:postcode": "6723", "addr:street": "\u00c1g utca", "amenity": "pharmacy", "healthcare": "pharmacy", "name": "Pelik\u00e1n Gy\u00f3gyszert\u00e1r", "opening_hours": "Mo-Fr 08:00-20:00; Sa 08:00-12:00", "operator": "VIA SIMPLEX BT.", "phone": "+36 62 559 570", "source": "http://www.pelikangyogyszertar.hu", "website": "http://www.pelikangyogyszertar.hu"}}, {"type": "node", "id": 1700394986, "lat": 46.2693585, "lon": 20.1517333, "tags": {"addr:city": "Szeged", "addr:housenumber": "71", "addr:postcode": "6723", "addr:street": "Csongr\u00e1di sug\u00e1r\u00fat", "amenity": "pharmacy", "brand": "Pingvin Patika", "brand:wikidata": "Q105626461", "healthcare": "pharmacy", "name": "Pingvin Patika", "name:en": "Penguin Pharmacy", "opening_hours": "Mo-Fr 08:00-19:00; Sa 08:00-13:00", "phone": "+36 62 555 712", "website": "https://pingvinpatika.hu/", "wheelchair": "yes"}}, {"type": "node", "id": 2295672410, "lat": 46.2742063, "lon": 20.1501872, "tags": {"addr:city": "Szeged", "addr:housenumber": "4", "addr:postcode": "6723", "addr:street": "Ortutay utca", "amenity": "pharmacy", "check_date": "2022-08-15", "dispensing": "yes", "drive_through": "no", "email": "makkoshazapatika@gmail.com", "healthcare": "pharmacy", "name": "Makkosh\u00e1zi Gy\u00f3gyszert\u00e1r", "opening_hours": "Mo-Fr 07:30-18:00; Sa 08:00-12:00; Su off", "operator": "B & N Pharma 1999 Bt.", "payment:mastercard": "yes", "payment:visa": "yes", "phone": "+36 62 490 651", "website": "https://www.makkoshazapatika.hu/kezdooldal/"}}, {"type": "node", "id": 3172360829, "lat": 46.2162935, "lon": 19.8883613}, {"type": "node", "id": 3172360835, "lat": 46.2162111, "lon": 19.8883548}, {"type": "node", "id": 3172368353, "lat": 46.2162862, "lon": 19.8885529}, {"type": "node", "id": 3172368357, "lat": 46.2162038, "lon": 19.8885463}, {"type": "node", "id": 3437116396, "lat": 46.2483093, "lon": 20.1723113, "tags": {"addr:city": "Szeged", "addr:housenumber": "25", "addr:postcode": "6726", "addr:street": "B\u00e9rkert utca", "amenity": "pharmacy", "healthcare": "pharmacy", "name": "Aranykehely gy\u00f3gyszert\u00e1r", "opening_hours": "Mo-Fr 08:00-21:00; Sa 08:00-13:00; PH off", "phone": "+36 62 439 119"}}, {"type": "node", "id": 3437116459, "lat": 46.2665198, "lon": 20.1780848, "tags": {"addr:city": "Szeged", "addr:housenumber": "59", "addr:postcode": "6727", "addr:street": "Csap utca", "amenity": "pharmacy", "drinking_water:refill": "yes", "healthcare": "pharmacy", "name": "Menta patika", "opening_hours": "Mo-Fr 08:00-18:00, Sa 08:00-12:00", "operator": "Kabay-Med Bt.", "phone": "+36 62 425 000"}}, {"type": "node", "id": 3437116639, "lat": 46.2744602, "lon": 20.0645419, "tags": {"amenity": "pharmacy", "healthcare": "pharmacy", "name": "Thurz\u00f3 gy\u00f3gyszert\u00e1r", "source": "turistautak.hu", "source:date": "2011-06-24", "url": "http://turistautak.hu/poi.php?id=111596"}}, {"type": "node", "id": 3487668307, "lat": 46.267567, "lon": 20.340917, "tags": {"amenity": "pharmacy", "source": "turistautak.hu", "source:date": "2011-06-24", "url": "http://turistautak.hu/poi.php?id=71874"}}, {"type": "node", "id": 3487683307, "lat": 46.2179639, "lon": 20.24394, "tags": {"amenity": "pharmacy", "source": "turistautak.hu", "source:date": "2012-10-15", "url": "http://turistautak.hu/poi.php?id=136025"}}, {"type": "node", "id": 3650482377, "lat": 46.2640097, "lon": 20.1629447, "tags": {"addr:city": "Szeged", "addr:housenumber": "2", "addr:postcode": "6723", "addr:street": "Debreceni utca", "amenity": "pharmacy", "healthcare": "pharmacy", "name": "Assisi Szent Ferenc Gy\u00f3gyszert\u00e1r", "opening_hours": "Mo-Fr 07:30-19:00; Sa 09:00-12:00", "operator": "Gy\u00f6ngy Patik\u00e1k", "phone": "+36 62 543 180", "source": "http://patikavilag.hu/szeged/assisi-szent-ferenc-gy%C3%B3gyszert%C3%A1r", "website": "https://gyongypatikak.hu/hu/store/search/"}}, {"type": "node", "id": 3865738765, "lat": 45.9384104, "lon": 20.1411092, "tags": {"amenity": "pharmacy", "healthcare": "pharmacy", "name": "Betty", "name:en": "Betty"}}, {"type": "node", "id": 3919422298, "lat": 46.2449761, "lon": 20.1585935, "tags": {"addr:city": "Szeged", "addr:housenumber": "1", "addr:postcode": "6726", "addr:street": "Szolg\u00e1ltat\u00f3 sor", "amenity": "pharmacy", "brand": "Pingvin Patika", "brand:wikidata": "Q105626461", "dispensing": "yes", "healthcare": "pharmacy", "name": "Pingvin Patika", "name:en": "Penguin Pharmacy", "opening_hours": "Mo-Fr 07:30-18:30; Sa 08:00-13:00", "phone": "+36 62 435 916", "website": "https://pingvinpatika.hu/", "wheelchair": "yes"}}, {"type": "node", "id": 3938667585, "lat": 46.2717031, "lon": 20.1644383}, {"type": "node", "id": 3938667586, "lat": 46.2716973, "lon": 20.1642079}, {"type": "node", "id": 3978871118, "lat": 46.245965, "lon": 20.1588785, "tags": {"addr:city": "Szeged", "addr:housenumber": "4", "addr:postcode": "6726", "addr:street": "Csan\u00e1di utca", "amenity": "pharmacy", "healthcare": "pharmacy", "name": "Csan\u00e1di Patika", "opening_hours": "Mo-Fr 07:30-20:00; Sa 08:00-12:00", "operator": "Gy\u00f6ngy Patik\u00e1k", "phone": "+36 62 444 468", "source": "http://iszeged.hu/info/csanadi-patika", "website": "https://gyongypatikak.hu/hu/store/search/", "wheelchair": "yes"}}, {"type": "node", "id": 4009924048, "lat": 46.2449592, "lon": 20.1609436, "tags": {"addr:city": "Szeged", "addr:housenumber": "34", "addr:postcode": "6726", "addr:street": "Csan\u00e1di utca", "amenity": "pharmacy", "brand": "Alma Gy\u00f3gyszert\u00e1r", "brand:website": "https://almapatika.hu", "brand:wikidata": "Q105626221", "contact:phone": "+36 62 540 432", "contact:website": "https://www.almapatika.hu/alma-gyogyszertar-szeged", "healthcare": "pharmacy", "name": "Alma Gy\u00f3gyszert\u00e1r", "opening_hours": "Mo-Fr 07:30-19:30"}}, {"type": "node", "id": 4032384980, "lat": 46.2380946, "lon": 20.1123048}, {"type": "node", "id": 4032384986, "lat": 46.2381392, "lon": 20.1124639}, {"type": "node", "id": 4032384988, "lat": 46.2381538, "lon": 20.11227}, {"type": "node", "id": 4032384992, "lat": 46.2381987, "lon": 20.112429}, {"type": "node", "id": 4301095677, "lat": 46.2714856, "lon": 20.164219}, {"type": "node", "id": 4301095678, "lat": 46.2714914, "lon": 20.1644495}, {"type": "node", "id": 4322141046, "lat": 46.2756015, "lon": 20.0625349}, {"type": "node", "id": 4322141047, "lat": 46.2755329, "lon": 20.0627016}, {"type": "node", "id": 4322141049, "lat": 46.2757245, "lon": 20.0625738}, {"type": "node", "id": 4322141050, "lat": 46.2756738, "lon": 20.0625823}, {"type": "node", "id": 4322248548, "lat": 46.2757404, "lon": 20.0628348}, {"type": "node", "id": 4322307736, "lat": 46.2758343, "lon": 20.0625434}, {"type": "node", "id": 4322307737, "lat": 46.2757558, "lon": 20.06249}, {"type": "node", "id": 4337228189, "lat": 46.2439882, "lon": 20.1438503, "tags": {"amenity": "pharmacy", "healthcare": "pharmacy", "name": "Boldogasszony Gy\u00f3gyszert\u00e1r", "opening_hours": "Mo-Fr 08:00-18:00; PH off"}}, {"type": "node", "id": 4359039650, "lat": 46.1878555, "lon": 20.1826826, "tags": {"amenity": "pharmacy", "healthcare": "pharmacy", "name": "Gy\u00f6ngy Patika", "opening_hours": "Mo-Fr 08:00-13:00,13:30-16:30; Sa 08:00-10:00"}}, {"type": "node", "id": 4382043064, "lat": 46.2747821, "lon": 20.1033675, "tags": {"amenity": "pharmacy", "healthcare": "pharmacy", "name": "Juventas Gy\u00f3gyszert\u00e1r", "operator": "Gy\u00f6ngy Patik\u00e1k", "phone": "+36 62 420 888", "website": "https://gyongypatikak.hu/hu/store/search/"}}, {"type": "node", "id": 4385661522, "lat": 46.2551093, "lon": 20.1502031, "tags": {"amenity": "pharmacy", "healthcare": "pharmacy", "name": "Sz\u00e9chenyi Gy\u00f3gyszert\u00e1r", "opening_hours": "Nov-Mar Mo-Fr 08:00-13:30, Nov-Mar Mo-Fr 14:00-17:30, Nov-Mar Sa 09:00-12:00, Apr-Oct Fr 08:00-16:00, Apr-Oct Mo-Th 08:00-18:00"}}, {"type": "node", "id": 4398513644, "lat": 46.23766, "lon": 20.1327755, "tags": {"amenity": "pharmacy", "contact:phone": "+36 62 442285", "name": "Als\u00f3v\u00e1rosi Gy\u00f3gyszert\u00e1r", "opening_hours": "Mo-Fr 08:00-18:00; Sa 08:00-12:00; PH off"}}, {"type": "node", "id": 4419294504, "lat": 46.2439157, "lon": 20.1209049, "tags": {"amenity": "pharmacy", "healthcare": "pharmacy", "name": "PatikaPlus", "opening_hours": "Mo-Sa 08:00-20:00; Su 08:00-19:00; PH off"}}, {"type": "node", "id": 4540015851, "lat": 46.0430787, "lon": 20.4778129}, {"type": "node", "id": 4540015854, "lat": 46.0431486, "lon": 20.4778644}, {"type": "node", "id": 4540015855, "lat": 46.0430685, "lon": 20.4778054}, {"type": "node", "id": 4540015856, "lat": 46.0431615, "lon": 20.4775436}, {"type": "node", "id": 4540015857, "lat": 46.0432415, "lon": 20.4776027}, {"type": "node", "id": 4553091848, "lat": 46.0431336, "lon": 20.4776221}, {"type": "node", "id": 4656764297, "lat": 46.2532446, "lon": 20.1499791, "tags": {"amenity": "pharmacy", "contact:website": "http://www.vitamed.hu/akela", "healthcare": "pharmacy", "name": "Akela \u00e1llatpatika", "opening_hours": "Mo-Fr 09:00-19:00; Sa 09:00-14:00"}}, {"type": "node", "id": 4675547746, "lat": 46.2519354, "lon": 20.1373166, "tags": {"addr:city": "Szeged", "addr:housenumber": "38", "addr:postcode": "6725", "addr:street": "K\u00e1lv\u00e1ria sug\u00e1r\u00fat", "amenity": "pharmacy", "healthcare": "pharmacy", "name": "K\u00e1lv\u00e1ria Gy\u00f3gyszert\u00e1r", "opening_hours": "Mo-Fr 07:30-18:00; Sa 08:00-12:00", "operator": "Gy\u00f6ngy Patik\u00e1k", "phone": "+36 62 552 510", "website": "https://gyongypatikak.hu/hu/store/search/"}}, {"type": "node", "id": 4675547747, "lat": 46.2570329, "lon": 20.1430056, "tags": {"addr:city": "Szeged", "addr:housenumber": "15/B", "addr:postcode": "6722", "addr:street": "M\u00e9rey utca", "amenity": "pharmacy", "healthcare": "pharmacy", "name": "Plat\u00e1n Patika", "opening_hours": "Mo-Fr 07:30-18:00; Sa 08:00-12:00", "operator": "Gy\u00f6ngy Patik\u00e1k", "phone": "+36 62 420 077", "website": "https://gyongypatikak.hu/hu/store/search/"}}, {"type": "node", "id": 4699783553, "lat": 46.2539975, "lon": 20.1259137, "tags": {"addr:city": "Szeged", "addr:housenumber": "57", "addr:postcode": "6724", "addr:street": "K\u00e1lv\u00e1ria sug\u00e1r\u00fat", "amenity": "pharmacy", "healthcare": "pharmacy", "name": "Dr. D\u00e1vid Lajos Gy\u00f3gyszert\u00e1r", "opening_hours": "Mo-Fr 07:00-15:00"}}, {"type": "node", "id": 4701861505, "lat": 46.2563027, "lon": 20.1489595, "tags": {"addr:city": "Szeged", "addr:housenumber": "2", "addr:postcode": "6721", "addr:street": "K\u00e1lvin t\u00e9r", "amenity": "pharmacy", "dispensing": "yes", "healthcare": "pharmacy", "name": "Pingvin Patika", "opening_hours": "Mo-Fr 08:00-19:00; Sa 08:00-13:00", "phone": "+36 62 543 425", "website": "https://pingvinpatika.hu/", "wheelchair": "no"}}, {"type": "node", "id": 4701867017, "lat": 46.253397, "lon": 20.1465415, "tags": {"amenity": "pharmacy", "brand": "Pingvin Patika", "brand:wikidata": "Q105626461", "healthcare": "pharmacy", "name": "Pingvin Patika", "name:en": "Penguin Pharmacy", "opening_hours": "Mo-Fr 07:30-19:00; Sa 08:00-13:00", "phone": "+36 62 550 725", "website": "https://pingvinpatika.hu/", "wheelchair": "no"}}, {"type": "node", "id": 4701958673, "lat": 46.2639344, "lon": 20.1701612, "tags": {"addr:city": "Szeged", "addr:housenumber": "17", "addr:postcode": "6723", "addr:street": "Keresztt\u00f6lt\u00e9s utca", "amenity": "pharmacy", "brand": "Pingvin Patika", "brand:wikidata": "Q105626461", "contact:phone": "+36 62 540 563", "contact:website": "https://pingvinpatika.hu/;https://pingvinpatika.hu/;https://pingvinpatika.hu/", "healthcare": "pharmacy", "name": "Pingvin Patika", "name:en": "Penguin Pharmacy", "opening_hours": "Mo-Fr 08:00-19:00; Sa 08:00-13:00", "wheelchair": "yes"}}, {"type": "node", "id": 4705575997, "lat": 46.2715235, "lon": 20.1393875, "tags": {"addr:city": "Szeged", "addr:housenumber": "4", "addr:postcode": "6724", "addr:street": "Nyitra utca", "amenity": "pharmacy", "brand": "Pingvin Patika", "brand:wikidata": "Q105626461", "contact:phone": "+36 62 489 716", "contact:website": "https://pingvinpatika.hu/", "healthcare": "pharmacy", "name": "Pingvin Patika", "name:en": "Penguin Pharmacy", "opening_hours": "Mo-Fr 07:30-19:00; Sa 08:00-13:00", "wheelchair": "no"}}, {"type": "node", "id": 4707878955, "lat": 46.2526608, "lon": 20.1288226, "tags": {"addr:city": "Szeged", "addr:housenumber": "1", "addr:postcode": "6725", "addr:street": "Korda utca", "amenity": "pharmacy", "healthcare": "pharmacy", "name": "Mamba Gy\u00f3gyszert\u00e1r", "opening_hours": "Mo-Fr 07:30-19:30; Sa 08:00-12:00; PH off", "phone": "+36 62 443 986", "wheelchair": "no"}}, {"type": "node", "id": 4746854751, "lat": 46.2425046, "lon": 20.1358318, "tags": {"addr:city": "Szeged", "addr:housenumber": "8", "addr:postcode": "6725", "addr:street": "R\u00e1k\u00f3czi utca", "amenity": "pharmacy", "brand": "Benu", "brand:wikidata": "Q62562792", "contact:email": "info@citruspatika.hu", "contact:phone": "+36 62 445 098", "contact:website": "http://citruspatika.hu", "dispensing": "yes", "drive_through": "no", "healthcare": "pharmacy", "name": "Benu", "old_name": "Citrus Patika", "opening_hours": "Mo-Fr 08:00-18:00; Sa 08:00-12:00; PH off", "operator": "Citrus Pharma Bt."}}, {"type": "node", "id": 4815563084, "lat": 46.2201783, "lon": 20.1976592, "tags": {"addr:city": "Szeged", "addr:housenumber": "6", "addr:postcode": "6771", "addr:street": "Szerb utca", "amenity": "pharmacy", "check_date": "2025-06-05", "contact:phone": "+36 62 540 634", "healthcare": "pharmacy", "name": "Elix\u00edr Gy\u00f3gyszert\u00e1r", "opening_hours": "Mo-Fr 08:00-17:00; Sa 09:00-12:00"}}, {"type": "node", "id": 4876287703, "lat": 46.2473703, "lon": 20.1385302, "tags": {"amenity": "pharmacy", "brand": "Kulcs Patik\u00e1k", "contact:phone": "+36 62 420 924", "dispensing": "yes", "healthcare": "pharmacy", "name": "Arany Oroszl\u00e1n Gy\u00f3gyszert\u00e1r", "opening_hours": "May-Sep Mo-Fr 07:30-19:00; Oct-Apr Mo-Fr 07:30-18:00; Sa 08:00-12:00; PH off", "wheelchair": "no"}}, {"type": "node", "id": 4966578386, "lat": 46.2717013, "lon": 20.1643667}, {"type": "node", "id": 4966578389, "lat": 46.2716997, "lon": 20.1643009}, {"type": "node", "id": 4994897004, "lat": 46.2670381, "lon": 20.1590552}, {"type": "node", "id": 4994897005, "lat": 46.267034, "lon": 20.1591258}, {"type": "node", "id": 4994897006, "lat": 46.2670062, "lon": 20.1591225}, {"type": "node", "id": 4994897007, "lat": 46.2669973, "lon": 20.1592773}, {"type": "node", "id": 4994897008, "lat": 46.2671507, "lon": 20.1592959}, {"type": "node", "id": 4994897009, "lat": 46.2671543, "lon": 20.1592334}, {"type": "node", "id": 4994897010, "lat": 46.2671446, "lon": 20.1592322}, {"type": "node", "id": 4994897011, "lat": 46.267154, "lon": 20.1590692}, {"type": "node", "id": 5563888497, "lat": 46.2537801, "lon": 20.1456237, "tags": {"amenity": "pharmacy", "contact:website": "http://drlenkei.hu", "dispensing": "no", "healthcare": "pharmacy", "name": "Dr. Lenkei", "opening_hours": "Mo-Fr 09:00-18:00; Sa 09:00-12:00; PH off", "shop": "nutrition_supplements", "wheelchair": "no"}}, {"type": "node", "id": 5843785774, "lat": 46.2281587, "lon": 20.4808034, "tags": {"addr:city": "Mak\u00f3", "addr:housenumber": "50", "addr:postcode": "6900", "addr:street": "V\u00e1s\u00e1rhelyi utca", "amenity": "pharmacy", "healthcare": "pharmacy", "name": "Aranykereszt Gy\u00f3gyszert\u00e1r", "opening_hours": "Mo-Fr 07:30-19:30; Sa 07:30-10:00; PH off", "phone": "+36 62 212 912"}}, {"type": "node", "id": 6148301676, "lat": 46.2579207, "lon": 20.1408121, "tags": {"amenity": "pharmacy", "brand": "Benu", "brand:wikidata": "Q62562792", "healthcare": "pharmacy", "name": "Benu", "opening_hours": "Mo-Fr 07:00-19:00; Sa 07:00-13:00; PH off", "wheelchair": "yes"}}, {"type": "node", "id": 6403497393, "lat": 46.2145863, "lon": 20.4778665, "tags": {"addr:city": "Mak\u00f3", "addr:housenumber": "25", "addr:postcode": "6900", "addr:street": "Sz\u00e9chenyi t\u00e9r", "amenity": "pharmacy", "dispensing": "yes", "name": "Korz\u00f3 Gy\u00f3gyszert\u00e1r", "opening_hours": "Mo-Fr 08:00-17:00", "phone": "+36 62 510 390", "url": "http://www.medigen.hu/patikakereso/1435_korzo-gyogyszertar", "website": "http://korzo-mako.gyongypatikak.hu/"}}, {"type": "node", "id": 6904043006, "lat": 46.271668, "lon": 20.1642094, "tags": {"entrance": "yes"}}, {"type": "node", "id": 6929516340, "lat": 46.2381731, "lon": 20.1123382}, {"type": "node", "id": 7052980125, "lat": 46.2577761, "lon": 20.1995147, "tags": {"amenity": "pharmacy", "brand": "Benu", "brand:wikidata": "Q62562792", "healthcare": "pharmacy", "name": "Benu", "opening_hours": "Mo-Fr 08:00-18:00; Sa 08:00-12:00"}}, {"type": "node", "id": 7205531529, "lat": 46.041179, "lon": 20.477003, "tags": {"amenity": "pharmacy"}}, {"type": "node", "id": 7398924389, "lat": 46.248938, "lon": 20.1375832, "tags": {"amenity": "pharmacy", "brand": "Royal Canin", "contact:facebook": "https://facebook.com/hodallatpatika", "name": "H\u00f3d \u00c1llatpatika", "opening_hours": "Mo-Fr 08:00-17:00; Sa 08:00-12:00; PH off", "wheelchair": "limited"}}, {"type": "node", "id": 8538794734, "lat": 46.2641566, "lon": 20.1613672, "tags": {"amenity": "pharmacy", "healthcare": "pharmacy"}}, {"type": "node", "id": 9006999244, "lat": 46.268641, "lon": 20.1675095, "tags": {"addr:city": "Szeged", "addr:housenumber": "7", "addr:postcode": "6723", "addr:street": "Budapesti k\u00f6r\u00fat", "amenity": "pharmacy", "check_date": "2022-07-02", "drive_through": "no", "email": "info@prevenciopatika.hu", "healthcare": "pharmacy", "name": "Prevenci\u00f3 patika", "payment:cash": "yes", "payment:credit_cards": "yes", "payment:debit_cards": "yes", "payment:mastercard": "yes", "payment:visa": "yes", "phone": "+36 62 444 770", "source": "https://prevenciopatika.hu/;https://ogyei.gov.hu/gyogyszertarkereso&action=show&item=480", "website": "https://prevenciopatika.hu/"}}, {"type": "node", "id": 9549479538, "lat": 46.2771382, "lon": 20.1680157, "tags": {"amenity": "pharmacy", "brand": "Benu", "brand:wikidata": "Q62562792", "dispensing": "yes", "healthcare": "pharmacy", "name": "Benu"}}, {"type": "node", "id": 9554353671, "lat": 45.928755, "lon": 20.0862337, "tags": {"amenity": "pharmacy", "healthcare": "pharmacy", "name": "Senta", "name:sr": "\u0421\u0435\u043d\u0442\u0430", "name:sr-Latn": "Senta", "wheelchair": "yes"}}, {"type": "node", "id": 10054100508, "lat": 46.1875668, "lon": 20.4258553}, {"type": "node", "id": 10054100509, "lat": 46.1874624, "lon": 20.4257727}, {"type": "node", "id": 10054100510, "lat": 46.1874247, "lon": 20.4258722}, {"type": "node", "id": 10054100511, "lat": 46.1875291, "lon": 20.4259548}, {"type": "node", "id": 10159250719, "lat": 46.2476348, "lon": 20.1454424, "tags": {"amenity": "pharmacy", "contact:phone": "+36 62 341 990", "dispensing": "yes", "healthcare": "pharmacy", "name": "R\u00e9gi\u00f3 Patika", "opening_hours": "Mo-Fr 09:00-19:00; PH off", "operator": "Szegedi Tudom\u00e1nyegyetem", "wheelchair": "yes"}}, {"type": "node", "id": 10175968100, "lat": 46.13038, "lon": 20.296509, "tags": {"amenity": "pharmacy", "name": "farmacie"}}, {"type": "node", "id": 10178166102, "lat": 46.002324, "lon": 20.3968638, "tags": {"amenity": "pharmacy", "healthcare": "pharmacy"}}, {"type": "node", "id": 10199991455, "lat": 46.2445273, "lon": 20.147454, "tags": {"amenity": "pharmacy", "contact:phone": "+36 62 341950", "healthcare": "pharmacy", "indoor": "yes", "name": "Centr\u00e1l Patika", "opening_hours": "Mo-Fr 08:00-18:00; PH off", "operator": "Szegedi Tudom\u00e1nyegyetem"}}, {"type": "node", "id": 10220392515, "lat": 46.2691426, "lon": 20.1392041, "tags": {"amenity": "pharmacy", "healthcare": "pharmacy"}}, {"type": "node", "id": 10914402208, "lat": 46.2106458, "lon": 20.475722, "tags": {"amenity": "pharmacy", "healthcare": "pharmacy"}}, {"type": "node", "id": 11061270575, "lat": 45.9337973, "lon": 20.4136174, "tags": {"addr:city": "Mokrin", "addr:housenumber": "77", "addr:street": "\u0421\u0432\u0435\u0442\u043e\u0433 \u0421\u0430\u0432\u0435", "amenity": "pharmacy", "dispensing": "yes", "healthcare": "pharmacy", "name": "Stesa Lek 5"}}, {"type": "node", "id": 11135872805, "lat": 46.2458134, "lon": 20.0043243, "tags": {"amenity": "pharmacy"}}, {"type": "node", "id": 11862955474, "lat": 46.1740858, "lon": 20.163412, "tags": {"amenity": "pharmacy", "check_date": "2025-08-27", "name": "Sziget Gy\u00f3gyszert\u00e1r", "opening_hours": "Mo-Tu,Th-Fr 08:00-14:00; We 12:00-17:00", "source": "local knowledge;orvosi k\u00f6zlem\u00e9ny"}}, {"type": "node", "id": 12535728687, "lat": 46.2571506, "lon": 20.1313546, "tags": {"amenity": "pharmacy"}}, {"type": "node", "id": 12625347227, "lat": 46.2477844, "lon": 20.1504335, "tags": {"amenity": "pharmacy", "check_date": "2025-02-28", "email": "koranyi.patika@med.u-szeged.hu", "healthcare": "pharmacy", "name": "Kor\u00e1nyi Gy\u00f3gyszert\u00e1r", "opening_hours": "Mo-Fr 08:00-16:00; Sa-Su off", "phone": "+36 62 545 440"}}, {"type": "node", "id": 12789112860, "lat": 46.1893771, "lon": 20.0388216, "tags": {"amenity": "pharmacy", "brand": "Kulcs Patik\u00e1k", "dispensing": "yes", "healthcare": "pharmacy", "name": "Simplex Gy\u00f3gyszert\u00e1r", "opening_hours": "Mo-Fr 07:30-16:30"}}, {"type": "node", "id": 12886755430, "lat": 46.2669999, "lon": 20.1592327, "tags": {"entrance": "yes"}}, {"type": "way", "id": 311558501, "nodes": [3172368353, 3172360829, 3172360835, 3172368357, 3172368353], "tags": {"addr:city": "M\u00f3rahalom", "addr:housenumber": "14", "addr:postcode": "6782", "addr:street": "Szegedi \u00fat", "amenity": "pharmacy", "building": "yes", "healthcare": "pharmacy", "name": "Kulcs patika"}}, {"type": "way", "id": 400707722, "nodes": [4032384992, 4032384986, 4032384980, 4032384988, 6929516340, 4032384992], "tags": {"addr:city": "Szeged", "addr:housenumber": "29", "addr:postcode": "6729", "addr:street": "Szabadkai \u00fat", "amenity": "pharmacy", "building": "yes", "name": "Szent L\u00e1szl\u00f3 Gy\u00f3gyszert\u00e1r", "operator": "Gy\u00f6ngy Patik\u00e1k", "phone": "+36 62 421 044", "source": "Bing", "website": "https://gyongypatikak.hu/hu/store/search/"}}, {"type": "way", "id": 430842065, "nodes": [3938667586, 6904043006, 4301095677, 4301095678, 3938667585, 4966578386, 4966578389, 3938667586], "tags": {"addr:city": "Szeged", "addr:housenumber": "23", "addr:postcode": "6723", "addr:street": "Budapesti k\u00f6r\u00fat", "amenity": "pharmacy", "building": "yes", "description": "\u00c1rnika Gy\u00f3gyszert\u00e1r 1995. dec. 21-t\u0151l m\u0171k\u00f6dik mag\u00e1ngy\u00f3gyszert\u00e1rk\u00e9nt, addig a Csongr\u00e1d megyei Gy\u00f3gyszert\u00e1ri K\u00f6zpont tulajdona volt, az \u00fczemeltette.", "healthcare": "pharmacy", "name": "\u00c1rnika Gy\u00f3gyszert\u00e1r", "opening_hours": "Mo-Fr 07:30-18:30; Sa 08:00-12:00", "operator": "\u00c1rnika Pharma '95 Bt.", "website": "http://arnika-szeged.gyongypatikak.hu/"}}, {"type": "way", "id": 433530804, "nodes": [4322141046, 4322141047, 4322248548, 4322307736, 4322307737, 4322141049, 4322141050, 4322141046], "tags": {"addr:city": "Szeged", "addr:housenumber": "10", "addr:postcode": "6791", "addr:street": "Negyvennyolcas utca", "amenity": "pharmacy", "building": "yes", "healthcare": "pharmacy", "opening_hours": "Mo-Fr 07:00-19:00; week 02-25/2 Sa 08:00-12:00", "phone": "+36 62 461 229", "source": "http://www.webbeteg.hu/keresok/patika/2405/"}}, {"type": "way", "id": 457945131, "nodes": [4540015857, 4540015854, 4540015851, 4540015855, 4553091848, 4540015856, 4540015857], "tags": {"addr:housenumber": "249", "amenity": "pharmacy", "building": "house", "name": "Farmaciile Help Net"}}, {"type": "way", "id": 510491991, "nodes": [4994897011, 4994897010, 4994897009, 4994897008, 4994897007, 12886755430, 4994897006, 4994897005, 4994897004, 4994897011], "tags": {"addr:city": "Szeged", "addr:housenumber": "23-25", "addr:postcode": "6723", "addr:street": "Retek utca", "amenity": "pharmacy", "atm": "yes", "building": "commercial", "building:levels": "2", "dispensing": "yes", "drive_through": "no", "healthcare": "pharmacy", "name": "Seg\u00edt\u0151 M\u00e1ria Gy\u00f3gyszet\u00e1r", "old_name": "Takar\u00e9kbank", "opening_hours": "Mo-Fr 08:00-18:00", "operator": "BENU Gy\u00f3gyszert\u00e1r", "operator:addr": "1056 Budapest, V\u00e1ci utca 38.", "website": "https://benu.hu/segito-maria-gyogyszertar-szeged"}}, {"type": "way", "id": 1098030408, "nodes": [10054100508, 10054100509, 10054100510, 10054100511, 10054100508], "tags": {"amenity": "pharmacy", "building": "yes", "dispensing": "yes", "healthcare": "pharmacy"}}]}