{"version": 0.6, "generator": "Overpass API 0.7.62.8 e802775f", "osm3s": {"timestamp_osm_base": "2025-10-06T08:46:29Z", "copyright": "The data included in this document is from www.openstreetmap.org. The data is made available under ODbL."}, "elements": [{"type": "node", "id": 513715683, "lat": 47.4396315, "lon": 24.8884305, "tags": {"amenity": "pharmacy", "name": "Farmacie", "name:hu": "Gy\u00f3gyszert\u00e1r"}}, {"type": "node", "id": 10636845330, "lat": 47.6545622, "lon": 24.6656769, "tags": {"addr:city": "Bor\u0219a", "addr:street": "Strada Floare de Col\u021b", "amenity": "pharmacy", "healthcare": "pharmacy", "name": "Farmacia Pefarm"}}, {"type": "node", "id": 10636982463, "lat": 47.6552166, "lon": 24.6656917, "tags": {"addr:city": "Bor\u0219a", "addr:street": "Strada Victoriei", "amenity": "pharmacy", "healthcare": "pharmacy", "name": "Farmacia Davilla"}}, {"type": "node", "id": 10636982464, "lat": 47.6554661, "lon": 24.6651819, "tags": {"addr:city": "Bor\u0219a", "addr:street": "Strada Victoriei", "amenity": "pharmacy", "brand": "Catena", "brand:wikidata": "Q24035728", "healthcare": "pharmacy", "name": "Catena"}}, {"type": "node", "id": 10636982472, "lat": 47.6562876, "lon": 24.6647744, "tags": {"addr:city": "Bor\u0219a", "addr:street": "Strada Victoriei", "amenity": "pharmacy", "healthcare": "pharmacy", "name": "Farmacia Mare"}}, {"type": "node", "id": 10637107649, "lat": 47.6549757, "lon": 24.6619159, "tags": {"addr:city": "Bor\u0219a", "addr:street": "Strada Decebal", "amenity": "pharmacy", "brand": "Dr. Max", "brand:wikidata": "Q56317371", "healthcare": "pharmacy", "name": "Dr. Max"}}, {"type": "node", "id": 10931096498, "lat": 47.6550012, "lon": 24.5423718, "tags": {"addr:city": "Moisei", "amenity": "pharmacy", "drive_through": "no", "healthcare": "pharmacy", "name": "Farmacia PEFARM", "name:ro": "Farmacia PEFARM"}}, {"type": "node", "id": 11901044280, "lat": 47.6550437, "lon": 24.5412586, "tags": {"addr:city": "Moisei", "amenity": "pharmacy", "healthcare": "pharmacy"}}, {"type": "node", "id": 11901044282, "lat": 47.6550236, "lon": 24.5404229, "tags": {"amenity": "pharmacy", "healthcare": "pharmacy"}}, {"type": "node", "id": 12101875570, "lat": 47.6562621, "lon": 24.6599243, "tags": {"amenity": "pharmacy", "healthcare": "pharmacy"}}]}