{"version": 0.6, "generator": "Overpass API 0.7.62.8 e802775f", "osm3s": {"timestamp_osm_base": "2025-10-06T08:46:29Z", "copyright": "The data included in this document is from www.openstreetmap.org. The data is made available under ODbL."}, "elements": [{"type": "node", "id": 2357152401, "lat": 44.0459596, "lon": 26.0631525, "tags": {"amenity": "pharmacy"}}, {"type": "node", "id": 2357152505, "lat": 44.1112551, "lon": 26.3297421, "tags": {"amenity": "pharmacy"}}, {"type": "node", "id": 2815558825, "lat": 44.2920428, "lon": 26.317406, "tags": {"amenity": "pharmacy", "dispensing": "no"}}, {"type": "node", "id": 4208738095, "lat": 44.3504603, "lon": 26.030344, "tags": {"amenity": "pharmacy", "name": "Farmacie", "opening_hours": "Mo-Fr 08:00-19:00; Sa,Su 08:00-13:00", "wheelchair": "yes"}}, {"type": "node", "id": 4400808389, "lat": 44.3672145, "lon": 26.1512021, "tags": {"addr:city": "Pope\u0219ti-Leordeni", "addr:housenumber": "99", "addr:postcode": "077160", "addr:street": "Drumul Fermei", "amenity": "pharmacy", "healthcare": "pharmacy", "name": "Farmacia Medisina", "website": "https://farmaciamedisina.business.site/"}}, {"type": "node", "id": 4887310591, "lat": 44.3381416, "lon": 26.0801122, "tags": {"addr:street": "\u0218oseaua Giurgiului", "amenity": "pharmacy", "healthcare": "pharmacy", "name": "Farmacie"}}, {"type": "node", "id": 4889267294, "lat": 44.3316361, "lon": 26.0767953, "tags": {"addr:city": "Jilava", "addr:street": "Strada Morii", "amenity": "pharmacy", "dispensing": "yes", "drive_through": "no", "healthcare": "pharmacy", "name": "Farmacia Donald", "opening_hours": "Mo-Fr 08:00-20:00; Sa 08:00-16:00"}}, {"type": "node", "id": 5174912683, "lat": 44.3612596, "lon": 26.1225718, "tags": {"addr:city": "Bucure\u0219ti", "addr:country": "RO", "addr:housenumber": "67-109", "addr:postcode": "042157", "addr:street": "Drumul Dealul Bisericii", "amenity": "pharmacy", "brand": "Dr. Max", "brand:wikidata": "Q56317371", "dispensing": "yes", "healthcare": "pharmacy", "name": "Dr. Max", "opening_hours": "Mo-Su 09:00-21:00", "operator": "Dr. Max SRL"}}, {"type": "node", "id": 6134475490, "lat": 44.1891626, "lon": 25.7839409, "tags": {"amenity": "pharmacy", "healthcare": "pharmacy", "name": "Bimat solutions"}}, {"type": "node", "id": 6136552285, "lat": 44.3238139, "lon": 25.9066065, "tags": {"amenity": "pharmacy", "name": "Belladona r 97 mihailesti"}}, {"type": "node", "id": 6225532574, "lat": 44.3721848, "lon": 26.1495176, "tags": {"addr:city": "Pope\u0219ti-Leordeni", "addr:housenumber": "29 bis", "addr:postcode": "077160", "addr:street": "Strada Amurgului", "amenity": "pharmacy", "healthcare": "pharmacy", "name": "Farmacia Medisina Plant", "phone": "+40 771 439 973", "website": "https://medisina-plant.business.site/"}}, {"type": "node", "id": 6225532608, "lat": 44.3688928, "lon": 26.1519806, "tags": {"addr:housenumber": "62", "addr:street": "Drumul Fermei", "amenity": "pharmacy", "brand": "EvoFarm", "brand:wikidata": "Q114647927", "dispensing": "yes", "healthcare": "pharmacy", "name": "EvoFarm"}}, {"type": "node", "id": 6230786425, "lat": 44.3709765, "lon": 26.1411244, "tags": {"addr:city": "Bucure\u0219ti", "addr:street": "\u0218oseaua Berceni", "amenity": "pharmacy", "healthcare": "pharmacy", "name": "Primafarm"}}, {"type": "node", "id": 6536443689, "lat": 44.0901839, "lon": 26.2320033, "tags": {"amenity": "pharmacy", "name": "Diana medfarm"}}, {"type": "node", "id": 6536535686, "lat": 44.1096867, "lon": 26.3389696, "tags": {"amenity": "pharmacy", "name": "Diana medfarm"}}, {"type": "node", "id": 6536581785, "lat": 44.1765584, "lon": 26.3679107, "tags": {"amenity": "pharmacy", "name": "Rob-alex"}}, {"type": "node", "id": 6536735486, "lat": 44.1090648, "lon": 26.3404098, "tags": {"amenity": "pharmacy", "name": "Lilifarm"}}, {"type": "node", "id": 6536735788, "lat": 44.0934167, "lon": 26.2296815, "tags": {"amenity": "pharmacy", "name": "Lilifarm Prundu"}}, {"type": "node", "id": 6536936095, "lat": 44.0433401, "lon": 26.0558889, "tags": {"amenity": "pharmacy", "healthcare": "pharmacy", "name": "Lilifarm"}}, {"type": "node", "id": 7232620585, "lat": 44.2282784, "lon": 25.9466229, "tags": {"amenity": "pharmacy", "name": "Diana medfarm singureni"}}, {"type": "node", "id": 7625360685, "lat": 44.1722449, "lon": 26.1444618, "tags": {"amenity": "pharmacy", "healthcare": "pharmacy", "name": "Mugur Alfa Farm"}}, {"type": "node", "id": 7720185573, "lat": 44.3647315, "lon": 26.1475381, "tags": {"amenity": "pharmacy", "brand": "Help Net", "brand:wikidata": "Q12729923", "dispensing": "yes", "healthcare": "pharmacy", "name": "Help Net", "wheelchair": "yes"}}, {"type": "node", "id": 7881208297, "lat": 44.3312989, "lon": 26.0781843, "tags": {"addr:city": "Jilava", "addr:street": "\u0218oseaua Giurgiului", "amenity": "pharmacy", "brand": "Catena", "brand:wikidata": "Q24035728", "healthcare": "pharmacy", "name": "Catena"}}, {"type": "node", "id": 8315040617, "lat": 44.2110396, "lon": 26.3566671, "tags": {"amenity": "pharmacy", "name": "Asy medical"}}, {"type": "node", "id": 8402363592, "lat": 44.3002436, "lon": 25.985109, "tags": {"amenity": "pharmacy", "dispensing": "yes", "healthcare": "pharmacy"}}, {"type": "node", "id": 9416227209, "lat": 44.373126, "lon": 26.1492102, "tags": {"amenity": "pharmacy", "dispensing": "yes", "healthcare": "pharmacy", "name": "Farmacia Tinos"}}, {"type": "node", "id": 9957914251, "lat": 44.3715345, "lon": 26.1536414, "tags": {"amenity": "pharmacy", "brand": "Farmacia Dona", "brand:wikidata": "Q12726919", "dispensing": "yes", "healthcare": "pharmacy", "name": "Farmacia Dona"}}, {"type": "node", "id": 10113679949, "lat": 44.3726923, "lon": 26.1507812, "tags": {"amenity": "pharmacy", "brand": "EvoFarm", "brand:wikidata": "Q114647927", "dispensing": "yes", "healthcare": "pharmacy", "name": "EvoFarm"}}, {"type": "node", "id": 10113765946, "lat": 44.3705916, "lon": 26.146071, "tags": {"amenity": "pharmacy", "dispensing": "yes", "healthcare": "pharmacy", "name": "Farmacia Ana Maria"}}, {"type": "node", "id": 10210632732, "lat": 44.3776949, "lon": 26.2035673, "tags": {"addr:city": "Leordeni", "amenity": "pharmacy", "brand": "EvoFarm", "brand:wikidata": "Q114647927", "healthcare": "pharmacy", "name": "EvoFarm"}}, {"type": "node", "id": 10212545546, "lat": 44.3791139, "lon": 26.1688803, "tags": {"addr:city": "Pope\u0219ti-Leordeni", "addr:street": "Strada \u0218colii", "amenity": "pharmacy", "brand": "Catena", "brand:wikidata": "Q24035728", "healthcare": "pharmacy", "name": "Catena"}}, {"type": "node", "id": 10294720413, "lat": 44.3934166, "lon": 26.2905299, "tags": {"addr:city": "B\u0103l\u0103ceanca", "amenity": "pharmacy", "healthcare": "pharmacy", "name": "Farmacie - Drovit plant"}}, {"type": "node", "id": 10304866036, "lat": 44.3146123, "lon": 26.1865642, "tags": {"amenity": "pharmacy", "healthcare": "pharmacy"}}, {"type": "node", "id": 10304963029, "lat": 44.3094448, "lon": 26.1889128, "tags": {"amenity": "pharmacy", "healthcare": "pharmacy"}}, {"type": "node", "id": 10305004100, "lat": 44.2649537, "lon": 26.1521297, "tags": {"amenity": "pharmacy", "healthcare": "pharmacy"}}, {"type": "node", "id": 10305043370, "lat": 44.2544545, "lon": 26.2144693, "tags": {"amenity": "pharmacy", "healthcare": "pharmacy"}}, {"type": "node", "id": 10305073818, "lat": 44.2104715, "lon": 26.3035122, "tags": {"amenity": "pharmacy", "healthcare": "pharmacy"}}, {"type": "node", "id": 10816806578, "lat": 44.203318, "lon": 25.7911282, "tags": {"addr:city": "Ghimpa\u021bi", "amenity": "pharmacy", "healthcare": "pharmacy", "name": "Farmacia Econofarm"}}, {"type": "node", "id": 10862014727, "lat": 44.3678936, "lon": 26.1549483, "tags": {"addr:city": "Pope\u0219ti-Leordeni", "addr:housenumber": "31", "addr:street": "Strada Biruin\u021bei", "amenity": "pharmacy", "brand": "EvoFarm", "brand:wikidata": "Q114647927", "check_date": "2023-12-21", "healthcare": "pharmacy", "name": "EvoFarm", "wheelchair": "yes"}}, {"type": "node", "id": 11301923069, "lat": 44.2650464, "lon": 26.1524016, "tags": {"amenity": "pharmacy", "name": "Farmacia ANA MARIA"}}, {"type": "node", "id": 11368746693, "lat": 44.3591679, "lon": 26.1333692, "tags": {"addr:city": "Bucure\u0219ti", "addr:country": "RO", "addr:housenumber": "14", "addr:postcode": "041838", "addr:street": "Strada Dumitru Brum\u0103rescu", "amenity": "pharmacy", "healthcare": "pharmacy", "name": "Ianuclui", "opening_hours": "Mo-Fr 08:00-21:00; Sa 09:00-18:00; Su 09:00-14:00", "operator": "Farmacia Iancului 57 SRL", "website": "https://www.farmianc.ro/"}}, {"type": "node", "id": 11370725888, "lat": 44.3669616, "lon": 26.145257, "tags": {"amenity": "pharmacy", "brand": "Dr. Max", "brand:wikidata": "Q56317371", "healthcare": "pharmacy", "name": "Dr. Max"}}, {"type": "node", "id": 11381020869, "lat": 44.2719991, "lon": 26.0793052, "tags": {"amenity": "pharmacy", "name": "Sura Mare"}}, {"type": "node", "id": 11381020870, "lat": 44.2719945, "lon": 26.0802371, "tags": {"amenity": "pharmacy", "name": "A&D Farm"}}, {"type": "node", "id": 12063023272, "lat": 43.9058212, "lon": 25.9741772, "tags": {"amenity": "pharmacy", "brand": "Dr. Max", "brand:wikidata": "Q56317371", "healthcare": "pharmacy", "name": "Dr. Max", "opening_hours": "Mo-Fr 09:00-21:00; Sa 09:00-21:00; Su 09:00-19:00"}}, {"type": "node", "id": 12124466154, "lat": 44.1912086, "lon": 25.7822194, "tags": {"amenity": "pharmacy", "drive_through": "no", "healthcare": "pharmacy", "name": "Farmacia Felicia", "opening_hours": "Mo-Fr 08:00-16:00"}}, {"type": "node", "id": 12150107981, "lat": 43.9030649, "lon": 25.9696565, "tags": {"amenity": "pharmacy", "brand": "Catena", "brand:wikidata": "Q24035728", "healthcare": "pharmacy", "name": "Catena", "opening_hours": "Mo-Fr 07:30-21:30; Sa 07:30-19:30; Su 07:30-15:30"}}, {"type": "node", "id": 12150167459, "lat": 43.8992295, "lon": 25.969256, "tags": {"amenity": "pharmacy", "brand": "Farmacia Dona", "brand:wikidata": "Q12726919", "healthcare": "pharmacy", "name": "Farmacia Dona"}}, {"type": "node", "id": 12150176949, "lat": 43.8992402, "lon": 25.9689859, "tags": {"amenity": "pharmacy", "name": "Farmacia Optifarm"}}, {"type": "node", "id": 12197343659, "lat": 44.2679132, "lon": 26.1514321, "tags": {"amenity": "pharmacy", "brand": "Dr. Max", "brand:wikidata": "Q56317371", "healthcare": "pharmacy", "name": "Dr. Max"}}, {"type": "node", "id": 12199365691, "lat": 44.0419786, "lon": 26.052568, "tags": {"amenity": "pharmacy", "healthcare": "pharmacy"}}, {"type": "node", "id": 12213722169, "lat": 43.9078192, "lon": 25.9716984, "tags": {"amenity": "pharmacy", "brand": "Dr. Max", "brand:wikidata": "Q56317371", "healthcare": "pharmacy", "name": "Dr. Max"}}, {"type": "node", "id": 12213722170, "lat": 43.9080349, "lon": 25.9710562, "tags": {"amenity": "pharmacy", "brand": "Catena", "brand:wikidata": "Q24035728", "healthcare": "pharmacy", "name": "Catena"}}, {"type": "node", "id": 12213722171, "lat": 43.9082072, "lon": 25.9710602, "tags": {"amenity": "pharmacy", "brand": "Farmacia Dona", "brand:wikidata": "Q12726919", "healthcare": "pharmacy", "name": "Farmacia Dona"}}, {"type": "node", "id": 12213722174, "lat": 43.9085076, "lon": 25.9710806, "tags": {"amenity": "pharmacy", "brand": "Help Net", "brand:wikidata": "Q12729923", "healthcare": "pharmacy", "name": "Help Net"}}, {"type": "node", "id": 13058207694, "lat": 44.2547338, "lon": 26.0482156}, {"type": "node", "id": 13058207700, "lat": 44.2547043, "lon": 26.048316}, {"type": "node", "id": 13058207701, "lat": 44.254752, "lon": 26.0483432}, {"type": "node", "id": 13058207702, "lat": 44.2547815, "lon": 26.0482428}, {"type": "way", "id": 1420971902, "nodes": [13058207694, 13058207700, 13058207701, 13058207702, 13058207694], "tags": {"addr:city": "Aduna\u021bii-Cop\u0103ceni", "addr:housenumber": "112", "addr:street": "\u0218oseaua Giurgiului", "amenity": "pharmacy", "building": "yes", "healthcare": "pharmacy", "name": "Farmacia Aduna\u021bii-Cop\u0103ceni"}}]}