{"version": 0.6, "generator": "Overpass API 0.7.62.8 e802775f", "osm3s": {"timestamp_osm_base": "2025-10-06T08:30:13Z", "copyright": "The data included in this document is from www.openstreetmap.org. The data is made available under ODbL."}, "elements": [{"type": "node", "id": 322795965, "lat": 50.0540968, "lon": 21.4354846, "tags": {"addr:city": "D\u0119bica", "addr:housenumber": "114", "addr:postcode": "39-200", "addr:street": "Rzeszowska", "amenity": "pharmacy", "dispensing": "yes", "name": "Dr. Max", "phone": "+48 14 676 95 80"}}, {"type": "node", "id": 566829502, "lat": 50.03818, "lon": 21.97615, "tags": {"addr:city": "Rzesz\u00f3w", "addr:housenumber": "21", "addr:postcode": "35-115", "addr:street": "Aleja Wincentego Witosa", "amenity": "pharmacy", "dispensing": "yes", "healthcare": "pharmacy", "name": "Omega", "ref:csioz": "1147026", "source": "http://ump.waw.pl/ retrieved 03:27:31 11/17/09 (UMP-Rzeszow/src/POI-Rzeszow.pnt-converted.txt)"}}, {"type": "node", "id": 570307630, "lat": 49.88032, "lon": 21.40948, "tags": {"addr:city": "Brzostek", "addr:housenumber": "18", "addr:street": "Rynek", "amenity": "pharmacy", "name": "Apteka", "phone": "+48146830567", "source": "http://ump.waw.pl/ retrieved 03:27:31 11/17/09 (UMP-Rzeszow/src/POI-Rzeszow.pnt-converted.txt)"}}, {"type": "node", "id": 570307645, "lat": 49.879238, "lon": 21.4123416, "tags": {"addr:city": "Brzostek", "addr:housenumber": "5", "addr:street": "Szkolna", "amenity": "pharmacy", "name": "Vita", "phone": "+48146830567", "source": "http://ump.waw.pl/ retrieved 03:27:31 11/17/09 (UMP-Rzeszow/src/POI-Rzeszow.pnt-converted.txt)"}}, {"type": "node", "id": 974378560, "lat": 50.0037519, "lon": 22.0290181, "tags": {"amenity": "pharmacy", "dispensing": "yes", "name": "Apteka \"Na Zalesiu\"", "ref:csioz": "1146580"}}, {"type": "node", "id": 1674047492, "lat": 50.1128276, "lon": 21.5100508, "tags": {"amenity": "pharmacy"}}, {"type": "node", "id": 1892828472, "lat": 49.9220428, "lon": 21.4578453}, {"type": "node", "id": 1892828476, "lat": 49.9220672, "lon": 21.4579786}, {"type": "node", "id": 1892828481, "lat": 49.9221176, "lon": 21.4579565}, {"type": "node", "id": 1892828483, "lat": 49.9220943, "lon": 21.4578226}, {"type": "node", "id": 1892828486, "lat": 49.9221048, "lon": 21.4578793}, {"type": "node", "id": 1892828488, "lat": 49.9221394, "lon": 21.4580753}, {"type": "node", "id": 1892828490, "lat": 49.9221757, "lon": 21.457848}, {"type": "node", "id": 1892828498, "lat": 49.9222116, "lon": 21.4580435}, {"type": "node", "id": 1899628943, "lat": 49.8696346, "lon": 21.7899834}, {"type": "node", "id": 1899628997, "lat": 49.8696287, "lon": 21.7898276}, {"type": "node", "id": 1902261112, "lat": 50.185374, "lon": 21.500016, "tags": {"addr:housenumber": "138a", "addr:place": "Tuszyma", "addr:postcode": "39-321", "amenity": "pharmacy", "name": "Punkt Apteczny Artfarm", "ref:csioz": "1186437"}}, {"type": "node", "id": 2184104365, "lat": 49.9451864, "lon": 21.8382253}, {"type": "node", "id": 2184104383, "lat": 49.945213, "lon": 21.8379935}, {"type": "node", "id": 2184104443, "lat": 49.9452875, "lon": 21.8382533}, {"type": "node", "id": 2184104451, "lat": 49.9453141, "lon": 21.8380215}, {"type": "node", "id": 2190193178, "lat": 50.0181889, "lon": 22.0035813, "tags": {"amenity": "pharmacy", "dispensing": "yes", "name": "Apteka Panacea", "ref:csioz": "1146523"}}, {"type": "node", "id": 2279232747, "lat": 49.8692052, "lon": 21.7897219, "tags": {"addr:city": "Strzy\u017c\u00f3w", "addr:housenumber": "1", "addr:postcode": "38-100", "addr:street": "Parkowa", "amenity": "pharmacy", "brand": "Dbam o Zdrowie", "brand:wikidata": "Q62563833", "healthcare": "pharmacy", "name": "Apteka \"Pod Duchem \u015awi\u0119tym\"", "opening_hours": "Mo-Fr 07:00-21:00; Sa 07:00-21:00", "phone": "+48 17 276 24 01", "phone:mobile": "+48 800 110 110", "ref:csioz": "1145800", "short_name": "DOZ", "source": "https://rejestrymedyczne.ezdrowie.gov.pl/ra/public-view/1145800", "website": "https://www.doz.pl/apteki/a174940-DOZ_Apteka_Dbam_o_Zdrowie"}}, {"type": "node", "id": 2279233243, "lat": 49.8688595, "lon": 21.7888368, "tags": {"addr:city": "Strzy\u017c\u00f3w", "addr:housenumber": "10", "addr:postcode": "38-100", "addr:street": "Juliusza S\u0142owackiego", "amenity": "pharmacy", "email": "apteka200040@wp.pl", "name": "Apteka Prywatna Im. W. Zaj\u0105czkowskiego", "opening_hours": "Mo-Sa 07:00-21:00", "phone": "+48 17 2760180", "ref:csioz": "1145837", "source": "https://rejestrymedyczne.ezdrowie.gov.pl/ra/public-view/1145837"}}, {"type": "node", "id": 2279234611, "lat": 49.8697584, "lon": 21.7845908, "tags": {"addr:city": "Strzy\u017c\u00f3w", "addr:housenumber": "4", "addr:postcode": "38-100", "addr:street": "700-lecia Strzy\u017cowa", "amenity": "pharmacy", "check_date:opening_hours": "2023-11-25", "name": "Apteka \"Panax\"", "opening_hours": "Mo-Fr 07:30-21:00; Sa 08:00-20:00", "phone": "+48 17 2765432", "ref:csioz": "1145821", "source": "https://rejestrymedyczne.ezdrowie.gov.pl/ra/public-view/1145821"}}, {"type": "node", "id": 2474459032, "lat": 50.0350622, "lon": 21.9786266, "tags": {"amenity": "pharmacy", "dispensing": "yes", "name": "Apteka Dobra", "ref:csioz": "1146905"}}, {"type": "node", "id": 2523426416, "lat": 50.0451908, "lon": 22.0011992, "tags": {"amenity": "pharmacy", "brand": "Dr. Max", "brand:wikidata": "Q56317371", "dispensing": "yes", "healthcare": "pharmacy", "name": "Dr. Max", "opening_hours": "24/7", "ref:csioz": "1147132"}}, {"type": "node", "id": 2523435381, "lat": 50.0580113, "lon": 21.9778862, "tags": {"amenity": "pharmacy", "dispensing": "yes", "name": "Pod Gwiazd\u0105", "ref:csioz": "1146630", "wheelchair": "yes"}}, {"type": "node", "id": 2586828603, "lat": 50.07028, "lon": 21.7009, "tags": {"addr:city": "S\u0119dzisz\u00f3w Ma\u0142opolski", "addr:housenumber": "26", "addr:postcode": "39-120", "addr:street": "Rynek", "amenity": "pharmacy", "dispensing": "yes", "healthcare": "pharmacy", "name": "Pod Ratuszem", "ref:csioz": "1145757", "source:addr": "sedziszowmalopolski.e-mapa.net"}}, {"type": "node", "id": 2648726881, "lat": 50.0232691, "lon": 21.9850346, "tags": {"amenity": "pharmacy", "dispensing": "yes", "name": "Dr.Max", "opening_hours": "Mo-Fr 07:30-19:30; Sa 07:30-15:30", "ref:csioz": "1147107", "website": "https://www.drmax.pl/"}}, {"type": "node", "id": 2677784730, "lat": 50.0559271, "lon": 21.426802}, {"type": "node", "id": 2677784738, "lat": 50.0559786, "lon": 21.4269043}, {"type": "node", "id": 2677784742, "lat": 50.0559342, "lon": 21.4267949}, {"type": "node", "id": 2677784749, "lat": 50.0560221, "lon": 21.4269765}, {"type": "node", "id": 2677784753, "lat": 50.0560923, "lon": 21.4267976}, {"type": "node", "id": 2677784756, "lat": 50.0560899, "lon": 21.4269072}, {"type": "node", "id": 2677784758, "lat": 50.0560985, "lon": 21.4268124}, {"type": "node", "id": 2677784761, "lat": 50.056105, "lon": 21.426916}, {"type": "node", "id": 2677784762, "lat": 50.0561082, "lon": 21.4268033}, {"type": "node", "id": 2677784765, "lat": 50.0561288, "lon": 21.426893}, {"type": "node", "id": 2677784767, "lat": 50.0561319, "lon": 21.426859}, {"type": "node", "id": 2677784769, "lat": 50.0561407, "lon": 21.4268965}, {"type": "node", "id": 2677784772, "lat": 50.0561448, "lon": 21.4268635}, {"type": "node", "id": 2721631480, "lat": 50.0691525, "lon": 21.695421, "tags": {"amenity": "pharmacy", "dispensing": "no", "name": "Apteka Prywatna Vitafarm", "ref:csioz": "1208782"}}, {"type": "node", "id": 2728527602, "lat": 50.0705582, "lon": 21.7078808, "tags": {"addr:city": "S\u0119dzisz\u00f3w Ma\u0142opolski", "addr:housenumber": "56", "addr:postcode": "39-120", "addr:street": "Jana Paw\u0142a II", "amenity": "pharmacy", "dispensing": "yes", "name": "Apteka \u015aw. Franciszka", "ref:csioz": "1145712"}}, {"type": "node", "id": 2775926626, "lat": 50.0566965, "lon": 21.6125907, "tags": {"addr:street:sym_ul": "25114", "amenity": "pharmacy", "healthcare": "pharmacy", "ref:csioz": "1145643"}}, {"type": "node", "id": 2796544535, "lat": 50.0502521, "lon": 21.4073375}, {"type": "node", "id": 2796544536, "lat": 50.050253, "lon": 21.4072229}, {"type": "node", "id": 2796544537, "lat": 50.0502633, "lon": 21.4073716}, {"type": "node", "id": 2796544538, "lat": 50.0502638, "lon": 21.407372}, {"type": "node", "id": 2796544539, "lat": 50.0502657, "lon": 21.4073846}, {"type": "node", "id": 2796544540, "lat": 50.0502733, "lon": 21.4074149}, {"type": "node", "id": 2796544541, "lat": 50.050274, "lon": 21.4072225}, {"type": "node", "id": 2796544542, "lat": 50.0502778, "lon": 21.4074078}, {"type": "node", "id": 2796544543, "lat": 50.0502841, "lon": 21.4073357}, {"type": "node", "id": 2796544544, "lat": 50.0502847, "lon": 21.4072513}, {"type": "node", "id": 2796544545, "lat": 50.0503056, "lon": 21.4073699}, {"type": "node", "id": 2796544548, "lat": 50.0503431, "lon": 21.4075229}, {"type": "node", "id": 2796544550, "lat": 50.0503513, "lon": 21.4074414}, {"type": "node", "id": 2796544551, "lat": 50.0503535, "lon": 21.4074452}, {"type": "node", "id": 2796544552, "lat": 50.0503726, "lon": 21.4074775}, {"type": "node", "id": 2865090519, "lat": 50.0290491, "lon": 21.9972996, "tags": {"amenity": "pharmacy", "dispensing": "yes", "name": "Apteka Lafarma", "opening_hours": "Mo-Fr 07:00-19:00", "ref:csioz": "1204889"}}, {"type": "node", "id": 2902293614, "lat": 50.0715389, "lon": 21.8984353, "tags": {"amenity": "pharmacy", "dispensing": "yes", "name": "Abira", "ref:csioz": "1165265"}}, {"type": "node", "id": 2957593057, "lat": 49.9244325, "lon": 21.9361755, "tags": {"addr:city": "Lubenia", "addr:housenumber": "374", "addr:place": "Lubenia", "addr:postcode": "36-042", "amenity": "pharmacy", "dispensing": "yes", "drive_through": "no", "healthcare": "pharmacy", "name": "Apteka 'U Galena'", "opening_hours": "Mo-Fr 08:30-18:00; Sa 08:30-12:00", "phone": "17870300", "ref:csioz": "1146135"}}, {"type": "node", "id": 2963126956, "lat": 49.9347161, "lon": 21.8992945, "tags": {"amenity": "pharmacy", "dispensing": "no", "name": "Punkt Apteczny", "opening_hours": "Mo-Fr 08:00-17:00; Sa 08:00-14:00"}}, {"type": "node", "id": 2975309353, "lat": 50.2590964, "lon": 21.6762207, "tags": {"amenity": "pharmacy", "check_date:opening_hours": "2024-07-18", "dispensing": "yes", "healthcare": "pharmacy", "name": "Punkt apteczny w Siedlance", "opening_hours": "Mo,We,Fr 09:00-17:00; Tu 10:00-18:00; Th 08:00-12:00,15:00-18:00; Sa-Su off; PH off"}}, {"type": "node", "id": 2983746432, "lat": 49.9639738, "lon": 22.0336648, "tags": {"addr:city": "Tyczyn", "addr:housenumber": "13", "addr:postcode": "36-020", "addr:street": "Rynek", "amenity": "pharmacy", "dispensing": "yes", "name": "Apteka W Rynku", "ref:csioz": "1146203"}}, {"type": "node", "id": 3009321550, "lat": 50.0534114, "lon": 21.6088289, "tags": {"addr:city": "Ropczyce", "addr:housenumber": "6A", "addr:postcode": "39-100", "addr:street": "Kr\u00f3la Kazimierza Wielkiego", "amenity": "pharmacy", "healthcare": "pharmacy", "name": "Pro-Me", "ref:csioz": "1145624"}}, {"type": "node", "id": 3020446485, "lat": 50.0331906, "lon": 22.0143423, "tags": {"amenity": "pharmacy", "dispensing": "yes", "name": "Pod Gwiazd\u0105", "ref:csioz": "1146952"}}, {"type": "node", "id": 3020645847, "lat": 49.9511948, "lon": 21.9410377, "tags": {"amenity": "pharmacy", "dispensing": "yes", "name": "PHARM-SIS", "opening_hours": "Mo-We 10:00-18:00, Th-Fr 09:00-17:00; Sa-Su off", "ref:csioz": "1231039"}}, {"type": "node", "id": 3027321775, "lat": 50.054477, "lon": 21.437373, "tags": {"amenity": "pharmacy"}}, {"type": "node", "id": 3027711811, "lat": 49.8686779, "lon": 21.6554525, "tags": {"addr:housenumber": "136", "addr:place": "Wi\u015bniowa", "addr:postcode": "38-124", "amenity": "pharmacy", "email": "mgr.alicja.gawel@gmail.com", "healthcare": "pharmacy", "name": "Apteka prywatna mgr farm. Gawe\u0142 Alicja", "opening_hours": "Mo-Fr 08:00-17:00", "phone": "+48 17 277 50 58", "ref:csioz": "1145942", "source": "https://rejestrymedyczne.ezdrowie.gov.pl/ra/public-view/1145942"}}, {"type": "node", "id": 3061895022, "lat": 49.985145, "lon": 21.9434282, "tags": {"addr:city": "Boguchwa\u0142a", "addr:housenumber": "2b", "addr:postcode": "36-040", "addr:street": "Przemys\u0142owa", "amenity": "pharmacy", "data_zmiany": "2012-03-23 13:48:51", "dispensing": "yes", "name": "Punkt Apteczny", "ref:csioz": "1125728"}}, {"type": "node", "id": 3080952025, "lat": 50.0281894, "lon": 21.9853888}, {"type": "node", "id": 3080952043, "lat": 50.0282299, "lon": 21.9851825}, {"type": "node", "id": 3080952054, "lat": 50.0282778, "lon": 21.9852058}, {"type": "node", "id": 3080952075, "lat": 50.0283644, "lon": 21.9854935}, {"type": "node", "id": 3080952076, "lat": 50.0283679, "lon": 21.9854756}, {"type": "node", "id": 3080952079, "lat": 50.028398, "lon": 21.9855095}, {"type": "node", "id": 3080952082, "lat": 50.0284424, "lon": 21.9852857}, {"type": "node", "id": 3150245943, "lat": 49.9816307, "lon": 22.0207279}, {"type": "node", "id": 3152665533, "lat": 50.0689422, "lon": 21.7013411, "tags": {"amenity": "pharmacy", "dispensing": "yes", "name": "Sochacka", "ref:csioz": "1145720"}}, {"type": "node", "id": 3172626640, "lat": 50.1112175, "lon": 21.3130412}, {"type": "node", "id": 3172626641, "lat": 50.1112307, "lon": 21.3127767}, {"type": "node", "id": 3172626644, "lat": 50.1113201, "lon": 21.3130536}, {"type": "node", "id": 3172626645, "lat": 50.1113241, "lon": 21.3129742}, {"type": "node", "id": 3172626646, "lat": 50.1113294, "lon": 21.3128668}, {"type": "node", "id": 3172626647, "lat": 50.1113318, "lon": 21.3129751}, {"type": "node", "id": 3172626648, "lat": 50.1113327, "lon": 21.312788}, {"type": "node", "id": 3172626649, "lat": 50.1113371, "lon": 21.3128675}, {"type": "node", "id": 3183716245, "lat": 50.0834354, "lon": 21.3914466}, {"type": "node", "id": 3183716246, "lat": 50.0834704, "lon": 21.3916301}, {"type": "node", "id": 3183716248, "lat": 50.0835413, "lon": 21.3913976}, {"type": "node", "id": 3183716250, "lat": 50.0835727, "lon": 21.3915624}, {"type": "node", "id": 3183716251, "lat": 50.0835763, "lon": 21.3915811}, {"type": "node", "id": 3239159030, "lat": 50.1516609, "lon": 21.96131, "tags": {"amenity": "pharmacy", "dispensing": "yes", "healthcare": "pharmacy", "name": "Aqua", "ref:csioz": "1146078"}}, {"type": "node", "id": 3239159031, "lat": 50.1515843, "lon": 21.9637357, "tags": {"amenity": "pharmacy", "dispensing": "yes", "healthcare": "pharmacy", "name": "Apteka \"Nova\"", "opening_hours": "Mo-Fr 07:30-19:00; Sa 08:00-14:00", "ref:csioz": "1146086"}}, {"type": "node", "id": 3239650051, "lat": 50.0282342, "lon": 21.9966051, "tags": {"amenity": "pharmacy", "dispensing": "yes", "name": "Apteka S\u0142oneczna", "opening_hours": "Mo-Fr 07:00-20:00; Sa 08:00-16:00", "ref:csioz": "1146384", "wheelchair": "yes"}}, {"type": "node", "id": 3239650052, "lat": 50.0286509, "lon": 21.9969182, "tags": {"amenity": "pharmacy", "dispensing": "yes", "name": "Doz Apteka. Dbam O Zdrowie. S\u0142oneczna", "opening_hours": "Mo-Fr 07:00-21:00", "ref:csioz": "1146376"}}, {"type": "node", "id": 3265414330, "lat": 50.0361918, "lon": 21.9801903, "tags": {"amenity": "pharmacy", "brand": "Dr. Max", "brand:wikidata": "Q56317371", "brand:wikipedia": "fr:Dr.Max", "dispensing": "yes", "name": "Dr. Max", "opening_hours": "Mo-Fr 08:00-18:00", "ref:csioz": "1147204", "website": "https://www.drmax.pl/"}}, {"type": "node", "id": 3272586812, "lat": 50.0984077, "lon": 21.5928203, "tags": {"addr:housenumber": "226", "addr:place": "Ostr\u00f3w", "addr:postcode": "39-103", "amenity": "pharmacy", "healthcare": "pharmacy", "name": "Remedium", "opening_hours": "Mo-Fr 8:00-16:00, Sa 8:00-12:00", "operator": "Lidia Ka\u017amierczak", "ref:csioz": "1145681"}}, {"type": "node", "id": 3277567293, "lat": 50.0290029, "lon": 21.9933747, "tags": {"amenity": "pharmacy", "check_date": "2023-09-29", "dispensing": "yes", "name": "Rodzinna", "ref:csioz": "1185703"}}, {"type": "node", "id": 3362477673, "lat": 49.9446288, "lon": 21.6112212, "tags": {"addr:housenumber": "260", "addr:place": "Wielopole Skrzy\u0144skie", "addr:postcode": "39-110", "amenity": "pharmacy", "dispensing": "yes", "entrance": "main", "name": "Apteka Prywatna Urszula Siuta Ma\u0142gorzata Rzegocka", "phone": "+48 172218183", "ref:csioz": "1145761"}}, {"type": "node", "id": 3362477674, "lat": 49.945877, "lon": 21.6149663, "tags": {"addr:housenumber": "206", "addr:place": "Wielopole Skrzy\u0144skie", "addr:postcode": "39-110", "amenity": "pharmacy", "dispensing": "yes", "name": "Punkt Apteczny", "phone": "+48 698292950", "ref:csioz": "1125675"}}, {"type": "node", "id": 3476125913, "lat": 49.9815523, "lon": 21.9385186}, {"type": "node", "id": 3476125922, "lat": 49.981602, "lon": 21.9383888}, {"type": "node", "id": 3476125928, "lat": 49.9816447, "lon": 21.9386042}, {"type": "node", "id": 3476125933, "lat": 49.9816944, "lon": 21.9384744}, {"type": "node", "id": 3707691542, "lat": 50.0250021, "lon": 21.9387948, "tags": {"amenity": "pharmacy", "dispensing": "yes", "name": "Melisa", "ref:csioz": "1125789"}}, {"type": "node", "id": 3719642658, "lat": 50.0121723, "lon": 21.8598934, "tags": {"amenity": "pharmacy", "dispensing": "yes", "name": "Apteka Difarm", "ref:csioz": "1195940"}}, {"type": "node", "id": 3836679060, "lat": 50.0598241, "lon": 21.9858691, "tags": {"addr:city": "Rzesz\u00f3w", "addr:housenumber": "8b", "addr:postcode": "35-506", "addr:street": "Pu\u0142kownika Kazimierza Iranka-Osmeckiego", "amenity": "pharmacy", "dispensing": "yes", "name": "Abira", "opening_hours": "Mo-Fr 08:00-19:00; Sa 09:00-13:00", "phone": "178563775", "ref:csioz": "1146658"}}, {"type": "node", "id": 4014443576, "lat": 50.0266192, "lon": 22.015488, "tags": {"addr:city": "Rzesz\u00f3w", "addr:housenumber": "1", "addr:postcode": "35-315", "addr:street": "Aleja majora Wac\u0142awa Kopisto", "amenity": "pharmacy", "brand": "Super-Pharm", "brand:wikidata": "Q13220217", "brand:wikipedia": "en:Super-Pharm", "dispensing": "yes", "healthcare": "pharmacy", "name": "Super-Pharm", "phone": "+48 17 784 24 14", "ref:csioz": "1146453", "website": "https://www.superpharm.pl/"}}, {"type": "node", "id": 4037266630, "lat": 50.070837, "lon": 21.7030726, "tags": {"amenity": "pharmacy", "name": "Apteka"}}, {"type": "node", "id": 4149746192, "lat": 50.0360243, "lon": 22.0008652, "tags": {"amenity": "pharmacy", "dispensing": "yes", "name": "Dr.Max", "opening_hours": "24/7", "ref:csioz": "1147110"}}, {"type": "node", "id": 4389405044, "lat": 50.002258, "lon": 22.0146943, "tags": {"amenity": "pharmacy", "check_date:opening_hours": "2024-07-08", "dispensing": "yes", "healthcare": "pharmacy", "level": "0", "name": "Apteka Pastylka", "opening_hours": "Mo-Fr 08:00-20:00; Sa 09:00-18:00", "ref:csioz": "1182378", "wheelchair": "yes"}}, {"type": "node", "id": 4450648612, "lat": 49.8697695, "lon": 21.789807}, {"type": "node", "id": 4450648613, "lat": 49.8697789, "lon": 21.7899626}, {"type": "node", "id": 4450648614, "lat": 49.8707153, "lon": 21.7897426, "tags": {"addr:city": "Strzy\u017c\u00f3w", "addr:housenumber": "12", "addr:postcode": "38-100", "addr:street": "Parkowa", "amenity": "pharmacy", "name": "R\u00f3\u017cana", "opening_hours": "Mo-Fr 08:00-18:00", "ref:csioz": "1187044", "source": "https://rejestrymedyczne.ezdrowie.gov.pl/ra/public-view/1187044"}}, {"type": "node", "id": 4624665293, "lat": 50.0400167, "lon": 22.0092765, "tags": {"amenity": "pharmacy", "dispensing": "yes", "email": "rzeszow-wolnosci@apteka-sloneczna.pl", "name": "Apteka S\u0142oneczna", "opening_hours": "Mo-Fr 07:00-21:00; Sa-Su 08:00-21:00", "phone": "+48 17 8522124", "ref:csioz": "1165287", "website": "http://www.apteka-sloneczna.pl/rzeszow/"}}, {"type": "node", "id": 4825146528, "lat": 50.1416548, "lon": 21.9684986, "tags": {"addr:city": "G\u0142og\u00f3w Ma\u0142opolski", "addr:housenumber": "8", "addr:postcode": "36-060", "addr:street": "Ignacego Krasickiego", "amenity": "pharmacy", "dispensing": "yes", "name": "Apteka Niva", "ref:csioz": "1146064", "wheelchair": "yes"}}, {"type": "node", "id": 4863518095, "lat": 49.9338465, "lon": 21.7638875, "tags": {"amenity": "pharmacy", "name": "Punkt Apteczny"}}, {"type": "node", "id": 4915703837, "lat": 50.0505593, "lon": 21.4087808, "tags": {"addr:city": "D\u0119bica", "addr:housenumber": "29", "addr:postcode": "39-200", "addr:street": "Rynek", "amenity": "pharmacy", "dispensing": "yes", "healthcare": "pharmacy", "name": "Apteka w Rynku", "opening_hours": "Mo-Fr 07:00-20:00; Sa 08:00-14:00"}}, {"type": "node", "id": 4959892741, "lat": 50.0186256, "lon": 21.9722036, "tags": {"amenity": "pharmacy", "dispensing": "yes", "drive_through": "no", "name": "APTEKA NA ARCHITEKT\u00d3W", "operator": "Monika Musik", "ref:csioz": "1171453"}}, {"type": "node", "id": 4986989305, "lat": 50.0560118, "lon": 21.4269952}, {"type": "node", "id": 4995388021, "lat": 50.0259078, "lon": 21.9906506, "tags": {"amenity": "pharmacy", "dispensing": "yes", "name": "Apteka", "ref:csioz": "1146313"}}, {"type": "node", "id": 5039042421, "lat": 50.0928764, "lon": 21.9958543, "tags": {"amenity": "pharmacy", "dispensing": "yes", "ref:csioz": "1146227"}}, {"type": "node", "id": 5140786127, "lat": 50.0271334, "lon": 21.9917462, "tags": {"amenity": "pharmacy", "dispensing": "yes", "name": "Apteka S\u0142oneczna", "name:pl": "Apteka GEMINI", "ref:csioz": "1208221"}}, {"type": "node", "id": 5177701512, "lat": 50.044374, "lon": 21.9668177, "tags": {"amenity": "pharmacy", "check_date": "2024-07-15", "dispensing": "yes", "healthcare": "pharmacy", "name": "Apteka S\u0142oneczna", "opening_hours": "Mo-Fr 07:00-21:00; Sa 08:00-15:00; PH off", "operator": "Mediki Pharma", "payment:cash": "yes", "payment:credit_cards": "yes", "payment:debit_cards": "yes", "phone": "17 863 42 86", "ref:csioz": "1205201", "wheelchair": "yes"}}, {"type": "node", "id": 5188821532, "lat": 50.0609799, "lon": 21.6011333, "tags": {"addr:city": "Ropczyce", "addr:housenumber": "26", "addr:postcode": "39-100", "addr:street": "J\u00f3zefa Pi\u0142sudskiego", "amenity": "pharmacy", "healthcare": "pharmacy", "name": "Apteka Przyjazna", "ref:csioz": "1209390"}}, {"type": "node", "id": 5284607014, "lat": 50.0368781, "lon": 21.996607, "tags": {"amenity": "pharmacy", "dispensing": "yes", "name": "Apteka Twoje Leki", "opening_hours": "Mo-Fr 08:00-20:00; Sa 08:00-17:00", "operator": "Twoje Leki", "ref:csioz": "1146765", "wheelchair": "yes"}}, {"type": "node", "id": 5306985191, "lat": 50.037461, "lon": 22.0022471, "tags": {"amenity": "pharmacy", "dispensing": "yes", "name": "R\u00f3\u017cana", "ref:csioz": "1216210"}}, {"type": "node", "id": 7237283204, "lat": 50.0458214, "lon": 21.4124704, "tags": {"amenity": "pharmacy", "level": "0"}}, {"type": "node", "id": 7237586298, "lat": 50.035615, "lon": 21.384978, "tags": {"addr:city": "D\u0119bica", "addr:housenumber": "94e", "addr:postcode": "39-200", "addr:street": "Krakowska", "amenity": "pharmacy", "name": "Millennium", "opening_hours": "Mo 08:00-20:00; Tu-Fr 08:00-19:00; Sa 08:00-17:00"}}, {"type": "node", "id": 7248474185, "lat": 50.049513, "lon": 21.4075653, "tags": {"amenity": "pharmacy", "healthcare": "pharmacy", "name": "Centrum", "opening_hours": "Mo-Su 06:00-24:00", "website": "https://centrum-apteka.pl/"}}, {"type": "node", "id": 7248474188, "lat": 50.049956, "lon": 21.4084596, "tags": {"addr:city": "D\u0119bica", "addr:housenumber": "4", "addr:street": "Krakowska", "amenity": "pharmacy", "brand": "Dbam o Zdrowie", "brand:wikidata": "Q62563833", "healthcare": "pharmacy", "name": "Dbam o Zdrowie", "opening_hours": "Mo-Fr 08:00-18:00; Sa 08:00-13:00", "short_name": "DOZ"}}, {"type": "node", "id": 7248756241, "lat": 50.0514414, "lon": 21.4101732, "tags": {"addr:city": "D\u0119bica", "addr:housenumber": "5", "addr:postcode": "39-200", "addr:street": "Rynek", "amenity": "pharmacy", "healthcare": "pharmacy", "name": "S\u0142oneczna", "opening_hours": "Mo-Fr 07:00-21:00; Sa 08:00-15:00"}}, {"type": "node", "id": 7256761429, "lat": 50.0709773, "lon": 21.7036436, "tags": {"addr:city": "S\u0119dzisz\u00f3w Ma\u0142opolski", "addr:housenumber": "25b", "addr:postcode": "39-120", "addr:street": "Jana Paw\u0142a II", "amenity": "pharmacy", "healthcare": "pharmacy", "name": "Apteka Lafarma", "ref:csioz": "1212481"}}, {"type": "node", "id": 7607015181, "lat": 50.0561529, "lon": 21.4527073, "tags": {"amenity": "pharmacy", "healthcare": "pharmacy", "name": "Galen", "opening_hours": "Mo-Fr 08:00-17:00; Sa 08:00-14:00", "website": "https://www.aptekagalen.pl/apteka-debica"}}, {"type": "node", "id": 7614226123, "lat": 50.2893888, "lon": 21.8870515, "tags": {"amenity": "pharmacy", "name": "Punkt apteczny"}}, {"type": "node", "id": 7824040350, "lat": 50.0247153, "lon": 22.0173822, "tags": {"amenity": "pharmacy", "dispensing": "yes", "healthcare": "pharmacy", "name": "Pod Eskulapem", "ref:csioz": "1146779"}}, {"type": "node", "id": 8151965717, "lat": 50.0407224, "lon": 22.0112652, "tags": {"amenity": "pharmacy", "dispensing": "yes", "name": "R\u00f3\u017cana", "ref:csioz": "1212793"}}, {"type": "node", "id": 8151965817, "lat": 50.0412203, "lon": 22.0111014, "tags": {"addr:city": "Rzesz\u00f3w", "addr:housenumber": "7", "addr:postcode": "35-005", "addr:street": "Aleksandra Fredry", "amenity": "pharmacy", "dispensing": "yes", "name": "Medican", "ref:csioz": "1146321"}}, {"type": "node", "id": 8355742300, "lat": 50.1936589, "lon": 21.4811713, "tags": {"addr:city": "Przec\u0142aw", "addr:housenumber": "6", "addr:postcode": "39-320", "addr:street": "Rynek", "amenity": "pharmacy", "dispensing": "yes", "healthcare": "pharmacy", "name": "Witaminka", "ref:csioz": "1144596"}}, {"type": "node", "id": 8710785477, "lat": 50.0444659, "lon": 21.9553518, "tags": {"amenity": "pharmacy", "dispensing": "yes", "level": "0", "name": "R\u00f3\u017cana", "opening_hours": "Mo-Fr 08:00-20:00; Sa 09:00-20:00", "ref:csioz": "1146546", "wheelchair": "yes"}}, {"type": "node", "id": 8731559634, "lat": 50.0520535, "lon": 21.4071439, "tags": {"amenity": "pharmacy", "dispensing": "yes", "healthcare": "pharmacy"}}, {"type": "node", "id": 8828045895, "lat": 50.0560053, "lon": 21.4269936}, {"type": "node", "id": 8828045897, "lat": 50.0560241, "lon": 21.4269839}, {"type": "node", "id": 9206351716, "lat": 50.2481801, "lon": 21.7792908, "tags": {"amenity": "pharmacy", "healthcare": "pharmacy", "name": "Zdrowie", "opening_hours": "Mo-Fr 08:00-19:00; Sa 08:00-13:00"}}, {"type": "node", "id": 9301356425, "lat": 50.0475354, "lon": 21.9819695, "tags": {"addr:city": "Rzesz\u00f3w", "addr:housenumber": "16", "addr:postcode": "35-111", "addr:street": "Krakowska", "amenity": "pharmacy", "dispensing": "yes", "entrance": "yes", "name": "DOZ Apteka", "ref:csioz": "1146489"}}, {"type": "node", "id": 9536587139, "lat": 49.8629052, "lon": 21.7092049, "tags": {"addr:flats": "1", "addr:housenumber": "22", "addr:place": "Markuszowa", "addr:postcode": "38-126", "amenity": "pharmacy", "healthcare": "pharmacy", "opening_hours": "Mo 12:00-19:00; Tu 08:00-15:00; We 11:30-19:00; Th 08:00-15:00; Fr 11:30-19:00; Sa 08:00-10:00", "phone": "+48 17 2776261", "ref:csioz": "1145927", "source": "https://rejestrymedyczne.ezdrowie.gov.pl/ra/public-view/1145927"}}, {"type": "node", "id": 9536728203, "lat": 49.9455508, "lon": 21.8373491, "tags": {"amenity": "pharmacy", "mobile": "730743760", "name": "Apteka R\u00f3\u017cana", "opening_hours": "Mo-Fr 07:30-21:00; Sa 07:00-17:00"}}, {"type": "node", "id": 9536765827, "lat": 49.8756864, "lon": 21.7539955, "tags": {"addr:housenumber": "466A", "addr:place": "Dobrzech\u00f3w", "addr:postcode": "38-122", "amenity": "pharmacy", "name": "Ania", "opening_hours": "Mo-Fr 07:30-19:00", "phone": "172765157", "ref:csioz": "1145845", "source": "https://rejestrymedyczne.ezdrowie.gov.pl/ra/public-view/1145845"}}, {"type": "node", "id": 9536772637, "lat": 49.9447578, "lon": 21.8356096, "tags": {"amenity": "pharmacy", "email": "apteka-hnatow2@o2.pl", "opening_hours": "Mo-Fr 07:30-18:00", "phone": "+48 17 7790925", "ref:csioz": "1145859", "source": "https://rejestrymedyczne.ezdrowie.gov.pl/ra/public-view/1145859"}}, {"type": "node", "id": 9537874165, "lat": 49.8343374, "lon": 21.6106385, "tags": {"amenity": "pharmacy", "name": "R\u00f3\u017cana", "opening_hours": "Mo-Fr 07:00-21:00; Sa 07:00-15:00", "phone": "177110456"}}, {"type": "node", "id": 9537939901, "lat": 49.8362992, "lon": 21.6127413, "tags": {"addr:city": "Frysztak", "addr:housenumber": "11", "addr:postcode": "38-130", "addr:street": "Rzeszowska", "amenity": "pharmacy", "name": "Medicus", "opening_hours": "Mo-Fr 09:00-17:00", "phone": "+48 17 2777680", "ref:csioz": "1145903", "source": "https://rejestrymedyczne.ezdrowie.gov.pl/ra/public-view/1145903"}}, {"type": "node", "id": 9543325999, "lat": 50.0150033, "lon": 21.6752343, "tags": {"addr:housenumber": "367", "addr:place": "Zagorzyce", "addr:postcode": "39-126", "amenity": "pharmacy", "name": "Punkt apteczny", "opening_hours": "Mo 08:00-17:00; Tu-Fr 08:00-15:30", "phone": "17 745 28 00", "ref:csioz": "1145785"}}, {"type": "node", "id": 9543372970, "lat": 50.0279984, "lon": 21.757291, "tags": {"addr:housenumber": "81", "addr:place": "Iwierzyce", "addr:postcode": "39-124", "amenity": "pharmacy", "opening_hours": "Mo-Fr 08:00-17:00; Sa 09:00-11:00", "phone": "17 222 10 88", "ref:csioz": "1145662"}}, {"type": "node", "id": 9543374655, "lat": 49.9981221, "lon": 21.5617253, "tags": {"addr:housenumber": "248", "addr:place": "\u0141\u0105czki Kucharskie", "addr:postcode": "39-106", "amenity": "pharmacy", "name": "Familijna", "opening_hours": "Mo-Fr 08:00-16:00", "phone": "17 722 22 12", "ref:csioz": "1227898"}}, {"type": "node", "id": 9543686356, "lat": 49.8698556, "lon": 21.7840715, "tags": {"addr:city": "Strzy\u017c\u00f3w", "addr:housenumber": "1", "addr:postcode": "38-100", "addr:street": "700-lecia Strzy\u017cowa", "amenity": "pharmacy", "email": "marzena.jacek@O2.pl ; apteka@zozstrzyzow.pl", "name": "Dzia\u0142 Farmacji Szpitalnej ZOZ w Strzy\u017cowie", "opening_hours": "Mo-Fr 07:30-15:00", "phone": "+48 17 2760180", "ref:csioz": "1125236", "source": "https://rejestrymedyczne.ezdrowie.gov.pl/ra/public-view/1125236"}}, {"type": "node", "id": 9543694865, "lat": 49.8344983, "lon": 21.6110435, "tags": {"addr:city": "Frysztak", "addr:flats": "2", "addr:housenumber": "1/2", "addr:postcode": "38-130", "addr:street": "Plac \u015awi\u0119tego Floriana", "amenity": "pharmacy", "name": "R\u00f3\u017cana", "opening_hours": "Mo-Fr 07:00-21:00; Sa 07:00-15:00", "phone": "+48 17 7110456", "ref:csioz": "1207650", "source": "https://rejestrymedyczne.ezdrowie.gov.pl/ra/public-view/1207650"}}, {"type": "node", "id": 9543718177, "lat": 49.8346291, "lon": 21.6094579, "tags": {"addr:city": "Frysztak", "addr:housenumber": "18", "addr:postcode": "38-130", "addr:street": "Miko\u0142aja Frysztackiego", "amenity": "pharmacy", "name": "Kleopatra", "opening_hours": "Mo-Fr 07:30-18:00; Sa 08:00-12:30", "ref:csioz": "1145969", "source": "https://rejestrymedyczne.ezdrowie.gov.pl/ra/public-view/1145969"}}, {"type": "node", "id": 9543751549, "lat": 49.834821, "lon": 21.6091874, "tags": {"addr:city": "Frysztak", "addr:housenumber": "10", "addr:postcode": "38-130", "addr:street": "Miko\u0142aja Frysztackiego", "amenity": "pharmacy", "opening_hours": "Mo-Fr 08:00-19:00; Sa 08:00-14:00", "ref:csioz": "1145884", "source": "https://rejestrymedyczne.ezdrowie.gov.pl/ra/public-view/1145884"}}, {"type": "node", "id": 9543771321, "lat": 49.8349689, "lon": 21.6073582, "tags": {"addr:city": "Frysztak", "addr:flats": "5", "addr:housenumber": "3", "addr:postcode": "38-130", "addr:street": "J\u00f3zefa Pi\u0119tniewicza", "amenity": "pharmacy", "opening_hours": "Mo-Fr 08:00-18:00", "ref:csioz": "1145916", "source": "https://rejestrymedyczne.ezdrowie.gov.pl/ra/public-view/1145916"}}, {"type": "node", "id": 9545665410, "lat": 49.9460927, "lon": 21.6138518, "tags": {"addr:housenumber": "229", "addr:place": "Wielopole Skrzy\u0144skie", "addr:postcode": "39-110", "amenity": "pharmacy", "ref:csioz": "1125688"}}, {"type": "node", "id": 9545688673, "lat": 50.0702213, "lon": 21.686716, "tags": {"addr:city": "S\u0119dzisz\u00f3w Ma\u0142opolski", "addr:housenumber": "1", "addr:postcode": "39-120", "addr:street": "Osiedle M\u0142odych", "amenity": "pharmacy", "name": "Apteka Prywatna Vitafarm", "ref:csioz": "1181210"}}, {"type": "node", "id": 9545688738, "lat": 50.0697841, "lon": 21.7073266, "tags": {"addr:city": "S\u0119dzisz\u00f3w Ma\u0142opolski", "addr:housenumber": "54A", "addr:postcode": "39-120", "addr:street": "Jana Paw\u0142a II", "amenity": "pharmacy", "healthcare": "pharmacy", "name": "Apteka Nova", "ref:csioz": "1200949"}}, {"type": "node", "id": 9545692143, "lat": 50.0582816, "lon": 21.6157656, "tags": {"amenity": "pharmacy", "healthcare": "pharmacy", "name": "Sinapis", "opening_hours": "Mo-Fr 07:30-21:00; Sa 08:00-14:00", "ref:csioz": "1145656"}}, {"type": "node", "id": 9545695143, "lat": 50.0601981, "lon": 21.6001086, "tags": {"addr:city": "Ropczyce", "addr:housenumber": "4", "addr:postcode": "39-100", "addr:street": "Armii Krajowej", "amenity": "pharmacy", "healthcare": "pharmacy", "ref:csioz": "1165886"}}, {"type": "node", "id": 9545696073, "lat": 50.0695365, "lon": 21.7005092, "tags": {"addr:city": "S\u0119dzisz\u00f3w Ma\u0142opolski", "addr:housenumber": "6", "addr:postcode": "39-120", "addr:street": "Rynek", "amenity": "pharmacy", "healthcare": "pharmacy", "name": "Apteka Im. \u015aw. Ojca Pio", "ref:csioz": "1145748"}}, {"type": "node", "id": 9545697856, "lat": 50.1567259, "lon": 21.6802461, "tags": {"addr:housenumber": "219", "addr:place": "Kamionka", "addr:postcode": "39-122", "amenity": "pharmacy", "ref:csioz": "1136465"}}, {"type": "node", "id": 9545710998, "lat": 50.0629799, "lon": 21.5183141, "tags": {"addr:housenumber": "119B", "addr:place": "Lubzina", "addr:postcode": "39-102", "amenity": "pharmacy", "ref:csioz": "1188600"}}, {"type": "node", "id": 9545729830, "lat": 50.0523667, "lon": 21.61079, "tags": {"addr:city": "Ropczyce", "addr:housenumber": "9", "addr:postcode": "39-100", "addr:street": "Rynek", "amenity": "pharmacy", "healthcare": "pharmacy", "name": "Apteka S\u0142oneczna Biedronka", "ref:csioz": "1176044"}}, {"type": "node", "id": 9545733363, "lat": 50.052413, "lon": 21.6102344, "tags": {"addr:city": "Ropczyce", "addr:housenumber": "1", "addr:postcode": "39-100", "addr:street": "Grunwaldzka", "amenity": "pharmacy", "brand": "Dr. Max", "brand:wikidata": "Q56317371", "healthcare": "pharmacy", "name": "Dr. Max", "ref:csioz": "1145593"}}, {"type": "node", "id": 9545736137, "lat": 50.0721408, "lon": 21.7020515, "tags": {"addr:city": "S\u0119dzisz\u00f3w Ma\u0142opolski", "addr:housenumber": "2", "addr:postcode": "39-120", "addr:street": "Solidarno\u015bci", "amenity": "pharmacy", "name": "Melilotus", "ref:csioz": "1202872"}}, {"type": "node", "id": 9545743873, "lat": 49.989265, "lon": 21.5505729, "tags": {"addr:housenumber": "10", "addr:place": "Nied\u017awiada", "addr:postcode": "39-107", "amenity": "pharmacy", "ref:csioz": "1145773"}}, {"type": "node", "id": 9545751391, "lat": 50.0693313, "lon": 21.6998179, "tags": {"amenity": "pharmacy", "ref:csioz": "1125299"}}, {"type": "node", "id": 9545752030, "lat": 50.0989788, "lon": 21.5919661, "tags": {"addr:housenumber": "224a", "addr:place": "Ostr\u00f3w", "addr:postcode": "39-103", "amenity": "pharmacy", "healthcare": "pharmacy", "name": "Artfarm", "ref:csioz": "1206804"}}, {"type": "node", "id": 9545753023, "lat": 50.124307, "lon": 21.754142, "tags": {"addr:housenumber": "145", "addr:place": "Czarna S\u0119dziszowska", "addr:postcode": "39-123", "amenity": "pharmacy", "ref:csioz": "1225922"}}, {"type": "node", "id": 9545829935, "lat": 50.2156635, "lon": 21.5097973, "tags": {"addr:housenumber": "260", "addr:place": "Rzemie\u0144", "addr:postcode": "39-322", "amenity": "pharmacy", "ref:csioz": "1144626"}}, {"type": "node", "id": 9550656787, "lat": 49.9963304, "lon": 21.8742592, "tags": {"amenity": "pharmacy", "dispensing": "yes", "healthcare": "pharmacy", "name": "Punkt Apteczny", "ref:csioz": "1195954"}}, {"type": "node", "id": 9552620939, "lat": 49.9853586, "lon": 21.9450369, "tags": {"amenity": "pharmacy", "dispensing": "yes", "name": "Pod Gwiazd\u0105", "ref:csioz": "1164712", "wheelchair": "yes"}}, {"type": "node", "id": 9569670825, "lat": 50.0150142, "lon": 22.0070845, "tags": {"amenity": "pharmacy", "dispensing": "yes", "name": "Pod Anio\u0142em", "ref:csioz": "1146345", "source": "UM Rzesz\u00f3w, wms.erzeszow.pl"}}, {"type": "node", "id": 9569670827, "lat": 50.0261199, "lon": 22.0072168, "tags": {"amenity": "pharmacy", "dispensing": "yes", "name": "Pod Gwiazd\u0105", "ref:csioz": "1146740"}}, {"type": "node", "id": 9569670828, "lat": 50.0472573, "lon": 22.0040137, "tags": {"amenity": "pharmacy", "dispensing": "yes", "name": "Pharmax Rzesz\u00f3w", "ref:csioz": "1165254"}}, {"type": "node", "id": 9569670830, "lat": 50.039862, "lon": 22.0092292, "tags": {"amenity": "pharmacy", "brand": "Dr. Max", "brand:wikidata": "Q56317371", "dispensing": "yes", "healthcare": "pharmacy", "name": "Dr. Max", "ref:csioz": "1147141"}}, {"type": "node", "id": 9569670831, "lat": 50.0217853, "lon": 22.0045149, "tags": {"amenity": "pharmacy", "dispensing": "yes", "name": "Dr.Max", "ref:csioz": "1147129"}}, {"type": "node", "id": 9569670832, "lat": 50.0531129, "lon": 21.9775303, "tags": {"amenity": "pharmacy", "dispensing": "yes", "name": "Dr.Max", "ref:csioz": "1147164"}}, {"type": "node", "id": 9569670837, "lat": 50.0271386, "lon": 22.0159399, "tags": {"amenity": "pharmacy", "dispensing": "yes", "name": "Apteka S\u0142oneczna", "ref:csioz": "1222052"}}, {"type": "node", "id": 9569670840, "lat": 50.0525378, "lon": 21.9785988, "tags": {"amenity": "pharmacy", "dispensing": "yes", "name": "Apteka S\u0142oneczna", "ref:csioz": "1216672"}}, {"type": "node", "id": 9569670841, "lat": 50.0375223, "lon": 22.0093926, "tags": {"amenity": "pharmacy", "dispensing": "yes", "name": "Niezapominajka Dla Ca\u0142ej Rodziny", "ref:csioz": "1210473"}}, {"type": "node", "id": 9569670843, "lat": 50.0459169, "lon": 22.0009777, "tags": {"amenity": "pharmacy", "dispensing": "yes", "name": "Kolorowa Apteka", "ref:csioz": "1207669"}}, {"type": "node", "id": 9569670844, "lat": 50.0414193, "lon": 22.0077303, "tags": {"amenity": "pharmacy", "dispensing": "yes", "name": "Apteka S\u0142oneczna", "ref:csioz": "1207946"}}, {"type": "node", "id": 9569670847, "lat": 50.0342556, "lon": 22.0046033, "tags": {"amenity": "pharmacy", "dispensing": "yes", "healthcare": "pharmacy", "name": "Apteka Przeworska", "ref:csioz": "1192715"}}, {"type": "node", "id": 9569670849, "lat": 50.0230875, "lon": 22.0174622, "tags": {"amenity": "pharmacy", "dispensing": "yes", "healthcare": "pharmacy", "name": "Niezapominajka Dla Ca\u0142ej Rodziny", "ref:csioz": "1182364"}}, {"type": "node", "id": 9569670850, "lat": 50.0180416, "lon": 21.9942616, "tags": {"amenity": "pharmacy", "dispensing": "yes", "name": "Dr.Max", "ref:csioz": "1147186"}}, {"type": "node", "id": 9569670851, "lat": 50.0519575, "lon": 22.0035304, "tags": {"amenity": "pharmacy", "dispensing": "yes", "name": "Dr.Max", "ref:csioz": "1147155"}}, {"type": "node", "id": 9569670852, "lat": 50.0340227, "lon": 21.9948906, "tags": {"addr:city": "Rzesz\u00f3w", "addr:housenumber": "8a", "addr:postcode": "35-016", "addr:street": "Klementyny Hoffmanowej", "amenity": "pharmacy", "brand": "Dr. Max", "brand:wikidata": "Q56317371", "dispensing": "yes", "healthcare": "pharmacy", "name": "Dr. Max", "ref:csioz": "1147193"}}, {"type": "node", "id": 9569670853, "lat": 50.0477324, "lon": 21.9986532, "tags": {"addr:city": "Rzesz\u00f3w", "addr:housenumber": "5", "addr:postcode": "35-205", "addr:street": "Warszawska", "amenity": "pharmacy", "dispensing": "yes", "level": "0", "name": "Lafarma", "opening_hours": "Mo-Fr 07:00-19:00; Sa 08:00-15:00", "ref:csioz": "1146960"}}, {"type": "node", "id": 9569670854, "lat": 50.0332603, "lon": 22.0140139, "tags": {"amenity": "pharmacy", "dispensing": "yes", "name": "Apteka Lafarma", "opening_hours": "Mo-Fr 07:00-18:00", "ref:csioz": "1146947"}}, {"type": "node", "id": 9569670855, "lat": 50.0380553, "lon": 22.0229637, "tags": {"amenity": "pharmacy", "dispensing": "yes", "name": "Pod Gwiazd\u0105", "ref:csioz": "1146567"}}, {"type": "node", "id": 9569670857, "lat": 50.0327167, "lon": 21.9933965, "tags": {"amenity": "pharmacy", "dispensing": "yes", "name": "Panacea", "ref:csioz": "1146538"}}, {"type": "node", "id": 9569670858, "lat": 50.0158293, "lon": 22.0078003, "tags": {"addr:city": "Rzesz\u00f3w", "addr:housenumber": "1a", "addr:postcode": "35-326", "addr:street": "Graniczna", "amenity": "pharmacy", "dispensing": "yes", "name": "Astra", "ref:csioz": "1146337"}}, {"type": "node", "id": 9569670859, "lat": 50.0528337, "lon": 21.9785938, "tags": {"amenity": "pharmacy", "dispensing": "yes", "name": "Apteka", "ref:csioz": "1146291"}}, {"type": "node", "id": 9569670860, "lat": 50.0398816, "lon": 22.0045288, "tags": {"amenity": "pharmacy", "dispensing": "yes", "name": "Hipokrates", "ref:csioz": "1146288"}}, {"type": "node", "id": 9569670872, "lat": 50.047242, "lon": 21.986104, "tags": {"amenity": "pharmacy", "dispensing": "yes", "name": "Apteka S\u0142oneczna", "ref:csioz": "1210096"}}, {"type": "node", "id": 9569670875, "lat": 50.0421164, "lon": 22.00214, "tags": {"amenity": "pharmacy", "dispensing": "yes", "healthcare": "pharmacy", "name": "Apteka S\u0142oneczna", "ref:csioz": "1164757"}}, {"type": "node", "id": 9569670876, "lat": 50.0425532, "lon": 21.9963785, "tags": {"amenity": "pharmacy", "dispensing": "yes", "healthcare": "pharmacy", "name": "Apteka Lafarma", "ref:csioz": "1164748"}}, {"type": "node", "id": 9569670877, "lat": 50.0425878, "lon": 21.9963066, "tags": {"amenity": "pharmacy", "brand": "Super-Pharm", "brand:wikidata": "Q13220217", "dispensing": "yes", "healthcare": "pharmacy", "name": "Super-Pharm", "ref:csioz": "1164736"}}, {"type": "node", "id": 9569670878, "lat": 50.0092063, "lon": 22.0219471, "tags": {"amenity": "pharmacy", "dispensing": "yes", "healthcare": "pharmacy", "name": "Apteka Difarm", "ref:csioz": "1164593"}}, {"type": "node", "id": 9569670879, "lat": 50.0281226, "lon": 21.9857358, "tags": {"addr:street": "Profesora Ludwika Chmaja", "amenity": "pharmacy", "dispensing": "yes", "name": "Dr. Max", "opening_hours": "Mo-Fr 08:00-19:00; Sa 08:00-14:00", "ref:csioz": "1147094", "website": "https://www.drmax.pl/"}}, {"type": "node", "id": 9569670880, "lat": 50.0445958, "lon": 21.9727358, "tags": {"amenity": "pharmacy", "dispensing": "yes", "name": "Apteka \"Gemma\"", "ref:csioz": "1147047"}}, {"type": "node", "id": 9569670881, "lat": 50.0359167, "lon": 21.9988876, "tags": {"amenity": "pharmacy", "dispensing": "yes", "ref:csioz": "1147060"}}, {"type": "node", "id": 9569670882, "lat": 50.0586288, "lon": 21.9787934, "tags": {"amenity": "pharmacy", "dispensing": "yes", "name": "Osiedlowa", "ref:csioz": "1146899"}}, {"type": "node", "id": 9569670883, "lat": 50.022086, "lon": 22.0176255, "tags": {"amenity": "pharmacy", "dispensing": "yes", "healthcare": "pharmacy", "name": "Apteka Difarm", "ref:csioz": "1146787"}}, {"type": "node", "id": 9569670884, "lat": 50.0430713, "lon": 21.9735239, "tags": {"amenity": "pharmacy", "dispensing": "yes", "name": "Apteka Lafarma", "ref:csioz": "1146885"}}, {"type": "node", "id": 9569670886, "lat": 50.035717, "lon": 22.0092981, "tags": {"amenity": "pharmacy", "dispensing": "yes", "name": "Apteka \"Pod Gwiazd\u0105\"", "ref:csioz": "1146918"}}, {"type": "node", "id": 9569670887, "lat": 50.0370711, "lon": 22.0095461, "tags": {"amenity": "pharmacy", "dispensing": "yes", "name": "Apteka Na Targowej", "ref:csioz": "1146926"}}, {"type": "node", "id": 9569670888, "lat": 50.019523, "lon": 22.019091, "tags": {"amenity": "pharmacy", "brand": "Dbam o Zdrowie", "brand:wikidata": "Q62563833", "dispensing": "yes", "healthcare": "pharmacy", "name": "Dbam o Zdrowie", "ref:csioz": "1146812", "short_name": "DOZ"}}, {"type": "node", "id": 9569670889, "lat": 50.0192517, "lon": 22.019538, "tags": {"amenity": "pharmacy", "dispensing": "yes", "healthcare": "pharmacy", "ref:csioz": "1146798"}}, {"type": "node", "id": 9569670890, "lat": 50.0212615, "lon": 22.0105703, "tags": {"amenity": "pharmacy", "dispensing": "yes", "name": "Pod Gwiazd\u0105", "ref:csioz": "1146663"}}, {"type": "node", "id": 9569670891, "lat": 50.030683, "lon": 22.025625, "tags": {"addr:city": "Rzesz\u00f3w", "addr:housenumber": "48", "addr:postcode": "35-308", "addr:street": "Mieszka I", "amenity": "pharmacy", "dispensing": "yes", "healthcare": "pharmacy", "name": "Apteka U Aptekarza", "ref:csioz": "1146625"}}, {"type": "node", "id": 9569670892, "lat": 50.0412069, "lon": 22.0040292, "tags": {"amenity": "pharmacy", "dispensing": "yes", "healthcare": "pharmacy", "name": "Pod Gwiazd\u0105", "ref:csioz": "1146696"}}, {"type": "node", "id": 9569670894, "lat": 50.0426103, "lon": 22.0077432, "tags": {"addr:city": "Rzesz\u00f3w", "addr:housenumber": "2", "addr:postcode": "35-001", "amenity": "pharmacy", "brand": "Dr. Max", "brand:wikidata": "Q56317371", "dispensing": "yes", "healthcare": "pharmacy", "name": "Dr. Max", "ref:csioz": "1146711"}}, {"type": "node", "id": 9569670896, "lat": 50.0491816, "lon": 21.9769386, "tags": {"amenity": "pharmacy", "dispensing": "yes", "healthcare": "pharmacy", "name": "Apteka Arnika", "ref:csioz": "1146490"}}, {"type": "node", "id": 9569670897, "lat": 50.0450267, "lon": 21.9846372, "tags": {"amenity": "pharmacy", "dispensing": "yes", "healthcare": "pharmacy", "name": "Apteka Optima", "ref:csioz": "1146477"}}, {"type": "node", "id": 9569670898, "lat": 50.0406538, "lon": 22.0079935, "tags": {"amenity": "pharmacy", "dispensing": "yes", "name": "Apteka Gemini", "ref:csioz": "1146444"}}, {"type": "node", "id": 9569670899, "lat": 50.044849, "lon": 22.0123239, "tags": {"amenity": "pharmacy", "dispensing": "yes", "name": "Apteka Dla Ciebie", "ref:csioz": "1146431"}}, {"type": "node", "id": 9569874333, "lat": 50.1206621, "lon": 21.8678276, "tags": {"amenity": "pharmacy", "dispensing": "yes", "name": "Abira", "ref:csioz": "1146032"}}, {"type": "node", "id": 9569874338, "lat": 49.9668439, "lon": 22.0276211, "tags": {"amenity": "pharmacy", "dispensing": "yes", "name": "Apteka Animed", "ref:csioz": "1214080"}}, {"type": "node", "id": 9569874341, "lat": 50.1535363, "lon": 21.9575799, "tags": {"amenity": "pharmacy", "dispensing": "yes", "ref:csioz": "1172215"}}, {"type": "node", "id": 9569874342, "lat": 49.9624452, "lon": 22.0337188, "tags": {"amenity": "pharmacy", "dispensing": "yes", "name": "Apteka Farmnet", "ref:csioz": "1146216"}}, {"type": "node", "id": 9569874346, "lat": 49.9859153, "lon": 21.9455237, "tags": {"amenity": "pharmacy", "dispensing": "yes", "ref:csioz": "1146029"}}, {"type": "node", "id": 9900781967, "lat": 50.2426347, "lon": 21.7786502, "tags": {"amenity": "pharmacy", "dispensing": "yes", "healthcare": "pharmacy", "level": "0", "name": "Dr. Optima", "opening_hours": "Mo-Fr 07:00-20:00; Sa 08:00-15:00", "source": "droptima.com"}}, {"type": "node", "id": 9910656622, "lat": 50.2422892, "lon": 21.7705711, "tags": {"amenity": "pharmacy", "dispensing": "yes", "healthcare": "pharmacy", "name": "Medimo", "opening_hours": "Mo-Sa 07:00-21:00; Su 10:00-19:00", "phone": "+48 17 22 71 433", "website": "http://www.medimo.com.pl/"}}, {"type": "node", "id": 9910656634, "lat": 50.2428335, "lon": 21.7718514, "tags": {"addr:city": "Kolbuszowa", "addr:housenumber": "20", "addr:postcode": "36-100", "addr:street": "Obro\u0144c\u00f3w Pokoju", "amenity": "pharmacy", "dispensing": "yes", "healthcare": "pharmacy", "name": "Apteka Mojej Mamy", "opening_hours": "Mo-Sa 07:00-21:00; Su 08:00-20:00", "phone": "+48 694 413 993", "source:addr": "kolbuszowa.e-mapa.net"}}, {"type": "node", "id": 10005929562, "lat": 50.0307392, "lon": 21.9790102, "tags": {"amenity": "pharmacy"}}, {"type": "node", "id": 10215791089, "lat": 50.2462508, "lon": 21.7802222, "tags": {"amenity": "pharmacy", "check_date:opening_hours": "2023-05-29", "dispensing": "yes", "drive_through": "no", "healthcare": "pharmacy", "name": "Medimo", "opening_hours": "Mo-Fr 07:00-21:00; Sa 08:00-20:00", "phone": "+48 17 747 90 80", "website": "http://www.medimo.com.pl/"}}, {"type": "node", "id": 10270112005, "lat": 50.2260216, "lon": 21.6388596, "tags": {"amenity": "pharmacy", "healthcare": "pharmacy", "opening_hours": "Mo-Fr 09:00-17:30; Sa 09:00-13:00"}}, {"type": "node", "id": 10609143124, "lat": 50.071259, "lon": 21.8391397, "tags": {"amenity": "pharmacy", "healthcare": "pharmacy"}}, {"type": "node", "id": 10697011479, "lat": 50.1502379, "lon": 21.6697333, "tags": {"amenity": "pharmacy", "name": "Punkt apteczny"}}, {"type": "node", "id": 10705124384, "lat": 49.9815354, "lon": 22.0208064}, {"type": "node", "id": 10705124385, "lat": 49.981592, "lon": 22.0209737}, {"type": "node", "id": 10705124386, "lat": 49.981689, "lon": 22.0208958}, {"type": "node", "id": 11148262467, "lat": 50.2458383, "lon": 21.7788965, "tags": {"amenity": "pharmacy", "healthcare": "pharmacy", "name": "R\u00f3\u017cana", "opening_hours": "Mo-Fr 07:00-21:00; Sa 08:00-20:00"}}, {"type": "node", "id": 11335689763, "lat": 50.0625526, "lon": 21.3642535, "tags": {"amenity": "pharmacy", "name": "punkt apteczny Arnika"}}, {"type": "node", "id": 11737492351, "lat": 49.8816788, "lon": 21.4125131, "tags": {"amenity": "pharmacy", "healthcare": "pharmacy"}}, {"type": "node", "id": 12056103818, "lat": 50.0522546, "lon": 21.6095504, "tags": {"amenity": "pharmacy", "dispensing": "yes", "name": "Apteka Na Grunwaldzkiej", "opening_hours": "Mo-Fr 07:00-19:00; Sa 08:00-14:00", "operator": "FIRMA HANDLOWO-US\u0141UGOWA R.J.KIZIOR \"APTEKA W RYNKU\" SP\u00d3\u0141KA JAWNA", "ref:csioz": "1145619"}}, {"type": "node", "id": 12141017730, "lat": 50.2034078, "lon": 21.8866073, "tags": {"amenity": "pharmacy", "healthcare": "pharmacy", "name": "Arnika"}}, {"type": "node", "id": 12343823329, "lat": 50.2699473, "lon": 21.8648466, "tags": {"amenity": "pharmacy", "healthcare": "pharmacy", "name": "Verbena", "opening_hours": "Mo-Fr 09:00-17:00"}}, {"type": "node", "id": 12554971023, "lat": 49.9940949, "lon": 21.4235281, "tags": {"amenity": "pharmacy", "description": "Punkt apteczny", "healthcare": "pharmacy", "name": "Melisa", "opening_hours": "Mo-Fr 09:00-16:00; Tu 11:00-18:00"}}, {"type": "node", "id": 12875230176, "lat": 49.9880636, "lon": 21.9872989, "tags": {"addr:city": "Rzesz\u00f3w", "addr:housenumber": "94", "addr:postcode": "35-317", "addr:street": "Jana Paw\u0142a II", "amenity": "pharmacy", "drive_through": "no", "healthcare": "pharmacy", "name": "Eliksir", "opening_hours": "Mo-Fr 08:00-20:00; Sa 08:00-14:00", "phone": "+48 17 230 43 14"}}, {"type": "node", "id": 12906371306, "lat": 50.2007797, "lon": 21.8386423, "tags": {"amenity": "pharmacy", "healthcare": "pharmacy"}}, {"type": "way", "id": 178927797, "nodes": [1892828483, 1892828472, 1892828476, 1892828481, 1892828488, 1892828498, 1892828490, 1892828486, 1892828483], "tags": {"addr:housenumber": "78", "addr:place": "Smar\u017cowa", "amenity": "pharmacy", "building": "yes", "dispensing": "yes", "name": "VITA"}}, {"type": "way", "id": 208091893, "nodes": [2184104451, 2184104383, 2184104365, 2184104443, 2184104451], "tags": {"addr:city": "Czudec", "addr:city:simc": "0648385", "addr:housenumber": "2", "addr:postcode": "38-120", "addr:street": "Rynek", "addr:street:sym_ul": "19253", "amenity": "pharmacy", "building": "yes", "name": "Apteka", "opening_hours": "Mo-Fr 07:00-20:00; Sa 07:00-15:00", "phone": "+48 17 2771039", "ref:csioz": "1145868", "source": "https://rejestrymedyczne.ezdrowie.gov.pl/ra/public-view/1145837", "source:addr": "emuia.gugik.gov.pl"}}, {"type": "way", "id": 262128766, "nodes": [2677784762, 2677784758, 2677784753, 2677784738, 2677784742, 2677784730, 8828045895, 4986989305, 8828045897, 2677784749, 2677784756, 2677784761, 2677784765, 2677784769, 2677784772, 2677784767, 2677784762], "tags": {"addr:city": "D\u0119bica", "addr:housenumber": "52c", "addr:postcode": "39-200", "addr:street": "Cmentarna", "amenity": "pharmacy", "building": "yes", "healthcare": "pharmacy", "name": "Panaceum", "source:addr": "EMUiA (emuia.gugik.gov.pl)"}}, {"type": "way", "id": 274988498, "nodes": [2796544543, 2796544544, 2796544541, 2796544536, 2796544535, 2796544537, 2796544538, 2796544539, 2796544542, 2796544540, 2796544548, 2796544552, 2796544551, 2796544550, 2796544545, 2796544543], "tags": {"addr:city": "D\u0119bica", "addr:housenumber": "9", "addr:postcode": "39-200", "addr:street": "Kolejowa", "amenity": "pharmacy", "building": "yes", "name": "Melisa", "source:addr": "EMUiA (emuia.gugik.gov.pl)"}}, {"type": "way", "id": 303691940, "nodes": [3080952079, 3080952075, 3080952076, 3080952025, 3080952043, 3080952054, 3080952082, 3080952079], "tags": {"addr:city": "Rzesz\u00f3w", "addr:housenumber": "6", "addr:postcode": "35-021", "addr:street": "Profesora Ludwika Chmaja", "amenity": "pharmacy", "brand": "ACP Pharma", "building": "commercial", "building:levels": "3", "name": "Cefarm Rzesz\u00f3w", "official_name": "Cefarm Rzesz\u00f3w Sp. z o.o.", "source:addr": "EMUiA (emuia.gugik.gov.pl)"}}, {"type": "way", "id": 311574780, "nodes": [3172626645, 3172626647, 3172626649, 3172626646, 3172626648, 3172626641, 3172626640, 3172626644, 3172626645], "tags": {"addr:place": "R\u00f3\u017ca", "addr:postcode": "39-216", "amenity": "pharmacy", "building": "yes", "dispensing": "yes"}}, {"type": "way", "id": 312513254, "nodes": [3183716248, 3183716245, 3183716246, 3183716251, 3183716250, 3183716248], "tags": {"addr:place": "\u017byrak\u00f3w", "addr:postcode": "39-204", "amenity": "pharmacy", "building": "yes"}}, {"type": "way", "id": 340390041, "nodes": [3476125913, 3476125922, 3476125933, 3476125928, 3476125913], "tags": {"amenity": "pharmacy", "building": "yes", "contact:mobile": "+48 531487284", "healthcare": "pharmacy", "name": "Apteka Pod Gwiazd\u0105"}}, {"type": "way", "id": 448007003, "nodes": [1899628997, 4450648612, 4450648613, 1899628943, 1899628997], "tags": {"addr:city": "Strzy\u017c\u00f3w", "addr:housenumber": "8A", "addr:postcode": "38-100", "addr:street": "Parkowa", "amenity": "pharmacy", "building": "yes", "mobile": "530979066", "name": "Apteka R\u00f3\u017cana", "opening_hours": "Mo-Fr 07:00-22:00; Sa 07:00-19:00"}}, {"type": "way", "id": 1150795722, "nodes": [3150245943, 10705124384, 10705124385, 10705124386, 3150245943], "tags": {"addr:city": "Rzesz\u00f3w", "addr:housenumber": "433", "addr:street": "Aleja Genera\u0142a W\u0142adys\u0142awa Sikorskiego", "amenity": "pharmacy", "building:part": "yes", "dispensing": "yes", "healthcare": "pharmacy", "name": "Moja", "ref:csioz": "1172070"}}]}