{"version": 0.6, "generator": "Overpass API 0.7.62.8 e802775f", "osm3s": {"timestamp_osm_base": "2025-10-06T07:34:09Z", "copyright": "The data included in this document is from www.openstreetmap.org. The data is made available under ODbL."}, "elements": [{"type": "node", "id": 5560489422, "lat": 32.0596493, "lon": 20.0398849, "tags": {"addr:street": "\u0637\u0631\u064a\u0642 \u0628\u0646\u063a\u0627\u0632\u064a-\u0642\u0645\u064a\u0646\u0633", "amenity": "pharmacy", "name": "\u0635\u064a\u062f\u0644\u064a\u0629 \u0627\u0644\u0639\u0627\u0626\u0644\u0629", "name:ar": "\u0635\u064a\u062f\u0644\u064a\u0629 \u0627\u0644\u0639\u0627\u0626\u0644\u0629", "name:en": "Family Pharmacy", "opening_hours": "24/7", "website": "http://FamilyPharmacy/Facebook.com"}}, {"type": "node", "id": 5911735785, "lat": 32.0761887, "lon": 20.0762026, "tags": {"addr:street": "\u0634\u0627\u0631\u0639 \u0627\u0644\u0642\u064a\u0631\u0648\u0627\u0646", "amenity": "pharmacy", "name": "\u0635\u064a\u062f\u0644\u064a\u0629 \u062f\u0631\u0646\u0629", "name:ar": "\u0635\u064a\u062f\u0644\u064a\u0629 \u062f\u0631\u0646\u0629", "name:en": "Dernah Pharmacy"}}, {"type": "node", "id": 6379583554, "lat": 32.0821545, "lon": 20.0591505, "tags": {"addr:city": "\u0628\u0646\u063a\u0627\u0632\u064a", "addr:postcode": "00218", "addr:street": "\u0628\u0648\u0634\u0644\u064a\u0641", "amenity": "pharmacy", "dispensing": "yes", "healthcare": "pharmacy", "healthcare:speciality": "\u0635\u064a\u062f\u0644\u064a\u0629", "name": "\u0635\u064a\u062f\u0644\u064a\u0629", "name:ar": "\u0635\u064a\u062f\u0644\u064a\u0629", "name:en": "Pharmacy"}}, {"type": "node", "id": 6426674215, "lat": 32.0800232, "lon": 20.060641, "tags": {"amenity": "pharmacy", "dispensing": "yes", "healthcare": "pharmacy"}}, {"type": "node", "id": 6426674221, "lat": 32.0803571, "lon": 20.0589047, "tags": {"amenity": "pharmacy", "dispensing": "yes", "healthcare": "pharmacy"}}, {"type": "node", "id": 6426674227, "lat": 32.0774743, "lon": 20.0632492, "tags": {"amenity": "pharmacy", "dispensing": "yes", "healthcare": "pharmacy"}}, {"type": "node", "id": 6445474793, "lat": 32.0759116, "lon": 20.0715759, "tags": {"amenity": "pharmacy", "dispensing": "yes", "healthcare": "pharmacy", "name": "\u0635\u064a\u062f\u0644\u064a\u0629 \u0627\u0644\u0634\u0627\u0645\u0644\u0629", "name:ar": "\u0635\u064a\u062f\u0644\u064a\u0629 \u0627\u0644\u0634\u0627\u0645\u0644\u0629", "name:en": "Pharmacy"}}, {"type": "node", "id": 6879789685, "lat": 32.0368699, "lon": 20.0561388, "tags": {"addr:street": "\u0628\u0648\u0635\u0646\u064a\u0628", "amenity": "pharmacy", "name": "\u0635\u064a\u062f\u0627\u0644\u064a\u0629 \u064a\u0633", "name:ar": "\u0635\u064a\u062f\u0627\u0644\u064a\u0629 \u064a\u0633", "name:en": "yassin pharmacy\u2019s", "opening_hours": "24/7", "phone": "0928153408"}}, {"type": "node", "id": 7629378761, "lat": 32.0551848, "lon": 20.0365487, "tags": {"amenity": "pharmacy", "dispensing": "yes", "healthcare": "pharmacy"}}, {"type": "node", "id": 8085901441, "lat": 32.0803393, "lon": 20.0678567, "tags": {"amenity": "pharmacy", "dispensing": "yes", "healthcare": "pharmacy", "name": "\u0635\u064a\u062f\u0644\u064a\u0629 \u0627\u0644\u0635\u062f\u064a\u0642", "name:ar": "\u0635\u064a\u062f\u0644\u064a\u0629 \u0627\u0644\u0635\u062f\u064a\u0642"}}, {"type": "node", "id": 8565170218, "lat": 32.0299461, "lon": 20.0247888, "tags": {"amenity": "pharmacy", "name": "\u0635\u064a\u062f\u0644\u064a\u0629 \u0645\u0639\u064a\u0646", "name:en": "Pharmacy"}}, {"type": "node", "id": 8565311417, "lat": 32.032974, "lon": 20.0215529, "tags": {"amenity": "pharmacy", "name": "\u0635\u064a\u062f\u0644\u064a\u0629", "name:en": "Pharmacy"}}, {"type": "node", "id": 8565413817, "lat": 32.045892, "lon": 20.0291898, "tags": {"amenity": "pharmacy", "name": "\u0635\u064a\u062f\u0644\u064a\u0629 \u0627\u0644\u0646\u064a\u0631\u0648\u0632", "name:en": "Pharmacy"}}, {"type": "node", "id": 8566477618, "lat": 32.0271354, "lon": 20.0790408, "tags": {"amenity": "pharmacy", "name": "\u0635\u064a\u062f\u0644\u064a\u0629 \u0627\u0644\u0642\u0648\u0627\u0631\u0634\u0629 \u0627\u0644\u062d\u062f\u064a\u062b\u0629", "name:en": "Pharmacy"}}, {"type": "node", "id": 8566488217, "lat": 32.0099224, "lon": 20.0888711, "tags": {"amenity": "pharmacy", "name": "\u0635\u064a\u062f\u0644\u064a\u0629 \u0646\u0648\u0631 \u0627\u0644\u0642\u0648\u0627\u0631\u0634\u0629", "name:en": "Pharmacy"}}, {"type": "node", "id": 8566488317, "lat": 32.0094944, "lon": 20.0855854, "tags": {"amenity": "pharmacy", "name": "\u0635\u064a\u062f\u0644\u064a\u0629 \u0627\u0644\u0642\u0648\u0627\u0631\u064a\u0631", "name:en": "Pharmacy"}}, {"type": "node", "id": 9055173917, "lat": 32.0811728, "lon": 20.0535951, "tags": {"amenity": "pharmacy", "name": "\u0635\u064a\u062f\u0644\u064a\u0629 \u0627\u0644\u0634\u0627\u0645\u0644\u0629 \u0627\u0644\u062d\u062f\u064a\u062b\u0629"}}, {"type": "node", "id": 9152968579, "lat": 31.9753944, "lon": 20.0820637, "tags": {"amenity": "pharmacy", "name": "\u0635\u064a\u062f\u0644\u064a\u0629 \u0623\u0648\u0645\u064a\u062c\u0627", "name:ar": "\u0635\u064a\u062f\u0644\u064a\u0629 \u0623\u0648\u0645\u064a\u062c\u0627", "name:en": "Omega Pharmacy"}}, {"type": "node", "id": 9880368190, "lat": 31.9793197, "lon": 20.0799756, "tags": {"amenity": "pharmacy", "healthcare": "pharmacy", "name": "\u0635\u064a\u062f\u0644\u064a\u0629 \u0627\u0628\u0646 \u0627\u0644\u0642\u064a\u0645", "name:ar": "\u0635\u064a\u062f\u0644\u064a\u0629 \u0627\u0628\u0646 \u0627\u0644\u0642\u064a\u0645", "name:en": "Ibn Al-Qayim Pharmacy", "wheelchair": "limited"}}]}