{"version": 0.6, "generator": "Overpass API 0.7.62.8 e802775f", "osm3s": {"timestamp_osm_base": "2025-10-06T09:00:45Z", "copyright": "The data included in this document is from www.openstreetmap.org. The data is made available under ODbL."}, "elements": [{"type": "node", "id": 512091556, "lat": 45.3803351, "lon": 27.0433344, "tags": {"amenity": "pharmacy", "healthcare": "pharmacy", "name": "Galenus"}}, {"type": "node", "id": 512091578, "lat": 45.3801226, "lon": 27.0447028, "tags": {"amenity": "pharmacy", "healthcare": "pharmacy", "name": "Cristiana"}}, {"type": "node", "id": 2929580840, "lat": 45.2862377, "lon": 26.6831824, "tags": {"amenity": "pharmacy", "healthcare": "pharmacy"}}, {"type": "node", "id": 3681361072, "lat": 45.204923, "lon": 26.7279407}, {"type": "node", "id": 3681361073, "lat": 45.2047985, "lon": 26.7277905}, {"type": "node", "id": 3681361074, "lat": 45.2047487, "lon": 26.7278723}, {"type": "node", "id": 3681361075, "lat": 45.2048701, "lon": 26.7280225}, {"type": "node", "id": 3682431501, "lat": 45.1515343, "lon": 26.8432084, "tags": {"amenity": "pharmacy", "brand": "Farmacia Dona", "brand:wikidata": "Q12726919", "healthcare": "pharmacy", "name": "Farmacia Dona"}}, {"type": "node", "id": 3684314777, "lat": 45.2048041, "lon": 26.7322932, "tags": {"amenity": "pharmacy", "brand": "Iris", "healthcare": "pharmacy", "name": "Farmacie Uman\u0103", "operator": "Iris Pharm", "website": "https://irispharm.ro/"}}, {"type": "node", "id": 3684314778, "lat": 45.2048319, "lon": 26.7322431, "tags": {"amenity": "pharmacy", "healthcare": "pharmacy", "name": "Farmacie Veterinar\u0103", "operator": "Iris Pharm"}}, {"type": "node", "id": 3684668665, "lat": 45.1455764, "lon": 26.8116159, "tags": {"amenity": "pharmacy", "brand": "Farmacia Dona", "brand:wikidata": "Q12726919", "healthcare": "pharmacy", "name": "Farmacia Dona"}}, {"type": "node", "id": 3685249152, "lat": 45.1527617, "lon": 26.8192024, "tags": {"addr:street": "Strada Ostrovului", "amenity": "pharmacy", "name": "Maxi Pharma"}}, {"type": "node", "id": 3685249154, "lat": 45.1528099, "lon": 26.8206594, "tags": {"addr:street": "Aleea Trandafirilor", "amenity": "pharmacy", "brand": "Dr. Max", "brand:wikidata": "Q56317371", "brand:wikipedia": "fr:Dr.Max", "healthcare": "pharmacy", "name": "Dr. Max"}}, {"type": "node", "id": 3685751404, "lat": 45.1532915, "lon": 26.8215622, "tags": {"amenity": "pharmacy", "brand": "Dr. Max", "brand:wikidata": "Q56317371", "healthcare": "pharmacy", "name": "Dr. Max"}}, {"type": "node", "id": 3700777203, "lat": 45.1468906, "lon": 26.8049958, "tags": {"amenity": "pharmacy", "name": "Farmacia Cr\u00e2ng"}}, {"type": "node", "id": 3703771060, "lat": 45.1511602, "lon": 26.8202492, "tags": {"amenity": "pharmacy", "healthcare": "pharmacy", "name": "Drogherie"}}, {"type": "node", "id": 3703772483, "lat": 45.1522362, "lon": 26.819533, "tags": {"addr:city": "Buz\u0103u", "addr:street": "Strada Ostrovului", "amenity": "pharmacy", "brand": "Dr. Max", "brand:wikidata": "Q56317371", "brand:wikipedia": "fr:Dr.Max", "dispensing": "yes", "healthcare": "pharmacy", "name": "Dr. Max"}}, {"type": "node", "id": 3704278670, "lat": 45.164099, "lon": 26.8141895, "tags": {"addr:city": "Buz\u0103u", "addr:street": "Strada Fr\u0103sinet", "amenity": "pharmacy", "brand": "Dr. Max", "brand:wikidata": "Q56317371", "healthcare": "pharmacy", "name": "Dr. Max", "operator": "Dr.Max", "phone": "0238 711 767", "website": "https://www.drmax.ro"}}, {"type": "node", "id": 3709405011, "lat": 45.1471402, "lon": 26.8044639, "tags": {"amenity": "pharmacy", "name": "Catena"}}, {"type": "node", "id": 3732544547, "lat": 45.1601186, "lon": 26.8166038, "tags": {"addr:city": "Buz\u0103u", "addr:street": "Bulevardul Unirii", "amenity": "pharmacy", "brand": "Farmacia Dona", "brand:wikidata": "Q12726919", "healthcare": "pharmacy", "name": "Farmacia Dona"}}, {"type": "node", "id": 3759617475, "lat": 45.1525628, "lon": 26.8187852}, {"type": "node", "id": 3759617476, "lat": 45.1526018, "lon": 26.8188899}, {"type": "node", "id": 3759617477, "lat": 45.1525409, "lon": 26.8189354}, {"type": "node", "id": 3759617478, "lat": 45.152502, "lon": 26.8188307}, {"type": "node", "id": 3834120049, "lat": 45.1561091, "lon": 26.8160103, "tags": {"addr:city": "Buz\u0103u", "addr:street": "Strada Obor", "amenity": "pharmacy", "healthcare": "pharmacy", "name": "Farmacie Veterinar\u0103"}}, {"type": "node", "id": 4023815945, "lat": 45.1437089, "lon": 26.8102961, "tags": {"addr:city": "Buz\u0103u", "addr:housenumber": "Bl. B16", "addr:postcode": "120021", "addr:postcode:source": "Date de la Po\u0219ta Rom\u00e2n\u0103, publicate sub Licen\u021ba pentru Guvernare Deschis\u0103 v1.0 la http://date.gov.ro/organization/posta-romana", "addr:street": "Bulevardul Unirii", "amenity": "pharmacy", "brand": "Dr. Max", "brand:wikidata": "Q56317371", "healthcare": "pharmacy", "name": "Dr. Max", "opening_hours": "Mo-Fr 09:00-17:30; Sa 09:00 - 14:30; Su closed", "operator": "Dr.Max", "phone": "0238724380", "website": "https://www.drmax.ro"}}, {"type": "node", "id": 4023815946, "lat": 45.1533638, "lon": 26.8170566, "tags": {"amenity": "pharmacy", "name": "Farmacie"}}, {"type": "node", "id": 4023852658, "lat": 45.1508528, "lon": 26.8175858, "tags": {"addr:city": "Buz\u0103u", "addr:street": "Bulevardul Unirii", "amenity": "pharmacy", "healthcare": "pharmacy", "name": "Farmacia Catena"}}, {"type": "node", "id": 4023852660, "lat": 45.1504752, "lon": 26.8174503, "tags": {"amenity": "pharmacy", "healthcare": "pharmacy", "name": "Farmacia Iris Pharm"}}, {"type": "node", "id": 4023852663, "lat": 45.1540138, "lon": 26.7960942, "tags": {"addr:city": "Buz\u0103u", "addr:housenumber": "Bl. 20A", "addr:postcode": "120140", "addr:postcode:source": "Date de la Po\u0219ta Rom\u00e2n\u0103, publicate sub Licen\u021ba pentru Guvernare Deschis\u0103 v1.0 la http://date.gov.ro/organization/posta-romana", "addr:street": "Bulevardul Stadionului", "amenity": "pharmacy", "email": "farmacia74@medimfarm.ro", "fax": "0338 401 385", "healthcare": "pharmacy", "name": "Medimfarm", "phone": "0372 713 916"}}, {"type": "node", "id": 4023945946, "lat": 45.1535719, "lon": 26.8177067, "tags": {"addr:city": "Buz\u0103u", "addr:street": "Bulevardul Unirii", "amenity": "pharmacy", "healthcare": "pharmacy", "name": "Medinfarm", "operator": "Medinfarm"}}, {"type": "node", "id": 4026069774, "lat": 45.153652, "lon": 26.8178823, "tags": {"addr:city": "Buz\u0103u", "addr:street": "Strada Artelor", "amenity": "pharmacy", "healthcare": "pharmacy", "name": "Farmacia Medimfarm"}}, {"type": "node", "id": 4030113159, "lat": 45.2149082, "lon": 26.6981975, "tags": {"amenity": "pharmacy", "name": "Farmacie"}}, {"type": "node", "id": 4030634724, "lat": 45.1451133, "lon": 26.8110987, "tags": {"amenity": "pharmacy", "brand": "Catena", "brand:wikidata": "Q24035728", "healthcare": "pharmacy", "name": "Catena"}}, {"type": "node", "id": 4030634736, "lat": 45.1457398, "lon": 26.8117751, "tags": {"amenity": "pharmacy", "brand": "EvoFarm", "brand:wikidata": "Q114647927", "healthcare": "pharmacy", "name": "EvoFarm"}}, {"type": "node", "id": 4030634747, "lat": 45.1465518, "lon": 26.8131022, "tags": {"amenity": "pharmacy"}}, {"type": "node", "id": 4030634754, "lat": 45.1475534, "lon": 26.8135083, "tags": {"amenity": "pharmacy", "brand": "Catena", "brand:wikidata": "Q24035728", "healthcare": "pharmacy", "name": "Catena"}}, {"type": "node", "id": 4033198979, "lat": 45.1526201, "lon": 26.8201517, "tags": {"addr:city": "Buz\u0103u", "addr:postcode": "120038", "addr:street": "Strada George Emil Palade", "amenity": "pharmacy", "dispensing": "yes", "healthcare": "pharmacy", "name": "Iris Pharm", "opening_hours": "24/7", "operator": "Iris Pharm"}}, {"type": "node", "id": 4033329187, "lat": 45.1594093, "lon": 26.8167087, "tags": {"amenity": "pharmacy", "cuisine": "coffee_shop;regional", "healthcare": "pharmacy", "name": "Farmacia Maxi Farma", "operator": "Maxi Farma"}}, {"type": "node", "id": 4033329206, "lat": 45.1608603, "lon": 26.8164822, "tags": {"amenity": "pharmacy", "name": "Farmacie"}}, {"type": "node", "id": 4033329209, "lat": 45.1613059, "lon": 26.8164561, "tags": {"amenity": "pharmacy", "brand": "Catena", "brand:wikidata": "Q24035728", "brand:wikipedia": "ro:Farmacia Catena", "healthcare": "pharmacy", "name": "Catena"}}, {"type": "node", "id": 4036787813, "lat": 45.1527989, "lon": 26.8198934, "tags": {"amenity": "pharmacy", "brand": "Farmacia Dona", "brand:wikidata": "Q12726919", "healthcare": "pharmacy", "name": "Farmacia Dona"}}, {"type": "node", "id": 4210740581, "lat": 45.2049288, "lon": 26.7274312, "tags": {"amenity": "pharmacy", "healthcare": "pharmacy", "name": "Farmacie Veterinar\u0103", "operator": "Sc. Rofarmvet Srl"}}, {"type": "node", "id": 4481178995, "lat": 45.1510452, "lon": 26.8020699, "tags": {"amenity": "pharmacy", "name": "Sanimex", "name:ro": "Sanimex"}}, {"type": "node", "id": 4481178996, "lat": 45.153472, "lon": 26.7965864, "tags": {"amenity": "pharmacy", "healthcare": "pharmacy", "name": "Medicfarm", "name:ro": "Medicfarm"}}, {"type": "node", "id": 4481178997, "lat": 45.1507258, "lon": 26.801911, "tags": {"amenity": "pharmacy", "name": "Dona Stadionului", "name:ro": "Dona Stadionului"}}, {"type": "node", "id": 4481265791, "lat": 45.152861, "lon": 26.8200801, "tags": {"amenity": "pharmacy", "name": "Dona 48"}}, {"type": "node", "id": 4481306307, "lat": 45.1514735, "lon": 26.8219039, "tags": {"amenity": "pharmacy", "healthcare": "pharmacy", "name": "Vitafarm", "name:ro": "Vitafarm"}}, {"type": "node", "id": 4481306308, "lat": 45.1437223, "lon": 26.8352474, "tags": {"amenity": "pharmacy", "name": "Abc farm", "name:ro": "Abc farm"}}, {"type": "node", "id": 4481334491, "lat": 45.1439816, "lon": 26.8255546, "tags": {"amenity": "pharmacy", "name": "Elis Farm", "name:ro": "Elis Farm"}}, {"type": "node", "id": 4481408199, "lat": 45.1828764, "lon": 26.830478, "tags": {"amenity": "pharmacy", "healthcare": "pharmacy", "name": "Iris pharm", "name:ro": "Iris pharm"}}, {"type": "node", "id": 4481428391, "lat": 45.1560828, "lon": 26.8160835, "tags": {"addr:street": "Strada Transilvaniei", "amenity": "pharmacy", "healthcare": "pharmacy", "name": "Farmacia Iris", "name:ro": "Farmacia Iris"}}, {"type": "node", "id": 4481455592, "lat": 45.1517001, "lon": 26.836153, "tags": {"amenity": "pharmacy", "name": "Rihter", "name:ro": "Rihter"}}, {"type": "node", "id": 4481458189, "lat": 45.1515187, "lon": 26.832773, "tags": {"amenity": "pharmacy", "healthcare": "pharmacy", "name": "Farmacia Alex", "name:ro": "Farm alex"}}, {"type": "node", "id": 4481458190, "lat": 45.1516185, "lon": 26.8418765, "tags": {"amenity": "pharmacy", "brand": "Catena", "brand:wikidata": "Q24035728", "healthcare": "pharmacy", "name": "Catena", "name:ro": "Dona dorobanti 2"}}, {"type": "node", "id": 4485459993, "lat": 45.1542529, "lon": 26.7954648, "tags": {"amenity": "pharmacy", "healthcare": "pharmacy", "name": "Maxi Farma", "name:ro": "Maxi Farma"}}, {"type": "node", "id": 4485495689, "lat": 45.147864, "lon": 26.8144836, "tags": {"addr:housenumber": "bl O 1", "addr:street": "Bulevardul Unirii", "amenity": "pharmacy", "name": "Maxi Farma", "name:ro": "Maxi Farma"}}, {"type": "node", "id": 4739596395, "lat": 45.1590686, "lon": 26.8213788, "tags": {"amenity": "pharmacy", "name": "Gabri-Elen"}}, {"type": "node", "id": 5526516821, "lat": 45.151327, "lon": 26.8413171, "tags": {"addr:street": "Strada Columbelor", "amenity": "pharmacy", "healthcare": "pharmacy", "name": "MAXI FARMA"}}, {"type": "node", "id": 5795343242, "lat": 45.0842238, "lon": 27.3203743, "tags": {"addr:city": "Surdila-G\u0103iseanca", "addr:postcode": "817155", "addr:street": "Strada Br\u0103ilei", "amenity": "pharmacy", "dispensing": "yes", "healthcare": "pharmacy", "name": "Farmacie"}}, {"type": "node", "id": 5879264486, "lat": 45.389281, "lon": 27.0425744, "tags": {"addr:housenumber": "78", "addr:street": "Strada Alexandru Ioan Cuza", "amenity": "pharmacy", "healthcare": "pharmacy", "name": "Nichita"}}, {"type": "node", "id": 8412965900, "lat": 45.2458304, "lon": 26.7089033, "tags": {"addr:city": "C\u00e2nde\u0219ti", "addr:postcode": "127663", "addr:street": "DN10 Str. Nr. 1 Bra\u0219ovului", "amenity": "pharmacy", "brand": "Pharmacie Principale", "brand:wikidata": "Q1547749", "brand:wikipedia": "fr:Groupe PP Holding", "dispensing": "yes", "drive_through": "no", "healthcare": "pharmacy", "name": "Fitofarmacie", "opening_hours": "Mo-Su 09:00-17:00"}}, {"type": "node", "id": 8412979082, "lat": 45.2498478, "lon": 26.7053292}, {"type": "node", "id": 8412979083, "lat": 45.2497472, "lon": 26.7053878}, {"type": "node", "id": 8412979084, "lat": 45.2496977, "lon": 26.7052155}, {"type": "node", "id": 8412979085, "lat": 45.2497983, "lon": 26.7051573}, {"type": "node", "id": 9610390164, "lat": 45.1524703, "lon": 26.8197605, "tags": {"addr:city": "Buz\u0103u", "addr:postcode": "120038", "addr:street": "Aleea Trandafirilor", "amenity": "pharmacy", "brand": "Dr. Max", "brand:wikidata": "Q56317371", "brand:wikipedia": "fr:Dr.Max", "dispensing": "yes", "healthcare": "pharmacy", "name": "Dr. Max"}}, {"type": "node", "id": 9610390165, "lat": 45.1519389, "lon": 26.8197504, "tags": {"addr:city": "Buz\u0103u", "addr:postcode": "120195", "addr:street": "Strada Ostrovului", "amenity": "pharmacy", "dispensing": "yes", "healthcare": "pharmacy", "name": "Maxi Drogherie"}}, {"type": "node", "id": 9706665836, "lat": 45.2056234, "lon": 26.7315406, "tags": {"amenity": "pharmacy", "dispensing": "yes", "healthcare": "pharmacy", "name": "Farmacie"}}, {"type": "node", "id": 9825931890, "lat": 45.1612225, "lon": 26.8799929, "tags": {"amenity": "pharmacy", "dispensing": "yes", "healthcare": "pharmacy", "name": "Farmacia EvoFarm"}}, {"type": "node", "id": 9825931910, "lat": 45.1379438, "lon": 26.9026769, "tags": {"amenity": "pharmacy", "dispensing": "yes", "healthcare": "pharmacy", "name": "Farmacia Evo Farm"}}, {"type": "node", "id": 9830455044, "lat": 44.9961091, "lon": 26.8612062, "tags": {"amenity": "pharmacy", "dispensing": "yes", "healthcare": "pharmacy", "name": "Farmacie Smeeni"}}, {"type": "node", "id": 10816170999, "lat": 45.1531007, "lon": 26.7975398, "tags": {"addr:city": "Buz\u0103u", "addr:street": "Bulevardul Stadionului", "amenity": "pharmacy", "healthcare": "pharmacy", "name": "Medimfarm", "operator": "Medimfarm"}}, {"type": "node", "id": 11070621179, "lat": 45.3826373, "lon": 27.0404173, "tags": {"addr:city": "R\u00e2mnicu S\u0103rat", "amenity": "pharmacy", "brand": "Catena", "brand:wikidata": "Q24035728", "healthcare": "pharmacy", "name": "Catena"}}, {"type": "node", "id": 11556228259, "lat": 45.1540881, "lon": 26.8211405, "tags": {"addr:housenumber": "2", "addr:street": "Strada Ana Ip\u0103tescu", "amenity": "pharmacy", "healthcare": "pharmacy", "name": "Jeni Pharm SRL", "operator": "Jeni Pharm SRL", "phone": "0238715262"}}, {"type": "node", "id": 11610237984, "lat": 45.2854672, "lon": 26.6844242, "tags": {"amenity": "pharmacy", "healthcare": "pharmacy", "name": "Farmacia Alphega"}}, {"type": "node", "id": 11610237985, "lat": 45.2855059, "lon": 26.6843451, "tags": {"amenity": "pharmacy", "healthcare": "pharmacy", "name": "Farmacia Veterinar\u0103 Iris"}}, {"type": "node", "id": 11610237998, "lat": 45.2860332, "lon": 26.683062, "tags": {"amenity": "pharmacy", "healthcare": "pharmacy"}}, {"type": "node", "id": 12282756709, "lat": 45.0474774, "lon": 26.7583702, "tags": {"amenity": "pharmacy", "name": "Farmacia Evofarm", "opening_hours": "Mo-Fr 08:00-16:00", "phone": "0238.536.290"}}, {"type": "node", "id": 12846531122, "lat": 45.1520119, "lon": 26.8101261, "tags": {"amenity": "pharmacy", "brand": "Dr. Max", "brand:wikidata": "Q56317371", "dispensing": "yes", "drive_through": "no", "healthcare": "pharmacy", "name": "Dr. Max"}}, {"type": "way", "id": 364026444, "nodes": [3681361072, 3681361073, 3681361074, 3681361075, 3681361072], "tags": {"amenity": "pharmacy", "building": "yes", "healthcare": "pharmacy", "name": "Farmacia Iris Pharm"}}, {"type": "way", "id": 372405106, "nodes": [3759617475, 3759617476, 3759617477, 3759617478, 3759617475], "tags": {"addr:city": "Buz\u0103u", "addr:postcode": "120188", "addr:street": "Strada Ostrovului", "amenity": "pharmacy", "brand": "Catena", "brand:wikidata": "Q24035728", "building": "yes", "healthcare": "pharmacy", "name": "Catena", "roof:shape": "gabled"}}, {"type": "way", "id": 905939480, "nodes": [8412979082, 8412979083, 8412979084, 8412979085, 8412979082], "tags": {"addr:city": "C\u00e2nde\u0219ti", "addr:postcode": "127677", "addr:street": "\u0218oseaua Bra\u0219ovului", "amenity": "pharmacy", "brand": "Pharmacie Principale", "brand:wikidata": "Q1547749", "brand:wikipedia": "fr:Groupe PP Holding", "building": "yes", "dispensing": "yes", "drive_through": "no", "healthcare": "pharmacy", "name": "Farmacia IrisPharm", "opening_hours": "Mo-Fr 08:00-17:00", "roof:shape": "gabled"}}]}