{"version": 0.6, "generator": "Overpass API 0.7.62.8 e802775f", "osm3s": {"timestamp_osm_base": "2025-10-06T08:40:23Z", "copyright": "The data included in this document is from www.openstreetmap.org. The data is made available under ODbL."}, "elements": [{"type": "node", "id": 481917750, "lat": 51.2084693, "lon": 22.5866019, "tags": {"amenity": "pharmacy", "check_date:opening_hours": "2024-09-02", "dispensing": "yes", "healthcare": "pharmacy", "name": "Vikamed - Apteka", "opening_hours": "Mo-Fr 08:00-20:00; Sa 09:00-14:00", "phone": "814691526", "ref:csioz": "1163003"}}, {"type": "node", "id": 481917906, "lat": 51.2769622, "lon": 22.3708521, "tags": {"amenity": "pharmacy", "dispensing": "yes", "healthcare": "pharmacy", "name": "Punkt Apteczny", "ref:csioz": "1106391"}}, {"type": "node", "id": 774626973, "lat": 51.2279466, "lon": 22.5317117, "tags": {"amenity": "pharmacy", "dispensing": "yes", "healthcare": "pharmacy", "name": "Apteka Vital Centrum", "ref:csioz": "1162278"}}, {"type": "node", "id": 892295048, "lat": 51.1107269, "lon": 22.3878939, "tags": {"addr:city": "Niedrzwica Du\u017ca", "addr:housenumber": "57", "addr:postcode": "24-220", "addr:street": "Partyzancka", "amenity": "pharmacy", "dispensing": "yes", "healthcare": "pharmacy", "opening_hours": "Mo-Fr 08:00-16:00; Sa 08:00-13:00", "ref:csioz": "1162948"}}, {"type": "node", "id": 952466335, "lat": 51.2518214, "lon": 22.5702659, "tags": {"amenity": "pharmacy", "brand": "Dr. Max", "brand:wikidata": "Q56317371", "brand:wikipedia": "fr:Dr.Max", "dispensing": "yes", "healthcare": "pharmacy", "name": "Apteka Dr Max", "opening_hours": "Mo-Fr 07:00-20:00; Sa 07:00-18:00", "ref:csioz": "1161749"}}, {"type": "node", "id": 961692406, "lat": 51.2359646, "lon": 22.6042148, "tags": {"amenity": "pharmacy", "dispensing": "yes", "healthcare": "pharmacy", "name": "Apteka Hipoteczna", "ref:csioz": "1194836"}}, {"type": "node", "id": 1106457915, "lat": 51.1374233, "lon": 22.8480811, "tags": {"addr:city": "Piaski", "addr:housenumber": "16", "addr:postcode": "21-050", "addr:street": "Partyzant\u00f3w", "amenity": "pharmacy", "dispensing": "yes", "healthcare": "pharmacy", "name": "Aspirynka", "opening_hours": "Mo-Fr 08:00-18:00; Sa 08:00-13:00", "phone": "+48 81 5821368", "ref:csioz": "1157575", "source:addr": "piaskiswidnickie.e-mapa.net"}}, {"type": "node", "id": 1106457933, "lat": 51.1370769, "lon": 22.846135, "tags": {"addr:city": "Piaski", "addr:housenumber": "17", "addr:postcode": "21-050", "addr:street": "Braci Spoz\u00f3w", "amenity": "pharmacy", "dispensing": "yes", "healthcare": "pharmacy", "name": "Premiumlek", "opening_hours": "Mo-Fr 08:00-18:00; Sa 08:00-13:00", "ref:csioz": "1162752", "source:addr": "piaskiswidnickie.e-mapa.net"}}, {"type": "node", "id": 1198707654, "lat": 51.2512992, "lon": 22.5695576, "tags": {"amenity": "pharmacy", "brand": "Gemini", "brand:wikidata": "Q130243797", "check_date": "2025-02-08", "check_date:opening_hours": "2024-11-10", "dispensing": "yes", "healthcare": "pharmacy", "name": "Gemini", "opening_hours": "Mo-Fr 07:00-20:00; Sa 08:00-16:00", "payment:cash": "yes", "payment:credit_cards": "yes", "payment:debit_cards": "yes", "ref:csioz": "1162638"}}, {"type": "node", "id": 1337897967, "lat": 51.2204285, "lon": 22.629392, "tags": {"amenity": "pharmacy", "dispensing": "yes", "name": "Apteka", "ref:csioz": "1158392"}}, {"type": "node", "id": 1468368932, "lat": 51.2245512, "lon": 22.5049999, "tags": {"amenity": "pharmacy", "dispensing": "yes", "healthcare": "pharmacy", "name": "Apteka Por\u0119ba", "ref:csioz": "1197442"}}, {"type": "node", "id": 1572662906, "lat": 51.2498813, "lon": 22.567035, "tags": {"addr:city": "Lublin", "addr:housenumber": "25", "addr:postcode": "20-115", "addr:street": "Lubartowska", "amenity": "pharmacy", "brand": "Dbam o Zdrowie", "brand:wikidata": "Q62563833", "check_date:opening_hours": "2024-12-28", "dispensing": "yes", "healthcare": "pharmacy", "name": "Dbam o Zdrowie", "opening_hours": "Mo-Fr 08:00-20:00; Sa 08:00-15:00", "ref:csioz": "1163389", "short_name": "DOZ", "wheelchair": "no"}}, {"type": "node", "id": 1633854691, "lat": 51.20055, "lon": 22.5435543, "tags": {"amenity": "pharmacy", "dispensing": "yes", "healthcare": "pharmacy", "name": "Apteka Pod S\u0142o\u0144cem", "ref:csioz": "1158740"}}, {"type": "node", "id": 1812703223, "lat": 51.2213156, "lon": 22.415907, "tags": {"addr:city:simc": "0383455", "addr:housenumber": "56a", "addr:place": "Marynin", "addr:postcode": "21-030", "amenity": "pharmacy", "dispensing": "yes", "healthcare": "pharmacy", "opening_hours": "Mo-Fr 08:00-18:00; Sa 08:00-13:00", "ref:csioz": "1161850", "source:addr": "konopnica.e-mapa.net"}}, {"type": "node", "id": 1820455539, "lat": 51.2478516, "lon": 22.5960017, "tags": {"amenity": "pharmacy", "brand": "Dbam o Zdrowie", "brand:wikidata": "Q62563833", "dispensing": "yes", "healthcare": "pharmacy", "name": "Dbam o Zdrowie", "ref:csioz": "1163408"}}, {"type": "node", "id": 1838212532, "lat": 51.228982, "lon": 22.5233, "tags": {"addr:city": "Lublin", "addr:housenumber": "4", "addr:postcode": "20-538", "addr:street": "Jutrzenki", "amenity": "pharmacy", "brand": "Dbam o Zdrowie", "brand:wikidata": "Q62563833", "dispensing": "yes", "drive_through": "no", "healthcare": "pharmacy", "name": "Dbam o Zdrowie", "opening_hours": "Mo-Sa 08:00-20:00", "phone": "+48 815261754", "ref:csioz": "1158477", "short_name": "DOZ", "website": "https://www.doz.pl"}}, {"type": "node", "id": 1843648307, "lat": 51.2373706, "lon": 22.5486948, "tags": {"amenity": "pharmacy", "dispensing": "yes", "healthcare": "pharmacy", "ref:csioz": "1158952"}}, {"type": "node", "id": 1866579985, "lat": 51.1101632, "lon": 22.3861527, "tags": {"addr:city": "Niedrzwica Du\u017ca", "addr:housenumber": "16", "addr:postcode": "24-220", "addr:street": "Kr\u00f3tka", "amenity": "pharmacy", "dispensing": "yes", "healthcare": "pharmacy", "name": "Nova", "opening_hours": "Mo-Fr 08:00-18:00; Sa 08:00-14:00", "ref:csioz": "1163172", "source:addr": "niedrzwicaduza.e-mapa.net"}}, {"type": "node", "id": 2122669358, "lat": 51.050095, "lon": 22.446725, "tags": {"amenity": "pharmacy", "dispensing": "yes", "fixme": "Lokalizacja apteki do weryfikacji", "note": "Apteka w rejestrze MZ ma adres Strzy\u017cewice 9 ale nie potrafi\u0119 jej poprawnie zlokalizowa\u0107.", "ref:csioz": "1158983"}}, {"type": "node", "id": 2234852718, "lat": 51.3039601, "lon": 22.435348, "tags": {"addr:city": "Panie\u0144szczyzna", "addr:housenumber": "51B", "addr:postcode": "21-002", "addr:street": "Aleja Warszawska", "amenity": "pharmacy", "dispensing": "yes", "healthcare": "pharmacy", "opening_hours": "Mo-Fr 08:00-18:00; Sa 08:00-14:00", "ref:csioz": "1163998", "source:addr": "jastkow.e-mapa.net"}}, {"type": "node", "id": 2265887046, "lat": 51.2634156, "lon": 22.5454792, "tags": {"amenity": "pharmacy", "dispensing": "yes", "healthcare": "pharmacy", "name": "Zdrowit", "ref:csioz": "1158359"}}, {"type": "node", "id": 2394862504, "lat": 51.2590299, "lon": 22.5698762, "tags": {"amenity": "pharmacy", "dispensing": "yes", "healthcare": "pharmacy", "name": "Apteka Eskulap", "opening_hours": "24/7", "phone": "+48817473622", "ref:csioz": "1158415", "wheelchair": "yes"}}, {"type": "node", "id": 2399236763, "lat": 51.250872, "lon": 22.5311448, "tags": {"amenity": "pharmacy", "brand": "Dbam o Zdrowie", "brand:wikidata": "Q62563833", "dispensing": "yes", "healthcare": "pharmacy", "name": "Dbam o Zdrowie", "ref:csioz": "1163328", "short_name": "DOZ"}}, {"type": "node", "id": 2399236764, "lat": 51.2488291, "lon": 22.5306218, "tags": {"addr:city": "Lublin", "addr:housenumber": "7", "addr:postcode": "20-043", "addr:street": "Spadochroniarzy", "amenity": "pharmacy", "dispensing": "yes", "healthcare": "pharmacy", "name": "Vital Centrum", "ref:csioz": "1158601"}}, {"type": "node", "id": 2430256215, "lat": 51.2396702, "lon": 22.5526343, "tags": {"amenity": "pharmacy", "dispensing": "yes", "healthcare": "pharmacy", "name": "Apteka Izabela Serwan", "opening_hours": "Mo-Fr 07:00-20:00; Sa 07:00-15:00", "ref:csioz": "1162196"}}, {"type": "node", "id": 2450604508, "lat": 51.210455, "lon": 22.5443743, "tags": {"addr:city": "Lublin", "addr:housenumber": "108", "addr:postcode": "20-470", "addr:street": "Wac\u0142awa i Zofii Na\u0142kowskich", "amenity": "pharmacy", "dispensing": "yes", "healthcare": "pharmacy", "opening_hours": "Mo-Fr 08:00-20:00; Sa 08:00-15:00", "ref:csioz": "1163536"}}, {"type": "node", "id": 2463401601, "lat": 51.2306491, "lon": 22.4919054, "tags": {"amenity": "pharmacy", "dispensing": "yes", "name": "Apteka \u015awit", "ref:csioz": "1158630"}}, {"type": "node", "id": 2651910153, "lat": 51.2222589, "lon": 22.7013274, "tags": {"addr:city": "\u015awidnik", "addr:housenumber": "8i", "addr:postcode": "21-040", "addr:street": "Genera\u0142a Leopolda Okulickiego", "amenity": "pharmacy", "dispensing": "yes", "healthcare": "pharmacy", "opening_hours": "Mo-Fr 08:00-19:00; Sa 08:00-14:00", "phone": "+48 81 7591420", "ref:csioz": "1163817", "source:addr": "EMUiA (swidnik.e-mapa.net)"}}, {"type": "node", "id": 2664006608, "lat": 51.243513, "lon": 22.5267855, "tags": {"amenity": "pharmacy", "check_date:opening_hours": "2024-05-06", "dispensing": "yes", "name": "Apteka", "opening_hours": "Mo-Fr 08:00-19:00; Sa 08:00-14:00", "ref:csioz": "1158538"}}, {"type": "node", "id": 2664044981, "lat": 51.2495807, "lon": 22.5578865, "tags": {"amenity": "pharmacy", "dispensing": "yes", "healthcare": "pharmacy", "name": "Apteka Centrum", "opening_hours": "Mo-Fr 07:00-20:00; Sa 08:00-16:00", "ref:csioz": "1162207"}}, {"type": "node", "id": 2679004811, "lat": 51.2558157, "lon": 22.4649236, "tags": {"amenity": "pharmacy", "dispensing": "yes", "healthcare": "pharmacy", "name": "Pigu\u0142a", "ref:csioz": "1227566"}}, {"type": "node", "id": 2812824617, "lat": 51.0960352, "lon": 22.5796394, "tags": {"addr:housenumber": "16", "addr:place": "Jab\u0142onna-Maj\u0105tek", "addr:postcode": "23-114", "amenity": "pharmacy", "dispensing": "yes", "healthcare": "pharmacy", "opening_hours": "Mo-Fr 08:00-16:00; Sa 08:00-12:00", "phone": "+48 81 561 05 23", "ref:csioz": "1161875", "source:addr": "jablonnalubelska.e-mapa.net"}}, {"type": "node", "id": 2839593687, "lat": 51.2304195, "lon": 22.5196129, "tags": {"amenity": "pharmacy", "dispensing": "yes", "name": "Apteka Rodzinna", "ref:csioz": "1202126"}}, {"type": "node", "id": 2839604548, "lat": 51.229409, "lon": 22.5206506, "tags": {"amenity": "pharmacy", "dispensing": "yes", "healthcare": "pharmacy", "name": "SALIX", "opening_hours": "Mo-Fr 08:00-21:00; Sa 08:00-16:00; Su 09:00-15:00", "operator": "Wolska Sp\u00f3\u0142ka Jawna", "phone": "+48 81 442 62 22", "ref:csioz": "1157542"}}, {"type": "node", "id": 2866498818, "lat": 51.2347951, "lon": 22.5103482, "tags": {"addr:city": "Lublin", "addr:housenumber": "20A", "addr:postcode": "20-552", "addr:street": "Kawaleryjska", "amenity": "pharmacy", "dispensing": "yes", "name": "Apteka Na B\u0142oniach", "opening_hours": "Mo-Fr 08:00-20:00; Sa 09:00-15:00; Su 9:00-14:00", "ref:csioz": "1162920"}}, {"type": "node", "id": 2874091806, "lat": 51.2701463, "lon": 22.5050113, "tags": {"amenity": "pharmacy", "dispensing": "yes", "healthcare": "pharmacy", "name": "Mediki", "ref:csioz": "1231279"}}, {"type": "node", "id": 2909992098, "lat": 51.2592014, "lon": 22.5848664, "tags": {"addr:city": "Lublin", "addr:country": "PL", "addr:housenumber": "2g", "addr:postcode": "20-137", "addr:street": "Marii Koryznowej", "amenity": "pharmacy", "dispensing": "yes", "healthcare": "pharmacy", "ref:csioz": "1163069"}}, {"type": "node", "id": 2997250779, "lat": 51.0917344, "lon": 22.2841266, "tags": {"addr:housenumber": "231", "addr:place": "Borzech\u00f3w-Kolonia", "addr:postcode": "24-224", "amenity": "pharmacy", "dispensing": "yes", "healthcare": "pharmacy", "opening_hours": "Mo-Fr 08:00-16:00", "ref:csioz": "1162726", "source:addr": "borzechow.e-mapa.net"}}, {"type": "node", "id": 2998373907, "lat": 51.16365, "lon": 22.23103, "tags": {"addr:housenumber": "35C", "addr:place": "Kr\u0119\u017cnica Okr\u0105g\u0142a", "addr:postcode": "24-200", "amenity": "pharmacy", "dispensing": "yes", "healthcare": "pharmacy", "opening_hours": "Mo-Fr 08:00-17:00; Sa 08:00-13:00", "ref:csioz": "1158345", "source:addr": "belzyce.e-mapa.net"}}, {"type": "node", "id": 3026183331, "lat": 51.2149257, "lon": 22.7042027, "tags": {"addr:city": "\u015awidnik", "addr:city:simc": "0957146", "addr:housenumber": "8", "addr:postcode": "21-040", "addr:street": "Rac\u0142awicka", "addr:street:sym_ul": "18273", "amenity": "pharmacy", "dispensing": "yes", "healthcare": "pharmacy", "opening_hours": "Mo-Fr 08:00-20:00; Sa 08:00-14:00", "phone": "+48 81 4682300", "ref:csioz": "1162973", "source:addr": "swidnik.e-mapa.net"}}, {"type": "node", "id": 3026262335, "lat": 51.2177034, "lon": 22.6930312, "tags": {"addr:city": "\u015awidnik", "addr:city:simc": "0957146", "addr:housenumber": "6 A", "addr:postcode": "21-040", "addr:street": "Marsza\u0142ka J\u00f3zefa Pi\u0142sudskiego", "addr:street:sym_ul": "36029", "amenity": "pharmacy", "dispensing": "yes", "healthcare": "pharmacy", "opening_hours": "Mo-Fr 08:00-20:00; Sa 08:00-14:00", "phone": "+48 81 4680821", "ref:csioz": "1163825"}}, {"type": "node", "id": 3026264020, "lat": 51.2169968, "lon": 22.6985563, "tags": {"addr:city": "\u015awidnik", "addr:city:simc": "0957146", "addr:housenumber": "17", "addr:postcode": "21-040", "addr:street": "Kardyna\u0142a Stefana Wyszy\u0144skiego", "addr:street:sym_ul": "25107", "amenity": "pharmacy", "dispensing": "yes", "healthcare": "pharmacy", "name": "Vita-Centrum", "opening_hours": "Mo-Sa 08:00-20:00; Su 11:00-18:00", "phone": "+48 81 7591752", "ref:csioz": "1159107", "source:addr": "swidnik.e-mapa.net"}}, {"type": "node", "id": 3026268979, "lat": 51.216048, "lon": 22.6941631, "tags": {"addr:city": "\u015awidnik", "addr:housenumber": "39", "addr:postcode": "21-040", "addr:street": "Rac\u0142awicka", "amenity": "pharmacy", "dispensing": "yes", "healthcare": "pharmacy", "name": "Fragal", "opening_hours": "24/7", "phone": "+48 81 7513545", "ref:csioz": "1161803", "source:addr": "EMUiA (swidnik.e-mapa.net)"}}, {"type": "node", "id": 3026292477, "lat": 51.2203866, "lon": 22.6964031, "tags": {"addr:city": "\u015awidnik", "addr:housenumber": "5", "addr:postcode": "21-040", "addr:street": "Niepodleg\u0142o\u015bci", "amenity": "pharmacy", "brand": "Dbam o Zdrowie", "brand:wikidata": "Q62563833", "dispensing": "yes", "healthcare": "pharmacy", "name": "Dbam o Zdrowie", "opening_hours": "Mo-Sa 08:00-20:00; Su 09:00-20:00", "phone": "+48 81 7512512", "ref:csioz": "1163470", "short_name": "DOZ", "source:addr": "EMUiA (swidnik.e-mapa.net)"}}, {"type": "node", "id": 3026292482, "lat": 51.2206116, "lon": 22.6949719, "tags": {"addr:city": "\u015awidnik", "addr:housenumber": "1", "addr:postcode": "21-040", "addr:street": "Niepodleg\u0142o\u015bci", "amenity": "pharmacy", "dispensing": "yes", "healthcare": "pharmacy", "name": "Luxfarm", "opening_hours": "Mo-Fr 08:00-20:00; Sa 08:00-14:00", "phone": "+48 81 4750402", "ref:csioz": "1110944", "source:addr": "EMUiA (swidnik.e-mapa.net)"}}, {"type": "node", "id": 3026292483, "lat": 51.2206273, "lon": 22.6948691, "tags": {"amenity": "pharmacy", "name": "Akson", "shop": "medical_supply"}}, {"type": "node", "id": 3028855519, "lat": 51.2149147, "lon": 22.7071696, "tags": {"addr:city": "\u015awidnik", "addr:housenumber": "1", "addr:postcode": "21-040", "addr:street": "Rac\u0142awicka", "amenity": "pharmacy", "dispensing": "yes", "healthcare": "pharmacy", "opening_hours": "Mo-Fr 08:00-20:00; Sa 08:00-15:00", "phone": "+48 81 7513434", "ref:csioz": "1162335", "source:addr": "EMUiA (swidnik.e-mapa.net)"}}, {"type": "node", "id": 3056471724, "lat": 51.2606464, "lon": 22.565941, "tags": {"amenity": "pharmacy", "healthcare": "pharmacy", "ref:csioz": "1163729", "source:disused": "Rejestr aptek MZ"}}, {"type": "node", "id": 3056471731, "lat": 51.2608501, "lon": 22.565576, "tags": {"amenity": "pharmacy", "brand": "Dbam o Zdrowie", "brand:wikidata": "Q62563833", "dispensing": "yes", "healthcare": "pharmacy", "name": "Dbam o Zdrowie", "opening_hours": "24/7", "ref:csioz": "1216278", "short_name": "DOZ"}}, {"type": "node", "id": 3170793172, "lat": 51.2319891, "lon": 22.612652, "tags": {"amenity": "pharmacy", "brand": "Super-Pharm", "brand:wikidata": "Q13220217", "brand:wikipedia": "en:Super-Pharm", "dispensing": "yes", "healthcare": "pharmacy", "level": "0", "name": "Super-Pharm", "name:he": "\u05e1\u05d5\u05e4\u05e8-\u05e4\u05d0\u05e8\u05dd", "opening_hours": "Mo-Sa 09:00-21:00; Su 09:00-20:00", "ref:csioz": "1170037", "website": "https://www.superpharm.pl/"}}, {"type": "node", "id": 3276481254, "lat": 51.2321086, "lon": 22.5372064, "tags": {"amenity": "pharmacy", "dispensing": "yes", "healthcare": "pharmacy", "name": "Apteka Lubelska", "ref:csioz": "1178273"}}, {"type": "node", "id": 3292795907, "lat": 51.2680273, "lon": 22.5411226, "tags": {"amenity": "pharmacy", "dispensing": "yes", "healthcare": "pharmacy", "name": "Apteka Prima", "opening_hours": "Mo-Fr 08:00-21:00; Sa 08:00-19:00; Su 10:00-17:00", "ref:csioz": "1165552", "wheelchair": "yes"}}, {"type": "node", "id": 3401464836, "lat": 51.2322557, "lon": 22.5903647, "tags": {"amenity": "pharmacy", "dispensing": "yes", "name": "Sulap", "opening_hours": "Mo-Fr 08:00-20:00;Sa 08:00-15:00", "ref:csioz": "1162450"}}, {"type": "node", "id": 3538912198, "lat": 51.1947414, "lon": 22.5842307, "tags": {"amenity": "pharmacy", "dispensing": "yes", "healthcare": "pharmacy", "name": "Apteka Nova", "opening_hours": "Mo-Fr 08:00-20:30; Sa 08:00-19:00; Su 09:00-17:00", "ref:csioz": "1212732"}}, {"type": "node", "id": 3627100981, "lat": 51.2312549, "lon": 22.5073848, "tags": {"amenity": "pharmacy", "dispensing": "yes", "name": "Apteka Natura", "opening_hours": "Mo-Fr 08:00-20:00; Sa 08:00-15:00", "ref:csioz": "1163940"}}, {"type": "node", "id": 3640298808, "lat": 51.2586176, "lon": 22.5714079, "tags": {"amenity": "pharmacy", "dispensing": "yes", "healthcare": "pharmacy", "name": "Same Dobe Apteki - Apteka Eskulap", "opening_hours": "24/7", "operator": "Same dobre apteki", "phone": "+48814653738", "ref:csioz": "1122725", "website": "http://www.obywatelska4.pl/", "wheelchair": "yes"}}, {"type": "node", "id": 3640480783, "lat": 51.2290151, "lon": 22.5149942, "tags": {"amenity": "pharmacy", "brand": "Dbam o Zdrowie", "brand:wikidata": "Q62563833", "dispensing": "yes", "healthcare": "pharmacy", "name": "Dbam o Zdrowie", "ref:csioz": "1163353", "short_name": "DOZ"}}, {"type": "node", "id": 3646321696, "lat": 51.2523655, "lon": 22.5742527, "tags": {"amenity": "pharmacy", "dispensing": "yes", "healthcare": "pharmacy", "name": "Apteka Magnolia", "opening_hours": "Mo-Fr 08:00-20:00, Sa 08:00-15:00", "ref:csioz": "1161472"}}, {"type": "node", "id": 3720993766, "lat": 51.2479098, "lon": 22.5628032, "tags": {"amenity": "pharmacy", "check_date": "2024-11-10", "dispensing": "yes", "healthcare": "pharmacy", "name": "Apteka Na Deptaku", "opening_hours": "24/7", "ref:csioz": "1174978"}}, {"type": "node", "id": 3793886422, "lat": 51.2492378, "lon": 22.5766096}, {"type": "node", "id": 3793886425, "lat": 51.2492502, "lon": 22.576604}, {"type": "node", "id": 3793888519, "lat": 51.2492309, "lon": 22.5768598}, {"type": "node", "id": 3808029725, "lat": 51.2525203, "lon": 22.5393157, "tags": {"amenity": "pharmacy", "dispensing": "yes", "drive_through": "no", "healthcare": "pharmacy", "name": "Apteka Barbara Wybraniec", "opening_hours": "Mo-Fr 08:00-19:00; Sa 8:00-14:00", "operator": "Barbara Wybraniec", "payment:account_cards": "yes", "payment:blik": "yes", "payment:cash": "yes", "payment:credit_cards": "yes", "payment:debit_cards": "yes", "ref:csioz": "1158873"}}, {"type": "node", "id": 3815553568, "lat": 51.2600846, "lon": 22.5450271, "tags": {"amenity": "pharmacy", "dispensing": "yes", "healthcare": "pharmacy", "name": "VITA", "ref:csioz": "1153563"}}, {"type": "node", "id": 3832532433, "lat": 51.2504588, "lon": 22.5645738, "tags": {"amenity": "pharmacy", "check_date:opening_hours": "2025-09-09", "dispensing": "yes", "healthcare": "pharmacy", "name": "Mediki", "opening_hours": "Mo-Fr 08:00-20:00; Sa 09:00-14:00", "ref:csioz": "1162783"}}, {"type": "node", "id": 3832532434, "lat": 51.2211117, "lon": 22.5007219, "tags": {"addr:city": "Lublin", "addr:housenumber": "12", "addr:postcode": "20-582", "addr:street": "Onyksowa", "amenity": "pharmacy", "dispensing": "yes", "healthcare": "pharmacy", "name": "Prima", "opening_hours": "Mo-Fr 08:00-20:00; Sa 08:00-14:00", "ref:csioz": "1111063"}}, {"type": "node", "id": 3834535621, "lat": 51.2788659, "lon": 22.6609606, "tags": {"amenity": "pharmacy", "dispensing": "yes", "healthcare": "pharmacy", "ref:csioz": "1157949"}}, {"type": "node", "id": 3846731975, "lat": 51.2165686, "lon": 22.5803359, "tags": {"amenity": "pharmacy", "dispensing": "yes", "name": "Apteka Lubelska", "opening_hours": "Mo-Fr 08:00-20:00; Sa 08:00-18:00", "ref:csioz": "1191150"}}, {"type": "node", "id": 4053728297, "lat": 51.2751915, "lon": 22.5742577, "tags": {"amenity": "pharmacy", "dispensing": "yes", "healthcare": "pharmacy", "name": "Apteka \"na Do\u017cynkowej\"", "opening_hours": "Mo-Fr 08:00-20:00; Sa 08:00-15:00", "phone": "+48817403995", "ref:csioz": "1163167", "wheelchair": "yes"}}, {"type": "node", "id": 4053728299, "lat": 51.260983, "lon": 22.5952602, "tags": {"amenity": "pharmacy", "check_date": "2025-02-16", "dispensing": "yes", "healthcare": "pharmacy", "name": "Apteka Bajeczna", "opening_hours": "Mo-Fr 08:00-20:00; Sa 08:00-15:00; Su off", "ref:csioz": "1176089"}}, {"type": "node", "id": 4053728300, "lat": 51.2248275, "lon": 22.4849967, "tags": {"amenity": "pharmacy", "dispensing": "yes", "healthcare": "pharmacy", "name": "Apteka Koralowa", "opening_hours": "Mo-Fr 08:00-19:00; Sa 08:00-15:00", "ref:csioz": "1171926"}}, {"type": "node", "id": 4053728301, "lat": 51.2690493, "lon": 22.5489557, "tags": {"addr:city": "Lublin", "addr:housenumber": "8", "addr:postcode": "20-853", "addr:street": "Wojciecha \u017bywnego", "amenity": "pharmacy", "dispensing": "yes", "healthcare": "pharmacy", "name": "Gemini", "ref:csioz": "1217714"}}, {"type": "node", "id": 4053728302, "lat": 51.2486829, "lon": 22.5979753, "tags": {"amenity": "pharmacy", "dispensing": "yes", "healthcare": "pharmacy", "name": "Apteka Markut", "ref:csioz": "1157550"}}, {"type": "node", "id": 4053728303, "lat": 51.261846, "lon": 22.5539763, "tags": {"amenity": "pharmacy", "dispensing": "yes", "healthcare": "pharmacy", "name": "Apteka Mikstura", "ref:csioz": "1157767"}}, {"type": "node", "id": 4053728305, "lat": 51.2231557, "lon": 22.5301923, "tags": {"amenity": "pharmacy", "contact:phone": "+48814583841", "dispensing": "yes", "name": "Apteka Lubelska", "ref:csioz": "1191169"}}, {"type": "node", "id": 4053728306, "lat": 51.2362749, "lon": 22.5050771, "tags": {"addr:city": "Lublin", "addr:housenumber": "10", "addr:postcode": "20-554", "addr:street": "U\u0142an\u00f3w", "amenity": "pharmacy", "dispensing": "yes", "healthcare": "pharmacy", "name": "Apteka Rodzinna", "opening_hours": "Mo-Fr 08:00-20:00; Sa 08:00-16:00; Su 09:00-14:00", "ref:csioz": "1210615"}}, {"type": "node", "id": 4053728307, "lat": 51.1918209, "lon": 22.5972383, "tags": {"amenity": "pharmacy", "dispensing": "yes", "name": "Apteka", "ref:csioz": "1163520"}}, {"type": "node", "id": 4053728308, "lat": 51.2028076, "lon": 22.5444595, "tags": {"amenity": "pharmacy", "dispensing": "yes", "healthcare": "pharmacy", "name": "Apteka Zdrowotna", "ref:csioz": "1110701"}}, {"type": "node", "id": 4053728309, "lat": 51.2082683, "lon": 22.5441045, "tags": {"amenity": "pharmacy", "dispensing": "yes", "healthcare": "pharmacy", "name": "Apteka Salutis", "opening_hours": "Mo-Fr 08:00-20:00; Sa 08:00-15:00", "ref:csioz": "1161915"}}, {"type": "node", "id": 4053728310, "lat": 51.2229923, "lon": 22.5198542, "tags": {"amenity": "pharmacy", "dispensing": "yes", "name": "Apteka Salutis", "ref:csioz": "1163497"}}, {"type": "node", "id": 4053728311, "lat": 51.2296495, "lon": 22.5102352, "tags": {"amenity": "pharmacy", "dispensing": "yes", "healthcare": "pharmacy", "name": "Apteka", "opening_hours": "Mo-Fr 08:00-20:00, Sa 9:00-15:00", "ref:csioz": "1163613"}}, {"type": "node", "id": 4053728313, "lat": 51.2321935, "lon": 22.5924338, "tags": {"amenity": "pharmacy", "dispensing": "yes", "name": "Apteka \u0141ab\u0119dzia", "ref:csioz": "1158064"}}, {"type": "node", "id": 4053728314, "lat": 51.2327433, "lon": 22.5692951, "tags": {"amenity": "pharmacy", "dispensing": "yes", "name": "Apteka", "ref:csioz": "1163659"}}, {"type": "node", "id": 4053728315, "lat": 51.2334765, "lon": 22.5962424, "tags": {"amenity": "pharmacy", "dispensing": "yes", "ref:csioz": "1158078"}}, {"type": "node", "id": 4053728316, "lat": 51.2341698, "lon": 22.5699418, "tags": {"amenity": "pharmacy", "dispensing": "yes", "name": "Apteka", "ref:csioz": "1178533"}}, {"type": "node", "id": 4053728323, "lat": 51.2498628, "lon": 22.5629786, "tags": {"amenity": "pharmacy", "dispensing": "yes", "healthcare": "pharmacy", "name": "Apteka Dzieci\u0105tka Jezus", "ref:csioz": "1161632"}}, {"type": "node", "id": 4053728325, "lat": 51.2518864, "lon": 22.5191618, "tags": {"addr:city": "Lublin", "addr:housenumber": "24/44", "addr:postcode": "20-802", "addr:street": "Kolorowa", "amenity": "pharmacy", "dispensing": "yes", "healthcare": "pharmacy", "name": "Apteka", "opening_hours": "Mo-Fr 08:00-20:00; Sa 08:00-14:00", "ref:csioz": "1158960"}}, {"type": "node", "id": 4053728327, "lat": 51.2657225, "lon": 22.5210261, "tags": {"amenity": "pharmacy", "brand": "Dbam o Zdrowie", "brand:wikidata": "Q62563833", "dispensing": "yes", "healthcare": "pharmacy", "name": "Dbam o Zdrowie", "ref:csioz": "1158376", "short_name": "DOZ"}}, {"type": "node", "id": 4053728328, "lat": 51.2742329, "lon": 22.5472176, "tags": {"amenity": "pharmacy", "dispensing": "yes", "healthcare": "pharmacy", "name": "Apteka Eurofarm Agnieszka Rahnama", "opening_hours": "Mo-Fr 09:00-18:00; Sa 09:00-13:00", "ref:csioz": "1157925"}}, {"type": "node", "id": 4053728330, "lat": 51.2514068, "lon": 22.5283868, "tags": {"amenity": "pharmacy", "dispensing": "yes", "name": "Apteka Rogatka Warszawska", "ref:csioz": "1157847"}}, {"type": "node", "id": 4056200926, "lat": 51.2498948, "lon": 22.5620297, "tags": {"amenity": "pharmacy", "dispensing": "yes", "healthcare": "pharmacy", "name": "Farmvita", "opening_hours": "Mo-Fr 08:00-20:00; Sa 08:00-13:00", "ref:csioz": "1157709"}}, {"type": "node", "id": 4056200927, "lat": 51.2570703, "lon": 22.5709537, "tags": {"addr:city": "Lublin", "addr:housenumber": "64", "addr:postcode": "20-123", "addr:street": "Lubartowska", "amenity": "pharmacy", "dispensing": "yes", "healthcare": "pharmacy", "name": "Apteka Milenium", "opening_hours": "Mo-Fr 07:00-20:00; Sa 08:00-14:00", "ref:csioz": "1157751"}}, {"type": "node", "id": 4056200929, "lat": 51.2568244, "lon": 22.5894636, "tags": {"amenity": "pharmacy", "dispensing": "yes", "healthcare": "pharmacy", "name": "Apteka Prima", "ref:csioz": "1158514"}}, {"type": "node", "id": 4057332696, "lat": 51.2215612, "lon": 22.4990046, "tags": {"amenity": "pharmacy", "dispensing": "yes", "email": "iapteka@aptekacentrum.lublin.pl", "name": "Apteka Rodzinna", "opening_hours": "Mo-Fr 07:30-20:30; Sa 08:00-16:00; Su 09:00-15:00", "ref:csioz": "1185788", "website": "https://aptekacentrum.lublin.pl/"}}, {"type": "node", "id": 4057332698, "lat": 51.2404601, "lon": 22.5002033, "tags": {"amenity": "pharmacy", "dispensing": "yes", "name": "Apteka Melisa", "opening_hours": "Mo-Fr 08:00-20:00; Sa 08:00-14:00", "phone": "+48 815259594", "ref:csioz": "1158572"}}, {"type": "node", "id": 4057332699, "lat": 51.2396211, "lon": 22.5122444, "tags": {"amenity": "pharmacy", "dispensing": "yes", "healthcare": "pharmacy", "name": "Apteka Promienna", "ref:csioz": "1162936"}}, {"type": "node", "id": 4060048713, "lat": 51.2400744, "lon": 22.5282729, "tags": {"amenity": "pharmacy", "dispensing": "yes", "name": "Apteka Esculap", "ref:csioz": "1161570"}}, {"type": "node", "id": 4060048714, "lat": 51.2511212, "lon": 22.6004842, "tags": {"amenity": "pharmacy", "dispensing": "yes", "healthcare": "pharmacy", "name": "Apteka Eurofarm", "opening_hours": "Mo-Sa 09:00-21:00; Fr 09:00-21:30; Su 09:00-20:00", "ref:csioz": "1157611", "wheelchair": "yes"}}, {"type": "node", "id": 4060048717, "lat": 51.2463686, "lon": 22.534394, "tags": {"addr:housenumber": "16", "addr:street": "Mariana Langiewicza", "amenity": "pharmacy", "check_date": "2023-02-26", "dispensing": "yes", "healthcare": "pharmacy", "internet_access": "no", "name": "Apteka Studencka", "opening_hours": "Mo-Fr 08:00-18:00; Sa 09:00-14:00; Su off", "payment:blik": "yes", "payment:mastercard": "yes", "payment:visa": "yes", "phone": "+48 81 533 01 29", "ref:csioz": "1158625", "wheelchair": "yes"}}, {"type": "node", "id": 4060048718, "lat": 51.2369771, "lon": 22.5734903, "tags": {"addr:city": "Lublin", "addr:housenumber": "7a", "addr:postcode": "20-307", "addr:street": "Ko\u015bcielna", "amenity": "pharmacy", "dispensing": "yes", "name": "Apteka Tilia", "ref:csioz": "1163034", "source:addr": "EMUiA (emuia.geoportal.gov.pl)"}}, {"type": "node", "id": 4060048720, "lat": 51.24008, "lon": 22.5215206, "tags": {"addr:city": "Lublin", "addr:housenumber": "27/1", "addr:postcode": "20-601", "addr:street": "Tomasza Zana", "amenity": "pharmacy", "check_date": "2023-06-03", "dispensing": "yes", "healthcare": "pharmacy", "name": "Apteka na Zana", "opening_hours": "24/7", "phone": "+48 815280298", "ref:csioz": "1157410"}}, {"type": "node", "id": 4060048721, "lat": 51.230497, "lon": 22.5906428, "tags": {"amenity": "pharmacy", "dispensing": "yes", "name": "Apteka Na Kra\u0144cowej", "ref:csioz": "1158918"}}, {"type": "node", "id": 4060048722, "lat": 51.2319377, "lon": 22.5908477, "tags": {"amenity": "pharmacy", "dispensing": "yes", "healthcare": "pharmacy", "name": "Niezapominajka", "ref:csioz": "1208446"}}, {"type": "node", "id": 4060048724, "lat": 51.2404339, "lon": 22.537748, "tags": {"amenity": "pharmacy", "check_date:opening_hours": "2024-03-10", "dispensing": "yes", "healthcare": "pharmacy", "name": "Apteka", "opening_hours": "Mo-Fr 07:00-20:00; Sa 07:00-15:00", "ref:csioz": "1161664"}}, {"type": "node", "id": 4060048725, "lat": 51.2412806, "lon": 22.517633, "tags": {"amenity": "pharmacy", "dispensing": "yes", "name": "Vital Centrum", "ref:csioz": "1158509"}}, {"type": "node", "id": 4060048727, "lat": 51.2445528, "lon": 22.5557479, "tags": {"amenity": "pharmacy", "dispensing": "yes", "healthcare": "pharmacy", "name": "Apteka Mgr Farm. Barbara Stanicka", "ref:csioz": "1158836"}}, {"type": "node", "id": 4060048728, "lat": 51.2472415, "lon": 22.55745, "tags": {"amenity": "pharmacy", "dispensing": "yes", "healthcare": "pharmacy", "ref:csioz": "1161524"}}, {"type": "node", "id": 4060048729, "lat": 51.2496487, "lon": 22.5168416, "tags": {"amenity": "pharmacy", "brand": "Dbam o Zdrowie", "brand:wikidata": "Q62563833", "dispensing": "yes", "healthcare": "pharmacy", "name": "Dbam o Zdrowie", "opening_hours": "Mo-Fr 08:00-19:00; Sa 08:00-14:00", "ref:csioz": "1158242", "short_name": "DOZ"}}, {"type": "node", "id": 4060048730, "lat": 51.2556953, "lon": 22.5825486, "tags": {"amenity": "pharmacy", "dispensing": "yes", "healthcare": "pharmacy", "name": "Apteka Alicja Doraczy\u0144ska-Szopa J\u00f3zefa Petkowicz", "ref:csioz": "1157958"}}, {"type": "node", "id": 4060048731, "lat": 51.255805, "lon": 22.5801495, "tags": {"addr:city": "Lublin", "addr:housenumber": "12", "addr:postcode": "20-128", "addr:street": "Lwowska", "amenity": "pharmacy", "dispensing": "yes", "healthcare": "pharmacy", "name": "Niezapominajka Dla Ca\u0142ej Rodziny", "ref:csioz": "1230344"}}, {"type": "node", "id": 4060048734, "lat": 51.2653059, "lon": 22.5209844, "tags": {"amenity": "pharmacy", "dispensing": "yes", "name": "Apteka", "phone": "+48 81 527 64 43", "ref:csioz": "1158402", "website": "http://www.apteka100.pl/?tarasowa-1,7"}}, {"type": "node", "id": 4060048737, "lat": 51.2692897, "lon": 22.5772537, "tags": {"addr:city": "Lublin", "addr:housenumber": "58", "addr:postcode": "20-144", "addr:street": "Bazylian\u00f3wka", "amenity": "pharmacy", "dispensing": "yes", "healthcare": "pharmacy", "name": "Apteka Na Bazylian\u00f3wce", "opening_hours": "Mo-Sa 08:00-21:00; Su 09:00-20:00", "ref:csioz": "1158300", "wheelchair": "yes"}}, {"type": "node", "id": 4060048740, "lat": 51.2387469, "lon": 22.5213908, "tags": {"amenity": "pharmacy", "dispensing": "yes", "healthcare": "pharmacy", "name": "Vital Centrum", "ref:csioz": "1173206"}}, {"type": "node", "id": 4060048741, "lat": 51.2448358, "lon": 22.5498514, "tags": {"addr:city": "Lublin", "addr:housenumber": "1a", "addr:street": "Obro\u0144c\u00f3w Pokoju", "amenity": "pharmacy", "dispensing": "yes", "healthcare": "pharmacy", "level": "0", "name": "Dr Zdrowie", "ref:csioz": "1157606"}}, {"type": "node", "id": 4060048742, "lat": 51.2408578, "lon": 22.518949, "tags": {"amenity": "pharmacy", "brand": "Dr. Max", "brand:wikidata": "Q56317371", "brand:wikipedia": "fr:Dr.Max", "dispensing": "yes", "healthcare": "pharmacy", "name": "Dr. Max", "ref:csioz": "1161730"}}, {"type": "node", "id": 4068153936, "lat": 51.2358488, "lon": 22.492856, "tags": {"amenity": "pharmacy", "dispensing": "yes", "healthcare": "pharmacy", "name": "Apteka", "ref:csioz": "1157714"}}, {"type": "node", "id": 4079193544, "lat": 51.2703702, "lon": 22.5817589, "tags": {"amenity": "pharmacy", "dispensing": "yes", "healthcare": "pharmacy", "name": "Nova", "opening_hours": "Mo-Fr 08:00-20:00, Sa 08:00-14:00", "ref:csioz": "1192476", "wheelchair": "yes"}}, {"type": "node", "id": 4117132192, "lat": 51.1744663, "lon": 22.5103881, "tags": {"amenity": "pharmacy", "dispensing": "yes", "healthcare": "pharmacy", "name": "Apteka Zemborzycka", "ref:csioz": "1162037"}}, {"type": "node", "id": 4117148007, "lat": 51.1990775, "lon": 22.5421369, "tags": {"amenity": "pharmacy", "brand": "Dbam o Zdrowie", "brand:wikidata": "Q62563833", "dispensing": "yes", "healthcare": "pharmacy", "name": "Dbam o Zdrowie", "ref:csioz": "1157399", "short_name": "DOZ"}}, {"type": "node", "id": 4117159459, "lat": 51.2378114, "lon": 22.5311183, "tags": {"addr:city": "Lublin", "addr:housenumber": "44a", "addr:postcode": "20-609", "addr:street": "Filaret\u00f3w", "amenity": "pharmacy", "brand": "Gemini", "brand:wikidata": "Q130243797", "dispensing": "yes", "healthcare": "pharmacy", "name": "Gemini", "ref:csioz": "1161842"}}, {"type": "node", "id": 4117194301, "lat": 51.2452846, "lon": 22.5574861, "tags": {"amenity": "pharmacy", "dispensing": "yes", "healthcare": "pharmacy", "name": "Apteka Premium - Lek", "opening_hours": "Mo-Sa 06:00-22:00; PH,Su 09:00-22:00", "ref:csioz": "1222349"}}, {"type": "node", "id": 4117227788, "lat": 51.2521798, "lon": 22.5854129, "tags": {"addr:city": "Lublin", "addr:housenumber": "46a", "addr:postcode": "20-201", "addr:street": "Kalinowszczyzna", "amenity": "pharmacy", "brand": "Dbam o Zdrowie", "brand:wikidata": "Q62563833", "dispensing": "yes", "healthcare": "pharmacy", "name": "Dbam o Zdrowie", "opening_hours": "Mo-Fr 08:00-20:00; Sa 08:00-16:00", "ref:csioz": "1163366", "short_name": "DOZ"}}, {"type": "node", "id": 4117256989, "lat": 51.2433497, "lon": 22.5905663, "tags": {"amenity": "pharmacy", "dispensing": "yes", "healthcare": "pharmacy", "name": "Apteka Przyjazna", "ref:csioz": "1191378"}}, {"type": "node", "id": 4117296197, "lat": 51.2475495, "lon": 22.5544352, "tags": {"addr:city": "Lublin", "addr:housenumber": "70", "addr:postcode": "20-076", "addr:street": "Krakowskie Przedmie\u015bcie", "amenity": "pharmacy", "brand": "Ziko Apteka", "brand:wikidata": "Q63432892", "check_date": "2023-05-27", "description": "Ziko Apteka zlokalizowana jest w Lublinie przy ul. Krakowskie Przedmie\u015bcie 70. Czynna jest przez 6 dni w tygodniu \u2013 od poniedzia\u0142ku do soboty. W niedziele plac\u00f3wka jest nieczynna.", "dispensing": "yes", "healthcare": "pharmacy", "name": "Ziko Apteka", "opening_hours": "Mo-Fr 08:00-20:00, Sa 08:00-16:00", "payment:cash": "yes", "payment:coins": "yes", "payment:mastercard": "yes", "payment:visa": "yes", "phone": "+48 12 687 57 47", "ref:csioz": "1199792", "short_name": "Ziko", "website": "https://www.ziko.pl/lublin-apteki-drogerie-ziko/krakowskie-przedmiescie-70/"}}, {"type": "node", "id": 4139288023, "lat": 51.2503386, "lon": 22.5538943, "tags": {"amenity": "pharmacy", "dispensing": "yes", "healthcare": "pharmacy", "name": "Apteka Hipoteczna", "ref:csioz": "1222554", "source": "MPZP"}}, {"type": "node", "id": 4139298099, "lat": 51.2533402, "lon": 22.5351336, "tags": {"amenity": "pharmacy", "dispensing": "yes", "healthcare": "pharmacy", "name": "Apteka Salutis", "ref:csioz": "1163573"}}, {"type": "node", "id": 4139315316, "lat": 51.2284358, "lon": 22.5851645, "tags": {"amenity": "pharmacy", "dispensing": "yes", "name": "Apteka", "ref:csioz": "1161902"}}, {"type": "node", "id": 4159210495, "lat": 51.2858542, "lon": 22.2136835, "tags": {"addr:city": "Na\u0142\u0119cz\u00f3w", "addr:city:simc": "0956454", "addr:housenumber": "3", "addr:postcode": "24-150", "addr:street": "Lipowa", "amenity": "pharmacy", "dispensing": "yes", "drive_through": "no", "healthcare": "pharmacy", "name": "Vital Centrum", "opening_hours": "Mo-Sa 08:00-18:00", "ref:csioz": "1157516"}}, {"type": "node", "id": 4234179933, "lat": 51.2398746, "lon": 22.5043555, "tags": {"amenity": "pharmacy", "brand": "Dbam o Zdrowie", "brand:wikidata": "Q62563833", "dispensing": "yes", "healthcare": "pharmacy", "name": "Dbam o Zdrowie", "ref:csioz": "1157569", "short_name": "DOZ"}}, {"type": "node", "id": 4340931101, "lat": 51.2209835, "lon": 22.4308725, "tags": {"addr:city:simc": "0383432", "addr:housenumber": "67A", "addr:place": "Kozubszczyzna", "addr:postcode": "21-030", "amenity": "pharmacy", "dispensing": "yes", "healthcare": "pharmacy", "name": "Vital Centrum", "opening_hours": "Mo-Sa 08:00-20:00", "ref:csioz": "1194197"}}, {"type": "node", "id": 4345553368, "lat": 51.2466404, "lon": 22.5535231, "tags": {"addr:city": "Lublin", "addr:housenumber": "4", "addr:postcode": "20-027", "addr:street": "Hipoteczna", "amenity": "pharmacy", "dispensing": "yes", "healthcare": "pharmacy", "name": "Apteka Hipoteczna Tanie Leki", "ref:csioz": "1162076"}}, {"type": "node", "id": 4349054589, "lat": 51.263999, "lon": 22.6343402, "tags": {"addr:housenumber": "6C", "addr:place": "W\u00f3lka", "addr:postcode": "20-258", "amenity": "pharmacy", "dispensing": "yes", "healthcare": "pharmacy", "name": "Rodzinnna", "ref:csioz": "1199855"}}, {"type": "node", "id": 4523228989, "lat": 51.2395916, "lon": 22.5500269, "tags": {"amenity": "pharmacy", "dispensing": "yes", "healthcare": "pharmacy", "name": "Jedyna Taka", "ref:csioz": "1206234"}}, {"type": "node", "id": 4624435733, "lat": 51.0371137, "lon": 22.8522716, "tags": {"amenity": "pharmacy", "dispensing": "yes", "healthcare": "pharmacy", "name": "Luxfarm", "opening_hours": "Mo-Fr 08:30-18:00; Sa 08:30-14:00", "phone": "+48 81 5810032", "ref:csioz": "1165673"}}, {"type": "node", "id": 4624435734, "lat": 51.028735, "lon": 22.8504989, "tags": {"addr:housenumber": "84", "addr:place": "Rybczewice Drugie", "addr:postcode": "21-065", "amenity": "pharmacy", "dispensing": "yes", "healthcare": "pharmacy", "opening_hours": "Mo-Fr 08:00-18:00; Sa 09:00-12:00", "phone": "+48 81 5854014", "ref:csioz": "1153618", "source:addr": "rybczewice.e-mapa.net"}}, {"type": "node", "id": 4624435737, "lat": 51.1703251, "lon": 22.75122, "tags": {"addr:housenumber": "91A", "addr:place": "Bystrzejowice Pierwsze", "addr:postcode": "21-050", "amenity": "pharmacy", "dispensing": "yes", "healthcare": "pharmacy", "opening_hours": "Mo-Fr 08:00-16:00; Sa 08:00-11:00", "phone": "+48 81 5810123", "ref:csioz": "1162760", "source:addr": "piaskiswidnickie.e-mapa.net"}}, {"type": "node", "id": 4624435738, "lat": 51.1374321, "lon": 22.8466677, "tags": {"addr:city": "Piaski", "addr:housenumber": "13", "addr:postcode": "21-050", "addr:street": "Braci Spoz\u00f3w", "amenity": "pharmacy", "dispensing": "yes", "healthcare": "pharmacy", "opening_hours": "Mo-Fr 08:00-18:00; Sa 08:00-13:00", "phone": "+48 81 5821417", "ref:csioz": "1162544", "source:addr": "piaskiswidnickie.e-mapa.net"}}, {"type": "node", "id": 4627167329, "lat": 51.2164992, "lon": 22.7080816, "tags": {"addr:city": "\u015awidnik", "addr:housenumber": "17", "addr:postcode": "21-040", "addr:street": "Kosynier\u00f3w", "amenity": "pharmacy", "dispensing": "yes", "healthcare": "pharmacy", "name": "Medyka", "opening_hours": "Mo-Fr 08:00-20:00; Sa 08:00-14:00", "ref:csioz": "1196438"}}, {"type": "node", "id": 4627167330, "lat": 51.2163429, "lon": 22.6994282, "tags": {"addr:city": "\u015awidnik", "addr:housenumber": "22", "addr:postcode": "21-040", "addr:street": "Kardyna\u0142a Stefana Wyszy\u0144skiego", "amenity": "pharmacy", "brand": "Gemini", "dispensing": "yes", "healthcare": "pharmacy", "name": "Gemini", "opening_hours": "Mo-Fr 07:00-21:00; Sa 08:00-20:00; Su 09:00-15:00", "ref:csioz": "1208148"}}, {"type": "node", "id": 4627167331, "lat": 51.2209023, "lon": 22.7081105, "tags": {"addr:city": "\u015awidnik", "addr:housenumber": "20B", "addr:postcode": "21-040", "addr:street": "Genera\u0142a Leopolda Okulickiego", "amenity": "pharmacy", "dispensing": "yes", "healthcare": "pharmacy", "name": "Top-Farm", "opening_hours": "Mo-Fr 08:00-20:00; Sa 08:00-14:00", "phone": "+48 81 4680881", "ref:csioz": "1188252"}}, {"type": "node", "id": 4627167332, "lat": 51.2204484, "lon": 22.700553, "tags": {"addr:city": "\u015awidnik", "addr:city:simc": "0957146", "addr:housenumber": "6", "addr:postcode": "21-040", "addr:street": "Kardyna\u0142a Stefana Wyszy\u0144skiego", "addr:street:sym_ul": "25107", "amenity": "pharmacy", "dispensing": "yes", "healthcare": "pharmacy", "name": "Niezapominajka Dla Ca\u0142ej Rodziny", "opening_hours": "Mo-Fr 08:00-20:00; Sa 08:00-16:00", "ref:csioz": "1210224", "source:addr": "swidnik.e-mapa.net"}}, {"type": "node", "id": 4627167351, "lat": 51.222536, "lon": 22.6997963, "tags": {"addr:city": "\u015awidnik", "addr:housenumber": "9", "addr:postcode": "21-040", "addr:street": "Targowa", "amenity": "pharmacy", "dispensing": "yes", "healthcare": "pharmacy", "name": "Przy Hali", "opening_hours": "Mo-Fr 08:00-19:00; Sa 08:00-14:00", "phone": "+48 81 4689300", "ref:csioz": "1188979", "source:addr": "EMUiA (swidnik.e-mapa.net)"}}, {"type": "node", "id": 4627167650, "lat": 51.2282359, "lon": 22.7805393, "tags": {"addr:city": "Me\u0142giew", "addr:city:simc": "0385862", "addr:housenumber": "31", "addr:postcode": "21-007", "addr:street": "Ko\u015bcielna", "addr:street:sym_ul": "09546", "amenity": "pharmacy", "brand": "Dbam o Zdrowie", "brand:wikidata": "Q62563833", "dispensing": "yes", "healthcare": "pharmacy", "name": "Dbam o Zdrowie", "opening_hours": "Mo-Fr 08:00-20:00; Sa 08:00-14:00", "phone": "+48 81 4670511", "ref:csioz": "1162174", "short_name": "DOZ", "source:addr": "emuia1.gugik.gov.pl"}}, {"type": "node", "id": 4627167809, "lat": 51.21264, "lon": 22.712385, "tags": {"addr:city": "\u015awidnik", "addr:city:simc": "0957146", "addr:housenumber": "2", "addr:postcode": "21-040", "addr:street": "Janusza Kusoci\u0144skiego", "addr:street:sym_ul": "10493", "amenity": "pharmacy", "brand": "Dbam o Zdrowie", "brand:wikidata": "Q62563833", "dispensing": "yes", "healthcare": "pharmacy", "name": "Dbam o Zdrowie", "opening_hours": "Mo-Sa 07:00-22:00; Su 07:00-21:00", "phone": "+48 81 7517518", "ref:csioz": "1163252", "short_name": "DOZ", "source:addr": "swidnik.e-mapa.net"}}, {"type": "node", "id": 4627167819, "lat": 51.215198, "lon": 22.6997309, "tags": {"addr:city": "\u015awidnik", "addr:housenumber": "26", "addr:postcode": "21-040", "addr:street": "Kardyna\u0142a Stefana Wyszy\u0144skiego", "amenity": "pharmacy", "dispensing": "yes", "healthcare": "pharmacy", "name": "Fragal", "opening_hours": "Mo-Fr 08:00-20:00; Sa 08:00-14:00", "phone": "+48 81 7516520", "ref:csioz": "1170362"}}, {"type": "node", "id": 4716560850, "lat": 51.1743024, "lon": 22.2822003, "tags": {"addr:city": "Be\u0142\u017cyce", "addr:housenumber": "45", "addr:postcode": "24-200", "addr:street": "Tysi\u0105clecia", "amenity": "pharmacy", "dispensing": "yes", "healthcare": "pharmacy", "opening_hours": "Mo-Fr 08:00-18:00; Sa 08:00-13:00", "ref:csioz": "1164028", "source:addr": "belzyce.e-mapa.net"}}, {"type": "node", "id": 4716560869, "lat": 51.1751582, "lon": 22.2966076, "tags": {"addr:city": "Be\u0142\u017cyce", "addr:housenumber": "6", "addr:postcode": "24-200", "addr:street": "Fabryczna", "amenity": "pharmacy", "brand": "Centrum Zdrowia", "dispensing": "yes", "healthcare": "pharmacy", "name": "Centrum Zdrowia", "opening_hours": "Mo-Fr 07:00-21:00; Sa 09:00-21:00; Su 09:00-20:00", "ref:csioz": "1203293"}}, {"type": "node", "id": 4716560870, "lat": 51.1733178, "lon": 22.295397, "tags": {"addr:city": "Be\u0142\u017cyce", "addr:housenumber": "22", "addr:postcode": "24-200", "addr:street": "Bychawska", "amenity": "pharmacy", "brand": "Dbam o Zdrowie", "brand:wikidata": "Q62563833", "dispensing": "yes", "healthcare": "pharmacy", "name": "Dbam o Zdrowie", "opening_hours": "Mo-Fr 08:00-20:00; Sa 09:00-17:00", "ref:csioz": "1207236", "short_name": "DOZ", "source:addr": "belzyce.e-mapa.net"}}, {"type": "node", "id": 4716560878, "lat": 51.1764155, "lon": 22.288469, "tags": {"addr:city": "Be\u0142\u017cyce", "addr:housenumber": "57", "addr:postcode": "24-200", "addr:street": "Lubelska", "amenity": "pharmacy", "brand": "Dbam o Zdrowie", "brand:wikidata": "Q62563833", "dispensing": "yes", "healthcare": "pharmacy", "name": "Dbam o Zdrowie", "opening_hours": "Mo-Fr 08:30-20:00; Sa 08:30-15:30", "ref:csioz": "1158234", "short_name": "DOZ", "source:addr": "belzyce.e-mapa.net"}}, {"type": "node", "id": 4716560879, "lat": 51.1752362, "lon": 22.2838148, "tags": {"addr:city": "Be\u0142\u017cyce", "addr:housenumber": "19", "addr:postcode": "24-200", "addr:street": "Lubelska", "amenity": "pharmacy", "dispensing": "yes", "healthcare": "pharmacy", "opening_hours": "Mo-Fr 08:00-18:00; Sa 08:00-14:00", "ref:csioz": "1162806", "source:addr": "belzyce.e-mapa.net"}}, {"type": "node", "id": 4716560881, "lat": 51.172938, "lon": 22.2818793, "tags": {"addr:city": "Be\u0142\u017cyce", "addr:housenumber": "2", "addr:postcode": "24-200", "addr:street": "Bednarska", "amenity": "pharmacy", "brand": "Dbam o Zdrowie", "brand:wikidata": "Q62563833", "dispensing": "yes", "healthcare": "pharmacy", "name": "Dbam o Zdrowie", "opening_hours": "Mo-Fr 08:00-21:00; Sa,Su 08:00-20:00", "ref:csioz": "1163294", "short_name": "DOZ", "source:addr": "belzyce.e-mapa.net"}}, {"type": "node", "id": 4716560882, "lat": 51.1748198, "lon": 22.2836595, "tags": {"addr:city": "Be\u0142\u017cyce", "addr:housenumber": "2", "addr:postcode": "24-200", "addr:street": "Polna", "amenity": "pharmacy", "dispensing": "yes", "healthcare": "pharmacy", "opening_hours": "Mo-Fr 08:00-18:00; Sa 08:00-13:00", "ref:csioz": "1163801", "source:addr": "belzyce.e-mapa.net"}}, {"type": "node", "id": 4716883582, "lat": 51.0133304, "lon": 22.5371601, "tags": {"addr:city": "Bychawa", "addr:city:simc": "0955621", "addr:housenumber": "28", "addr:postcode": "23-100", "addr:street": "Marsza\u0142ka J\u00f3zefa Pi\u0142sudskiego", "addr:street:sym_ul": "16274", "amenity": "pharmacy", "dispensing": "yes", "healthcare": "pharmacy", "name": "Zdrojowa", "opening_hours": "Mo-Fr 07:00-21:00; Sa 07:00-18:00; Su 08:00-15:00", "ref:csioz": "1157486", "source:addr": "bychawa.e-mapa.net"}}, {"type": "node", "id": 4716883583, "lat": 51.0130355, "lon": 22.5392656, "tags": {"addr:city": "Bychawa", "addr:city:simc": "0955621", "addr:housenumber": "36", "addr:postcode": "23-100", "addr:street": "Marsza\u0142ka J\u00f3zefa Pi\u0142sudskiego", "addr:street:sym_ul": "16274", "amenity": "pharmacy", "dispensing": "yes", "healthcare": "pharmacy", "opening_hours": "Mo-Sa 08:00-19:00", "ref:csioz": "1163933", "source:addr": "bychawa.e-mapa.net"}}, {"type": "node", "id": 4716883584, "lat": 51.0153581, "lon": 22.5339646, "tags": {"addr:city": "Bychawa", "addr:city:simc": "0955621", "addr:housenumber": "14", "addr:postcode": "23-100", "addr:street": "Marsza\u0142ka J\u00f3zefa Pi\u0142sudskiego", "addr:street:sym_ul": "16274", "amenity": "pharmacy", "brand": "Centrum Zdrowia", "dispensing": "yes", "healthcare": "pharmacy", "name": "Centrum Zdrowia", "opening_hours": "Mo-Fr 07:00-19:00; Sa 07:00-15:00", "ref:csioz": "1161944", "source:addr": "bychawa.e-mapa.net"}}, {"type": "node", "id": 4716883586, "lat": 51.0148692, "lon": 22.5345583, "tags": {"addr:city": "Bychawa", "addr:city:simc": "0955621", "addr:housenumber": "18", "addr:postcode": "23-100", "addr:street": "Marsza\u0142ka J\u00f3zefa Pi\u0142sudskiego", "addr:street:sym_ul": "16274", "amenity": "pharmacy", "dispensing": "yes", "healthcare": "pharmacy", "name": "Pod Anio\u0142em", "opening_hours": "Mo-Fr 07:00-21:00; Sa 07:00-18:00; Su 09:00-18:00", "ref:csioz": "1184024", "source:addr": "bychawa.e-mapa.net"}}, {"type": "node", "id": 4726727517, "lat": 51.0902326, "lon": 22.3657772, "tags": {"addr:city": "Niedrzwica Ko\u015bcielna", "addr:housenumber": "81", "addr:postcode": "24-220", "addr:street": "Krakowska", "amenity": "pharmacy", "dispensing": "yes", "healthcare": "pharmacy", "name": "Farmacea", "opening_hours": "Mo-Fr 08:00-16:00", "ref:csioz": "1153605", "source:addr": "niedrzwicaduza.e-mapa.net"}}, {"type": "node", "id": 4726727607, "lat": 51.1470613, "lon": 22.5908414, "tags": {"addr:housenumber": "165", "addr:place": "M\u0119t\u00f3w", "addr:postcode": "20-388", "amenity": "pharmacy", "dispensing": "yes", "healthcare": "pharmacy", "opening_hours": "Mo-Fr 08:00-18:00; Sa 08:00-12:00", "ref:csioz": "1162695", "source:addr": "EMUiA (emuia.gugik.gov.pl)"}}, {"type": "node", "id": 4726727688, "lat": 51.0062801, "lon": 22.7075067, "tags": {"addr:city": "Krzczon\u00f3w", "addr:city:simc": "1064634", "addr:housenumber": "12", "addr:postcode": "23-110", "addr:street": "Stefana \u017beromskiego", "addr:street:sym_ul": "26469", "amenity": "pharmacy", "dispensing": "yes", "healthcare": "pharmacy", "name": "Vikamed", "opening_hours": "Mo-Fr 08:00-18:00; Sa 08:00-13:00", "ref:csioz": "1184633", "source:addr": "krzczonow.e-mapa.net"}}, {"type": "node", "id": 4726727989, "lat": 51.0072464, "lon": 22.7140647, "tags": {"addr:city": "Krzczon\u00f3w", "addr:city:simc": "1064634", "addr:housenumber": "9", "addr:postcode": "23-110", "addr:street": "Le\u015bna", "addr:street:sym_ul": "10898", "amenity": "pharmacy", "dispensing": "yes", "healthcare": "pharmacy", "opening_hours": "Mo-Fr 08:00-16:00; Sa 08:00-13:00", "ref:csioz": "1162577", "source:addr": "krzczonow.e-mapa.net"}}, {"type": "node", "id": 4726727990, "lat": 51.0061715, "lon": 22.7092667, "tags": {"addr:city": "Krzczon\u00f3w", "addr:city:simc": "1064634", "addr:housenumber": "6", "addr:postcode": "23-110", "addr:street": "Spokojna", "addr:street:sym_ul": "20677", "amenity": "pharmacy", "dispensing": "yes", "healthcare": "pharmacy", "opening_hours": "Mo-Fr 08:00-16:00; Sa 08:00-13:00", "ref:csioz": "1161953", "source:addr": "krzczonow.e-mapa.net"}}, {"type": "node", "id": 4728232365, "lat": 51.3592352, "lon": 22.6179051, "tags": {"addr:city": "Niemce", "addr:housenumber": "3", "addr:postcode": "21-025", "addr:street": "Zielona", "amenity": "pharmacy", "dispensing": "yes", "healthcare": "pharmacy", "name": "Vikamed", "opening_hours": "Mo-Fr 08:00-18:00; Sa 08:00-13:00", "ref:csioz": "1163016", "source:addr": "niemce.e-mapa.net"}}, {"type": "node", "id": 4728232376, "lat": 51.3594606, "lon": 22.6245842, "tags": {"addr:city": "Niemce", "addr:housenumber": "1", "addr:postcode": "21-025", "addr:street": "R\u00f3\u017cana", "amenity": "pharmacy", "dispensing": "yes", "healthcare": "pharmacy", "opening_hours": "Mo-Fr 08:00-18:00; Sa 08:00-13:00", "ref:csioz": "1162434", "source:addr": "niemce.e-mapa.net"}}, {"type": "node", "id": 4730486329, "lat": 51.249097, "lon": 22.5769185}, {"type": "node", "id": 4730486330, "lat": 51.2490667, "lon": 22.576745}, {"type": "node", "id": 4730486331, "lat": 51.2491228, "lon": 22.5767174}, {"type": "node", "id": 4730486332, "lat": 51.2491185, "lon": 22.5766926}, {"type": "node", "id": 4730486333, "lat": 51.2491301, "lon": 22.5766871}, {"type": "node", "id": 4730486334, "lat": 51.2491254, "lon": 22.5766595}, {"type": "node", "id": 4773432462, "lat": 51.2285113, "lon": 22.5265365, "tags": {"amenity": "pharmacy", "dispensing": "yes", "healthcare": "pharmacy", "name": "Prima", "ref:csioz": "1212668"}}, {"type": "node", "id": 4784229014, "lat": 51.2431422, "lon": 22.5969842, "tags": {"amenity": "pharmacy", "dispensing": "yes", "healthcare": "pharmacy", "level": "0", "name": "Vital Centrum", "ref:csioz": "1206857"}}, {"type": "node", "id": 4836681180, "lat": 51.2895371, "lon": 22.2129185, "tags": {"addr:city": "Na\u0142\u0119cz\u00f3w", "addr:city:simc": "0956454", "addr:housenumber": "7", "addr:postcode": "24-150", "addr:street": "Kolejowa", "amenity": "pharmacy", "dispensing": "yes", "drive_through": "no", "healthcare": "pharmacy", "name": "Vital Centrum", "opening_hours": "Mo-Fr 08:00-18:00", "ref:csioz": "1115143"}}, {"type": "node", "id": 4836681181, "lat": 51.2906316, "lon": 22.2147273, "tags": {"addr:city": "Na\u0142\u0119cz\u00f3w", "addr:city:simc": "0956454", "addr:housenumber": "2/56", "addr:postcode": "24-150", "addr:street": "Fortunata Nowickiego", "amenity": "pharmacy", "dispensing": "yes", "drive_through": "no", "healthcare": "pharmacy", "level": "0", "name": "W Belwederze", "opening_hours": "24/7", "ref:csioz": "1163027", "wheelchair": "yes"}}, {"type": "node", "id": 4843761785, "lat": 51.267258, "lon": 22.5712482, "tags": {"amenity": "pharmacy", "dispensing": "yes", "email": "olimp.lublin@drzdrowie.pl", "healthcare": "pharmacy", "name": "Dr Zdrowie", "phone": "+48814415350", "ref:csioz": "1210537", "website": "https://www.drzdrowie.pl/", "wheelchair": "yes"}}, {"type": "node", "id": 4908707568, "lat": 51.2491074, "lon": 22.5358366, "tags": {"amenity": "pharmacy", "dispensing": "yes", "healthcare": "pharmacy", "name": "Apteka", "opening_hours": "Mo-Fr 08:00-20:00; Sa 08:00-15:00", "ref:csioz": "1215891"}}, {"type": "node", "id": 5145726163, "lat": 51.237953, "lon": 22.5239058, "tags": {"amenity": "pharmacy", "dispensing": "yes", "email": "sawy.lublin@apteka-niezapominajka.pl", "name": "Apteka Niezapominajka", "opening_hours": "Mo-Fr 08:00-20:00; Sa 08:00-16:00", "ref:csioz": "1213781", "website": "http://www.apteka-niezapominajka.pl/apteka/Lublin-Sawy"}}, {"type": "node", "id": 5405785096, "lat": 51.2836856, "lon": 22.571002}, {"type": "node", "id": 5405785097, "lat": 51.2836861, "lon": 22.570941}, {"type": "node", "id": 5522660461, "lat": 51.2632477, "lon": 22.5474228, "tags": {"amenity": "pharmacy", "dispensing": "yes", "healthcare": "pharmacy", "opening_hours": "Mo-Fr 08:00-19:00; Sa 08:00-15:00", "ref:csioz": "1158926", "wheelchair": "yes"}}, {"type": "node", "id": 5588145161, "lat": 51.2680674, "lon": 22.5407993, "tags": {"amenity": "pharmacy", "dispensing": "yes", "healthcare": "pharmacy", "name": "Eskulap II", "opening_hours": "Mo-Fr 07:00-21:00; Sa 08:00-20:00; Su 08:00-17:00", "ref:csioz": "1201620", "wheelchair": "yes"}}, {"type": "node", "id": 5650450466, "lat": 51.2422088, "lon": 22.5247717, "tags": {"amenity": "pharmacy", "check_date:opening_hours": "2024-03-09", "dispensing": "yes", "healthcare": "pharmacy", "name": "Apteka \u015bw \u0141ukasza", "opening_hours": "Mo-Fr 08:00-19:00; Sa 08:00-15:00", "ref:csioz": "1157478"}}, {"type": "node", "id": 5724281417, "lat": 51.2478824, "lon": 22.5670581, "tags": {"addr:city": "Lublin", "addr:housenumber": "2-8", "addr:postcode": "20-111", "addr:street": "Bramowa", "amenity": "pharmacy", "brand": "Dbam o Zdrowie", "brand:wikidata": "Q62563833", "check_date": "2023-05-27", "check_date:opening_hours": "2024-07-03", "dispensing": "yes", "healthcare": "pharmacy", "name": "Dbam o Zdrowie", "opening_hours": "Mo-Su 08:00-20:00", "payment:cards": "yes", "payment:coins": "yes", "payment:credit_cards": "yes", "payment:debit_cards": "yes", "payment:maestro": "yes", "payment:mastercard": "yes", "payment:visa": "yes", "payment:visa_debit": "yes", "payment:visa_electron": "yes", "ref:csioz": "1163331", "short_name": "DOZ"}}, {"type": "node", "id": 5782029592, "lat": 50.9525026, "lon": 22.3867177, "tags": {"amenity": "pharmacy", "dispensing": "yes", "healthcare": "pharmacy", "name": "Apteka Rodzinna", "ref:csioz": "1173759"}}, {"type": "node", "id": 5814346257, "lat": 51.2207773, "lon": 22.6339077, "tags": {"amenity": "pharmacy", "dispensing": "yes", "name": "Nasza Apteka", "ref:csioz": "1203286"}}, {"type": "node", "id": 6030433590, "lat": 51.2588858, "lon": 22.5729638, "tags": {"addr:city": "Lublin", "addr:housenumber": "4", "addr:postcode": "20-126", "addr:street": "Unicka", "amenity": "pharmacy", "brand": "Gemini", "brand:wikidata": "Q130243797", "dispensing": "yes", "healthcare": "pharmacy", "name": "Gemini", "opening_hours": "Mo-Fr 07:00-20:00; Sa 08:00-15:00", "ref:csioz": "1220800"}}, {"type": "node", "id": 6051281042, "lat": 51.2252559, "lon": 22.5638576, "tags": {"amenity": "pharmacy", "dispensing": "yes", "healthcare": "pharmacy", "name": "Apteka", "ref:csioz": "1157464"}}, {"type": "node", "id": 6385800304, "lat": 51.252433, "lon": 22.5706042, "tags": {"amenity": "pharmacy", "brand": "Ziko Apteka", "brand:wikidata": "Q63432892", "dispensing": "yes", "healthcare": "pharmacy", "name": "Ziko Apteka", "opening_hours": "Mo-Fr 07:00-20:00, Sa 08:00-16:00", "payment:cash": "yes", "payment:coins": "yes", "payment:mastercard": "yes", "payment:visa": "yes", "phone": "+48 12 687 57 47", "ref:csioz": "1221378", "short_name": "Ziko", "website": "https://www.ziko.pl/lublin-apteki-drogerie-ziko/nadstawna-2/"}}, {"type": "node", "id": 7030248567, "lat": 51.2845767, "lon": 22.2155786, "tags": {"amenity": "pharmacy", "brand": "Dbam o Zdrowie", "brand:wikidata": "Q62563833", "dispensing": "yes", "drive_through": "no", "healthcare": "pharmacy", "name": "Dbam o Zdrowie", "opening_hours": "Mo-Fr 08:00-20:00; Sa 09:00-19:00; Su 10:00-18:00", "ref:csioz": "1163443", "short_name": "DOZ"}}, {"type": "node", "id": 7195072328, "lat": 51.2466358, "lon": 22.542591, "tags": {"amenity": "pharmacy", "dispensing": "yes", "healthcare": "pharmacy", "name": "Akademicka", "opening_hours": "Mo-Fr 08:00-20:00; Sa 08:00-14:00", "ref:csioz": "1219285"}}, {"type": "node", "id": 8531516423, "lat": 51.1416804, "lon": 22.8297629, "tags": {"amenity": "pharmacy", "dispensing": "yes", "healthcare": "pharmacy", "name": "Punkt Apteczny Vital Centrum", "ref:csioz": "1231093"}}, {"type": "node", "id": 8851461374, "lat": 51.2281368, "lon": 22.5289962, "tags": {"amenity": "pharmacy", "dispensing": "yes", "healthcare": "pharmacy", "name": "Ca\u0142otygodniowa Apteka Familijna", "opening_hours": "Mo-Fr 08:00-20:00, Sat 08:00-15:00", "ref:csioz": "1183360"}}, {"type": "node", "id": 9507036892, "lat": 51.2543503, "lon": 22.532695, "tags": {"amenity": "pharmacy", "check_date": "2025-03-06", "dispensing": "yes", "healthcare": "pharmacy", "name": "Apteka Leki", "opening_hours": "Mo-Fr 07:00-21:00; Sa 08:00-15:00; Su off", "ref:csioz": "1203614", "wheelchair": "limited"}}, {"type": "node", "id": 9512240800, "lat": 51.2835543, "lon": 22.5709488}, {"type": "node", "id": 9512240801, "lat": 51.2836133, "lon": 22.5708919}, {"type": "node", "id": 9512240802, "lat": 51.2836053, "lon": 22.5708706}, {"type": "node", "id": 9512240803, "lat": 51.28367, "lon": 22.5708082}, {"type": "node", "id": 9512240808, "lat": 51.2836005, "lon": 22.5710812}, {"type": "node", "id": 9512240842, "lat": 51.2836913, "lon": 22.5708638}, {"type": "node", "id": 9560919917, "lat": 50.9512175, "lon": 22.3832613, "tags": {"amenity": "pharmacy", "brand": "Dbam o Zdrowie", "brand:wikidata": "Q62563833", "dispensing": "yes", "healthcare": "pharmacy", "name": "Dbam o Zdrowie", "ref:csioz": "1162286", "short_name": "DOZ"}}, {"type": "node", "id": 9560919924, "lat": 51.003989, "lon": 22.3398211, "tags": {"amenity": "pharmacy", "dispensing": "yes", "healthcare": "pharmacy", "ref:csioz": "1188435"}}, {"type": "node", "id": 9560919926, "lat": 50.9516247, "lon": 22.3878992, "tags": {"amenity": "pharmacy", "dispensing": "yes", "healthcare": "pharmacy", "ref:csioz": "1161543"}}, {"type": "node", "id": 9563809650, "lat": 51.1945106, "lon": 22.526922, "tags": {"amenity": "pharmacy", "dispensing": "yes", "name": "Apteka Andria", "ref:csioz": "1226774"}}, {"type": "node", "id": 9563809654, "lat": 51.2257411, "lon": 22.5732363, "tags": {"amenity": "pharmacy", "dispensing": "yes", "name": "Apteka Na Kunickiego", "ref:csioz": "1215556"}}, {"type": "node", "id": 9563809657, "lat": 51.2677392, "lon": 22.5499845, "tags": {"addr:city": "Lublin", "addr:housenumber": "1a", "addr:postcode": "20-853", "addr:street": "\u017belazowej Woli", "amenity": "pharmacy", "dispensing": "yes", "healthcare": "pharmacy", "name": "Niezapominajka", "opening_hours": "Mo-Fr 08:00-20:00; Sa 08:00-16:00", "ref:csioz": "1211975"}}, {"type": "node", "id": 9563809662, "lat": 51.2368776, "lon": 22.4948706, "tags": {"amenity": "pharmacy", "dispensing": "yes", "name": "Apteka W Zone", "opening_hours": "Mo-Sa 09:00-21:00; Su 09:00-18:00", "ref:csioz": "1205773"}}, {"type": "node", "id": 9563809674, "lat": 51.2220369, "lon": 22.5104433, "tags": {"amenity": "pharmacy", "dispensing": "yes", "name": "Apteka Lubelska", "ref:csioz": "1184312", "wheelchair": "yes"}}, {"type": "node", "id": 9563809678, "lat": 51.266011, "lon": 22.5607405, "tags": {"amenity": "pharmacy", "dispensing": "yes", "healthcare": "pharmacy", "ref:csioz": "1163764"}}, {"type": "node", "id": 9563809693, "lat": 51.231655, "lon": 22.585454, "tags": {"addr:city": "Lublin", "addr:housenumber": "7", "addr:postcode": "20-352", "addr:street": "Topolowa", "amenity": "pharmacy", "dispensing": "yes", "healthcare": "pharmacy", "name": "Barbara Borsukiewicz, Ma\u0142gorzata Borsukiewicz, Jerzy Borsukiewicz Sp\u00f3\u0142ka Jawna", "ref:csioz": "1158765"}}, {"type": "node", "id": 9563809708, "lat": 51.2284239, "lon": 22.5220257, "tags": {"amenity": "pharmacy", "dispensing": "yes", "ref:csioz": "1163922"}}, {"type": "node", "id": 9563809712, "lat": 51.2754183, "lon": 22.5450353, "tags": {"amenity": "pharmacy", "dispensing": "yes", "healthcare": "pharmacy", "ref:csioz": "1163585"}}, {"type": "node", "id": 9563809713, "lat": 51.2732559, "lon": 22.554942, "tags": {"amenity": "pharmacy", "dispensing": "yes", "healthcare": "pharmacy", "name": "Apteka Vita", "ref:csioz": "1162957"}}, {"type": "node", "id": 9563809714, "lat": 51.2556899, "lon": 22.5185581, "tags": {"amenity": "pharmacy", "dispensing": "yes", "healthcare": "pharmacy", "name": "Apteka Panaceum", "opening_hours": "Mo-Fr 08:00-20:00; Sa 08:00-14:00", "ref:csioz": "1162502"}}, {"type": "node", "id": 9563819629, "lat": 51.2422561, "lon": 22.5188213, "tags": {"amenity": "pharmacy", "brand": "Dbam o Zdrowie", "brand:wikidata": "Q62563833", "dispensing": "yes", "disused:amenity": "pharmacy", "healthcare": "pharmacy", "name": "Dbam o Zdrowie", "ref:csioz": "1163424", "short_name": "DOZ", "source:disused": "Rejestr Aptek MZ"}}, {"type": "node", "id": 9566101980, "lat": 51.2054476, "lon": 22.5871371, "tags": {"amenity": "pharmacy", "dispensing": "yes", "name": "Neuro Apteka", "ref:csioz": "1216705"}}, {"type": "node", "id": 10592086305, "lat": 51.2672477, "lon": 22.5551223, "tags": {"amenity": "pharmacy", "dispensing": "yes", "healthcare": "pharmacy", "ref:csioz": "1159110"}}, {"type": "node", "id": 10592445338, "lat": 51.0149758, "lon": 22.535172, "tags": {"amenity": "pharmacy", "dispensing": "yes", "healthcare": "pharmacy", "name": "Rodzinna", "ref:csioz": "1210628"}}, {"type": "node", "id": 10592484084, "lat": 51.2893662, "lon": 22.5458797, "tags": {"amenity": "pharmacy", "dispensing": "yes", "healthcare": "pharmacy", "name": "Punkt Apteczny", "ref:csioz": "1173240"}}, {"type": "node", "id": 10592484085, "lat": 51.1708661, "lon": 22.5963548, "tags": {"amenity": "pharmacy", "dispensing": "yes", "healthcare": "pharmacy", "ref:csioz": "1221440"}}, {"type": "node", "id": 10592489985, "lat": 51.2117763, "lon": 22.6437753, "tags": {"amenity": "pharmacy", "dispensing": "yes", "fixme": "Lokalizacja do weryfikacji", "healthcare": "pharmacy", "name": "Na Kalin\u00f3wce", "ref:csioz": "1231363"}}, {"type": "node", "id": 10592489988, "lat": 51.2645591, "lon": 22.6336561, "tags": {"amenity": "pharmacy", "dispensing": "yes", "healthcare": "pharmacy", "name": "Top-Farm", "ref:csioz": "1163548"}}, {"type": "node", "id": 10592489989, "lat": 51.2394322, "lon": 22.2424681, "tags": {"amenity": "pharmacy", "dispensing": "yes", "healthcare": "pharmacy", "name": "Punkt Apteczny Prima", "ref:csioz": "1231001"}}, {"type": "node", "id": 10592489990, "lat": 51.2745085, "lon": 22.6606159, "tags": {"amenity": "pharmacy", "dispensing": "yes", "drive_through": "no", "healthcare": "pharmacy", "ref:csioz": "1163109"}}, {"type": "node", "id": 10592489991, "lat": 51.0873157, "lon": 22.4767175, "tags": {"amenity": "pharmacy", "dispensing": "yes", "healthcare": "pharmacy", "ref:csioz": "1162255"}}, {"type": "node", "id": 10592489992, "lat": 51.0868659, "lon": 22.4783017, "tags": {"amenity": "pharmacy", "dispensing": "yes", "healthcare": "pharmacy", "name": "Amber", "ref:csioz": "1124293"}}, {"type": "node", "id": 10592489993, "lat": 51.2319271, "lon": 22.3032553, "tags": {"amenity": "pharmacy", "dispensing": "yes", "healthcare": "pharmacy", "name": "Punkt Apteczny", "ref:csioz": "1106287"}}, {"type": "node", "id": 10592489994, "lat": 51.3580828, "lon": 22.6200891, "tags": {"amenity": "pharmacy", "dispensing": "yes", "healthcare": "pharmacy", "ref:csioz": "1161641"}}, {"type": "node", "id": 10592489995, "lat": 51.3557742, "lon": 22.6213424, "tags": {"amenity": "pharmacy", "dispensing": "yes", "healthcare": "pharmacy", "name": "Vikamed", "ref:csioz": "1224489"}}, {"type": "node", "id": 10594881677, "lat": 51.3382934, "lon": 22.7624888, "tags": {"amenity": "pharmacy", "dispensing": "yes", "healthcare": "pharmacy", "ref:csioz": "1158119"}}, {"type": "node", "id": 10599729896, "lat": 51.2529834, "lon": 22.1210509, "tags": {"amenity": "pharmacy", "dispensing": "yes", "fixme": "Lokalizacja do weryfikacji", "healthcare": "pharmacy", "name": "Punkt Apteczny", "ref:csioz": "1230793"}}, {"type": "node", "id": 12875748663, "lat": 51.1080124, "lon": 22.587362, "tags": {"amenity": "pharmacy", "name": "Apteka"}}, {"type": "way", "id": 480021930, "nodes": [3793886422, 4730486334, 4730486333, 4730486332, 4730486331, 4730486330, 4730486329, 3793888519, 3793886425, 3793886422], "tags": {"addr:city": "Lublin", "addr:housenumber": "2", "addr:postcode": "20-108", "addr:street": "Aleja Unii Lubelskiej", "amenity": "pharmacy", "brand": "Super-Pharm", "brand:wikidata": "Q13220217", "brand:wikipedia": "en:Super-Pharm", "dispensing": "yes", "healthcare": "pharmacy", "indoor": "room", "level": "0", "name": "Super-Pharm", "opening_hours": "Mo-Sa 09:00-21:00; Su 09:00-20:00", "ref:csioz": "1184019", "wheelchair": "yes"}}, {"type": "way", "id": 1032385139, "nodes": [9512240803, 9512240842, 5405785097, 5405785096, 9512240808, 9512240800, 9512240801, 9512240802, 9512240803], "tags": {"amenity": "pharmacy", "brand": "Dr Zdrowie", "brand:website": "https://www.drzdrowie.pl", "dispensing": "yes", "healthcare": "pharmacy", "indoor": "room", "level": "0", "name": "Dr Zdrowie", "opening_hours": "Mo-Sa 09:00-21:00; Jan 26,Apr 13,Apr 27,Jun 29,Aug 31,Dec 07,Dec 14,Dec 21 Su 09:00-20:00", "phone": "+48 81 452 11 30", "ref:csioz": "1224820", "wheelchair": "yes"}}]}