{"version": 0.6, "generator": "Overpass API 0.7.62.8 e802775f", "osm3s": {"timestamp_osm_base": "2025-10-06T08:37:15Z", "copyright": "The data included in this document is from www.openstreetmap.org. The data is made available under ODbL."}, "elements": [{"type": "node", "id": 3954168159, "lat": 40.1579463, "lon": 26.4189257, "tags": {"addr:city": "\u00c7anakkale", "amenity": "pharmacy", "healthcare": "pharmacy", "name": "Deniz Eczanesi", "phone": "+90 286 214 2454"}}, {"type": "node", "id": 3954168160, "lat": 40.1578375, "lon": 26.4190639, "tags": {"addr:city": "\u00c7anakkale", "amenity": "pharmacy", "healthcare": "pharmacy", "name": "Deniz Eczanesi"}}, {"type": "node", "id": 4071185903, "lat": 40.1496682, "lon": 26.4065554, "tags": {"addr:city": "\u00c7anakkale", "amenity": "pharmacy", "healthcare": "pharmacy", "name": "Barbaros Eczanesi"}}, {"type": "node", "id": 4071185908, "lat": 40.1495986, "lon": 26.4067263, "tags": {"addr:city": "\u00c7anakkale", "amenity": "pharmacy", "healthcare": "pharmacy", "name": "Ye\u015fim Eczanesi"}}, {"type": "node", "id": 4071185909, "lat": 40.1495567, "lon": 26.406705, "tags": {"addr:city": "\u00c7anakkale", "amenity": "pharmacy", "healthcare": "pharmacy", "name": "El\u00e7in Eczanesi"}}, {"type": "node", "id": 4071185910, "lat": 40.1494417, "lon": 26.4066219, "tags": {"addr:city": "\u00c7anakkale", "amenity": "pharmacy", "healthcare": "pharmacy", "name": "Or\u00e7un Eczanesi", "phone": "+90 286 217 4583"}}, {"type": "node", "id": 4071185912, "lat": 40.1489385, "lon": 26.4066183, "tags": {"addr:city": "\u00c7anakkale", "addr:floor": "0", "amenity": "pharmacy", "check_date": "2025-06-05", "healthcare": "pharmacy", "level": "0", "name": "B\u00fc\u015fra Eczanesi", "payment:cash": "yes", "payment:credit_cards": "yes", "payment:debit_cards": "yes", "phone": "+90 286 217 2020", "wheelchair": "no"}}, {"type": "node", "id": 4567895531, "lat": 40.0967159, "lon": 26.390888, "tags": {"amenity": "pharmacy", "healthcare": "pharmacy", "name": "Ya\u011fmur Eczanesi", "phone": "+90 286 262 0217"}}, {"type": "node", "id": 4567895553, "lat": 40.0965904, "lon": 26.3911688, "tags": {"amenity": "pharmacy", "healthcare": "pharmacy", "name": "Ak\u0131n Eczanesi", "phone": "+90 286 263 6168"}}, {"type": "node", "id": 4567895556, "lat": 40.0964396, "lon": 26.391497, "tags": {"amenity": "pharmacy", "healthcare": "pharmacy", "name": "Bet\u00fcl Eczanesi", "name:en": "Yeni Eczane", "name:tr": "Yeni Eczane", "phone": "+90 286 263 5263"}}, {"type": "node", "id": 4567895557, "lat": 40.0963456, "lon": 26.3917175, "tags": {"amenity": "pharmacy", "healthcare": "pharmacy", "name": "Hale Eczanesi"}}, {"type": "node", "id": 9170349014, "lat": 40.1656663, "lon": 26.4147912, "tags": {"amenity": "pharmacy", "dispensing": "yes", "healthcare": "pharmacy", "name": "Ebru Bal Eczanesi", "phone": "+90 286 210 0047"}}, {"type": "node", "id": 9193536046, "lat": 40.1591394, "lon": 26.415641, "tags": {"amenity": "pharmacy", "dispensing": "yes", "healthcare": "pharmacy", "name": "Gazi Eczanesi", "phone": "+90 286 502 0101"}}, {"type": "node", "id": 9540287738, "lat": 40.1649267, "lon": 26.4150201, "tags": {"amenity": "pharmacy", "dispensing": "yes", "healthcare": "pharmacy", "name": "Bulut Eczanesi", "phone": "+90 286 212 6664"}}, {"type": "node", "id": 9545740642, "lat": 40.1601435, "lon": 26.4200524, "tags": {"amenity": "pharmacy", "dispensing": "yes", "healthcare": "pharmacy", "name": "Eczane 17", "phone": "+90 286 217 6317"}}, {"type": "node", "id": 10814382805, "lat": 40.0985355, "lon": 26.4150137, "tags": {"amenity": "pharmacy", "healthcare": "pharmacy", "name": "Bat\u0131 Eczanesi", "phone": "+90 286 502 0656"}}, {"type": "node", "id": 10814382806, "lat": 40.0987495, "lon": 26.414774, "tags": {"amenity": "pharmacy", "healthcare": "pharmacy", "name": "Bilge Eczanesi", "phone": "+90 286 212 0111"}}, {"type": "node", "id": 10814382807, "lat": 40.0999798, "lon": 26.3976893, "tags": {"amenity": "pharmacy", "healthcare": "pharmacy", "name": "Do\u011fa Eczanesi", "phone": "+90 286 263 0504"}}, {"type": "node", "id": 10814382808, "lat": 40.0957068, "lon": 26.3936403, "tags": {"amenity": "pharmacy", "healthcare": "pharmacy", "name": "Kepez Eczanesi", "phone": "+90 286 263 5616"}}, {"type": "node", "id": 10814382809, "lat": 40.1304018, "lon": 26.4108154, "tags": {"amenity": "pharmacy", "healthcare": "pharmacy", "name": "G\u00f6kt\u00fcrk Eczanesi"}}, {"type": "node", "id": 10814382810, "lat": 40.1471335, "lon": 26.4067774, "tags": {"amenity": "pharmacy", "healthcare": "pharmacy", "name": "\u00d6zhan Eczanesi", "phone": "+90 286 217 5972"}}, {"type": "node", "id": 10814382811, "lat": 40.1534447, "lon": 26.4149825, "tags": {"amenity": "pharmacy", "healthcare": "pharmacy", "name": "Nergis Eczanesi", "phone": "+90 286 214 0073"}}, {"type": "node", "id": 10814382812, "lat": 40.181317, "lon": 26.359124, "tags": {"amenity": "pharmacy", "name": "Mert Eczanesi", "phone": "+90 286 814 1919"}}, {"type": "node", "id": 10814382905, "lat": 40.0986605, "lon": 26.414852, "tags": {"access": "yes", "amenity": "pharmacy", "drinking_water": "yes", "healthcare": "pharmacy", "man_made": "water_tap", "material": "concrete", "name": "Hale Eczanesi", "phone": "+90 286 263 0302"}}, {"type": "node", "id": 10814382906, "lat": 40.0989738, "lon": 26.4145132, "tags": {"amenity": "pharmacy", "healthcare": "pharmacy", "name": "Lotus Eczanesi", "phone": "+90 286 501 2005"}}, {"type": "node", "id": 10814382907, "lat": 40.0986315, "lon": 26.4008871, "tags": {"amenity": "pharmacy", "healthcare": "pharmacy", "name": "Al\u0131nteri Eczanesi", "phone": "+90 286 263 0880"}}, {"type": "node", "id": 10814382908, "lat": 40.130279, "lon": 26.411931, "tags": {"amenity": "pharmacy", "healthcare": "pharmacy", "name": "Sibel Eczanesi", "phone": "+90 286 218 4035"}}, {"type": "node", "id": 10814382909, "lat": 40.1354074, "lon": 26.4128366, "tags": {"amenity": "pharmacy", "healthcare": "pharmacy", "name": "G\u00f6zde Eczanesi", "phone": "+90 286 213 0727"}}, {"type": "node", "id": 10814382910, "lat": 40.138981, "lon": 26.4182243, "tags": {"amenity": "pharmacy", "healthcare": "pharmacy", "name": "Ertu\u011frul 17 Eczanesi", "phone": "+90 286 212 0103"}}, {"type": "node", "id": 10814382911, "lat": 40.1396002, "lon": 26.4184964, "tags": {"amenity": "pharmacy", "healthcare": "pharmacy", "name": "Onur Eczanesi", "phone": "+90 286 212 5354"}}, {"type": "node", "id": 10814382912, "lat": 40.1397425, "lon": 26.4079692, "tags": {"amenity": "pharmacy", "healthcare": "pharmacy", "name": "\u015eenol Eczanesi", "phone": "+90 286 213 9929"}}, {"type": "node", "id": 10814382913, "lat": 40.1463388, "lon": 26.4084838, "tags": {"amenity": "pharmacy", "healthcare": "pharmacy", "name": "Asl\u0131han Eczanesi", "phone": "+90 286 212 7231"}}, {"type": "node", "id": 10814382914, "lat": 40.1466711, "lon": 26.4081514, "tags": {"amenity": "pharmacy", "healthcare": "pharmacy", "name": "Yaprak Eczanesi", "phone": "+90 286 217 6036"}}, {"type": "node", "id": 10814382915, "lat": 40.1486503, "lon": 26.4063801, "tags": {"amenity": "pharmacy", "healthcare": "pharmacy", "name": "\u0130rem Eczanesi", "phone": "+90 286 212 1485"}}, {"type": "node", "id": 10814382916, "lat": 40.1517562, "lon": 26.4124016, "tags": {"amenity": "pharmacy", "healthcare": "pharmacy", "name": "Nil Eczanesi", "phone": "+90 286 212 7232"}}, {"type": "node", "id": 10814382917, "lat": 40.1544352, "lon": 26.4109408, "tags": {"amenity": "pharmacy", "healthcare": "pharmacy", "name": "Sa\u011fl\u0131k Eczanesi", "phone": "+90 286 212 5090"}}, {"type": "node", "id": 10814383105, "lat": 40.0985661, "lon": 26.414922, "tags": {"amenity": "pharmacy", "healthcare": "pharmacy", "name": "Barbaros Eczanesi", "phone": "+90 286 213 9075"}}, {"type": "node", "id": 10814383205, "lat": 40.0988233, "lon": 26.4146989, "tags": {"amenity": "pharmacy", "healthcare": "pharmacy", "name": "Meltem T\u00fcrker Eczanesi", "phone": "+90 286 263 1626"}}, {"type": "node", "id": 10814383206, "lat": 40.0988998, "lon": 26.4146523, "tags": {"amenity": "pharmacy", "healthcare": "pharmacy", "name": "Evcim Eczanesi", "phone": "+90 286 213 8039"}}, {"type": "node", "id": 10814383207, "lat": 40.1043746, "lon": 26.408787, "tags": {"amenity": "pharmacy", "healthcare": "pharmacy", "name": "Anafartalar Eczanesi", "phone": "+90 286 263 1454"}}, {"type": "node", "id": 10814383208, "lat": 40.1015044, "lon": 26.3978521, "tags": {"amenity": "pharmacy", "healthcare": "pharmacy", "name": "Yeni Eczanesi", "phone": "+90 286 263 5858"}}, {"type": "node", "id": 10814383209, "lat": 40.0948947, "lon": 26.3948998, "tags": {"amenity": "pharmacy", "healthcare": "pharmacy", "name": "\u00c7i\u011fdem Eczanesi", "phone": "+90 286 263 0752"}}, {"type": "node", "id": 10814383210, "lat": 40.0951614, "lon": 26.3937698, "tags": {"amenity": "pharmacy", "healthcare": "pharmacy", "name": "Bo\u011faz Eczanesi", "phone": "+90 286 263 6563"}}, {"type": "node", "id": 10814383211, "lat": 40.0964156, "lon": 26.3939247, "tags": {"amenity": "pharmacy", "healthcare": "pharmacy", "name": "Ada Eczanesi", "phone": "+90 286 263 1100"}}, {"type": "node", "id": 10814383212, "lat": 40.1231711, "lon": 26.4099043, "tags": {"amenity": "pharmacy", "healthcare": "pharmacy", "name": "On Sekiz Mart Eczanesi", "phone": "+90 286 263 0093"}}, {"type": "node", "id": 10814383213, "lat": 40.1322675, "lon": 26.4091844, "tags": {"amenity": "pharmacy", "healthcare": "pharmacy", "name": "G\u00f6khan Eczanesi", "phone": "+90 286 218 3313"}}, {"type": "node", "id": 10814383214, "lat": 40.1318755, "lon": 26.4112592, "tags": {"amenity": "pharmacy", "healthcare": "pharmacy", "name": "Cadde Eczanesi", "phone": "+90 286 218 9400"}}, {"type": "node", "id": 10814383215, "lat": 40.1393635, "lon": 26.4183718, "tags": {"amenity": "pharmacy", "healthcare": "pharmacy", "name": "Elifcan Eczanesi", "phone": "+90 286 212 5354"}}, {"type": "node", "id": 10814383216, "lat": 40.141744, "lon": 26.4023579, "tags": {"amenity": "pharmacy", "healthcare": "pharmacy", "name": "Damla Eczanesi", "phone": "+90 286 215 0051"}}, {"type": "node", "id": 10814383217, "lat": 40.1426648, "lon": 26.4028873, "tags": {"amenity": "pharmacy", "healthcare": "pharmacy", "name": "\u00c7etin Eczanesi", "phone": "+90 286 217 5394"}}, {"type": "node", "id": 10814383218, "lat": 40.1427886, "lon": 26.4029399, "tags": {"amenity": "pharmacy", "healthcare": "pharmacy", "name": "Ata Eczanesi", "phone": "+90 286 214 2045"}}, {"type": "node", "id": 10814383219, "lat": 40.1444156, "lon": 26.4076898, "tags": {"amenity": "pharmacy", "healthcare": "pharmacy", "name": "Halk Eczanesi", "phone": "+90 286 217 2052"}}, {"type": "node", "id": 10814383220, "lat": 40.1443397, "lon": 26.4072069, "tags": {"amenity": "pharmacy", "healthcare": "pharmacy", "name": "Cumhuriyet Eczanesi", "phone": "+90 286 214 0460"}}, {"type": "node", "id": 10814383221, "lat": 40.1473705, "lon": 26.4088682, "tags": {"amenity": "pharmacy", "healthcare": "pharmacy", "name": "Derya Eczanesi", "phone": "+90 286 814 2551"}}, {"type": "node", "id": 10814383222, "lat": 40.1469326, "lon": 26.4080214, "tags": {"amenity": "pharmacy", "healthcare": "pharmacy", "name": "Akbay Eczanesi", "phone": "+90 286 217 3038"}}, {"type": "node", "id": 10814383223, "lat": 40.1476296, "lon": 26.4079338, "tags": {"amenity": "pharmacy", "healthcare": "pharmacy", "name": "\u0130lksin Eczanesi", "phone": "+90 286 218 3939"}}, {"type": "node", "id": 10814383224, "lat": 40.1471266, "lon": 26.4073274, "tags": {"amenity": "pharmacy", "healthcare": "pharmacy", "name": "G\u00f6ker Eczanesi", "phone": "+90 286 213 3212"}}, {"type": "node", "id": 10814383225, "lat": 40.1472701, "lon": 26.4064497, "tags": {"amenity": "pharmacy", "healthcare": "pharmacy", "name": "Merkez Eczanesi", "phone": "+90 286 217 3440"}}, {"type": "node", "id": 10814383226, "lat": 40.1462038, "lon": 26.4061848, "tags": {"amenity": "pharmacy", "healthcare": "pharmacy", "name": "Narin Eczanesi", "phone": "+90 286 213 5648"}}, {"type": "node", "id": 10814383227, "lat": 40.1454012, "lon": 26.4056532, "tags": {"amenity": "pharmacy", "healthcare": "pharmacy", "name": "\u00c7ar\u015f\u0131 Eczanesi", "phone": "+90 286 217 1615"}}, {"type": "node", "id": 10814383228, "lat": 40.1451851, "lon": 26.4037757, "tags": {"amenity": "pharmacy", "healthcare": "pharmacy", "name": "Deva Eczanesi", "phone": "+90 286 217 4821"}}, {"type": "node", "id": 10814383229, "lat": 40.1460559, "lon": 26.4042596, "tags": {"amenity": "pharmacy", "healthcare": "pharmacy", "name": "\u0130dil Eczanesi", "phone": "+90 286 212 5434"}}, {"type": "node", "id": 10814383230, "lat": 40.146914, "lon": 26.4045943, "tags": {"amenity": "pharmacy", "healthcare": "pharmacy", "name": "Marmara Eczanesi", "phone": "+90 286 217 3116"}}, {"type": "node", "id": 10814383231, "lat": 40.14976, "lon": 26.4033776, "tags": {"amenity": "pharmacy", "healthcare": "pharmacy", "name": "Iskele Eczanesi", "phone": "+90 286 213 5755"}}, {"type": "node", "id": 10814383232, "lat": 40.1511679, "lon": 26.4079978, "tags": {"amenity": "pharmacy", "healthcare": "pharmacy", "name": "El\u00e7in Eczanesi", "phone": "+90 286 217 4707"}}, {"type": "node", "id": 10814383233, "lat": 40.1513818, "lon": 26.4074626, "tags": {"amenity": "pharmacy", "healthcare": "pharmacy", "name": "Ertu\u011frul Eczanesi", "phone": "+90 286 212 4266"}}, {"type": "node", "id": 10814383234, "lat": 40.152063, "lon": 26.4089223, "tags": {"amenity": "pharmacy", "healthcare": "pharmacy", "name": "Umut Eczanesi", "phone": "+90 286 501 0282"}}, {"type": "node", "id": 10814383235, "lat": 40.150287, "lon": 26.4112224, "tags": {"amenity": "pharmacy", "healthcare": "pharmacy", "name": "Ya\u015fam Eczanesi", "phone": "+90 286 212 0056"}}, {"type": "node", "id": 10814383236, "lat": 40.1515474, "lon": 26.4113115, "tags": {"amenity": "pharmacy", "healthcare": "pharmacy", "name": "K\u00f6ksal Eczanesi", "phone": "+90 286 213 5100"}}, {"type": "node", "id": 10814383237, "lat": 40.1512935, "lon": 26.4114105, "tags": {"amenity": "pharmacy", "healthcare": "pharmacy", "name": "Ege Aytap Eczanesi", "phone": "+90 286 212 4565"}}, {"type": "node", "id": 10814383238, "lat": 40.1513136, "lon": 26.4118458, "tags": {"amenity": "pharmacy", "healthcare": "pharmacy", "name": "Duran Eczanesi", "phone": "+90 286 213 6833"}}, {"type": "node", "id": 10814383239, "lat": 40.1562343, "lon": 26.4100829, "tags": {"amenity": "pharmacy", "healthcare": "pharmacy", "name": "Ladin Eczanesi", "phone": "+90 286 217 4602"}}, {"type": "node", "id": 10814383241, "lat": 40.1812916, "lon": 26.3589358, "tags": {"amenity": "pharmacy", "name": "Eceabat Eczanesi", "phone": "+90 286 810 0040"}}, {"type": "node", "id": 10814383305, "lat": 40.1247308, "lon": 26.4110526, "tags": {"amenity": "pharmacy", "healthcare": "pharmacy", "name": "17 Burda Eczanesi", "phone": "+90 286 214 0011"}}, {"type": "node", "id": 10814383306, "lat": 40.1444641, "lon": 26.4071657, "tags": {"amenity": "pharmacy", "healthcare": "pharmacy", "name": "Bahar Eczanesi", "phone": "+90 286 217 2507"}}, {"type": "node", "id": 10814383307, "lat": 40.1462591, "lon": 26.4080631, "tags": {"amenity": "pharmacy", "healthcare": "pharmacy", "name": "\u00c7anakkale Eczanesi", "phone": "+90 286 213 4546"}}, {"type": "node", "id": 10814383308, "lat": 40.1476122, "lon": 26.4082795, "tags": {"amenity": "pharmacy", "healthcare": "pharmacy", "name": "Defne Eczanesi", "phone": "+90 286 212 8881"}}, {"type": "node", "id": 10814383309, "lat": 40.1474739, "lon": 26.4050311, "tags": {"amenity": "pharmacy", "healthcare": "pharmacy", "name": "Yeditepe Eczanesi", "phone": "+90 286 217 3116"}}, {"type": "node", "id": 10814383310, "lat": 40.1520329, "lon": 26.410225, "tags": {"amenity": "pharmacy", "healthcare": "pharmacy", "name": "Hande Eczanesi", "phone": "+90 286 217 3266"}}, {"type": "node", "id": 10814383311, "lat": 40.1513589, "lon": 26.411742, "tags": {"amenity": "pharmacy", "healthcare": "pharmacy", "name": "Troya Eczanesi", "phone": "+90 286 213 6833"}}, {"type": "node", "id": 10814383505, "lat": 40.1317148, "lon": 26.4111962, "tags": {"amenity": "pharmacy", "healthcare": "pharmacy", "name": "Aydo\u011fdu Eczanesi", "phone": "+90 286 218 3350"}}, {"type": "node", "id": 10814384105, "lat": 40.1810331, "lon": 26.3600766, "tags": {"amenity": "pharmacy", "name": "Eyl\u00fcl Eczanesi", "phone": "+90 286 814 2860"}}, {"type": "node", "id": 12894218783, "lat": 39.9795678, "lon": 26.2358143, "tags": {"addr:floor": "0", "amenity": "pharmacy", "check_date": "2025-06-07", "healthcare": "pharmacy", "level": "0", "name": "Eczane Kumkale", "payment:cash": "yes", "payment:credit_cards": "yes", "payment:debit_cards": "yes", "wheelchair": "no"}}]}