{"version": 0.6, "generator": "Overpass API 0.7.62.8 e802775f", "osm3s": {"timestamp_osm_base": "2025-10-06T07:51:29Z", "copyright": "The data included in this document is from www.openstreetmap.org. The data is made available under ODbL."}, "elements": [{"type": "node", "id": 688680021, "lat": 46.376576, "lon": 18.131568, "tags": {"addr:city": "Domb\u00f3v\u00e1r", "addr:housenumber": "27", "addr:postcode": "7200", "addr:street": "Hunyadi t\u00e9r", "amenity": "pharmacy", "contact:phone": "+36 74 565 488", "healthcare": "pharmacy", "name": "Pelik\u00e1n gy\u00f3gyszert\u00e1r", "opening_hours": "Mo-Fr 07:30-20:00; Sa 07:30-14:00"}}, {"type": "node", "id": 688685981, "lat": 46.3695767, "lon": 18.1299357, "tags": {"addr:city": "Domb\u00f3v\u00e1r", "addr:housenumber": "28", "addr:postcode": "7200", "addr:street": "Arany J\u00e1nos t\u00e9r", "amenity": "pharmacy", "contact:phone": "+36 74 565 519;+36 74 461 492", "healthcare": "pharmacy", "name": "Imola Gy\u00f3gyszert\u00e1r", "opening_hours": "Mo-Fr 07:30-18:00; Sa 07:30-11:00"}}, {"type": "node", "id": 688699548, "lat": 46.3841302, "lon": 18.1456002, "tags": {"addr:city": "Domb\u00f3v\u00e1r", "addr:housenumber": "74", "addr:postcode": "7200", "addr:street": "K\u00f3rh\u00e1z utca", "amenity": "pharmacy", "contact:phone": "+36 74 465 216", "healthcare": "pharmacy", "name": "Calendula Patika", "opening_hours": "Mo-We 08:00-17:00; Th-Fr 08:00-16:30"}}, {"type": "node", "id": 688700708, "lat": 46.3813853, "lon": 18.1269927, "tags": {"addr:city": "Domb\u00f3v\u00e1r", "addr:housenumber": "71/E", "addr:postcode": "7200", "addr:street": "R\u00e1k\u00f3czi utca", "amenity": "pharmacy", "contact:phone": "+36 74 565 178", "contact:website": "http://www.koronagyogyszertar.hu", "drive_through": "yes", "healthcare": "pharmacy", "name": "Korona Patika", "opening_hours": "Mo-Fr 07:30-18:00; Sa 07:30-11:00"}}, {"type": "node", "id": 897540005, "lat": 46.4476155, "lon": 18.3168476, "tags": {"amenity": "pharmacy"}}, {"type": "node", "id": 2489693706, "lat": 46.3821571, "lon": 18.1524899, "tags": {"amenity": "pharmacy", "dispensing": "yes", "healthcare": "pharmacy", "name": "Gesztenyesor patika", "source": "survey"}}, {"type": "node", "id": 2510199293, "lat": 46.6334439, "lon": 18.2835499, "tags": {"addr:city": "Tam\u00e1si", "addr:housenumber": "8", "addr:postcode": "7090", "addr:street": "M\u00f3ricz Zsigmond lak\u00f3telep", "amenity": "pharmacy", "contact:phone": "+36 74 471 308", "contact:website": "https://benu.hu/gyogyszertaraink/", "name": "Fagy\u00f6ngy Gy\u00f3gyszert\u00e1r", "opening_hours": "Mo-Fr 08:00-17:00", "operator": "Magne Bt.", "wheelchair": "yes"}}, {"type": "node", "id": 2893346997, "lat": 46.3763754, "lon": 18.0681109, "tags": {"amenity": "pharmacy", "healthcare": "pharmacy"}}, {"type": "node", "id": 3047433313, "lat": 46.3492915, "lon": 18.2284456}, {"type": "node", "id": 3047433314, "lat": 46.3494389, "lon": 18.2284397}, {"type": "node", "id": 3047433315, "lat": 46.3494362, "lon": 18.2283349}, {"type": "node", "id": 3047433316, "lat": 46.349413, "lon": 18.2280621}, {"type": "node", "id": 3047433317, "lat": 46.3493338, "lon": 18.2280799}, {"type": "node", "id": 3047433318, "lat": 46.3493475, "lon": 18.2283092}, {"type": "node", "id": 3047433319, "lat": 46.3492874, "lon": 18.2283112}, {"type": "node", "id": 3756162316, "lat": 46.3747704, "lon": 18.0950273}, {"type": "node", "id": 3756162317, "lat": 46.374789, "lon": 18.0951602}, {"type": "node", "id": 3756162318, "lat": 46.3747414, "lon": 18.0951742}, {"type": "node", "id": 3756162319, "lat": 46.3747228, "lon": 18.0950413}, {"type": "node", "id": 6794016715, "lat": 46.3068271, "lon": 18.1334493}, {"type": "node", "id": 6794016716, "lat": 46.3068357, "lon": 18.1336049}, {"type": "node", "id": 6794016717, "lat": 46.3067568, "lon": 18.1336141}, {"type": "node", "id": 6794016718, "lat": 46.3067482, "lon": 18.1334584}, {"type": "node", "id": 8806135980, "lat": 46.3747447, "lon": 18.1296117, "tags": {"amenity": "pharmacy", "branch": "Gy\u00f3gyszert\u00e1r Domb\u00f3v\u00e1r G\u00f3lyav\u00e1r", "brand": "Benu", "brand:wikidata": "Q62562792", "dispensing": "yes", "healthcare": "pharmacy", "name": "Benu", "note": "Benu Gy\u00f3gyszert\u00e1r Domb\u00f3v\u00e1r G\u00f3lyav\u00e1r", "url": "https://benu.hu/shop/gyogyszertarak/benu-gyogyszertar-dombvar-golyavar"}}, {"type": "node", "id": 9312446787, "lat": 46.6340349, "lon": 18.2814226, "tags": {"addr:city": "Tam\u00e1si", "addr:housenumber": "56", "addr:postcode": "7090", "addr:street": "Szabads\u00e1g \u00fat", "amenity": "pharmacy", "dispensing": "yes", "drive_through": "no", "email": "dampatika@tolna.net", "healthcare": "pharmacy", "name": "D\u00e1m Gy\u00f3gyszert\u00e1r", "opening_hours": "Mo-Fr 08:00-17:00; Sa 08:00-12:00; PH off", "phone": "+36 74 673 686"}}, {"type": "node", "id": 10121218187, "lat": 46.386575, "lon": 18.1376691, "tags": {"amenity": "pharmacy", "dispensing": "yes", "healthcare": "pharmacy"}}, {"type": "node", "id": 11171957367, "lat": 46.5386768, "lon": 18.1126016}, {"type": "node", "id": 11171957368, "lat": 46.5385912, "lon": 18.1127089}, {"type": "node", "id": 11171957369, "lat": 46.5386591, "lon": 18.1128233}, {"type": "node", "id": 11171957370, "lat": 46.5387447, "lon": 18.112716}, {"type": "node", "id": 11173477267, "lat": 46.7225824, "lon": 18.2085107, "tags": {"addr:city": "Nagyszokoly", "addr:housenumber": "277", "addr:postcode": "7097", "addr:street": "De\u00e1k Ferenc utca", "amenity": "pharmacy", "contact:phone": "+36 84 696 979", "fixme": "position", "healthcare": "pharmacy"}}, {"type": "way", "id": 300650284, "nodes": [3047433313, 3047433314, 3047433315, 3047433316, 3047433317, 3047433318, 3047433319, 3047433313], "tags": {"amenity": "pharmacy", "building": "yes"}}, {"type": "way", "id": 372080766, "nodes": [3756162316, 3756162317, 3756162318, 3756162319, 3756162316], "tags": {"addr:city": "Kapospula", "addr:housenumber": "19", "addr:postcode": "7251", "addr:street": "J\u00f3kai M\u00f3r utca", "amenity": "pharmacy", "building": "yes", "building:levels": "1", "dispensing": "yes", "healthcare": "pharmacy"}}, {"type": "way", "id": 724441961, "nodes": [6794016715, 6794016716, 6794016717, 6794016718, 6794016715], "tags": {"amenity": "pharmacy", "building": "yes", "dispensing": "yes", "healthcare": "pharmacy"}}, {"type": "way", "id": 1205500372, "nodes": [11171957367, 11171957368, 11171957369, 11171957370, 11171957367], "tags": {"amenity": "pharmacy", "building": "yes", "healthcare": "pharmacy", "name": "Primula Patika"}}]}