{"version": 0.6, "generator": "Overpass API 0.7.62.8 e802775f", "osm3s": {"timestamp_osm_base": "2025-10-06T07:57:45Z", "copyright": "The data included in this document is from www.openstreetmap.org. The data is made available under ODbL."}, "elements": [{"type": "node", "id": 539658258, "lat": 48.1041673, "lon": 18.3426242, "tags": {"amenity": "pharmacy", "name": "Krist\u00ednka", "opening_hours": "Mo-Fr 08:00-16:00; Jun-Sep Sa 08:00-12:00"}}, {"type": "node", "id": 697809858, "lat": 47.9930674, "lon": 18.2642663, "tags": {"amenity": "pharmacy"}}, {"type": "node", "id": 697809874, "lat": 47.9932003, "lon": 18.2676993, "tags": {"amenity": "pharmacy"}}, {"type": "node", "id": 949640680, "lat": 47.9034225, "lon": 18.4167918, "tags": {"addr:city": "Strekov", "addr:country": "SK", "addr:postcode": "94137", "addr:suburb": "Strekov", "amenity": "pharmacy"}}, {"type": "node", "id": 1195472580, "lat": 48.08179, "lon": 18.2482899}, {"type": "node", "id": 1195479674, "lat": 48.0818401, "lon": 18.248259}, {"type": "node", "id": 1195483133, "lat": 48.0817364, "lon": 18.2481043}, {"type": "node", "id": 1195483496, "lat": 48.0817855, "lon": 18.2480746}, {"type": "node", "id": 1459161596, "lat": 47.7988807, "lon": 18.7153917, "tags": {"amenity": "pharmacy", "brand": "Dr. Max", "brand:wikidata": "Q56317371", "brand:wikipedia": "fr:Dr.Max", "healthcare": "pharmacy", "name": "Dr. Max"}}, {"type": "node", "id": 2859915972, "lat": 47.74732, "lon": 18.4974254}, {"type": "node", "id": 2859915973, "lat": 47.7473458, "lon": 18.4973348}, {"type": "node", "id": 2859915974, "lat": 47.7473647, "lon": 18.4972674}, {"type": "node", "id": 2859915978, "lat": 47.7474388, "lon": 18.4974998}, {"type": "node", "id": 2859915979, "lat": 47.7474835, "lon": 18.4973418}, {"type": "node", "id": 3078119244, "lat": 47.7911018, "lon": 18.7448511, "tags": {"amenity": "atm", "brand": "OTP Bank", "name": "OTP Bank", "opening_hours": "24/7", "website": "https://www.otpbank.hu"}}, {"type": "node", "id": 3439051586, "lat": 47.8185879, "lon": 18.8645792, "tags": {"addr:city": "Szob", "addr:housenumber": "7", "addr:postcode": "2628", "addr:street": "Ipolys\u00e1gi utca", "amenity": "pharmacy", "healthcare": "pharmacy", "name": "Gondvisel\u00e9s Gy\u00f3gyszert\u00e1r", "opening_hours": "Mo-Fr 08:00-16:00", "source": "turistautak.hu", "source:date": "2011-06-28", "url": "http://turistautak.hu/poi.php?id=101825"}}, {"type": "node", "id": 3439052156, "lat": 48.0211478, "lon": 18.8943961, "tags": {"amenity": "pharmacy", "source": "turistautak.hu", "source:date": "2011-06-28", "url": "http://turistautak.hu/poi.php?id=57127"}}, {"type": "node", "id": 3454423004, "lat": 47.7886943, "lon": 18.7407191, "tags": {"addr:city": "Esztergom", "addr:housenumber": "41", "addr:postcode": "2500", "addr:street": "Kossuth Lajos utca", "amenity": "pharmacy", "description": "Kerschbanmayer Patika Esztergom, Kossuth L. 41.", "healthcare": "pharmacy", "name": "Kerschbanmayer patika", "opening_hours": "Mo-Fr 08:00-16:00", "phone": "+36 33 411 145", "source": "turistautak.hu", "source:date": "2011-02-24", "url": "http://turistautak.hu/poi.php?id=19031", "website": "https://www.medigen.hu/patikakereso/905_kerschbaummayer-gyogyszertar"}}, {"type": "node", "id": 3454423503, "lat": 47.7930706, "lon": 18.7411335, "tags": {"addr:city": "Esztergom", "addr:housenumber": "26", "addr:postcode": "2500", "addr:street": "Sz\u00e9chenyi t\u00e9r", "amenity": "pharmacy", "description": "Szent Istv\u00e1n Gy\u00f3gyszert\u00e1r 2500 Esztergom, Mad\u00e1ch Imre t\u00e9r 1. 33/311-680 Nyitva tart\u00e1s: H-P 8-18, Szo. 8-12 \u00f3r\u00e1ig.", "healthcare": "pharmacy", "name": "Szent Istv\u00e1n gy\u00f3gyszert\u00e1r", "source": "turistautak.hu", "source:date": "2011-02-24", "url": "http://turistautak.hu/poi.php?id=19029"}}, {"type": "node", "id": 3989354623, "lat": 47.7910309, "lon": 18.7449231}, {"type": "node", "id": 3989354624, "lat": 47.7910695, "lon": 18.7449208}, {"type": "node", "id": 3989354625, "lat": 47.7910709, "lon": 18.7449739}, {"type": "node", "id": 3989354626, "lat": 47.7911829, "lon": 18.7449672}, {"type": "node", "id": 3989354627, "lat": 47.7910291, "lon": 18.7448555}, {"type": "node", "id": 3989354628, "lat": 47.7911797, "lon": 18.7448465}, {"type": "node", "id": 4166269697, "lat": 48.0064409, "lon": 18.5109073, "tags": {"amenity": "pharmacy"}}, {"type": "node", "id": 4320130202, "lat": 47.7904612, "lon": 18.745309}, {"type": "node", "id": 4320130204, "lat": 47.7903351, "lon": 18.7456611}, {"type": "node", "id": 4320130205, "lat": 47.7904035, "lon": 18.7456506}, {"type": "node", "id": 4320130206, "lat": 47.7903981, "lon": 18.7455724}, {"type": "node", "id": 4320130207, "lat": 47.7904785, "lon": 18.7455601}, {"type": "node", "id": 4454993595, "lat": 47.7918546, "lon": 18.714826, "tags": {"amenity": "pharmacy", "healthcare": "pharmacy", "name": "Lacrimula"}}, {"type": "node", "id": 4770569604, "lat": 48.0484262, "lon": 18.6577887, "tags": {"amenity": "pharmacy"}}, {"type": "node", "id": 5077656094, "lat": 47.8018591, "lon": 18.7463381}, {"type": "node", "id": 5077656095, "lat": 47.8019013, "lon": 18.7465439}, {"type": "node", "id": 5077656097, "lat": 47.8018, "lon": 18.7463649}, {"type": "node", "id": 5111733668, "lat": 47.7942305, "lon": 18.7402805, "tags": {"addr:city": "Esztergom", "addr:housenumber": "2/C", "addr:postcode": "2500", "addr:street": "Aradi v\u00e9rtan\u00fak tere", "amenity": "pharmacy", "healthcare": "pharmacy", "name": "Kis Duna Patika"}}, {"type": "node", "id": 5233677083, "lat": 47.7942426, "lon": 18.7187505, "tags": {"amenity": "pharmacy", "healthcare": "pharmacy", "name": "Medi-Pharm centrum"}}, {"type": "node", "id": 5614927227, "lat": 47.7602041, "lon": 18.5519379}, {"type": "node", "id": 5614927228, "lat": 47.7600424, "lon": 18.5518699}, {"type": "node", "id": 5614927229, "lat": 47.7600098, "lon": 18.5520409}, {"type": "node", "id": 5614927230, "lat": 47.7601716, "lon": 18.5521089}, {"type": "node", "id": 5630628021, "lat": 47.8862839, "lon": 18.6434718}, {"type": "node", "id": 5630628022, "lat": 47.8862559, "lon": 18.6436049}, {"type": "node", "id": 5630628023, "lat": 47.8863094, "lon": 18.6436298}, {"type": "node", "id": 5630628024, "lat": 47.886292, "lon": 18.6437127}, {"type": "node", "id": 5630628025, "lat": 47.8862721, "lon": 18.6437035}, {"type": "node", "id": 5630628026, "lat": 47.8862484, "lon": 18.6438163}, {"type": "node", "id": 5630628027, "lat": 47.8862122, "lon": 18.6437994}, {"type": "node", "id": 5630628028, "lat": 47.886189, "lon": 18.6439104}, {"type": "node", "id": 5630628029, "lat": 47.8863215, "lon": 18.6439722}, {"type": "node", "id": 5630628030, "lat": 47.8863814, "lon": 18.6436864}, {"type": "node", "id": 5630628031, "lat": 47.8864082, "lon": 18.643699}, {"type": "node", "id": 5630628032, "lat": 47.8864405, "lon": 18.6435448}, {"type": "node", "id": 7173009661, "lat": 47.7600996, "lon": 18.5518939}, {"type": "node", "id": 7173009662, "lat": 47.7601678, "lon": 18.5519227}, {"type": "node", "id": 7236947938, "lat": 47.7903124, "lon": 18.7453317}, {"type": "node", "id": 7699201779, "lat": 47.7988904, "lon": 18.7195431, "tags": {"amenity": "pharmacy", "contact:email": "plus@lekarenmaja.sk", "contact:facebook": "https://www.facebook.com/lekarenmaja/", "contact:phone": "+421 367522506", "dispensing": "yes", "healthcare": "pharmacy", "name": "Maja", "opening_hours": "Mo-Fr 07:30-17:00", "website": "https://www.lekarenmaja.sk/"}}, {"type": "node", "id": 8222894118, "lat": 47.8018835, "lon": 18.7465432, "tags": {"entrance": "yes"}}, {"type": "node", "id": 8222894119, "lat": 47.8018362, "lon": 18.7465412}, {"type": "node", "id": 9189891095, "lat": 47.7988635, "lon": 18.7187674, "tags": {"amenity": "pharmacy", "contact:email": "astra@slovanet.sk", "contact:facebook": "https://www.facebook.com/lekarenastra", "contact:phone": "+421 36 7522283", "dispensing": "yes", "healthcare": "pharmacy", "name": "Lek\u00e1re\u0148 Astra"}}, {"type": "node", "id": 11265144344, "lat": 47.7889071, "lon": 18.717238, "tags": {"amenity": "pharmacy", "brand": "Dr. Max", "brand:wikidata": "Q56317371", "dispensing": "yes", "healthcare": "pharmacy", "name": "Dr. Max", "operator": "Dr.Max 100 s.r.o."}}, {"type": "node", "id": 11626078085, "lat": 47.9931286, "lon": 18.2647694, "tags": {"amenity": "pharmacy", "email": "lekarennovea@gmail.com", "healthcare": "pharmacy", "name": "Novea", "opening_hours": "Mo-Fr 07:30-18:30; Sa 08:30-13:00", "website": "http://medipharmcentrum.eu/sk/"}}, {"type": "node", "id": 11629913262, "lat": 48.1270531, "lon": 18.7824286, "tags": {"amenity": "pharmacy", "healthcare": "pharmacy", "name": "Lek\u00e1re\u0148 sv. Michala", "opening_hours": "Mo-Fr 08:00-14:30", "url": "https://www.e-vuc.sk/nsk/zdravotnictvo/lekarne-a-vydajne-zp/levice/lekaren-sv.-michala.html?page_id=121483"}}, {"type": "node", "id": 13103237034, "lat": 47.8734574, "lon": 18.9362763, "tags": {"addr:city": "K\u00f3spallag", "addr:housenumber": "1/b", "addr:postcode": "2625", "addr:street": "De\u00e1k Ferenc utca", "amenity": "pharmacy", "name": "Szent Boldizs\u00e1r Gy\u00f3gyszert\u00e1r", "opening_hours": "Mo,Fr 09:00-11:00; Th 15:00-16:30"}}, {"type": "way", "id": 103543365, "nodes": [1195479674, 1195472580, 1195483133, 1195483496, 1195479674], "tags": {"addr:city": "Doln\u00fd Ohaj", "addr:conscriptionnumber": "102", "addr:country": "SK", "addr:housenumber": "102/1", "addr:postcode": "94143", "addr:street": "Kapusnica", "addr:streetnumber": "1", "amenity": "pharmacy", "building": "yes", "name": "Lek\u00e1re\u0148 Plus", "ref:minvskaddress": "18768915", "source": "kapor2", "source:addr": "minvskaddress 2022-01"}}, {"type": "way", "id": 282045846, "nodes": [2859915972, 2859915973, 2859915974, 2859915979, 2859915978, 2859915972], "tags": {"addr:city": "L\u00e1batlan", "addr:housenumber": "34", "addr:postcode": "2541", "addr:street": "Cementgy\u00e1ri lak\u00f3telep", "amenity": "pharmacy", "building": "yes", "contact:email": "patika21@axelero.hu", "contact:fax": "+36 33 461 495", "contact:phone": "+36 33 461 495", "dispensing": "yes", "healthcare": "pharmacy", "opening_hours": "Mo-Fr 08:00-16:30"}}, {"type": "way", "id": 396119922, "nodes": [3989354628, 3078119244, 3989354627, 3989354623, 3989354624, 3989354625, 3989354626, 3989354628], "tags": {"amenity": "pharmacy", "building": "yes", "healthcare": "pharmacy", "name": "Vaszary Patika"}}, {"type": "way", "id": 433128464, "nodes": [4320130202, 7236947938, 4320130204, 4320130205, 4320130206, 4320130207, 4320130202], "tags": {"addr:city": "Esztergom", "addr:housenumber": "30", "addr:postcode": "2500", "addr:street": "Pet\u0151fi S\u00e1ndor utca", "amenity": "pharmacy", "building": "retail", "dispensing": "yes", "drive_through": "yes", "healthcare": "pharmacy", "name": "Kolos Patika"}}, {"type": "way", "id": 521079529, "nodes": [5077656094, 5077656095, 8222894118, 8222894119, 5077656097, 5077656094], "tags": {"addr:city": "Esztergom", "addr:housenumber": "7", "addr:postcode": "2500", "addr:street": "K\u0151r\u00f6sy L\u00e1szl\u00f3 utca", "amenity": "pharmacy", "building": "yes", "healthcare": "pharmacy", "name": "Szent Imre Gy\u00f3gyszert\u00e1r", "old_name": "B\u00e1nomi Piros Patika", "opening_hours": "Mo-Fr 08:00-17:00; Sa 08:00-12:00; Su off"}}, {"type": "way", "id": 587845285, "nodes": [5614927227, 7173009662, 7173009661, 5614927228, 5614927229, 5614927230, 5614927227], "tags": {"addr:city": "Nyerges\u00fajfalu", "addr:housenumber": "5", "addr:postcode": "2536", "addr:street": "Tompa Mih\u00e1ly utca", "amenity": "pharmacy", "building": "yes", "dispensing": "yes", "healthcare": "pharmacy", "name": "K\u00e9k \u00cdrisz Patika"}}, {"type": "way", "id": 589646424, "nodes": [5630628021, 5630628022, 5630628023, 5630628024, 5630628025, 5630628026, 5630628027, 5630628028, 5630628029, 5630628030, 5630628031, 5630628032, 5630628021], "tags": {"addr:city": "Kamen\u00edn", "addr:conscriptionnumber": "638", "addr:country": "SK", "addr:housenumber": "638", "addr:place": "Kamen\u00edn", "addr:postcode": "94357", "amenity": "pharmacy", "building": "yes", "dispensing": "yes", "healthcare": "pharmacy", "ref:minvskaddress": "37427907", "source:addr": "minvskaddress 2023-04"}}]}