{"version": 0.6, "generator": "Overpass API 0.7.62.8 e802775f", "osm3s": {"timestamp_osm_base": "2025-10-06T08:30:13Z", "copyright": "The data included in this document is from www.openstreetmap.org. The data is made available under ODbL."}, "elements": [{"type": "node", "id": 277786706, "lat": 50.5647912, "lon": 21.1676885, "tags": {"addr:city": "Stasz\u00f3w", "addr:city:simc": "0981274", "addr:housenumber": "30", "addr:postcode": "28-200", "addr:street": "Rynek", "amenity": "pharmacy", "dispensing": "yes", "healthcare": "pharmacy", "name": "Apteka", "ref:csioz": "1001150"}}, {"type": "node", "id": 568931972, "lat": 50.2876335, "lon": 21.4280675, "tags": {"addr:city": "Mielec", "addr:housenumber": "2A", "addr:postcode": "39-300", "addr:street": "Wolno\u015bci", "amenity": "pharmacy", "healthcare": "pharmacy", "name": "Pod Or\u0142em", "ref:csioz": "1144422", "source": "http://ump.waw.pl/ retrieved 03:27:31 11/17/09 (UMP-Rzeszow/src/POI-Rzeszow.pnt-converted.txt)"}}, {"type": "node", "id": 568932168, "lat": 50.2920346, "lon": 21.4371045, "tags": {"addr:city": "Mielec", "amenity": "pharmacy", "name": "Apteka", "source": "http://ump.waw.pl/ retrieved 03:27:31 11/17/09 (UMP-Rzeszow/src/POI-Rzeszow.pnt-converted.txt)"}}, {"type": "node", "id": 568932183, "lat": 50.29292, "lon": 21.43441, "tags": {"addr:city": "Mielec", "amenity": "pharmacy", "source": "http://ump.waw.pl/ retrieved 03:27:31 11/17/09 (UMP-Rzeszow/src/POI-Rzeszow.pnt-converted.txt)"}}, {"type": "node", "id": 568932185, "lat": 50.29318, "lon": 21.43476, "tags": {"addr:city": "Mielec", "amenity": "pharmacy", "source": "http://ump.waw.pl/ retrieved 03:27:31 11/17/09 (UMP-Rzeszow/src/POI-Rzeszow.pnt-converted.txt)"}}, {"type": "node", "id": 568932202, "lat": 50.2937429, "lon": 21.4363678, "tags": {"addr:city": "Mielec", "addr:housenumber": "1", "addr:postcode": "39-300", "addr:street": "Aleja Niepodleg\u0142o\u015bci", "amenity": "pharmacy", "drive_through": "no", "healthcare": "pharmacy", "name": "Niezapominajka Dla Ca\u0142ej Rodziny", "ref:csioz": "1166184", "source": "http://ump.waw.pl/ retrieved 03:27:31 11/17/09 (UMP-Rzeszow/src/POI-Rzeszow.pnt-converted.txt)"}}, {"type": "node", "id": 568932684, "lat": 50.2967636, "lon": 21.4324998, "tags": {"amenity": "pharmacy", "drive_through": "no", "healthcare": "pharmacy", "opening_hours": "Mo-Fr 07:30-20:00; Sa 07:30-14:00", "ref:csioz": "1144364", "source": "http://ump.waw.pl/ retrieved 03:27:31 11/17/09 (UMP-Rzeszow/src/POI-Rzeszow.pnt-converted.txt)"}}, {"type": "node", "id": 1486098178, "lat": 50.4994611, "lon": 21.5424656, "tags": {"addr:city": "Baran\u00f3w Sandomierski", "addr:housenumber": "23", "addr:postcode": "39-450", "addr:street": "Rynek", "amenity": "pharmacy", "healthcare": "pharmacy", "name": "Apteka", "ref:csioz": "1143887"}}, {"type": "node", "id": 2245163529, "lat": 50.5275709, "lon": 21.2031038, "tags": {"addr:city": "Rytwiany", "addr:housenumber": "8", "addr:street": "Ko\u015bcielna", "amenity": "pharmacy", "dispensing": "yes", "ref:csioz": "1001386"}}, {"type": "node", "id": 2841837659, "lat": 50.410295, "lon": 21.1494764, "tags": {"addr:housenumber": "73", "addr:place": "\u0141ubnice", "amenity": "pharmacy", "dispensing": "yes", "name": "Punkt Apteczny", "ref:csioz": "1004514"}}, {"type": "node", "id": 2841910685, "lat": 50.5198664, "lon": 21.1166941, "tags": {"addr:city": "Koniem\u0142oty", "addr:housenumber": "4", "addr:street": "Staszowska", "amenity": "pharmacy", "dispensing": "yes", "healthcare": "pharmacy", "name": "Punkt Apteczny Aloes", "ref:csioz": "1231209"}}, {"type": "node", "id": 2946788963, "lat": 50.5593172, "lon": 21.1792166, "tags": {"addr:city": "Stasz\u00f3w", "addr:city:simc": "0981274", "addr:housenumber": "10C", "addr:postcode": "28-200", "addr:street": "Konstytucji 3 Maja", "amenity": "pharmacy", "dispensing": "yes", "drive_through": "no", "healthcare": "pharmacy", "phone": "+48 15 864 48 28", "ref:csioz": "1001036", "source:addr": "EMUiA (emuia.gugik.gov.pl)"}}, {"type": "node", "id": 2989484905, "lat": 50.5722547, "lon": 21.6817244, "tags": {"addr:city": "Tarnobrzeg", "addr:flats": "74A", "addr:housenumber": "38", "addr:postcode": "39-400", "addr:street": "Henryka Sienkiewicza", "amenity": "pharmacy", "healthcare": "pharmacy", "name": "Apteka Cef@Rm 36,6", "ref:csioz": "1144150"}}, {"type": "node", "id": 2989496373, "lat": 50.5724359, "lon": 21.6843064, "tags": {"addr:city": "Tarnobrzeg", "addr:housenumber": "67", "addr:postcode": "39-400", "addr:street": "Henryka Sienkiewicza", "amenity": "pharmacy", "dispensing": "yes", "name": "Apteka", "ref:csioz": "1144175"}}, {"type": "node", "id": 2989499489, "lat": 50.5711362, "lon": 21.6728668, "tags": {"addr:city": "Tarnobrzeg", "addr:housenumber": "6B", "addr:postcode": "39-400", "addr:street": "Targowa", "amenity": "pharmacy", "name": "Apteka \"Nova\"", "ref:csioz": "1144188"}}, {"type": "node", "id": 2989502909, "lat": 50.5697069, "lon": 21.6647933, "tags": {"addr:city": "Tarnobrzeg", "addr:housenumber": "1", "addr:postcode": "39-400", "addr:street": "Ludwika Wary\u0144skiego", "amenity": "pharmacy", "name": "Apteka Pod Tapim\u0105", "ref:csioz": "1182386"}}, {"type": "node", "id": 2989513307, "lat": 50.5770947, "lon": 21.6904646, "tags": {"addr:city": "Tarnobrzeg", "addr:housenumber": "18", "addr:postcode": "39-400", "addr:street": "Zwierzyniecka", "amenity": "pharmacy", "name": "Apteka Codzienna", "ref:csioz": "1144223"}}, {"type": "node", "id": 2989515913, "lat": 50.5748633, "lon": 21.6858272, "tags": {"amenity": "pharmacy", "name": "Na Serbinowie", "ref:csioz": "1144099"}}, {"type": "node", "id": 2989529126, "lat": 50.5723497, "lon": 21.6708553, "tags": {"addr:city": "Tarnobrzeg", "addr:housenumber": "4", "addr:postcode": "39-400", "addr:street": "Adama Mickiewicza", "amenity": "pharmacy", "healthcare": "pharmacy", "name": "Nova", "ref:csioz": "1144103"}}, {"type": "node", "id": 2989531033, "lat": 50.5679692, "lon": 21.6692967, "tags": {"addr:city": "Tarnobrzeg", "addr:housenumber": "34D", "addr:postcode": "39-400", "addr:street": "Adama Mickiewicza", "amenity": "pharmacy", "name": "Pod Anio\u0142em", "ref:csioz": "1144116"}}, {"type": "node", "id": 2989531345, "lat": 50.567913, "lon": 21.6692646, "tags": {"addr:city": "Tarnobrzeg", "addr:housenumber": "34e", "addr:postcode": "39-400", "addr:street": "Adama Mickiewicza", "amenity": "pharmacy", "name": "Familijna", "ref:csioz": "1144127"}}, {"type": "node", "id": 3036850899, "lat": 50.2944201, "lon": 21.4638487, "tags": {"amenity": "pharmacy", "name": "Remedium", "opening_hours": "7:00-18:00", "ref:csioz": "1144251"}}, {"type": "node", "id": 3184323658, "lat": 50.2869545, "lon": 21.4397031, "tags": {"addr:city": "Mielec", "addr:housenumber": "27C", "addr:postcode": "39-300", "addr:street": "Wolno\u015bci", "amenity": "pharmacy", "healthcare": "pharmacy", "name": "Centrum", "opening_hours": "08:00-20:00", "ref:csioz": "1144433"}}, {"type": "node", "id": 3436973876, "lat": 50.2939637, "lon": 21.4236855}, {"type": "node", "id": 3436973877, "lat": 50.2939344, "lon": 21.4237827}, {"type": "node", "id": 3436973878, "lat": 50.2940639, "lon": 21.4238863}, {"type": "node", "id": 3436973879, "lat": 50.2940951, "lon": 21.4237879}, {"type": "node", "id": 3650737280, "lat": 50.2879083, "lon": 21.4045202, "tags": {"addr:city": "Mielec", "addr:housenumber": "80a", "addr:postcode": "39-300", "addr:street": "Legion\u00f3w", "amenity": "pharmacy", "branch": "Foxpharma", "brand": "Dbam o Zdrowie", "brand:wikidata": "Q62563833", "dispensing": "yes", "healthcare": "pharmacy", "level": "0", "name": "Dbam o Zdrowie", "opening_hours": "Mo-Sa 08:00-20:00; PH off", "ref:csioz": "1165425", "short_name": "DOZ", "website": "https://www.doz.pl", "wheelchair": "yes"}}, {"type": "node", "id": 4213995638, "lat": 50.2976384, "lon": 21.443394, "tags": {"addr:city": "Mielec", "addr:housenumber": "11A", "addr:postcode": "39-300", "addr:street": "Aleja Niepodleg\u0142o\u015bci", "amenity": "pharmacy", "drive_through": "no", "healthcare": "pharmacy", "name": "Apteka S\u0142oneczna", "opening_hours": "Mo-Fr 07:00-21:00; Sa 08:00-15:00", "ref:csioz": "1187845"}}, {"type": "node", "id": 4334503289, "lat": 50.572574, "lon": 21.671499, "tags": {"amenity": "pharmacy"}}, {"type": "node", "id": 4358035703, "lat": 50.5701898, "lon": 21.6868332, "tags": {"addr:city": "Tarnobrzeg", "addr:housenumber": "48", "addr:postcode": "39-400", "addr:street": "Henryka Sienkiewicza", "amenity": "pharmacy", "name": "Dbam O Zdrowie", "ref:csioz": "1144169", "website": "https://www.doz.pl/"}}, {"type": "node", "id": 4457972055, "lat": 50.6361559, "lon": 21.3684488, "tags": {"addr:housenumber": "62", "addr:place": "Jurkowice", "amenity": "pharmacy", "dispensing": "yes", "name": "Punkt Apteczny", "ref:csioz": "1004779"}}, {"type": "node", "id": 4460059093, "lat": 50.6446218, "lon": 21.6460248, "tags": {"addr:housenumber": "43", "addr:place": "Samborzec", "addr:postcode": "27-650", "amenity": "pharmacy", "dispensing": "yes", "name": "Arnika", "phone": "+48 15 831 42 21", "ref:csioz": "1207358"}}, {"type": "node", "id": 4598915246, "lat": 50.2933243, "lon": 21.7442459, "tags": {"amenity": "pharmacy", "name": "Punkt apteczny"}}, {"type": "node", "id": 4601505095, "lat": 50.5934422, "lon": 21.5814284, "tags": {"addr:city": "Koprzywnica", "addr:housenumber": "32A", "addr:street": "11 Listopada", "amenity": "pharmacy", "dispensing": "yes", "ref:csioz": "1001048"}}, {"type": "node", "id": 4601507795, "lat": 50.589834, "lon": 21.576714, "tags": {"addr:city": "Koprzywnica", "addr:housenumber": "10", "addr:street": "Szkolna", "amenity": "pharmacy", "dispensing": "yes", "name": "Arnika", "ref:csioz": "1004029"}}, {"type": "node", "id": 5692363449, "lat": 50.5222119, "lon": 21.6228706, "tags": {"addr:city": "Tarnobrzeg", "addr:housenumber": "2", "addr:postcode": "39-400", "addr:street": "Strefowa", "amenity": "pharmacy", "dispensing": "yes", "healthcare": "pharmacy", "name": "Apteka Rodzinna", "ref:csioz": "1175558"}}, {"type": "node", "id": 5754492543, "lat": 50.2931765, "lon": 21.4684103, "tags": {"amenity": "pharmacy"}}, {"type": "node", "id": 6185027492, "lat": 50.5569568, "lon": 21.1896001, "tags": {"addr:city": "Stasz\u00f3w", "addr:city:simc": "0981274", "addr:housenumber": "62", "addr:postcode": "28-200", "addr:street": "Adama Mickiewicza", "amenity": "pharmacy", "dispensing": "yes", "healthcare": "pharmacy", "name": "Prolek", "ref:csioz": "1003689"}}, {"type": "node", "id": 6237149338, "lat": 50.5681317, "lon": 21.1717438, "tags": {"addr:city": "Stasz\u00f3w", "addr:housenumber": "10", "addr:postcode": "28-200", "addr:street": "Jana Paw\u0142a II", "amenity": "pharmacy", "dispensing": "yes", "healthcare": "pharmacy", "name": "Codzienna", "phone": "+48 15 864 22 52", "ref:csioz": "1001116"}}, {"type": "node", "id": 6237226953, "lat": 50.5661819, "lon": 21.1715409, "tags": {"addr:city": "Stasz\u00f3w", "addr:city:simc": "0981274", "addr:housenumber": "22", "addr:postcode": "28-200", "addr:street": "Jana Paw\u0142a II", "amenity": "pharmacy", "dispensing": "yes", "drive_through": "no", "healthcare": "pharmacy", "name": "Spo\u0142eczna", "opening_hours": "Mo-Fr 07:30-21:00, Su 08:00-16:00", "operator": "Nowa Farmacja", "phone": "+48 15 831 00 53", "ref:csioz": "1194384"}}, {"type": "node", "id": 6268786142, "lat": 50.5631597, "lon": 21.1655202, "tags": {"addr:city": "Stasz\u00f3w", "addr:city:simc": "0981274", "addr:housenumber": "14", "addr:postcode": "28-200", "addr:street": "Krakowska", "amenity": "pharmacy", "dispensing": "yes", "healthcare": "pharmacy", "name": "Osobista", "ref:csioz": "1178967"}}, {"type": "node", "id": 6848079259, "lat": 50.2956082, "lon": 21.440487, "tags": {"addr:city": "Mielec", "addr:housenumber": "9", "addr:postcode": "39-300", "addr:street": "Aleja Niepodleg\u0142o\u015bci", "amenity": "pharmacy", "brand": "Dr. Max", "brand:wikidata": "Q56317371", "brand:wikipedia": "fr:Dr.Max", "dispensing": "yes", "drive_through": "no", "healthcare": "pharmacy", "name": "Dr. Max", "opening_hours": "Mo-Fr 08:00-19:00; Sa 08:00-14:00"}}, {"type": "node", "id": 6848079267, "lat": 50.296065, "lon": 21.4415052, "tags": {"addr:city": "Mielec", "addr:housenumber": "9", "addr:postcode": "39-300", "addr:street": "Aleja Niepodleg\u0142o\u015bci", "amenity": "pharmacy", "dispensing": "yes", "healthcare": "pharmacy", "name": "R\u00f3\u017cana", "opening_hours": "Mo-Fr 07:00-20:00; Sa 08:00-14:00", "ref:csioz": "1144310;1213549"}}, {"type": "node", "id": 6903257919, "lat": 50.2962841, "lon": 21.4442586, "tags": {"addr:city": "Mielec", "addr:housenumber": "8A", "addr:postcode": "39-300", "addr:street": "Marii Sk\u0142odowskiej-Curie", "amenity": "pharmacy", "brand": "Dbam o Zdrowie", "brand:wikidata": "Q62563833", "dispensing": "yes", "drive_through": "no", "healthcare": "pharmacy", "name": "Dbam o Zdrowie", "opening_hours": "Mo-Fr 08:00-20:00; Sa 08:00-13:00; PH off", "ref:csioz": "1144307", "short_name": "DOZ"}}, {"type": "node", "id": 6937101921, "lat": 50.2877078, "lon": 21.4487457, "tags": {"addr:city": "Mielec", "addr:housenumber": "66A", "addr:postcode": "39-300", "addr:street": "Wolno\u015bci", "amenity": "pharmacy", "healthcare": "pharmacy", "name": "Apteka przy Wolno\u015bci", "ref:csioz": "1144440"}}, {"type": "node", "id": 7322380256, "lat": 50.2865463, "lon": 21.4198744, "tags": {"addr:city": "Mielec", "addr:housenumber": "26", "addr:postcode": "39-300", "addr:street": "Rynek", "amenity": "pharmacy", "healthcare": "pharmacy", "name": "Milenium", "opening_hours": "Mo-Fr 08:00-19:00; Sa 08:00-14:00", "ref:csioz": "1144393"}}, {"type": "node", "id": 7435862171, "lat": 50.5660838, "lon": 21.1719998, "tags": {"addr:city": "Stasz\u00f3w", "addr:city:simc": "0981274", "addr:housenumber": "23", "addr:street": "Jana Paw\u0142a II", "amenity": "pharmacy", "dispensing": "yes", "healthcare": "pharmacy", "name": "Przy Wschodniej", "ref:csioz": "1001671"}}, {"type": "node", "id": 7767160062, "lat": 50.1960981, "lon": 21.2783812, "tags": {"addr:city": "Radomy\u015bl Wielki", "addr:housenumber": "11", "addr:postcode": "39-310", "addr:street": "Rynek", "amenity": "pharmacy", "dispensing": "yes", "healthcare": "pharmacy", "name": "Arnika", "ref:csioz": "1144605"}}, {"type": "node", "id": 9545770549, "lat": 50.2646649, "lon": 21.2864978, "tags": {"addr:housenumber": "136", "addr:place": "Wadowice G\u00f3rne", "addr:postcode": "39-308", "amenity": "pharmacy", "healthcare": "pharmacy", "ref:csioz": "1144647"}}, {"type": "node", "id": 9545771665, "lat": 50.3447026, "lon": 21.4501995, "tags": {"addr:housenumber": "763", "addr:place": "Chorzel\u00f3w", "addr:postcode": "39-331", "amenity": "pharmacy", "name": "Twoje Zdrowie", "ref:csioz": "1144558"}}, {"type": "node", "id": 9545772406, "lat": 50.2892612, "lon": 21.4373332, "tags": {"amenity": "pharmacy", "ref:csioz": "1125363;1138372"}}, {"type": "node", "id": 9545774877, "lat": 50.2879244, "lon": 21.419864, "tags": {"addr:city": "Mielec", "addr:housenumber": "20", "addr:postcode": "39-300", "addr:street": "Stefana Batorego", "amenity": "pharmacy", "name": "Centrum", "ref:csioz": "1144238"}}, {"type": "node", "id": 9545785997, "lat": 50.370459, "lon": 21.4566333, "tags": {"addr:housenumber": "51B", "addr:place": "Tusz\u00f3w Narodowy", "addr:postcode": "39-332", "amenity": "pharmacy", "name": "Pod Modrzewiami", "ref:csioz": "1144639"}}, {"type": "node", "id": 9545790288, "lat": 50.2869568, "lon": 21.4600951, "tags": {"addr:city": "Mielec", "addr:housenumber": "4", "addr:postcode": "39-300", "addr:street": "Powsta\u0144c\u00f3w Warszawy", "amenity": "pharmacy", "healthcare": "pharmacy", "name": "Cosmedica", "ref:csioz": "1212470"}}, {"type": "node", "id": 9545802097, "lat": 50.2866385, "lon": 21.4336238, "tags": {"addr:city": "Mielec", "addr:housenumber": "26", "addr:postcode": "39-300", "addr:street": "Wolno\u015bci", "amenity": "pharmacy", "healthcare": "pharmacy", "name": "R\u00f3\u017cana", "ref:csioz": "1169992"}}, {"type": "node", "id": 9545803097, "lat": 50.2896847, "lon": 21.4365094, "tags": {"amenity": "pharmacy", "name": "Centrum", "opening_hours": "Mo-Fr 07:30-19:00; Sa 08:00-13:00", "ref:csioz": "1144498"}}, {"type": "node", "id": 9545809921, "lat": 50.3397812, "lon": 21.3313455, "tags": {"addr:housenumber": "470", "addr:place": "Czermin", "addr:postcode": "39-304", "amenity": "pharmacy", "name": "Antidotum", "ref:csioz": "1144530"}}, {"type": "node", "id": 9545810033, "lat": 50.414091, "lon": 21.3801261, "tags": {"addr:housenumber": "6D", "addr:place": "Gaw\u0142uszowice", "addr:postcode": "39-307", "amenity": "pharmacy", "name": "Arnika", "ref:csioz": "1221574"}}, {"type": "node", "id": 9545812863, "lat": 50.3849704, "lon": 21.3475171, "tags": {"addr:housenumber": "333A", "addr:place": "Borowa", "addr:postcode": "39-305", "amenity": "pharmacy", "ref:csioz": "1144517"}}, {"type": "node", "id": 9545816858, "lat": 50.3356847, "lon": 21.443255, "tags": {"addr:housenumber": "421C", "addr:place": "Chorzel\u00f3w", "addr:postcode": "39-331", "amenity": "pharmacy", "name": "Arnika", "ref:csioz": "1205077"}}, {"type": "node", "id": 9545817582, "lat": 50.4350624, "lon": 21.4978519, "tags": {"addr:city": "Padew Narodowa", "addr:housenumber": "2", "addr:postcode": "39-340", "addr:street": "Ksi\u0119dza Jana Kica", "amenity": "pharmacy", "ref:csioz": "1144574"}}, {"type": "node", "id": 9545820733, "lat": 50.1962119, "lon": 21.2820597, "tags": {"addr:city": "Radomy\u015bl Wielki", "addr:housenumber": "32", "addr:postcode": "39-310", "addr:street": "Armii Krajowej", "amenity": "pharmacy", "healthcare": "pharmacy", "name": "Vita", "ref:csioz": "1224288"}}, {"type": "node", "id": 9545820738, "lat": 50.2929961, "lon": 21.4235329, "tags": {"amenity": "pharmacy", "check_date:opening_hours": "2023-04-22", "dispensing": "yes", "healthcare": "pharmacy", "name": "Codzienna", "opening_hours": "Mo-Fr 08:00-20:00; Sa 08:00-15:00", "ref:csioz": "1216000"}}, {"type": "node", "id": 9545828121, "lat": 50.2877003, "lon": 21.4687625, "tags": {"addr:city": "Mielec", "addr:housenumber": "4", "addr:postcode": "39-300", "addr:street": "Zygmuntowska", "amenity": "pharmacy", "name": "Gelena", "ref:csioz": "1144479"}}, {"type": "node", "id": 9545834490, "lat": 50.2900426, "lon": 21.436245, "tags": {"addr:city": "Mielec", "addr:housenumber": "19A", "addr:postcode": "39-300", "addr:street": "Stefana \u017beromskiego", "amenity": "pharmacy", "healthcare": "pharmacy", "name": "Milenium", "opening_hours": "Su-Fr 08:00-19:00; Sa 08:00-13:00", "ref:csioz": "1144501"}}, {"type": "node", "id": 9545834719, "lat": 50.3393183, "lon": 21.3325969, "tags": {"addr:housenumber": "43", "addr:place": "Czermin", "addr:postcode": "39-304", "amenity": "pharmacy", "ref:csioz": "1144525"}}, {"type": "node", "id": 9545836721, "lat": 50.2957333, "lon": 21.4658431, "tags": {"amenity": "pharmacy", "ref:csioz": "1144386"}}, {"type": "node", "id": 9545842527, "lat": 50.286257, "lon": 21.4361075, "tags": {"addr:city": "Mielec", "addr:housenumber": "2", "addr:postcode": "39-300", "addr:street": "Piaskowa", "amenity": "pharmacy", "name": "Prolek", "ref:csioz": "1144332"}}, {"type": "node", "id": 9545845427, "lat": 50.4380963, "lon": 21.4369134, "tags": {"addr:housenumber": "17A", "addr:place": "Ro\u017cniaty", "addr:postcode": "39-340", "amenity": "pharmacy", "ref:csioz": "1137500"}}, {"type": "node", "id": 9545847823, "lat": 50.4373498, "lon": 21.4990189, "tags": {"addr:city": "Padew Narodowa", "addr:housenumber": "24", "addr:postcode": "39-340", "addr:street": "Ludwiki Uzar-Krysiakowej", "amenity": "pharmacy", "ref:csioz": "1144563"}}, {"type": "node", "id": 9547727916, "lat": 50.5715823, "lon": 21.6769536, "tags": {"amenity": "pharmacy", "ref:csioz": "1137568"}}, {"type": "node", "id": 9547741006, "lat": 50.5659308, "lon": 21.667461, "tags": {"addr:city": "Tarnobrzeg", "addr:housenumber": "40", "addr:postcode": "39-400", "addr:street": "Adama Mickiewicza", "amenity": "pharmacy", "healthcare": "pharmacy", "name": "Apteka Gemini", "ref:csioz": "1202809"}}, {"type": "node", "id": 9547752064, "lat": 50.565282, "lon": 21.6693314, "tags": {"addr:city": "Tarnobrzeg", "addr:housenumber": "13", "addr:postcode": "39-400", "addr:street": "Borek", "amenity": "pharmacy", "ref:csioz": "1136618"}}, {"type": "node", "id": 9547752065, "lat": 50.5700082, "lon": 21.6702188, "tags": {"addr:city": "Tarnobrzeg", "addr:housenumber": "1", "addr:postcode": "39-400", "addr:street": "Stanis\u0142awa Moniuszki", "amenity": "pharmacy", "name": "S\u0142oneczna", "ref:csioz": "1166336"}}, {"type": "node", "id": 9547792366, "lat": 50.567271, "lon": 21.670073, "tags": {"addr:city": "Tarnobrzeg", "addr:housenumber": "1", "addr:postcode": "39-400", "addr:street": "Szpitalna", "amenity": "pharmacy", "name": "Apteka Szpitalna", "ref:csioz": "1138346"}}, {"type": "node", "id": 9547792367, "lat": 50.5694587, "lon": 21.6770808, "tags": {"addr:city": "Tarnobrzeg", "addr:housenumber": "25", "addr:postcode": "39-400", "addr:street": "Stanis\u0142awa Wyspia\u0144skiego", "amenity": "pharmacy", "name": "Dr.Max", "ref:csioz": "1144209"}}, {"type": "node", "id": 9547792390, "lat": 50.4144069, "lon": 21.754359, "tags": {"addr:city": "Nowa D\u0119ba", "addr:housenumber": "7", "addr:postcode": "39-460", "addr:street": "Jasna", "amenity": "pharmacy", "name": "Apteka Nova", "opening_hours": "Mo-Fr 08:00-21:00; Sa 08:00-19:00; Su 09:00-17:00", "ref:csioz": "1198486"}}, {"type": "node", "id": 9547798017, "lat": 50.5710284, "lon": 21.6892827, "tags": {"amenity": "pharmacy", "ref:csioz": "1136647;1136639"}}, {"type": "node", "id": 9547815026, "lat": 50.5725349, "lon": 21.6731142, "tags": {"addr:city": "Tarnobrzeg", "addr:housenumber": "2", "addr:postcode": "39-400", "addr:street": "Targowa", "amenity": "pharmacy", "brand": "Gemini", "brand:wikidata": "Q130243797", "healthcare": "pharmacy", "name": "Gemini", "ref:csioz": "1210160"}}, {"type": "node", "id": 9547815027, "lat": 50.5718739, "lon": 21.6662797, "tags": {"addr:city": "Tarnobrzeg", "addr:housenumber": "1", "addr:postcode": "39-400", "addr:street": "1 Maja", "amenity": "pharmacy", "healthcare": "pharmacy", "name": "Na Sokolej", "ref:csioz": "1144085"}}, {"type": "node", "id": 9547821920, "lat": 50.5889434, "lon": 21.6914795, "tags": {"addr:city": "Tarnobrzeg", "addr:housenumber": "5", "addr:postcode": "39-400", "addr:street": "Aleja Warszawska", "amenity": "pharmacy", "name": "Apteka Nova", "ref:csioz": "1218093"}}, {"type": "node", "id": 9547826602, "lat": 50.4152291, "lon": 21.751608, "tags": {"addr:city": "Nowa D\u0119ba", "addr:flats": "37", "addr:housenumber": "3", "addr:postcode": "39-460", "addr:street": "Aleja Zwyci\u0119stwa", "amenity": "pharmacy", "name": "Twoje Leki", "ref:csioz": "1143948"}}, {"type": "node", "id": 9547895402, "lat": 50.4136159, "lon": 21.7534957, "tags": {"addr:city": "Nowa D\u0119ba", "addr:housenumber": "5", "addr:postcode": "39-460", "addr:street": "Rzeszowska", "amenity": "pharmacy", "ref:csioz": "1143973"}}, {"type": "node", "id": 9547917564, "lat": 50.5167127, "lon": 21.669806, "tags": {"addr:city": "Chmiel\u00f3w", "addr:housenumber": "5", "addr:postcode": "39-442", "addr:street": "Kolejowa", "amenity": "pharmacy", "ref:csioz": "1228698"}}, {"type": "node", "id": 9547924200, "lat": 50.4160819, "lon": 21.7521092, "tags": {"addr:city": "Nowa D\u0119ba", "addr:housenumber": "18F", "addr:postcode": "39-460", "addr:street": "Jana Paw\u0142a II", "amenity": "pharmacy", "name": "Centrum", "ref:csioz": "1143961"}}, {"type": "node", "id": 9547926709, "lat": 50.5609459, "lon": 21.743674, "tags": {"addr:housenumber": "89", "addr:place": "Stale", "addr:postcode": "39-400", "amenity": "pharmacy", "name": "Punkt Apteczny Rodzinny", "ref:csioz": "1165342"}}, {"type": "node", "id": 9547941106, "lat": 50.4987585, "lon": 21.5417815, "tags": {"addr:city": "Baran\u00f3w Sandomierski", "addr:housenumber": "4", "addr:postcode": "39-450", "addr:street": "Fabryczna", "amenity": "pharmacy", "dispensing": "yes", "healthcare": "pharmacy", "name": "Serdeczna", "ref:csioz": "1216973"}}, {"type": "node", "id": 9547941800, "lat": 50.41522, "lon": 21.752256, "tags": {"addr:city": "Nowa D\u0119ba", "addr:flats": "22", "addr:housenumber": "1b", "addr:postcode": "39-460", "addr:street": "Aleja Zwyci\u0119stwa", "amenity": "pharmacy", "name": "R\u00f3\u017cana", "opening_hours": "Mo-Fr 07:00-21:00; Sa 08:00-17:00", "ref:csioz": "1184805"}}, {"type": "node", "id": 9765287191, "lat": 50.6687534, "lon": 21.5681793, "tags": {"amenity": "pharmacy", "dispensing": "yes", "fixme": "Lokalizacja do weryfikacji", "healthcare": "pharmacy", "name": "Punkt Apteczny Mi\u0119towy", "ref:csioz": "1231091"}}, {"type": "node", "id": 9765313594, "lat": 50.6431229, "lon": 21.6439567, "tags": {"addr:housenumber": "50A", "addr:place": "Samborzec", "amenity": "pharmacy", "dispensing": "yes", "name": "Nova", "ref:csioz": "1222005"}}, {"type": "node", "id": 9765313595, "lat": 50.5429213, "lon": 21.5337549, "tags": {"addr:housenumber": "29", "addr:place": "\u015awiniary Stare", "amenity": "pharmacy", "dispensing": "yes", "fixme": "Lokalizacja do weryfikacji", "name": "Punkt Apteczny Rodzinny", "ref:csioz": "1221831"}}, {"type": "node", "id": 9765313597, "lat": 50.6557699, "lon": 21.4505084, "tags": {"addr:city": "Klimont\u00f3w", "addr:housenumber": "10", "addr:street": "Osiecka", "amenity": "pharmacy", "dispensing": "yes", "fixme": "Lokalizacja do weryfikacji", "name": "Rodzinna", "ref:csioz": "1215259"}}, {"type": "node", "id": 9765313598, "lat": 50.5613314, "lon": 21.522213, "tags": {"addr:housenumber": "50", "addr:place": "\u0141oni\u00f3w-Kolonia", "amenity": "pharmacy", "dispensing": "yes", "healthcare": "pharmacy", "name": "Punkt Apteczny Arnika", "ref:csioz": "1212911"}}, {"type": "node", "id": 9765313601, "lat": 50.5833857, "lon": 21.4729242, "tags": {"addr:housenumber": "78", "addr:place": "Sulis\u0142awice", "amenity": "pharmacy", "dispensing": "yes", "fixme": "Lokalizacja do weryfikacji", "name": "Punkt Apteczny Rodzinny", "ref:csioz": "1114843"}}, {"type": "node", "id": 9765313603, "lat": 50.6544086, "lon": 21.4605511, "tags": {"addr:city": "Klimont\u00f3w", "addr:housenumber": "76A", "addr:street": "Sandomierska", "amenity": "pharmacy", "dispensing": "yes", "name": "Rodzinna", "ref:csioz": "1003750"}}, {"type": "node", "id": 9765313606, "lat": 50.644506, "lon": 21.6451478, "tags": {"addr:housenumber": "71", "addr:place": "Samborzec", "amenity": "pharmacy", "dispensing": "yes", "ref:csioz": "1002951"}}, {"type": "node", "id": 9765313608, "lat": 50.6572439, "lon": 21.4473429, "tags": {"addr:city": "Klimont\u00f3w", "addr:housenumber": "17A", "addr:street": "Krakowska", "amenity": "pharmacy", "dispensing": "yes", "ref:csioz": "1001393"}}, {"type": "node", "id": 9765313610, "lat": 50.6548869, "lon": 21.460739, "tags": {"addr:city": "Klimont\u00f3w", "addr:housenumber": "63", "addr:street": "Sandomierska", "amenity": "pharmacy", "dispensing": "yes", "name": "Cef@Rm 36,6", "ref:csioz": "1001175"}}, {"type": "node", "id": 9786780679, "lat": 50.5557455, "lon": 21.1609859, "tags": {"addr:city": "Stasz\u00f3w", "addr:housenumber": "49", "addr:street": "Krakowska", "amenity": "pharmacy", "dispensing": "yes", "healthcare": "pharmacy", "name": "Artfarm", "ref:csioz": "1172176"}}, {"type": "node", "id": 9786826866, "lat": 50.5186943, "lon": 21.4470466, "tags": {"addr:city": "Osiek", "addr:housenumber": "18A", "addr:street": "Wolno\u015bci", "amenity": "pharmacy", "dispensing": "yes", "healthcare": "pharmacy", "name": "Rodzinna", "ref:csioz": "1230781"}}, {"type": "node", "id": 9786826867, "lat": 50.431644, "lon": 21.2787473, "tags": {"addr:city": "Po\u0142aniec", "addr:housenumber": "3A", "addr:street": "Krakowska Du\u017ca", "amenity": "pharmacy", "dispensing": "yes", "fixme": "Lokalizacja do weryfikacji", "healthcare": "pharmacy", "name": "Przy Poczcie", "ref:csioz": "1221433"}}, {"type": "node", "id": 9786826868, "lat": 50.5620119, "lon": 21.1914535, "tags": {"addr:city": "Stasz\u00f3w", "addr:housenumber": "119", "addr:street": "11 Listopada", "amenity": "pharmacy", "dispensing": "yes", "healthcare": "pharmacy", "ref:csioz": "1218861"}}, {"type": "node", "id": 9786826870, "lat": 50.4280104, "lon": 21.282829, "tags": {"addr:city": "Po\u0142aniec", "addr:housenumber": "41", "addr:street": "Tadeusza Ko\u015bciuszki", "amenity": "pharmacy", "dispensing": "yes", "fixme": "Lokalizacja do weryfikacji", "name": "Apfarm", "ref:csioz": "1213708"}}, {"type": "node", "id": 9786826871, "lat": 50.5202026, "lon": 21.4428949, "tags": {"addr:city": "Osiek", "addr:housenumber": "13", "addr:postcode": "28-221", "addr:street": "Rynek", "amenity": "pharmacy", "dispensing": "yes", "healthcare": "pharmacy", "name": "Arnika", "ref:csioz": "1189722"}}, {"type": "node", "id": 9786826872, "lat": 50.5617187, "lon": 21.1901708, "tags": {"addr:city": "Stasz\u00f3w", "addr:city:simc": "0981274", "addr:housenumber": "76A", "addr:postcode": "28-200", "addr:street": "11 Listopada", "amenity": "pharmacy", "dispensing": "yes", "healthcare": "pharmacy", "name": "Plus", "phone": "+48 15 832 07 84", "ref:csioz": "1181614", "website": "http://plusapteka.pl/"}}, {"type": "node", "id": 9786826873, "lat": 50.5643125, "lon": 21.1684752, "tags": {"addr:city": "Stasz\u00f3w", "addr:city:simc": "0981274", "addr:housenumber": "1", "addr:street": "Rynek", "amenity": "pharmacy", "brand": "Dr. Max", "brand:wikidata": "Q56317371", "dispensing": "yes", "fixme": "Lokalizacja do weryfikacji", "healthcare": "pharmacy", "name": "Dr. Max", "ref:csioz": "1176015"}}, {"type": "node", "id": 9786826875, "lat": 50.5950158, "lon": 21.2473135, "tags": {"addr:housenumber": "116", "addr:place": "Wi\u015bniowa", "amenity": "pharmacy", "dispensing": "yes", "fixme": "Lokalizacja do weryfikacji", "name": "Punkt Apteczny Rodzinny", "ref:csioz": "1004899"}}, {"type": "node", "id": 9786826878, "lat": 50.4296737, "lon": 21.2750054, "tags": {"addr:city": "Po\u0142aniec", "addr:housenumber": "1", "addr:street": "Stefana Czarnieckiego", "amenity": "pharmacy", "dispensing": "yes", "healthcare": "pharmacy", "name": "Ja\u015bminowa", "ref:csioz": "1003379"}}, {"type": "node", "id": 9786826880, "lat": 50.5657821, "lon": 21.1674552, "tags": {"addr:city": "Stasz\u00f3w", "addr:city:simc": "0981274", "addr:housenumber": "10", "addr:street": "Opatowska", "amenity": "pharmacy", "dispensing": "yes", "name": "Zdrowie Rh+", "ref:csioz": "1001890"}}, {"type": "node", "id": 9786826881, "lat": 50.4330239, "lon": 21.333503, "tags": {"addr:housenumber": "24", "addr:place": "Zawada", "amenity": "pharmacy", "dispensing": "yes", "fixme": "Lokalizacja do weryfikacji", "healthcare": "pharmacy", "ref:csioz": "1001134"}}, {"type": "node", "id": 9786826882, "lat": 50.4242928, "lon": 21.281746, "tags": {"addr:city": "Po\u0142aniec", "addr:housenumber": "2", "addr:street": "\u017bapniowska", "amenity": "pharmacy", "dispensing": "yes", "ref:csioz": "1001127"}}, {"type": "node", "id": 9901847938, "lat": 50.3748067, "lon": 21.7463316, "tags": {"amenity": "pharmacy", "dispensing": "yes", "healthcare": "pharmacy", "name": "Maxpharma", "opening_hours": "Mo-Fr 08:00-19:00 Sa 08:00-13:00", "phone": "+48 15 847 33 68"}}, {"type": "node", "id": 10536343181, "lat": 50.4721498, "lon": 21.5586142, "tags": {"amenity": "pharmacy", "dispensing": "yes", "fixme": "Lokalizacja do weryfikacji (wg rejestru MZ adres apteki to Skopanie 298 )", "healthcare": "pharmacy", "ref:csioz": "1143985"}}, {"type": "node", "id": 11119878073, "lat": 50.1958775, "lon": 21.2779333, "tags": {"addr:city": "Radomy\u015bl Wielki", "addr:city:simc": "0982411", "addr:housenumber": "2", "addr:postcode": "39-310", "addr:street": "Targowa", "amenity": "pharmacy", "name": "Witaminka", "ref:csioz": "1144618"}}, {"type": "node", "id": 11727643786, "lat": 50.3764776, "lon": 21.7453245, "tags": {"amenity": "pharmacy", "healthcare": "pharmacy"}}, {"type": "node", "id": 11962211423, "lat": 50.5739101, "lon": 21.674189, "tags": {"amenity": "pharmacy", "healthcare": "pharmacy", "name": "Apteka Nova"}}, {"type": "node", "id": 12361063990, "lat": 50.196326, "lon": 21.2782516, "tags": {"amenity": "pharmacy", "healthcare": "pharmacy", "name": "Apteka Arnika"}}, {"type": "way", "id": 336648976, "nodes": [3436973876, 3436973877, 3436973878, 3436973879, 3436973876], "tags": {"addr:city": "Mielec", "addr:housenumber": "2", "addr:postcode": "39-300", "addr:street": "Antoniego Kocjana", "amenity": "pharmacy", "building": "retail", "building:levels": "1", "email": "mielec.kocjana@aptekatwojeleki.pl", "healthcare": "pharmacy", "name": "Twoje Leki", "opening_hours": "Mo-Fr 08:00-20:00; Sa 08:00-15:00", "ref:csioz": "1144295", "source:addr": "EMUiA (emuia.gugik.gov.pl)", "website": "http://www.aptekatwojeleki.pl/"}}]}