{"version": 0.6, "generator": "Overpass API 0.7.62.8 e802775f", "osm3s": {"timestamp_osm_base": "2025-10-06T08:59:45Z", "copyright": "The data included in this document is from www.openstreetmap.org. The data is made available under ODbL."}, "elements": [{"type": "node", "id": 2412443662, "lat": 56.2678008, "lon": 21.5310624, "tags": {"amenity": "pharmacy", "brand": "Eurovaistin\u0117", "brand:wikidata": "Q267205", "brand:wikipedia": "en:Euroapotheca", "dispensing": "yes", "healthcare": "pharmacy", "name": "Eurovaistin\u0117"}}, {"type": "node", "id": 2414317499, "lat": 56.6766664, "lon": 22.0165563}, {"type": "node", "id": 2414317500, "lat": 56.6766816, "lon": 22.0163776}, {"type": "node", "id": 2414317503, "lat": 56.6768904, "lon": 22.0164365}, {"type": "node", "id": 3388015235, "lat": 56.676035, "lon": 22.0142878}, {"type": "node", "id": 3388015236, "lat": 56.6758843, "lon": 22.0142932}, {"type": "node", "id": 3388015237, "lat": 56.6758822, "lon": 22.0141007}, {"type": "node", "id": 3388015238, "lat": 56.6760329, "lon": 22.0140953}, {"type": "node", "id": 6577117066, "lat": 56.3195903, "lon": 22.0101888, "tags": {"amenity": "pharmacy", "name": "Smilgos vaistin\u0117", "opening_hours": "Mo-Fr 08:30-16:00"}}, {"type": "node", "id": 8743501351, "lat": 56.6768747, "lon": 22.016615}, {"type": "node", "id": 8743501352, "lat": 56.6769301, "lon": 22.0166064}, {"type": "node", "id": 8743501353, "lat": 56.6769205, "lon": 22.0167192}, {"type": "node", "id": 8743501354, "lat": 56.6768671, "lon": 22.0167041}, {"type": "node", "id": 8743501355, "lat": 56.6768772, "lon": 22.0165915}, {"type": "node", "id": 12765948944, "lat": 56.4473394, "lon": 21.5851505, "tags": {"addr:city": "Priekule", "addr:country": "LV", "addr:district": "Dienvidkurzemes novads", "addr:housenumber": "1", "addr:postcode": "LV-3434", "addr:street": "Galven\u0101 iela", "amenity": "pharmacy", "brand": "M\u0113ness aptieka", "brand:wikidata": "Q57583051", "healthcare": "pharmacy", "name": "M\u0113ness aptieka", "opening_hours": "Mo-Fr 09:00-17:00; Sa 09:00-15:00", "phone": "+371 20 377 544;+371 67 617 805", "ref:LV:addr": "101462678", "website": "https://www.menessaptieka.lv"}}, {"type": "way", "id": 233088977, "nodes": [2414317503, 8743501355, 8743501352, 8743501353, 8743501354, 8743501351, 2414317499, 2414317500, 2414317503], "tags": {"addr:city": "Skrunda", "addr:country": "LV", "addr:district": "Kuld\u012bgas novads", "addr:housenumber": "4", "addr:postcode": "LV-3326", "addr:street": "Kuld\u012bgas iela", "amenity": "pharmacy", "building": "yes", "contact:phone": "+371 27020119", "name": "Latvijas aptieka", "ref:LV:addr": "101480928"}}, {"type": "way", "id": 331704534, "nodes": [3388015235, 3388015236, 3388015237, 3388015238, 3388015235], "tags": {"addr:city": "Skrunda", "addr:country": "LV", "addr:district": "Kuld\u012bgas novads", "addr:housenumber": "3", "addr:postcode": "LV-3326", "addr:street": "1. maija laukums", "amenity": "pharmacy", "building": "yes", "contact:phone": "+371 63350065", "contact:website": "www.manaaptieka.lv", "name": "Mana Aptieka", "opening_hours": "Mo-Fr 08:00-19:00; Sa 08:00-16:00", "ref:LV:addr": "101479853"}}]}