{"version": 0.6, "generator": "Overpass API 0.7.62.8 e802775f", "osm3s": {"timestamp_osm_base": "2025-10-06T07:57:45Z", "copyright": "The data included in this document is from www.openstreetmap.org. The data is made available under ODbL."}, "elements": [{"type": "node", "id": 477224117, "lat": 47.0555763, "lon": 18.911453, "tags": {"amenity": "pharmacy", "healthcare": "pharmacy"}}, {"type": "node", "id": 494238007, "lat": 47.3885455, "lon": 19.2071709, "tags": {"amenity": "pharmacy", "dispensing": "yes", "healthcare": "pharmacy", "name": "Arany\u00e1g Patika"}}, {"type": "node", "id": 514776218, "lat": 47.3826288, "lon": 19.214005, "tags": {"amenity": "pharmacy", "dispensing": "yes", "healthcare": "pharmacy", "name": "Fagy\u00f6ngy patika", "wheelchair": "yes"}}, {"type": "node", "id": 740417966, "lat": 47.2498189, "lon": 18.8947385, "tags": {"amenity": "pharmacy", "healthcare": "pharmacy", "name": "B\u00e1r\u00f3 E\u00f6tv\u00f6s J\u00f3zsef Patika", "opening_hours": "Mo-Fr 07:00-18:30"}}, {"type": "node", "id": 1827616347, "lat": 47.347003, "lon": 19.1144745, "tags": {"addr:city": "Dunaharaszti", "addr:housenumber": "2", "addr:postcode": "2330", "addr:street": "Golgota t\u00e9r", "amenity": "pharmacy", "contact:email": "szentdorottyapatika@flynet.hu", "contact:fax": "+36 24 655 347", "contact:phone": "+36 24 655 346", "healthcare": "pharmacy", "name": "Szent Dorottya Gy\u00f3gyszert\u00e1r", "opening_hours": "Mo-Fr 08:00-19:00; Sa 08:00-13:00; PH off", "website": "http://www.szentdorottyapatika.hu"}}, {"type": "node", "id": 1833812945, "lat": 47.3329646, "lon": 19.0637478, "tags": {"addr:city": "Taksony", "addr:housenumber": "66", "addr:postcode": "2335", "addr:street": "F\u0151 \u00fat", "amenity": "pharmacy", "contact:email": "strauss@invitel.hu", "contact:phone": "+36 24 477 364", "contact:website": "http://www.nadaskaytaksony.novodata.hu", "healthcare": "pharmacy", "name": "N\u00e1daskay Patika Bt.", "opening_hours": "Mo-Fr 07:30-19:00; Sa 08:00-12:00"}}, {"type": "node", "id": 2046760330, "lat": 47.2872837, "lon": 19.0635354, "tags": {"amenity": "pharmacy", "healthcare": "pharmacy", "name": "Kincsem Gy\u00f3gyszert\u00e1r"}}, {"type": "node", "id": 2089385735, "lat": 47.3176622, "lon": 18.9095669, "tags": {"addr:city": "Sz\u00e1zhalombatta", "addr:housenumber": "10", "addr:postcode": "2440", "addr:street": "Szent Istv\u00e1n t\u00e9r", "amenity": "pharmacy", "brand": "Benu", "contact:website": "https://benu.hu/benu-gyogyszertar-szazhalombatta-lakotelep", "healthcare": "pharmacy"}}, {"type": "node", "id": 2117519364, "lat": 47.2646581, "lon": 18.9930232, "tags": {"addr:city": "Majosh\u00e1za", "addr:housenumber": "30", "addr:postcode": "2339", "addr:street": "\u00c1rp\u00e1d utca", "amenity": "pharmacy", "contact:phone": "+36 24 511 626", "dispensing": "yes", "healthcare": "pharmacy", "name": "Peregi Gy\u00f3gyszert\u00e1r Fi\u00f3kgy\u00f3gyszert\u00e1ra", "opening_hours": "Mo,We,Fr 08:00-12:00; Tu 12:00-16:00; Th 15:00-18:30"}}, {"type": "node", "id": 2296770523, "lat": 47.3987086, "lon": 19.1128421, "tags": {"amenity": "pharmacy", "healthcare": "pharmacy"}}, {"type": "node", "id": 2296781992, "lat": 47.3984166, "lon": 19.1147327, "tags": {"amenity": "pharmacy", "drive_through": "no", "healthcare": "pharmacy", "name": "Soroks\u00e1ri Gy\u00f3gyszert\u00e1r"}}, {"type": "node", "id": 2319489659, "lat": 47.4071386, "lon": 19.0791102, "tags": {"amenity": "pharmacy", "healthcare": "pharmacy", "name": "Feh\u00e9r patika"}}, {"type": "node", "id": 2319588259, "lat": 47.4085969, "lon": 19.0734592, "tags": {"addr:city": "Budapest", "addr:postcode": "1214", "amenity": "pharmacy", "healthcare": "pharmacy", "name": "Aqua Patika", "opening_hours": "Mo-Fr 08:00-19:30; Sa 08:00-12:00"}}, {"type": "node", "id": 2340546546, "lat": 47.2872856, "lon": 18.6547199, "tags": {"amenity": "pharmacy", "check_date": "2023-04-06", "opening_hours": "Mo,We 10:30-16:30; Fr 09:00-12:00", "payment:mastercard": "yes", "payment:visa": "yes"}}, {"type": "node", "id": 2398578268, "lat": 47.4058512, "lon": 19.1883967, "tags": {"addr:city": "Budapest", "addr:housenumber": "18-20", "addr:postcode": "1188", "addr:street": "Nemes utca", "amenity": "pharmacy", "drive_through": "no", "healthcare": "pharmacy", "level": "0", "name": "Nemes Gy\u00f3gyszert\u00e1r", "opening_hours": "Mo-Fr 07:30-19:30", "operator": "Alma Gy\u00f3gyszert\u00e1r", "wheelchair": "yes"}}, {"type": "node", "id": 2407864483, "lat": 47.4237986, "lon": 19.1319044, "tags": {"amenity": "pharmacy", "healthcare": "pharmacy", "name": "\u00c1rnika patika", "opening_hours": "Mo-Fr 08:00-16:00"}}, {"type": "node", "id": 2509749296, "lat": 47.3390793, "lon": 19.0364476, "tags": {"amenity": "pharmacy", "healthcare": "pharmacy", "name": "K\u00edgy\u00f3 patika", "wheelchair": "yes"}}, {"type": "node", "id": 2641816156, "lat": 47.3731999, "lon": 18.9213576, "tags": {"amenity": "pharmacy", "dispensing": "no", "healthcare": "pharmacy", "name": "Szent Kl\u00e1ra Gy\u00f3gyszert\u00e1r"}}, {"type": "node", "id": 2800821223, "lat": 47.3407666, "lon": 19.0372893, "tags": {"addr:street": "Radn\u00f3ti Mikl\u00f3s utca", "amenity": "pharmacy", "brand": "Benu", "brand:wikidata": "Q62562792", "healthcare": "pharmacy", "name": "Benu", "opening_hours": "Mo-Fr 08:00-18:00; Sa 08:00-12:00"}}, {"type": "node", "id": 2912565000, "lat": 47.2933534, "lon": 19.2268225, "tags": {"amenity": "pharmacy", "healthcare": "pharmacy", "name": "Korona gy\u00f3gyszert\u00e1r"}}, {"type": "node", "id": 2913803623, "lat": 47.0241394, "lon": 18.9319244, "tags": {"addr:city": "R\u00e1calm\u00e1s", "addr:housenumber": "6", "addr:postcode": "2459", "addr:street": "Kor\u00e1nyi t\u00e9r", "amenity": "pharmacy", "healthcare": "pharmacy", "name": "Krist\u00e1ly Gy\u00f3gyszert\u00e1r"}}, {"type": "node", "id": 2967329927, "lat": 47.238826, "lon": 18.672636, "tags": {"addr:city": "K\u00e1poln\u00e1sny\u00e9k", "addr:housenumber": "18", "addr:postcode": "2475", "addr:street": "F\u0151 utca", "amenity": "pharmacy", "contact:phone": "+36 22 368 110", "name": "V\u00f6r\u00f6smarty Gy\u00f3gyszert\u00e1r", "opening_hours": "Mo-Th 08:00-16:30; Fr 08:00-15:40"}}, {"type": "node", "id": 3019903577, "lat": 47.434469, "lon": 19.1721847, "tags": {"addr:city": "Budapest", "addr:housenumber": "1", "addr:postcode": "1181", "addr:street": "V\u00e1ndor S\u00e1ndor utca", "amenity": "pharmacy", "branch": "Szent Anna", "brand": "Benu", "brand:wikidata": "Q62562792", "healthcare": "pharmacy", "name": "Benu", "opening_hours": "Mo-Fr 08:00-19:30; Sa 08:00-12:00", "operator": "Benu Gy\u00f3gyszert\u00e1r", "phone": "+36 1 290 8631", "wheelchair": "yes"}}, {"type": "node", "id": 3113202623, "lat": 47.161563, "lon": 18.945297, "tags": {"amenity": "pharmacy", "healthcare": "pharmacy", "name": "Galenus Gy\u00f3gyszert\u00e1r", "opening_hours": "Mo-Fr 08:00-18:00; Sa 08:00-12:00", "wheelchair": "yes"}}, {"type": "node", "id": 3113202625, "lat": 47.1571852, "lon": 18.945325, "tags": {"amenity": "pharmacy", "branch": "Szent Istv\u00e1n Gy\u00f3gyszert\u00e1r", "brand": "Szimpatika", "brand:wikidata": "Q105626428", "healthcare": "pharmacy", "name": "Szimpatika", "opening_hours": "Mo-Fr 08:00-18:00; Sa 08:00-12:30"}}, {"type": "node", "id": 3204787617, "lat": 47.3147394, "lon": 18.7897946}, {"type": "node", "id": 3204787622, "lat": 47.3148561, "lon": 18.7895285}, {"type": "node", "id": 3208924431, "lat": 47.3147036, "lon": 18.7893851}, {"type": "node", "id": 3208924432, "lat": 47.3146308, "lon": 18.7895438}, {"type": "node", "id": 3208924433, "lat": 47.3147163, "lon": 18.7896092}, {"type": "node", "id": 3208924434, "lat": 47.3146593, "lon": 18.789768}, {"type": "node", "id": 3217651161, "lat": 47.4065379, "lon": 19.188932, "tags": {"addr:city": "Budapest", "addr:housenumber": "86", "addr:postcode": "1188", "addr:street": "Ady Endre utca", "amenity": "pharmacy", "healthcare": "pharmacy", "name": "Pestszentimrei Gizella Gy\u00f3gyszert\u00e1r", "opening_hours": "Mo-Fr 08:00-20:00; Sa 08:00-12:00", "phone": "+36 1 297 0133", "wheelchair": "yes"}}, {"type": "node", "id": 3446961208, "lat": 47.1836056, "lon": 19.0022049, "tags": {"amenity": "pharmacy", "dispensing": "yes", "healthcare": "pharmacy", "name": "R\u00e1k\u00f3czi gy\u00f3gyszert\u00e1r", "opening_hours": "Mo-Fr 08:00-18:00", "source": "survey", "wheelchair": "yes"}}, {"type": "node", "id": 3454477992, "lat": 47.1205937, "lon": 18.8661185, "tags": {"amenity": "pharmacy", "healthcare": "pharmacy", "name": "Patika", "name:en": "Koriander Gy\u00f3gyszert\u00e1r", "source": "turistautak.hu", "source:date": "2012-09-12", "url": "http://turistautak.hu/poi.php?id=144602"}}, {"type": "node", "id": 3454478861, "lat": 46.955826, "lon": 18.853563, "tags": {"amenity": "pharmacy", "healthcare": "pharmacy", "source": "turistautak.hu", "source:date": "2014-12-07", "url": "http://turistautak.hu/poi.php?id=174839"}}, {"type": "node", "id": 3454478993, "lat": 46.9625397, "lon": 18.9414264, "tags": {"addr:city": "Duna\u00fajv\u00e1ros", "addr:housenumber": "33/a", "addr:postcode": "2400", "addr:street": "Vasm\u0171 \u00fat", "amenity": "pharmacy", "brand": "Kulcs patik\u00e1k", "check_date": "2025-03-22", "contact:phone": "+36 25 410 100", "dispensing": "yes", "healthcare": "pharmacy", "name": "Vasm\u0171 \u00fati \u0150spatika", "opening_hours": "Mo-Fr 07:30-18:30; Sa 08:00-12:00; PH off", "operator": "Vasm\u0171 \u00fati \u0150spatika Kft.", "operator:addr": "2400 Duna\u00fajv\u00e1ros, Vasm\u0171 \u00fat 33/a", "payment:cash": "yes", "payment:contactless": "yes", "payment:maestro": "yes", "payment:mastercard": "yes", "payment:visa": "yes", "ref:HU:company": "07-09-013217", "ref:HU:vatin": "13986331-2-07", "ref:vatin": "HU13986331", "source": "http://turistautak.hu/poi.php?id=112278", "source:date": "2012-01-01"}}, {"type": "node", "id": 3454479009, "lat": 46.964352, "lon": 18.9416647, "tags": {"addr:city": "Duna\u00fajv\u00e1ros", "addr:housenumber": "1", "addr:postcode": "2400", "addr:street": "Kor\u00e1nyi S\u00e1ndor utca", "amenity": "pharmacy", "check_date": "2025-03-22", "dispensing": "yes", "healthcare": "pharmacy", "name": "Patika Libra", "opening_hours": "Mo-Fr 07:00-19:00; Sa 07:00-12:00; Su off", "operator": "\"Somogyi Patika\" Bt.", "operator:addr": "2400 Duna\u00fajv\u00e1ros, Kor\u00e1nyi S\u00e1ndor utca 1", "payment:cash": "yes", "payment:contactless": "yes", "payment:maestro": "yes", "payment:mastercard": "yes", "payment:visa": "yes", "ref:HU:company": "07-06-002572", "ref:HU:vatin": "22031927-2-07", "source": "turistautak.hu", "source:date": "2012-01-01", "url": "http://turistautak.hu/poi.php?id=112279"}}, {"type": "node", "id": 3461942712, "lat": 46.9723337, "lon": 19.0168314, "tags": {"addr:city": "Szalkszentm\u00e1rton", "amenity": "pharmacy", "healthcare": "pharmacy", "source": "turistautak.hu", "source:date": "2011-06-30", "url": "http://turistautak.hu/poi.php?id=100816"}}, {"type": "node", "id": 3461942746, "lat": 47.025721, "lon": 19.122576, "tags": {"amenity": "pharmacy", "healthcare": "pharmacy", "source": "turistautak.hu", "source:date": "2011-06-24", "url": "http://turistautak.hu/poi.php?id=73702", "wheelchair": "limited"}}, {"type": "node", "id": 3461942752, "lat": 47.027333, "lon": 19.122583, "tags": {"amenity": "pharmacy", "healthcare": "pharmacy", "source": "turistautak.hu", "source:date": "2011-06-24", "url": "http://turistautak.hu/poi.php?id=85708", "wheelchair": "no"}}, {"type": "node", "id": 3465808427, "lat": 47.3547, "lon": 19.088417, "tags": {"addr:city": "Dunaharaszti", "addr:housenumber": "27", "addr:postcode": "2330", "addr:street": "D\u00f3zsa Gy\u00f6rgy \u00fat", "amenity": "pharmacy", "healthcare": "pharmacy", "name": "Gy\u00f3gyforr\u00e1s Gy\u00f3gyszert\u00e1r", "source": "turistautak.hu", "source:date": "2012-11-13", "url": "http://turistautak.hu/poi.php?id=147095"}}, {"type": "node", "id": 3465808655, "lat": 47.3231103, "lon": 18.9637465, "tags": {"addr:city": "T\u00f6k\u00f6l", "addr:housenumber": "90", "addr:postcode": "2316", "addr:street": "F\u0151 utca", "amenity": "pharmacy", "contact:facebook": "https://www.facebook.com/aszegyt", "dispensing": "yes", "drive_through": "no", "email": "tokolipatika@gmail.com", "healthcare": "pharmacy", "name": "\u00c1rp\u00e1dh\u00e1zi Szent Erzs\u00e9bet Gy\u00f3gyszert\u00e1r", "opening_hours": "Mo-Th 08:00-18:30; Fr 08:00-17:00; Sa 08:00-11:30; Su off", "phone": "+36 30 306 8598", "source": "turistautak.hu", "source:date": "2012-10-22", "url": "http://turistautak.hu/poi.php?id=146211", "website": "https://tokolipatika.hu"}}, {"type": "node", "id": 3471929555, "lat": 47.081878, "lon": 19.369555, "tags": {"amenity": "pharmacy", "healthcare": "pharmacy", "source": "turistautak.hu", "source:date": "2013-01-30", "url": "http://turistautak.hu/poi.php?id=150257"}}, {"type": "node", "id": 3471931126, "lat": 47.2235082, "lon": 19.149662, "tags": {"addr:city": "Bugyi", "addr:housenumber": "3", "addr:postcode": "2347", "addr:street": "Beleznay t\u00e9r", "amenity": "pharmacy", "contact:phone": "+36 29 347 068", "healthcare": "pharmacy", "name": "Szent Margit Gy\u00f3gyszert\u00e1r", "opening_hours": "Mo-Fr 08:00-12:00,13:00-18:00", "source": "turistautak.hu", "source:date": "2014-06-19", "url": "http://turistautak.hu/poi.php?id=169394", "website": "https://patikavilag.hu/bugyi/szent-margit-gy%C3%B3gyszert%C3%A1r"}}, {"type": "node", "id": 3488385995, "lat": 47.091967, "lon": 19.0052, "tags": {"amenity": "pharmacy", "healthcare": "pharmacy", "source": "turistautak.hu", "source:date": "2012-10-15", "url": "http://turistautak.hu/poi.php?id=124717"}}, {"type": "node", "id": 3488385996, "lat": 47.093217, "lon": 19.00272, "tags": {"amenity": "pharmacy", "healthcare": "pharmacy", "source": "turistautak.hu", "source:date": "2011-06-24", "url": "http://turistautak.hu/poi.php?id=102506"}}, {"type": "node", "id": 3488444703, "lat": 47.3809959, "lon": 19.2302169, "tags": {"amenity": "pharmacy", "healthcare": "pharmacy", "source": "turistautak.hu", "source:date": "2011-05-16", "url": "http://turistautak.hu/poi.php?id=106940", "wheelchair": "no"}}, {"type": "node", "id": 3639933763, "lat": 46.9633434, "lon": 18.9196101, "tags": {"addr:city": "Duna\u00fajv\u00e1ros", "addr:housenumber": "4", "addr:postcode": "2400", "addr:street": "Hajnal utca", "amenity": "pharmacy", "brand": "szimpatika", "brand:wikidata": "Q105626428", "check_date": "2025-03-21", "contact:email": "medicina.gyogyszertar@gmail.com", "contact:phone": "+36 25 412 113", "contact:website": "https://szimpatika.hu/medicina-gyogyszertar", "dispensing": "yes", "healthcare": "pharmacy", "name": "Medicina Gy\u00f3gyszert\u00e1r", "opening_hours": "Mo-Fr 07:30-18:30; PH off", "operator": "T. & H. Bt.", "operator:addr": "2400 Duna\u00fajv\u00e1ros, Hajnal utca 4. f\u00f6ldszint", "payment:cash": "yes", "payment:contactless": "yes", "payment:maestro": "yes", "payment:mastercard": "yes", "payment:visa": "yes", "ref:HU:company": "07-06-006039", "ref:HU:vatin": "22072553-2-07"}}, {"type": "node", "id": 3693079629, "lat": 47.4060687, "lon": 19.0895188, "tags": {"addr:city": "Budapest", "addr:housenumber": "45", "addr:postcode": "1213", "addr:street": "Kondor utca", "amenity": "pharmacy", "check_date:opening_hours": "2024-05-02", "healthcare": "pharmacy", "name": "Kir\u00e1lyerd\u0151 Gy\u00f3gyszert\u00e1r", "opening_hours": "Mo-Fr 08:00-20:00; Sa 08:00-13:00"}}, {"type": "node", "id": 3904921796, "lat": 47.0208652, "lon": 19.0321041}, {"type": "node", "id": 3904921799, "lat": 47.0209334, "lon": 19.0321855}, {"type": "node", "id": 3904921800, "lat": 47.0209724, "lon": 19.0319108}, {"type": "node", "id": 3904921801, "lat": 47.0210406, "lon": 19.0319922}, {"type": "node", "id": 3959697958, "lat": 46.9651585, "lon": 18.9392222, "tags": {"addr:city": "Duna\u00fajv\u00e1ros", "addr:housenumber": "2/a", "addr:postcode": "2400", "addr:street": "D\u00f3zsa Gy\u00f6rgy \u00fat", "amenity": "pharmacy", "brand": "Gy\u00f6ngy Patik\u00e1k", "brand:website": "https://gyongypatikak.hu/", "contact:facebook": "https://www.facebook.com/kigyo.dunaujvaros/", "contact:phone": "+36 25 412 650", "contact:website": "http://www.kigyopatika.com/", "dispensing": "yes", "drive_through": "yes", "healthcare": "pharmacy", "name": "K\u00edgy\u00f3 Gy\u00f3gyszert\u00e1r", "opening_hours": "Mo-Fr 07:30-19:00; Sa-Su,PH off", "payment:cash": "yes", "payment:contactless": "yes", "payment:maestro": "yes", "payment:mastercard": "yes", "payment:visa": "yes", "website": "http://www.kigyopatika.com/"}}, {"type": "node", "id": 3978720936, "lat": 47.1530908, "lon": 18.8246212}, {"type": "node", "id": 3978720937, "lat": 47.1529295, "lon": 18.8248071}, {"type": "node", "id": 3978720938, "lat": 47.1529798, "lon": 18.8248974}, {"type": "node", "id": 3978720939, "lat": 47.1531442, "lon": 18.8247136}, {"type": "node", "id": 4055170897, "lat": 47.3764506, "lon": 18.9373612, "tags": {"amenity": "pharmacy", "healthcare": "pharmacy", "source": "survey"}}, {"type": "node", "id": 4532856895, "lat": 47.1826559, "lon": 19.3128318, "tags": {"amenity": "pharmacy", "dispensing": "yes", "drive_through": "yes", "healthcare": "pharmacy", "name": "Dabasi Patika", "opening_hours": "08:00-17:00"}}, {"type": "node", "id": 4549748204, "lat": 47.3399402, "lon": 18.9666153, "tags": {"addr:city": "T\u00f6k\u00f6l", "addr:housenumber": "3", "addr:postcode": "2316", "addr:street": "Kisfaludy S\u00e1ndor utca", "amenity": "pharmacy", "healthcare": "pharmacy"}}, {"type": "node", "id": 4572869789, "lat": 46.9608801, "lon": 18.9199421, "tags": {"addr:city": "Duna\u00fajv\u00e1ros", "addr:housenumber": "1", "addr:postcode": "2400", "addr:street": "B\u00e9ke k\u00f6r\u00fat", "amenity": "pharmacy", "brand": "Alma Gy\u00f3gyszert\u00e1r", "brand:website": "https://almapatika.hu", "brand:wikidata": "Q105626221", "contact:phone": "+36 25 500 012", "contact:website": "https://www.almapatika.hu/beke-gyogyszertar", "healthcare": "pharmacy", "name": "B\u00e9ke gy\u00f3gyszert\u00e1r", "name:hu": "B\u00e9ke gy\u00f3gyszert\u00e1r", "opening_hours": "Mo-Fr 09:00-19:00; Sa 08:00-18:00; PH off", "operator": "DNJV B\u00e9ke Gy\u00f3gyszert\u00e1r Kft.", "operator:addr": "8000 Sz\u00e9kesfeh\u00e9rv\u00e1r, Palotai \u00fat 8/c. fszt. 4", "ref:HU:company": "07-09-027569", "ref:HU:vatin": "23919686-2-07", "ref:vatin": "HU23919686"}}, {"type": "node", "id": 4608561258, "lat": 47.3232074, "lon": 18.9991625}, {"type": "node", "id": 4608561259, "lat": 47.3232992, "lon": 18.9993166}, {"type": "node", "id": 4608561260, "lat": 47.3232036, "lon": 18.9994405}, {"type": "node", "id": 4608561261, "lat": 47.3231762, "lon": 18.9993944}, {"type": "node", "id": 4608561262, "lat": 47.3231518, "lon": 18.9994261}, {"type": "node", "id": 4608561263, "lat": 47.3230874, "lon": 18.999318}, {"type": "node", "id": 4608561281, "lat": 47.3232382, "lon": 18.9993956, "tags": {"entrance": "yes"}}, {"type": "node", "id": 4677464252, "lat": 47.3156264, "lon": 19.1648398, "tags": {"addr:city": "Als\u00f3n\u00e9medi", "addr:housenumber": "1", "addr:postcode": "2351", "addr:street": "D\u00f3zsa Gy\u00f6rgy t\u00e9r", "amenity": "pharmacy", "name": "Gl\u00f3ria gy\u00f3gyszert\u00e1r"}}, {"type": "node", "id": 4828413252, "lat": 47.0503396, "lon": 18.7879414, "tags": {"amenity": "pharmacy", "healthcare": "pharmacy", "name": "M\u00e9rleg gy\u00f3gyszert\u00e1r"}}, {"type": "node", "id": 4843970789, "lat": 47.3579347, "lon": 18.9851931, "tags": {"addr:city": "Hal\u00e1sztelek", "addr:housenumber": "1", "addr:postcode": "2314", "addr:street": "Kossuth Lajos utca", "amenity": "pharmacy", "drive_through": "no", "healthcare": "pharmacy", "name": "Szent Erzs\u00e9bet Gy\u00f3gyszert\u00e1r"}}, {"type": "node", "id": 4939174337, "lat": 46.9636768, "lon": 18.9334913, "tags": {"addr:city": "Duna\u00fajv\u00e1ros", "addr:housenumber": "6/b", "addr:postcode": "2400", "addr:street": "T\u00e1ncsics Mih\u00e1ly utca", "amenity": "pharmacy", "brand": "Kulcs patik\u00e1k", "check_date": "2025-03-22", "contact:email": "zoldkeresztdujv@gmail.com", "contact:facebook": "https://www.facebook.com/zoldkereszt.dunaujvaros/", "contact:phone": "+36 25 413 803", "dispensing": "yes", "healthcare": "pharmacy", "name": "Z\u00f6ldkereszt Gy\u00f3gyszert\u00e1r", "opening_hours": "Mo-Fr 07:30-19:00; PH off", "operator": "Z\u00f6ldkereszt-Patika Kft.", "operator:addr": "2400 Duna\u00fajv\u00e1ros, T\u00e1ncsics Mih\u00e1ly utca 6/b", "payment:cash": "yes", "payment:contactless": "yes", "payment:maestro": "yes", "payment:mastercard": "yes", "payment:visa": "yes", "ref:HU:company": "07-09-017258", "ref:HU:vatin": "14927269-2-07", "ref:vatin": "HU14927269"}}, {"type": "node", "id": 5261774921, "lat": 47.1386367, "lon": 18.7600794, "tags": {"amenity": "pharmacy", "healthcare": "pharmacy", "name": "\u00cdrisz gy\u00f3gyszert\u00e1r", "opening_hours": "Mo-Fr 08:00-18:00; Sa 08:00-12:00"}}, {"type": "node", "id": 5290027828, "lat": 47.4052024, "lon": 19.187997}, {"type": "node", "id": 5290027829, "lat": 47.4053675, "lon": 19.1877775}, {"type": "node", "id": 5300695743, "lat": 47.4051598, "lon": 19.1876978}, {"type": "node", "id": 5300695748, "lat": 47.4051882, "lon": 19.1877454}, {"type": "node", "id": 5300695749, "lat": 47.4051979, "lon": 19.1877393}, {"type": "node", "id": 5300695750, "lat": 47.4052075, "lon": 19.1877403}, {"type": "node", "id": 5300695751, "lat": 47.4052137, "lon": 19.1877474}, {"type": "node", "id": 5300695752, "lat": 47.4052151, "lon": 19.1877607}, {"type": "node", "id": 5300695753, "lat": 47.4052137, "lon": 19.1877718}, {"type": "node", "id": 5300695754, "lat": 47.4052082, "lon": 19.1877789}, {"type": "node", "id": 5300695755, "lat": 47.4052219, "lon": 19.1878023}, {"type": "node", "id": 5300695756, "lat": 47.405308, "lon": 19.1876819}, {"type": "node", "id": 5300695757, "lat": 47.4051464, "lon": 19.1879123}, {"type": "node", "id": 5300695758, "lat": 47.4051559, "lon": 19.1878982}, {"type": "node", "id": 5300695759, "lat": 47.4050881, "lon": 19.187793}, {"type": "node", "id": 5301823386, "lat": 47.4191306, "lon": 19.1565221, "tags": {"addr:city": "Budapest", "addr:postcode": "1237", "addr:street": "Bev\u00e1s\u00e1rl\u00f3 utca", "amenity": "pharmacy", "branch": "Gy\u00f3gyszert\u00e1r Bp  Auchan Soroks\u00e1r", "brand": "Benu", "brand:wikidata": "Q62562792", "healthcare": "pharmacy", "name": "Benu", "wheelchair": "yes"}}, {"type": "node", "id": 5303319760, "lat": 47.400014, "lon": 19.0978542, "tags": {"amenity": "pharmacy", "healthcare": "pharmacy", "name": "Primula Gy\u00f3gyszert\u00e1r"}}, {"type": "node", "id": 5336941510, "lat": 47.4286139, "lon": 19.219036}, {"type": "node", "id": 5336941511, "lat": 47.4285514, "lon": 19.2192154}, {"type": "node", "id": 5336941512, "lat": 47.4283999, "lon": 19.2190736}, {"type": "node", "id": 5336941513, "lat": 47.4284552, "lon": 19.2189151}, {"type": "node", "id": 5336941517, "lat": 47.4284389, "lon": 19.2189617}, {"type": "node", "id": 5816135697, "lat": 47.2264977, "lon": 18.9574001}, {"type": "node", "id": 5816135698, "lat": 47.2264109, "lon": 18.9578211}, {"type": "node", "id": 5816135699, "lat": 47.2263082, "lon": 18.9577815}, {"type": "node", "id": 5816135700, "lat": 47.2264014, "lon": 18.9573512}, {"type": "node", "id": 6042632901, "lat": 47.372948, "lon": 18.9211195, "tags": {"amenity": "pharmacy", "name": "Forr\u00e1s Gy\u00f3gyszert\u00e1r", "source": "survey"}}, {"type": "node", "id": 6255739195, "lat": 47.3490988, "lon": 19.0437305, "tags": {"amenity": "pharmacy", "dispensing": "yes", "healthcare": "pharmacy", "name": "Melissa"}}, {"type": "node", "id": 6578672028, "lat": 47.3443215, "lon": 19.2373651}, {"type": "node", "id": 6578672029, "lat": 47.3442481, "lon": 19.2374878}, {"type": "node", "id": 6578672030, "lat": 47.3441826, "lon": 19.2374025}, {"type": "node", "id": 6578672031, "lat": 47.344256, "lon": 19.2372798}, {"type": "node", "id": 7218305783, "lat": 47.4065738, "lon": 19.1129045, "tags": {"amenity": "pharmacy", "dispensing": "yes", "healthcare": "pharmacy", "level": "0", "wheelchair": "no"}}, {"type": "node", "id": 7302550888, "lat": 46.9635106, "lon": 18.9304108, "tags": {"addr:city": "Duna\u00fajv\u00e1ros", "addr:housenumber": "3/a", "addr:postcode": "2400", "addr:street": "Munk\u00e1csy Mih\u00e1ly utca", "amenity": "pharmacy", "brand": "Gy\u00f6ngy patik\u00e1k", "check_date": "2025-03-22", "contact:emergency": "+36 30 530 7604", "contact:facebook": "https://www.facebook.com/Munkacsy.Gyogyszertar.Dunaujvaros/", "contact:phone": "+36 25 412 800", "contact:website": "http://www.munkacsydunaujvaros.novodata.hu/index.php?rovat=1", "dispensing": "yes", "healthcare": "pharmacy", "name": "Munk\u00e1csy Gy\u00f3gyszert\u00e1r", "opening_hours": "Mo-Sa 08:00-19:00; PH off", "operator": "Munk\u00e1csy \u00fati Bt.", "operator:addr": "2400 Duna\u00fajv\u00e1ros, Munk\u00e1csy Mih\u00e1ly utca 3/a", "payment:cash": "yes", "payment:contactless": "yes", "payment:maestro": "yes", "payment:mastercard": "yes", "payment:visa": "yes", "ref:HU:company": "07-06-006049", "ref:HU:vatin": "22072663-2-07"}}, {"type": "node", "id": 7714525791, "lat": 47.3134662, "lon": 18.9069525, "tags": {"amenity": "pharmacy", "dispensing": "yes", "healthcare": "pharmacy", "name": "Magn\u00f3lia Gy\u00f3gyszert\u00e1r"}}, {"type": "node", "id": 7813954770, "lat": 47.3326101, "lon": 19.0046191, "tags": {"amenity": "pharmacy", "dispensing": "yes", "healthcare": "pharmacy", "name": "Phoenix Gy\u00f3gyszert\u00e1r"}}, {"type": "node", "id": 8062659273, "lat": 47.2336326, "lon": 18.9220711}, {"type": "node", "id": 8062659274, "lat": 47.2336842, "lon": 18.9218896}, {"type": "node", "id": 8062659275, "lat": 47.2337885, "lon": 18.9219539}, {"type": "node", "id": 8062659276, "lat": 47.233737, "lon": 18.9221354}, {"type": "node", "id": 8240244558, "lat": 47.4284977, "lon": 19.2191482}, {"type": "node", "id": 8240244559, "lat": 47.4284905, "lon": 19.219169}, {"type": "node", "id": 8294923453, "lat": 47.1153801, "lon": 19.0938519, "tags": {"amenity": "pharmacy", "name": "Gy\u00f3gyszert\u00e1r", "opening_hours": "Mo,We, Th, Fr 08:00-13:00; Tu 12:00-17:00; PH off"}}, {"type": "node", "id": 8423385214, "lat": 47.2132855, "lon": 19.2781533, "tags": {"amenity": "pharmacy", "dispensing": "yes", "healthcare": "pharmacy", "name": "Szent J\u00e1nos Gy\u00f3gyszert\u00e1r", "opening_hours": "Mo-Fr 08:00-17:00"}}, {"type": "node", "id": 8427149458, "lat": 47.4268522, "lon": 19.1461492, "tags": {"amenity": "pharmacy", "healthcare": "pharmacy"}}, {"type": "node", "id": 8427149459, "lat": 47.1940997, "lon": 19.3191088, "tags": {"amenity": "pharmacy", "healthcare": "pharmacy"}}, {"type": "node", "id": 9951519501, "lat": 47.313745, "lon": 18.9142132, "tags": {"amenity": "pharmacy", "brand": "Patika plus", "indoor": "yes", "level": "0"}}, {"type": "node", "id": 10095043437, "lat": 47.3547853, "lon": 19.091637, "tags": {"amenity": "pharmacy", "dispensing": "yes", "drive_through": "no", "healthcare": "pharmacy", "name": "Baktay Gy\u00f3gyszert\u00e1r", "opening_hours": "Mo-Fr 07:30-19:00; Sa 08:00-13:00", "phone": "+36 24 537 005"}}, {"type": "node", "id": 10162094123, "lat": 47.3367959, "lon": 18.9970677, "tags": {"amenity": "pharmacy", "healthcare": "pharmacy", "name": "Natura Gy\u00f3gyszert\u00e1r", "phone": "+36 24 496 716"}}, {"type": "node", "id": 10548945290, "lat": 47.2682206, "lon": 18.9629897, "tags": {"addr:city": "Szigetcs\u00e9p", "addr:housenumber": "54", "addr:postcode": "2317", "addr:street": "Szabads\u00e1g utca", "amenity": "pharmacy", "contact:phone": "+36 24 418 950", "name": "Cs\u00e9pi Fi\u00f3kgy\u00f3gyszert\u00e1r", "opening_hours": "Mo,Th,Fr 08:00-12:00; Tu,We12:30-16:00"}}, {"type": "node", "id": 10903816286, "lat": 47.4161656, "lon": 19.2081343, "tags": {"amenity": "pharmacy", "name": "\u00cdrisz Gy\u00f3gyszert\u00e1r"}}, {"type": "node", "id": 11003509632, "lat": 47.171604, "lon": 18.9980066}, {"type": "node", "id": 11003509633, "lat": 47.1715014, "lon": 18.9979864}, {"type": "node", "id": 11003509634, "lat": 47.1715151, "lon": 18.9978357}, {"type": "node", "id": 11003509635, "lat": 47.1716176, "lon": 18.9978558}, {"type": "node", "id": 11942152157, "lat": 46.9712932, "lon": 18.9345139, "tags": {"addr:city": "Duna\u00fajv\u00e1ros", "addr:housenumber": "8", "addr:postcode": "2400", "addr:street": "V\u00e1ci Mih\u00e1ly utca", "amenity": "pharmacy", "brand": "BENU Gy\u00f3gyszert\u00e1rak", "brand:wikidata": "Q61478047", "contact:phone": "+36 25 423 669", "dispensing": "yes", "healthcare": "pharmacy", "name": "R\u00f3mai Gy\u00f3gyszert\u00e1r", "opening_hours": "Mo-Fr 08:00-18:00; Sa,Su off", "operator": "Dunavital Kft.", "operator:addr": "1152 Budapest, Pal\u00e1nk utca 51", "payment:cash": "yes", "payment:contactless": "yes", "payment:maestro": "yes", "payment:mastercard": "yes", "payment:visa": "yes", "ref:HU:company": "01-09-999890", "ref:HU:vatin": "22727909-2-42", "ref:vatin": "HU22727909"}}, {"type": "node", "id": 12198581089, "lat": 47.3822425, "lon": 19.0273388, "tags": {"amenity": "pharmacy", "healthcare": "pharmacy", "name": "Szent Jobb Gy\u00f3gyszert\u00e1r"}}, {"type": "node", "id": 12690292803, "lat": 46.9635296, "lon": 18.9422053, "tags": {"addr:city": "Duna\u00fajv\u00e1ros", "addr:housenumber": "10", "addr:postcode": "2400", "addr:street": "Vasm\u0171 \u00fat", "amenity": "pharmacy", "brand": "Gy\u00f6ngy Patik\u00e1k", "brand:website": "https://gyongypatikak.hu/", "contact:phone": "+36 25 550 373", "dispensing": "yes", "healthcare": "pharmacy", "name": "Szent Pantaleon Gy\u00f3gyszert\u00e1r", "opening_hours": "Mo-Fr 08:00-16:00; PH off", "payment:cash": "yes", "payment:contactless": "yes", "payment:maestro": "yes", "payment:mastercard": "yes", "payment:visa": "yes"}}, {"type": "node", "id": 12690474023, "lat": 46.9768815, "lon": 18.9252752, "tags": {"addr:city": "Duna\u00fajv\u00e1ros", "addr:housenumber": "6", "addr:postcode": "2400", "addr:street": "Aranyv\u00f6lgyi \u00fat", "amenity": "pharmacy", "brand": "PatikaPlus", "contact:email": "dunaujvaros@patikaplus.hu", "dispensing": "yes", "healthcare": "pharmacy", "indoor": "yes", "name": "PatikaPlus Gy\u00f3gyszert\u00e1r", "opening_hours": "Mo-Sa 08:00-20:00; Sa 08:00-19:00; PH off", "operator:phone": "+36 25 500 520", "payment:cash": "yes", "payment:contactless": "yes", "payment:maestro": "yes", "payment:mastercard": "yes", "payment:visa": "yes"}}, {"type": "node", "id": 12690474024, "lat": 46.9596816, "lon": 18.9358173, "tags": {"addr:city": "Duna\u00fajv\u00e1ros", "addr:housenumber": "6/a", "addr:postcode": "2400", "addr:street": "Sz\u00f3r\u00e1d M\u00e1rton \u00fat", "amenity": "pharmacy", "brand": "Alma Gy\u00f3gyszert\u00e1r", "brand:wikidata": "Q105626221", "contact:facebook": "https://www.facebook.com/piacipatika/", "contact:phone": "+36 25 504 160", "contact:website": "https://almapatika.hu/patika/piaci-gyogyszertar-dunaujvaros", "dispensing": "yes", "healthcare": "pharmacy", "name": "Piaci Gy\u00f3gyszert\u00e1r", "opening_hours": "Mo 08:00-16:00; Tu-Fr 07:30-17:00; Sa 07:30-12:00; PH off", "operator": "Ag\u00f3ra 56 Bt.", "operator:addr": "2400 Duna\u00fajv\u00e1ros, Sz\u00f3r\u00e1d M. \u00fat 6/a", "payment:cash": "yes", "payment:contactless": "yes", "payment:maestro": "yes", "payment:mastercard": "yes", "payment:visa": "yes", "ref:HU:company": "07-06-008172", "ref:HU:vatin": "20197368-2-07", "ref:vatin": "HU20197368"}}, {"type": "node", "id": 12996403401, "lat": 47.3279028, "lon": 19.0068841, "tags": {"addr:city": "Szigethalom", "addr:housenumber": "58", "addr:postcode": "2315", "addr:street": "M\u0171 \u00fat", "amenity": "pharmacy", "contact:email": "mindignyitva@gmail.com", "contact:facebook": "https://www.facebook.com/mindignyitvagyogyszertar", "contact:phone": "+36 24 961 585", "contact:website": "https://szigethalompatika.hu/", "dispensing": "yes", "drive_through": "no", "healthcare": "pharmacy", "name": "Kulcs patika (0-24)", "opening_hours": "24/7", "ref:HU:vatin": "28953313-2-13", "wheelchair": "yes"}}, {"type": "way", "id": 314850342, "nodes": [3204787622, 3208924431, 3208924432, 3208924433, 3208924434, 3204787617, 3204787622], "tags": {"addr:city": "Martonv\u00e1s\u00e1r", "addr:housenumber": "11", "addr:postcode": "2462", "addr:street": "Budai \u00fat", "amenity": "pharmacy", "building": "yes", "check_date": "2025-01-15", "contact:phone": "+36 22 460 019", "healthcare": "pharmacy", "name": "Medicz Gy\u00f3gyszert\u00e1r", "opening_hours": "Mo-Fr 08:00-17:30; Sa-Su off"}}, {"type": "way", "id": 387167612, "nodes": [3904921801, 3904921799, 3904921796, 3904921800, 3904921801], "tags": {"addr:city": "Tass", "addr:housenumber": "50", "addr:postcode": "6098", "addr:street": "Sz\u00e9chenyi \u00fat", "amenity": "pharmacy", "building": "yes", "contact:fax": "+36 76 357 126", "healthcare": "pharmacy", "name": "Borosty\u00e1n gy\u00f3gyszert\u00e1r", "phone": "+36 76 536 212"}}, {"type": "way", "id": 394987761, "nodes": [3978720936, 3978720937, 3978720938, 3978720939, 3978720936], "tags": {"addr:city": "Iv\u00e1ncsa", "addr:housenumber": "104", "addr:postcode": "2454", "addr:street": "F\u0151 utca", "amenity": "pharmacy", "building": "yes", "drive_through": "no", "healthcare": "pharmacy", "name": "Iv\u00e1ncsa Patika"}}, {"type": "way", "id": 465961846, "nodes": [4608561258, 4608561259, 4608561281, 4608561260, 4608561261, 4608561262, 4608561263, 4608561258], "tags": {"addr:city": "Szigethalom", "addr:housenumber": "71", "addr:postcode": "2315", "addr:street": "Szabadkai utca", "amenity": "pharmacy", "building": "yes", "healthcare": "pharmacy", "name": "Apostol Patika"}}, {"type": "way", "id": 548698983, "nodes": [5300695743, 5300695748, 5300695749, 5300695750, 5300695751, 5300695752, 5300695753, 5300695754, 5300695755, 5300695756, 5290027829, 5290027828, 5300695757, 5300695758, 5300695759, 5300695743], "tags": {"addr:city": "Budapest", "addr:housenumber": "16", "addr:postcode": "1188", "addr:street": "Nemes utca", "amenity": "pharmacy", "building": "yes", "email": "szentimreidiana@gmail.com", "healthcare": "pharmacy", "name": "Benu Gy\u00f3gyszert\u00e1r Bp. Szentimrei Di\u00e1na", "opening_hours": "Mo-Fr 07:00-20:00; Sa 08:00-13:00", "phone": "+36 1 292 1044", "start_date": "1939", "website": "https://benu.hu/", "wheelchair": "yes"}}, {"type": "way", "id": 552839662, "nodes": [5336941510, 5336941511, 8240244559, 8240244558, 5336941512, 5336941517, 5336941513, 5336941510], "tags": {"addr:city": "Budapest", "addr:postcode": "1185", "addr:street": "\u00dcll\u0151i \u00fat", "amenity": "pharmacy", "building": "yes", "drive_through": "no", "healthcare": "pharmacy", "name": "B\u00e9ke t\u00e9r Gy\u00f3gyszert\u00e1r", "opening_hours": "Mo-Su 07:00-21:00"}}, {"type": "way", "id": 614956181, "nodes": [5816135697, 5816135698, 5816135699, 5816135700, 5816135697], "tags": {"amenity": "pharmacy", "building": "yes", "dispensing": "yes", "healthcare": "pharmacy", "name": "M\u00e1rtoni Fi\u00f3kgy\u00f3gyszert\u00e1r"}}, {"type": "way", "id": 700544192, "nodes": [6578672028, 6578672029, 6578672030, 6578672031, 6578672028], "tags": {"addr:city": "Fels\u0151pakony", "addr:housenumber": "49", "addr:postcode": "2363", "addr:street": "R\u00e1k\u00f3czi utca", "amenity": "pharmacy", "brand": "Benu", "brand:wikidata": "Q62562792", "building": "yes", "dispensing": "yes", "drive_through": "no", "healthcare": "pharmacy", "name": "Benu", "opening_hours": "Mo 13:00-19:00; Tu 08:30-14:30; We 13:00-19:00; Th 08:30-14:30; Fr 09:30-15:30", "payment:apple_pay": "yes", "payment:cash": "yes", "payment:maestro": "yes", "payment:mastercard": "yes", "payment:visa": "yes", "phone": "+36 29 317 495"}}, {"type": "way", "id": 865011879, "nodes": [8062659273, 8062659274, 8062659275, 8062659276, 8062659273], "tags": {"addr:city": "Sziget\u00fajfalu", "addr:housenumber": "73", "addr:postcode": "2319", "addr:street": "F\u0151 \u00fat", "amenity": "pharmacy", "building": "retail", "colour": "#FFFF99", "dispensing": "yes", "healthcare": "pharmacy", "name": "Galenus fi\u00f3kgy\u00f3gyszert\u00e1r", "opening_hours": "Mo, We, Fr 10:00-12:00; Tu, Th 13:30-15:30"}}, {"type": "way", "id": 1184682222, "nodes": [11003509635, 11003509632, 11003509633, 11003509634, 11003509635], "tags": {"amenity": "pharmacy", "building": "yes", "dispensing": "yes", "name": "Peregi patika", "wheelchair": "no"}}]}