{"version": 0.6, "generator": "Overpass API 0.7.62.8 e802775f", "osm3s": {"timestamp_osm_base": "2025-10-06T08:16:01Z", "copyright": "The data included in this document is from www.openstreetmap.org. The data is made available under ODbL."}, "elements": [{"type": "node", "id": 464266687, "lat": 50.3230147, "lon": 19.2125267, "tags": {"amenity": "pharmacy", "dispensing": "yes", "healthcare": "pharmacy", "name": "Apteka Majakowskiego", "official_name": "Apteka Majakowskiego Centrum Tanich Lek\u00f3w", "opening_hours": "Mo-Fr 08:00-19:00; Sa 08:00-14:00", "ref:csioz": "1119865"}}, {"type": "node", "id": 484995523, "lat": 50.318665, "lon": 19.0741779, "tags": {"amenity": "pharmacy", "brand": "Dbam o Zdrowie", "brand:wikidata": "Q62563833", "dispensing": "yes", "healthcare": "pharmacy", "name": "Dbam o Zdrowie", "official_name": "Apteka Dbam O Zdrowie", "opening_hours": "Mo-Fr 08:00-18:00; Sa 09:00-13:00; Su off", "ref:csioz": "1060109", "short_name": "DOZ"}}, {"type": "node", "id": 497090541, "lat": 50.3484152, "lon": 19.1368194, "tags": {"addr:city": "B\u0119dzin", "addr:housenumber": "14", "addr:postcode": "42-504", "addr:street": "Pokoju", "amenity": "pharmacy", "dispensing": "yes", "healthcare": "pharmacy", "name": "Apovita", "ref:csioz": "1208966"}}, {"type": "node", "id": 791346704, "lat": 50.3275326, "lon": 19.1865168, "tags": {"amenity": "pharmacy", "dispensing": "yes", "healthcare": "pharmacy", "name": "Apteka Panaceum", "phone": "32 262 69 60", "ref:csioz": "1061429"}}, {"type": "node", "id": 795319574, "lat": 50.2063134, "lon": 19.1585571, "tags": {"addr:city": "Mys\u0142owice", "addr:housenumber": "36", "addr:postcode": "41-404", "addr:street": "Miko\u0142aja Reja", "amenity": "pharmacy", "brand": "Dr. Max", "brand:wikidata": "Q56317371", "contact:phone": "+48 32 222 27 47", "dispensing": "yes", "healthcare": "pharmacy", "name": "Dr. Max", "ref:csioz": "1066017"}}, {"type": "node", "id": 799211872, "lat": 50.3245667, "lon": 19.2052732, "tags": {"addr:city": "D\u0105browa G\u00f3rnicza", "addr:housenumber": "1-3", "addr:postcode": "41-300", "addr:street": "Janusza Korczaka", "amenity": "pharmacy", "dispensing": "yes", "healthcare": "pharmacy", "name": "Apteka Blisko Ciebie", "phone": "32 261 77 77", "ref:csioz": "1061407"}}, {"type": "node", "id": 799214887, "lat": 50.3254435, "lon": 19.1813369, "tags": {"amenity": "pharmacy", "dispensing": "yes", "healthcare": "pharmacy", "name": "Apteka Blisko Ciebie", "official_name": "Apteka Blisko Ciebie Centrum", "ref:csioz": "1061640"}}, {"type": "node", "id": 801165545, "lat": 50.4478537, "lon": 19.0122532, "tags": {"addr:city": "T\u0105pkowice", "addr:housenumber": "17", "addr:postcode": "41-962", "addr:street": "Zwyci\u0119stwa", "amenity": "pharmacy", "dispensing": "yes", "healthcare": "pharmacy", "ref:csioz": "1070238"}}, {"type": "node", "id": 833674156, "lat": 50.2629011, "lon": 19.0944159, "tags": {"amenity": "pharmacy", "dispensing": "yes", "healthcare": "pharmacy", "name": "Apteka \"G\u0142\u00f3wna\"", "opening_hours": "Mo-Fr 08:00-20:00, Sa 08:00-16:00", "ref:csioz": "1064101", "wheelchair": "yes"}}, {"type": "node", "id": 833674157, "lat": 50.2624036, "lon": 19.0991859, "tags": {"addr:city": "Katowice", "addr:housenumber": "21", "addr:postcode": "40-374", "addr:street": "Wiosny Lud\u00f3w", "amenity": "pharmacy", "dispensing": "yes", "drive_through": "no", "healthcare": "pharmacy", "name": "Apteka \"Pod kwiatami\"", "official_name": "Pod Kwiatami Ii", "opening_hours": "Mo-Fr 08:00-18:00, Sa 08:00-13:00", "ref:csioz": "1064544"}}, {"type": "node", "id": 839030298, "lat": 50.277164, "lon": 19.0688621, "tags": {"amenity": "pharmacy", "dispensing": "yes", "healthcare": "pharmacy", "name": "Apteka Dr.Max", "opening_hours": "Mo-Fr 08:00-19:00, Sa 08:00-15:00", "ref:csioz": "1063740", "wheelchair": "no"}}, {"type": "node", "id": 1105491339, "lat": 50.5757146, "lon": 19.3319119, "tags": {"addr:city": "Myszk\u00f3w", "addr:housenumber": "12", "addr:postcode": "42-300", "addr:street": "3 Maja", "amenity": "pharmacy", "dispensing": "yes", "healthcare": "pharmacy", "name": "Farmacja 24", "opening_hours": "Mo-Su 08:00-22:00", "phone": "343138034", "ref:csioz": "1206007"}}, {"type": "node", "id": 1260091877, "lat": 50.2434224, "lon": 19.0818009, "tags": {"amenity": "pharmacy", "dispensing": "yes", "healthcare": "pharmacy", "name": "Apteka Pod Kwiatami", "official_name": "Pod Kwiatami Iv", "ref:csioz": "1064210"}}, {"type": "node", "id": 1293385748, "lat": 50.2051195, "lon": 19.2709588, "tags": {"addr:city": "Jaworzno", "addr:housenumber": "10", "addr:street": "Ignacego Jana Paderewskiego", "amenity": "pharmacy", "dispensing": "yes", "healthcare": "pharmacy", "name": "Organika", "opening_hours": "Mo-Fr 07:00-19:00; Sa 07:00-15:00", "ref:csioz": "1063197", "wheelchair": "yes"}}, {"type": "node", "id": 1298350414, "lat": 50.2070771, "lon": 19.2538573, "tags": {"addr:city": "Jaworzno", "addr:housenumber": "27", "addr:street": "Brodzi\u0144skiego", "amenity": "pharmacy", "dispensing": "yes", "healthcare": "pharmacy", "ref:csioz": "1063029"}}, {"type": "node", "id": 1313821176, "lat": 50.2019834, "lon": 19.2705596, "tags": {"addr:city": "Jaworzno", "addr:housenumber": "5A", "addr:postcode": "43-600", "addr:street": "Plac G\u00f3rnik\u00f3w", "amenity": "pharmacy", "dispensing": "yes", "healthcare": "pharmacy", "name": "Blisko Ciebie", "ref:csioz": "1063227", "wheelchair": "yes"}}, {"type": "node", "id": 1328891577, "lat": 50.2023108, "lon": 19.2736443, "tags": {"addr:city": "Jaworzno", "addr:housenumber": "10", "addr:postcode": "43-600", "addr:street": "Henryka Sienkiewicza", "amenity": "pharmacy", "dispensing": "yes", "healthcare": "pharmacy", "name": "S\u0142oneczna", "ref:csioz": "1224093"}}, {"type": "node", "id": 1328891585, "lat": 50.2019407, "lon": 19.2732159, "tags": {"addr:city": "Jaworzno", "addr:housenumber": "64", "addr:postcode": "43-600", "addr:street": "Grunwaldzka", "amenity": "pharmacy", "brand": "Dr. Max", "brand:wikidata": "Q56317371", "dispensing": "yes", "healthcare": "pharmacy", "name": "Dr. Max", "opening_hours": "Mo-Fr 07:00-20:00; Sa 07:00-15:00", "ref:csioz": "1063078"}}, {"type": "node", "id": 1470629042, "lat": 50.350571, "lon": 19.5623752, "tags": {"amenity": "pharmacy"}}, {"type": "node", "id": 1502755070, "lat": 50.6232555, "lon": 19.2761098, "tags": {"amenity": "pharmacy", "dispensing": "yes", "healthcare": "pharmacy", "name": "Vitapharm", "ref:csioz": "1072086"}}, {"type": "node", "id": 1502760238, "lat": 50.6237254, "lon": 19.2746714, "tags": {"addr:city": "\u017barki-Letnisko", "addr:housenumber": "8", "addr:postcode": "42-311", "addr:street": "Grunwaldzka", "amenity": "pharmacy", "dispensing": "yes", "healthcare": "pharmacy", "name": "Centrum", "ref:csioz": "1072078"}}, {"type": "node", "id": 1573747921, "lat": 50.3213726, "lon": 19.1984125, "tags": {"addr:city": "D\u0105browa G\u00f3rnicza", "addr:housenumber": "13", "addr:postcode": "41-300", "addr:street": "Karola Adamieckiego", "amenity": "pharmacy", "brand": "Gemini", "brand:wikidata": "Q130243797", "dispensing": "yes", "healthcare": "pharmacy", "name": "Gemini", "ref:csioz": "1112608"}}, {"type": "node", "id": 1573771696, "lat": 50.3217604, "lon": 19.1970048, "tags": {"addr:city": "D\u0105browa G\u00f3rnicza", "addr:housenumber": "11A", "addr:postcode": "41-300", "addr:street": "Karola Adamieckiego", "amenity": "pharmacy", "dispensing": "yes", "healthcare": "pharmacy", "name": "Apteka \"Merkury\"", "official_name": "4 Pory Roku", "ref:csioz": "1061357"}}, {"type": "node", "id": 1581054647, "lat": 50.2084025, "lon": 19.2719319, "tags": {"addr:city": "Jaworzno", "addr:housenumber": "5", "addr:street": "Nosala", "amenity": "pharmacy", "dispensing": "yes", "healthcare": "pharmacy", "name": "Melisa Pharm", "ref:csioz": "1178790"}}, {"type": "node", "id": 1799495968, "lat": 50.290656, "lon": 19.1532311, "tags": {"amenity": "pharmacy", "dispensing": "yes", "healthcare": "pharmacy", "name": "Apteka Melisa", "official_name": "Apteka Melisa Pharm", "opening_hours": "Mo-Sa 09:00-21:00; Su 10:00-20:00", "ref:csioz": "1069564", "website": "http://www.aptekaplejada.pl"}}, {"type": "node", "id": 1831307960, "lat": 50.2157377, "lon": 19.255724, "tags": {"addr:city": "Jaworzno", "addr:housename": "Blisko Ciebie", "addr:housenumber": "204A", "addr:street": "Grunwaldzka", "amenity": "pharmacy", "dispensing": "yes", "healthcare": "pharmacy", "name": "Blisko Ciebie", "ref:csioz": "1063041", "wheelchair": "yes"}}, {"type": "node", "id": 1840039824, "lat": 50.3190207, "lon": 19.0699229, "tags": {"amenity": "pharmacy", "dispensing": "yes", "healthcare": "pharmacy", "name": "Staromiejska", "ref:csioz": "1060088"}}, {"type": "node", "id": 1847418692, "lat": 50.2691407, "lon": 19.5672339}, {"type": "node", "id": 1847418694, "lat": 50.269145, "lon": 19.5674096}, {"type": "node", "id": 1847418707, "lat": 50.2694307, "lon": 19.5672143}, {"type": "node", "id": 1847418709, "lat": 50.2694351, "lon": 19.5673923}, {"type": "node", "id": 1861714195, "lat": 50.3199801, "lon": 19.1383035, "tags": {"amenity": "pharmacy", "dispensing": "yes", "healthcare": "pharmacy", "name": "Zdro-Vita", "official_name": "DOZ Apteka dbam o zdrowie Zdro-Vita", "ref:csioz": "1189216"}}, {"type": "node", "id": 1872511472, "lat": 50.5776182, "lon": 19.3311041, "tags": {"addr:city": "Myszk\u00f3w", "addr:housenumber": "93", "addr:postcode": "42-300", "addr:street": "Tadeusza Ko\u015bciuszki", "amenity": "pharmacy", "dispensing": "yes", "healthcare": "pharmacy", "name": "Eskulap", "opening_hours": "Mo-Sa 08:00-20:00", "phone": "+48343132883", "ref:csioz": "1066152"}}, {"type": "node", "id": 1888613895, "lat": 50.268678, "lon": 19.0808171, "tags": {"amenity": "pharmacy", "dispensing": "yes", "healthcare": "pharmacy", "name": "Salus", "ref:csioz": "1063706"}}, {"type": "node", "id": 1891573169, "lat": 50.2712398, "lon": 19.0751625, "tags": {"addr:city": "Katowice", "addr:housenumber": "40", "addr:postcode": "40-321", "addr:street": "Genera\u0142a J\u00f3zefa Hallera", "amenity": "pharmacy", "dispensing": "yes", "healthcare": "pharmacy", "name": "Eskulap", "ref:csioz": "1063711"}}, {"type": "node", "id": 1911376802, "lat": 50.2907876, "lon": 19.1321402, "tags": {"amenity": "pharmacy", "brand": "Dr. Max", "brand:wikidata": "Q56317371", "brand:wikipedia": "fr:Dr.Max", "dispensing": "yes", "healthcare": "pharmacy", "name": "Dr. Max", "opening_hours": "Mo-Sa 07:00-21:00; Su 09:00-20:00", "ref:csioz": "1069704"}}, {"type": "node", "id": 1912831440, "lat": 50.2904239, "lon": 19.1322216, "tags": {"amenity": "pharmacy", "brand": "Gemini", "brand:wikidata": "Q130243797", "dispensing": "yes", "healthcare": "pharmacy", "name": "Gemini", "official_name": "Na Orlej", "opening_hours": "Mo-Fr 08:00-20:00; Sa 08:00-18:00", "ref:csioz": "1069447"}}, {"type": "node", "id": 1927476450, "lat": 50.327464, "lon": 19.1808232}, {"type": "node", "id": 1927476451, "lat": 50.3274416, "lon": 19.180898}, {"type": "node", "id": 1927476457, "lat": 50.3274794, "lon": 19.1809944}, {"type": "node", "id": 1927476478, "lat": 50.3275548, "lon": 19.1810473}, {"type": "node", "id": 1927476499, "lat": 50.3276296, "lon": 19.1809524}, {"type": "node", "id": 1927592636, "lat": 50.3217773, "lon": 19.0708689, "tags": {"amenity": "pharmacy", "dispensing": "yes", "healthcare": "pharmacy", "name": "Zdrowit", "official_name": "Apteka Zdrowit", "opening_hours": "Mo-Fr 07:00-21:00; Sa 07:00-16:00", "ref:csioz": "1174653"}}, {"type": "node", "id": 1937750102, "lat": 50.2734116, "lon": 19.5659333}, {"type": "node", "id": 1937750104, "lat": 50.2732645, "lon": 19.5661872}, {"type": "node", "id": 1937750105, "lat": 50.2733701, "lon": 19.5662241}, {"type": "node", "id": 1937750107, "lat": 50.273306, "lon": 19.5658964}, {"type": "node", "id": 1937750265, "lat": 50.273324, "lon": 19.5661512, "tags": {"amenity": "pharmacy"}}, {"type": "node", "id": 2014207544, "lat": 50.4908468, "lon": 19.427217, "tags": {"addr:city": "Zawiercie", "addr:housenumber": "16", "addr:postcode": "42-400", "addr:street": "Marsza\u0142ka J\u00f3zefa Pi\u0142sudskiego", "amenity": "pharmacy", "brand": "Dbam o Zdrowie", "brand:wikidata": "Q62563833", "dispensing": "yes", "healthcare": "pharmacy", "name": "Dbam o Zdrowie", "phone": "+48 32 670 01 66", "ref:csioz": "1071914", "short_name": "DOZ"}}, {"type": "node", "id": 2066054582, "lat": 50.2949424, "lon": 19.1535664, "tags": {"amenity": "pharmacy", "dispensing": "yes", "healthcare": "pharmacy", "ref:csioz": "1069624"}}, {"type": "node", "id": 2111080808, "lat": 50.281579, "lon": 19.1818357, "tags": {"addr:city": "Sosnowiec", "addr:housenumber": "171", "addr:postcode": "41-219", "addr:street": "11 Listopada", "amenity": "pharmacy", "dispensing": "yes", "healthcare": "pharmacy", "name": "Anet-Med", "ref:csioz": "1068908"}}, {"type": "node", "id": 2147669357, "lat": 50.2760274, "lon": 19.1404393, "tags": {"amenity": "pharmacy", "dispensing": "yes", "healthcare": "pharmacy", "name": "Echinacea", "official_name": "Echinacea S.C.", "opening_hours": "Mo-Fr 07:00-20:00; Sa 07:00-14:00", "ref:csioz": "1069274"}}, {"type": "node", "id": 2264303823, "lat": 50.3185057, "lon": 19.1343783, "tags": {"amenity": "pharmacy", "dispensing": "yes", "healthcare": "pharmacy", "name": "4 pory roku", "official_name": "Apteka 4 Pory Roku", "opening_hours": "Mo-Fr 08:00-19:00; Sa 08:00-13:00", "ref:csioz": "1185473"}}, {"type": "node", "id": 2278495592, "lat": 50.2619562, "lon": 19.2685379, "tags": {"amenity": "pharmacy", "dispensing": "yes", "healthcare": "pharmacy", "name": "Maczki", "ref:csioz": "1069258"}}, {"type": "node", "id": 2281028865, "lat": 50.2030363, "lon": 19.2727761, "tags": {"addr:city": "Jaworzno", "addr:housenumber": "19", "addr:postcode": "43-600", "addr:street": "Adama Mickiewicza", "amenity": "pharmacy", "check_date:opening_hours": "2024-06-26", "dispensing": "yes", "healthcare": "pharmacy", "name": "4 Pory Roku", "opening_hours": "Mo-Fr 07:00-21:00; Sa 07:00-15:00", "ref:csioz": "1221844"}}, {"type": "node", "id": 2288921248, "lat": 50.2686892, "lon": 19.1229025, "tags": {"addr:city": "Sosnowiec", "addr:housenumber": "35 A-E", "addr:postcode": "41-200", "addr:street": "Naftowa", "amenity": "pharmacy", "dispensing": "yes", "healthcare": "pharmacy", "name": "Apteka \"Akacja\"", "ref:csioz": "1069372", "wheelchair": "yes"}}, {"type": "node", "id": 2288921249, "lat": 50.2710839, "lon": 19.1214446, "tags": {"amenity": "pharmacy", "dispensing": "yes", "healthcare": "pharmacy", "name": "Apteka \u015bw. Kamila", "ref:csioz": "1069380", "wheelchair": "yes"}}, {"type": "node", "id": 2305362548, "lat": 50.2679806, "lon": 19.0615987, "tags": {"amenity": "pharmacy", "dispensing": "yes", "healthcare": "pharmacy", "name": "Fantazja", "opening_hours": "Mo-Sa 09:00-21:00; Su 09:00-19:00", "ref:csioz": "1064324"}}, {"type": "node", "id": 2403399868, "lat": 50.4925819, "lon": 18.9231845, "tags": {"addr:city": "Miasteczko \u015al\u0105skie", "addr:housenumber": "18", "addr:postcode": "42-610", "addr:street": "Rynek", "amenity": "pharmacy", "dispensing": "yes", "healthcare": "pharmacy", "name": "Apteka \u015aw.Jerzego", "official_name": "Apteka Codzienna", "ref:csioz": "1065650"}}, {"type": "node", "id": 2408661240, "lat": 50.6244349, "lon": 19.3644189, "tags": {"addr:city": "\u017barki", "addr:housenumber": "1", "addr:postcode": "42-310", "addr:street": "Tadeusza Ko\u015bciuszki", "amenity": "pharmacy", "dispensing": "yes", "healthcare": "pharmacy", "name": "Apteka Tanich Lek\u00f3w", "ref:csioz": "1111814"}}, {"type": "node", "id": 2459142844, "lat": 50.3201112, "lon": 19.1762015, "tags": {"addr:city": "D\u0105browa G\u00f3rnicza", "addr:housenumber": "14", "addr:postcode": "41-300", "addr:street": "Szpitalna", "amenity": "pharmacy", "dispensing": "yes", "healthcare": "pharmacy", "name": "Apteka S\u0142oneczna", "ref:csioz": "1061679"}}, {"type": "node", "id": 2488267717, "lat": 50.3224125, "lon": 19.1797039, "tags": {"amenity": "pharmacy", "brand": "Dbam o Zdrowie", "brand:wikidata": "Q62563833", "dispensing": "yes", "healthcare": "pharmacy", "name": "Dbam o Zdrowie", "official_name": "Apteka Dbam O Zdrowie", "ref:csioz": "1179414", "short_name": "DOZ"}}, {"type": "node", "id": 2488677397, "lat": 50.3241502, "lon": 19.1873573, "tags": {"amenity": "pharmacy", "dispensing": "yes", "drive_through": "no", "healthcare": "pharmacy", "name": "Apteka DOZ", "official_name": "Doz Apteka Dbam O Zdrowie", "ref:csioz": "1061410"}}, {"type": "node", "id": 2489192277, "lat": 50.3154049, "lon": 19.1675859, "tags": {"amenity": "pharmacy", "dispensing": "yes", "healthcare": "pharmacy", "name": "Isofarm", "ref:csioz": "1061493"}}, {"type": "node", "id": 2489449753, "lat": 50.3253505, "lon": 19.1854813, "tags": {"amenity": "pharmacy", "atm": "yes", "dispensing": "yes", "healthcare": "pharmacy", "name": "Niezapominajka", "official_name": "Niezapominajka Dla Ca\u0142ej Rodziny", "ref:csioz": "1061348"}}, {"type": "node", "id": 2493047966, "lat": 50.3249314, "lon": 19.1837473, "tags": {"addr:city": "D\u0105browa G\u00f3rnicza", "addr:housenumber": "3", "addr:postcode": "41-300", "addr:street": "3 Maja", "amenity": "pharmacy", "brand": "Ziko Apteka", "brand:wikidata": "Q63432892", "dispensing": "yes", "healthcare": "pharmacy", "name": "Ziko Apteka", "opening_hours": "Mo-Fr 08:00-20:00, Sa 08:00-15:00", "payment:cash": "yes", "payment:coins": "yes", "payment:mastercard": "yes", "payment:visa": "yes", "phone": "+48 12 687 57 47", "ref:csioz": "1204660", "short_name": "Ziko", "website": "https://www.ziko.pl/dabrowa-gornicza-apteki-drogerie-ziko/3-maja-3/"}}, {"type": "node", "id": 2495119250, "lat": 50.3333944, "lon": 19.2219866, "tags": {"addr:city": "D\u0105browa G\u00f3rnicza", "addr:housenumber": "5", "addr:postcode": "41-303", "addr:street": "Tysi\u0105clecia", "amenity": "pharmacy", "dispensing": "yes", "healthcare": "pharmacy", "name": "Apteka Tysi\u0105clecia Centrum Tanich Lek\u00f3w", "ref:csioz": "1061698"}}, {"type": "node", "id": 2511270415, "lat": 50.276008, "lon": 19.1320093, "tags": {"amenity": "pharmacy", "dispensing": "yes", "healthcare": "pharmacy", "name": "Apteka G\u0142\u00f3wna", "opening_hours": "Mo-Fr 07:00-20:00; Sa 08:00-20:00; Su 09:00-20:00", "ref:csioz": "1069346"}}, {"type": "node", "id": 2584009205, "lat": 50.2369631, "lon": 19.1291266, "tags": {"addr:city": "Mys\u0142owice", "addr:housenumber": "42a", "addr:street": "Miko\u0142owska", "amenity": "pharmacy", "dispensing": "yes", "email": "aptekamyslowice@aptekabliskociebie.pl", "healthcare": "pharmacy", "name": "Blisko Ciebie", "opening_hours": "24/7", "phone": "+48 32 316 44 44", "ref:csioz": "1065972", "website": "http://aptekabliskociebie.pl/index.php/apteki/10-apteki/23-myslowice-24h-ul-mikolowska-42a"}}, {"type": "node", "id": 2601630516, "lat": 50.3371419, "lon": 19.6008958, "tags": {"addr:city": "Jaroszowiec", "addr:housenumber": "2", "addr:postcode": "32-310", "addr:street": "Le\u015bna", "amenity": "pharmacy", "name": "Punkt Apteczny", "opening_hours": "Mo-Fr 08:00-21:00; Sa 08:00-18:00", "phone": "32 645 44 88"}}, {"type": "node", "id": 2883357431, "lat": 50.5978314, "lon": 19.1624838, "tags": {"addr:housenumber": "2", "addr:postcode": "42-350", "addr:street": "Plac Stanis\u0142awa Moniuszki", "amenity": "pharmacy", "dispensing": "yes", "healthcare": "pharmacy", "ref:csioz": "1065052"}}, {"type": "node", "id": 2901107856, "lat": 50.2839382, "lon": 19.1852495, "tags": {"amenity": "pharmacy", "dispensing": "yes", "healthcare": "pharmacy", "name": "Gwiezdna", "opening_hours": "Mo-Fr 08:00-20:00; Sa 08:00-15:00", "ref:csioz": "1069471"}}, {"type": "node", "id": 2928252277, "lat": 50.4813211, "lon": 19.4256964, "tags": {"addr:city": "Zawiercie", "addr:housenumber": "26", "addr:postcode": "42-400", "addr:street": "Aleja Genera\u0142a W\u0142adys\u0142awa Sikorskiego", "amenity": "pharmacy", "dispensing": "yes", "healthcare": "pharmacy", "name": "Apteka Jurajska", "opening_hours": "Mo-Fr 07:00-20:00; Sa 07:30-14:30", "phone": "326724168", "ref:csioz": "1072007"}}, {"type": "node", "id": 2943843691, "lat": 50.3247761, "lon": 19.2017057, "tags": {"amenity": "pharmacy", "brand": "Ziko Apteka", "brand:wikidata": "Q63432892", "dispensing": "yes", "healthcare": "pharmacy", "name": "Ziko Apteka", "opening_hours": "Mo-Fr 07:30-20:00, Sa 08:00-15:00", "payment:cash": "yes", "payment:coins": "yes", "payment:mastercard": "yes", "payment:visa": "yes", "phone": "+48 12 687 57 47", "ref:csioz": "1173886", "short_name": "Ziko", "website": "https://www.ziko.pl/dabrowa-gornicza-apteki-drogerie-ziko/krolowej-jadwigi-25/"}}, {"type": "node", "id": 2949391461, "lat": 50.4854741, "lon": 19.4251042, "tags": {"addr:city": "Zawiercie", "addr:housenumber": "15", "addr:postcode": "42-400", "addr:street": "Powsta\u0144c\u00f3w \u015al\u0105skich", "amenity": "pharmacy", "dispensing": "yes", "healthcare": "pharmacy", "name": "Rodzinna", "opening_hours": "Mo-Fr 08:00-20:00; Sa 08:00-20:00", "ref:csioz": "1222603"}}, {"type": "node", "id": 2961740039, "lat": 50.4906893, "lon": 19.4330183, "tags": {"addr:city": "Zawiercie", "addr:housenumber": "33", "addr:postcode": "42-400", "addr:street": "Bohater\u00f3w Westerplatte", "amenity": "pharmacy", "dispensing": "yes", "healthcare": "pharmacy", "name": "Codzienna", "opening_hours": "Mo-Sa 07:00-21:00; Su 09:00-19:00", "phone": "326700161", "ref:csioz": "1071824"}}, {"type": "node", "id": 3008234120, "lat": 50.4848834, "lon": 19.4255542, "tags": {"addr:city": "Zawiercie", "addr:housenumber": "8", "addr:postcode": "42-400", "addr:street": "Powsta\u0144c\u00f3w \u015al\u0105skich", "amenity": "pharmacy", "dispensing": "yes", "healthcare": "pharmacy", "name": "S\u0142oneczna", "ref:csioz": "1071972"}}, {"type": "node", "id": 3024696341, "lat": 50.4841761, "lon": 19.4252028, "tags": {"addr:city": "Zawiercie", "addr:housename": "Apteka SIKORA s.c.", "addr:housenumber": "10", "addr:postcode": "42-400", "addr:street": "S\u0105dowa", "amenity": "pharmacy", "dispensing": "yes", "healthcare": "pharmacy", "name": "Sikora", "ref:csioz": "1071995"}}, {"type": "node", "id": 3039490633, "lat": 50.5685382, "lon": 19.563476, "tags": {"addr:city": "Kroczyce", "addr:housenumber": "31", "addr:street": "Batalion\u00f3w Ch\u0142opskich", "amenity": "pharmacy", "dispensing": "yes", "healthcare": "pharmacy", "phone": "+48 34 315 20 29", "ref:csioz": "1065129"}}, {"type": "node", "id": 3039490634, "lat": 50.5611207, "lon": 19.5704742, "tags": {"addr:city": "Kroczyce", "addr:housenumber": "3", "addr:postcode": "42-425", "addr:street": "1 Maja", "amenity": "pharmacy", "dispensing": "yes", "healthcare": "pharmacy", "name": "\u015aw. J\u00f3zefa", "opening_hours": "Mo-Fr 08:00-20:00; Sa 08:00-18:00; Su 09:00-13:00", "phone": "+48 608 513 441", "ref:csioz": "1065110"}}, {"type": "node", "id": 3074743986, "lat": 50.5871823, "lon": 19.0581181, "tags": {"addr:housename": "Apteka", "addr:housenumber": "6", "addr:street": "Tarnog\u00f3rska", "amenity": "pharmacy", "dispensing": "yes", "healthcare": "pharmacy", "ref:csioz": "1071193"}}, {"type": "node", "id": 3087764500, "lat": 50.2843896, "lon": 19.1854043, "tags": {"amenity": "pharmacy", "dispensing": "yes", "healthcare": "pharmacy", "name": "Niezapominajka", "official_name": "Niezapominajka Dla Ca\u0142ej Rodziny", "ref:csioz": "1196782"}}, {"type": "node", "id": 3087764501, "lat": 50.2863824, "lon": 19.1872556, "tags": {"amenity": "pharmacy", "healthcare": "pharmacy", "note": "Apteka czasowo zamkni\u0119ta, aktualny stan mo\u017cna sprawdzi\u0107, wyszukuj\u0105c identyfikator z ref:csioz w rejestrze CSIOZ, dost\u0119pnym pod adresem https://rejestrymedyczne.ezdrowie.gov.pl/api/filegenerator/getcsv", "ref:csioz": "1069230", "source:disused": "Rejestr Aptek MZ"}}, {"type": "node", "id": 3087770925, "lat": 50.2743167, "lon": 19.1955236, "tags": {"amenity": "pharmacy", "dispensing": "yes", "healthcare": "pharmacy", "name": "Apteka \u015aw. Barbary", "ref:csioz": "1069314"}}, {"type": "node", "id": 3168617161, "lat": 50.2679946, "lon": 19.4601148, "tags": {"amenity": "pharmacy", "healthcare": "pharmacy"}}, {"type": "node", "id": 3168662280, "lat": 50.2630877, "lon": 19.4637081, "tags": {"amenity": "pharmacy", "brand": "Dbam o Zdrowie", "brand:wikidata": "Q62563833", "healthcare": "pharmacy", "name": "Dbam o Zdrowie", "short_name": "DOZ"}}, {"type": "node", "id": 3350249346, "lat": 50.5698876, "lon": 19.3607969, "tags": {"addr:city": "Myszk\u00f3w", "addr:housenumber": "130", "addr:postcode": "42-300", "addr:street": "1 Maja", "amenity": "pharmacy", "dispensing": "yes", "healthcare": "pharmacy", "name": "\u015awiatowit", "phone": "+48 34 313 09 80", "ref:csioz": "1066118"}}, {"type": "node", "id": 3358377258, "lat": 50.2629059, "lon": 19.0949811, "tags": {"amenity": "pharmacy", "dispensing": "yes", "healthcare": "pharmacy", "name": "Apteka \"Pod kwiatami\"", "opening_hours": "Mo-Fr 07:30-18:30, Sa 08:00-14:00", "ref:csioz": "1064207"}}, {"type": "node", "id": 3367959394, "lat": 50.2699393, "lon": 19.5687984, "tags": {"amenity": "pharmacy", "name": "Apteka przy Szpitalu", "source": "www.Geoportal.gov.pl: Ortofoto"}}, {"type": "node", "id": 3367959402, "lat": 50.269263, "lon": 19.5672266}, {"type": "node", "id": 3367959403, "lat": 50.2692641, "lon": 19.5672706}, {"type": "node", "id": 3367959404, "lat": 50.2693298, "lon": 19.5672203}, {"type": "node", "id": 3367959405, "lat": 50.269331, "lon": 19.5672666}, {"type": "node", "id": 3402291150, "lat": 50.3211919, "lon": 19.130191, "tags": {"amenity": "pharmacy", "dispensing": "yes", "healthcare": "pharmacy", "name": "Apteka Blisko Ciebie", "opening_hours": "24/7", "phone": "(32) 761 99 99", "ref:csioz": "1057559", "website": "aptekabliskociebie.pl", "wheelchair": "yes"}}, {"type": "node", "id": 3409498105, "lat": 50.3812684, "lon": 19.135488, "tags": {"amenity": "pharmacy", "dispensing": "yes", "healthcare": "pharmacy", "name": "Apteka Dobrych Rad", "opening_hours": "Mo-Fr 07:00-20:00; Sa 07:00-19:00; Su off", "ref:csioz": "1066955"}}, {"type": "node", "id": 3531210002, "lat": 50.3195279, "lon": 19.1560617, "tags": {"amenity": "pharmacy", "dispensing": "yes", "healthcare": "pharmacy", "name": "Pharmakon", "ref:csioz": "1057457"}}, {"type": "node", "id": 3531210003, "lat": 50.3216395, "lon": 19.1570397, "tags": {"amenity": "pharmacy", "dispensing": "yes", "healthcare": "pharmacy", "official_name": "Apteka Gwiezdna", "opening_hours": "Mo-Fr 08:00-19:00; Sa 08:00-14:00", "ref:csioz": "1184698", "wheelchair": "yes"}}, {"type": "node", "id": 3539809522, "lat": 50.3528946, "lon": 19.138842, "tags": {"amenity": "pharmacy", "dispensing": "yes", "healthcare": "pharmacy", "name": "\u0141agisza", "ref:csioz": "1174262"}}, {"type": "node", "id": 3708405157, "lat": 50.2989718, "lon": 19.3881576, "tags": {"amenity": "pharmacy", "dispensing": "yes", "healthcare": "pharmacy", "ref:csioz": "1068878"}}, {"type": "node", "id": 3825485506, "lat": 50.2720325, "lon": 19.128528, "tags": {"addr:city": "Sosnowiec", "addr:housenumber": "44", "addr:postcode": "41-200", "addr:street": "Ko\u015bcielna", "amenity": "pharmacy", "dispensing": "yes", "healthcare": "pharmacy", "name": "Apteka Blisko Ciebie", "opening_hours": "24/7", "ref:csioz": "1069249"}}, {"type": "node", "id": 3825485508, "lat": 50.273696, "lon": 19.1321489, "tags": {"addr:city": "Sosnowiec", "addr:housenumber": "16", "addr:postcode": "41-200", "addr:street": "Henryka Sienkiewicza", "amenity": "pharmacy", "dispensing": "yes", "healthcare": "pharmacy", "name": "Apteka Centrum", "opening_hours": "Mo-Fr 08:00-19:00; Sa 09:00-13:00; Su off", "ref:csioz": "1069483"}}, {"type": "node", "id": 3825485509, "lat": 50.2779713, "lon": 19.1278262, "tags": {"amenity": "pharmacy", "dispensing": "yes", "healthcare": "pharmacy", "name": "Apteka Blisko Centrum", "official_name": "Apteka Centralna - Apteka Blisko Ciebie", "ref:csioz": "1069608"}}, {"type": "node", "id": 3825530157, "lat": 50.277567, "lon": 19.1310353, "tags": {"amenity": "pharmacy", "dispensing": "yes", "healthcare": "pharmacy", "name": "Apteka im. Ignacego \u0141ukasiewicza", "official_name": "Vita", "ref:csioz": "1069296"}}, {"type": "node", "id": 3833290158, "lat": 50.2775858, "lon": 19.1471501, "tags": {"amenity": "pharmacy", "dispensing": "yes", "healthcare": "pharmacy", "name": "Apteka Wawel", "official_name": "Wawel 2", "ref:csioz": "1069154"}}, {"type": "node", "id": 3833290159, "lat": 50.2772266, "lon": 19.1536026, "tags": {"amenity": "pharmacy", "dispensing": "yes", "healthcare": "pharmacy", "name": "Apteka \u015awiat Zdrowia", "official_name": "Na G\u00f3rce", "ref:csioz": "1069201"}}, {"type": "node", "id": 3833290160, "lat": 50.287269, "lon": 19.1217912, "tags": {"amenity": "pharmacy", "dispensing": "yes", "healthcare": "pharmacy", "name": "Apteka Blisko Ciebie", "ref:csioz": "1207691"}}, {"type": "node", "id": 4169512788, "lat": 50.4439992, "lon": 19.1194991, "tags": {"amenity": "pharmacy", "description": "apteka posiada umowe na realizacje recept refundowanych", "dispensing": "yes", "healthcare": "pharmacy", "name": "Apteka Moje Zdrowie", "opening_hours": "Mo-Fr 08:00-20:00; Sa 08:00-14:00", "ref:csioz": "1065688"}}, {"type": "node", "id": 4218768205, "lat": 50.4278065, "lon": 19.3924283, "tags": {"addr:city": "\u0141azy", "addr:housenumber": "2", "addr:street": "Targowa", "amenity": "pharmacy", "dispensing": "yes", "drive_through": "no", "healthcare": "pharmacy", "name": "Libra", "opening_hours": "Mo-Fr 08:00-20:00; Sa 08:00-17:00; Su 09:00-14:30", "ref:csioz": "1065565"}}, {"type": "node", "id": 4380728061, "lat": 50.3213907, "lon": 19.134134, "tags": {"amenity": "pharmacy", "brand": "Dbam o Zdrowie", "brand:wikidata": "Q62563833", "dispensing": "yes", "healthcare": "pharmacy", "name": "Dbam o Zdrowie", "official_name": "Apteka Dbam O Zdrowie", "ref:csioz": "1057500", "short_name": "DOZ"}}, {"type": "node", "id": 4380728062, "lat": 50.3198671, "lon": 19.1345948, "tags": {"amenity": "pharmacy", "dispensing": "yes", "email": "bedzin-malachowskiego@apteka-sloneczna.pl", "healthcare": "pharmacy", "name": "Apteka S\u0142oneczna", "opening_hours": "Mo-Fr 07:00-21:00; Sa 08:00-15:00", "ref:csioz": "1174838", "website": "http://www.apteka-sloneczna.pl/bedzin/"}}, {"type": "node", "id": 4380728073, "lat": 50.3216137, "lon": 19.1316041, "tags": {"addr:city": "B\u0119dzin", "addr:city:simc": "0937899", "addr:housenumber": "21", "addr:postcode": "42-500", "addr:street": "J\u00f3zefa Pi\u0142sudskiego", "addr:street:sym_ul": "16264", "amenity": "pharmacy", "brand": "Dbam o Zdrowie", "brand:wikidata": "Q62563833", "dispensing": "yes", "healthcare": "pharmacy", "name": "Dbam o Zdrowie", "official_name": "Doz Apteka Dbam O Zdrowie", "opening_hours": "Mo-Fr 08:00-20:00; Sa 08:00-15:00", "ref:csioz": "1182433", "short_name": "DOZ"}}, {"type": "node", "id": 4395828772, "lat": 50.4682937, "lon": 19.2374783, "tags": {"amenity": "pharmacy", "dispensing": "yes", "healthcare": "pharmacy", "name": "Farma Vit", "ref:csioz": "1068713"}}, {"type": "node", "id": 4404296328, "lat": 50.3204959, "lon": 19.1744734, "tags": {"amenity": "pharmacy", "brand": "Ziko Apteka", "brand:wikidata": "Q63432892", "dispensing": "yes", "healthcare": "pharmacy", "name": "Ziko Apteka", "opening_hours": "Mo-Fr 08:00-20:00, Sa 08:00-16:00", "payment:cash": "yes", "payment:coins": "yes", "payment:mastercard": "yes", "payment:visa": "yes", "phone": "+48 12 687 57 47", "ref:csioz": "1197718", "short_name": "Ziko", "website": "https://www.ziko.pl/dabrowa-gornicza-apteki-drogerie-ziko/legionow-polskich-38/"}}, {"type": "node", "id": 4521534714, "lat": 50.3022085, "lon": 19.1923307, "tags": {"amenity": "pharmacy", "dispensing": "yes", "healthcare": "pharmacy", "ref:csioz": "1069015"}}, {"type": "node", "id": 4627995171, "lat": 50.320905, "lon": 19.0699394, "tags": {"amenity": "pharmacy", "brand": "Dr. Max", "brand:wikidata": "Q56317371", "brand:wikipedia": "fr:Dr.Max", "dispensing": "yes", "healthcare": "pharmacy", "name": "Dr. Max", "opening_hours": "Mo-Fr 08:00-20:00; Sa 08:00-18:00; Su 10:00-16:00", "ref:csioz": "1111602"}}, {"type": "node", "id": 4674294825, "lat": 50.1971798, "lon": 19.268305, "tags": {"addr:city": "Jaworzno", "addr:housenumber": "25", "addr:street": "Jana Matejki", "amenity": "pharmacy", "dispensing": "yes", "healthcare": "pharmacy", "name": "T\u0119czowa", "opening_hours": "Mo-Fr 07:00-21:00; Sa 08:00-20:00; Su 10:00-17:00", "ref:csioz": "1063093"}}, {"type": "node", "id": 4748580121, "lat": 50.2763952, "lon": 19.5667732, "tags": {"addr:city": "Olkusz", "addr:housenumber": "28", "addr:postcode": "32-300", "addr:street": "Kr\u00f3la Kazimierza Wielkiego", "amenity": "pharmacy", "healthcare": "pharmacy", "name": "Gemini", "opening_hours": "Mo-Fr 07:00-20:00; Sa 08:00-16:00"}}, {"type": "node", "id": 4748843521, "lat": 50.2739593, "lon": 19.5663296, "tags": {"addr:housenumber": "6", "addr:postcode": "32-300", "addr:street": "Skwer", "amenity": "pharmacy", "name": "Apteka", "name:en": "Pharmacy", "name:pl": "Apteka"}}, {"type": "node", "id": 4810447272, "lat": 50.2028223, "lon": 19.2748968, "tags": {"addr:city": "Jaworzno", "addr:housenumber": "2A", "addr:postcode": "43-600", "addr:street": "Henryka Sienkiewicza", "amenity": "pharmacy", "dispensing": "yes", "healthcare": "pharmacy", "name": "Zdrowit+", "opening_hours": "Mo-Fr 06:30-18:30; Sa 06:30-14:00", "ref:csioz": "1206041"}}, {"type": "node", "id": 4824895532, "lat": 50.2754779, "lon": 19.1138241, "tags": {"addr:city": "Sosnowiec", "addr:housenumber": "29", "addr:street": "Jana III Sobieskiego", "amenity": "pharmacy", "check_date:opening_hours": "2021-07-14", "dispensing": "yes", "healthcare": "pharmacy", "name": "Apteka Nova", "opening_hours": "Mo-Fr 08:00-19:00; Sa 08:00-14:00; Su off", "ref:csioz": "1196774", "wheelchair": "yes"}}, {"type": "node", "id": 4924761264, "lat": 50.1888995, "lon": 19.1040108, "tags": {"addr:city": "Mys\u0142owice", "addr:housenumber": "1", "addr:postcode": "41-408", "addr:street": "Walentego Ro\u017adzie\u0144skiego", "amenity": "pharmacy", "dispensing": "yes", "drive_through": "no", "healthcare": "pharmacy", "name": "Auxilium", "phone": "+48 32 222 32 70", "ref:csioz": "1066025", "wheelchair": "no"}}, {"type": "node", "id": 4977128123, "lat": 50.2987647, "lon": 19.3889726, "tags": {"amenity": "pharmacy", "dispensing": "yes", "healthcare": "pharmacy", "name": "Apteka", "ref:csioz": "1212863"}}, {"type": "node", "id": 4996335256, "lat": 50.3023918, "lon": 19.0315644, "tags": {"addr:city": "Siemianowice \u015al\u0105skie", "addr:housenumber": "6", "addr:postcode": "41-100", "addr:street": "\u015al\u0105ska", "amenity": "pharmacy", "dispensing": "yes", "healthcare": "pharmacy", "name": "\u015bwi\u0119tej Barbary", "official_name": "Centrum Tanich Lek\u00f3w- Apteka \u015aw. Barbary", "opening_hours": "Mo-Fr 07:00-19:00; Sa 08:00-13:00", "ref:csioz": "1068661"}}, {"type": "node", "id": 4996335371, "lat": 50.3030917, "lon": 19.0306351, "tags": {"amenity": "pharmacy", "contact:phone": "+48 32 204 66 22", "dispensing": "yes", "healthcare": "pharmacy", "name": "Blisko Ciebie", "official_name": "Apteka Blisko Ciebie", "opening_hours": "24/7", "ref:csioz": "1068657"}}, {"type": "node", "id": 5001969848, "lat": 50.2168055, "lon": 19.1574613, "tags": {"addr:city": "Mys\u0142owice", "addr:housenumber": "67", "addr:street": "Genera\u0142a Jerzego Zi\u0119tka", "amenity": "pharmacy", "check_date:opening_hours": "2022-07-23", "dispensing": "yes", "healthcare": "pharmacy", "name": "Isofarm", "opening_hours": "Mo-Fr 08:00-20:00; Sa 08:00-16:00", "ref:csioz": "1214594"}}, {"type": "node", "id": 5094815374, "lat": 50.3159535, "lon": 19.1179935, "tags": {"amenity": "pharmacy", "dispensing": "yes", "healthcare": "pharmacy", "name": "Apteka Superjednostka", "official_name": "Doz Apteka Dbam O Zdrowie", "ref:csioz": "1057568"}}, {"type": "node", "id": 5119661876, "lat": 50.2869158, "lon": 19.1324107, "tags": {"addr:city": "Sosnowiec", "addr:housenumber": "14", "addr:postcode": "41-200", "addr:street": "Stefana \u017beromskiego", "amenity": "pharmacy", "dispensing": "yes", "email": "sosnowiec-zeromskiego@apteka-sloneczna.com", "healthcare": "pharmacy", "name": "Apteka S\u0142oneczna", "note": "Apteka czasowo zamkni\u0119ta, aktualny stan mo\u017cna sprawdzi\u0107, wyszukuj\u0105c identyfikator z ref:csioz w rejestrze CSIOZ, dost\u0119pnym pod adresem https://rejestrymedyczne.ezdrowie.gov.pl/api/filegenerator/getcsv", "opening_hours": "Mo-Fr 08:00-20:00; Sa 08:00-14:00", "phone": "+48 32 294 51 51", "ref:csioz": "1069697", "source:amenity": "Rejestr Aptek MZ"}}, {"type": "node", "id": 5139693798, "lat": 50.2747194, "lon": 19.1286515, "tags": {"amenity": "pharmacy", "dispensing": "yes", "healthcare": "pharmacy", "level": "0", "name": "Apteka Dr Zdrowie", "opening_hours": "Mo-Su 09:00-21:00", "ref:csioz": "1069494"}}, {"type": "node", "id": 5235315136, "lat": 50.2503118, "lon": 19.1193439, "tags": {"addr:city": "Mys\u0142owice", "addr:housenumber": "64", "addr:street": "Katowicka", "amenity": "pharmacy", "dispensing": "yes", "healthcare": "pharmacy", "name": "Cosmedica", "ref:csioz": "1212366"}}, {"type": "node", "id": 5559499175, "lat": 50.3211544, "lon": 19.1100935, "tags": {"amenity": "pharmacy", "dispensing": "yes", "healthcare": "pharmacy", "name": "Apteka Galen", "ref:csioz": "1211991"}}, {"type": "node", "id": 5591485627, "lat": 50.280799, "lon": 19.5680294, "tags": {"addr:city": "Olkusz", "addr:housenumber": "2", "addr:postcode": "32-300", "addr:street": "Rabszty\u0144ska", "amenity": "pharmacy", "healthcare": "pharmacy", "name": "Euro Apteka"}}, {"type": "node", "id": 5642708887, "lat": 50.2418712, "lon": 19.1595688, "tags": {"amenity": "pharmacy", "dispensing": "yes", "healthcare": "pharmacy", "name": "Apteka Przyjazna", "ref:csioz": "1219248"}}, {"type": "node", "id": 5928916733, "lat": 50.2164057, "lon": 19.3461577, "tags": {"addr:city": "Jaworzno", "addr:housenumber": "72A", "addr:postcode": "43-600", "addr:street": "Ksi\u0119dza Andrzeja Mroczka", "amenity": "pharmacy", "dispensing": "yes", "drive_through": "no", "healthcare": "pharmacy", "name": "Paracelsus", "opening_hours": "Mo-Fr 08:00-18:00; Sa 08:00-14:00", "payment:cash": "yes", "payment:credit_cards": "yes", "ref:csioz": "1063162"}}, {"type": "node", "id": 5991762587, "lat": 50.2371596, "lon": 19.1262814, "tags": {"addr:city": "Mys\u0142owice", "addr:housenumber": "8B", "addr:street": "Kwiatowa", "amenity": "pharmacy", "dispensing": "yes", "healthcare": "pharmacy", "name": "G\u0142\u00f3wna", "ref:csioz": "1184751"}}, {"type": "node", "id": 6049270518, "lat": 50.1989701, "lon": 19.2761708, "tags": {"addr:city": "Jaworzno", "addr:housenumber": "2A", "addr:street": "Karola Olszewskiego", "amenity": "pharmacy", "dispensing": "yes", "healthcare": "pharmacy", "name": "W Kostkach", "opening_hours": "Mo-Fr 08:00-19:00; Sa 08:00-14:00", "ref:csioz": "1063181"}}, {"type": "node", "id": 6064194697, "lat": 50.2898767, "lon": 19.1136556, "tags": {"amenity": "pharmacy", "dispensing": "yes", "healthcare": "pharmacy", "name": "Apteka", "official_name": "Apteka Hallera 16 Centrum Tanich Lek\u00f3w", "opening_hours": "Mo-Fr 08:00-19:00; Sa 08:00-14:00", "ref:csioz": "1069066"}}, {"type": "node", "id": 6112640290, "lat": 50.573682, "lon": 19.31811, "tags": {"addr:city": "Myszk\u00f3w", "addr:housenumber": "6A", "addr:postcode": "42-300", "addr:street": "Kazimierza Pu\u0142askiego", "amenity": "pharmacy", "brand": "Ziko Apteka", "brand:wikidata": "Q63432892", "description": "Ziko Apteka zlokalizowana jest w Myszkowie przy ul. Kazimierza Pu\u0142askiego 6. Czynna jest przez 7 dni w tygodniu \u2013 od poniedzia\u0142ku do niedzieli.", "dispensing": "yes", "healthcare": "pharmacy", "name": "Ziko Apteka", "opening_hours": "Mo-Fr 08:00-21:00, Sa 08:00-21:00, Su 09:00-19:00", "payment:cash": "yes", "payment:coins": "yes", "payment:mastercard": "yes", "payment:visa": "yes", "phone": "+48 12 687 57 47", "ref:csioz": "1221329", "short_name": "Ziko", "website": "https://www.ziko.pl/myszkow-apteki-drogerie-ziko/pulaskiego-6a/"}}, {"type": "node", "id": 6271020368, "lat": 50.1890187, "lon": 19.1025003, "tags": {"addr:city": "Mys\u0142owice", "addr:housenumber": "2c", "addr:postcode": "41-408", "addr:street": "Piast\u00f3w \u015al\u0105skich", "amenity": "pharmacy", "dispensing": "yes", "drive_through": "no", "healthcare": "pharmacy", "name": "T\u0119czowa", "phone": "+48 32 623 61 49", "ref:csioz": "1199425"}}, {"type": "node", "id": 6283951738, "lat": 50.3471804, "lon": 19.1352098, "tags": {"addr:city": "B\u0119dzin", "addr:housenumber": "1", "addr:postcode": "42-504", "addr:street": "Niepodleg\u0142o\u015bci", "amenity": "pharmacy", "dispensing": "yes", "healthcare": "pharmacy", "name": "B\u0119dzi\u0144ska", "official_name": "Apteka B\u0119dzi\u0144ska", "ref:csioz": "1217441"}}, {"type": "node", "id": 6359310155, "lat": 50.5505384, "lon": 19.4548226, "tags": {"addr:city": "W\u0142odowice", "addr:housenumber": "11", "addr:postcode": "42-421", "addr:street": "Krakowska", "amenity": "pharmacy", "brand": "Dbam o Zdrowie", "brand:wikidata": "Q62563833", "dispensing": "yes", "fixme": "Wg rejestru aptek tutaj powinien by\u0107 Punkt Apteczny Witaminka - ref:csioz doda\u0142em z Witaminki", "healthcare": "pharmacy", "name": "Dbam o Zdrowie", "opening_hours": "Mo-Fr 08:00-16:00", "ref:csioz": "1213214", "short_name": "DOZ", "wheelchair": "yes"}}, {"type": "node", "id": 6360372755, "lat": 50.2831422, "lon": 19.1755377, "tags": {"amenity": "pharmacy", "brand": "Ziko Apteka", "brand:wikidata": "Q63432892", "dispensing": "yes", "healthcare": "pharmacy", "name": "Ziko Apteka", "opening_hours": "Mo-Fr 08:00-20:00, Sa 09:00-17:00, Su 10:00-16:00", "payment:cash": "yes", "payment:coins": "yes", "payment:mastercard": "yes", "payment:visa": "yes", "phone": "+48 12 687 57 47", "ref:csioz": "1218663", "short_name": "Ziko", "website": "https://www.ziko.pl/sosnowiec-apteki-drogerie-ziko/11-listopada-122/"}}, {"type": "node", "id": 6367510685, "lat": 50.320514, "lon": 19.1745379, "tags": {"amenity": "pharmacy", "branch": "Dermo", "brand": "Ziko Apteka", "brand:wikidata": "Q63432892", "healthcare": "pharmacy", "name": "Ziko Apteka", "opening_hours": "Mo-Fr 08:00-20:00, Sa 08:00-16:00", "payment:cash": "yes", "payment:coins": "yes", "payment:mastercard": "yes", "payment:visa": "yes", "phone": "+48 12 687 57 47", "shop": "chemist", "short_name": "Ziko", "website": "https://www.ziko.pl/dabrowa-gornicza-drogerie-ziko/legionow-polskich-38/"}}, {"type": "node", "id": 6367660952, "lat": 50.2032627, "lon": 19.2700524, "tags": {"addr:city": "Jaworzno", "addr:housenumber": "59", "addr:postcode": "43-600", "addr:street": "Grunwaldzka", "amenity": "pharmacy", "brand": "Ziko Apteka", "brand:wikidata": "Q63432892", "description": "Ziko Apteka zlokalizowana jest w Jaworznie przy ulicy Grunwaldzkiej 59. Czynna jest przez 6 dni w tygodniu \u2013 od poniedzia\u0142ku do soboty. W niedziele handlowe plac\u00f3wka jest czynna. Wej\u015bcie od zewn\u0105trz.", "dispensing": "yes", "entrance": "yes", "healthcare": "pharmacy", "level": "0", "name": "Ziko Apteka", "opening_hours": "Mo-Sa 08:00-21:00, Su 10:00-20:00", "payment:cash": "yes", "payment:coins": "yes", "payment:mastercard": "yes", "payment:visa": "yes", "phone": "+48 12 687 57 47", "ref:csioz": "1200062", "short_name": "Ziko", "website": "https://www.ziko.pl/jaworzno-apteki-drogerie-ziko/grunwaldzka-59/"}}, {"type": "node", "id": 6393411043, "lat": 50.2766852, "lon": 19.5662247, "tags": {"addr:city": "Olkusz", "addr:housenumber": "24", "addr:postcode": "32-300", "addr:street": "Kr\u00f3la Kazimierza Wielkiego", "amenity": "pharmacy", "brand": "Ziko Apteka", "brand:wikidata": "Q63432892", "dispensing": "yes", "healthcare": "pharmacy", "name": "Ziko Apteka", "opening_hours": "Mo-Fr 08:00-20:00, Sa 08:00-15:00", "payment:cash": "yes", "payment:coins": "yes", "payment:mastercard": "yes", "payment:visa": "yes", "phone": "+48 12 687 57 47", "short_name": "Ziko", "website": "https://www.ziko.pl/olkusz-apteki-drogerie-ziko/kazimierza-wielkiego-24/"}}, {"type": "node", "id": 6393948347, "lat": 50.2767077, "lon": 19.1291603, "tags": {"amenity": "pharmacy", "brand": "Ziko Apteka", "brand:wikidata": "Q63432892", "dispensing": "yes", "healthcare": "pharmacy", "name": "Ziko Apteka", "opening_hours": "Mo-Fr 08:00-20:00; Sa 08:00-15:00", "payment:cash": "yes", "payment:coins": "yes", "payment:mastercard": "yes", "payment:visa": "yes", "phone": "+48 12 687 57 47", "ref:csioz": "1069323", "short_name": "Ziko", "website": "https://www.ziko.pl/sosnowiec-apteki-drogerie-ziko/modrzejowska-16/"}}, {"type": "node", "id": 6569425989, "lat": 50.3170543, "lon": 19.1674899, "tags": {"amenity": "pharmacy", "dispensing": "yes", "healthcare": "pharmacy", "name": "Zdrowit", "official_name": "Apteka Zdrowit", "phone": "695951210", "ref:csioz": "1187483"}}, {"type": "node", "id": 6613521054, "lat": 50.3048008, "lon": 19.0308902, "tags": {"amenity": "pharmacy", "contact:email": "apteka@onet.eu", "contact:phone": "+48 32 765 96 69", "dispensing": "yes", "healthcare": "pharmacy", "level": "0", "name": "Na Zdrowie", "opening_hours": "Mo-Fr 07:30-19:30; Sa 08:00-14:00; Su,PH off", "ref:csioz": "1068474"}}, {"type": "node", "id": 6951369097, "lat": 50.2908944, "lon": 19.1183465, "tags": {"amenity": "pharmacy", "dispensing": "yes", "healthcare": "pharmacy", "name": "Apteka na Gospodarczej", "ref:csioz": "1069090"}}, {"type": "node", "id": 7079748057, "lat": 50.3048374, "lon": 19.0953239, "tags": {"amenity": "pharmacy", "dispensing": "yes", "healthcare": "pharmacy", "name": "Blisko Ciebie", "official_name": "Apteka Blisko Ciebie", "ref:csioz": "1060167"}}, {"type": "node", "id": 7079748058, "lat": 50.303155, "lon": 19.0973439, "tags": {"addr:city": "Czelad\u017a", "addr:housenumber": "227i", "addr:postcode": "41-253", "addr:street": "Nowopogo\u0144ska", "amenity": "pharmacy", "dispensing": "yes", "healthcare": "pharmacy", "name": "Blisko Ciebie", "official_name": "Apteka Blisko Ciebie", "ref:csioz": "1214919"}}, {"type": "node", "id": 7238577409, "lat": 50.3068139, "lon": 19.0660557, "tags": {"amenity": "pharmacy", "dispensing": "yes", "healthcare": "pharmacy", "name": "Vitaminka", "official_name": "Vitaminka II", "ref:csioz": "1060091"}}, {"type": "node", "id": 7282472621, "lat": 50.1910479, "lon": 19.1604311, "tags": {"addr:city": "Mys\u0142owice", "addr:housenumber": "5a", "addr:postcode": "41-409", "addr:street": "Heleny i Ignacego Fik\u00f3w", "amenity": "pharmacy", "dispensing": "yes", "healthcare": "pharmacy", "name": "4 Pory Roku", "ref:csioz": "1170544"}}, {"type": "node", "id": 7316652722, "lat": 50.4742314, "lon": 19.2373836, "tags": {"addr:city": "Siewierz", "addr:housenumber": "16", "addr:postcode": "42-470", "addr:street": "Franciszka \u017bwirki i Stanis\u0142awa Wigury", "amenity": "pharmacy", "dispensing": "yes", "healthcare": "pharmacy", "name": "Medicus", "ref:csioz": "1068721"}}, {"type": "node", "id": 7320348161, "lat": 50.46941, "lon": 19.2363649, "tags": {"amenity": "pharmacy", "dispensing": "yes", "healthcare": "pharmacy", "ref:csioz": "1068700"}}, {"type": "node", "id": 7325777260, "lat": 50.484429, "lon": 19.4144666, "tags": {"addr:city": "Zawiercie", "addr:housenumber": "20", "addr:street": "Obro\u0144c\u00f3w Poczty Gda\u0144skiej", "amenity": "pharmacy", "dispensing": "yes", "healthcare": "pharmacy", "name": "Cef@Rm 36,6", "ref:csioz": "1071881"}}, {"type": "node", "id": 7325793309, "lat": 50.4850106, "lon": 19.4146888, "tags": {"addr:city": "Zawiercie", "addr:housenumber": "20", "addr:street": "Obro\u0144c\u00f3w Poczty Gda\u0144skiej", "amenity": "pharmacy", "brand": "Dbam o Zdrowie", "brand:wikidata": "Q62563833", "dispensing": "yes", "healthcare": "pharmacy", "name": "Dbam o Zdrowie", "ref:csioz": "1071870", "short_name": "DOZ"}}, {"type": "node", "id": 7354924933, "lat": 50.4905643, "lon": 19.4484992, "tags": {"addr:city": "Zawiercie", "addr:housenumber": "46B", "addr:postcode": "42-400", "addr:street": "Polska", "amenity": "pharmacy", "dispensing": "yes", "healthcare": "pharmacy", "name": "Plus", "ref:csioz": "1071951"}}, {"type": "node", "id": 7683765315, "lat": 50.4917325, "lon": 19.4200868, "tags": {"addr:city": "Zawiercie", "addr:housenumber": "2", "addr:street": "11 Listopada", "amenity": "pharmacy", "dispensing": "yes", "healthcare": "pharmacy", "name": "Pharmaland", "ref:csioz": "1172503"}}, {"type": "node", "id": 7817810432, "lat": 50.3258362, "lon": 19.1895674, "tags": {"addr:city": "D\u0105browa G\u00f3rnicza", "addr:housenumber": "1", "addr:postcode": "41-300", "addr:street": "Kardyna\u0142a Stefana Wyszy\u0144skiego", "amenity": "pharmacy", "dispensing": "yes", "drive_through": "no", "healthcare": "pharmacy", "ref:csioz": "1061633"}}, {"type": "node", "id": 7830364157, "lat": 50.3232406, "lon": 19.1201368, "tags": {"amenity": "pharmacy", "brand": "Gemini", "brand:wikidata": "Q130243797", "dispensing": "yes", "healthcare": "pharmacy", "name": "Gemini"}}, {"type": "node", "id": 8117914614, "lat": 50.281002, "lon": 19.1183152, "tags": {"amenity": "pharmacy", "dispensing": "yes", "healthcare": "pharmacy", "opening_hours": "Mo-Fr 08:00-19:00, 08:00-18:00; Sa 08:00-13:00", "ref:csioz": "1069165"}}, {"type": "node", "id": 8191824123, "lat": 50.1881655, "lon": 19.1042579, "tags": {"addr:city": "Mys\u0142owice", "addr:housenumber": "5", "addr:postcode": "41-408", "addr:street": "Edmunda Osma\u0144czyka", "amenity": "pharmacy", "dispensing": "yes", "drive_through": "no", "healthcare": "pharmacy", "name": "4 Pory Roku", "opening_hours": "Mo-Fr 08:00-18:00", "phone": "+48 32 223 22 88", "ref:csioz": "1066001", "website": "https://www.allecco.pl/"}}, {"type": "node", "id": 8210404886, "lat": 50.2786177, "lon": 19.5569606, "tags": {"addr:city": "Olkusz", "addr:housenumber": "7", "addr:postcode": "32-300", "addr:street": "Adama Mickiewicza", "amenity": "pharmacy", "dispensing": "yes", "healthcare": "pharmacy", "name": "Apteka Staromiejska"}}, {"type": "node", "id": 8407280942, "lat": 50.3281034, "lon": 19.0415761, "tags": {"addr:city": "Siemianowice \u015al\u0105skie", "addr:housenumber": "6-10", "addr:postcode": "41-100", "addr:street": "Karola Szymanowskiego", "amenity": "pharmacy", "dispensing": "yes", "drive_through": "no", "email": "apteka.na.bangowie@gmail.com", "healthcare": "pharmacy", "name": "Apteka \"Na Ba\u0144gowie\"", "operator": "Ewa Imiolczyk-Glados", "phone": "+48 32 229 83 09", "ref:csioz": "1068648"}}, {"type": "node", "id": 8500765533, "lat": 50.4832547, "lon": 19.4236659, "tags": {"addr:city": "Zawiercie", "addr:housenumber": "23", "addr:street": "3 Maja", "amenity": "pharmacy", "brand": "Dbam o Zdrowie", "brand:wikidata": "Q62563833", "dispensing": "yes", "healthcare": "pharmacy", "name": "Dbam o Zdrowie", "ref:csioz": "1180254", "short_name": "DOZ"}}, {"type": "node", "id": 8503590983, "lat": 50.4856032, "lon": 19.4233167, "tags": {"addr:city": "Zawiercie", "addr:housenumber": "1", "addr:street": "3 Maja", "amenity": "pharmacy", "dispensing": "yes", "healthcare": "pharmacy", "name": "Zdrowit", "ref:csioz": "1071819"}}, {"type": "node", "id": 8798333587, "lat": 50.6288388, "lon": 19.3638492, "tags": {"addr:city": "\u017barki", "addr:housenumber": "21", "addr:street": "Stanis\u0142awa Moniuszki", "amenity": "pharmacy", "dispensing": "yes", "healthcare": "pharmacy", "name": "Dobrych Rad", "opening_hours": "Mo-Su 07:00-20:00, Sa 08:00-20:00", "ref:csioz": "1217588"}}, {"type": "node", "id": 9106129022, "lat": 50.337802, "lon": 19.223851, "tags": {"addr:city": "D\u0105browa G\u00f3rnicza", "addr:housenumber": "8", "addr:postcode": "41-300", "addr:street": "J\u00f3zefa Wybickiego", "amenity": "pharmacy", "dispensing": "yes", "drive_through": "no", "healthcare": "pharmacy", "name": "Gemini", "opening_hours": "Mo-Fr 08:00-20:00; Sa 09:00-15:00", "phone": "+48 32 260 04 79", "ref:csioz": "1061746", "website": "https://www.geminipolska.com.pl/apteki-stacjonarne#"}}, {"type": "node", "id": 9183841317, "lat": 50.2182845, "lon": 19.2511605, "tags": {"addr:city": "Jaworzno", "addr:housenumber": "237", "addr:street": "Grunwaldzka", "amenity": "pharmacy", "brand": "Dbam o Zdrowie", "brand:wikidata": "Q62563833", "dispensing": "yes", "healthcare": "pharmacy", "name": "Dbam o Zdrowie", "ref:csioz": "1172231", "short_name": "DOZ"}}, {"type": "node", "id": 9219711948, "lat": 50.3179998, "lon": 19.0651346, "tags": {"addr:city": "Czelad\u017a", "addr:housenumber": "1A", "addr:postcode": "41-250", "addr:street": "Niepodleg\u0142o\u015bci", "amenity": "pharmacy", "dispensing": "yes", "healthcare": "pharmacy", "name": "Osiedlowa", "ref:csioz": "1060069"}}, {"type": "node", "id": 9551916671, "lat": 50.5777723, "lon": 19.3401497, "tags": {"addr:city": "Myszk\u00f3w", "addr:housenumber": "16", "addr:postcode": "42-300", "addr:street": "Genera\u0142a W\u0142adys\u0142awa Sikorskiego", "amenity": "pharmacy", "dispensing": "yes", "healthcare": "pharmacy", "name": "Niezapominajka Dla Ca\u0142ej Rodziny", "opening_hours": "Mo-Sa 08:00-20:00", "phone": "784661759", "ref:csioz": "1181651", "website": "https://apteka-niezapominajka.pl/"}}, {"type": "node", "id": 9551919629, "lat": 50.5780901, "lon": 19.3362701, "tags": {"addr:city": "Myszk\u00f3w", "addr:housenumber": "7", "addr:postcode": "42-300", "addr:street": "Marii Sk\u0142odowskiej-Curie", "amenity": "pharmacy", "brand": "Gemini", "brand:wikidata": "Q130243797", "disused:amenity": "pharmacy", "healthcare": "pharmacy", "name": "Gemini", "opening_hours": "Mo-Fr 07:00-20:00; Sa 07:00-14:00", "phone": "343131344", "ref:csioz": "1111631"}}, {"type": "node", "id": 9551928770, "lat": 50.5760443, "lon": 19.3290604, "tags": {"addr:city": "Myszk\u00f3w", "addr:housenumber": "24", "addr:postcode": "42-300", "addr:street": "Tadeusza Ko\u015bciuszki", "amenity": "pharmacy", "brand": "Dbam o Zdrowie", "brand:wikidata": "Q62563833", "dispensing": "yes", "healthcare": "pharmacy", "name": "Dbam o Zdrowie", "opening_hours": "Mo-Fr 07:00-20:00", "phone": "+48800110110", "ref:csioz": "1119442", "short_name": "DOZ", "website": "https://www.doz.pl/apteki/a118557-DOZ_Apteka_Dbam_o_Zdrowie"}}, {"type": "node", "id": 9551945232, "lat": 50.5738797, "lon": 19.3194272, "tags": {"addr:city": "Myszk\u00f3w", "addr:housenumber": "6B", "addr:postcode": "42-300", "addr:street": "Kazimierza Pu\u0142askiego", "amenity": "pharmacy", "dispensing": "yes", "healthcare": "pharmacy", "name": "Dobra", "opening_hours": "Mo-Sa 08:00-20:00, Su 10:00-18:00", "phone": "+48343100446", "ref:csioz": "1182246"}}, {"type": "node", "id": 9551966838, "lat": 50.572803, "lon": 19.3079273, "tags": {"addr:city": "Myszk\u00f3w", "addr:housenumber": "66", "addr:postcode": "42-300", "addr:street": "Marsza\u0142ka J\u00f3zefa Pi\u0142sudskiego", "amenity": "pharmacy", "dispensing": "yes", "drive_through": "no", "healthcare": "pharmacy", "name": "Dobra Apteka", "opening_hours": "Mo-Su 08:00-21:00", "phone": "+48343132116", "ref:csioz": "1120536", "website": "https://ktomalek.pl/apteki/dobra-apteka/myszkow/an-854976"}}, {"type": "node", "id": 9624234668, "lat": 50.2985812, "lon": 19.3875319, "tags": {"amenity": "pharmacy", "brand": "Dbam o Zdrowie", "brand:wikidata": "Q62563833", "dispensing": "yes", "healthcare": "pharmacy", "name": "Dbam o Zdrowie", "ref:csioz": "1068864", "short_name": "DOZ"}}, {"type": "node", "id": 9624234671, "lat": 50.3203446, "lon": 19.1308885, "tags": {"amenity": "pharmacy", "brand": "Dr. Max", "brand:wikidata": "Q56317371", "brand:wikipedia": "fr:Dr.Max", "dispensing": "yes", "healthcare": "pharmacy", "name": "Dr. Max", "opening_hours": "Mo-Fr 08:00-21:00; Sa 08:00-21:15; Su 09:00-19:00", "payment:cash": "yes", "payment:mastercard": "yes", "payment:visa": "yes", "ref:csioz": "1210872", "wheelchair": "yes"}}, {"type": "node", "id": 9624234672, "lat": 50.3663752, "lon": 19.0311164, "tags": {"addr:city": "Wojkowice", "addr:housenumber": "294", "addr:postcode": "42-580", "addr:street": "Kr\u00f3la Jana III Sobieskiego", "amenity": "pharmacy", "dispensing": "yes", "healthcare": "pharmacy", "name": "Apteka Dobrych Rad", "ref:csioz": "1210183"}}, {"type": "node", "id": 9624234674, "lat": 50.3265222, "lon": 19.1609806, "tags": {"addr:city": "B\u0119dzin", "addr:housenumber": "11", "addr:postcode": "42-500", "addr:street": "Siemo\u0144ska", "amenity": "pharmacy", "brand": "Dbam o Zdrowie", "brand:wikidata": "Q62563833", "dispensing": "yes", "healthcare": "pharmacy", "name": "Dbam o Zdrowie", "official_name": "Doz Apteka Dbam O Zdrowie Zdro-Vita", "ref:csioz": "1180375", "short_name": "DOZ"}}, {"type": "node", "id": 9624234677, "lat": 50.443348, "lon": 19.1235507, "tags": {"amenity": "pharmacy", "dispensing": "yes", "healthcare": "pharmacy", "name": "Gallena", "ref:csioz": "1065675"}}, {"type": "node", "id": 9624234678, "lat": 50.3648432, "lon": 19.0375345, "tags": {"amenity": "pharmacy", "dispensing": "yes", "healthcare": "pharmacy", "name": "Remedium", "ref:csioz": "1071132"}}, {"type": "node", "id": 9624234679, "lat": 50.3058042, "lon": 19.0710437, "tags": {"amenity": "pharmacy", "dispensing": "yes", "healthcare": "pharmacy", "name": "Vita", "ref:csioz": "1060050"}}, {"type": "node", "id": 9624460798, "lat": 50.3190149, "lon": 19.1060487, "tags": {"amenity": "pharmacy", "dispensing": "yes", "healthcare": "pharmacy", "name": "Europejska", "official_name": "Europejska Ii", "ref:csioz": "1060075"}}, {"type": "node", "id": 9624460800, "lat": 50.3500168, "lon": 19.0843828, "tags": {"amenity": "pharmacy", "dispensing": "yes", "healthcare": "pharmacy", "name": "Grodziecka", "ref:csioz": "1057631"}}, {"type": "node", "id": 9624460801, "lat": 50.3506144, "lon": 19.0861844, "tags": {"amenity": "pharmacy", "dispensing": "yes", "healthcare": "pharmacy", "name": "Arnika", "ref:csioz": "1057628"}}, {"type": "node", "id": 9624460803, "lat": 50.322923, "lon": 19.133791, "tags": {"amenity": "pharmacy", "dispensing": "yes", "healthcare": "pharmacy", "name": "Centrum", "ref:csioz": "1228385"}}, {"type": "node", "id": 9624460804, "lat": 50.3271881, "lon": 19.1552824, "tags": {"amenity": "pharmacy", "brand": "Dbam o Zdrowie", "brand:wikidata": "Q62563833", "dispensing": "yes", "healthcare": "pharmacy", "name": "Dbam o Zdrowie", "ref:csioz": "1057689", "short_name": "DOZ"}}, {"type": "node", "id": 9624460805, "lat": 50.3244877, "lon": 19.1314745, "tags": {"amenity": "pharmacy", "dispensing": "yes", "email": "apteka.polska@wp.pl", "healthcare": "pharmacy", "name": "Apteka Polska", "opening_hours": "Mo-Sa 08:00-20:00", "phone": "32 761 94 52", "ref:csioz": "1057521", "website": "https://www.facebook.com/aptekapl"}}, {"type": "node", "id": 9624493793, "lat": 50.3913819, "lon": 19.0298474, "tags": {"amenity": "pharmacy", "dispensing": "yes", "healthcare": "pharmacy", "name": "Apteka Dobrych Rad", "ref:csioz": "1220704"}}, {"type": "node", "id": 9624493794, "lat": 50.4207223, "lon": 19.0586737, "tags": {"amenity": "pharmacy", "check_date:opening_hours": "2024-07-19", "dispensing": "yes", "healthcare": "pharmacy", "name": "Punkt Apteczny Moje Zdrowie", "opening_hours": "Mo-Fr 08:00-17:00", "ref:csioz": "1214190", "wheelchair": "yes"}}, {"type": "node", "id": 9624493795, "lat": 50.4690922, "lon": 19.2379742, "tags": {"amenity": "pharmacy", "dispensing": "yes", "healthcare": "pharmacy", "name": "Apteka Dobrych Rad", "ref:csioz": "1068699"}}, {"type": "node", "id": 9624493796, "lat": 50.4984353, "lon": 19.1934099, "tags": {"amenity": "pharmacy", "dispensing": "yes", "email": "zdrowie@nzozprimus.pl", "healthcare": "pharmacy", "name": "Primus", "opening_hours": "Mo-Fr 07:00-20:00; Sa 07:00-14:30", "phone": "48830888099", "ref:csioz": "1058635", "website": "https://nzozprimus.pl/"}}, {"type": "node", "id": 9624493798, "lat": 50.3015816, "lon": 19.1021927, "tags": {"amenity": "pharmacy", "dispensing": "yes", "healthcare": "pharmacy", "ref:csioz": "1060114"}}, {"type": "node", "id": 9626675923, "lat": 50.3122981, "lon": 19.2932754, "tags": {"amenity": "pharmacy", "dispensing": "yes", "healthcare": "pharmacy", "name": "Hibiscus", "ref:csioz": "1061665"}}, {"type": "node", "id": 9626675924, "lat": 50.3294074, "lon": 19.2215688, "tags": {"amenity": "pharmacy", "dispensing": "yes", "healthcare": "pharmacy", "name": "Apteka Rodzinna", "ref:csioz": "1061569"}}, {"type": "node", "id": 9626675925, "lat": 50.3444602, "lon": 19.2636121, "tags": {"amenity": "pharmacy", "dispensing": "yes", "healthcare": "pharmacy", "name": "Apteka S\u0142oneczna", "ref:csioz": "1061588"}}, {"type": "node", "id": 9626675926, "lat": 50.3317403, "lon": 19.2160362, "tags": {"amenity": "pharmacy", "dispensing": "yes", "healthcare": "pharmacy", "name": "Dr.Max", "ref:csioz": "1061542"}}, {"type": "node", "id": 9626675927, "lat": 50.3388382, "lon": 19.2215193, "tags": {"addr:city": "D\u0105browa G\u00f3rnicza", "addr:housenumber": "1", "addr:postcode": "41-303", "addr:street": "Ignacego Krasickiego", "amenity": "pharmacy", "dispensing": "yes", "healthcare": "pharmacy", "name": "Apteka Blisko Ciebie", "ref:csioz": "1061441"}}, {"type": "node", "id": 9626675928, "lat": 50.3119086, "lon": 19.2795278, "tags": {"amenity": "pharmacy", "dispensing": "yes", "healthcare": "pharmacy", "name": "Nowa", "ref:csioz": "1061432"}}, {"type": "node", "id": 9626675929, "lat": 50.3294493, "lon": 19.235742, "tags": {"amenity": "pharmacy", "dispensing": "yes", "healthcare": "pharmacy", "name": "Apteka Rodzinna", "ref:csioz": "1061385"}}, {"type": "node", "id": 9626675930, "lat": 50.3329485, "lon": 19.2271187, "tags": {"amenity": "pharmacy", "dispensing": "yes", "healthcare": "pharmacy", "ref:csioz": "1061361"}}, {"type": "node", "id": 9626675931, "lat": 50.3458676, "lon": 19.2120244, "tags": {"amenity": "pharmacy", "dispensing": "yes", "healthcare": "pharmacy", "name": "Kwiatowa", "ref:csioz": "1229583"}}, {"type": "node", "id": 9626822242, "lat": 50.3817286, "lon": 19.2452314, "tags": {"amenity": "pharmacy", "dispensing": "yes", "healthcare": "pharmacy", "name": "Apteka Farmacja", "official_name": "Apteka Farmacja 2", "ref:csioz": "1178476"}}, {"type": "node", "id": 9626822243, "lat": 50.3755793, "lon": 19.263459, "tags": {"amenity": "pharmacy", "dispensing": "yes", "healthcare": "pharmacy", "name": "Dosa", "ref:csioz": "1061606"}}, {"type": "node", "id": 9626822244, "lat": 50.3676911, "lon": 19.2614114, "tags": {"amenity": "pharmacy", "dispensing": "yes", "healthcare": "pharmacy", "ref:csioz": "1061550"}}, {"type": "node", "id": 9626822245, "lat": 50.3393526, "lon": 19.2248902, "tags": {"amenity": "pharmacy", "dispensing": "yes", "healthcare": "pharmacy", "name": "Apteka Mandragora", "ref:csioz": "1219330"}}, {"type": "node", "id": 9626822246, "lat": 50.3445087, "lon": 19.2645601, "tags": {"addr:city": "D\u0105browa G\u00f3rnicza", "addr:housenumber": "92", "addr:postcode": "41-300", "addr:street": "Aleja J\u00f3zefa Pi\u0142sudskiego", "amenity": "pharmacy", "dispensing": "yes", "healthcare": "pharmacy", "name": "Apteka G\u0142\u00f3wna Z Sercem", "ref:csioz": "1195003"}}, {"type": "node", "id": 9626822248, "lat": 50.337176, "lon": 19.2162424, "tags": {"amenity": "pharmacy", "dispensing": "yes", "healthcare": "pharmacy", "name": "Doz Apteka Dbam O Zdrowie", "ref:csioz": "1118310"}}, {"type": "node", "id": 9626822249, "lat": 50.3305741, "lon": 19.2299611, "tags": {"amenity": "pharmacy", "dispensing": "yes", "healthcare": "pharmacy", "name": "Za Rogiem", "ref:csioz": "1112372"}}, {"type": "node", "id": 9626822250, "lat": 50.3108944, "lon": 19.2741186, "tags": {"amenity": "pharmacy", "dispensing": "yes", "healthcare": "pharmacy", "name": "Arnika", "ref:csioz": "1061709"}}, {"type": "node", "id": 9627619492, "lat": 50.4962085, "lon": 18.9240228, "tags": {"amenity": "pharmacy", "dispensing": "yes", "healthcare": "pharmacy", "name": "Apteka Moje Zdrowie", "ref:csioz": "1065634"}}, {"type": "node", "id": 9628578933, "lat": 50.3045815, "lon": 19.1229488, "tags": {"amenity": "pharmacy", "dispensing": "yes", "healthcare": "pharmacy", "name": "Maxfarm", "ref:csioz": "1069460"}}, {"type": "node", "id": 9628578934, "lat": 50.2760392, "lon": 19.1306742, "tags": {"amenity": "pharmacy", "dispensing": "yes", "healthcare": "pharmacy", "name": "Apteka Blisko Ciebie", "opening_hours": "Mo-Fr 07:30-20:30; Sa 08:00-16:00", "ref:csioz": "1069338"}}, {"type": "node", "id": 9628578935, "lat": 50.3028774, "lon": 19.1859854, "tags": {"amenity": "pharmacy", "dispensing": "yes", "healthcare": "pharmacy", "name": "Doz Apteka. Dbam O Zdrowie", "ref:csioz": "1069002"}}, {"type": "node", "id": 9628578936, "lat": 50.2924532, "lon": 19.1835589, "tags": {"amenity": "pharmacy", "brand": "Dr. Max", "brand:wikidata": "Q56317371", "dispensing": "yes", "healthcare": "pharmacy", "name": "Dr. Max", "ref:csioz": "1068981"}}, {"type": "node", "id": 9628578937, "lat": 50.3049668, "lon": 19.1896854, "tags": {"amenity": "pharmacy", "dispensing": "yes", "healthcare": "pharmacy", "name": "Lawendowa", "ref:csioz": "1068970"}}, {"type": "node", "id": 9628578938, "lat": 50.268535, "lon": 19.1763018, "tags": {"amenity": "pharmacy", "dispensing": "yes", "healthcare": "pharmacy", "name": "Na Rogu", "ref:csioz": "1068893"}}, {"type": "node", "id": 9628578939, "lat": 50.2901428, "lon": 19.0788982, "tags": {"addr:city": "Sosnowiec", "addr:housenumber": "14", "addr:postcode": "41-203", "addr:street": "Krzysztofa Kamila Baczy\u0144skiego", "amenity": "pharmacy", "dispensing": "yes", "healthcare": "pharmacy", "level": "1", "name": "Dar Zdrowia", "ref:csioz": "1177911"}}, {"type": "node", "id": 9628847977, "lat": 50.2937579, "lon": 19.1926982, "tags": {"amenity": "pharmacy", "dispensing": "yes", "healthcare": "pharmacy", "name:signed": "no", "opening_hours": "Mo-Fr 08:00-19:00; Sa 08:00-14:00", "phone": "+48 32 263 43 71", "ref:csioz": "1069282"}}, {"type": "node", "id": 9628847978, "lat": 50.2739776, "lon": 19.192462, "tags": {"amenity": "pharmacy", "dispensing": "yes", "healthcare": "pharmacy", "name": "Hedelix", "ref:csioz": "1069263"}}, {"type": "node", "id": 9628847979, "lat": 50.2962479, "lon": 19.1512537, "tags": {"amenity": "pharmacy", "dispensing": "yes", "healthcare": "pharmacy", "name": "Amaris", "ref:csioz": "1069225"}}, {"type": "node", "id": 9628847980, "lat": 50.2880056, "lon": 19.1774432, "tags": {"amenity": "pharmacy", "dispensing": "yes", "healthcare": "pharmacy", "name": "Apteka S\u0142oneczna", "ref:csioz": "1213169"}}, {"type": "node", "id": 9628847981, "lat": 50.2768801, "lon": 19.1283704, "tags": {"amenity": "pharmacy", "dispensing": "yes", "healthcare": "pharmacy", "name": "Apteka S\u0142oneczna", "opening_hours": "Mo-Sa 07:00-21:00; PH,Su 08:00-21:00", "ref:csioz": "1190532"}}, {"type": "node", "id": 9628847982, "lat": 50.2429873, "lon": 19.1602018, "tags": {"amenity": "pharmacy", "dispensing": "yes", "healthcare": "pharmacy", "name": "Dr. Max", "ref:csioz": "1181811"}}, {"type": "node", "id": 9628847983, "lat": 50.2909493, "lon": 19.1805011, "tags": {"addr:city": "Sosnowiec", "addr:housenumber": "3", "addr:postcode": "41-219", "addr:street": "Aleja Ksi\u0119dza Franciszka Blachnickiego", "amenity": "pharmacy", "dispensing": "yes", "healthcare": "pharmacy", "name": "Apteka Zdrowit", "ref:csioz": "1178005"}}, {"type": "node", "id": 9628847984, "lat": 50.3026455, "lon": 19.1600175, "tags": {"amenity": "pharmacy", "dispensing": "yes", "healthcare": "pharmacy", "name": "Apteka Medialis Pharm", "ref:csioz": "1069681"}}, {"type": "node", "id": 9628847985, "lat": 50.2795823, "lon": 19.1418722, "tags": {"addr:city": "Sosnowiec", "addr:housenumber": "15", "addr:postcode": "41-200", "addr:street": "Wawel", "amenity": "pharmacy", "dispensing": "yes", "healthcare": "pharmacy", "ref:csioz": "1069619"}}, {"type": "node", "id": 9628847986, "lat": 50.2439163, "lon": 19.161978, "tags": {"amenity": "pharmacy", "dispensing": "yes", "healthcare": "pharmacy", "name": "Apteka Ksar", "ref:csioz": "1069578"}}, {"type": "node", "id": 9628847987, "lat": 50.2703496, "lon": 19.2295895, "tags": {"amenity": "pharmacy", "dispensing": "yes", "healthcare": "pharmacy", "name": "Na Juliuszu", "ref:csioz": "1069532"}}, {"type": "node", "id": 9629030966, "lat": 50.2752843, "lon": 19.1333676, "tags": {"amenity": "pharmacy", "dispensing": "yes", "healthcare": "pharmacy", "name": "Apteka Kasztanowa", "opening_hours": "Mo-Fr 08:00-19:00; Sa 09:00-14:00", "ref:csioz": "1227434"}}, {"type": "node", "id": 9629030967, "lat": 50.292257, "lon": 19.1751092, "tags": {"amenity": "pharmacy", "dispensing": "yes", "healthcare": "pharmacy", "name": "Prima", "ref:csioz": "1215629"}}, {"type": "node", "id": 9629030968, "lat": 50.2933227, "lon": 19.2395778, "tags": {"amenity": "pharmacy", "dispensing": "yes", "healthcare": "pharmacy", "name": "Isofarm", "ref:csioz": "1193139"}}, {"type": "node", "id": 9629030969, "lat": 50.2752208, "lon": 19.1446692, "tags": {"amenity": "pharmacy", "dispensing": "yes", "healthcare": "pharmacy", "name": "Apteka Zdrowit", "opening_hours": "Mo-Sa 07:00-20:00", "ref:csioz": "1187494"}}, {"type": "node", "id": 9629030970, "lat": 50.2663965, "lon": 19.1684615, "tags": {"addr:city": "Sosnowiec", "addr:housenumber": "39", "addr:postcode": "41-200", "addr:street": "Mariana Maliny", "amenity": "pharmacy", "dispensing": "yes", "healthcare": "pharmacy", "name": "Apteka Na Maliny", "ref:csioz": "1187555"}}, {"type": "node", "id": 9629030971, "lat": 50.2841833, "lon": 19.1477363, "tags": {"amenity": "pharmacy", "dispensing": "yes", "healthcare": "pharmacy", "name": "Apteka Nova", "ref:csioz": "1185183"}}, {"type": "node", "id": 9629030972, "lat": 50.2960493, "lon": 19.1314325, "tags": {"addr:city": "Sosnowiec", "addr:housenumber": "9", "addr:postcode": "41-200", "addr:street": "Sucha", "amenity": "pharmacy", "dispensing": "yes", "healthcare": "pharmacy", "name": "Apteka Nova", "ref:csioz": "1183543", "wheelchair": "yes"}}, {"type": "node", "id": 9629030973, "lat": 50.286352, "lon": 19.1797431, "tags": {"amenity": "pharmacy", "dispensing": "yes", "healthcare": "pharmacy", "name": "Apteka Przy Biedronce", "ref:csioz": "1176662"}}, {"type": "node", "id": 9629030975, "lat": 50.281546, "lon": 19.120146, "tags": {"addr:city": "Sosnowiec", "addr:housenumber": "23", "addr:postcode": "41-200", "addr:street": "Aleja J\u00f3zefa Mireckiego", "amenity": "pharmacy", "brand": "Dr. Max", "brand:wikidata": "Q56317371", "dispensing": "yes", "healthcare": "pharmacy", "name": "Dr. Max", "ref:csioz": "1110875"}}, {"type": "node", "id": 9629056921, "lat": 50.2965968, "lon": 19.1829751, "tags": {"amenity": "pharmacy", "dispensing": "yes", "healthcare": "pharmacy", "name": "Apteka 2001", "opening_hours": "Mo-Fr 07:00-21:00; Sa 08:00-15:00", "ref:csioz": "1069028"}}, {"type": "node", "id": 9630416789, "lat": 50.2459942, "lon": 19.0792332, "tags": {"addr:city": "Katowice", "addr:housenumber": "59", "addr:postcode": "40-431", "addr:street": "Szopienicka", "amenity": "pharmacy", "dispensing": "yes", "healthcare": "pharmacy", "name": "Centrum Zdrowia", "ref:csioz": "1184455"}}, {"type": "node", "id": 9630416791, "lat": 50.2413682, "lon": 19.0906805, "tags": {"amenity": "pharmacy", "dispensing": "yes", "healthcare": "pharmacy", "name": "Apteka Grosik", "official_name": "Apteka Grosik-Centrum Tanich Lek\u00f3w", "ref:csioz": "1064589"}}, {"type": "node", "id": 9630416792, "lat": 50.2417286, "lon": 19.090015, "tags": {"amenity": "pharmacy", "dispensing": "yes", "healthcare": "pharmacy", "name": "Apteka Isofarm", "ref:csioz": "1226524"}}, {"type": "node", "id": 9713896934, "lat": 50.58671, "lon": 19.0536608, "tags": {"addr:city": "Wo\u017aniki", "addr:housenumber": "21", "addr:postcode": "42-289", "addr:street": "Dworcowa", "amenity": "pharmacy", "dispensing": "yes", "healthcare": "pharmacy", "ref:csioz": "1071186"}}, {"type": "node", "id": 9829033361, "lat": 50.6413645, "lon": 19.4830938, "tags": {"addr:city": "Niegowa", "addr:housenumber": "20", "addr:street": "Jana III Sobieskiego", "amenity": "pharmacy", "dispensing": "yes", "healthcare": "pharmacy", "name": "W Niegowie", "ref:csioz": "1223499"}}, {"type": "node", "id": 9829033365, "lat": 50.5979315, "lon": 19.1609278, "tags": {"addr:city": "Kozieg\u0142owy", "addr:housenumber": "18", "addr:street": "Plac Stanis\u0142awa Moniuszki", "amenity": "pharmacy", "dispensing": "yes", "healthcare": "pharmacy", "name": "Agavit", "ref:csioz": "1065047"}}, {"type": "node", "id": 9829033366, "lat": 50.6005009, "lon": 19.156977, "tags": {"addr:city": "Kozieg\u0142owy", "addr:housenumber": "27A", "addr:street": "3 Maja", "amenity": "pharmacy", "dispensing": "yes", "healthcare": "pharmacy", "name": "3 Maja", "ref:csioz": "1065039"}}, {"type": "node", "id": 9869112232, "lat": 50.2158565, "lon": 19.2540102, "tags": {"addr:city": "Jaworzno", "addr:housenumber": "229B", "addr:street": "Grunwaldzka", "amenity": "pharmacy", "dispensing": "yes", "healthcare": "pharmacy", "name": "4 Pory Roku", "ref:csioz": "1063055"}}, {"type": "node", "id": 9984020743, "lat": 50.4482505, "lon": 19.5184001, "tags": {"addr:city": "Ogrodzieniec", "addr:housenumber": "26", "addr:street": "Plac Wolno\u015bci", "amenity": "pharmacy", "dispensing": "yes", "healthcare": "pharmacy", "name": "Medmar", "ref:csioz": "1066311"}}, {"type": "node", "id": 10110037437, "lat": 50.4477411, "lon": 19.519475, "tags": {"addr:city": "Ogrodzieniec", "addr:housenumber": "17", "addr:street": "Plac Wolno\u015bci", "amenity": "pharmacy", "dispensing": "yes", "healthcare": "pharmacy", "name": "Zdrowe Ceny", "opening_hours": "Mo-Fr 07:30-20:00; Sa 08:00-15:00", "ref:csioz": "1226597", "website": "http://www.zdroweceny.pl"}}, {"type": "node", "id": 10110037438, "lat": 50.4807966, "lon": 19.4268847, "tags": {"addr:city": "Zawiercie", "addr:housenumber": "21A", "addr:street": "Aleja Genera\u0142a W\u0142adys\u0142awa Sikorskiego", "amenity": "pharmacy", "brand": "Dbam o Zdrowie", "brand:wikidata": "Q62563833", "dispensing": "yes", "healthcare": "pharmacy", "name": "Dbam o Zdrowie", "ref:csioz": "1207914", "short_name": "DOZ"}}, {"type": "node", "id": 10110037444, "lat": 50.4906342, "lon": 19.4402692, "tags": {"addr:city": "Zawiercie", "addr:housenumber": "50", "addr:street": "Marsza\u0142ka J\u00f3zefa Pi\u0142sudskiego", "amenity": "pharmacy", "dispensing": "yes", "healthcare": "pharmacy", "name": "Far-Med", "ref:csioz": "1110989"}}, {"type": "node", "id": 10110037446, "lat": 50.4937668, "lon": 19.4932764, "tags": {"addr:city": "Zawiercie", "addr:housenumber": "7", "addr:street": "Targowa", "amenity": "pharmacy", "dispensing": "yes", "healthcare": "pharmacy", "ref:csioz": "1072029"}}, {"type": "node", "id": 10110037447, "lat": 50.4817804, "lon": 19.4349012, "tags": {"addr:city": "Zawiercie", "addr:housenumber": "1", "addr:street": "W\u0142adys\u0142awa Stanis\u0142awa Reymonta", "amenity": "pharmacy", "dispensing": "yes", "healthcare": "pharmacy", "ref:csioz": "1071980"}}, {"type": "node", "id": 10110037448, "lat": 50.4910722, "lon": 19.4335497, "tags": {"addr:city": "Zawiercie", "addr:housenumber": "81F", "addr:street": "Marsza\u0142ka J\u00f3zefa Pi\u0142sudskiego", "amenity": "pharmacy", "brand": "Dbam o Zdrowie", "brand:wikidata": "Q62563833", "dispensing": "yes", "healthcare": "pharmacy", "name": "Dbam o Zdrowie", "opening_hours": "Mo-Fr 08:00-20:00; Sa 08:00-15:00", "ref:csioz": "1071938", "short_name": "DOZ"}}, {"type": "node", "id": 10110037450, "lat": 50.493493, "lon": 19.436819, "tags": {"addr:city": "Zawiercie", "addr:housenumber": "10", "addr:street": "Nowowierzbowa", "amenity": "pharmacy", "dispensing": "yes", "healthcare": "pharmacy", "name": "Panaceum", "ref:csioz": "1071862"}}, {"type": "node", "id": 10110037452, "lat": 50.4871391, "lon": 19.3387533, "tags": {"addr:city": "Por\u0119ba", "addr:housenumber": "1", "addr:street": "Przemys\u0142owa", "amenity": "pharmacy", "dispensing": "yes", "healthcare": "pharmacy", "name": "Codzienna", "ref:csioz": "1066872"}}, {"type": "node", "id": 10110037453, "lat": 50.4876178, "lon": 19.3411761, "tags": {"addr:city": "Por\u0119ba", "addr:housenumber": "30", "addr:street": "Wojska Polskiego", "amenity": "pharmacy", "dispensing": "yes", "healthcare": "pharmacy", "name": "Malwa", "ref:csioz": "1066867"}}, {"type": "node", "id": 10110037454, "lat": 50.4873616, "lon": 19.3372076, "tags": {"addr:city": "Por\u0119ba", "addr:housenumber": "2", "addr:street": "Fryderyka Chopina", "amenity": "pharmacy", "dispensing": "yes", "healthcare": "pharmacy", "name": "Nasza", "ref:csioz": "1066851"}}, {"type": "node", "id": 10110037455, "lat": 50.4314062, "lon": 19.3875222, "tags": {"addr:city": "\u0141azy", "addr:housenumber": "5", "addr:street": "Sp\u00f3\u0142dzielcza", "amenity": "pharmacy", "dispensing": "yes", "healthcare": "pharmacy", "name": "Codzienna", "ref:csioz": "1065554"}}, {"type": "node", "id": 10110037456, "lat": 50.4283596, "lon": 19.3913693, "tags": {"addr:city": "\u0141azy", "addr:housenumber": "3", "addr:street": "Tadeusza Ko\u015bciuszki", "amenity": "pharmacy", "dispensing": "yes", "healthcare": "pharmacy", "name": "Radix", "ref:csioz": "1065540"}}, {"type": "node", "id": 10110069593, "lat": 50.3893383, "lon": 19.4215767, "tags": {"addr:city": "Niegowonice", "addr:housenumber": "24", "addr:postcode": "42-454", "addr:street": "Tadeusza Ko\u015bciuszki", "amenity": "pharmacy", "dispensing": "yes", "healthcare": "pharmacy", "name": "Punkt Apteczny Zdr\u00f3wko", "ref:csioz": "1230825"}}, {"type": "node", "id": 10152437942, "lat": 50.2289284, "lon": 19.2345934, "tags": {"addr:city": "Jaworzno", "addr:housenumber": "3", "addr:street": "Aleja Tysi\u0105clecia", "amenity": "pharmacy", "dispensing": "yes", "healthcare": "pharmacy", "name": "Agafarmax Jaworzno", "ref:csioz": "1220903"}}, {"type": "node", "id": 10152437944, "lat": 50.2169067, "lon": 19.2521007, "tags": {"addr:city": "Jaworzno", "addr:housenumber": "235", "addr:street": "Grunwaldzka", "amenity": "pharmacy", "dispensing": "yes", "healthcare": "pharmacy", "name": "Blisko Ciebie", "ref:csioz": "1181646"}}, {"type": "node", "id": 10152437945, "lat": 50.1993555, "lon": 19.2691552, "tags": {"addr:city": "Jaworzno", "addr:housenumber": "24C", "addr:street": "Jana Matejki", "amenity": "pharmacy", "dispensing": "yes", "healthcare": "pharmacy", "name": "Rodzinna Pod Arkadami", "opening_hours": "Mo-Fr 07:00-21:00; Sa 07:00-14:00", "ref:csioz": "1179087"}}, {"type": "node", "id": 10152437946, "lat": 50.2294468, "lon": 19.2389366, "tags": {"addr:city": "Jaworzno", "addr:housenumber": "9", "addr:street": "Partyzant\u00f3w", "amenity": "pharmacy", "brand": "Dbam o Zdrowie", "brand:wikidata": "Q62563833", "dispensing": "yes", "healthcare": "pharmacy", "name": "Dbam o Zdrowie", "ref:csioz": "1113056", "short_name": "DOZ"}}, {"type": "node", "id": 10152437947, "lat": 50.2247587, "lon": 19.2293507, "tags": {"addr:city": "Jaworzno", "addr:housenumber": "2D", "addr:street": "Wojska Polskiego", "amenity": "pharmacy", "brand": "Dbam o Zdrowie", "brand:wikidata": "Q62563833", "dispensing": "yes", "healthcare": "pharmacy", "name": "Dbam o Zdrowie", "ref:csioz": "1063291", "short_name": "DOZ", "wheelchair": "yes"}}, {"type": "node", "id": 10152437948, "lat": 50.228325, "lon": 19.2352966, "tags": {"addr:city": "Jaworzno", "addr:housenumber": "28", "addr:street": "\u015awi\u0119tego Maksymiliana Kolbego", "amenity": "pharmacy", "dispensing": "yes", "healthcare": "pharmacy", "name": "\u015aw. Maksymiliana", "ref:csioz": "1063288"}}, {"type": "node", "id": 10152437949, "lat": 50.2284402, "lon": 19.2280234, "tags": {"addr:city": "Jaworzno", "addr:housenumber": "17", "addr:street": "Starowiejska", "amenity": "pharmacy", "brand": "Dbam o Zdrowie", "brand:wikidata": "Q62563833", "dispensing": "yes", "healthcare": "pharmacy", "name": "Dbam o Zdrowie", "opening_hours": "Mo-Fr 08:30-18:00; Sa 09:00-13:00", "ref:csioz": "1063275", "short_name": "DOZ"}}, {"type": "node", "id": 10152437950, "lat": 50.2007427, "lon": 19.2762019, "tags": {"addr:city": "Jaworzno", "addr:housenumber": "13", "addr:street": "Pocztowa", "amenity": "pharmacy", "brand": "Dbam o Zdrowie", "dispensing": "yes", "healthcare": "pharmacy", "name": "Dbam o Zdrowie", "opening_hours": "Mo-Fr 08:00-20:00; Sa 08:00-14:00", "ref:csioz": "1063234", "short_name": "DOZ"}}, {"type": "node", "id": 10152437951, "lat": 50.2420689, "lon": 19.2935416, "tags": {"amenity": "pharmacy", "dispensing": "yes", "healthcare": "pharmacy", "ref:csioz": "1063124"}}, {"type": "node", "id": 10152437952, "lat": 50.2277485, "lon": 19.2028947, "tags": {"addr:city": "Jaworzno", "addr:housenumber": "57", "addr:street": "Katowicka", "amenity": "pharmacy", "dispensing": "yes", "healthcare": "pharmacy", "name": "Melissa", "ref:csioz": "1063119"}}, {"type": "node", "id": 10152437953, "lat": 50.2008789, "lon": 19.2690983, "tags": {"addr:city": "Jaworzno", "addr:housenumber": "1", "addr:street": "Gwark\u00f3w", "amenity": "pharmacy", "brand": "Dbam o Zdrowie", "brand:wikidata": "Q62563833", "dispensing": "yes", "healthcare": "pharmacy", "name": "Dbam o Zdrowie", "ref:csioz": "1063086", "short_name": "DOZ"}}, {"type": "node", "id": 10152437954, "lat": 50.207455, "lon": 19.2656981, "tags": {"addr:city": "Jaworzno", "addr:housenumber": "104", "addr:street": "Grunwaldzka", "amenity": "pharmacy", "dispensing": "yes", "healthcare": "pharmacy", "name": "Ziko", "ref:csioz": "1063032"}}, {"type": "node", "id": 10152437955, "lat": 50.2285878, "lon": 19.2340556, "tags": {"addr:city": "Jaworzno", "addr:housenumber": "14", "addr:street": "Aleja Tysi\u0105clecia", "amenity": "pharmacy", "dispensing": "yes", "healthcare": "pharmacy", "name": "4 Pory Roku", "ref:csioz": "1063007"}}, {"type": "node", "id": 10152437956, "lat": 50.2094661, "lon": 19.2489933, "tags": {"addr:city": "Jaworzno", "addr:housenumber": "27", "addr:street": "Aleja marsza\u0142ka J\u00f3zefa Pi\u0142sudskiego", "amenity": "pharmacy", "dispensing": "yes", "healthcare": "pharmacy", "name": "Niezapominajka Dla Ca\u0142ej Rodziny", "ref:csioz": "1062989"}}, {"type": "node", "id": 10157976092, "lat": 50.2183324, "lon": 19.1571957, "tags": {"addr:city": "Mys\u0142owice", "addr:housenumber": "59A", "addr:street": "Genera\u0142a Jerzego Zi\u0119tka", "amenity": "pharmacy", "dispensing": "yes", "healthcare": "pharmacy", "name": "S\u0142oneczna", "ref:csioz": "1225247"}}, {"type": "node", "id": 10157976093, "lat": 50.2443795, "lon": 19.138971, "tags": {"addr:city": "Mys\u0142owice", "addr:housenumber": "21", "addr:street": "Rynek", "amenity": "pharmacy", "dispensing": "yes", "healthcare": "pharmacy", "name": "W Rynku", "ref:csioz": "1206250"}}, {"type": "node", "id": 10157976094, "lat": 50.242053, "lon": 19.132475, "tags": {"addr:city": "Mys\u0142owice", "addr:housenumber": "1", "addr:street": "Fryderyka Chopina", "amenity": "pharmacy", "brand": "Dr. Max", "brand:wikidata": "Q56317371", "dispensing": "yes", "healthcare": "pharmacy", "name": "Dr. Max", "ref:csioz": "1194444"}}, {"type": "node", "id": 10157976095, "lat": 50.2379494, "lon": 19.140287, "tags": {"addr:city": "Mys\u0142owice", "addr:housenumber": "10", "addr:street": "O\u015bwi\u0119cimska", "amenity": "pharmacy", "dispensing": "yes", "healthcare": "pharmacy", "name": "Maciejka", "ref:csioz": "1186301"}}, {"type": "node", "id": 10157976097, "lat": 50.2394673, "lon": 19.1297187, "tags": {"addr:city": "Mys\u0142owice", "addr:housenumber": "1", "addr:street": "Ludomira R\u00f3\u017cyckiego", "amenity": "pharmacy", "dispensing": "yes", "healthcare": "pharmacy", "name": "Blisko Ciebie", "ref:csioz": "1172780"}}, {"type": "node", "id": 10157976098, "lat": 50.2433073, "lon": 19.1243136, "tags": {"addr:city": "Mys\u0142owice", "addr:housenumber": "29", "addr:street": "Wielka Skotnica", "amenity": "pharmacy", "dispensing": "yes", "healthcare": "pharmacy", "name": "Zdrowit", "ref:csioz": "1172698"}}, {"type": "node", "id": 10157976099, "lat": 50.2211831, "lon": 19.1589763, "tags": {"addr:city": "Mys\u0142owice", "addr:housenumber": "2", "addr:street": "Bernarda Wa\u0142y", "amenity": "pharmacy", "dispensing": "yes", "healthcare": "pharmacy", "name": "\u015aw. Kamila", "ref:csioz": "1122446"}}, {"type": "node", "id": 10157976100, "lat": 50.2405436, "lon": 19.1336566, "tags": {"amenity": "pharmacy", "healthcare": "pharmacy", "name": "Dla Ciebie", "ref:csioz": "1066105"}}, {"type": "node", "id": 10157976101, "lat": 50.2162137, "lon": 19.157466, "tags": {"addr:city": "Mys\u0142owice", "addr:housenumber": "71A", "addr:street": "Genera\u0142a Jerzego Zi\u0119tka", "amenity": "pharmacy", "brand": "Dr. Max", "brand:wikidata": "Q56317371", "dispensing": "yes", "healthcare": "pharmacy", "name": "Dr. Max", "ref:csioz": "1065938"}}, {"type": "node", "id": 10157976102, "lat": 50.2383557, "lon": 19.1345601, "tags": {"addr:city": "Mys\u0142owice", "addr:housenumber": "45", "addr:street": "Armii Krajowej", "amenity": "pharmacy", "dispensing": "yes", "healthcare": "pharmacy", "name": "Aronia", "ref:csioz": "1065897"}}, {"type": "node", "id": 10294295035, "lat": 50.2676394, "lon": 19.461007, "tags": {"amenity": "pharmacy", "healthcare": "pharmacy"}}, {"type": "node", "id": 10860132005, "lat": 50.3369142, "lon": 19.5626822, "tags": {"amenity": "pharmacy", "name": "T\u0119czowa"}}, {"type": "node", "id": 10990027872, "lat": 50.4709453, "lon": 19.072386, "tags": {"amenity": "pharmacy", "healthcare": "pharmacy", "level": "0"}}, {"type": "node", "id": 11040225797, "lat": 50.5626991, "lon": 19.3043387}, {"type": "node", "id": 11167876600, "lat": 50.3952148, "lon": 19.0155084, "tags": {"amenity": "pharmacy", "healthcare": "pharmacy", "name": "Apteka Dobrych Rad", "opening_hours": "Mo-Sa 07:00-20:00; Su 08:00-20:00", "wheelchair": "yes"}}, {"type": "node", "id": 11512378734, "lat": 50.3268753, "lon": 19.0296975, "tags": {"amenity": "pharmacy", "healthcare": "pharmacy"}}, {"type": "node", "id": 11541750371, "lat": 50.293493, "lon": 19.2476903, "tags": {"addr:city": "Sosnowiec", "addr:housenumber": "69A", "addr:postcode": "41-215", "addr:street": "Armii Krajowej", "amenity": "pharmacy", "dispensing": "yes", "healthcare": "pharmacy", "name": "Galen", "opening_hours": "Mo-Fr 08:00-18:00; Sa 08:00-14:00"}}, {"type": "node", "id": 11818568801, "lat": 50.3039729, "lon": 19.1224239, "tags": {"amenity": "pharmacy", "healthcare": "pharmacy", "name": "Apteka S\u0142oneczna"}}, {"type": "node", "id": 12747468922, "lat": 50.5628333, "lon": 19.3044577}, {"type": "node", "id": 12747468923, "lat": 50.5628673, "lon": 19.3043625}, {"type": "node", "id": 12747468931, "lat": 50.5627332, "lon": 19.3042436}, {"type": "way", "id": 173999495, "nodes": [1847418709, 1847418694, 1847418692, 3367959402, 3367959403, 3367959405, 3367959404, 1847418707, 1847418709], "tags": {"addr:city": "Olkusz", "addr:city:simc": "0941777", "addr:housenumber": "17", "addr:postcode": "32-300", "addr:street": "Aleja 1000-lecia", "addr:street:sym_ul": "0000004", "amenity": "pharmacy", "building": "yes", "name": "Prywatna", "operator": "Aleksandra Woszczek", "source:addr": "emuia.gugik.gov.pl"}}, {"type": "way", "id": 182398813, "nodes": [1927476499, 1927476450, 1927476451, 1927476457, 1927476478, 1927476499], "tags": {"amenity": "pharmacy", "buildingpart": "room", "dispensing": "yes", "healthcare": "pharmacy", "name": "Euro Apteka", "opening_hours": "Mo-Sa 09:00-21:00; Su 09:00-20:00", "ref:csioz": "1061654"}}, {"type": "way", "id": 183403505, "nodes": [1937750102, 1937750107, 1937750104, 1937750105, 1937750102], "tags": {"amenity": "pharmacy", "name": "Apteka Prywatna"}}, {"type": "way", "id": 1376693282, "nodes": [12747468922, 12747468923, 12747468931, 11040225797, 12747468922], "tags": {"amenity": "pharmacy", "name": "DOZ Apteka"}}]}