{"version": 0.6, "generator": "Overpass API 0.7.62.8 e802775f", "osm3s": {"timestamp_osm_base": "2025-10-06T08:16:01Z", "copyright": "The data included in this document is from www.openstreetmap.org. The data is made available under ODbL."}, "elements": [{"type": "node", "id": 1723131355, "lat": 52.31284, "lon": 18.1668, "tags": {"addr:city": "Kazimierz Biskupi", "addr:housenumber": "8", "addr:postcode": "62-530", "addr:street": "Plac Wolno\u015bci", "amenity": "pharmacy", "operator": "Poczta Polska", "source:addr": "kazimierzbiskupi.e-mapa.net"}}, {"type": "node", "id": 1723172162, "lat": 52.3082687, "lon": 18.1650904, "tags": {"amenity": "pharmacy", "dispensing": "yes", "healthcare": "pharmacy"}}, {"type": "node", "id": 1723172216, "lat": 52.3130569, "lon": 18.1652254, "tags": {"amenity": "pharmacy", "dispensing": "yes", "name": "Punkt apteczny"}}, {"type": "node", "id": 3638248838, "lat": 52.627911, "lon": 18.174095, "tags": {"amenity": "pharmacy", "dispensing": "yes", "healthcare": "pharmacy", "name": "Centrum Zdrowia", "opening_hours": "Mo-Fr 08:00-20:00; Sa 08:00-16:00; Su off", "phone": "+48 52 302 08 96", "ref:csioz": "1174049"}}, {"type": "node", "id": 3907804931, "lat": 52.3169497, "lon": 18.3559024, "tags": {"amenity": "pharmacy", "name": "Dars", "phone": "+48 63 270 79 27"}}, {"type": "node", "id": 3948666406, "lat": 52.4838202, "lon": 18.1671195, "tags": {"amenity": "pharmacy", "dispensing": "yes", "email": "aptekanarynku1@gmail.com", "name": "Na Rynku", "opening_hours": "Mo-Fr 08:00-18:00; Sa 08:00-14:00; Su off", "phone": "+48 63 220 46 70"}}, {"type": "node", "id": 4066623201, "lat": 52.3660295, "lon": 18.1833765, "tags": {"amenity": "pharmacy", "healthcare": "pharmacy"}}, {"type": "node", "id": 8971434879, "lat": 52.6278754, "lon": 18.1727258, "tags": {"amenity": "pharmacy", "dispensing": "yes", "fixme": "Lokalizacja do weryfikacji", "healthcare": "pharmacy", "name": "Magazynowa", "ref:csioz": "1216308"}}, {"type": "node", "id": 9575442867, "lat": 52.3699824, "lon": 18.306507, "tags": {"addr:city": "\u015alesin", "addr:housenumber": "3", "addr:postcode": "62-561", "addr:street": "\u017bwirki i Wigury", "amenity": "pharmacy", "name": "Rodzinna", "ref:csioz": "1049156"}}, {"type": "node", "id": 9575451290, "lat": 52.2559845, "lon": 18.2330534, "tags": {"addr:city": "Posada", "addr:housenumber": "6B", "addr:postcode": "62-530", "addr:street": "Juliana Tuwima", "amenity": "pharmacy", "name": "\u015aw. Alberta", "ref:csioz": "1123242"}}, {"type": "node", "id": 9575476728, "lat": 52.3690596, "lon": 18.3061154, "tags": {"addr:city": "\u015alesin", "addr:housenumber": "18", "addr:postcode": "63-561", "addr:street": "\u017bwirki i Wigury", "amenity": "pharmacy", "name": "Doz Apteka. Dbam O Zdrowie. Medica", "ref:csioz": "1048520"}}, {"type": "node", "id": 9575506804, "lat": 52.4814064, "lon": 18.3327511, "tags": {"addr:city": "Skulsk", "addr:housenumber": "10", "addr:postcode": "62-560", "addr:street": "W\u0142oc\u0142awska", "amenity": "pharmacy", "name": "Libra", "ref:csioz": "1049630"}}, {"type": "node", "id": 9575532447, "lat": 52.4785054, "lon": 18.3308868, "tags": {"addr:city": "Skulsk", "addr:housenumber": "26", "addr:postcode": "62-560", "addr:street": "Koni\u0144ska", "amenity": "pharmacy", "name": "Arnika", "ref:csioz": "1217665"}}, {"type": "node", "id": 9575546463, "lat": 52.3707291, "lon": 18.3043626, "tags": {"addr:city": "\u015alesin", "addr:housenumber": "12B", "addr:postcode": "62-561", "addr:street": "Kleczewska", "amenity": "pharmacy", "name": "Twoja", "opening_hours": "Mo-Sa 08:00-20:00; Su 10:00-17:00", "ref:csioz": "1119948"}}, {"type": "node", "id": 9575549182, "lat": 52.2432393, "lon": 18.1496501, "tags": {"addr:city": "Kawnice", "addr:city:simc": "0283357", "addr:housenumber": "4", "addr:postcode": "62-590", "addr:street": "Kr\u00f3lewska", "amenity": "pharmacy", "name": "Vita", "old_addr:housenumber": "6", "old_addr:place": "Kawnice", "ref:csioz": "1191498", "source:addr": "golina.e-mapa.net"}}, {"type": "node", "id": 9575558211, "lat": 52.3710611, "lon": 18.2987087, "tags": {"addr:city": "\u015alesin", "addr:housenumber": "29", "addr:postcode": "62-561", "addr:street": "Kleczewska", "amenity": "pharmacy", "name": "Aloes", "opening_hours": "Mo-Sa 08:00-20:00; Su 11:00-18:00", "ref:csioz": "1219642"}}, {"type": "node", "id": 10218497375, "lat": 52.6425632, "lon": 18.2896673, "tags": {"amenity": "pharmacy", "dispensing": "yes", "healthcare": "pharmacy", "name": "Punkt Apteczny \u015aw. Marka", "ref:csioz": "1099252"}}, {"type": "node", "id": 10218574260, "lat": 52.6273189, "lon": 18.1699362, "tags": {"amenity": "pharmacy", "brand": "Dr. Max", "brand:wikidata": "Q56317371", "dispensing": "yes", "healthcare": "pharmacy", "name": "Dr. Max", "ref:csioz": "1100188"}}, {"type": "node", "id": 10218574261, "lat": 52.6279987, "lon": 18.172816, "tags": {"amenity": "pharmacy", "dispensing": "yes", "healthcare": "pharmacy", "name": "Roma\u0144ska", "ref:csioz": "1099793"}}, {"type": "node", "id": 10234431713, "lat": 52.2883819, "lon": 18.2565198, "tags": {"amenity": "pharmacy", "brand": "Dbam o Zdrowie", "brand:wikidata": "Q62563833", "dispensing": "yes", "healthcare": "pharmacy", "name": "Dbam o Zdrowie", "ref:csioz": "1202750", "short_name": "DOZ"}}, {"type": "node", "id": 10234468426, "lat": 52.3168847, "lon": 18.2906455, "tags": {"amenity": "pharmacy", "dispensing": "yes", "healthcare": "pharmacy", "name": "\u0141\u0119\u017cy\u0144ska", "ref:csioz": "1048470"}}]}