{"version": 0.6, "generator": "Overpass API 0.7.62.8 e802775f", "osm3s": {"timestamp_osm_base": "2025-10-06T08:24:06Z", "copyright": "The data included in this document is from www.openstreetmap.org. The data is made available under ODbL."}, "elements": [{"type": "node", "id": 626809321, "lat": 44.3186919, "lon": 23.8087366, "tags": {"addr:city": "Craiova", "addr:country": "RO", "addr:housename": "Bloc A22", "addr:housenumber": "67", "addr:postcode": "200523", "addr:street": "Calea Bucure\u0219ti", "amenity": "pharmacy", "name": "Al Shefa", "opening_hours": "Mo-Fr 08:00-22:00; Sa, Su 08:00-20:00"}}, {"type": "node", "id": 873553657, "lat": 44.316817, "lon": 23.794797, "tags": {"addr:city": "Craiova", "addr:street": "Calea Unirii", "amenity": "pharmacy", "brand": "Dr. Max", "brand:wikidata": "Q56317371", "dispensing": "yes", "healthcare": "pharmacy", "name": "Dr. Max", "operator": "Dr.Max", "website": "https://www.drmax.ro"}}, {"type": "node", "id": 1493485941, "lat": 44.3286887, "lon": 23.815205, "tags": {"addr:city": "Craiova", "addr:housenumber": "5", "addr:street": "Pia\u021ba Constantin Br\u00e2ncu\u0219i", "amenity": "pharmacy", "brand": "Catena", "brand:wikidata": "Q24035728", "brand:wikipedia": "ro:Farmacia Catena", "dispensing": "yes", "healthcare": "pharmacy", "name": "Catena"}}, {"type": "node", "id": 1906766640, "lat": 44.318348, "lon": 23.7981036, "tags": {"amenity": "pharmacy", "healthcare": "pharmacy", "name": "Farmacia Catena"}}, {"type": "node", "id": 1906766694, "lat": 44.318562, "lon": 23.8159061, "tags": {"amenity": "pharmacy"}}, {"type": "node", "id": 2082226261, "lat": 44.3033497, "lon": 23.7960383, "tags": {"amenity": "pharmacy", "brand": "Catena", "brand:wikidata": "Q24035728", "healthcare": "pharmacy", "name": "Catena"}}, {"type": "node", "id": 2302928082, "lat": 44.2448638, "lon": 23.8517337}, {"type": "node", "id": 2302928084, "lat": 44.2448753, "lon": 23.8520072}, {"type": "node", "id": 2302928086, "lat": 44.2447946, "lon": 23.8517873}, {"type": "node", "id": 2302928088, "lat": 44.2449483, "lon": 23.8519616}, {"type": "node", "id": 2506455890, "lat": 44.3062059, "lon": 23.8187316, "tags": {"addr:city": "Craiova", "addr:postcode": "200576", "addr:street": "Strada Ion D. S\u00eerbu", "amenity": "pharmacy", "name": "Farmacia Prima", "operator": "Prima Farm"}}, {"type": "node", "id": 2507711240, "lat": 44.3100194, "lon": 23.8203721, "tags": {"addr:city": "Craiova", "addr:street": "Strada \u00cemp\u0103ratul Traian", "amenity": "pharmacy", "name": "Farmacia Prima", "operator": "Prima Farm"}}, {"type": "node", "id": 2530783073, "lat": 44.3192308, "lon": 23.8073107, "tags": {"addr:city": "Craiova", "addr:country": "RO", "addr:housename": "Bloc 31D", "addr:housenumber": "61", "addr:postcode": "200675", "addr:street": "Calea Bucure\u0219ti", "amenity": "pharmacy", "brand": "Catena", "brand:wikidata": "Q24035728", "healthcare": "pharmacy", "name": "Catena", "phone": "0251415225", "website": "https://www.catena.ro/"}}, {"type": "node", "id": 2591813145, "lat": 44.3189326, "lon": 23.8083913, "tags": {"addr:city": "Craiova", "addr:country": "RO", "addr:housename": "Bloc A24", "addr:housenumber": "63", "addr:postcode": "200523", "addr:street": "Calea Bucure\u0219ti", "amenity": "pharmacy", "brand": "Dr. Max", "name": "Dr. Max", "opening_hours": "Mo-Fr 08:00-20:00; Sa 09:00-14:00; Su off"}}, {"type": "node", "id": 2592806100, "lat": 44.3142733, "lon": 23.8196992, "tags": {"amenity": "pharmacy", "name": "Propharma Med"}}, {"type": "node", "id": 3159550650, "lat": 44.3053584, "lon": 23.8135454, "tags": {"amenity": "pharmacy", "name": "Farmacia nr. 94", "opening_hours": "Mo-Fr 08:00-21:00; Sa 08:00-15:00; Su 08:00-14:00"}}, {"type": "node", "id": 3166981763, "lat": 44.3065472, "lon": 23.7912447, "tags": {"amenity": "pharmacy", "name": "Farmacia Dalina"}}, {"type": "node", "id": 3166981764, "lat": 44.3066357, "lon": 23.7914352, "tags": {"amenity": "pharmacy", "name": "Farmacia Medfarm"}}, {"type": "node", "id": 3166981765, "lat": 44.3068675, "lon": 23.792102, "tags": {"amenity": "pharmacy", "name": "Farmacia Prima"}}, {"type": "node", "id": 3166981766, "lat": 44.3062161, "lon": 23.7907548, "tags": {"amenity": "pharmacy", "name": "Farmacie veterinar\u0103"}}, {"type": "node", "id": 3166981778, "lat": 44.3051549, "lon": 23.8133205, "tags": {"amenity": "pharmacy", "name": "Beneva", "opening_hours": "Mo-Fr 08:00-21:00; Sa,Su 08:00-13:00"}}, {"type": "node", "id": 3177898275, "lat": 44.0942031, "lon": 23.7455755, "tags": {"addr:city": "Segarcea", "amenity": "pharmacy", "name": "Farmacia Anda", "opening_hours": "Mo-Fr 09:00-17:00; Sa 09:00-13:00"}}, {"type": "node", "id": 3179421056, "lat": 44.3067711, "lon": 23.7917167, "tags": {"amenity": "pharmacy", "name": "Farmacia Trei F Spital"}}, {"type": "node", "id": 3217141723, "lat": 44.3100558, "lon": 23.7968841, "tags": {"amenity": "pharmacy", "healthcare": "pharmacy", "name": "Farmacia Felicis", "opening_hours": "Mo-Fr 08:00-20:00; Sa,Su off"}}, {"type": "node", "id": 3217141731, "lat": 44.3084128, "lon": 23.8047321, "tags": {"amenity": "pharmacy", "name": "Prifarm"}}, {"type": "node", "id": 3225105192, "lat": 44.3148828, "lon": 23.79568, "tags": {"amenity": "pharmacy", "name": "Angifarm"}}, {"type": "node", "id": 3225105203, "lat": 44.3237404, "lon": 23.7914233, "tags": {"addr:city": "Craiova", "addr:street": "Bulevardul Nicolae Titulescu", "amenity": "pharmacy", "brand": "Catena", "brand:wikidata": "Q24035728", "healthcare": "pharmacy", "name": "Catena"}}, {"type": "node", "id": 3225105210, "lat": 44.3239801, "lon": 23.7910082, "tags": {"addr:city": "Craiova", "addr:street": "Bulevardul Nicolae Titulescu", "amenity": "pharmacy", "healthcare": "pharmacy", "name": "Cynara"}}, {"type": "node", "id": 3225105215, "lat": 44.3146643, "lon": 23.7955622, "tags": {"amenity": "pharmacy", "name": "Farmaplant"}}, {"type": "node", "id": 3225105245, "lat": 44.3234989, "lon": 23.7917784, "tags": {"addr:city": "Craiova", "addr:housenumber": "10", "addr:street": "Bulevardul Nicolae Titulescu", "amenity": "pharmacy", "brand": "Dr. Max", "brand:wikidata": "Q56317371", "healthcare": "pharmacy", "name": "Dr. Max", "operator": "Dr.Max", "website": "https://www.drmax.ro"}}, {"type": "node", "id": 3225110194, "lat": 44.3144069, "lon": 23.7956444, "tags": {"addr:housenumber": "50", "addr:street": "Calea Unirii", "amenity": "pharmacy", "name": "Montero"}}, {"type": "node", "id": 3225110207, "lat": 44.3231177, "lon": 23.7922033, "tags": {"addr:city": "Craiova", "addr:street": "Bulevardul Nicolae Titulescu", "amenity": "pharmacy"}}, {"type": "node", "id": 3227962961, "lat": 44.3201584, "lon": 23.8012017, "tags": {"addr:city": "Craiova", "addr:country": "RO", "addr:housename": "Bloc 17B", "addr:housenumber": "27", "addr:postcode": "200678", "addr:street": "Calea Bucure\u0219ti", "amenity": "pharmacy", "check_date": "2023-10-15", "name": "Farmacia Trei F", "opening_hours": "24/7", "phone": "0251411787"}}, {"type": "node", "id": 3227962962, "lat": 44.3257762, "lon": 23.7882662, "tags": {"addr:city": "Craiova", "addr:housenumber": "35", "addr:street": "Bulevardul Nicolae Titulescu", "amenity": "pharmacy", "healthcare": "pharmacy", "name": "Farmacia Trei F Titulescu"}}, {"type": "node", "id": 3227962964, "lat": 44.3244893, "lon": 23.7909844, "tags": {"addr:city": "Craiova", "addr:street": "Bulevardul Nicolae Titulescu", "amenity": "pharmacy", "healthcare": "pharmacy", "name": "LifePlus"}}, {"type": "node", "id": 3228663247, "lat": 44.3186258, "lon": 23.7977788, "tags": {"amenity": "pharmacy", "name": "Anacora"}}, {"type": "node", "id": 3228663253, "lat": 44.3184125, "lon": 23.7999915, "tags": {"addr:city": "Craiova", "addr:housenumber": "12", "addr:street": "Strada Alexandru Ioan Cuza", "amenity": "pharmacy", "healthcare": "pharmacy", "name": "Farmacia Re\u021beta"}}, {"type": "node", "id": 3228663269, "lat": 44.3183713, "lon": 23.7978465, "tags": {"amenity": "pharmacy", "brand": "Dr. Max", "brand:wikidata": "Q56317371", "healthcare": "pharmacy", "name": "Dr. Max", "operator": "Dr.Max", "website": "https://www.drmax.ro"}}, {"type": "node", "id": 3229749661, "lat": 44.3209457, "lon": 23.7971463, "tags": {"addr:city": "Craiova", "addr:housenumber": "5", "addr:street": "Calea Bucure\u0219ti", "amenity": "pharmacy", "healthcare": "pharmacy", "name": "Farmacia Olfarm"}}, {"type": "node", "id": 3229749662, "lat": 44.3329407, "lon": 23.7814205, "tags": {"addr:city": "Craiova", "addr:street": "Strada George Enescu", "amenity": "pharmacy", "healthcare": "pharmacy", "name": "Farmacia Prima"}}, {"type": "node", "id": 3229749726, "lat": 44.3261802, "lon": 23.7874186, "tags": {"addr:city": "Craiova", "addr:housenumber": "35", "addr:street": "Bulevardul Nicolae Titulescu", "amenity": "pharmacy", "brand": "Catena", "brand:wikidata": "Q24035728", "healthcare": "pharmacy", "name": "Catena"}}, {"type": "node", "id": 3243467272, "lat": 44.3099594, "lon": 23.8218513, "tags": {"amenity": "pharmacy", "name": "Farmacia Hygea"}}, {"type": "node", "id": 3243467273, "lat": 44.3253381, "lon": 23.7780069, "tags": {"addr:city": "Craiova", "addr:street": "Strada Maria T\u0103nase", "amenity": "pharmacy", "name": "Farmacia Hygea"}}, {"type": "node", "id": 3243467275, "lat": 44.3097438, "lon": 23.8211586, "tags": {"addr:city": "Craiova", "addr:place": "bl. P2-3", "addr:postcode": "200745", "addr:street": "Strada Caracal", "amenity": "pharmacy", "name": "Farmacia Trei F"}}, {"type": "node", "id": 3244663971, "lat": 44.3263664, "lon": 23.7852138, "tags": {"addr:city": "Craiova", "addr:housenumber": "35", "addr:street": "Bulevardul Nicolae Titulescu", "amenity": "pharmacy", "healthcare": "pharmacy", "name": "Farmacia Hygea"}}, {"type": "node", "id": 3244663985, "lat": 44.314519, "lon": 23.8309876, "tags": {"addr:city": "Craiova", "addr:country": "RO", "addr:housename": "Bloc N4", "addr:housenumber": "133", "addr:postcode": "200617", "addr:street": "Calea Bucure\u0219ti", "amenity": "pharmacy", "name": "Pharma Plus", "opening_hours": "Mo-Su 07:00-22:00"}}, {"type": "node", "id": 3248497770, "lat": 44.311881, "lon": 23.7894604, "tags": {"addr:city": "Craiova", "addr:street": "Bulevardul 1 Mai", "amenity": "pharmacy", "healthcare": "pharmacy", "name": "Pharma Plus"}}, {"type": "node", "id": 3252797045, "lat": 44.322778, "lon": 23.821298, "tags": {"amenity": "pharmacy", "name": "Farmacia Dona"}}, {"type": "node", "id": 3252797046, "lat": 44.324753, "lon": 23.8064694, "tags": {"amenity": "pharmacy", "name": "Farmacia Petryfarm"}}, {"type": "node", "id": 3253648694, "lat": 44.3021342, "lon": 23.798545, "tags": {"amenity": "pharmacy", "name": "Farmacia Nigela Parc"}}, {"type": "node", "id": 3253648695, "lat": 44.3019538, "lon": 23.798608, "tags": {"amenity": "pharmacy", "name": "Farmacia Olfarm"}}, {"type": "node", "id": 3253650406, "lat": 44.3075228, "lon": 23.7971646, "tags": {"addr:city": "Craiova", "addr:street": "Calea Unirii", "amenity": "pharmacy", "healthcare": "pharmacy", "name": "Olfarm"}}, {"type": "node", "id": 3293300031, "lat": 44.3168891, "lon": 23.815002, "tags": {"amenity": "pharmacy", "healthcare": "pharmacy", "name": "Farmacia AN-RA"}}, {"type": "node", "id": 3293300038, "lat": 44.3158059, "lon": 23.8204554, "tags": {"amenity": "pharmacy", "name": "Pharma Plus"}}, {"type": "node", "id": 3293300044, "lat": 44.3172636, "lon": 23.8130235, "tags": {"amenity": "pharmacy", "name": "Siti Pharma"}}, {"type": "node", "id": 3293308066, "lat": 44.3145475, "lon": 23.8263704, "tags": {"addr:city": "Craiova", "addr:street": "Calea Bucure\u0219ti", "amenity": "pharmacy", "healthcare": "pharmacy"}}, {"type": "node", "id": 3323207816, "lat": 44.3172286, "lon": 23.8090301, "tags": {"addr:city": "Craiova", "addr:street": "Strada Alexandru Ioan Cuza", "amenity": "pharmacy", "healthcare": "pharmacy", "name": "Alifarm"}}, {"type": "node", "id": 3323207823, "lat": 44.3200881, "lon": 23.817671, "tags": {"amenity": "pharmacy", "name": "Farmacia verde"}}, {"type": "node", "id": 3334259295, "lat": 44.3190474, "lon": 23.821686, "tags": {"addr:city": "Craiova", "addr:country": "RO", "addr:housenumber": "17", "addr:postcode": "200480", "addr:street": "Strada Petre Ispirescu", "amenity": "pharmacy", "brand": "Catena", "brand:wikidata": "Q24035728", "healthcare": "pharmacy", "name": "Catena"}}, {"type": "node", "id": 3334259309, "lat": 44.3180451, "lon": 23.8120701, "tags": {"addr:city": "Craiova", "addr:country": "RO", "addr:housename": "Bloc A13", "addr:housenumber": "85", "addr:postcode": "200473", "addr:street": "Calea Bucure\u0219ti", "amenity": "pharmacy", "name": "Farmacia Gaby's Farm", "phone": "0745612557"}}, {"type": "node", "id": 3334259310, "lat": 44.3195629, "lon": 23.804334, "tags": {"addr:city": "Craiova", "addr:country": "RO", "addr:housename": "Bloc 23A", "addr:housenumber": "7", "addr:postcode": "200676", "addr:street": "Strada Nicolae B\u0103lcescu", "amenity": "pharmacy", "healthcare": "pharmacy", "name": "Farmacia Hepites", "phone": "0351405659"}}, {"type": "node", "id": 3334259312, "lat": 44.3193163, "lon": 23.8074821, "tags": {"addr:city": "Craiova", "addr:country": "RO", "addr:housename": "Bloc 31D", "addr:housenumber": "61", "addr:postcode": "200675", "addr:street": "Calea Bucure\u0219ti", "amenity": "pharmacy", "brand": "Help Net", "brand:wikidata": "Q12729923", "healthcare": "pharmacy", "name": "Help Net"}}, {"type": "node", "id": 3334259314, "lat": 44.3196471, "lon": 23.8034607, "tags": {"addr:city": "Craiova", "addr:country": "RO", "addr:housename": "Bloc 21D", "addr:housenumber": "35", "addr:postcode": "200677", "addr:street": "Calea Bucure\u0219ti", "amenity": "pharmacy", "name": "Mundofarm", "opening_hours": "24/7"}}, {"type": "node", "id": 3334259316, "lat": 44.3175187, "lon": 23.8146908, "tags": {"addr:city": "Craiova", "addr:country": "RO", "addr:housename": "Bloc A11", "addr:housenumber": "95", "addr:postcode": "200473", "addr:street": "Calea Bucure\u0219ti", "amenity": "pharmacy", "name": "Farmacia Trei F Rotonda", "opening_hours": "Mo-Su 08:00-22:00", "phone": "0251448499"}}, {"type": "node", "id": 3334259334, "lat": 44.3165039, "lon": 23.8199169, "tags": {"addr:city": "Craiova", "addr:country": "RO", "addr:housename": "Bloc A1", "addr:housenumber": "105", "addr:postcode": "200477", "addr:street": "Calea Bucure\u0219ti", "amenity": "pharmacy", "name": "Catena"}}, {"type": "node", "id": 3334259335, "lat": 44.3180685, "lon": 23.8211871, "tags": {"amenity": "pharmacy", "name": "Petryfarm"}}, {"type": "node", "id": 3334259338, "lat": 44.3193878, "lon": 23.8216986, "tags": {"amenity": "pharmacy", "name": "Plafar"}}, {"type": "node", "id": 3334259339, "lat": 44.3195515, "lon": 23.8215551, "tags": {"addr:city": "Craiova", "addr:country": "RO", "addr:housenumber": "10", "addr:postcode": "200480", "addr:street": "Strada Petre Ispirescu", "amenity": "pharmacy", "healthcare": "pharmacy", "name": "Plafar"}}, {"type": "node", "id": 3334259529, "lat": 44.3202672, "lon": 23.8190268, "tags": {"amenity": "pharmacy"}}, {"type": "node", "id": 3334355637, "lat": 44.3194724, "lon": 23.8075143, "tags": {"amenity": "pharmacy", "name": "Farmacia Dona"}}, {"type": "node", "id": 3334355638, "lat": 44.3192264, "lon": 23.8089202, "tags": {"amenity": "pharmacy", "name": "Farmacia Hipocrat"}}, {"type": "node", "id": 3336744767, "lat": 44.3208689, "lon": 23.7945888, "tags": {"amenity": "pharmacy", "brand": "Dr. Max", "brand:wikidata": "Q56317371", "healthcare": "pharmacy", "name": "Dr. Max", "operator": "Dr.Max", "website": "https://www.drmax.ro"}}, {"type": "node", "id": 3336744777, "lat": 44.3185797, "lon": 23.8063754, "tags": {"amenity": "pharmacy"}}, {"type": "node", "id": 3360142439, "lat": 44.320591, "lon": 23.8218827, "tags": {"amenity": "pharmacy", "name": "Farmacia Gebafarm Rovine"}}, {"type": "node", "id": 3360142445, "lat": 44.3201141, "lon": 23.8222172, "tags": {"amenity": "pharmacy", "name": "Plafar"}}, {"type": "node", "id": 3423250859, "lat": 44.3366121, "lon": 23.777431, "tags": {"addr:city": "Craiova", "addr:street": "Strada George Enescu", "amenity": "pharmacy", "healthcare": "pharmacy", "name": "Farmacia Anedio"}}, {"type": "node", "id": 3423250860, "lat": 44.3364636, "lon": 23.7776101, "tags": {"addr:city": "Craiova", "addr:street": "Strada George Enescu", "amenity": "pharmacy", "healthcare": "pharmacy", "name": "Farmacia Catena"}}, {"type": "node", "id": 3423253942, "lat": 44.3362842, "lon": 23.7777981, "tags": {"addr:city": "Craiova", "addr:street": "Strada George Enescu", "amenity": "pharmacy", "healthcare": "pharmacy"}}, {"type": "node", "id": 3821605403, "lat": 44.3237659, "lon": 23.7925166, "tags": {"addr:city": "Craiova", "amenity": "pharmacy", "brand": "Farmacia Dona", "brand:wikidata": "Q12726919", "healthcare": "pharmacy", "name": "Farmacia Dona"}}, {"type": "node", "id": 3822715361, "lat": 44.3292924, "lon": 23.8038203, "tags": {"addr:city": "Craiova", "amenity": "pharmacy", "name": "Farmacia Dona"}}, {"type": "node", "id": 3822715362, "lat": 44.3299585, "lon": 23.8045597, "tags": {"amenity": "pharmacy", "name": "Farmacia Olfarm"}}, {"type": "node", "id": 3822715363, "lat": 44.329363, "lon": 23.8040206, "tags": {"addr:city": "Craiova", "amenity": "pharmacy", "name": "Farmacia Petryfarm"}}, {"type": "node", "id": 3822715364, "lat": 44.3277939, "lon": 23.8151382, "tags": {"addr:city": "Craiova", "addr:street": "Bulevardul Dacia", "amenity": "pharmacy", "healthcare": "pharmacy", "name": "Farmacia Catena", "opening_hours": "08:00-24:00"}}, {"type": "node", "id": 3822715365, "lat": 44.3301263, "lon": 23.8049887, "tags": {"amenity": "pharmacy", "name": "Farmacia Provita"}}, {"type": "node", "id": 3822715366, "lat": 44.3278189, "lon": 23.815265, "tags": {"addr:city": "Craiova", "amenity": "pharmacy", "brand": "Dr. Max", "brand:wikidata": "Q12740640", "brand:wikipedia": "ro:Sensiblu", "dispensing": "yes", "healthcare": "pharmacy", "name": "Dr. Max"}}, {"type": "node", "id": 4028841529, "lat": 44.320988, "lon": 23.8089713, "tags": {"addr:city": "Craiova", "addr:country": "RO", "addr:housenumber": "58", "addr:postcode": "200463", "addr:street": "Strada Vasile Alecsandri", "amenity": "pharmacy", "name": "Farmacia Izvorul T\u0103m\u0103duirii"}}, {"type": "node", "id": 4270007555, "lat": 44.3024164, "lon": 23.820187, "tags": {"addr:city": "Craiova", "addr:country": "RO", "addr:housenumber": "95", "addr:postcode": "200553", "addr:street": "Strada Caracal", "amenity": "pharmacy", "brand": "Farmacia Dona", "brand:wikidata": "Q12726919", "healthcare": "pharmacy", "name": "Farmacia Dona", "opening_hours": "Mo-Fr 08:00-21:00; Sa 08:00-16:00; Su 08:00-14:00", "phone": "0372401283", "website": "http://farmaciiledona.ro/"}}, {"type": "node", "id": 4565578337, "lat": 44.3126076, "lon": 23.8270883, "tags": {"addr:city": "Craiova", "addr:country": "RO", "addr:housenumber": "72", "addr:postcode": "200446", "addr:street": "Calea Bucure\u0219ti", "amenity": "pharmacy", "email": "craiova.kaufland@internity.ro", "fax": "+40761101104", "name": "Farmacia Dr. Max", "opening_hours": "Mo-Fr 09:00-21:00; Su 09:00-19:00; Sa 09:00-20:00", "website": "https://www.drmax.ro"}}, {"type": "node", "id": 4837214651, "lat": 44.0987822, "lon": 23.744372, "tags": {"amenity": "pharmacy", "name": "Farmacia Al Shefa"}}, {"type": "node", "id": 4908064285, "lat": 44.024977, "lon": 23.347739, "tags": {"amenity": "pharmacy", "name": "Sigmathfarm"}}, {"type": "node", "id": 4908064810, "lat": 44.1432088, "lon": 23.4894535, "tags": {"amenity": "pharmacy", "name": "MDM Farm"}}, {"type": "node", "id": 6023287094, "lat": 44.3281135, "lon": 23.7750712, "tags": {"addr:city": "Craiova", "addr:country": "RO", "addr:housenumber": "5A", "addr:postcode": "200233", "addr:street": "Calea Severinului", "amenity": "pharmacy", "healthcare": "pharmacy"}}, {"type": "node", "id": 6023287120, "lat": 44.3277036, "lon": 23.7745465, "tags": {"addr:city": "Craiova", "addr:country": "RO", "addr:housenumber": "5A", "addr:postcode": "200233", "addr:street": "Calea Severinului", "amenity": "pharmacy", "brand": "Dr. Max", "brand:wikidata": "Q56317371", "healthcare": "pharmacy", "name": "Dr. Max", "operator": "Dr.Max", "website": "https://www.drmax.ro"}}, {"type": "node", "id": 8325562443, "lat": 44.3190824, "lon": 23.8068889, "tags": {"addr:city": "Craiova", "addr:country": "RO", "addr:housename": "Bloc 31B", "addr:housenumber": "57", "addr:postcode": "200675", "addr:street": "Calea Bucure\u0219ti", "amenity": "pharmacy", "brand": "Dr. Max", "brand:wikidata": "Q56317371", "healthcare": "pharmacy", "name": "Dr. Max"}}, {"type": "node", "id": 8587189838, "lat": 44.312057, "lon": 23.8320398, "tags": {"brand": "Dr. Max", "name": "Dr. Max"}}, {"type": "node", "id": 8587189839, "lat": 44.3120832, "lon": 23.8318831, "tags": {"brand": "Dr. Max", "name": "Dr. Max"}}, {"type": "node", "id": 8587200418, "lat": 44.3125338, "lon": 23.8334633}, {"type": "node", "id": 8587200435, "lat": 44.3124687, "lon": 23.833377}, {"type": "node", "id": 8587200449, "lat": 44.3121871, "lon": 23.8319171, "tags": {"brand": "Dr. Max", "name": "Dr. Max"}}, {"type": "node", "id": 8587200450, "lat": 44.3124596, "lon": 23.8334417}, {"type": "node", "id": 8587200490, "lat": 44.3125442, "lon": 23.8334005}, {"type": "node", "id": 8589959647, "lat": 44.3119996, "lon": 23.8332392}, {"type": "node", "id": 8589959648, "lat": 44.3118948, "lon": 23.8332118}, {"type": "node", "id": 8589959649, "lat": 44.3119047, "lon": 23.8331358}, {"type": "node", "id": 8589959650, "lat": 44.3120102, "lon": 23.8331634}, {"type": "node", "id": 8589959663, "lat": 44.3121608, "lon": 23.8320738, "tags": {"brand": "Dr. Max", "name": "Dr. Max"}}, {"type": "node", "id": 10235406629, "lat": 44.3212566, "lon": 23.8259634, "tags": {"addr:city": "Craiova", "addr:housenumber": "13", "addr:street": "Strada Traian Lalescu", "amenity": "pharmacy", "name": "Vechea Farmacie"}}, {"type": "node", "id": 11093278018, "lat": 43.922916, "lon": 23.6166207, "tags": {"amenity": "pharmacy", "healthcare": "pharmacy", "name": "Farmacia Xantipa", "wheelchair": "no"}}, {"type": "node", "id": 11093278153, "lat": 43.9379743, "lon": 23.6110963, "tags": {"amenity": "pharmacy", "dispensing": "yes", "healthcare": "pharmacy", "name": "Farmacia Xantipa", "opening_hours": "Mo-Fr 08:00-16:00; Sa-Su 08:00-13:00"}}, {"type": "node", "id": 11093278186, "lat": 43.9347528, "lon": 23.6130663, "tags": {"amenity": "pharmacy", "healthcare": "pharmacy", "name": "Farmacia Xantipa"}}, {"type": "node", "id": 11099601883, "lat": 44.2911915, "lon": 23.8490345, "tags": {"addr:city": "C\u00e2rcea", "addr:housenumber": "3", "addr:street": "Strada Henry Ford", "amenity": "pharmacy", "name": "Roxifarm", "opening_hours": "Mo-Fr 08:00-21:00; Sa 09:00-18:00; Su 09:00-14:00", "phone": "+40351444800"}}, {"type": "node", "id": 11231032180, "lat": 44.3301666, "lon": 23.7709987, "tags": {"amenity": "pharmacy", "brand": "Catena", "brand:wikidata": "Q24035728", "healthcare": "pharmacy", "name": "Catena"}}, {"type": "node", "id": 11260230309, "lat": 44.3010861, "lon": 23.8209226, "tags": {"amenity": "pharmacy", "brand": "Dr. Max", "brand:wikidata": "Q56317371", "healthcare": "pharmacy", "name": "Dr. Max", "opening_hours": "Mo-Fr 09:00-21:00; Sa, Su 09:00-20:00"}}, {"type": "node", "id": 11293063248, "lat": 44.318312, "lon": 23.8155949, "tags": {"amenity": "pharmacy", "name": "Heliconia"}}, {"type": "node", "id": 12105970272, "lat": 44.2470517, "lon": 23.7800878, "tags": {"addr:city": "Podari", "addr:housenumber": "11t", "addr:postcode": "207465", "addr:street": "Strada Dun\u0103rii", "amenity": "pharmacy", "healthcare": "pharmacy", "name": "Farmacia Lavanda"}}, {"type": "node", "id": 12105970283, "lat": 44.250684, "lon": 23.7797311, "tags": {"addr:city": "Podari", "addr:housenumber": "67", "addr:street": "Strada Dun\u0103rii", "amenity": "pharmacy", "healthcare": "pharmacy", "name": "Mara farm"}}, {"type": "node", "id": 12128972670, "lat": 44.3059565, "lon": 23.7942389, "tags": {"amenity": "pharmacy", "healthcare": "pharmacy", "name": "Pharma Plus", "opening_hours": "24/7"}}, {"type": "node", "id": 12128972676, "lat": 44.3068186, "lon": 23.79346, "tags": {"amenity": "pharmacy", "brand": "Catena", "dispensing": "yes", "healthcare": "pharmacy", "name": "Catena", "opening_hours": "Mo-Fr 07:00-21:00; Sa 08:00-15:00; PH closed; Su 08:00-14:00"}}, {"type": "node", "id": 12132338215, "lat": 44.3072112, "lon": 23.7928951, "tags": {"amenity": "pharmacy", "brand": "Catena", "dispensing": "yes", "healthcare": "pharmacy", "name": "Catena"}}, {"type": "node", "id": 12132338216, "lat": 44.3267461, "lon": 23.7790528, "tags": {"amenity": "pharmacy", "brand": "Catena", "healthcare": "pharmacy", "name": "Catena"}}, {"type": "node", "id": 12188977266, "lat": 44.0652084, "lon": 23.6733637, "tags": {"amenity": "pharmacy", "healthcare": "pharmacy", "name": "Farmacia Anda"}}, {"type": "node", "id": 12202527912, "lat": 44.081494, "lon": 23.4480532, "tags": {"amenity": "pharmacy", "healthcare": "pharmacy", "name": "Farmacia"}}, {"type": "node", "id": 12217737297, "lat": 44.3001585, "lon": 23.8277961, "tags": {"addr:housenumber": "107", "amenity": "pharmacy", "drive_through": "no", "healthcare": "pharmacy", "name": "Farmacia Trei F"}}, {"type": "node", "id": 12217737298, "lat": 44.3001117, "lon": 23.8280094, "tags": {"addr:housenumber": "107", "amenity": "pharmacy", "drive_through": "no", "healthcare": "pharmacy", "name": "Farmacia Pharma Plus", "opening_hours": "Mo-Fr 08:00-22:00", "operator": "Farmacia Pharma Plus", "phone": "+40744474385", "website": "http://www.pharmaplus.ro/"}}, {"type": "node", "id": 12317923644, "lat": 44.3085561, "lon": 23.793008, "tags": {"addr:city": "Craiova", "addr:housenumber": "31", "addr:street": "Bulevardul 1 Mai", "amenity": "pharmacy", "dispensing": "yes", "healthcare": "pharmacy", "name": "Farmacia Salvia", "opening_hours": "Mo-Fr 08:00-21:00; Sa 09:00-18:00; PH closed"}}, {"type": "node", "id": 12750728791, "lat": 44.3378113, "lon": 23.7823714, "tags": {"amenity": "pharmacy", "brand": "Catena", "brand:wikidata": "Q24035728", "healthcare": "pharmacy", "name": "Catena"}}, {"type": "node", "id": 12750728792, "lat": 44.3384125, "lon": 23.7825625, "tags": {"amenity": "pharmacy", "brand": "Catena", "brand:wikidata": "Q24035728", "healthcare": "pharmacy", "name": "Catena"}}, {"type": "way", "id": 221246380, "nodes": [2302928082, 2302928086, 2302928084, 2302928088, 2302928082], "tags": {"amenity": "pharmacy"}}, {"type": "way", "id": 925587812, "nodes": [8587200450, 8587200418, 8587200490, 8587200435, 8587200450], "tags": {"amenity": "pharmacy", "name": "Gerovital", "wheelchair": "yes"}}, {"type": "way", "id": 925587833, "nodes": [8589959647, 8589959650, 8589959649, 8589959648, 8589959647], "tags": {"amenity": "pharmacy", "brand": "Help Net", "brand:wikidata": "Q12729923", "dispensing": "yes", "healthcare": "pharmacy", "indoor": "room", "level": "0", "name": "Help Net"}}, {"type": "way", "id": 925587840, "nodes": [8589959663, 8587200449, 8587189839, 8587189838, 8589959663], "tags": {"amenity": "pharmacy", "brand": "Dr. Max", "brand:wikidata": "Q56317371", "healthcare": "pharmacy", "indoor": "room", "level": "0", "name": "Dr. Max", "wheelchair": "yes"}}]}