{"version": 0.6, "generator": "Overpass API 0.7.62.8 e802775f", "osm3s": {"timestamp_osm_base": "2025-10-06T08:30:13Z", "copyright": "The data included in this document is from www.openstreetmap.org. The data is made available under ODbL."}, "elements": [{"type": "node", "id": 611856601, "lat": 53.717439, "lon": 19.3362726, "tags": {"addr:city": "Susz", "addr:housenumber": "21", "addr:street": "S\u0142owia\u0144ska", "amenity": "pharmacy", "dispensing": "yes", "name": "Hubertus", "ref:csioz": "1041092"}}, {"type": "node", "id": 3152285105, "lat": 53.6356215, "lon": 19.4574693}, {"type": "node", "id": 3152285110, "lat": 53.635641, "lon": 19.4576508}, {"type": "node", "id": 3218457488, "lat": 53.8455813, "lon": 19.6059311, "tags": {"addr:city": "Zalewo", "addr:housenumber": "13", "addr:street": "Cz\u0119stochowska", "amenity": "pharmacy", "dispensing": "yes", "name": "B\u0142\u0119kitna", "ref:csioz": "1041130"}}, {"type": "node", "id": 3436701616, "lat": 53.6357028, "lon": 19.4574445}, {"type": "node", "id": 3436701617, "lat": 53.6357209, "lon": 19.4576264}, {"type": "node", "id": 3602178495, "lat": 53.7565161, "lon": 19.2045872, "tags": {"addr:city": "Prabuty", "addr:housenumber": "1A", "addr:postcode": "82-550", "addr:street": "Ignacego Daszy\u0144skiego", "amenity": "pharmacy", "healthcare": "pharmacy", "name": "Jab\u0142o\u0144skich", "opening_hours": "Mo-Fr 08:00-18:00,Sa 08:00-13:00", "ref:csioz": "1029092", "start_date": "2000-10-09"}}, {"type": "node", "id": 5803853387, "lat": 53.7549117, "lon": 19.2029055, "tags": {"addr:city": "Prabuty", "addr:housenumber": "27", "addr:postcode": "82-550", "addr:street": "\u0141\u0105kowa", "amenity": "pharmacy", "dispensing": "yes", "healthcare": "pharmacy", "name": "Wracam Do Zdrowia", "ref:csioz": "1032174", "start_date": "2009-01-28"}}, {"type": "node", "id": 8192459553, "lat": 53.5896464, "lon": 19.5672474, "tags": {"addr:city": "I\u0142awa", "addr:housenumber": "3", "addr:postcode": "14-200", "addr:street": "Miko\u0142aja Kopernika", "amenity": "pharmacy", "dispensing": "yes", "name": "Nova", "opening_hours": "24/7", "phone": "+48 89 6488381", "ref:csioz": "1220217"}}, {"type": "node", "id": 8522542820, "lat": 53.5861007, "lon": 19.5676294, "tags": {"addr:city": "I\u0142awa", "addr:housenumber": "3", "addr:postcode": "14-200", "addr:street": "Genera\u0142a W\u0142adys\u0142awa Andersa", "amenity": "pharmacy", "dispensing": "yes", "ref:csioz": "1187892"}}, {"type": "node", "id": 9179275778, "lat": 53.9094958, "lon": 19.5033052, "tags": {"addr:housenumber": "5", "addr:place": "My\u015blice", "addr:postcode": "82-450", "amenity": "pharmacy", "dispensing": "yes", "healthcare": "pharmacy", "name": "Punkt Apteczny Arnika", "ref:csioz": "1033729", "start_date": "2004-03-18"}}, {"type": "node", "id": 9183909660, "lat": 53.8509459, "lon": 19.1638065, "tags": {"addr:city": "Miko\u0142ajki Pomorskie", "addr:housenumber": "4", "addr:postcode": "82-433", "addr:street": "Dworcowa", "amenity": "pharmacy", "dispensing": "yes", "healthcare": "pharmacy", "name": "Pomorska", "ref:csioz": "1028802", "start_date": "1999-12-02"}}, {"type": "node", "id": 9184495709, "lat": 53.7551432, "lon": 19.2026284, "tags": {"addr:city": "Prabuty", "addr:housenumber": "33", "addr:postcode": "82-550", "addr:street": "\u0141\u0105kowa", "amenity": "pharmacy", "dispensing": "yes", "healthcare": "pharmacy", "name": "Mandragora", "ref:csioz": "1030715", "start_date": "2005-06-19"}}, {"type": "node", "id": 9592762186, "lat": 53.6066489, "lon": 19.5898148, "tags": {"amenity": "pharmacy", "dispensing": "yes", "ref:csioz": "1228527"}}, {"type": "node", "id": 9592762187, "lat": 53.5883146, "lon": 19.5662578, "tags": {"addr:city": "I\u0142awa", "addr:housenumber": "45", "addr:street": "Jana III Sobieskiego", "amenity": "pharmacy", "dispensing": "yes", "name": "Gemini", "ref:csioz": "1212874"}}, {"type": "node", "id": 9592762188, "lat": 53.5894194, "lon": 19.5657897, "tags": {"addr:city": "I\u0142awa", "addr:housenumber": "5A", "addr:street": "Miko\u0142aja Kopernika", "amenity": "pharmacy", "dispensing": "yes", "name": "Spo\u0142eczna", "operator": "Grupa Nowa Farmacja", "ref:csioz": "1211800"}}, {"type": "node", "id": 9592762189, "lat": 53.5997286, "lon": 19.5740499, "tags": {"addr:city": "I\u0142awa", "addr:housenumber": "14", "addr:street": "Aleja Jana Paw\u0142a II", "amenity": "pharmacy", "brand": "Dbam o Zdrowie", "brand:wikidata": "Q62563833", "dispensing": "yes", "healthcare": "pharmacy", "name": "Dbam o Zdrowie", "ref:csioz": "1197973"}}, {"type": "node", "id": 9592762190, "lat": 53.5954582, "lon": 19.5650046, "tags": {"addr:city": "I\u0142awa", "addr:housenumber": "6", "addr:street": "Kr\u00f3lowej Jadwigi", "amenity": "pharmacy", "brand": "Dbam o Zdrowie", "brand:wikidata": "Q62563833", "dispensing": "yes", "healthcare": "pharmacy", "name": "Dbam o Zdrowie", "ref:csioz": "1184407", "short_name": "DOZ"}}, {"type": "node", "id": 9592762191, "lat": 53.7132489, "lon": 19.3355934, "tags": {"addr:city": "Susz", "addr:housenumber": "2", "addr:street": "Pla\u017cowa", "amenity": "pharmacy", "dispensing": "yes", "name": "Dla Ciebie", "ref:csioz": "1120239"}}, {"type": "node", "id": 9592762192, "lat": 53.7184836, "lon": 19.3390209, "tags": {"addr:city": "Susz", "addr:housenumber": "6", "addr:street": "Stare Miasto", "amenity": "pharmacy", "dispensing": "yes", "name": "Staromiejska", "ref:csioz": "1115162"}}, {"type": "node", "id": 9592762193, "lat": 53.845976, "lon": 19.6003722, "tags": {"addr:city": "Zalewo", "addr:housenumber": "18A", "addr:street": "29 Stycznia", "amenity": "pharmacy", "dispensing": "yes", "name": "Arnika", "ref:csioz": "1041125"}}, {"type": "node", "id": 9592762196, "lat": 53.6096634, "lon": 19.2626511, "tags": {"addr:city": "Kisielice", "addr:housenumber": "34", "addr:street": "Henryka Sienkiewicza", "amenity": "pharmacy", "dispensing": "yes", "name": "Witaminka", "ref:csioz": "1040594"}}, {"type": "node", "id": 9592762197, "lat": 53.5983187, "lon": 19.5590547, "tags": {"addr:city": "I\u0142awa", "addr:housenumber": "14", "addr:street": "Niepodleg\u0142o\u015bci", "amenity": "pharmacy", "dispensing": "yes", "healthcare": "pharmacy", "name": "Staromiejska", "opening_hours": "Mo-Fr 08:00-20:00; Sa 08:00-14:00", "phone": "+48 89 648 56 22", "ref:csioz": "1040560"}}, {"type": "node", "id": 9592762198, "lat": 53.585157, "lon": 19.5608778, "tags": {"addr:city": "I\u0142awa", "addr:housenumber": "24A", "addr:street": "Marii Sk\u0142odowskiej-Curie", "amenity": "pharmacy", "brand": "Dbam o Zdrowie", "brand:wikidata": "Q62563833", "dispensing": "yes", "healthcare": "pharmacy", "name": "Mandragora", "ref:csioz": "1040505"}}, {"type": "node", "id": 9592762199, "lat": 53.6046758, "lon": 19.5672011, "tags": {"addr:city": "I\u0142awa", "addr:housenumber": "46B", "addr:street": "Jaros\u0142awa D\u0105browskiego", "amenity": "pharmacy", "dispensing": "yes", "name": "Lipowy Dw\u00f3r", "opening_hours": "Mo-Fr 08:00-20:00; Sa 09:00-14:00; Su off", "phone": "+48896420154", "ref:csioz": "1040496"}}, {"type": "node", "id": 9592762200, "lat": 53.5951584, "lon": 19.568436, "tags": {"addr:city": "I\u0142awa", "addr:housenumber": "1", "addr:street": "Grunwaldzka", "amenity": "pharmacy", "dispensing": "yes", "name": "Eskulap", "ref:csioz": "1040482"}}, {"type": "node", "id": 9592762201, "lat": 53.5834255, "lon": 19.5621716, "tags": {"addr:city": "I\u0142awa", "addr:housenumber": "25C", "addr:street": "Marii Sk\u0142odowskiej-Curie", "amenity": "pharmacy", "dispensing": "yes", "name": "Dla Ciebie", "opening_hours": "Mo-Fr 08:00-18:00", "phone": "+48 89 6492404", "ref:csioz": "1040474"}}, {"type": "node", "id": 9592762202, "lat": 53.5887711, "lon": 19.572934, "tags": {"addr:city": "I\u0142awa", "addr:housenumber": "33", "addr:street": "Kardyna\u0142a Stefana Wyszy\u0144skiego", "amenity": "pharmacy", "brand": "Dbam o Zdrowie", "brand:wikidata": "Q62563833", "dispensing": "yes", "healthcare": "pharmacy", "name": "Dbam o Zdrowie", "ref:csioz": "1040463"}}, {"type": "node", "id": 9592886589, "lat": 53.6079587, "lon": 19.2583778, "tags": {"amenity": "pharmacy", "brand": "Dbam o Zdrowie", "brand:wikidata": "Q62563833", "dispensing": "yes", "healthcare": "pharmacy", "name": "Na Rozdro\u017cu", "ref:csioz": "1040583"}}, {"type": "node", "id": 9592886590, "lat": 53.5854002, "lon": 19.5564384, "tags": {"addr:city": "I\u0142awa", "addr:housenumber": "5", "addr:postcode": "14-200", "addr:street": "Wiejska", "amenity": "pharmacy", "dispensing": "yes", "fixme": "Lokalizacja do weryfikacji", "name": "Nova", "ref:csioz": "1231000"}}, {"type": "node", "id": 9598250277, "lat": 53.500929, "lon": 19.3926356, "tags": {"addr:housenumber": "41A", "addr:place": "Krotoszyny", "amenity": "pharmacy", "dispensing": "yes", "name": "Punkt Apteczny", "ref:csioz": "1115242"}}, {"type": "node", "id": 9598250278, "lat": 53.5008913, "lon": 19.3513266, "tags": {"addr:city": "Biskupiec", "addr:housenumber": "1", "addr:street": "Rynek", "amenity": "pharmacy", "dispensing": "yes", "name": "Pod Lipami", "opening_hours": "Mo-Fr 08:00-18:00", "operator": "DobekHD", "payment:credit_cards": "yes", "payment:maestro": "yes", "payment:mastercard": "yes", "payment:telephone_cards": "yes", "payment:visa": "yes", "phone": "732777737", "ref:csioz": "1040316"}}, {"type": "node", "id": 9598250279, "lat": 53.4452635, "lon": 19.3522282, "tags": {"addr:housenumber": "137", "addr:place": "\u0141\u0105korz", "addr:postcode": "13-334", "amenity": "pharmacy", "dispensing": "yes", "name": "Punkt Apteczny Melisa", "ref:csioz": "1014398"}}, {"type": "node", "id": 9598250280, "lat": 53.5007595, "lon": 19.3517995, "tags": {"addr:city": "Biskupiec", "addr:housenumber": "17", "addr:street": "Rynek", "amenity": "pharmacy", "dispensing": "yes", "name": "Punkt Apteczny Aqua", "ref:csioz": "1014333"}}, {"type": "node", "id": 9601769838, "lat": 53.694359, "lon": 19.9420203, "tags": {"addr:city": "Ostr\u00f3da", "addr:housenumber": "21", "addr:street": "Stefana Jaracza", "amenity": "pharmacy", "dispensing": "yes", "healthcare": "pharmacy", "name": "Meritum", "ref:csioz": "1221890"}}, {"type": "node", "id": 9601769856, "lat": 53.7606371, "lon": 19.843069, "tags": {"addr:city": "Mi\u0142om\u0142yn", "addr:housenumber": "2", "addr:street": "Cicha", "amenity": "pharmacy", "dispensing": "yes", "name": "S\u0142oneczna", "ref:csioz": "1040721"}}, {"type": "node", "id": 9601769857, "lat": 53.7641622, "lon": 19.8349893, "tags": {"addr:city": "Mi\u0142om\u0142yn", "addr:housenumber": "3", "addr:street": "Pas\u0142\u0119cka", "amenity": "pharmacy", "dispensing": "yes", "name": "B\u0142\u0119kitna", "ref:csioz": "1040713"}}, {"type": "node", "id": 9601769858, "lat": 53.9198949, "lon": 19.7452147, "tags": {"addr:city": "Ma\u0142dyty", "addr:housenumber": "7", "addr:street": "Miko\u0142aja Kopernika", "amenity": "pharmacy", "dispensing": "yes", "name": "Salus", "ref:csioz": "1040685"}}, {"type": "way", "id": 336626355, "nodes": [3436701616, 3436701617, 3152285110, 3152285105, 3436701616], "tags": {"addr:city": "Z\u0105browo", "addr:housenumber": "4", "addr:postcode": "14-241", "addr:street": "Szkolna", "amenity": "pharmacy", "building": "yes", "dispensing": "yes", "healthcare": "pharmacy", "name": "Dr N Farm Tomasz D\u0119bowski", "opening_hours": "08:00-16:00", "phone": "+48 89 6481111", "ref:csioz": "1041149"}}]}