{"version": 0.6, "generator": "Overpass API 0.7.62.8 e802775f", "osm3s": {"timestamp_osm_base": "2025-10-06T08:20:01Z", "copyright": "The data included in this document is from www.openstreetmap.org. The data is made available under ODbL."}, "elements": [{"type": "node", "id": 1628406227, "lat": 50.5620651, "lon": 20.0511284, "tags": {"amenity": "pharmacy", "dispensing": "yes", "name": "Apteka"}}, {"type": "node", "id": 2811581037, "lat": 50.4686473, "lon": 19.6575443, "tags": {"addr:city": "Pilica", "addr:housenumber": "2", "addr:postcode": "42-436", "addr:street": "Plac Adama Mickiewicza", "amenity": "pharmacy", "dispensing": "yes", "healthcare": "pharmacy", "name": "Apteka", "opening_hours": "Mo-Fr 08:00-20:00; Sa 08:00-14:00; Su 09:30-12:30", "operator": "Jurczak-J\u0119dralska Danuta, Otr\u0119bska J\u00f3zefa S.C. Apteka", "phone": "+48 32 673 50 10", "ref:csioz": "1066775"}}, {"type": "node", "id": 2811591318, "lat": 50.4688344, "lon": 19.6572442, "tags": {"addr:city": "Pilica", "addr:housenumber": "2", "addr:postcode": "42-436", "addr:street": "Barbary", "amenity": "pharmacy", "dispensing": "yes", "healthcare": "pharmacy", "name": "Zdrowie", "operator": "\"Pharmacy\" Apteka Sabina St\u0119pie\u0144", "phone": "+48 32 673 50 71", "ref:csioz": "1066769"}}, {"type": "node", "id": 3024619330, "lat": 50.639707, "lon": 19.5968869, "tags": {"addr:housenumber": "78A", "addr:place": "Sokolniki", "amenity": "pharmacy", "dispensing": "yes", "healthcare": "pharmacy", "name": "Punkt Apteczny W Sokolnikach", "ref:csioz": "1230294"}}, {"type": "node", "id": 3209463461, "lat": 50.4854242, "lon": 19.8636657, "tags": {"addr:city": "\u017barnowiec", "addr:housenumber": "8", "addr:postcode": "42-439", "addr:street": "Warszawska", "amenity": "pharmacy", "dispensing": "yes", "healthcare": "pharmacy", "name": "Apteka w \u017barnowcu", "ref:csioz": "1072093"}}, {"type": "node", "id": 3666991355, "lat": 50.3860455, "lon": 19.7608269}, {"type": "node", "id": 3666991358, "lat": 50.3860541, "lon": 19.7609399}, {"type": "node", "id": 3666991360, "lat": 50.3860571, "lon": 19.7609844}, {"type": "node", "id": 3666991363, "lat": 50.3860704, "lon": 19.7607997}, {"type": "node", "id": 3666991364, "lat": 50.386072, "lon": 19.7608225}, {"type": "node", "id": 3666991378, "lat": 50.3862677, "lon": 19.7607705}, {"type": "node", "id": 3666991379, "lat": 50.3862791, "lon": 19.7609499}, {"type": "node", "id": 3823104621, "lat": 50.3850935, "lon": 19.7589644, "tags": {"addr:city": "Wolbrom", "addr:city:simc": "0945315", "addr:housenumber": "2", "addr:postcode": "32-340", "addr:street": "Krakowska", "addr:street:sym_ul": "09796", "amenity": "pharmacy", "healthcare": "pharmacy", "name": "Przy Rynku", "source": "https://polska.e-mapa.net/", "source:addr": "emuia.gugik.gov.pl"}}, {"type": "node", "id": 3823112244, "lat": 50.3774295, "lon": 19.7650377, "tags": {"addr:city": "Wolbrom", "addr:city:simc": "0945315", "addr:housenumber": "39", "addr:postcode": "32-340", "addr:street": "1 Maja", "addr:street:sym_ul": "11926", "amenity": "pharmacy", "healthcare": "pharmacy", "source": "https://polska.e-mapa.net/", "source:addr": "emuia.gugik.gov.pl"}}, {"type": "node", "id": 3823112671, "lat": 50.3824245, "lon": 19.7598497, "tags": {"addr:city": "Wolbrom", "addr:city:simc": "0945315", "addr:housenumber": "43", "addr:postcode": "32-340", "addr:street": "Krakowska", "addr:street:sym_ul": "09796", "amenity": "pharmacy", "healthcare": "pharmacy", "name": "Blisko Ciebie", "source": "https://polska.e-mapa.net/", "source:addr": "emuia.gugik.gov.pl"}}, {"type": "node", "id": 4184368794, "lat": 50.7132767, "lon": 19.9803334}, {"type": "node", "id": 4184371709, "lat": 50.7133343, "lon": 19.98055}, {"type": "node", "id": 4184372313, "lat": 50.7132196, "lon": 19.9803712}, {"type": "node", "id": 4184372316, "lat": 50.7132772, "lon": 19.9805875}, {"type": "node", "id": 4813357663, "lat": 50.3778597, "lon": 19.7575948}, {"type": "node", "id": 4813357664, "lat": 50.3779604, "lon": 19.757659}, {"type": "node", "id": 4813357665, "lat": 50.3779224, "lon": 19.7578057}, {"type": "node", "id": 4813357666, "lat": 50.3778214, "lon": 19.7577405}, {"type": "node", "id": 5101459723, "lat": 50.5214349, "lon": 20.1881859, "tags": {"amenity": "pharmacy", "name": "Apfels", "name:pl": "Apfels"}}, {"type": "node", "id": 5101480030, "lat": 50.5214005, "lon": 20.1920831, "tags": {"amenity": "pharmacy", "healthcare": "pharmacy", "name": "Dobre Apteki", "name:pl": "Dobre Apteki"}}, {"type": "node", "id": 7207555163, "lat": 50.385057, "lon": 19.7588538}, {"type": "node", "id": 7207555164, "lat": 50.3850408, "lon": 19.7588552}, {"type": "node", "id": 7207555165, "lat": 50.3850447, "lon": 19.7589747}, {"type": "node", "id": 7207555166, "lat": 50.3851347, "lon": 19.7589687}, {"type": "node", "id": 7207555167, "lat": 50.3851435, "lon": 19.7589514}, {"type": "node", "id": 7207555168, "lat": 50.3851373, "lon": 19.7588466}, {"type": "node", "id": 9588528761, "lat": 50.3963825, "lon": 19.9468836, "tags": {"addr:city": "Miech\u00f3w-Charsznica", "addr:housenumber": "50a", "addr:postcode": "32-250", "addr:street": "\u017barnowiecka", "amenity": "pharmacy", "dispensing": "yes", "name": "Planeta", "ref:csioz": "1181381"}}, {"type": "node", "id": 9588546918, "lat": 50.3948414, "lon": 19.9492705, "tags": {"addr:city": "Miech\u00f3w-Charsznica", "addr:housenumber": "6", "addr:postcode": "32-250", "addr:street": "Miechowska", "amenity": "pharmacy", "dispensing": "yes", "name": "Apteka Prywatna Mgr Farm. Anna Kupska", "ref:csioz": "1075277"}}, {"type": "node", "id": 9588567168, "lat": 50.4829142, "lon": 20.0283944, "tags": {"addr:housenumber": "63", "addr:place": "Koz\u0142\u00f3w", "addr:postcode": "32-241", "amenity": "pharmacy", "dispensing": "yes", "ref:csioz": "1196318"}}, {"type": "node", "id": 9588590257, "lat": 50.4461991, "lon": 20.1413024, "tags": {"addr:city": "Ksi\u0105\u017c Wielki", "addr:housenumber": "15C", "addr:postcode": "32-210", "addr:street": "Warszawska", "amenity": "pharmacy", "dispensing": "yes", "healthcare": "pharmacy", "name": "Apteka Auris", "ref:csioz": "1208480"}}, {"type": "node", "id": 9588590639, "lat": 50.375038, "lon": 19.8732259, "tags": {"addr:housenumber": "112", "addr:place": "Szreniawa", "addr:postcode": "32-075", "amenity": "pharmacy", "dispensing": "yes", "ref:csioz": "1218509"}}, {"type": "node", "id": 9588600487, "lat": 50.3974407, "lon": 19.9448138, "tags": {"addr:city": "Miech\u00f3w-Charsznica", "addr:housenumber": "30", "addr:postcode": "32-250", "addr:street": "\u017barnowiecka", "amenity": "pharmacy", "dispensing": "yes", "ref:csioz": "1056214"}}, {"type": "node", "id": 9588613138, "lat": 50.4442822, "lon": 20.141383, "tags": {"addr:city": "Ksi\u0105\u017c Wielki", "addr:housenumber": "15A", "addr:postcode": "32-210", "addr:street": "Warszawska", "amenity": "pharmacy", "dispensing": "yes", "ref:csioz": "1074998"}}, {"type": "node", "id": 10089308281, "lat": 50.6532734, "lon": 19.9980575, "tags": {"amenity": "pharmacy", "healthcare": "pharmacy", "name": "Apteka \u0179r\u00f3dlana"}}, {"type": "node", "id": 10110037436, "lat": 50.4756254, "lon": 19.723537, "tags": {"addr:city": "Wierbka", "addr:housenumber": "135B", "addr:street": "G\u0142\u00f3wna", "amenity": "pharmacy", "dispensing": "yes", "fixme": "Lokalizacja do weryfikacji", "healthcare": "pharmacy", "name": "Punkt Apteczny W Wierbce", "ref:csioz": "1227614"}}, {"type": "node", "id": 10110037439, "lat": 50.4673546, "lon": 19.6572505, "tags": {"addr:city": "Pilica", "addr:housenumber": "28", "addr:street": "Plac Adama Mickiewicza", "amenity": "pharmacy", "dispensing": "yes", "healthcare": "pharmacy", "name": "Zdrowe Ceny", "ref:csioz": "1199449", "website": "http://www.zdroweceny.pl"}}, {"type": "node", "id": 10110037440, "lat": 50.6254252, "lon": 19.8184802, "tags": {"addr:city": "Szczekociny", "addr:housenumber": "1", "addr:street": "Krakowska", "amenity": "pharmacy", "dispensing": "yes", "healthcare": "pharmacy", "name": "Szmaragdowa", "opening_hours": "Mo-Fr 07:30-20:00; Sa 08:00-16:00", "ref:csioz": "1188825"}}, {"type": "node", "id": 10110037441, "lat": 50.6247069, "lon": 19.6839851, "tags": {"addr:housenumber": "128", "addr:place": "Irz\u0105dze", "amenity": "pharmacy", "dispensing": "yes", "healthcare": "pharmacy", "name": "Punkt Apteczny", "ref:csioz": "1182487"}}, {"type": "node", "id": 10110037442, "lat": 50.6262702, "lon": 19.8173151, "tags": {"addr:city": "Szczekociny", "addr:housenumber": "19", "addr:street": "Plac Tadeusza Ko\u015bciuszki", "amenity": "pharmacy", "dispensing": "yes", "healthcare": "pharmacy", "name": "Amicus", "opening_hours": "Mo-Fr 08:00-20:00; Sa 08:00-16:00", "ref:csioz": "1179850"}}, {"type": "node", "id": 10110037443, "lat": 50.6238196, "lon": 19.8189384, "tags": {"addr:city": "Szczekociny", "addr:housenumber": "6", "addr:street": "Jana Paw\u0142a II", "amenity": "pharmacy", "dispensing": "yes", "healthcare": "pharmacy", "name": "Kolorowa W Szczekocinach", "opening_hours": "Mo-Fr 07:30-19:00; Sa 07:30-15:00; Su 09:00-13:00", "ref:csioz": "1111270"}}, {"type": "node", "id": 10110037445, "lat": 50.5739388, "lon": 19.6447311, "tags": {"addr:city": "Prad\u0142a", "addr:housenumber": "10", "addr:street": "Batalion\u00f3w Ch\u0142opskich", "amenity": "pharmacy", "dispensing": "yes", "healthcare": "pharmacy", "name": "Punkt Apteczny", "ref:csioz": "1073165"}}, {"type": "node", "id": 10110037451, "lat": 50.6261631, "lon": 19.8197206, "tags": {"addr:city": "Szczekociny", "addr:housenumber": "10", "addr:street": "Ko\u015bcielna", "amenity": "pharmacy", "dispensing": "yes", "healthcare": "pharmacy", "name": "Remedium", "opening_hours": "Mo-Fr 08:00-18:00", "ref:csioz": "1069800"}}, {"type": "node", "id": 10236174388, "lat": 50.7133135, "lon": 19.9804719, "tags": {"amenity": "bicycle_parking", "bicycle_parking": "wall_loops", "capacity": "3", "covered": "no", "fee": "no"}}, {"type": "node", "id": 10652746469, "lat": 50.3758109, "lon": 19.8687158, "tags": {"amenity": "pharmacy", "dispensing": "yes", "healthcare": "pharmacy", "name": "Punkt Apteczny Planeta", "ref:csioz": "1231423"}}, {"type": "node", "id": 10943914735, "lat": 50.4798768, "lon": 20.3303357, "tags": {"amenity": "pharmacy", "dispensing": "yes", "drive_through": "no", "email": "biuro.apteka123@wp.pl", "healthcare": "pharmacy", "name": "Punkt Apteczny", "operator": "Anna Paku\u0142a Punkt Apteczny \"Lubcza\"", "phone": "+48508356999", "source": "https://rejestrymedyczne.ezdrowie.gov.pl/ra/search/public"}}, {"type": "node", "id": 11952397964, "lat": 50.6831392, "lon": 19.6241342, "tags": {"addr:city": "Lel\u00f3w", "addr:housenumber": "20", "addr:postcode": "42-235", "addr:street": "Plac Partyzant\u00f3w", "amenity": "pharmacy", "healthcare": "pharmacy", "mobile": "343550005", "name": "Apteka Rodzinna", "opening_hours": "Mo-Fr 07:00-20:00, Sa 07:00-15:00, Su 07:00-15:00"}}, {"type": "way", "id": 362376368, "nodes": [3666991378, 3666991363, 3666991364, 3666991355, 3666991358, 3666991360, 3666991379, 3666991378], "tags": {"addr:city": "Wolbrom", "addr:city:simc": "0945315", "addr:housenumber": "6", "addr:postcode": "32-340", "addr:street": "Mariacka", "addr:street:sym_ul": "12327", "amenity": "pharmacy", "building": "yes", "healthcare": "pharmacy", "name": "Dr. Max", "source": "https://polska.e-mapa.net/", "source:addr": "emuia.gugik.gov.pl"}}, {"type": "way", "id": 417970863, "nodes": [4184368794, 4184372313, 4184372316, 4184371709, 10236174388, 4184368794], "tags": {"amenity": "pharmacy", "building": "yes", "dispensing": "yes", "drive_through": "no", "healthcare": "pharmacy", "name": "Amicus"}}, {"type": "way", "id": 489051727, "nodes": [4813357663, 4813357664, 4813357665, 4813357666, 4813357663], "tags": {"addr:city": "Wolbrom", "addr:city:simc": "0945315", "addr:housenumber": "15", "addr:postcode": "32-340", "addr:street": "Plac Wolno\u015bci", "addr:street:sym_ul": "16415", "amenity": "pharmacy", "building": "house", "healthcare": "pharmacy", "name": "S\u0142oneczna", "source": "https://polska.e-mapa.net/", "source:addr": "emuia.gugik.gov.pl"}}, {"type": "way", "id": 772062355, "nodes": [7207555168, 7207555167, 7207555166, 7207555165, 7207555164, 7207555163, 7207555168], "tags": {"addr:city": "Wolbrom", "addr:city:simc": "0945315", "addr:housenumber": "2", "addr:postcode": "32-340", "addr:street": "Krakowska", "addr:street:sym_ul": "09796", "amenity": "pharmacy", "building": "yes", "healthcare": "pharmacy", "name": "Przy Rynku", "source": "www.geoportal.gov.pl", "source:addr": "emuia.gugik.gov.pl"}}]}