{"version": 0.6, "generator": "Overpass API 0.7.62.8 e802775f", "osm3s": {"timestamp_osm_base": "2025-10-06T07:58:43Z", "copyright": "The data included in this document is from www.openstreetmap.org. The data is made available under ODbL."}, "elements": [{"type": "node", "id": 3828411466, "lat": 41.7162366, "lon": 21.7830089, "tags": {"amenity": "pharmacy", "healthcare": "pharmacy", "name": "\u0415\u0443\u0440\u043e \u0424\u0430\u0440\u043c"}}, {"type": "node", "id": 5648991182, "lat": 41.3423403, "lon": 21.5642575}, {"type": "node", "id": 5648991183, "lat": 41.3422336, "lon": 21.5643661}, {"type": "node", "id": 5648991184, "lat": 41.3422076, "lon": 21.5643208}, {"type": "node", "id": 5648991185, "lat": 41.3423143, "lon": 21.5642121}, {"type": "node", "id": 8199037098, "lat": 41.3483574, "lon": 21.5510479}, {"type": "node", "id": 8199054220, "lat": 41.3483252, "lon": 21.5510962}, {"type": "node", "id": 8199054245, "lat": 41.3482649, "lon": 21.5509381}, {"type": "node", "id": 8199054264, "lat": 41.3482326, "lon": 21.5509863}, {"type": "node", "id": 9091826489, "lat": 41.3435181, "lon": 21.5599606, "tags": {"addr:city": "\u041f\u0440\u0438\u043b\u0435\u043f", "addr:housenumber": "151", "addr:postcode": "7500", "addr:street": "\u0410\u043b\u0435\u043a\u0441\u0430\u043d\u0434\u0430\u0440 \u041c\u0430\u043a\u0435\u0434\u043e\u043d\u0441\u043a\u0438", "amenity": "pharmacy", "dispensing": "yes", "healthcare": "pharmacy", "name": "\u0410\u043b\u0435\u043a \u0424\u0430\u0440\u043c", "name:en": "Alek Farm", "phases": "+38948421600;+38978347565", "source": "https://zk.mk/alek-farm?choice=IX"}}, {"type": "node", "id": 9625915477, "lat": 41.34575, "lon": 21.5490549}, {"type": "node", "id": 9625915478, "lat": 41.3457865, "lon": 21.5491073}, {"type": "node", "id": 9625915479, "lat": 41.3457146, "lon": 21.549196}, {"type": "node", "id": 9625915480, "lat": 41.3456782, "lon": 21.5491436}, {"type": "node", "id": 9625915481, "lat": 41.3551406, "lon": 21.5397996, "tags": {"addr:city": "\u041f\u0440\u0438\u043b\u0435\u043f", "addr:housenumber": "6", "addr:postcode": "7500", "addr:street": "\u0408\u043e\u0440\u0434\u0430\u043d \u0427\u043e\u043f\u0435\u043b\u0430-\u041a\u0443\u043b\u0430\u043a", "amenity": "pharmacy", "dispensing": "yes", "healthcare": "pharmacy", "name": "\u0410\u0440\u043e\u043d\u0438\u0458\u0430 \u0424\u0430\u0440\u043c", "name:en": "Aronija Farm", "phone": "+38948550524", "source": "https://zk.mk/aronija-farm?choice=IX"}}, {"type": "node", "id": 9625915482, "lat": 41.3402498, "lon": 21.5530302, "tags": {"addr:city": "\u041f\u0440\u0438\u043b\u0435\u043f", "addr:housenumber": "30", "addr:postcode": "7500", "addr:street": "\u0410\u043b\u0435\u043a\u0441\u0430\u043d\u0434\u0430\u0440 \u041c\u0430\u043a\u0435\u0434\u043e\u043d\u0441\u043a\u0438", "amenity": "pharmacy", "dispensing": "yes", "healthcare": "pharmacy", "name": "\u0411\u0438\u043b\u043a\u0430 \u0424\u0430\u0440\u043c\u0430\u0446\u0438\u0458\u0430", "name:en": "Bilka Farmacija", "phone": "+38978423767", "source": "https://zk.mk/bilka-farmacija?choice=IX"}}, {"type": "node", "id": 9625915483, "lat": 41.3385986, "lon": 21.5493}, {"type": "node", "id": 9625915484, "lat": 41.3385271, "lon": 21.5493519}, {"type": "node", "id": 9625915485, "lat": 41.3384945, "lon": 21.5492724}, {"type": "node", "id": 9625915486, "lat": 41.338566, "lon": 21.5492204}, {"type": "node", "id": 9625915487, "lat": 41.3442186, "lon": 21.543299, "tags": {"addr:city": "\u041f\u0440\u0438\u043b\u0435\u043f", "addr:housenumber": "112", "addr:postcode": "7500", "addr:street": "\u0403\u043e\u0440\u0453\u0438 \u0414\u0435\u043b\u0447\u0435\u0432-\u0413\u043e\u0446\u0435", "amenity": "pharmacy", "dispensing": "yes", "healthcare": "pharmacy", "name": "\u0412\u0435\u043d\u0435\u043d\u0430", "name:en": "Venena", "phone": "+38948421372", "source": "https://zk.mk/venena?choice=IX"}}, {"type": "node", "id": 9625978086, "lat": 41.3465493, "lon": 21.5546402, "tags": {"addr:city": "\u041f\u0440\u0438\u043b\u0435\u043f", "addr:housenumber": "0", "addr:postcode": "7500", "addr:street": "\u0403\u043e\u0440\u0453\u0438 \u0414\u0435\u043b\u0447\u0435\u0432-\u0413\u043e\u0446\u0435", "amenity": "pharmacy", "dispensing": "yes", "healthcare": "pharmacy", "name": "\u0417\u0435\u0433\u0438\u043d 1", "name:en": "Zegin 1", "phone": "+38948415008;+38978478243"}}, {"type": "node", "id": 9632237382, "lat": 41.3435149, "lon": 21.5460241, "tags": {"addr:city": "\u041f\u0440\u0438\u043b\u0435\u043f", "addr:housenumber": "1/1", "addr:postcode": "7500", "addr:street": "\u0408\u043e\u043b\u0435 \u0410\u043d\u0434\u043e\u043d\u043e\u0441\u043a\u0438", "amenity": "pharmacy", "dispensing": "yes", "healthcare": "pharmacy", "name": "\u0417\u0435\u0433\u0438\u043d 6", "name:en": "Zegin 6", "phone": "+38948434910", "source": "https://zk.mk/zegin-prilep-6?choice=IX"}}, {"type": "node", "id": 9632237383, "lat": 41.3438833, "lon": 21.5549845, "tags": {"addr:city": "\u041f\u0440\u0438\u043b\u0435\u043f", "addr:housenumber": "93", "addr:postcode": "7500", "addr:street": "\u0411\u043e\u0440\u043a\u0430 \u0422\u0430\u043b\u0435\u0441\u043a\u0438-\u041c\u043e\u0434\u0435\u0440\u043d\u043e\u0442\u043e", "amenity": "pharmacy", "dispensing": "yes", "healthcare": "pharmacy", "name": "\u0417\u0435\u0433\u0438\u043d 5", "name:en": "Zegin 5", "phone": "+38948450030", "source": "https://zk.mk/zegin-prilep-5?choice=IX"}}, {"type": "node", "id": 9632237388, "lat": 41.3510907, "lon": 21.5420424, "tags": {"addr:city": "\u041f\u0440\u0438\u043b\u0435\u043f", "addr:housenumber": "229", "addr:postcode": "7500", "addr:street": "\u041a\u0443\u0437\u043c\u0430\u043d \u0408\u043e\u0441\u0438\u0444\u043e\u0441\u043a\u0438-\u041f\u0438\u0442\u0443", "amenity": "pharmacy", "dispensing": "yes", "healthcare": "pharmacy", "name": "\u0417\u0435\u0433\u0438\u043d 4", "name:en": "Zegin 4", "phone": "+38948400273", "source": "https://zk.mk/zegin-prilep-4?choice=IX"}}, {"type": "node", "id": 9632237389, "lat": 41.3443743, "lon": 21.5544986, "tags": {"addr:city": "\u041f\u0440\u0438\u043b\u0435\u043f", "addr:housenumber": "58", "addr:postcode": "7500", "addr:street": "\u0411\u043e\u0440\u043a\u0430 \u0422\u0430\u043b\u0435\u0441\u043a\u0438-\u041c\u043e\u0434\u0435\u0440\u043d\u043e\u0442\u043e", "amenity": "pharmacy", "dispensing": "yes", "healthcare": "pharmacy", "name": "\u0412\u0438\u0432\u0430\u0444\u0430\u0440\u043c 1", "name:en": "Vivafarm 1", "phone": "+38948434134"}}, {"type": "node", "id": 9632237392, "lat": 41.3408996, "lon": 21.5530804, "tags": {"addr:city": "\u041f\u0440\u0438\u043b\u0435\u043f", "addr:housenumber": "99\u0410", "addr:postcode": "7500", "addr:street": "\u0421\u043e\u0442\u043a\u0430 \u0403\u043e\u0440\u0453\u0438\u043e\u0441\u043a\u0438-\u0421\u043e\u0442\u043a\u0430", "amenity": "pharmacy", "dispensing": "yes", "healthcare": "pharmacy", "name": "\u0412\u0438\u0432\u0430\u0444\u0430\u0440\u043c 2", "name:en": "Vivafarm 2", "phone": "+38948614134"}}, {"type": "node", "id": 9632237393, "lat": 41.3502365, "lon": 21.5383574, "tags": {"addr:city": "\u041f\u0440\u0438\u043b\u0435\u043f", "addr:postcode": "7503", "addr:street": "\u041f\u0435\u0440\u0435 \u0422\u043e\u0448\u0435\u0432", "amenity": "pharmacy", "dispensing": "yes", "healthcare": "pharmacy", "name": "\u0412\u0438\u043e\u043b\u0430", "name:en": "Viola", "phone": "+38975994242"}}, {"type": "node", "id": 9633000728, "lat": 41.3474626, "lon": 21.557223, "tags": {"addr:city": "\u041f\u0440\u0438\u043b\u0435\u043f", "addr:housenumber": "6", "addr:postcode": "7500", "addr:street": "\u0408\u043e\u0441\u043a\u0430 \u0408\u043e\u0440\u0434\u0430\u043d\u043e\u0441\u043a\u0438-\u0421\u0430\u043d\u0434\u0430\u043d\u0441\u043a\u0438", "amenity": "pharmacy", "dispensing": "yes", "healthcare": "pharmacy", "name": "\u0414\u0430\u0440\u043e\u043d \u041b\u0435\u043a", "name:en": "Daron Lek", "phone": "+38948550320", "source": "https://zk.mk/daron-lek?choice=IX"}}, {"type": "node", "id": 9633000729, "lat": 41.3416805, "lon": 21.5573793}, {"type": "node", "id": 9633000730, "lat": 41.3416896, "lon": 21.5575591}, {"type": "node", "id": 9633000731, "lat": 41.3416617, "lon": 21.5575644}, {"type": "node", "id": 9633000732, "lat": 41.3416469, "lon": 21.5575265}, {"type": "node", "id": 9633000733, "lat": 41.341619, "lon": 21.557531}, {"type": "node", "id": 9633000734, "lat": 41.341615, "lon": 21.5574369}, {"type": "node", "id": 9633000735, "lat": 41.3416389, "lon": 21.5574339}, {"type": "node", "id": 9633000736, "lat": 41.3416338, "lon": 21.5573838}, {"type": "node", "id": 9633000742, "lat": 41.3466199, "lon": 21.5556684, "tags": {"addr:city": "\u041f\u0440\u0438\u043b\u0435\u043f", "addr:housenumber": "9", "addr:postcode": "7500", "addr:street": "\u0418\u043b\u0438\u043d\u0434\u0435\u043d\u0441\u043a\u0430", "amenity": "pharmacy", "dispensing": "yes", "healthcare": "pharmacy", "name": "\u0415\u0434\u0435\u043b\u0432\u0430\u0458\u0441 \u0408", "name:en": "Edelvajs J", "phone": "+38975495463;+38948412752"}}, {"type": "node", "id": 9633000743, "lat": 41.348777, "lon": 21.5516369, "tags": {"addr:city": "\u041f\u0440\u0438\u043b\u0435\u043f", "addr:housenumber": "0", "addr:postcode": "7500", "addr:street": "\u041f\u0440\u0438\u043b\u0435\u043f\u0441\u043a\u0438 \u0411\u0440\u0430\u043d\u0438\u0442\u0435\u043b\u0438", "amenity": "pharmacy", "dispensing": "yes", "healthcare": "pharmacy", "name": "\u0415\u0443\u043a\u0430\u043b\u0438\u043f\u0442\u0443\u0441", "name:en": "Eukaliptus", "phone": "+38948551110"}}, {"type": "node", "id": 9633000744, "lat": 41.3466654, "lon": 21.5549235, "tags": {"addr:city": "\u041f\u0440\u0438\u043b\u0435\u043f", "addr:housenumber": "6", "addr:postcode": "7500", "addr:street": "\u0403\u043e\u0440\u0453\u0438 \u0414\u0435\u043b\u0447\u0435\u0432-\u0413\u043e\u0446\u0435", "amenity": "pharmacy", "dispensing": "yes", "healthcare": "pharmacy", "name": "\u0415\u0443\u0440\u043e\u0444\u0430\u0440\u043c", "name:en": "Eurofarm", "phone": "+38970393824", "source": "https://zk.mk/eurofarm-11?choice=IX"}}, {"type": "node", "id": 9633313022, "lat": 41.3501689, "lon": 21.5383201, "tags": {"amenity": "pharmacy", "dispensing": "yes", "healthcare": "pharmacy", "name": "\u0417\u0434\u0440\u0430\u0432\u0458\u0435", "name:en": "Zdravje", "phone": "+38948420900", "source": "https://zk.mk/zdravje-9?choice=IX"}}, {"type": "node", "id": 9633313023, "lat": 41.3444352, "lon": 21.5547107, "tags": {"addr:city": "\u041f\u0440\u0438\u043b\u0435\u043f", "addr:housenumber": "34", "addr:postcode": "7500", "addr:street": "\u0411\u043e\u0440\u043a\u0430 \u0422\u0430\u043b\u0435\u0441\u043a\u0438-\u041c\u043e\u0434\u0435\u0440\u043d\u043e\u0442\u043e", "amenity": "pharmacy", "dispensing": "yes", "healthcare": "pharmacy", "name": "\u0417\u0434\u0440\u0430\u0432\u0458\u0435 \u0424\u0430\u0440\u043c", "name:en": "Zdravje Farm", "phone": "+38948426888", "source": "https://zk.mk/zdravje-farm?choice=IX"}}, {"type": "node", "id": 9633313028, "lat": 41.3458997, "lon": 21.5683429, "tags": {"amenity": "pharmacy", "dispensing": "yes", "healthcare": "pharmacy", "name": "\u0418\u043d \u0424\u0430\u0440\u043c", "name:en": "In Farm", "phone": "+38977617146"}}, {"type": "node", "id": 9634136336, "lat": 41.343413, "lon": 21.5664004, "tags": {"amenity": "pharmacy", "dispensing": "yes", "healthcare": "pharmacy", "name": "\u0418\u0441\u043a\u0440\u0430 \u041d\u0430\u0434\u0435\u0436", "name:en": "Iskra Nadezh", "phone": "+38948551257;+38976458979", "source": "https://zk.mk/iskra-nadezh?choice=IX"}}, {"type": "node", "id": 9634136337, "lat": 41.3509761, "lon": 21.5401631, "tags": {"amenity": "pharmacy", "dispensing": "yes", "healthcare": "pharmacy", "name": "\u0408\u0430\u0441\u043c\u0438\u043d", "name:en": "Jasmin", "phone": "+38948412576"}}, {"type": "node", "id": 9634136338, "lat": 41.344738, "lon": 21.5510421, "tags": {"amenity": "pharmacy", "dispensing": "yes", "healthcare": "pharmacy", "name": "\u041a\u0430\u0440\u0430\u043a\u0430\u0448 1", "name:en": "Karakash 1", "phone": "+389414722", "source": "https://zk.mk/karakash-1?choice=IX"}}, {"type": "node", "id": 9634136339, "lat": 41.3447924, "lon": 21.5640106, "tags": {"amenity": "pharmacy", "dispensing": "yes", "healthcare": "pharmacy", "name": "\u041a\u0430\u0440\u0430\u043a\u0430\u0448 2", "name:en": "Karakash 2", "phone": "+38948414722", "source": "https://zk.mk/karakash-2?choice=IX"}}, {"type": "node", "id": 9652668540, "lat": 41.3460657, "lon": 21.55379, "tags": {"addr:city": "\u041f\u0440\u0438\u043b\u0435\u043f", "addr:housenumber": "3", "addr:postcode": "7500", "addr:street": "\u0411\u043e\u0440\u043a\u0430 \u0422\u0430\u043b\u0435\u0441\u043a\u0438-\u041c\u043e\u0434\u0435\u0440\u043d\u043e\u0442\u043e", "amenity": "pharmacy", "dispensing": "yes", "healthcare": "pharmacy", "name": "\u0425\u0435\u0440\u0431\u0430", "name:en": "Herba", "name:mk": "\u0425\u0435\u0440\u0431\u0430", "phone": "+38948420520;+38975235680", "source": "https://zk.mk/herba-3?choice=IX"}}, {"type": "node", "id": 9652668541, "lat": 41.3420285, "lon": 21.5491648, "tags": {"amenity": "pharmacy", "dispensing": "yes", "healthcare": "pharmacy", "name": "\u0425\u0435\u0440\u0430", "name:en": "Hera", "phone": "48420421;48417083", "source": "https://zk.mk/hera-3?choice=IX"}}, {"type": "node", "id": 9652668542, "lat": 41.3453464, "lon": 21.5557754, "tags": {"amenity": "pharmacy", "dispensing": "yes", "healthcare": "pharmacy", "name": "\u0424\u0430\u0440\u043c\u0435\u0434", "name:en": "Farmed", "phone": "+38948415444", "source": "https://zk.mk/farmed?choice=IX"}}, {"type": "node", "id": 9652668543, "lat": 41.3462741, "lon": 21.5540942, "tags": {"amenity": "pharmacy", "dispensing": "yes", "healthcare": "pharmacy", "name": "\u0424\u0430\u0440\u043c\u0430 \u041d\u043e\u0432\u0430", "name:en": "Farma Nova", "phone": "+38948402100;+38971273182", "source": "https://zk.mk/farma-nova-2?choice=IX", "website": "https://www.facebook.com/farmanovaprilep/"}}, {"type": "node", "id": 9652668544, "lat": 41.3423975, "lon": 21.5627772, "tags": {"amenity": "pharmacy", "dispensing": "yes", "healthcare": "pharmacy", "name": "\u0421\u0442\u0435\u0432\u0430\u043d\u0430\u045f\u0438\u0458\u0430", "name:en": "Stevanadzhija", "phone": "+38948416100;+38975559593", "source": "https://zk.mk/stevanadzhija?choice=IX"}}, {"type": "node", "id": 9652668557, "lat": 41.3501678, "lon": 21.5567025, "tags": {"amenity": "pharmacy", "dispensing": "yes", "healthcare": "pharmacy", "name": "\u041e\u043b\u0438\u043c\u043f\u0438\u0458\u0430", "name:en": "Olimpija", "phone": "+38948424120"}}, {"type": "node", "id": 9652668558, "lat": 41.3418679, "lon": 21.5635547, "tags": {"addr:city": "\u041f\u0440\u0438\u043b\u0435\u043f", "addr:housenumber": "19", "addr:postcode": "7510", "addr:street": "\u0422\u0440\u0430\u0458\u043a\u043e \u0411\u043e\u0448\u043a\u043e\u0441\u043a\u0438-\u0422\u0430\u0440\u0446\u0430\u043d", "amenity": "pharmacy", "dispensing": "yes", "healthcare": "pharmacy", "name": "\u041e\u0440\u0442\u043e\u0444\u0430\u0440\u043c", "name:en": "Ortofarm", "phone": "+38948436100"}}, {"type": "node", "id": 9652668569, "lat": 41.3523093, "lon": 21.5570357, "tags": {"amenity": "pharmacy", "dispensing": "yes", "healthcare": "pharmacy", "name": "\u041f\u0430\u043d\u0430\u0446\u0435\u0430", "name:en": "Panacea", "phone": "+38948434436"}}, {"type": "node", "id": 9652668570, "lat": 41.3463046, "lon": 21.561334, "tags": {"amenity": "pharmacy", "dispensing": "yes", "healthcare": "pharmacy", "name": "\u041c\u0438\u0430 \u0424\u0430\u0440\u043c", "name:en": "Mia Farm", "phone": "+38948428200;+38975440414"}}, {"type": "node", "id": 9652668571, "lat": 41.3463328, "lon": 21.5667045, "tags": {"addr:city": "\u041f\u0440\u0438\u043b\u0435\u043f", "addr:housenumber": "172", "addr:postcode": "7510", "addr:street": "\u0410\u043b\u0435\u043a\u0441\u0430\u043d\u0434\u0430\u0440 \u041c\u0430\u043a\u0435\u0434\u043e\u043d\u0441\u043a\u0438", "amenity": "pharmacy", "dispensing": "yes", "healthcare": "pharmacy", "name": "\u041c\u0435\u043d\u0442\u0430 \u0424\u0430\u0440\u043c 2", "name:en": "Menta Farm", "phone": "+38948551184"}}, {"type": "node", "id": 9652668576, "lat": 41.3527436, "lon": 21.5448351, "tags": {"amenity": "pharmacy", "dispensing": "yes", "healthcare": "pharmacy", "name": "\u041c\u0435\u043d\u0442\u0430 \u0424\u0430\u0440\u043c 2", "name:en": "Menta Farm 2", "phone": "+38948422551"}}, {"type": "node", "id": 9652668577, "lat": 41.3447829, "lon": 21.5511488, "tags": {"amenity": "pharmacy", "dispensing": "yes", "fax": "+38948416659", "healthcare": "pharmacy", "name": "\u041c\u0435\u043b\u0438\u0441\u0430 1", "name:en": "Melisa 1", "phone": "+38948416661;+38948416659"}}, {"type": "node", "id": 9654388463, "lat": 41.3436227, "lon": 21.5517151, "tags": {"amenity": "pharmacy", "dispensing": "yes", "healthcare": "pharmacy", "name": "\u041c\u0435\u043b\u0438\u0441\u0430"}}, {"type": "node", "id": 9688797452, "lat": 41.4416513, "lon": 21.3208274}, {"type": "node", "id": 9688797453, "lat": 41.4415419, "lon": 21.3208704}, {"type": "node", "id": 9688797454, "lat": 41.4415113, "lon": 21.3207502}, {"type": "node", "id": 9688797455, "lat": 41.4416175, "lon": 21.3207051}, {"type": "way", "id": 591740157, "nodes": [5648991185, 5648991182, 5648991183, 5648991184, 5648991185], "tags": {"amenity": "pharmacy", "building": "yes", "dispensing": "yes", "healthcare": "pharmacy", "name": "\u0417\u0435\u0433\u0438\u043d 3", "name:en": "Zegin 3", "phone": "+38948400076", "source": "https://zegin.com.mk/mk/apteki-niz-makedonija"}}, {"type": "way", "id": 881618593, "nodes": [8199037098, 8199054245, 8199054264, 8199054220, 8199037098], "tags": {"addr:city": "\u041f\u0440\u0438\u043b\u0435\u043f", "addr:housenumber": "37", "addr:postcode": "7500", "addr:street": "\u041f\u0440\u0438\u043b\u0435\u043f\u0441\u043a\u0438 \u0411\u0440\u0430\u043d\u0438\u0442\u0435\u043b\u0438", "amenity": "pharmacy", "building": "yes", "dispensing": "yes", "healthcare": "pharmacy", "name": "\u0417\u0435\u0433\u0438\u043d 2", "name:en": "Zegin 2", "phone": "+38948415011", "source": "Bing"}}, {"type": "way", "id": 1046781574, "nodes": [9625915477, 9625915478, 9625915479, 9625915480, 9625915477], "tags": {"addr:city": "\u041f\u0440\u0438\u043b\u0435\u043f", "addr:housenumber": "59", "addr:postcode": "7500", "addr:street": "\u041a\u0443\u0437\u043c\u0430\u043d \u0408\u043e\u0441\u0438\u0444\u043e\u0441\u043a\u0438-\u041f\u0438\u0442\u0443", "amenity": "pharmacy", "building": "yes", "dispensing": "yes", "healthcare": "pharmacy", "name": "2005 \u0412\u0438\u0432\u0430\u0444\u0430\u0440\u043c", "name:en": "2005 Vivafarm", "phone": "+38948400901", "source": "https://zk.mk/2005-vivafarm?choice=IX"}}, {"type": "way", "id": 1046781575, "nodes": [9625915483, 9625915484, 9625915485, 9625915486, 9625915483], "tags": {"addr:city": "\u041f\u0440\u0438\u043b\u0435\u043f", "addr:housenumber": "8", "addr:postcode": "7500", "addr:street": "\u0410\u043b\u0435\u043a\u0441\u0430\u043d\u0434\u0430\u0440 \u041c\u0430\u043a\u0435\u0434\u043e\u043d\u0441\u043a\u0438", "amenity": "pharmacy", "building": "yes", "dispensing": "yes", "healthcare": "pharmacy", "name": "\u0411\u0438\u043e\u043b\u0435\u043a 3", "name:en": "Biolek 3", "phone": "+38948416208", "source": "https://zk.mk/biolek-3?choice=IX"}}, {"type": "way", "id": 1047594624, "nodes": [9633000729, 9633000730, 9633000731, 9633000732, 9633000733, 9633000734, 9633000735, 9633000736, 9633000729], "tags": {"addr:city": "\u041f\u0440\u0438\u043b\u0435\u043f", "addr:housenumber": "99", "addr:postcode": "7500", "addr:street": "\u0411\u043e\u0440\u043a\u0430 \u0422\u0430\u043b\u0435\u0441\u043a\u0438-\u041c\u043e\u0434\u0435\u0440\u043d\u043e\u0442\u043e", "amenity": "pharmacy", "building": "yes", "dispensing": "yes", "healthcare": "pharmacy", "name": "\u0414\u0435\u043c\u0435\u0442\u0440\u0430 \u041b\u0435\u043a", "name:en": "Demetra Lek", "phone": "+38948429786", "source": "https://zk.mk/demetra-farm?choice=IX"}}, {"type": "way", "id": 1054290166, "nodes": [9688797452, 9688797453, 9688797454, 9688797455, 9688797452], "tags": {"amenity": "pharmacy", "building": "yes", "dispensing": "yes", "healthcare": "pharmacy", "name": "\u0420\u0435\u043c\u0435\u0434\u0438\u0458\u0430", "name:en": "Remedija"}}]}