{"version": 0.6, "generator": "Overpass API 0.7.62.8 e802775f", "osm3s": {"timestamp_osm_base": "2025-10-06T07:51:29Z", "copyright": "The data included in this document is from www.openstreetmap.org. The data is made available under ODbL."}, "elements": [{"type": "node", "id": 3882807861, "lat": 43.3558256, "lon": 19.358953, "tags": {"amenity": "pharmacy", "brand": "Benu", "brand:wikidata": "Q62562792", "healthcare": "pharmacy", "name": "Benu"}}, {"type": "node", "id": 4310957689, "lat": 43.3563534, "lon": 19.3597601, "tags": {"alt_name": "Montefarm", "amenity": "pharmacy", "healthcare": "pharmacy", "name": "Risto Vukoti\u0107"}}, {"type": "node", "id": 6066142828, "lat": 43.2303707, "lon": 19.718306, "tags": {"amenity": "pharmacy", "dispensing": "yes", "healthcare": "pharmacy"}}, {"type": "node", "id": 6066142829, "lat": 43.23034, "lon": 19.7182554, "tags": {"amenity": "pharmacy", "dispensing": "yes", "healthcare": "pharmacy", "name": "Dijab Pharmacy"}}, {"type": "node", "id": 6066186928, "lat": 43.3895199, "lon": 19.6499041, "tags": {"amenity": "pharmacy", "dispensing": "yes", "healthcare": "pharmacy"}}, {"type": "node", "id": 8993686198, "lat": 43.3554302, "lon": 19.3589988, "tags": {"amenity": "pharmacy", "healthcare": "pharmacy", "name": "Prima"}}, {"type": "node", "id": 8993686201, "lat": 43.3571018, "lon": 19.3563136, "tags": {"amenity": "pharmacy", "healthcare": "pharmacy", "name": "Heba"}}, {"type": "node", "id": 9818219061, "lat": 43.3920144, "lon": 19.6555053, "tags": {"amenity": "pharmacy", "dispensing": "yes", "healthcare": "pharmacy", "name": "Deniment Plus"}}, {"type": "node", "id": 11202187907, "lat": 43.3902351, "lon": 19.6474446, "tags": {"amenity": "pharmacy", "healthcare": "pharmacy"}}, {"type": "node", "id": 11202187908, "lat": 43.3899863, "lon": 19.6486968, "tags": {"amenity": "pharmacy", "healthcare": "pharmacy"}}, {"type": "node", "id": 11886128457, "lat": 43.4602244, "lon": 19.8104262, "tags": {"amenity": "pharmacy", "healthcare": "pharmacy", "name": "Fridija"}}]}