{"version": 0.6, "generator": "Overpass API 0.7.62.8 e802775f", "osm3s": {"timestamp_osm_base": "2025-10-06T07:57:45Z", "copyright": "The data included in this document is from www.openstreetmap.org. The data is made available under ODbL."}, "elements": [{"type": "node", "id": 2262055356, "lat": 45.5200142, "lon": 19.5853269, "tags": {"amenity": "pharmacy"}}, {"type": "node", "id": 3257497423, "lat": 45.3485386, "lon": 19.7261437}, {"type": "node", "id": 3257497424, "lat": 45.3484633, "lon": 19.7263202}, {"type": "node", "id": 3257497425, "lat": 45.3483725, "lon": 19.7262417}, {"type": "node", "id": 3257497426, "lat": 45.3484478, "lon": 19.7260653}, {"type": "node", "id": 3409374916, "lat": 45.5449567, "lon": 19.7901118, "tags": {"amenity": "pharmacy", "healthcare": "pharmacy", "name": "Drzavna"}}, {"type": "node", "id": 3409374919, "lat": 45.5470101, "lon": 19.7923999}, {"type": "node", "id": 3409374920, "lat": 45.5470793, "lon": 19.7924105}, {"type": "node", "id": 3409374921, "lat": 45.5470746, "lon": 19.7924737}, {"type": "node", "id": 3409374922, "lat": 45.5470203, "lon": 19.7924895}, {"type": "node", "id": 3409374925, "lat": 45.5451661, "lon": 19.7900662, "tags": {"amenity": "pharmacy", "healthcare": "pharmacy", "name": "Nada"}}, {"type": "node", "id": 3481852994, "lat": 45.6179556, "lon": 20.0451236, "tags": {"amenity": "pharmacy", "healthcare": "pharmacy", "int_name": "Drzavna apoteka", "name": "\u0414\u0440\u0436\u0430\u0432\u043d\u0430 \u0430\u043f\u043e\u0442\u0435\u043a\u0430", "name:hu": "\u00c1llami", "name:sr": "\u0414\u0440\u0436\u0430\u0432\u043d\u0430 \u0430\u043f\u043e\u0442\u0435\u043a\u0430", "name:sr-Latn": "Dr\u017eavna apoteka"}}, {"type": "node", "id": 3489436788, "lat": 45.6094754, "lon": 20.0405064, "tags": {"amenity": "pharmacy", "name": "Europharma", "name:hu": "Europharma Gy\u00f3gyszert\u00e1r", "name:sr-Latn": "Apoteka Europharma"}}, {"type": "node", "id": 3489436790, "lat": 45.6161827, "lon": 20.0499165, "tags": {"amenity": "pharmacy", "int_name": "Feniks Lek", "name": "\u0424\u0435\u043d\u0438\u043a\u0441 \u041b\u0435\u043a", "name:hu": "Feniks Lek", "name:sr": "\u0424\u0435\u043d\u0438\u043a\u0441 \u041b\u0435\u043a", "name:sr-Latn": "Feniks Lek"}}, {"type": "node", "id": 3489436791, "lat": 45.6175485, "lon": 20.0452806, "tags": {"amenity": "pharmacy", "int_name": "Higija Tripolski", "name": "\u0425\u0438\u0433\u0438\u0458\u0430 \u0422\u0440\u0438\u043f\u043e\u043b\u0441\u043a\u0438", "name:hu": "Higija Tripolszki", "name:sr": "\u0425\u0438\u0433\u0438\u0458\u0430 \u0422\u0440\u0438\u043f\u043e\u043b\u0441\u043a\u0438", "name:sr-Latn": "Higija Tripolski"}}, {"type": "node", "id": 3489436792, "lat": 45.6182313, "lon": 20.0401375, "tags": {"amenity": "pharmacy", "int_name": "Higija Tripolski", "name": "\u0425\u0438\u0433\u0438\u0458\u0430 \u0422\u0440\u0438\u043f\u043e\u043b\u0441\u043a\u0438", "name:hu": "Higija Tripolszki", "name:sr": "\u0425\u0438\u0433\u0438\u0458\u0430 \u0422\u0440\u0438\u043f\u043e\u043b\u0441\u043a\u0438", "name:sr-Latn": "Higija Tripolski"}}, {"type": "node", "id": 3674472997, "lat": 45.5960054, "lon": 20.1344449, "tags": {"addr:city": "Novi Be\u010dej", "addr:housenumber": "10", "addr:postcode": "23272", "addr:street": "\u041c\u0430\u0440\u0448\u0430\u043b\u0430 \u0422\u0438\u0442\u0430", "amenity": "pharmacy", "healthcare": "pharmacy", "name": "Demetra", "phone": "+38123775991", "ref:RS:kucni_broj": "6257623"}}, {"type": "node", "id": 3733695693, "lat": 45.6141625, "lon": 20.0474501, "tags": {"amenity": "pharmacy", "healthcare": "pharmacy", "name": "Goodwill", "name:hu": "Goodwill Gy\u00f3gyszert\u00e1r"}}, {"type": "node", "id": 3791712371, "lat": 45.4072056, "lon": 19.8888601}, {"type": "node", "id": 3791712372, "lat": 45.4071691, "lon": 19.8890445}, {"type": "node", "id": 3791712373, "lat": 45.4072799, "lon": 19.8890891}, {"type": "node", "id": 3801991455, "lat": 45.6277116, "lon": 20.023833, "tags": {"amenity": "pharmacy"}}, {"type": "node", "id": 4376086599, "lat": 45.4139236, "lon": 19.7002235, "tags": {"addr:housenumber": "16", "addr:postcode": "21212", "addr:street": "\u0412\u043e\u0458\u0432\u043e\u0434\u0435 \u041f\u0443\u0442\u043d\u0438\u043a\u0430", "amenity": "pharmacy", "ref:RS:kucni_broj": "5481478"}}, {"type": "node", "id": 7576021975, "lat": 45.5477026, "lon": 19.7894409}, {"type": "node", "id": 7576021976, "lat": 45.5477128, "lon": 19.7895365}, {"type": "node", "id": 7576021977, "lat": 45.5477685, "lon": 19.7895245}, {"type": "node", "id": 7576021978, "lat": 45.5477583, "lon": 19.7894288}, {"type": "node", "id": 8815870502, "lat": 45.6049628, "lon": 19.5491278, "tags": {"amenity": "pharmacy", "dispensing": "yes", "healthcare": "pharmacy", "name": "Jankovi\u0107"}}, {"type": "node", "id": 9605760754, "lat": 45.5723863, "lon": 19.6388186, "tags": {"amenity": "pharmacy", "email": "apvr@open.telekom.rs", "healthcare": "pharmacy", "int_name": "Vrbas", "medical_supply": "yes", "name": "\u0412\u0440\u0431\u0430\u0441", "name:sr-Latn": "Vrbas", "phone": "+38121704138", "website": "www.apotekavrbas.co.rs"}}, {"type": "node", "id": 10554949415, "lat": 45.7048748, "lon": 19.5536959, "tags": {"amenity": "pharmacy", "healthcare": "pharmacy", "name": "Galen Pharm"}}, {"type": "node", "id": 11113974870, "lat": 45.6811929, "lon": 19.6920453, "tags": {"amenity": "pharmacy"}}, {"type": "node", "id": 11118598705, "lat": 45.6658838, "lon": 19.6998558, "tags": {"amenity": "pharmacy"}}, {"type": "node", "id": 11349185899, "lat": 45.4073155, "lon": 19.8889056}, {"type": "node", "id": 11653337856, "lat": 45.40726, "lon": 19.8888816}, {"type": "node", "id": 11941568478, "lat": 45.3465164, "lon": 19.7295427, "tags": {"amenity": "pharmacy", "brand": "Benu", "brand:wikidata": "Q62562792", "healthcare": "pharmacy", "name": "Benu", "operator": "Benu"}}, {"type": "node", "id": 12441588283, "lat": 45.5488156, "lon": 19.7855441, "tags": {"amenity": "pharmacy", "healthcare": "pharmacy"}}, {"type": "node", "id": 12495719416, "lat": 45.5424818, "lon": 19.792078, "tags": {"amenity": "pharmacy", "healthcare": "pharmacy"}}, {"type": "node", "id": 12630259366, "lat": 45.5464128, "lon": 19.7867393, "tags": {"amenity": "pharmacy", "brand": "Galen pharm", "brand:wikidata": "Q132851975", "dispensing": "yes", "healthcare": "pharmacy", "name": "Galen pharm", "name:sr": "\u0413\u0430\u043b\u0435\u043d \u0444\u0430\u0440\u043c", "name:sr-Latn": "Galen farm"}}, {"type": "node", "id": 12714408278, "lat": 45.6678852, "lon": 19.6982368, "tags": {"amenity": "pharmacy", "dispensing": "yes", "drive_through": "no", "healthcare": "pharmacy", "int_name": "Farmamed", "name": "\u0424\u0430\u0440\u043c\u0430\u043c\u0435\u0434", "name:sr": "\u0424\u0430\u0440\u043c\u0430\u043c\u0435\u0434", "name:sr-Latn": "Farmamed", "opening_hours": "Mo-Fr 07:00-19:00; Sa 07:30-12:00"}}, {"type": "node", "id": 12894887086, "lat": 45.5456832, "lon": 19.7899464, "tags": {"amenity": "pharmacy", "healthcare": "pharmacy"}}, {"type": "way", "id": 319336916, "nodes": [3257497423, 3257497424, 3257497425, 3257497426, 3257497423], "tags": {"addr:housenumber": "51", "addr:street": "\u0421\u043b\u043e\u0432\u0430\u0447\u043a\u0430", "amenity": "pharmacy", "building": "yes", "dispensing": "no", "healthcare": "pharmacy", "ref:RS:kucni_broj": "5483230"}}, {"type": "way", "id": 333893198, "nodes": [3409374919, 3409374920, 3409374921, 3409374922, 3409374919], "tags": {"addr:city": "\u041e\u043f\u0448\u0442\u0438\u043d\u0430 \u0421\u0440\u0431\u043e\u0431\u0440\u0430\u043d", "addr:housenumber": "2v", "addr:postcode": "21480", "addr:street": "\u041b\u0430\u0437\u0435 \u041a\u043e\u0441\u0442\u0438\u045b\u0430", "amenity": "pharmacy", "building": "yes", "healthcare": "pharmacy"}}, {"type": "way", "id": 375830835, "nodes": [11349185899, 11653337856, 3791712371, 3791712372, 3791712373, 11349185899], "tags": {"addr:housenumber": "18b", "addr:street": "\u041f\u0435\u0442\u0435\u0444\u0438 \u0428\u0430\u043d\u0434\u043e\u0440\u0430", "amenity": "pharmacy", "building": "yes", "healthcare": "pharmacy", "ref:RS:kucni_broj": "4419079"}}, {"type": "way", "id": 810314356, "nodes": [7576021975, 7576021976, 7576021977, 7576021978, 7576021975], "tags": {"amenity": "pharmacy", "building": "yes", "dispensing": "yes", "healthcare": "pharmacy", "name": "Zdravlje"}}]}