{"version": 0.6, "generator": "Overpass API 0.7.62.8 e802775f", "osm3s": {"timestamp_osm_base": "2025-10-06T08:19:02Z", "copyright": "The data included in this document is from www.openstreetmap.org. The data is made available under ODbL."}, "elements": [{"type": "node", "id": 1014499706, "lat": 53.0238852, "lon": 18.6752362}, {"type": "node", "id": 1046988461, "lat": 53.0229269, "lon": 18.6764218, "tags": {"addr:city": "Toru\u0144", "addr:housenumber": "10", "addr:street": "Konstytucji 3 Maja", "amenity": "pharmacy", "brand": "Gemini", "brand:wikidata": "Q130243797", "dispensing": "yes", "healthcare": "pharmacy", "name": "Gemini", "ref:csioz": "1206135"}}, {"type": "node", "id": 1112608708, "lat": 53.0323726, "lon": 18.6019941, "tags": {"addr:city": "Toru\u0144", "addr:housenumber": "216e", "addr:postcode": "87-100", "addr:street": "Legion\u00f3w", "amenity": "pharmacy", "dispensing": "yes", "healthcare": "pharmacy", "name": "Na Koniuchach", "ref:csioz": "1102885", "wheelchair": "yes"}}, {"type": "node", "id": 1185003966, "lat": 53.0154546, "lon": 18.6046955, "tags": {"amenity": "pharmacy", "dispensing": "yes", "healthcare": "pharmacy", "name": "Puls Uniwersytecka", "ref:csioz": "1103179"}}, {"type": "node", "id": 1481533187, "lat": 52.8761731, "lon": 18.6920035}, {"type": "node", "id": 1481533189, "lat": 52.8761923, "lon": 18.6916938}, {"type": "node", "id": 1481533192, "lat": 52.8761001, "lon": 18.6917892}, {"type": "node", "id": 1481533199, "lat": 52.8762688, "lon": 18.6918998}, {"type": "node", "id": 1709747136, "lat": 53.0259144, "lon": 18.6008761, "tags": {"addr:city": "Toru\u0144", "addr:housenumber": "47/49", "addr:postcode": "87-100", "addr:street": "J\u00f3zefa Wybickiego", "amenity": "pharmacy", "dispensing": "yes", "healthcare": "pharmacy", "name": "Nova S.C.", "opening_hours": "Mo-Fr 08:30-19:00;Sa 09:00-15:00", "operator": "M. Czubak", "phone": "+48 56 655 23 83", "ref:csioz": "1103002", "website": "http://www.aptekanova.com/", "wheelchair": "yes"}}, {"type": "node", "id": 1899756255, "lat": 52.8705529, "lon": 18.7006198}, {"type": "node", "id": 1899756257, "lat": 52.8706051, "lon": 18.7007247}, {"type": "node", "id": 1899756261, "lat": 52.8706891, "lon": 18.7006088}, {"type": "node", "id": 2151498303, "lat": 53.0286053, "lon": 18.5840527, "tags": {"amenity": "pharmacy", "brand": "Dbam o Zdrowie", "brand:wikidata": "Q62563833", "dispensing": "yes", "healthcare": "pharmacy", "name": "Dbam o Zdrowie", "ref:csioz": "1101094", "short_name": "DOZ", "website": "http://www.euroapteka.pl/pl/"}}, {"type": "node", "id": 2166841957, "lat": 52.8762642, "lon": 18.6917879}, {"type": "node", "id": 2399005683, "lat": 52.7943232, "lon": 18.2655825, "tags": {"addr:city": "Inowroc\u0142aw", "addr:housenumber": "19", "addr:postcode": "88-100", "addr:street": "Andrzeja", "amenity": "pharmacy", "brand": "Ziko Apteka", "brand:wikidata": "Q63432892", "description": "Ziko Apteka zlokalizowana jest w Inowroc\u0142awiu przy ulicy Andrzeja 19. Czynna jest przez 6 dni w tygodniu \u2013 od poniedzia\u0142ku do soboty. W niedziele plac\u00f3wka jest nieczynna.", "dispensing": "yes", "healthcare": "pharmacy", "name": "Ziko Apteka", "opening_hours": "Mo-Fr 08:00-20:00, Sa 08:00-15:00", "payment:cash": "yes", "payment:coins": "yes", "payment:mastercard": "yes", "payment:visa": "yes", "phone": "+48 12 687 57 47", "ref:csioz": "1179834", "short_name": "Ziko", "website": "https://www.ziko.pl/inowroclaw-apteki-drogerie-ziko/Andrzeja-19/"}}, {"type": "node", "id": 2483392922, "lat": 53.0104843, "lon": 18.6062855, "tags": {"addr:city": "Toru\u0144", "addr:housenumber": "30", "addr:postcode": "87-100", "addr:street": "Szeroka", "amenity": "pharmacy", "dispensing": "yes", "healthcare": "pharmacy", "name": "Centralna", "opening_hours": "Mo-Fr 09:00-21:00; Sa 09:00-17:00", "phone": "+48 56 655 55 13", "ref:csioz": "1103217"}}, {"type": "node", "id": 2514824329, "lat": 53.0232763, "lon": 18.689918}, {"type": "node", "id": 2514824330, "lat": 53.0233032, "lon": 18.6900627}, {"type": "node", "id": 2590146694, "lat": 53.0232812, "lon": 18.6899948}, {"type": "node", "id": 2590146698, "lat": 53.0233303, "lon": 18.6898668}, {"type": "node", "id": 2590146705, "lat": 53.0233651, "lon": 18.6900543}, {"type": "node", "id": 2590146710, "lat": 53.0234142, "lon": 18.6899264}, {"type": "node", "id": 2590569599, "lat": 52.8767255, "lon": 18.7009218}, {"type": "node", "id": 2590569600, "lat": 52.8765852, "lon": 18.7009567}, {"type": "node", "id": 2590569602, "lat": 52.8767426, "lon": 18.701091}, {"type": "node", "id": 2793695193, "lat": 52.7952456, "lon": 18.2583118, "tags": {"addr:city": "Inowroc\u0142aw", "addr:housenumber": "15", "addr:postcode": "88-100", "addr:street": "Wodna", "amenity": "pharmacy", "brand": "Dbam o Zdrowie", "brand:wikidata": "Q62563833", "dispensing": "yes", "healthcare": "pharmacy", "name": "Dbam o Zdrowie", "opening_hours": "Mo-Fr 08:00-20:00; Sa 08:00-15:00", "phone": "+48 52 3532487", "ref:csioz": "1101204", "short_name": "DOZ", "source:addr": "EMUiA (emuia.gugik.gov.pl)"}}, {"type": "node", "id": 3050855565, "lat": 52.8764377, "lon": 18.787213}, {"type": "node", "id": 3050855566, "lat": 52.8765085, "lon": 18.7872898}, {"type": "node", "id": 3050855567, "lat": 52.8765861, "lon": 18.787019}, {"type": "node", "id": 3050855568, "lat": 52.8765166, "lon": 18.7869435}, {"type": "node", "id": 3117025866, "lat": 52.874216, "lon": 18.6960113, "tags": {"addr:city": "Aleksandr\u00f3w Kujawski", "addr:housenumber": "43", "addr:postcode": "87-700", "addr:street": "Juliusza S\u0142owackiego", "amenity": "pharmacy", "dispensing": "yes", "name": "Aloes", "ref:csioz": "1103859"}}, {"type": "node", "id": 3149770899, "lat": 53.0232871, "lon": 18.6899761}, {"type": "node", "id": 3149770900, "lat": 53.0232924, "lon": 18.6900046}, {"type": "node", "id": 3149770901, "lat": 53.0233149, "lon": 18.6898982}, {"type": "node", "id": 3149770902, "lat": 53.0233418, "lon": 18.6900429}, {"type": "node", "id": 3149770903, "lat": 53.0233535, "lon": 18.6898783}, {"type": "node", "id": 3149770905, "lat": 53.0233804, "lon": 18.690023}, {"type": "node", "id": 3149770906, "lat": 53.0233922, "lon": 18.6898585}, {"type": "node", "id": 3149770907, "lat": 53.023403, "lon": 18.6899165}, {"type": "node", "id": 3149770908, "lat": 53.0234083, "lon": 18.6899451}, {"type": "node", "id": 3149770909, "lat": 53.0234191, "lon": 18.6900032}, {"type": "node", "id": 3331750645, "lat": 53.0263485, "lon": 18.6174619, "tags": {"addr:city": "Toru\u0144", "addr:housenumber": "26", "addr:postcode": "87-100", "addr:street": "\u015awi\u0119tope\u0142ka", "amenity": "pharmacy", "dispensing": "yes", "healthcare": "pharmacy", "name": "Puls \u015awi\u0119tope\u0142ka", "opening_hours": "Mo-Fr 08:00-19:00; Sa 08:00-15:00", "ref:csioz": "1102960", "wheelchair": "yes"}}, {"type": "node", "id": 3667203507, "lat": 52.8000933, "lon": 18.2577189, "tags": {"amenity": "pharmacy", "dispensing": "yes", "healthcare": "pharmacy", "name": "Z U\u015bmiechem", "ref:csioz": "1100992"}}, {"type": "node", "id": 3859727058, "lat": 53.0247037, "lon": 18.638265}, {"type": "node", "id": 3859727059, "lat": 53.0247045, "lon": 18.6380871}, {"type": "node", "id": 4475049404, "lat": 52.8007983, "lon": 18.2528983, "tags": {"amenity": "pharmacy", "dispensing": "yes", "healthcare": "pharmacy", "name": "Alba", "opening_hours": "24/7", "ref:csioz": "1100479"}}, {"type": "node", "id": 4475469213, "lat": 52.780683, "lon": 18.2432558, "tags": {"addr:city": "Inowroc\u0142aw", "addr:housenumber": "18", "addr:street": "Szarych Szereg\u00f3w", "amenity": "pharmacy", "brand": "Dbam o Zdrowie", "brand:wikidata": "Q62563833", "dispensing": "yes", "healthcare": "pharmacy", "name": "Dbam o Zdrowie", "ref:csioz": "1101396", "short_name": "DOZ"}}, {"type": "node", "id": 4675178603, "lat": 52.8716487, "lon": 18.784973}, {"type": "node", "id": 4675178604, "lat": 52.8715088, "lon": 18.7848184}, {"type": "node", "id": 4675178605, "lat": 52.8714287, "lon": 18.7850589}, {"type": "node", "id": 4675178606, "lat": 52.8715152, "lon": 18.7851541}, {"type": "node", "id": 4675178607, "lat": 52.8715373, "lon": 18.7850988}, {"type": "node", "id": 4675178608, "lat": 52.8715795, "lon": 18.7851453}, {"type": "node", "id": 4854289271, "lat": 52.8715771, "lon": 18.7849165}, {"type": "node", "id": 4854289272, "lat": 52.8715991, "lon": 18.7849407}, {"type": "node", "id": 4854289273, "lat": 52.8716053, "lon": 18.7849253}, {"type": "node", "id": 4854289274, "lat": 52.8715835, "lon": 18.7849006}, {"type": "node", "id": 4854289275, "lat": 52.8714705, "lon": 18.7849548}, {"type": "node", "id": 4854289276, "lat": 52.8714591, "lon": 18.7849423}, {"type": "node", "id": 4875540275, "lat": 52.8722291, "lon": 18.8101412, "tags": {"addr:city": "Ciechocinek", "addr:housenumber": "2", "addr:postcode": "87-720", "addr:street": "Aleja 700-lecia", "amenity": "pharmacy", "dispensing": "yes", "name": "Doz Apteka. Dbam O Zdrowie S\u0142oneczna\"\"", "opening_hours": "Mo-Fr 08:00-20:00; Sa 09;00-17:00", "ref:csioz": "1104863"}}, {"type": "node", "id": 4900478852, "lat": 52.8765347, "lon": 18.7872236}, {"type": "node", "id": 4900478853, "lat": 52.8765412, "lon": 18.7872307}, {"type": "node", "id": 4900478854, "lat": 52.8765582, "lon": 18.787188}, {"type": "node", "id": 4900478855, "lat": 52.8765717, "lon": 18.7872027}, {"type": "node", "id": 4900478856, "lat": 52.8765876, "lon": 18.7871626}, {"type": "node", "id": 4900478857, "lat": 52.8765731, "lon": 18.7871469}, {"type": "node", "id": 4900478858, "lat": 52.8765933, "lon": 18.7870958}, {"type": "node", "id": 4900478859, "lat": 52.876567, "lon": 18.7870673}, {"type": "node", "id": 4900478860, "lat": 52.8764943, "lon": 18.7870001}, {"type": "node", "id": 4900478861, "lat": 52.8765066, "lon": 18.7870135}, {"type": "node", "id": 4900478862, "lat": 52.8764565, "lon": 18.7871402}, {"type": "node", "id": 4900478863, "lat": 52.8764635, "lon": 18.7871477}, {"type": "node", "id": 4953630193, "lat": 53.1468811, "lon": 18.1514747, "tags": {"addr:city": "Bydgoszcz", "addr:housenumber": "9", "addr:postcode": "85-792", "addr:street": "Ewy Szelburg-Zarembiny", "amenity": "pharmacy", "dispensing": "yes", "drive_through": "no", "healthcare": "pharmacy", "name": "Apteka Bajka", "opening_hours": "24/7", "ref:csioz": "1098725"}}, {"type": "node", "id": 5127863485, "lat": 53.0282876, "lon": 18.6745241, "tags": {"addr:city": "Toru\u0144", "addr:housenumber": "23", "addr:postcode": "87-100", "addr:street": "W\u0142adys\u0142awa Dziewulskiego", "amenity": "pharmacy", "dispensing": "yes", "healthcare": "pharmacy", "name": "Zdrufko", "phone": "+48 56 623 85 66", "ref:csioz": "1197822"}}, {"type": "node", "id": 5189945476, "lat": 52.8041772, "lon": 18.2450254, "tags": {"amenity": "pharmacy", "brand": "Eskulap", "dispensing": "yes", "healthcare": "pharmacy", "name": "Eskulap", "ref:csioz": "1100134"}}, {"type": "node", "id": 5834274595, "lat": 52.8763536, "lon": 18.6980823, "tags": {"addr:city": "Aleksandr\u00f3w Kujawski", "addr:housenumber": "17", "addr:postcode": "87-700", "addr:street": "Wojska Polskiego", "amenity": "pharmacy", "dispensing": "yes", "drive_through": "no", "healthcare": "pharmacy", "level": "0", "name": "Aspirynka Centrum Lek\u00f3w", "opening_hours": "Mo-Fr 08:00-19:00; Sa 08:00-14:00", "payment:cash": "yes", "payment:coins": "yes", "payment:credit_cards": "yes", "payment:mastercard": "yes", "payment:visa": "yes", "ref:csioz": "1204574"}}, {"type": "node", "id": 5926494376, "lat": 52.7779809, "lon": 18.5376693, "tags": {"amenity": "pharmacy", "dispensing": "yes", "healthcare": "pharmacy", "name": "Vita", "ref:csioz": "1100877"}}, {"type": "node", "id": 5960097511, "lat": 52.8030578, "lon": 18.3990244, "tags": {"amenity": "pharmacy", "check_date:opening_hours": "2022-07-05", "dispensing": "yes", "healthcare": "pharmacy", "name": "Punkt Apteczny Parchanie", "opening_hours": "Mo-Fr 08:00-14:30", "ref:csioz": "1225239"}}, {"type": "node", "id": 5971401250, "lat": 53.0467506, "lon": 18.5779817, "tags": {"addr:city": "Toru\u0144", "addr:housenumber": "254/258", "addr:postcode": "87-100", "addr:street": "Szosa Che\u0142mi\u0144ska", "amenity": "pharmacy", "dispensing": "yes", "drive_through": "no", "healthcare": "pharmacy", "name": "Apteka Puls", "payment:cash": "yes", "ref:csioz": "1215237"}}, {"type": "node", "id": 6382729363, "lat": 52.7836851, "lon": 18.2395344, "tags": {"amenity": "pharmacy", "brand": "Dr. Max", "brand:wikidata": "Q56317371", "dispensing": "yes", "healthcare": "pharmacy", "name": "Dr. Max", "ref:csioz": "1175169"}}, {"type": "node", "id": 6382755567, "lat": 52.7863254, "lon": 18.2509613, "tags": {"amenity": "pharmacy", "dispensing": "yes", "healthcare": "pharmacy", "name": "Przyjazna", "opening_hours": "Mo-Fr 07:30-20:00; Sa 07:30-14:00", "ref:csioz": "1211868"}}, {"type": "node", "id": 6382759587, "lat": 52.7862848, "lon": 18.2514038, "tags": {"amenity": "pharmacy", "dispensing": "yes", "healthcare": "pharmacy", "name": "Gemini", "ref:csioz": "1215352"}}, {"type": "node", "id": 6547197819, "lat": 52.8794787, "lon": 18.7899453}, {"type": "node", "id": 6547197824, "lat": 52.8793598, "lon": 18.7901048}, {"type": "node", "id": 6547197827, "lat": 52.8793666, "lon": 18.7900051}, {"type": "node", "id": 6547197829, "lat": 52.8794348, "lon": 18.7901842}, {"type": "node", "id": 6547197830, "lat": 52.879358, "lon": 18.790111}, {"type": "node", "id": 6547197833, "lat": 52.879412, "lon": 18.789882}, {"type": "node", "id": 6611367054, "lat": 53.0410695, "lon": 18.5996755, "tags": {"addr:city": "Toru\u0144", "addr:housenumber": "2", "addr:postcode": "87-100", "addr:street": "\u0141ukasza Watzenrodego", "amenity": "pharmacy", "dispensing": "yes", "healthcare": "pharmacy", "name": "Apteka Mika", "ref:csioz": "1222511"}}, {"type": "node", "id": 6779957658, "lat": 53.0216337, "lon": 18.6211912, "tags": {"addr:city": "Toru\u0144", "addr:housenumber": "40a", "addr:postcode": "87-100", "addr:street": "Ba\u017cy\u0144skich", "amenity": "pharmacy", "dispensing": "yes", "healthcare": "pharmacy", "name": "Apteka Prima", "opening_hours": "Mo-Fr 08:00-20:00; Sa 08:00-16:00; PH,Su off", "ref:csioz": "1103122"}}, {"type": "node", "id": 7166495720, "lat": 53.0374115, "lon": 18.6570991, "tags": {"amenity": "pharmacy", "dispensing": "yes", "drive_through": "no", "healthcare": "pharmacy", "name": "Cito", "ref:csioz": "1103106"}}, {"type": "node", "id": 8142105759, "lat": 53.191249, "lon": 18.6131649, "tags": {"addr:city": "Che\u0142m\u017ca", "addr:housenumber": "13", "addr:postcode": "87-140", "addr:street": "Che\u0142mi\u0144skie Przedmie\u015bcie", "amenity": "pharmacy", "dispensing": "yes", "drive_through": "no", "healthcare": "pharmacy", "name": "Che\u0142mi\u0144ska", "opening_hours": "Mo-Fr 08:00-20:00; Sa 08:00-15:00", "ref:csioz": "1214505"}}, {"type": "node", "id": 8191721041, "lat": 53.0277036, "lon": 18.6723792, "tags": {"addr:city": "Toru\u0144", "addr:housenumber": "12", "addr:postcode": "87-100", "addr:street": "W\u0142adys\u0142awa Dziewulskiego", "amenity": "pharmacy", "brand": "Dbam o Zdrowie", "brand:wikidata": "Q62563833", "dispensing": "yes", "healthcare": "pharmacy", "level": "0", "name": "Dbam o Zdrowie", "opening_hours": "Mo-Fr 08:00-20:00; Sa 08:00-16:00", "payment:cash": "yes", "payment:contactless": "yes", "phone": "800110110", "ref:csioz": "1101413", "short_name": "DOZ", "website": "https://www.doz.pl/apteki/a123177-DOZ_Apteka_Dbam_o_Zdrowie", "wheelchair": "yes"}}, {"type": "node", "id": 8491717975, "lat": 52.8455924, "lon": 18.3347033, "tags": {"amenity": "pharmacy", "dispensing": "yes", "healthcare": "pharmacy", "name": "Punkt Apteczny", "ref:csioz": "1229648"}}, {"type": "node", "id": 8683019129, "lat": 53.0266065, "lon": 18.6524011, "tags": {"addr:city": "Toru\u0144", "addr:housenumber": "3", "addr:postcode": "87-100", "addr:street": "Leszczynowa", "amenity": "pharmacy", "dispensing": "yes", "healthcare": "pharmacy", "name": "Apteka Zdrufko", "phone": "+48566232936", "ref:csioz": "1188830"}}, {"type": "node", "id": 9308320028, "lat": 53.0115196, "lon": 18.6186696, "tags": {"addr:city": "Toru\u0144", "addr:housenumber": "4", "addr:postcode": "87-100", "addr:street": "Plac 18 Stycznia", "amenity": "pharmacy", "dispensing": "yes", "healthcare": "pharmacy", "name": "Euro Apteka", "ref:csioz": "1101107"}}, {"type": "node", "id": 9343050436, "lat": 53.0244326, "lon": 18.610365, "tags": {"addr:city": "Toru\u0144", "addr:housenumber": "29-43", "addr:postcode": "87-100", "addr:street": "Joachima Lelewela", "amenity": "pharmacy", "brand": "Dbam o Zdrowie", "brand:wikidata": "Q62563833", "dispensing": "yes", "healthcare": "pharmacy", "name": "Dbam o Zdrowie", "opening_hours": "24/7", "ref:csioz": "1101421", "short_name": "DOZ", "wheelchair": "yes"}}, {"type": "node", "id": 9529536233, "lat": 53.025338, "lon": 18.7707059, "tags": {"addr:city": "Lubicz G\u00f3rny", "addr:housenumber": "3", "addr:postcode": "87-162", "addr:street": "Bankowa", "amenity": "pharmacy", "dispensing": "yes", "healthcare": "pharmacy", "name": "Lubicz", "ref:csioz": "1103757"}}, {"type": "node", "id": 9529536992, "lat": 53.0231428, "lon": 18.6770272, "tags": {"addr:city": "Toru\u0144", "addr:housenumber": "10", "addr:postcode": "87-100", "addr:street": "Konstytucji 3 Maja", "amenity": "pharmacy", "brand": "Dbam o Zdrowie", "brand:wikidata": "Q62563833", "dispensing": "yes", "healthcare": "pharmacy", "name": "Dbam o Zdrowie", "ref:csioz": "1178634", "short_name": "DOZ"}}, {"type": "node", "id": 9592215296, "lat": 53.1820098, "lon": 18.6065575, "tags": {"addr:city": "Che\u0142m\u017ca", "addr:housenumber": "4", "addr:postcode": "87-140", "addr:street": "Tadeusza Ko\u015bciuszki", "amenity": "pharmacy", "dispensing": "yes", "name": "Puls 7", "ref:csioz": "1119638"}}, {"type": "node", "id": 9592256180, "lat": 53.0228891, "lon": 18.7694454, "tags": {"addr:city": "Lubicz G\u00f3rny", "addr:housenumber": "3", "addr:postcode": "87-162", "addr:street": "Ignacego Jana Paderewskiego", "amenity": "pharmacy", "dispensing": "yes", "healthcare": "pharmacy", "name": "Apteka Puls", "ref:csioz": "1215245"}}, {"type": "node", "id": 9592256268, "lat": 52.9900747, "lon": 18.5358308, "tags": {"addr:city": "Ma\u0142a Nieszawka", "addr:housenumber": "112", "addr:postcode": "87-103", "addr:street": "Toru\u0144ska", "amenity": "pharmacy", "branch": "Punkt Apteczny Dbam O Zdrowie Zdr\u00f3wko 1", "brand": "Dbam o Zdrowie", "brand:wikidata": "Q62563833", "dispensing": "yes", "healthcare": "pharmacy", "name": "Dbam o Zdrowie", "ref:csioz": "1211439", "short_name": "DOZ"}}, {"type": "node", "id": 9592256269, "lat": 53.057521, "lon": 18.4193098, "tags": {"addr:city": "G\u00f3rsk", "addr:housenumber": "2A", "addr:postcode": "87-134", "addr:street": "S\u0142oneczna", "amenity": "pharmacy", "dispensing": "yes", "healthcare": "pharmacy", "name": "Punkt apteczny S\u0142oneczny", "ref:csioz": "1208467"}}, {"type": "node", "id": 9592273393, "lat": 53.1070899, "lon": 18.7328416, "tags": {"addr:city": "Turzno", "addr:housenumber": "1", "addr:postcode": "87-148", "addr:street": "Osiedlowa", "amenity": "pharmacy", "dispensing": "yes", "healthcare": "pharmacy", "name": "Pod R\u00f3\u017cami", "ref:csioz": "1103314"}}, {"type": "node", "id": 9592277142, "lat": 53.1863302, "lon": 18.6114135, "tags": {"addr:city": "Che\u0142m\u017ca", "addr:housenumber": "13", "addr:postcode": "87-140", "addr:street": "Rynek", "amenity": "pharmacy", "dispensing": "yes", "name": "Pod Or\u0142em", "ref:csioz": "1102466"}}, {"type": "node", "id": 9592280503, "lat": 53.0262721, "lon": 18.7696562, "tags": {"addr:city": "Lubicz G\u00f3rny", "addr:housenumber": "58", "addr:postcode": "87-162", "addr:street": "Lipnowska", "amenity": "pharmacy", "dispensing": "yes", "healthcare": "pharmacy", "name": "Nad Drw\u0119c\u0105", "ref:csioz": "1102873"}}, {"type": "node", "id": 9592283148, "lat": 53.0572522, "lon": 18.7203158, "tags": {"addr:city": "Gr\u0119bocin", "addr:housenumber": "6", "addr:postcode": "87-122", "addr:street": "Kowalewska", "amenity": "pharmacy", "dispensing": "yes", "healthcare": "pharmacy", "name": "Apteka Dla Ciebie", "opening_hours": "Mo-Fr 08:00-18:00; Sa 08:00-16:00", "ref:csioz": "1197229"}}, {"type": "node", "id": 9592283200, "lat": 53.0075261, "lon": 18.8355988, "tags": {"addr:housenumber": "62B", "addr:place": "Dobrzejewice", "addr:postcode": "87-123", "amenity": "pharmacy", "dispensing": "yes", "healthcare": "pharmacy", "name": "Puls 9", "ref:csioz": "1102523"}}, {"type": "node", "id": 9592286305, "lat": 53.0314009, "lon": 18.500069, "tags": {"addr:city": "Przysiek", "addr:housenumber": "3C", "addr:postcode": "87-134", "addr:street": "Le\u015bna", "amenity": "pharmacy", "dispensing": "yes", "healthcare": "pharmacy", "name": "Przysiek", "ref:csioz": "1206376"}}, {"type": "node", "id": 9592289883, "lat": 53.2084317, "lon": 18.7137875, "tags": {"addr:housenumber": "8", "addr:place": "Zelgno", "addr:postcode": "87-141", "amenity": "pharmacy", "dispensing": "yes", "name": "Nagietek", "ref:csioz": "1103372"}}, {"type": "node", "id": 9592289902, "lat": 52.9964451, "lon": 18.5098946, "tags": {"addr:city": "Wielka Nieszawka", "addr:housenumber": "14", "addr:postcode": "87-165", "addr:street": "Toru\u0144ska", "amenity": "pharmacy", "dispensing": "yes", "name": "Pod \u0141ab\u0119dziem", "ref:csioz": "1105357"}}, {"type": "node", "id": 9592306841, "lat": 53.184848, "lon": 18.6048968, "tags": {"addr:city": "Che\u0142m\u017ca", "addr:housenumber": "30", "addr:postcode": "87-140", "addr:street": "Genera\u0142a W\u0142adys\u0142awa Sikorskiego", "amenity": "pharmacy", "dispensing": "yes", "name": "Apteka Dbam O Zdrowie", "ref:csioz": "1101437"}}, {"type": "node", "id": 9592307756, "lat": 53.1370506, "lon": 18.4819817, "tags": {"addr:city": "\u0141ubianka", "addr:housenumber": "6", "addr:postcode": "87-152", "addr:street": "Toru\u0144ska", "amenity": "pharmacy", "dispensing": "yes", "name": "Eskulap", "ref:csioz": "1105244"}}, {"type": "node", "id": 9592308439, "lat": 53.0242784, "lon": 18.8083292, "tags": {"addr:city": "Brzoz\u00f3wka", "addr:housenumber": "43", "addr:postcode": "87-123", "addr:street": "Owocowa", "amenity": "pharmacy", "dispensing": "yes", "healthcare": "pharmacy", "name": "Punkt Apteczny Brzoz\u00f3wka", "opening_hours": "Mo-Fr 08:00-20:00; Sa 08:00-18:00; Su,PH 10:00-15:00", "ref:csioz": "1110543"}}, {"type": "node", "id": 9592311130, "lat": 53.1195351, "lon": 18.5001524, "tags": {"addr:city": "\u0141ubianka", "addr:housenumber": "97", "addr:postcode": "87-152", "addr:street": "Toru\u0144ska", "amenity": "pharmacy", "dispensing": "yes", "name": "Valeriana", "ref:csioz": "1102939"}}, {"type": "node", "id": 9592315442, "lat": 53.1834788, "lon": 18.6018637, "tags": {"addr:city": "Che\u0142m\u017ca", "addr:housenumber": "50", "addr:postcode": "87-140", "addr:street": "Genera\u0142a W\u0142adys\u0142awa Sikorskiego", "amenity": "pharmacy", "dispensing": "yes", "name": "Nova", "ref:csioz": "1102477"}}, {"type": "node", "id": 9592347428, "lat": 52.92627, "lon": 18.8058586, "tags": {"addr:city": "Osiek nad Wis\u0142\u0105", "addr:housenumber": "4", "addr:postcode": "87-125", "addr:street": "Handlowa", "amenity": "pharmacy", "dispensing": "yes", "healthcare": "pharmacy", "name": "Zdr\u00f3wko", "ref:csioz": "1210139"}}, {"type": "node", "id": 9595754800, "lat": 53.137232, "lon": 18.1138557, "tags": {"addr:city": "Bydgoszcz", "addr:housenumber": "3", "addr:postcode": "85-791", "addr:street": "Mariana Rejewskiego", "amenity": "pharmacy", "dispensing": "yes", "healthcare": "pharmacy", "name": "Apteka Sativa", "ref:csioz": "1101317"}}, {"type": "node", "id": 9595850498, "lat": 53.1513717, "lon": 18.1757477, "tags": {"addr:city": "Bydgoszcz", "addr:housenumber": "13", "addr:postcode": "85-790", "addr:street": "Piel\u0119gniarska", "amenity": "pharmacy", "dispensing": "yes", "name": "Alba V", "ref:csioz": "1100433"}}, {"type": "node", "id": 9595858854, "lat": 53.1422987, "lon": 18.1507757, "tags": {"addr:city": "Bydgoszcz", "addr:housenumber": "410", "addr:postcode": "85-790", "addr:street": "Fordo\u0144ska", "amenity": "pharmacy", "dispensing": "yes", "healthcare": "pharmacy", "name": "Z U\u015bmiechem", "ref:csioz": "1186083"}}, {"type": "node", "id": 9601003012, "lat": 53.0277284, "lon": 18.6926415, "tags": {"addr:city": "Toru\u0144", "addr:housenumber": "4", "addr:postcode": "87-100", "addr:street": "Kosynier\u00f3w Ko\u015bciuszkowskich", "amenity": "pharmacy", "brand": "Dr. Max", "brand:wikidata": "Q56317371", "dispensing": "yes", "healthcare": "pharmacy", "name": "Dr. Max", "ref:csioz": "1103681"}}, {"type": "node", "id": 9601048687, "lat": 53.0312333, "lon": 18.604388, "tags": {"addr:city": "Toru\u0144", "addr:housenumber": "14", "addr:postcode": "87-100", "addr:street": "\u015awi\u0119tej Faustyny", "amenity": "pharmacy", "dispensing": "yes", "healthcare": "pharmacy", "name": "\u015aw. Faustyny", "opening_hours": "24/7", "ref:csioz": "1101330"}}, {"type": "node", "id": 9601060787, "lat": 53.0108409, "lon": 18.6089423, "tags": {"addr:city": "Toru\u0144", "addr:housenumber": "26", "addr:postcode": "87-100", "addr:street": "Kr\u00f3lowej Jadwigi", "amenity": "pharmacy", "dispensing": "yes", "healthcare": "pharmacy", "name": "Medapteka", "ref:csioz": "1173919"}}, {"type": "node", "id": 9601067072, "lat": 53.0296227, "lon": 18.6534213, "tags": {"addr:city": "Toru\u0144", "addr:housenumber": "26B", "addr:postcode": "87-100", "addr:street": "Ludwika Rydygiera", "amenity": "pharmacy", "dispensing": "yes", "healthcare": "pharmacy", "name": "Apteka Puls", "opening_hours": "Mo-Fr 08:00-20:00; Sa 08:00-18:00; Su 09:00-16:00", "ref:csioz": "1208173"}}, {"type": "node", "id": 9601068156, "lat": 52.9943705, "lon": 18.6177623, "tags": {"addr:city": "Toru\u0144", "addr:housenumber": "5", "addr:postcode": "87-100", "addr:street": "Powsta\u0144c\u00f3w \u015al\u0105skich", "amenity": "pharmacy", "dispensing": "yes", "healthcare": "pharmacy", "name": "Pod S\u0142o\u0144cem", "ref:csioz": "1103249"}}, {"type": "node", "id": 9601090387, "lat": 53.011111, "lon": 18.6097021, "tags": {"addr:city": "Toru\u0144", "addr:housenumber": "9", "addr:postcode": "87-100", "addr:street": "Kr\u00f3lowej Jadwigi", "amenity": "pharmacy", "brand": "Gemini", "brand:wikidata": "Q130243797", "dispensing": "yes", "healthcare": "pharmacy", "name": "Gemini", "ref:csioz": "1193017"}}, {"type": "node", "id": 9601093978, "lat": 53.0225002, "lon": 18.5956235, "tags": {"addr:city": "Toru\u0144", "addr:housenumber": "84/86", "addr:postcode": "87-100", "addr:street": "Szosa Che\u0142mi\u0144ska", "amenity": "pharmacy", "dispensing": "yes", "healthcare": "pharmacy", "name": "Toru\u0144ska", "opening_hours": "Mo-Fr 08:00-20:00; Sa 08:00-14:00", "ref:csioz": "1103799"}}, {"type": "node", "id": 9601125298, "lat": 53.0307153, "lon": 18.6619016, "tags": {"addr:city": "Toru\u0144", "addr:housenumber": "4", "addr:postcode": "87-100", "addr:street": "Franciszka Tadeusza Rakowicza", "amenity": "pharmacy", "dispensing": "yes", "healthcare": "pharmacy", "name": "Viola", "ref:csioz": "1221671"}}, {"type": "node", "id": 9601267965, "lat": 53.0282986, "lon": 18.6714399, "tags": {"addr:city": "Toru\u0144", "addr:housenumber": "8", "addr:postcode": "87-100", "addr:street": "W\u0142adys\u0142awa Dziewulskiego", "amenity": "pharmacy", "brand": "Gemini", "brand:wikidata": "Q130243797", "dispensing": "yes", "healthcare": "pharmacy", "name": "Gemini", "opening_hours": "Mo-Fr 07:30-20:00; Sa 08:00-16:00", "ref:csioz": "1209536"}}, {"type": "node", "id": 9601319476, "lat": 53.0287708, "lon": 18.6736725, "tags": {"addr:city": "Toru\u0144", "addr:housenumber": "21", "addr:postcode": "87-100", "addr:street": "W\u0142adys\u0142awa Dziewulskiego", "amenity": "pharmacy", "dispensing": "yes", "healthcare": "pharmacy", "name": "Medapteka", "ref:csioz": "1174500"}}, {"type": "node", "id": 9601440453, "lat": 53.0242062, "lon": 18.6814049, "tags": {"addr:city": "Toru\u0144", "addr:housenumber": "6", "addr:postcode": "87-100", "addr:street": "Kardyna\u0142a Stefana Wyszy\u0144skiego", "amenity": "pharmacy", "dispensing": "yes", "healthcare": "pharmacy", "name": "Herba Na Skarpie", "ref:csioz": "1103031"}}, {"type": "node", "id": 9601440454, "lat": 53.024003, "lon": 18.6823692, "tags": {"addr:city": "Toru\u0144", "addr:housenumber": "6", "addr:postcode": "87-100", "addr:street": "Kardyna\u0142a Stefana Wyszy\u0144skiego", "amenity": "pharmacy", "dispensing": "yes", "healthcare": "pharmacy", "name": "Medapteka", "opening_hours": "Mo-Fr 08:00-19:00; Sa 08:00-14:00", "ref:csioz": "1210074"}}, {"type": "node", "id": 9601490034, "lat": 53.0117567, "lon": 18.5833254, "tags": {"addr:city": "Toru\u0144", "addr:housenumber": "55", "addr:postcode": "87-100", "addr:street": "Adama Mickiewicza", "amenity": "pharmacy", "dispensing": "yes", "healthcare": "pharmacy", "name": "Eskulap", "opening_hours": "Mo-Fr 08:00-20:00; Sa 08:00-15:00", "ref:csioz": "1103140"}}, {"type": "node", "id": 9601498895, "lat": 53.0332655, "lon": 18.5878848, "tags": {"addr:city": "Toru\u0144", "addr:housenumber": "176", "addr:postcode": "87-100", "addr:street": "Szosa Che\u0142mi\u0144ska", "amenity": "pharmacy", "dispensing": "yes", "healthcare": "pharmacy", "name": "Z U\u015bmiechem", "ref:csioz": "1223379"}}, {"type": "node", "id": 9601659474, "lat": 53.0011679, "lon": 18.6420297, "tags": {"addr:city": "Toru\u0144", "addr:housenumber": "24a", "addr:postcode": "87-100", "addr:street": "Podg\u00f3rska", "amenity": "pharmacy", "dispensing": "yes", "healthcare": "pharmacy", "name": "Apteka Rudak", "ref:csioz": "1103748"}}, {"type": "node", "id": 9601687936, "lat": 53.02432, "lon": 18.6197191, "tags": {"addr:city": "Toru\u0144", "addr:housenumber": "43", "addr:postcode": "87-100", "addr:street": "Tadeusza Ko\u015bciuszki", "amenity": "pharmacy", "dispensing": "yes", "healthcare": "pharmacy", "name": "Apteka Pod \u0141ab\u0119dziem", "opening_hours": "Mo-Fr 08:00-20:00; Sa 08:00-15:00", "ref:csioz": "1103133"}}, {"type": "node", "id": 9601690512, "lat": 53.0119998, "lon": 18.5765172, "tags": {"addr:city": "Toru\u0144", "addr:housenumber": "116", "addr:postcode": "87-100", "addr:street": "Adama Mickiewicza", "amenity": "pharmacy", "dispensing": "yes", "healthcare": "pharmacy", "name": "Medapteka", "opening_hours": "Mo-Fr 08:00-19:00; Sa 08:00-14:00", "ref:csioz": "1187586"}}, {"type": "node", "id": 9601691033, "lat": 53.019702, "lon": 18.6178442, "tags": {"addr:city": "Toru\u0144", "addr:housenumber": "43", "addr:postcode": "87-100", "addr:street": "Wojska Polskiego", "amenity": "pharmacy", "dispensing": "yes", "healthcare": "pharmacy", "name": "Apteka Bliska Tobie", "ref:csioz": "1204719"}}, {"type": "node", "id": 9601691038, "lat": 53.0430874, "lon": 18.5800754, "tags": {"addr:city": "Toru\u0144", "addr:housenumber": "15", "addr:postcode": "87-100", "addr:street": "Migda\u0142owa", "amenity": "pharmacy", "dispensing": "yes", "healthcare": "pharmacy", "name": "Konwalia", "ref:csioz": "1102947"}}, {"type": "node", "id": 9601696595, "lat": 53.0179315, "lon": 18.5800031, "tags": {"addr:city": "Toru\u0144", "addr:housenumber": "212-216", "addr:postcode": "87-100", "addr:street": "Jurija Gagarina", "amenity": "pharmacy", "dispensing": "yes", "healthcare": "pharmacy", "name": "Apteka Akademicka Nowa Farmacja", "opening_hours": "Mo-Fr 08:00-19:00; Sa 09:00-14:00", "ref:csioz": "1103187"}}, {"type": "node", "id": 9601716679, "lat": 53.0253164, "lon": 18.6956063, "tags": {"addr:city": "Toru\u0144", "addr:housenumber": "13", "addr:postcode": "87-100", "addr:street": "Kosynier\u00f3w Ko\u015bciuszkowskich", "amenity": "pharmacy", "brand": "Dr. Max", "brand:wikidata": "Q56317371", "dispensing": "yes", "healthcare": "pharmacy", "name": "Dr. Max", "ref:csioz": "1103418"}}, {"type": "node", "id": 9601718818, "lat": 53.0128498, "lon": 18.5643832, "tags": {"addr:city": "Toru\u0144", "addr:housenumber": "26", "addr:postcode": "87-100", "addr:street": "Szosa Bydgoska", "amenity": "pharmacy", "brand": "Dr. Max", "brand:wikidata": "Q56317371", "dispensing": "yes", "healthcare": "pharmacy", "name": "Dr. Max", "ref:csioz": "1223387"}}, {"type": "node", "id": 9601720656, "lat": 53.0132046, "lon": 18.5709924, "tags": {"addr:city": "Toru\u0144", "addr:housenumber": "15", "addr:postcode": "87-100", "addr:street": "Miko\u0142aja Reja", "amenity": "pharmacy", "dispensing": "yes", "healthcare": "pharmacy", "name": "Apteka Z U\u015bmiechem", "opening_hours": "Mo-Sa 08:00-21:00; Su 09:00-20:00", "ref:csioz": "1101005"}}, {"type": "node", "id": 9601722955, "lat": 53.0212514, "lon": 18.6049282, "tags": {"addr:city": "Toru\u0144", "addr:housenumber": "2", "addr:postcode": "87-100", "addr:street": "Bartosza G\u0142owackiego", "amenity": "pharmacy", "dispensing": "yes", "healthcare": "pharmacy", "name": "Apteka Osiedlowa Nowa Farmacja", "opening_hours": "Mo-Fr 07:30-20:00; Sa 08:00-15:00", "ref:csioz": "1103111"}}, {"type": "node", "id": 9601729502, "lat": 53.0350118, "lon": 18.6148414, "tags": {"addr:city": "Toru\u0144", "addr:housenumber": "162", "addr:postcode": "87-100", "addr:street": "Grudzi\u0105dzka", "amenity": "pharmacy", "brand": "Dr. Max", "brand:wikidata": "Q56317371", "dispensing": "yes", "healthcare": "pharmacy", "name": "Dr. Max", "ref:csioz": "1103230"}}, {"type": "node", "id": 9601729503, "lat": 53.0117546, "lon": 18.5784832, "tags": {"addr:city": "Toru\u0144", "addr:housenumber": "79", "addr:postcode": "87-100", "addr:street": "Adama Mickiewicza", "amenity": "pharmacy", "brand": "Dr. Max", "brand:wikidata": "Q56317371", "healthcare": "pharmacy", "name": "Dr. Max", "opening_hours": "Mo-Fr 08:00-19:00; Sa 08:00-14:00", "ref:csioz": "1102740"}}, {"type": "node", "id": 9601730030, "lat": 53.0164241, "lon": 18.5894774, "tags": {"addr:city": "Toru\u0144", "addr:housenumber": "44-58", "addr:postcode": "87-100", "addr:street": "Genera\u0142a J\u00f3zefa Bema", "amenity": "pharmacy", "brand": "Dr. Max", "brand:wikidata": "Q56317371", "dispensing": "yes", "healthcare": "pharmacy", "name": "Dr. Max", "opening_hours": "Mo-Sa 08:00-21:00; Su 09:00-19:00", "ref:csioz": "1197961"}}, {"type": "node", "id": 9601738608, "lat": 53.0188236, "lon": 18.6801642, "tags": {"addr:city": "Toru\u0144", "addr:housenumber": "19", "addr:postcode": "87-100", "addr:street": "Kardyna\u0142a Stefana Wyszy\u0144skiego", "amenity": "pharmacy", "dispensing": "yes", "healthcare": "pharmacy", "name": "Z U\u015bmiechem", "ref:csioz": "1223365"}}, {"type": "node", "id": 9601740168, "lat": 53.024107, "lon": 18.6875159, "tags": {"addr:city": "Toru\u0144", "addr:housenumber": "12", "addr:postcode": "87-100", "addr:street": "Ligi Polskiej", "amenity": "pharmacy", "dispensing": "yes", "healthcare": "pharmacy", "name": "Apteka Zdrufko", "ref:csioz": "1206291"}}, {"type": "node", "id": 9601745561, "lat": 53.0119963, "lon": 18.5824493, "tags": {"addr:city": "Toru\u0144", "addr:housenumber": "80", "addr:postcode": "87-100", "addr:street": "Adama Mickiewicza", "amenity": "pharmacy", "dispensing": "yes", "healthcare": "pharmacy", "name": "Farma-Vita", "ref:csioz": "1103201"}}, {"type": "node", "id": 9601746342, "lat": 53.0148342, "lon": 18.5998518, "tags": {"addr:city": "Toru\u0144", "addr:housenumber": "1", "addr:postcode": "87-100", "addr:street": "Czerwona Droga", "addr:unit": "6", "amenity": "pharmacy", "brand": "Super-Pharm", "brand:en": "Super-Pharm", "brand:he": "\u05e1\u05d5\u05e4\u05e8-\u05e4\u05d0\u05e8\u05dd", "brand:wikidata": "Q13220217", "brand:wikipedia": "en:Super-Pharm", "dispensing": "yes", "healthcare": "pharmacy", "name": "Super-Pharm", "name:ar": "\u0633\u0648\u0628\u064a\u0631 \u0641\u0627\u0631\u0645", "name:en": "Super-Pharm", "name:he": "\u05e1\u05d5\u05e4\u05e8-\u05e4\u05d0\u05e8\u05dd", "name:ru": "\u0421\u0443\u043f\u0435\u0440-\u0424\u0430\u0440\u043c", "opening_hours": "Mo-Fr 09:00-20:30; Sa 09:00-13:45; PH off", "ref:csioz": "1103258"}}, {"type": "node", "id": 9601746914, "lat": 53.0155072, "lon": 18.5703492, "tags": {"addr:city": "Toru\u0144", "addr:housenumber": "34/46", "addr:postcode": "87-100", "addr:street": "Juliana Fa\u0142ata", "amenity": "pharmacy", "dispensing": "yes", "healthcare": "pharmacy", "name": "Apteka Puls 10", "opening_hours": "Mo-Fr 08:00-20:00; Sa 08:00-15:00", "ref:csioz": "1203416"}}, {"type": "node", "id": 9601747563, "lat": 53.0279563, "lon": 18.6574106, "tags": {"addr:city": "Toru\u0144", "addr:housenumber": "29", "addr:postcode": "87-100", "addr:street": "Ignacego \u0141yskowskiego", "amenity": "pharmacy", "dispensing": "yes", "name": "Im. J. Korczaka", "ref:csioz": "1102994"}}, {"type": "node", "id": 9601757077, "lat": 53.0143767, "lon": 18.5922081, "tags": {"addr:city": "Toru\u0144", "addr:housenumber": "32", "addr:postcode": "87-100", "addr:street": "J\u00f3zefa Ignacego Kraszewskiego", "amenity": "pharmacy", "dispensing": "yes", "healthcare": "pharmacy", "name": "Herba", "opening_hours": "Mo-Fr 08:00-20:00; Sa 09:00-15:00", "ref:csioz": "1103028"}}, {"type": "node", "id": 9601757276, "lat": 53.0114967, "lon": 18.6102973, "tags": {"addr:city": "Toru\u0144", "addr:housenumber": "13", "addr:postcode": "87-100", "addr:street": "Rynek Nowomiejski", "amenity": "pharmacy", "brand": "Dbam o Zdrowie", "brand:wikidata": "Q62563833", "check_date": "2024-08-02", "dispensing": "yes", "healthcare": "pharmacy", "name": "Dbam o Zdrowie", "panoramax": "e977713e-8d21-4238-a93b-f9327c90e4fb", "ref:csioz": "1101047", "short_name": "DOZ"}}, {"type": "node", "id": 9601761016, "lat": 53.0168998, "lon": 18.6350506, "tags": {"addr:city": "Toru\u0144", "addr:housenumber": "53", "addr:postcode": "87-100", "addr:street": "Lubicka", "amenity": "pharmacy", "dispensing": "yes", "healthcare": "pharmacy", "name": "Lubicka", "ref:csioz": "1224345"}}, {"type": "node", "id": 9601761755, "lat": 53.0256484, "lon": 18.6651089, "tags": {"addr:city": "Toru\u0144", "addr:housenumber": "8", "addr:postcode": "87-100", "addr:street": "Ignacego \u0141yskowskiego", "amenity": "pharmacy", "dispensing": "yes", "healthcare": "pharmacy", "name": "Apteka Dr. Max", "ref:csioz": "1102722"}}, {"type": "node", "id": 9601769104, "lat": 52.9936924, "lon": 18.5935474, "tags": {"addr:city": "Toru\u0144", "addr:housenumber": "73", "addr:postcode": "87-100", "addr:street": "Pozna\u0144ska", "amenity": "pharmacy", "dispensing": "yes", "healthcare": "pharmacy", "name": "Apteka Bliska Tobie", "opening_hours": "Mo-Fr 08:00-20:00", "ref:csioz": "1195271"}}, {"type": "node", "id": 9601773782, "lat": 53.0427943, "lon": 18.5807721, "tags": {"addr:city": "Toru\u0144", "addr:housenumber": "1", "addr:postcode": "87-100", "addr:street": "Kwiatowa", "amenity": "pharmacy", "dispensing": "yes", "healthcare": "pharmacy", "name": "Apteka Bliska Tobie", "ref:csioz": "1205510"}}, {"type": "node", "id": 9601784468, "lat": 53.0119936, "lon": 18.5796455, "tags": {"addr:city": "Toru\u0144", "addr:housenumber": "98", "addr:postcode": "87-100", "addr:street": "Adama Mickiewicza", "amenity": "pharmacy", "brand": "Dbam o Zdrowie", "brand:wikidata": "Q62563833", "dispensing": "yes", "healthcare": "pharmacy", "name": "Dbam o Zdrowie", "opening_hours": "Mo-Fr 08:00-20:00; Sa 08:00-16:00", "ref:csioz": "1099091", "short_name": "DOZ"}}, {"type": "node", "id": 9601787452, "lat": 52.9948694, "lon": 18.6008906, "tags": {"addr:city": "Toru\u0144", "addr:housenumber": "25-29", "addr:postcode": "87-100", "addr:street": "Pozna\u0144ska", "amenity": "pharmacy", "dispensing": "yes", "drive_through": "no", "healthcare": "pharmacy", "name": "Apteka Pogodna", "ref:csioz": "1175440"}}, {"type": "node", "id": 9601790821, "lat": 53.0148169, "lon": 18.5706075, "tags": {"addr:city": "Toru\u0144", "addr:housenumber": "35", "addr:postcode": "87-100", "addr:street": "Juliana Fa\u0142ata", "amenity": "pharmacy", "dispensing": "yes", "healthcare": "pharmacy", "name": "Bliska", "ref:csioz": "1167918"}}, {"type": "node", "id": 9601808024, "lat": 53.0164294, "lon": 18.6178868, "tags": {"addr:city": "Toru\u0144", "addr:housenumber": "1", "addr:postcode": "87-100", "addr:street": "Boles\u0142awa Chrobrego", "amenity": "pharmacy", "brand": "Dbam o Zdrowie", "brand:wikidata": "Q62563833", "dispensing": "yes", "healthcare": "pharmacy", "name": "Dbam o Zdrowie", "opening_hours": "Mo-Fr 08:00-18:00; Sa 09:00-15:00; PH,Su off", "ref:csioz": "1179161", "short_name": "DOZ"}}, {"type": "node", "id": 9607267188, "lat": 53.0763277, "lon": 18.22114, "tags": {"addr:city": "Solec Kujawski", "addr:housenumber": "12", "addr:postcode": "86-050", "addr:street": "Le\u015bna", "amenity": "pharmacy", "dispensing": "yes", "healthcare": "pharmacy", "name": "Wracam Do Zdrowia", "ref:csioz": "1101688"}}, {"type": "node", "id": 9607304027, "lat": 53.0822393, "lon": 18.2256771, "tags": {"addr:city": "Solec Kujawski", "addr:housenumber": "12", "addr:postcode": "86-050", "addr:street": "23 Stycznia", "amenity": "pharmacy", "dispensing": "yes", "name": "Pod Or\u0142em", "ref:csioz": "1101018"}}, {"type": "node", "id": 9607315575, "lat": 53.0764307, "lon": 18.2247017, "tags": {"addr:city": "Solec Kujawski", "addr:housenumber": "7A", "addr:postcode": "86-050", "addr:street": "Powsta\u0144c\u00f3w", "amenity": "pharmacy", "dispensing": "yes", "name": "Doz Dbam O Zdrowie. Apteka W Przychodni", "ref:csioz": "1186691"}}, {"type": "node", "id": 9607332528, "lat": 53.1775197, "lon": 18.2991004, "tags": {"addr:city": "D\u0105browa Che\u0142mi\u0144ska", "addr:housenumber": "34", "addr:postcode": "86-070", "addr:street": "Bydgoska", "amenity": "pharmacy", "dispensing": "yes", "ref:csioz": "1112230"}}, {"type": "node", "id": 9607339245, "lat": 53.078352, "lon": 18.2227135, "tags": {"addr:city": "Solec Kujawski", "addr:housenumber": "2", "addr:postcode": "86-050", "addr:street": "Le\u015bna", "amenity": "pharmacy", "dispensing": "yes", "healthcare": "pharmacy", "name": "Pod Lwem", "ref:csioz": "1100574"}}, {"type": "node", "id": 9607356380, "lat": 53.1470055, "lon": 18.2106881, "tags": {"addr:city": "Ostromecko", "addr:housenumber": "17", "addr:postcode": "86-070", "addr:street": "Bydgoska", "amenity": "pharmacy", "dispensing": "yes", "healthcare": "pharmacy", "name": "Punkt Apteczny", "ref:csioz": "1194939"}}, {"type": "node", "id": 9607360303, "lat": 53.076089, "lon": 18.2217468, "tags": {"addr:city": "Solec Kujawski", "addr:housenumber": "19", "addr:postcode": "86-050", "addr:street": "Le\u015bna", "amenity": "pharmacy", "dispensing": "yes", "healthcare": "pharmacy", "name": "Le\u015bna", "ref:csioz": "1099645"}}, {"type": "node", "id": 9609664219, "lat": 52.8802467, "lon": 18.7919749, "tags": {"addr:city": "Ciechocinek", "addr:housenumber": "4", "addr:postcode": "87-720", "addr:street": "Armii Krajowej", "amenity": "pharmacy", "dispensing": "yes", "healthcare": "pharmacy", "name": "Im.S.Staszica", "ref:csioz": "1103988"}}, {"type": "node", "id": 9609672153, "lat": 52.8542101, "lon": 18.6505193, "tags": {"addr:city": "S\u0142u\u017cewo", "addr:housenumber": "7", "addr:postcode": "87-710", "addr:street": "Aleja 1000-lecia", "amenity": "pharmacy", "dispensing": "yes", "name": "Kujawski", "ref:csioz": "1110597"}}, {"type": "node", "id": 9609672272, "lat": 52.8795317, "lon": 18.7869089, "tags": {"addr:city": "Ciechocinek", "addr:housenumber": "6a", "addr:postcode": "87-720", "addr:street": "Stolarska", "amenity": "pharmacy", "dispensing": "yes", "healthcare": "pharmacy", "name": "Apteka Puls Pod Lwem", "ref:csioz": "1103969"}}, {"type": "node", "id": 9609676981, "lat": 52.8777948, "lon": 18.7885151, "tags": {"addr:city": "Ciechocinek", "addr:housenumber": "34", "addr:postcode": "87-720", "addr:street": "Zdrojowa", "amenity": "pharmacy", "brand": "Dbam o Zdrowie", "brand:wikidata": "Q62563833", "dispensing": "yes", "healthcare": "pharmacy", "name": "Dbam o Zdrowie", "ref:csioz": "1104692", "short_name": "DOZ"}}, {"type": "node", "id": 9609757918, "lat": 52.8817383, "lon": 18.8012407, "tags": {"addr:city": "Ciechocinek", "addr:housenumber": "31", "addr:postcode": "87-720", "addr:street": "Dembickiego", "amenity": "pharmacy", "dispensing": "yes", "healthcare": "pharmacy", "name": "Mikstura", "ref:csioz": "1103991"}}, {"type": "node", "id": 9790937790, "lat": 53.0401946, "lon": 18.6972809, "tags": {"addr:housenumber": "50", "addr:street": "Olszty\u0144ska", "amenity": "pharmacy", "dispensing": "yes", "healthcare": "pharmacy", "name": "Nowa Farmacja", "ref:csioz": "1103564"}}, {"type": "node", "id": 10060975009, "lat": 53.0162237, "lon": 18.5615111, "tags": {"addr:city": "Toru\u0144", "addr:housenumber": "90", "addr:postcode": "87-100", "addr:street": "W\u0142adys\u0142awa Broniewskiego", "amenity": "pharmacy", "brand": "Gemini", "brand:wikidata": "Q130243797", "healthcare": "pharmacy", "name": "Gemini", "ref:csioz": "1204992"}}, {"type": "node", "id": 10076965828, "lat": 53.0320859, "lon": 18.6936166, "tags": {"amenity": "pharmacy", "brand": "Dbam o Zdrowie", "brand:wikidata": "Q62563833", "dispensing": "yes", "healthcare": "pharmacy", "name": "Dbam o Zdrowie", "ref:csioz": "1101083", "short_name": "DOZ"}}, {"type": "node", "id": 10095441856, "lat": 53.0205494, "lon": 18.615715, "tags": {"amenity": "pharmacy", "brand": "Dr. Max", "brand:wikidata": "Q56317371", "dispensing": "yes", "healthcare": "pharmacy", "name": "Dr. Max", "ref:csioz": "1103670"}}, {"type": "node", "id": 10218246597, "lat": 52.8948978, "lon": 18.4065023, "tags": {"amenity": "pharmacy", "dispensing": "yes", "healthcare": "pharmacy", "name": "Centrum Zdrowia", "ref:csioz": "1101616"}}, {"type": "node", "id": 10218246598, "lat": 52.8948433, "lon": 18.4104943, "tags": {"amenity": "pharmacy", "dispensing": "yes", "healthcare": "pharmacy", "name": "Pod Or\u0142em", "ref:csioz": "1099419"}}, {"type": "node", "id": 10218246599, "lat": 52.8941647, "lon": 18.4083515, "tags": {"amenity": "pharmacy", "dispensing": "yes", "healthcare": "pharmacy", "name": "Waleriana", "ref:csioz": "1100295"}}, {"type": "node", "id": 10218397080, "lat": 52.782544, "lon": 18.2435147, "tags": {"amenity": "pharmacy", "dispensing": "yes", "drive_through": "yes", "healthcare": "pharmacy", "name": "Pogodna", "ref:csioz": "1099692"}}, {"type": "node", "id": 10218397082, "lat": 52.8010872, "lon": 18.2670381, "tags": {"amenity": "pharmacy", "dispensing": "yes", "healthcare": "pharmacy", "name": "Przy Toru\u0144skiej", "ref:csioz": "1100099"}}, {"type": "node", "id": 10218397083, "lat": 52.79638, "lon": 18.2557003, "tags": {"amenity": "pharmacy", "dispensing": "yes", "healthcare": "pharmacy", "name": "Kr\u00f3lewska", "ref:csioz": "1121137"}}, {"type": "node", "id": 10218397084, "lat": 52.7979838, "lon": 18.2473313, "tags": {"addr:city": "Inowroc\u0142aw", "addr:housenumber": "62", "addr:postcode": "88-100", "addr:street": "Prezydenta Gabriela Narutowicza", "amenity": "pharmacy", "dispensing": "yes", "healthcare": "pharmacy", "name": "Wracam Do Zdrowia", "ref:csioz": "1183326"}}, {"type": "node", "id": 10218397085, "lat": 52.7808876, "lon": 18.2630278, "tags": {"amenity": "pharmacy", "dispensing": "yes", "healthcare": "pharmacy", "name": "\u017byj-Zdrowo", "ref:csioz": "1187507"}}, {"type": "node", "id": 10218397086, "lat": 52.7802234, "lon": 18.258195, "tags": {"amenity": "pharmacy", "brand": "Dr. Max", "brand:wikidata": "Q56317371", "dispensing": "yes", "healthcare": "pharmacy", "name": "Dr. Max", "ref:csioz": "1102124"}}, {"type": "node", "id": 10218397087, "lat": 52.7989805, "lon": 18.2408486, "tags": {"amenity": "pharmacy", "dispensing": "yes", "healthcare": "pharmacy", "name": "Zdrojowa", "ref:csioz": "1100724"}}, {"type": "node", "id": 10218397088, "lat": 52.7758351, "lon": 18.2526511, "tags": {"amenity": "pharmacy", "dispensing": "yes", "healthcare": "pharmacy", "name": "Osiedlowa", "ref:csioz": "1099778"}}, {"type": "node", "id": 10218397090, "lat": 52.790423, "lon": 18.2715474, "tags": {"amenity": "pharmacy", "dispensing": "yes", "drive_through": "yes", "healthcare": "pharmacy", "name": "Ca\u0142odobowa Chirofarm", "opening_hours": "24/7", "ref:csioz": "1099462"}}, {"type": "node", "id": 10218397091, "lat": 52.7978212, "lon": 18.2572096, "tags": {"amenity": "pharmacy", "brand": "Dbam o Zdrowie", "brand:wikidata": "Q62563833", "dispensing": "yes", "healthcare": "pharmacy", "name": "Dbam o Zdrowie", "ref:csioz": "1098977", "short_name": "DOZ"}}, {"type": "node", "id": 10218397092, "lat": 52.7964709, "lon": 18.258291, "tags": {"amenity": "pharmacy", "brand": "Gemini", "dispensing": "yes", "healthcare": "pharmacy", "name": "Gemini", "ref:csioz": "1221214"}}, {"type": "node", "id": 10218397093, "lat": 52.7600128, "lon": 18.2551321, "tags": {"amenity": "pharmacy", "dispensing": "yes", "healthcare": "pharmacy", "name": "M\u0105tewska", "ref:csioz": "1101870"}}, {"type": "node", "id": 10218397094, "lat": 52.7991688, "lon": 18.2687505, "tags": {"amenity": "pharmacy", "brand": "Dbam o Zdrowie", "brand:wikidata": "Q62563833", "dispensing": "yes", "healthcare": "pharmacy", "name": "Dbam o Zdrowie", "ref:csioz": "1098989", "short_name": "DOZ"}}, {"type": "node", "id": 10218397095, "lat": 52.7940036, "lon": 18.2601179, "tags": {"amenity": "pharmacy", "dispensing": "yes", "healthcare": "pharmacy", "ref:csioz": "1099710"}}, {"type": "node", "id": 10218397096, "lat": 52.7758161, "lon": 18.2448574, "tags": {"amenity": "pharmacy", "brand": "Dr. Max", "brand:wikidata": "Q56317371", "dispensing": "yes", "healthcare": "pharmacy", "name": "Dr. Max", "ref:csioz": "1224313"}}, {"type": "node", "id": 10218397097, "lat": 52.7714843, "lon": 18.2511976, "tags": {"amenity": "pharmacy", "dispensing": "yes", "healthcare": "pharmacy", "name": "Rodzinna", "ref:csioz": "1101445"}}, {"type": "node", "id": 10218397098, "lat": 52.7937245, "lon": 18.265895, "tags": {"amenity": "pharmacy", "brand": "Dbam o Zdrowie", "brand:wikidata": "Q62563833", "dispensing": "yes", "healthcare": "pharmacy", "name": "Dbam o Zdrowie", "ref:csioz": "1101212", "short_name": "DOZ"}}, {"type": "node", "id": 10218397099, "lat": 52.7937664, "lon": 18.2780553, "tags": {"amenity": "pharmacy", "dispensing": "yes", "healthcare": "pharmacy", "name": "Pod Or\u0142em", "ref:csioz": "1101060"}}, {"type": "node", "id": 10218497374, "lat": 52.9007727, "lon": 18.2728488, "tags": {"amenity": "pharmacy", "dispensing": "yes", "healthcare": "pharmacy", "ref:csioz": "1099481"}}, {"type": "node", "id": 10218497383, "lat": 52.8543748, "lon": 18.1960328, "tags": {"amenity": "pharmacy", "dispensing": "yes", "healthcare": "pharmacy", "name": "Punkt Apteczny Panaceum", "ref:csioz": "1227646"}}, {"type": "node", "id": 10220346571, "lat": 52.9937167, "lon": 18.7104611, "tags": {"amenity": "pharmacy", "dispensing": "yes", "healthcare": "pharmacy", "name": "Punkt Apteczny Puls", "ref:csioz": "1231137"}}, {"type": "node", "id": 10220346572, "lat": 53.0946869, "lon": 18.330551, "tags": {"amenity": "pharmacy", "dispensing": "yes", "healthcare": "pharmacy", "ref:csioz": "1103380"}}, {"type": "node", "id": 10220346574, "lat": 53.0868342, "lon": 18.6176351, "tags": {"amenity": "pharmacy", "dispensing": "yes", "drive_through": "no", "healthcare": "pharmacy", "name": "\u0141ysomice", "ref:csioz": "1231107"}}, {"type": "node", "id": 10220355692, "lat": 52.9825931, "lon": 18.5739631, "tags": {"amenity": "pharmacy", "dispensing": "yes", "healthcare": "pharmacy", "name": "Przy Pozna\u0144skiej", "ref:csioz": "1231116"}}, {"type": "node", "id": 10961933907, "lat": 53.0238886, "lon": 18.6752556, "tags": {"access": "customers", "door": "hinged", "entrance": "shop", "level": "0", "wheelchair": "limited"}}, {"type": "node", "id": 11306990591, "lat": 52.8705729, "lon": 18.7005924}, {"type": "node", "id": 11306990592, "lat": 52.8705576, "lon": 18.7004879}, {"type": "node", "id": 11306990593, "lat": 52.8705973, "lon": 18.7004323}, {"type": "node", "id": 11415045501, "lat": 52.8766035, "lon": 18.7011222}, {"type": "node", "id": 11734410596, "lat": 52.8761831, "lon": 18.6919929}, {"type": "node", "id": 11734410597, "lat": 52.8762857, "lon": 18.6918819}, {"type": "node", "id": 11734410598, "lat": 52.8763171, "lon": 18.6918497}, {"type": "node", "id": 11734410599, "lat": 52.8763318, "lon": 18.691834}, {"type": "node", "id": 11734410600, "lat": 52.8763791, "lon": 18.691784}, {"type": "node", "id": 11734410601, "lat": 52.8763529, "lon": 18.6917061}, {"type": "node", "id": 11734410602, "lat": 52.8763043, "lon": 18.6917511}, {"type": "node", "id": 11734410603, "lat": 52.8762595, "lon": 18.691836}, {"type": "node", "id": 11734410604, "lat": 52.8762629, "lon": 18.6918455}, {"type": "node", "id": 11734410605, "lat": 52.8762525, "lon": 18.6918556}, {"type": "node", "id": 11734410606, "lat": 52.876102, "lon": 18.6917874}, {"type": "node", "id": 11734410607, "lat": 52.876173, "lon": 18.6917137}, {"type": "node", "id": 12001420907, "lat": 52.8705941, "lon": 18.7005623}, {"type": "node", "id": 12001420961, "lat": 52.8705677, "lon": 18.7006496}, {"type": "node", "id": 12001420962, "lat": 52.8705808, "lon": 18.7006761}, {"type": "node", "id": 12001420963, "lat": 52.8706366, "lon": 18.7005063}, {"type": "node", "id": 12200070053, "lat": 53.023993, "lon": 18.6753405}, {"type": "node", "id": 12200070054, "lat": 53.0239104, "lon": 18.6753795}, {"type": "node", "id": 12200070057, "lat": 53.0239676, "lon": 18.6751961}, {"type": "node", "id": 12383402910, "lat": 53.0133654, "lon": 18.6100618, "tags": {"amenity": "pharmacy", "healthcare": "pharmacy"}}, {"type": "node", "id": 12552415069, "lat": 52.879359, "lon": 18.790104}, {"type": "node", "id": 12552415070, "lat": 52.879511, "lon": 18.789975}, {"type": "node", "id": 12552415071, "lat": 52.879524, "lon": 18.789937}, {"type": "node", "id": 12552415072, "lat": 52.879493, "lon": 18.789907}, {"type": "node", "id": 12552415073, "lat": 52.879352, "lon": 18.78999}, {"type": "node", "id": 12552415074, "lat": 52.879322, "lon": 18.79007}, {"type": "node", "id": 12596150800, "lat": 52.87674, "lon": 18.7010649, "tags": {"access": "private", "entrance": "yes"}}, {"type": "node", "id": 12596158507, "lat": 52.8767129, "lon": 18.7010977}, {"type": "node", "id": 12672830355, "lat": 53.0248338, "lon": 18.638139}, {"type": "node", "id": 12672830356, "lat": 53.024821, "lon": 18.6381931}, {"type": "node", "id": 12672830357, "lat": 53.0248052, "lon": 18.6382432}, {"type": "node", "id": 12672830358, "lat": 53.0247868, "lon": 18.6382962}, {"type": "node", "id": 12672830359, "lat": 53.0247681, "lon": 18.6382803}, {"type": "node", "id": 12672830360, "lat": 53.0247488, "lon": 18.6382711}, {"type": "node", "id": 12672830361, "lat": 53.0247291, "lon": 18.6382645}, {"type": "node", "id": 12672830362, "lat": 53.0248023, "lon": 18.6379524}, {"type": "node", "id": 12672830363, "lat": 53.0247865, "lon": 18.6380763}, {"type": "node", "id": 12672830364, "lat": 53.024842, "lon": 18.6380954}, {"type": "node", "id": 12672830367, "lat": 53.0247183, "lon": 18.6379194}, {"type": "node", "id": 12886939536, "lat": 53.0228669, "lon": 18.5990091, "tags": {"amenity": "pharmacy", "healthcare": "pharmacy"}}, {"type": "way", "id": 134810535, "nodes": [1481533192, 11734410606, 11734410607, 1481533189, 11734410605, 11734410604, 11734410603, 2166841957, 11734410602, 11734410601, 11734410600, 11734410599, 11734410598, 11734410597, 1481533199, 11734410596, 1481533187, 1481533192], "tags": {"addr:city": "Aleksandr\u00f3w Kujawski", "addr:housenumber": "14", "addr:postcode": "87-700", "addr:street": "Fryderyka Chopina", "amenity": "pharmacy", "building": "yes", "building:levels": "2", "dispensing": "yes", "name": "Pod Konwali\u0105", "ref:csioz": "1103868", "source:building": "BDOT"}}, {"type": "way", "id": 179579303, "nodes": [1899756255, 11306990591, 12001420907, 11306990592, 11306990593, 12001420963, 1899756261, 1899756257, 12001420962, 12001420961, 1899756255], "tags": {"addr:city": "Aleksandr\u00f3w Kujawski", "addr:country": "PL", "addr:housenumber": "95", "addr:postcode": "87-700", "addr:street": "Juliusza S\u0142owackiego", "amenity": "pharmacy", "building": "house", "building:levels": "1", "dispensing": "yes", "healthcare": "pharmacy", "name": "Herba", "ref:csioz": "1103884", "source:building": "BDOT"}}, {"type": "way", "id": 244132401, "nodes": [3149770903, 2590146698, 3149770901, 2514824329, 3149770899, 2590146694, 3149770900, 2514824330, 3149770902, 2590146705, 3149770905, 3149770909, 3149770908, 2590146710, 3149770907, 3149770906, 3149770903], "tags": {"addr:city": "Toru\u0144", "addr:housenumber": "31", "addr:postcode": "87-100", "addr:street": "Konstytucji 3 Maja", "amenity": "pharmacy", "building": "yes", "dispensing": "yes", "healthcare": "pharmacy", "name": "Adoloran", "opening_hours": "Mo-Fr 08:00-20:00; Sa 09:00-19:00", "ref:csioz": "1103165", "source:addr": "EMUiA (emuia.gugik.gov.pl)"}}, {"type": "way", "id": 245367132, "nodes": [12552415074, 12552415073, 6547197827, 6547197833, 6547197819, 12552415072, 12552415071, 12552415070, 6547197829, 6547197830, 6547197824, 12552415069, 12552415074], "tags": {"addr:city": "Ciechocinek", "addr:country": "PL", "addr:housenumber": "14", "addr:postcode": "87-720", "addr:street": "Zdrojowa", "amenity": "pharmacy", "building": "yes", "building:levels": "2", "dispensing": "yes", "healthcare": "pharmacy", "name": "Apteka Farmacja", "opening_hours": "08:00-21:00", "ref:csioz": "1104825", "source:building": "BDOT"}}, {"type": "way", "id": 253079540, "nodes": [2590569600, 11415045501, 12596158507, 2590569602, 12596150800, 2590569599, 2590569600], "tags": {"addr:city": "Aleksandr\u00f3w Kujawski", "addr:city:simc": "0985384", "addr:housenumber": "2e", "addr:postcode": "87-700", "addr:street": "Sp\u00f3\u0142dzielcza", "amenity": "pharmacy", "building": "yes", "building:levels": "1", "dispensing": "yes", "name": "Puls", "ref:csioz": "1221487", "source:addr": "maleksandrowkujawski.e-mapa.net", "source:building": "BDOT", "source:geometry": "EGiB", "wheelchair": "yes"}}, {"type": "way", "id": 300976062, "nodes": [3050855565, 3050855566, 4900478852, 4900478853, 4900478854, 4900478855, 4900478856, 4900478857, 4900478858, 4900478859, 3050855567, 3050855568, 4900478860, 4900478861, 4900478862, 4900478863, 3050855565], "tags": {"addr:city": "Ciechocinek", "addr:housenumber": "44", "addr:postcode": "87-720", "addr:street": "Zdrojowa", "amenity": "pharmacy", "building": "yes", "dispensing": "yes", "healthcare": "pharmacy", "name": "Apteka Zdrojowa", "ref:csioz": "1103942", "wheelchair": "yes"}}, {"type": "way", "id": 473400400, "nodes": [4675178603, 4854289273, 4854289272, 4854289271, 4854289274, 4675178604, 4854289276, 4854289275, 4675178605, 4675178606, 4675178607, 4675178608, 4675178603], "tags": {"addr:city": "Ciechocinek", "addr:housenumber": "37 E", "addr:postcode": "87-720", "addr:street": "Genera\u0142a J\u00f3zefa Bema", "amenity": "pharmacy", "building": "yes", "building:levels": "2", "dispensing": "yes", "healthcare": "pharmacy", "name": "Apteka Im. Prof. Zofii Jerzmanowskiej", "ref:csioz": "1103950", "source:building": "BDOT", "source:geometry": "mapa.aleksandrow.pl: Mapa Ewidencyjna"}}, {"type": "way", "id": 1318209222, "nodes": [12200070054, 10961933907, 1014499706, 12200070057, 12200070053, 12200070054], "tags": {"addr:city": "Toru\u0144", "addr:housenumber": "7", "addr:postcode": "87-100", "addr:street": "Ludwika \u015alaskiego", "amenity": "pharmacy", "brand": "Dr. Max", "brand:wikidata": "Q56317371", "dispensing": "yes", "healthcare": "pharmacy", "indoor": "room", "level": "0", "name": "Dr. Max", "ref:csioz": "1102733"}}, {"type": "way", "id": 1368365724, "nodes": [12672830364, 12672830363, 12672830362, 12672830367, 3859727059, 3859727058, 12672830361, 12672830360, 12672830359, 12672830358, 12672830357, 12672830356, 12672830355, 12672830364], "tags": {"amenity": "pharmacy", "brand": "Dbam o Zdrowie", "brand:wikidata": "Q62563833", "dispensing": "yes", "email": "apt131091@dbamozdrowie.pl", "healthcare": "pharmacy", "indoor": "room", "level": "0", "name": "Dbam o Zdrowie", "opening_hours": "Mo-Sa 09:00-21:00", "phone": "+48 885 866 650", "ref:csioz": "1180458", "short_name": "DOZ"}}]}