{"version": 0.6, "generator": "Overpass API 0.7.62.8 e802775f", "osm3s": {"timestamp_osm_base": "2025-10-06T08:43:29Z", "copyright": "The data included in this document is from www.openstreetmap.org. The data is made available under ODbL."}, "elements": [{"type": "node", "id": 30049148, "lat": 59.3657245, "lon": 18.1351658, "tags": {"amenity": "pharmacy", "app:apk": "se.apoteket.recept", "app:apple": "https://itunes.apple.com/se/app/mitt-apotek/id1053398061", "brand": "Apoteket", "brand:wikidata": "Q1785637", "fixme": "branch - vad heter detta apotek mera \u00e4n apoteket?", "healthcare": "pharmacy", "name": "Apoteket", "operator": "Apoteket AB (556138-6532)", "owner": "Svenska Staten", "ownership": "national", "phone": "+46771450450", "website:stock": "https://www.fass.se/"}}, {"type": "node", "id": 299718492, "lat": 59.3632053, "lon": 18.1235146, "tags": {"amenity": "pharmacy", "app:apk": "se.apoteket.recept", "app:apple": "https://itunes.apple.com/se/app/mitt-apotek/id1053398061", "brand": "Apoteket", "brand:wikidata": "Q1785637", "fixme": "branch - vad heter detta apotek mera \u00e4n apoteket?", "healthcare": "pharmacy", "name": "Apoteket", "operator": "Apoteket AB (556138-6532)", "owner": "Svenska Staten", "ownership": "national", "phone": "+46771450450", "website:stock": "https://www.fass.se/"}}, {"type": "node", "id": 304568336, "lat": 59.3460473, "lon": 18.0714555, "tags": {"amenity": "pharmacy", "brand": "Apoteksgruppen", "brand:wikidata": "Q10416129", "brand:wikipedia": "sv:Apoteksgruppen", "check_date": "2024-02-17", "dispensing": "yes", "healthcare": "pharmacy", "level": "0", "name": "Apoteksgruppen", "opening_hours": "Mo 08:00-18:30; Tu-Fr 08:00-18:00; Sa 11:00-15:00; Su off", "operator": "Apoteksgruppen", "phone": "+46 8 612 50 45", "website": "https://www.apoteksgruppen.se/apotek/stockholm/apoteksgruppen-stockholm-drottning-kristinas-vag/", "website:stock": "https://www.fass.se/", "wheelchair": "yes"}}, {"type": "node", "id": 312629853, "lat": 59.3291266, "lon": 18.0430379, "tags": {"amenity": "pharmacy", "app:apple": "https://itunes.apple.com/se/app/kronans-apotek/id1129771604?l=en", "app:google": "https://play.google.com/store/apps/details?id=se.kronansapotek.kronan", "brand": "Kronans Apotek", "brand:wikidata": "Q10549422", "brand:wikipedia": "sv:Kronans Apotek", "check_date": "2025-06-18", "dispensing": "yes", "healthcare": "pharmacy", "name": "Kronans Apotek", "opening_hours": "Mo-Fr 08:00-19:00; Sa 10:00-16:00; Su off", "operator": "Kronans Droghandel Apotek AB", "payment:cash": "yes", "phone": "+46771612612", "website": "https://www.kronansapotek.se/", "website:stock": "https://www.fass.se/"}}, {"type": "node", "id": 412884406, "lat": 59.3155416, "lon": 18.0344536, "tags": {"amenity": "pharmacy", "app:apple": "https://itunes.apple.com/se/app/apotek-hj%C3%A4rtat-n%C3%A4ra-dig/id1150817089", "app:google": "https://play.google.com/store/apps/details?id=com.presencekit.apotek.se&hl=en_US", "brand": "Apotek Hj\u00e4rtat", "brand:wikidata": "Q10416114", "brand:wikipedia": "sv:Apotek Hj\u00e4rtat", "dispensing": "yes", "healthcare": "pharmacy", "name": "Apotek Hj\u00e4rtat", "opening_hours": "Mo-Fr 08:30-19:00; Sa 10:00-16:00; Su 11:00-16:00", "operator": "Apotek Hj\u00e4rtat Retail AB", "owner": "ICA Gruppen AB", "ownership": "private", "payment:cash": "yes", "phone": "+46771405405", "website": "https://www.apotekhjartat.se/", "website:stock": "https://www.fass.se/", "wheelchair": "yes"}}, {"type": "node", "id": 413908672, "lat": 59.2857782, "lon": 17.9646066, "tags": {"addr:city": "H\u00e4gersten", "addr:country": "SE", "addr:housenumber": "6", "addr:postcode": "129 52", "addr:street": "Fru\u00e4ngstorget", "amenity": "pharmacy", "app:apk": "se.apoteket.recept", "app:apple": "https://itunes.apple.com/se/app/mitt-apotek/id1053398061", "brand": "Apoteket", "brand:wikidata": "Q1785637", "brand:wikipedia": "sv:Apoteket", "healthcare": "pharmacy", "name": "Apoteket", "opening_hours": "Mo-Fr 08:00-19:00; Sa 10:00-16:00", "operator": "Apoteket AB (556138-6532)", "owner": "Svenska Staten", "ownership": "national", "phone": "+46771450450", "website": "https://www.apoteket.se", "website:stock": "https://www.fass.se/"}}, {"type": "node", "id": 418239097, "lat": 59.3256579, "lon": 18.0687354, "tags": {"amenity": "pharmacy", "app:apple": "https://itunes.apple.com/se/app/mitt-apotek/id1053398061", "app:google": "https://play.google.com/store/apps/details?id=se.apoteket.recept&hl=sv", "branch": "Korpen", "brand": "Apoteket", "brand:wikidata": "Q1785637", "dispensing": "yes", "healthcare": "pharmacy", "name": "Apoteket", "opening_hours": "Mo-Fr 09:00-19:00; Sa 10:00-16:00; Su 11:00-16:00", "operator": "Apoteket AB (556138-6532)", "owner": "Svenska Staten", "phone": "+46771450450", "website": "https://www.apoteket.se/apotek/apoteket-korpen-stockholm/", "website:stock": "https://www.fass.se/", "wheelchair": "yes"}}, {"type": "node", "id": 434473559, "lat": 59.304174, "lon": 18.0932408, "tags": {"addr:city": "Stockholm", "addr:country": "SE", "addr:housenumber": "93", "addr:postcode": "120 63", "addr:street": "Hammarby All\u00e9", "amenity": "pharmacy", "brand": "Kronans Apotek", "brand:wikidata": "Q10549422", "dispensing": "yes", "healthcare": "pharmacy", "name": "Kronans Apotek", "opening_hours": "Mo-Fr 08:30-18:00; Sa off; Su 11:00-16:00", "website": "https://www.kronansapotek.se/hitta-apotek/kronans-apotek-hammarby-sjostad-5075/", "website:stock": "https://www.fass.se/"}}, {"type": "node", "id": 442073256, "lat": 59.2975019, "lon": 18.0529765, "tags": {"addr:city": "\u00c5rsta", "addr:country": "SE", "addr:housenumber": "26", "addr:postcode": "120 53", "addr:street": "Hj\u00e4lmarsv\u00e4gen", "amenity": "pharmacy", "brand": "Kronans Apotek", "brand:wikidata": "Q10549422", "dispensing": "yes", "healthcare": "pharmacy", "name": "Kronans Apotek", "opening_hours": "Mo-Fr 09:00-18:00; Sa 10:00-14:00; Su off", "phone": "+46-8-918102", "website": "https://www.kronansapotek.se/hitta-apotek/kronans-apotek-arsta-0373/", "website:stock": "https://www.fass.se/"}}, {"type": "node", "id": 442077604, "lat": 59.2986821, "lon": 18.0802799, "tags": {"addr:city": "Johanneshov", "addr:housenumber": "1", "addr:postcode": "121 40", "addr:street": "Gullmarsplan", "amenity": "pharmacy", "brand": "Kronans Apotek", "brand:wikidata": "Q10549422", "check_date:opening_hours": "2023-08-15", "dispensing": "yes", "healthcare": "pharmacy", "name": "Kronans Apotek", "opening_hours": "Mo-Fr 09:00-19:00; Sa 10:00-15:00; Su odd", "phone": "+46-8-6028651", "website": "https://www.kronansapotek.se/hitta-apotek/kronans-apotek-gullmarsplan-0370/", "website:stock": "https://www.fass.se/", "wheelchair": "yes"}}, {"type": "node", "id": 449884385, "lat": 59.3344266, "lon": 18.0595308, "tags": {"amenity": "pharmacy", "app:apk": "se.apoteket.recept", "app:apple": "https://itunes.apple.com/se/app/mitt-apotek/id1053398061", "brand": "Apoteket", "brand:wikidata": "Q1785637", "check_date": "2023-10-01", "dispensing": "no", "healthcare": "pharmacy", "name": "Apoteket", "opening_hours": "Mo-Fr 09:00-19:00; Sa 10:00-17:00; Su 11:00-16:00", "operator": "Apoteket AB (556138-6532)", "owner": "Svenska Staten", "ownership": "national", "phone": "+46771450450", "website": "https://www.apoteket.se/apotek/apoteket-shop-stockholm", "website:stock": "https://www.fass.se/", "wheelchair": "yes"}}, {"type": "node", "id": 455998823, "lat": 59.5351135, "lon": 18.0789217, "tags": {"addr:city": "Vallentuna", "addr:country": "SE", "addr:housenumber": "20", "addr:postcode": "186 31", "addr:street": "Torggatan", "amenity": "pharmacy", "app:apk": "com.apotekhjartat.mobileclient", "app:apple": "https://apps.apple.com/se/app/apotek-hj%C3%A4rtat/id1484059209", "branch": "Apotek Hj\u00e4rtat Vallentuna Centrum", "brand": "Apotek Hj\u00e4rtat", "brand:wikidata": "Q10416114", "dispensing": "yes", "email": "kundservice@apotekhjartat.se", "healthcare": "pharmacy", "name": "Apotek Hj\u00e4rtat", "opening_hours": "Mo-Fr 08:30-19:00; Sa 10:00-15:00; Su 10:00-15:00", "operator": "Apotek Hj\u00e4rtat AB (556773-8249)", "owner": "ICA-koncernen", "ownership": "private", "phone": "0771-405 405", "website": "https://www.apotekhjartat.se/", "website:stock": "https://www.fass.se/", "wheelchair": "yes"}}, {"type": "node", "id": 457505152, "lat": 59.3389327, "lon": 18.0599861, "tags": {"amenity": "pharmacy", "app:apple": "https://itunes.apple.com/se/app/kronans-apotek/id1129771604?l=en", "app:google": "https://play.google.com/store/apps/details?id=se.kronansapotek.kronan", "brand": "Kronans Apotek", "brand:wikidata": "Q10549422", "brand:wikipedia": "sv:Kronans Apotek", "check_date": "2025-01-14", "check_date:opening_hours": "2025-01-14", "dispensing": "yes", "healthcare": "pharmacy", "name": "Kronans Apotek", "opening_hours": "Mo-Fr 09:00-19:00; Sa 10:00-15:00; Su off", "operator": "Kronans Droghandel Apotek AB", "phone": "+46771612612", "website": "https://www.kronansapotek.se", "website:stock": "https://www.fass.se/"}}, {"type": "node", "id": 470495633, "lat": 59.3316243, "lon": 18.0592734, "tags": {"amenity": "pharmacy", "app:apple": "https://itunes.apple.com/se/app/mitt-apotek/id1053398061", "app:google": "https://play.google.com/store/apps/details?id=se.apoteket.recept&hl=sv", "branch": "C W Scheele", "brand": "Apoteket", "brand:wikidata": "Q1785637", "check_date": "2024-07-22", "dispensing": "yes", "healthcare": "pharmacy", "name": "Apoteket", "opening_hours": "24/7", "operator": "Apoteket AB (556138-6532)", "owner": "Svenska Staten", "phone": "+46771450450", "website": "https://www.apoteket.se/apotek/apoteket-c-w-scheele-stockholm/", "website:stock": "https://www.fass.se/", "wheelchair": "yes", "wikidata": "Q26253489", "wikimedia_commons": "Category:Apoteket C.W. Scheele", "wikipedia": "sv:Apoteket C.W. Scheele"}}, {"type": "node", "id": 471576202, "lat": 59.3370363, "lon": 18.0098559, "tags": {"amenity": "pharmacy", "app:apple": "https://itunes.apple.com/se/app/kronans-apotek/id1129771604?l=en", "app:google": "https://play.google.com/store/apps/details?id=se.kronansapotek.kronan", "brand": "Kronans Apotek", "brand:wikidata": "Q10549422", "brand:wikipedia": "sv:Kronans Apotek", "check_date:opening_hours": "2025-06-17", "dispensing": "yes", "healthcare": "pharmacy", "name": "Kronans Apotek", "old_name": "Linden", "opening_hours": "Mo-Fr 08:00-18:00; Sa 10:00-15:00; Su off", "operator": "Kronans Droghandel Apotek AB", "phone": "+46771612612", "website": "https://www.kronansapotek.se", "website:stock": "https://www.fass.se/"}}, {"type": "node", "id": 473467480, "lat": 59.3423058, "lon": 18.0372466, "tags": {"amenity": "pharmacy", "brand": "Apoteksgruppen", "brand:wikidata": "Q10416129", "brand:wikipedia": "sv:Apoteksgruppen", "check_date": "2020-04-30", "dispensing": "yes", "healthcare": "pharmacy", "name": "Apoteket draken", "opening_hours": "Mo-Fr 09:00-19:00;Sa 10:00-15:00;Su off", "operator": "Apoteksgruppen", "phone": "+46-8-300586", "website": "https://www.apoteksgruppen.se/apotek/stockholm/apoteksgruppen-stockholm-karlbergsvagen/", "website:stock": "https://www.fass.se/"}}, {"type": "node", "id": 490131300, "lat": 59.2562923, "lon": 18.1762652, "tags": {"amenity": "pharmacy", "app:apk": "se.apoteket.recept", "app:apple": "https://itunes.apple.com/se/app/mitt-apotek/id1053398061", "brand": "Apoteket Hj\u00e4rtat", "brand:wikidata": "Q1785637", "check_date": "2022-10-25", "description": "Inside centrum", "dispensing": "yes", "drive_through": "no", "healthcare": "pharmacy", "name": "Apoteket Hj\u00e4rtat", "operator": "Apoteket Hj\u00e4rtat", "owner": "Svenska Staten", "ownership": "national", "phone": "+46771450450", "website": "https://www.apotekhjartat.se/hitta-apotek-hjartat/stockholm/apotek_hjartat_alta_centrum_alta/", "website:stock": "https://www.fass.se/"}}, {"type": "node", "id": 496103995, "lat": 59.2360698, "lon": 17.9820387, "tags": {"addr:city": "Huddinge", "addr:country": "SE", "addr:housenumber": "5", "addr:street": "Sj\u00f6dalstorget", "amenity": "pharmacy", "app:apple": "https://itunes.apple.com/se/app/apotek-hj%C3%A4rtat-n%C3%A4ra-dig/id1150817089", "app:google": "https://play.google.com/store/apps/details?id=com.presencekit.apotek.se&hl=en_US", "brand": "Apotek Hj\u00e4rtat", "brand:wikidata": "Q10416114", "healthcare": "pharmacy", "name": "Apotek Hj\u00e4rtat", "operator": "Apotek Hj\u00e4rtat Retail AB", "owner": "ICA Gruppen AB", "ownership": "private", "phone": "+46771405405", "website:stock": "https://www.fass.se/", "wheelchair": "yes"}}, {"type": "node", "id": 528423531, "lat": 59.278214, "lon": 18.0655839, "tags": {"website:stock": "https://www.fass.se/"}}, {"type": "node", "id": 528423554, "lat": 59.2781454, "lon": 18.0659972, "tags": {"website:stock": "https://www.fass.se/"}}, {"type": "node", "id": 528423556, "lat": 59.278268, "lon": 18.0660751, "tags": {"website:stock": "https://www.fass.se/"}}, {"type": "node", "id": 528423558, "lat": 59.2783366, "lon": 18.0656618, "tags": {"website:stock": "https://www.fass.se/"}}, {"type": "node", "id": 538907036, "lat": 59.3453439, "lon": 18.0602287, "tags": {"amenity": "pharmacy", "app:apple": "https://itunes.apple.com/se/app/kronans-apotek/id1129771604?l=en", "app:google": "https://play.google.com/store/apps/details?id=se.kronansapotek.kronan", "brand": "Kronans Apotek", "brand:wikidata": "Q10549422", "brand:wikipedia": "sv:Kronans Apotek", "check_date": "2024-08-25", "dispensing": "yes", "healthcare": "pharmacy", "name": "Kronans Apotek", "opening_hours": "Mo-Fr 09:00-19:00; Sa 10:00-15:00; Su 11:00-15:00", "operator": "Kronans Droghandel Apotek AB", "phone": "+46771612612", "website": "https://www.kronansapotek.se", "website:stock": "https://www.fass.se/"}}, {"type": "node", "id": 566983301, "lat": 59.326755, "lon": 18.257691, "tags": {"amenity": "pharmacy", "brand": "Kronans Apotek", "brand:wikidata": "Q10549422", "dispensing": "yes", "drive_through": "no", "floor": "2", "healthcare": "pharmacy", "name": "Kronans Apotek", "phone": "+46 8-715 03 58", "website": "https://www.kronansapotek.se/hitta-apotek/kronans-apotek-orminge-centrum-0381/", "website:stock": "https://www.fass.se/"}}, {"type": "node", "id": 585183332, "lat": 59.3092517, "lon": 18.1644427, "tags": {"addr:city": "Nacka", "addr:country": "SE", "addr:housenumber": "12", "addr:postcode": "131 53", "addr:street": "Forumv\u00e4gen", "amenity": "pharmacy", "app:apple": "https://itunes.apple.com/se/app/apotek-hj%C3%A4rtat-n%C3%A4ra-dig/id1150817089", "app:google": "https://play.google.com/store/apps/details?id=com.presencekit.apotek.se&hl=en_US", "brand": "Apotek Hj\u00e4rtat", "brand:wikidata": "Q10416114", "brand:wikipedia": "sv:Apotek Hj\u00e4rtat", "healthcare": "pharmacy", "level": "1", "name": "Apotek Hj\u00e4rtat", "operator": "Apotek Hj\u00e4rtat Retail AB", "owner": "ICA Gruppen AB", "ownership": "private", "phone": "+46771405405", "website:stock": "https://www.fass.se/"}}, {"type": "node", "id": 675127153, "lat": 59.3141512, "lon": 18.0842398, "tags": {"amenity": "pharmacy", "app:apple": "https://itunes.apple.com/se/app/kronans-apotek/id1129771604?l=en", "app:google": "https://play.google.com/store/apps/details?id=se.kronansapotek.kronan", "brand": "Kronans Apotek", "brand:wikidata": "Q10549422", "brand:wikipedia": "sv:Kronans Apotek", "check_date": "2023-07-05", "dispensing": "yes", "healthcare": "pharmacy", "name": "Kronans Apotek", "opening_hours": "Mo-Fr 08:30-19:00;Sa 10:00-16:00;Su off", "operator": "Kronans Droghandel Apotek AB", "phone": "+46771612612", "website": "https://www.kronansapotek.se", "website:stock": "https://www.fass.se/"}}, {"type": "node", "id": 770356142, "lat": 59.350929, "lon": 18.1511073, "tags": {"amenity": "pharmacy", "healthcare": "pharmacy", "name": "Kronans", "opening_hours": "Mo-Fr 08:30-17:00", "website": "http://www.kronansdroghandel.se/Valj-Apotek/Stockholms-lan/Doppingen/"}}, {"type": "node", "id": 773238531, "lat": 59.4278045, "lon": 17.9511845, "tags": {"addr:city": "Sollentuna", "addr:country": "SE", "addr:housenumber": "163C", "addr:postcode": "19147", "addr:street": "Sollentunav\u00e4gen", "amenity": "pharmacy", "app:apple": "https://itunes.apple.com/se/app/apotek-hj%C3%A4rtat-n%C3%A4ra-dig/id1150817089", "app:google": "https://play.google.com/store/apps/details?id=com.presencekit.apotek.se&hl=en_US", "brand": "Apotek Hj\u00e4rtat", "brand:wikidata": "Q10416114", "brand:wikipedia": "sv:Apotek Hj\u00e4rtat", "contact:phone": "+46771405405", "contact:website": "https://www.apotekhjartat.se/hitta-apotek-hjartat/apotek-hjartat-sollentuna-centrum", "healthcare": "pharmacy", "level": "0", "name": "Apotek Hj\u00e4rtat", "opening_hours": "Mo-Fr 09:00-20:00; Sa, Su 10:00-18:00", "operator": "Apotek Hj\u00e4rtat Retail AB", "owner": "ICA Gruppen AB", "ownership": "private", "website:stock": "https://www.fass.se/"}}, {"type": "node", "id": 773643506, "lat": 59.3350061, "lon": 17.9780238, "tags": {"amenity": "pharmacy", "app:apk": "se.apoteket.recept", "app:apple": "https://itunes.apple.com/se/app/mitt-apotek/id1053398061", "branch": "Apoteket Tranan", "brand": "Apoteket", "name": "Apoteket", "operator": "Apoteket AB (556138-6532)", "owner": "Svenska Staten", "ownership": "national", "phone": "+46771450450", "website:stock": "https://www.fass.se/"}}, {"type": "node", "id": 822916971, "lat": 59.3588135, "lon": 17.9999949, "tags": {"addr:city": "Solna", "addr:country": "SE", "addr:housenumber": "1", "addr:postcode": "17145", "addr:street": "Hotellgatan", "amenity": "pharmacy", "app:apple": "https://itunes.apple.com/se/app/apotek-hj%C3%A4rtat-n%C3%A4ra-dig/id1150817089", "app:google": "https://play.google.com/store/apps/details?id=com.presencekit.apotek.se&hl=en_US", "branch": "Hotellgatan", "brand": "Apotek Hj\u00e4rtat", "brand:wikidata": "Q10416114", "brand:wikipedia": "sv:Apotek Hj\u00e4rtat", "check_date": "2022-06-20", "check_date:opening_hours": "2022-12-05", "healthcare": "pharmacy", "level": "0", "name": "Apotek Hj\u00e4rtat", "opening_hours": "Mo-Fr 08:30-19:00; Sa 10:00-17:00; Su 11:00-17:00", "operator": "Apotek Hj\u00e4rtat Retail AB", "owner": "ICA Gruppen AB", "ownership": "private", "phone": "+46 77 140 54 05", "website:stock": "https://www.fass.se/", "wheelchair": "yes"}}, {"type": "node", "id": 834606049, "lat": 59.3174173, "lon": 18.0577693, "tags": {"amenity": "pharmacy", "app:apple": "https://itunes.apple.com/se/app/apotek-hj%C3%A4rtat-n%C3%A4ra-dig/id1150817089", "app:google": "https://play.google.com/store/apps/details?id=com.presencekit.apotek.se&hl=en_US", "brand": "Apotek Hj\u00e4rtat", "brand:wikidata": "Q10416114", "brand:wikipedia": "sv:Apotek Hj\u00e4rtat", "check_date:opening_hours": "2024-03-03", "dispensing": "yes", "healthcare": "pharmacy", "name": "Apotek Hj\u00e4rtat", "opening_hours": "Mo-Su 08:00-22:00", "operator": "Apotek Hj\u00e4rtat Retail AB", "owner": "ICA Gruppen AB", "ownership": "private", "phone": "+46771405405", "website": "https://www.apotekhjartat.se/", "website:stock": "https://www.fass.se/", "wheelchair": "yes"}}, {"type": "node", "id": 838537711, "lat": 59.4454341, "lon": 17.9663372, "tags": {"addr:city": "Sollentuna", "addr:country": "SE", "addr:housenumber": "6", "addr:postcode": "19252", "addr:street": "Edsbergs torg", "amenity": "pharmacy", "brand": "Kronans Apotek", "brand:wikidata": "Q10549422", "contact:website": "https://www.kronansapotek.se/hitta-apotek/kronans-apotek-sollentuna-edsberg-2153/", "dispensing": "yes", "drive_through": "no", "healthcare": "pharmacy", "name": "Kronans Apotek", "opening_hours": "Mo-Fr 09:00-19:00; Sa 10:00-15:00", "operator": "Kronans Apotek", "website:stock": "https://www.fass.se/"}}, {"type": "node", "id": 842452665, "lat": 59.3119303, "lon": 18.0578219, "tags": {"amenity": "pharmacy", "brand": "DOZ Apotek", "brand:wikidata": "Q10475311", "dispensing": "yes", "drive_through": "no", "healthcare": "pharmacy", "name": "DOZ Apotek", "opening_hours": "Mo-Fr 08:00-19:00; Sa 10:00-16:00; Su off", "operator": "DOZ AB", "owner": "Admenta Sweden AB", "ownership": "private", "phone": "+46-8-50515180", "website": "https://dozapotek.se/apotek/stockholm/doz-apotek-stockholm-rosenlundsgatan", "website:stock": "https://www.fass.se/", "wheelchair": "yes", "wikipedia": "sv:DOZ Apotek"}}, {"type": "node", "id": 849821115, "lat": 59.3500817, "lon": 17.986741, "tags": {"amenity": "pharmacy", "app:apk": "se.apoteket.recept", "app:apple": "https://itunes.apple.com/se/app/mitt-apotek/id1053398061", "branch": "Apoteket Ulven", "brand": "Apoteket", "healthcare": "pharmacy", "name": "Apoteket", "operator": "Apoteket AB (556138-6532)", "owner": "Svenska Staten", "ownership": "national", "phone": "+46771450450", "website:stock": "https://www.fass.se/"}}, {"type": "node", "id": 886342620, "lat": 59.2940587, "lon": 17.9669036, "tags": {"amenity": "pharmacy", "app:apple": "https://itunes.apple.com/se/app/apotek-hj%C3%A4rtat-n%C3%A4ra-dig/id1150817089", "app:google": "https://play.google.com/store/apps/details?id=com.presencekit.apotek.se&hl=en_US", "brand": "Apotek Hj\u00e4rtat", "brand:wikidata": "Q10416114", "brand:wikipedia": "sv:Apotek Hj\u00e4rtat", "dispensing": "yes", "healthcare": "pharmacy", "name": "Apotek Hj\u00e4rtat", "operator": "Apotek Hj\u00e4rtat Retail AB", "owner": "ICA Gruppen AB", "ownership": "private", "phone": "+46771405405", "website:stock": "https://www.fass.se/"}}, {"type": "node", "id": 892214452, "lat": 59.2847122, "lon": 18.0301247, "tags": {"addr:country": "SE", "addr:housenumber": "4-6", "addr:street": "Annebodav\u00e4gen", "amenity": "pharmacy", "brand": "Kronans Apotek", "brand:wikidata": "Q10549422", "healthcare": "pharmacy", "name": "Kronans Apotek", "opening_hours": "Mo-Fr 08:30-12:15,13:15-16:00", "website:stock": "https://www.fass.se/"}}, {"type": "node", "id": 897762086, "lat": 59.2986734, "lon": 17.9970116, "tags": {"amenity": "pharmacy", "brand": "Kronans Apotek", "brand:wikidata": "Q10549422", "dispensing": "yes", "healthcare": "pharmacy", "name": "Kronans Apotek", "opening_hours": "Mo-Fr 09:00-19:00; Sa 10:00-15:00", "website": "https://www.kronansapotek.se/hitta-apotek/kronans-apotek-telefonplan-0734/"}}, {"type": "node", "id": 918539681, "lat": 59.3978579, "lon": 18.0874797, "tags": {"addr:city": "Djursholm", "addr:street": "Vendev\u00e4gen", "amenity": "pharmacy", "brand": "Kronans Apotek", "brand:wikidata": "Q10549422", "healthcare": "pharmacy", "name": "Kronans Apotek", "source": "survey", "website:stock": "https://www.fass.se/"}}, {"type": "node", "id": 918599506, "lat": 59.3973207, "lon": 18.0365963, "tags": {"amenity": "pharmacy", "app:apk": "se.apoteket.recept", "app:apple": "https://itunes.apple.com/se/app/mitt-apotek/id1053398061", "brand": "Apoteket", "brand:wikidata": "Q1785637", "check_date:opening_hours": "2025-08-05", "fixme": "branch - vad heter detta apotek mera \u00e4n apoteket?", "healthcare": "pharmacy", "name": "Apoteket", "opening_hours": "Mo-Fr 09:00-19:00; Sa 10:00-17:00; Su 11:00-17:00", "operator": "Apoteket AB (556138-6532)", "owner": "Svenska Staten", "ownership": "national", "phone": "+46771450450", "source": "survey", "website:stock": "https://www.fass.se/", "wheelchair": "yes"}}, {"type": "node", "id": 947974193, "lat": 59.3365013, "lon": 18.0768263, "tags": {"amenity": "pharmacy", "app:apple": "https://itunes.apple.com/se/app/mitt-apotek/id1053398061", "app:google": "https://play.google.com/store/apps/details?id=se.apoteket.recept&hl=sv", "branch": "Elefanten", "brand": "Apoteket", "brand:wikidata": "Q1785637", "dispensing": "yes", "healthcare": "pharmacy", "name": "Apoteket", "opening_hours": "Mo-Fr 08:00-19:00;Sa 10:00-16:00;Su 12:00-16:00", "operator": "Apoteket AB (556138-6532)", "owner": "Svenska Staten", "phone": "+46771450450", "website": "https://www.apoteket.se/apotek/apoteket-elefanten-stockholm", "website:stock": "https://www.fass.se/"}}, {"type": "node", "id": 1096582634, "lat": 59.3399575, "lon": 18.09175, "tags": {"amenity": "pharmacy", "app:apple": "https://itunes.apple.com/se/app/mitt-apotek/id1053398061", "app:google": "https://play.google.com/store/apps/details?id=se.apoteket.recept&hl=sv", "brand": "Apoteket", "dispensing": "yes", "level": "0", "name": "Apoteket Falken", "opening_hours": "Mo-Fr 08:00-20:00;Sa 09:00-18:00;Su 10:00-18:00", "operator": "Apoteket AB (556138-6532)", "owner": "Svenska Staten", "phone": "+46 77 145 04 50", "website": "https://www.apoteket.se/apotek/apoteket-falken-stockholm", "website:stock": "https://www.fass.se/", "wheelchair": "yes"}}, {"type": "node", "id": 1117124820, "lat": 59.3467827, "lon": 18.1017797, "tags": {"amenity": "pharmacy", "brand": "Apoteksgruppen", "brand:wikidata": "Q10416129", "brand:wikipedia": "sv:Apoteksgruppen", "dispensing": "yes", "healthcare": "pharmacy", "name": "Apoteksgruppen", "opening_hours": "Mo-Fr 08:30-18:30;Sa 10:00-14:00;Su off", "operator": "Apoteksgruppen", "phone": "+46-8-6640509", "website": "https://www.apoteksgruppen.se/apotek/stockholm/apoteksgruppen-stockholm-gardet/", "website:stock": "https://www.fass.se/"}}, {"type": "node", "id": 1164746872, "lat": 59.3342628, "lon": 18.0867908, "tags": {"amenity": "pharmacy", "app:apple": "https://itunes.apple.com/se/app/mitt-apotek/id1053398061", "app:google": "https://play.google.com/store/apps/details?id=se.apoteket.recept&hl=sv", "branch": "Storken", "brand": "Apoteket", "brand:wikidata": "Q1785637", "check_date": "2024-08-12", "dispensing": "yes", "healthcare": "pharmacy", "name": "Apoteket", "opening_hours": "Mo-Fr 10:00-12:00,13:00-18:00; Sa-Su off", "operator": "Apoteket AB (556138-6532)", "owner": "Svenska Staten", "phone": "+46771450450", "website": "https://www.apoteket.se/apotek/apoteket-storken-stockholm", "website:stock": "https://www.fass.se/"}}, {"type": "node", "id": 1193166693, "lat": 59.2424761, "lon": 18.0927988, "tags": {"addr:country": "SE", "addr:housenumber": "52", "addr:street": "Storforsplan", "amenity": "pharmacy", "app:apple": "https://itunes.apple.com/se/app/apotek-hj%C3%A4rtat-n%C3%A4ra-dig/id1150817089", "app:google": "https://play.google.com/store/apps/details?id=com.presencekit.apotek.se&hl=en_US", "brand": "Apotek Hj\u00e4rtat", "brand:wikidata": "Q10416114", "brand:wikipedia": "sv:Apotek Hj\u00e4rtat", "healthcare": "pharmacy", "name": "Apotek Hj\u00e4rtat", "operator": "Apotek Hj\u00e4rtat Retail AB", "owner": "ICA Gruppen AB", "ownership": "private", "phone": "+46771405405", "website:stock": "https://www.fass.se/", "wheelchair": "limited"}}, {"type": "node", "id": 1234015494, "lat": 59.2621672, "lon": 18.08297, "tags": {"addr:city": "Enskede", "addr:country": "SE", "addr:housenumber": "114", "addr:street": "Gubb\u00e4ngstorget", "amenity": "pharmacy", "app:apple": "https://itunes.apple.com/se/app/apotek-hj%C3%A4rtat-n%C3%A4ra-dig/id1150817089", "app:google": "https://play.google.com/store/apps/details?id=com.presencekit.apotek.se&hl=en_US", "brand": "Apotek Hj\u00e4rtat", "brand:wikidata": "Q10416114", "brand:wikipedia": "sv:Apotek Hj\u00e4rtat", "check_date": "2024-03-20", "healthcare": "pharmacy", "name": "Apotek Hj\u00e4rtat", "opening_hours": "Mo-Fr 09:00-18:00; Sa 10:00-14:00; Su off", "operator": "Apotek Hj\u00e4rtat Retail AB", "owner": "ICA Gruppen AB", "ownership": "private", "phone": "+46771405405", "website:stock": "https://www.fass.se/"}}, {"type": "node", "id": 1246188911, "lat": 59.3174736, "lon": 18.0718139, "tags": {"amenity": "pharmacy", "app:apple": "https://itunes.apple.com/se/app/mitt-apotek/id1053398061", "app:google": "https://play.google.com/store/apps/details?id=se.apoteket.recept&hl=sv", "branch": "G\u00f6tgatsbacken", "brand": "Apoteket", "brand:wikidata": "Q1785637", "check_date": "2025-09-01", "check_date:opening_hours": "2025-09-01", "dispensing": "yes", "healthcare": "pharmacy", "name": "Apoteket", "opening_hours": "Mo-Fr 09:00-19:00; Sa 11:00-17:00; Su off", "operator": "Apoteket AB (556138-6532)", "owner": "Svenska Staten", "phone": "+46771450450", "website": "https://www.apoteket.se/apotek/apoteket-gotgatsbacken-stockholm", "website:stock": "https://www.fass.se/", "wheelchair": "no"}}, {"type": "node", "id": 1258633954, "lat": 59.3077799, "lon": 18.0746717, "tags": {"amenity": "pharmacy", "app:apple": "https://itunes.apple.com/se/app/apotek-hj%C3%A4rtat-n%C3%A4ra-dig/id1150817089", "app:google": "https://play.google.com/store/apps/details?id=com.presencekit.apotek.se&hl=en_US", "brand": "Apotek Hj\u00e4rtat", "brand:wikidata": "Q10416114", "brand:wikipedia": "sv:Apotek Hj\u00e4rtat", "check_date": "2024-06-23", "dispensing": "yes", "healthcare": "pharmacy", "level": "0", "name": "Apotek Hj\u00e4rtat", "opening_hours": "Mo-Fr 08:30-19:00; Sa 10:00-17:00; Su 11:00-17:00", "operator": "Apotek Hj\u00e4rtat Retail AB", "owner": "ICA Gruppen AB", "ownership": "private", "phone": "+46771405405", "website": "https://www.apotekhjartat.se/", "website:stock": "https://www.fass.se/", "wheelchair": "yes"}}, {"type": "node", "id": 1334429691, "lat": 59.236965, "lon": 17.981223, "tags": {"addr:city": "Huddinge", "addr:housenumber": "2", "addr:postcode": "141 47", "addr:street": "Forellv\u00e4gen", "amenity": "pharmacy", "brand": "Kronans Apotek", "brand:wikidata": "Q10549422", "dispensing": "yes", "healthcare": "pharmacy", "name": "Kronans Apotek", "opening_hours": "Mo-Fr 08:00-19:00; Sa, Su 10:00-17:00", "website": "https://www.kronansapotek.se/hitta-apotek/kronans-apotek-huddinge-centrum-5041/", "website:stock": "https://www.fass.se/"}}, {"type": "node", "id": 1348515196, "lat": 59.3112988, "lon": 18.0751009, "tags": {"amenity": "pharmacy", "app:apple": "https://itunes.apple.com/se/app/mitt-apotek/id1053398061", "app:google": "https://play.google.com/store/apps/details?id=se.apoteket.recept&hl=sv", "branch": "Fenix", "brand": "Apoteket", "brand:wikidata": "Q1785637", "dispensing": "yes", "healthcare": "pharmacy", "name": "Apoteket", "opening_hours": "Sa 10:00-18:00; Su 11:00-18:00; Mo-Fr 09:00-20:00", "operator": "Apoteket AB (556138-6532)", "owner": "Svenska Staten", "phone": "+46771450450", "website": "https://www.apoteket.se/apotek/apoteket-fenix-stockholm", "website:stock": "https://www.fass.se/", "wheelchair": "yes"}}, {"type": "node", "id": 1369973056, "lat": 59.4626489, "lon": 18.1339269, "tags": {"addr:city": "T\u00e4by", "addr:postcode": "187 66", "addr:street": "Saluv\u00e4gen", "amenity": "pharmacy", "app:apk": "se.apoteket.recept", "app:apple": "https://itunes.apple.com/se/app/mitt-apotek/id1053398061", "branch": "Apoteket H\u00e4sthoven", "brand": "Apoteket", "brand:wikidata": "Q1785637", "healthcare": "pharmacy", "name": "Apoteket", "operator": "Apoteket AB (556138-6532)", "owner": "Svenska Staten", "ownership": "national", "phone": "+46771450450", "source": "survey", "website": "https://www.apoteket.se/", "website:stock": "https://www.fass.se/"}}, {"type": "node", "id": 1386448411, "lat": 59.3433492, "lon": 18.119299, "tags": {"amenity": "pharmacy", "dispensing": "no", "healthcare": "pharmacy", "name": "Pharmacy vending machine", "website:stock": "https://www.fass.se/"}}, {"type": "node", "id": 1400116818, "lat": 59.3340311, "lon": 18.0610966, "tags": {"amenity": "pharmacy", "app:apple": "https://itunes.apple.com/se/app/mitt-apotek/id1053398061", "app:google": "https://play.google.com/store/apps/details?id=se.apoteket.recept&hl=sv", "branch": "Ugglan", "brand": "Apoteket", "brand:wikidata": "Q1785637", "check_date": "2025-09-03", "check_date:opening_hours": "2024-10-29", "dispensing": "yes", "healthcare": "pharmacy", "name": "Apoteket", "opening_hours": "Mo-Fr 09:00-19:00; Sa 10:00-18:00; Su 11:00-17:00", "operator": "Apoteket AB (556138-6532)", "owner": "Svenska Staten", "phone": "+46771450450", "website": "https://www.apoteket.se/apotek/apoteket-ugglan-stockholm", "website:stock": "https://www.fass.se/", "wheelchair": "limited", "wikidata": "Q10416128", "wikimedia_commons": "Category:Apoteket Ugglan"}}, {"type": "node", "id": 1457185943, "lat": 59.3425272, "lon": 18.0516688, "tags": {"amenity": "pharmacy", "app:apple": "https://itunes.apple.com/se/app/apotek-hj%C3%A4rtat-n%C3%A4ra-dig/id1150817089", "app:google": "https://play.google.com/store/apps/details?id=com.presencekit.apotek.se&hl=en_US", "brand": "Apotek Hj\u00e4rtat", "brand:wikidata": "Q10416114", "brand:wikipedia": "sv:Apotek Hj\u00e4rtat", "check_date": "2023-05-23", "dispensing": "yes", "healthcare": "pharmacy", "name": "Apotek Hj\u00e4rtat", "opening_hours": "Mo-Fr 08:00-21:00; Sa-Su 10:00-18:00", "operator": "Apotek Hj\u00e4rtat Retail AB", "owner": "ICA Gruppen AB", "ownership": "private", "phone": "+46771405405", "website": "https://www.apotekhjartat.se/", "website:stock": "https://www.fass.se/"}}, {"type": "node", "id": 1457780466, "lat": 59.3565847, "lon": 17.9519799, "tags": {"addr:city": "Bromma", "addr:housenumber": "185-187", "addr:postcode": "16867", "addr:street": "Ulvsundav\u00e4gen", "amenity": "pharmacy", "brand": "Kronans Apotek", "brand:wikidata": "Q10549422", "healthcare": "pharmacy", "name": "Kronans Apotek", "opening_hours": "Mo-Fr 09:00-20:00; Sa 10:00-19:00; Su 10:00-18:00", "phone": "+46 771 612 612", "website": "https://www.kronansapotek.se/hitta-apotek/kronans-apotek-bromma-blocks-1651/"}}, {"type": "node", "id": 1458578157, "lat": 59.360696, "lon": 17.9710826, "tags": {"amenity": "pharmacy", "app:apple": "https://itunes.apple.com/se/app/apotek-hj%C3%A4rtat-n%C3%A4ra-dig/id1150817089", "app:google": "https://play.google.com/store/apps/details?id=com.presencekit.apotek.se&hl=en_US", "brand": "Apotek Hj\u00e4rtat", "brand:wikidata": "Q10416114", "check_date": "2024-12-08", "healthcare": "pharmacy", "name": "Apotek Hj\u00e4rtat", "opening_hours": "Mo-Fr 07:00-18:30; Sa,Su off", "operator": "Apotek Hj\u00e4rtat Retail AB", "owner": "ICA Gruppen AB", "ownership": "private", "phone": "+46771405405", "website:stock": "https://www.fass.se/"}}, {"type": "node", "id": 1501759770, "lat": 59.3145892, "lon": 18.0753502, "tags": {"amenity": "pharmacy", "app:apple": "https://itunes.apple.com/se/app/mitt-apotek/id1053398061", "app:google": "https://play.google.com/store/apps/details?id=se.apoteket.recept&hl=sv", "branch": "Bj\u00f6rnen", "brand": "Apoteket", "brand:wikidata": "Q1785637", "check_date:opening_hours": "2025-09-01", "dispensing": "yes", "healthcare": "pharmacy", "name": "Apoteket", "opening_hours": "Mo-Fr 08:00-22:00; Sa-Su 10:00-20:00", "operator": "Apoteket AB (556138-6532)", "owner": "Svenska Staten", "phone": "+46771450450", "website": "https://www.apoteket.se/apotek/apoteket-bjornen-stockholm/", "website:stock": "https://www.fass.se/", "wheelchair": "yes"}}, {"type": "node", "id": 1650820211, "lat": 59.2568545, "lon": 18.0817246, "tags": {"amenity": "pharmacy", "brand": "Kronans Apotek", "brand:wikidata": "Q10549422", "check_date": "2024-02-19", "dispensing": "yes", "healthcare": "pharmacy", "name": "Kronans Apotek", "opening_hours": "Mo-Fr 09:00-18:00", "website:stock": "https://www.fass.se/"}}, {"type": "node", "id": 1711744339, "lat": 59.2851445, "lon": 18.0932986, "tags": {"amenity": "pharmacy", "name": "Kronans Apotek", "opening_hours": "Mo-Fr 09:00-18:30; Sa 10:00-14:00", "website:stock": "https://www.fass.se/", "wheelchair": "no"}}, {"type": "node", "id": 1716393333, "lat": 59.3360233, "lon": 18.0968865, "tags": {"amenity": "pharmacy", "brand": "DOZ Apotek", "brand:wikidata": "Q10475311", "dispensing": "yes", "healthcare": "pharmacy", "name": "DOZ Apotek", "opening_hours": "Mo-Fr 08:00-19:00;Sa 10:00-16:00;Su off", "operator": "LloydsApotek AB", "owner": "Admenta Sweden AB", "ownership": "private", "phone": "+46-8-50515460", "website": "https://www.lloydsapotek.se/", "website:stock": "https://www.fass.se/", "wikipedia": "sv:LloydsApotek"}}, {"type": "node", "id": 1734073640, "lat": 59.2674282, "lon": 18.1289976, "tags": {"addr:country": "SE", "addr:housenumber": "44", "addr:postcode": "12833", "addr:street": "Skarpn\u00e4cks All\u00e9", "amenity": "pharmacy", "check_date": "2024-07-20", "name": "Kronans Droghandel Skarpn\u00e4ck", "opening_hours": "Mo-Fr 09:00-12:30,13:30-18:00; Sa-Su off", "website": "http://www.kronansdroghandel.se/Valj-Apotek/Stockholms-lan/Kronans-Droghandel-Skarpnack/", "website:stock": "https://www.fass.se/", "wheelchair": "yes"}}, {"type": "node", "id": 1745940622, "lat": 59.2922658, "lon": 18.0825348, "tags": {"addr:country": "SE", "addr:housenumber": "63", "addr:street": "Arenav\u00e4gen", "amenity": "pharmacy", "app:apk": "se.apoteket.recept", "app:apple": "https://itunes.apple.com/se/app/mitt-apotek/id1053398061", "branch": "Apoteket Globen", "brand": "Apoteket", "healthcare": "pharmacy", "name": "Apoteket Globen", "operator": "Apoteket AB (556138-6532)", "owner": "Svenska Staten", "ownership": "national", "phone": "+46771450450", "website:stock": "https://www.fass.se/"}}, {"type": "node", "id": 1844263078, "lat": 59.361916, "lon": 17.964122, "tags": {"amenity": "pharmacy", "brand": "DOZ Apotek", "brand:wikidata": "Q10475311", "healthcare": "pharmacy", "name": "DOZ Apotek", "opening_hours": "Mo-Fr 08:00-19:00; Sa 10:00-16:00; Su 11:00-16:00", "wikipedia": "sv:DOZ_Apotek"}}, {"type": "node", "id": 1879690663, "lat": 59.3061293, "lon": 18.000954, "tags": {"amenity": "pharmacy", "check_date": "2025-04-19", "check_date:opening_hours": "2025-04-19", "dispensing": "yes", "name": "Aspuddens apotek", "opening_hours": "Fr 09:00-16:00; Su off; Mo-Th 10:00-18:00", "website": "https://www.aspuddensapotek.se"}}, {"type": "node", "id": 1937256168, "lat": 59.316151, "lon": 18.0123077, "tags": {"amenity": "pharmacy", "dispensing": "yes", "healthcare": "pharmacy", "name": "Gr\u00f6ndals Apotek", "opening_hours": "Mo-Fr 09:00-18:30;Sa-Su off", "phone": "+46-8-12112112", "website": "http://www.grondalsapotek.se/", "website:stock": "https://www.fass.se/"}}, {"type": "node", "id": 1937952144, "lat": 59.3398498, "lon": 18.0379627, "tags": {"amenity": "pharmacy", "check_date": "2023-08-13", "dispensing": "yes", "disused:amenity": "pharmacy", "drive_through": "no", "healthcare": "pharmacy", "name": "Doz Apotek", "opening_hours": "Mo-Fr 08:00-19:30;Sa 10:00-17:00;Su 11:00-15:00", "operator": "Admenta Sweden AB", "owner": "Admenta Sweden AB", "ownership": "private", "payment:mastercard": "yes", "payment:visa": "yes", "phone": "+46-8-334344", "website": "https://dozapotek.se/", "website:stock": "https://www.fass.se/", "wikipedia": "sv:LloydsApotek"}}, {"type": "node", "id": 2123703203, "lat": 59.2639261, "lon": 18.0406119, "tags": {"addr:city": "Bandhagen", "addr:country": "SE", "addr:housenumber": "32", "addr:postcode": "124 54", "addr:street": "H\u00f6gdalsg\u00e5ngen", "amenity": "pharmacy", "app:apple": "https://itunes.apple.com/se/app/apotek-hj%C3%A4rtat-n%C3%A4ra-dig/id1150817089", "app:google": "https://play.google.com/store/apps/details?id=com.presencekit.apotek.se&hl=en_US", "brand": "Apotek Hj\u00e4rtat", "brand:wikidata": "Q10416114", "brand:wikipedia": "sv:Apotek Hj\u00e4rtat", "healthcare": "pharmacy", "name": "Apotek Hj\u00e4rtat", "operator": "Apotek Hj\u00e4rtat Retail AB", "owner": "ICA Gruppen AB", "ownership": "private", "phone": "+46771405405", "website:stock": "https://www.fass.se/"}}, {"type": "node", "id": 2139042161, "lat": 59.3585792, "lon": 17.9801567, "tags": {"addr:city": "Solna", "addr:country": "SE", "addr:housenumber": "16", "addr:postcode": "17141", "addr:street": "Svetsarv\u00e4gen", "amenity": "pharmacy", "branch": "ICA Maxi Solna", "brand": "Apotek Hj\u00e4rtat", "brand:wikidata": "Q10416114", "check_date": "2025-02-17", "check_date:opening_hours": "2022-02-06", "healthcare": "pharmacy", "name": "Apotek Hj\u00e4rtat", "opening_hours": "Mo-Su 07:00-22:00", "phone": "+46 771-405 405", "toilets": "yes", "toilets:access": "yes", "toilets:wheelchair": "yes", "website:stock": "https://www.fass.se/"}}, {"type": "node", "id": 2146966120, "lat": 59.3341472, "lon": 18.0609602, "tags": {"amenity": "pharmacy", "brand": "Kronans Apotek", "brand:wikidata": "Q10549422", "brand:wikipedia": "sv:Kronans Apotek", "check_date": "2024-11-27", "check_date:opening_hours": "2024-11-27", "healthcare": "pharmacy", "name": "Kronans Apotek", "opening_hours": "Mo-Fr 09:00-19:00; Sa 10:00-18:00; Su 11:00-18:00"}}, {"type": "node", "id": 2171149288, "lat": 59.4041238, "lon": 17.9432238, "tags": {"amenity": "pharmacy", "check_date": "2025-02-16", "healthcare": "pharmacy", "level": "0", "name": "Apoteket", "opening_hours": "10:00-20:00", "website:stock": "https://www.fass.se/", "wheelchair": "yes"}}, {"type": "node", "id": 2173438795, "lat": 59.2767808, "lon": 18.13199, "tags": {"addr:city": "Bagarmossen", "addr:country": "SE", "addr:housenumber": "1", "addr:postcode": "128 45", "addr:street": "Svart\u00e5gatan", "amenity": "pharmacy", "app:apple": "https://itunes.apple.com/se/app/apotek-hj%C3%A4rtat-n%C3%A4ra-dig/id1150817089", "app:google": "https://play.google.com/store/apps/details?id=com.presencekit.apotek.se&hl=en_US", "brand": "Apotek Hj\u00e4rtat Bagarmossen", "check_date": "2025-01-26", "name": "Apotek Hj\u00e4rtat", "operator": "Apotek Hj\u00e4rtat Retail AB", "owner": "ICA Gruppen AB", "ownership": "private", "phone": "+46771405405", "website": "https://www.apotekhjartat.se/hitta-apotek-hjartat/stockholm/apotek_hjartat_bagarmossens_centrum/", "website:stock": "https://www.fass.se/"}}, {"type": "node", "id": 2292768986, "lat": 59.333133, "lon": 18.0314391, "tags": {"amenity": "pharmacy", "dispensing": "yes", "name": "Apoteket"}}, {"type": "node", "id": 2372443984, "lat": 59.2935847, "lon": 18.0048911, "tags": {"addr:city": "H\u00e4gersten", "addr:country": "SE", "addr:housenumber": "4", "addr:postcode": "126 30", "addr:street": "V\u00e4stbergav\u00e4gen", "amenity": "pharmacy", "brand": "Kronans Apotek", "brand:wikidata": "Q10549422", "dispensing": "yes", "healthcare": "pharmacy", "level": "1", "name": "Kronans Apotek", "opening_hours": "Mo-Fr 09:00-20:00; Sa 10:00-18:00; Su 11:00-18:00", "website": "https://www.kronansapotek.se/hitta-apotek/kronans-apotek-vastberga-1827/", "website:stock": "https://www.fass.se/"}}, {"type": "node", "id": 2398801008, "lat": 59.3497808, "lon": 18.1463999, "tags": {"amenity": "pharmacy", "brand": "DOZ Apotek", "brand:wikidata": "Q10475311", "healthcare": "pharmacy", "name": "DOZ Apotek", "operator": "LloydsApotek AB", "owner": "Admenta Sweden AB", "ownership": "private", "website:stock": "https://www.fass.se/", "wikipedia": "sv:LloydsApotek"}}, {"type": "node", "id": 2440622658, "lat": 59.4326724, "lon": 18.0389032, "tags": {"amenity": "pharmacy", "name": "LloydsApotek", "operator": "LloydsApotek AB", "owner": "Admenta Sweden AB", "ownership": "private", "website:stock": "https://www.fass.se/", "wikipedia": "sv:LloydsApotek"}}, {"type": "node", "id": 2493129706, "lat": 59.253196, "lon": 17.9973221, "tags": {"amenity": "pharmacy", "check_date:opening_hours": "2022-11-04", "healthcare": "pharmacy", "name": "Kronan", "opening_hours": "Mo-Fr 08:30-18:30; Sa 10:00-14:00", "website:stock": "https://www.fass.se/"}}, {"type": "node", "id": 2504983265, "lat": 59.3046551, "lon": 18.1303803, "tags": {"amenity": "pharmacy", "app:apple": "https://itunes.apple.com/se/app/apotek-hj%C3%A4rtat-n%C3%A4ra-dig/id1150817089", "app:google": "https://play.google.com/store/apps/details?id=com.presencekit.apotek.se&hl=en_US", "brand": "Apotek Hj\u00e4rtat", "brand:wikidata": "Q10416114", "brand:wikipedia": "sv:Apotek Hj\u00e4rtat", "check_date": "2024-07-24", "check_date:opening_hours": "2024-07-24", "dispensing": "yes", "healthcare": "pharmacy", "name": "Apotek Hj\u00e4rtat", "opening_hours": "Mo-Fr 10:00-20:00; Sa 10:00-18:00; Su 11:00-17:00", "operator": "Apotek Hj\u00e4rtat Retail AB", "owner": "ICA Gruppen AB", "ownership": "private", "phone": "+46771405405", "website:stock": "https://www.fass.se/"}}, {"type": "node", "id": 2555676641, "lat": 59.2428311, "lon": 18.0908522, "tags": {"amenity": "pharmacy", "app:apk": "se.apoteket.recept", "app:apple": "https://itunes.apple.com/se/app/mitt-apotek/id1053398061", "branch": "Apoteket Shop", "brand": "Apoteket", "brand:wikidata": "Q1785637", "healthcare": "pharmacy", "name": "Apoteket", "operator": "Apoteket AB (556138-6532)", "owner": "Svenska Staten", "ownership": "national", "phone": "+46771450450", "website:stock": "https://www.fass.se/"}}, {"type": "node", "id": 2571793077, "lat": 59.3330529, "lon": 17.9805444, "tags": {"amenity": "pharmacy", "brand": "Kronans Apotek", "brand:wikidata": "Q10549422", "brand:wikipedia": "sv:Kronans Apotek", "check_date": "2024-06-11", "healthcare": "pharmacy", "name": "Kronans Apotek", "website:stock": "https://www.fass.se/"}}, {"type": "node", "id": 2593118918, "lat": 59.3159202, "lon": 18.2290212, "tags": {"amenity": "pharmacy", "healthcare": "pharmacy", "name": "Apotek Bj\u00f6rkn\u00e4s", "website:stock": "https://www.fass.se/"}}, {"type": "node", "id": 2633893168, "lat": 59.3305077, "lon": 18.0574342, "tags": {"amenity": "pharmacy", "brand": "Kronans Apotek", "brand:wikidata": "Q10549422", "brand:wikipedia": "sv:Kronans Apotek", "check_date:opening_hours": "2025-08-24", "healthcare": "pharmacy", "level": "0", "name": "Kronans Apotek", "opening_hours": "Mo-Fr 08:00-20:00; Sa,Su 10:00-18:00", "wheelchair": "yes"}}, {"type": "node", "id": 2691344752, "lat": 59.3466325, "lon": 18.0338263, "tags": {"amenity": "pharmacy", "brand": "DOZ Apotek", "brand:wikidata": "Q10475311", "check_date": "2023-08-13", "dispensing": "yes", "drive_through": "no", "healthcare": "pharmacy", "internet_access": "no", "name": "DOZ Apotek", "opening_hours": "Mo-Fr 08:00-18:00; Sa 10:00-15:00; Su off", "operator": "Admenta Sweden AB", "owner": "Admenta Sweden AB", "ownership": "private", "payment:mastercard": "yes", "payment:visa": "yes", "phone": "+46-8-50515770", "website": "https://dozapotek.se/", "website:stock": "https://www.fass.se/", "wikipedia": "sv:LloydsApotek"}}, {"type": "node", "id": 2717584673, "lat": 59.4933017, "lon": 18.0653934, "tags": {"amenity": "pharmacy", "app:apk": "se.apoteket.recept", "app:apple": "https://itunes.apple.com/se/app/mitt-apotek/id1053398061", "brand": "Apoteket", "dispensing": "yes", "drive_through": "no", "name": "Apotek", "opening_hours": "Mo-Fr 09:00-19:00, Sa 10:00-14:00, Su closed", "operator": "Apoteket AB (556138-6532)", "owner": "Svenska Staten", "ownership": "national", "phone": "+46771450450", "website:stock": "https://www.fass.se/"}}, {"type": "node", "id": 2888592296, "lat": 59.3028966, "lon": 18.0880693, "tags": {"addr:city": "Stockholm", "addr:housenumber": "45", "addr:postcode": "120 30", "addr:street": "Hammarby All\u00e9", "amenity": "pharmacy", "app:apple": "https://itunes.apple.com/se/app/apotek-hj%C3%A4rtat-n%C3%A4ra-dig/id1150817089", "app:google": "https://play.google.com/store/apps/details?id=com.presencekit.apotek.se&hl=en_US", "brand": "Apotek Hj\u00e4rtat", "brand:wikidata": "Q10416114", "brand:wikipedia": "sv:Apotek Hj\u00e4rtat", "check_date:opening_hours": "2025-07-15", "dispensing": "yes", "healthcare": "pharmacy", "name": "Apotek Hj\u00e4rtat", "opening_hours": "Mo-Fr 09:00-19:00; Sa 10:00-17:00; Su off", "operator": "Apotek Hj\u00e4rtat Retail AB", "owner": "ICA Gruppen AB", "ownership": "private", "phone": "+46771405405", "website": "https://www.apotekhjartat.se/", "website:stock": "https://www.fass.se/"}}, {"type": "node", "id": 3050914978, "lat": 59.3397389, "lon": 18.0811001, "tags": {"amenity": "pharmacy", "app:apple": "https://itunes.apple.com/se/app/kronans-apotek/id1129771604?l=en", "app:google": "https://play.google.com/store/apps/details?id=se.kronansapotek.kronan", "brand": "Kronans Apotek", "brand:wikidata": "Q10549422", "brand:wikipedia": "sv:Kronans Apotek", "check_date": "2024-08-12", "dispensing": "yes", "healthcare": "pharmacy", "name": "Kronans Apotek", "opening_hours": "Mo-Fr 09:00-18:00; Sa 10:00-15:00; Su off", "operator": "Kronans Droghandel Apotek AB", "phone": "+46771612612", "website": "https://www.kronansapotek.se", "website:stock": "https://www.fass.se/"}}, {"type": "node", "id": 3294848260, "lat": 59.4215751, "lon": 18.04642, "tags": {"amenity": "pharmacy", "brand": "Apotek Hj\u00e4rtat", "brand:wikidata": "Q10416114", "brand:wikipedia": "sv:Apotek Hj\u00e4rtat", "healthcare": "pharmacy", "name": "Apotek Hj\u00e4rtat", "opening_hours": "Mo-Fr 10:00-17:00;Sa 10:00-17:00;Su 11:00-17:00", "website:stock": "https://www.fass.se/"}}, {"type": "node", "id": 3303878799, "lat": 59.242558, "lon": 18.0896027, "tags": {"amenity": "pharmacy", "app:apk": "se.apoteket.recept", "app:apple": "https://itunes.apple.com/se/app/mitt-apotek/id1053398061", "brand": "Apoteket", "brand:wikidata": "Q1785637", "fixme": "branch - vad heter detta apotek mera \u00e4n apoteket?", "healthcare": "pharmacy", "name": "Apoteket", "opening_hours": "Mo-Fr 08:00-20:00; Sa 09:00-18:00; Su 10:00-18:00", "operator": "Apoteket AB (556138-6532)", "owner": "Svenska Staten", "ownership": "national", "phone": "+46771450450", "website:stock": "https://www.fass.se/", "wheelchair": "yes"}}, {"type": "node", "id": 3392939827, "lat": 59.3181, "lon": 18.0574052, "tags": {"amenity": "pharmacy", "brand": "Apoteket", "brand:wikidata": "Q1785637", "dispensing": "yes", "healthcare": "pharmacy", "name": "Apoteket", "opening_hours": "Su 11:00-16:00; Mo-Fr 09:00-19:00; Sa 10:00-16:00", "operator": "Apoteket AB (556138-6532)", "owner": "Svenska Staten", "phone": "+46771450450", "website": "https://www.apoteket.se/apotek/apoteket-hornsgatan-49-stockholm-stockholm/", "website:stock": "https://www.fass.se/", "wheelchair": "yes"}}, {"type": "node", "id": 3402696461, "lat": 59.262761, "lon": 18.013785, "tags": {"addr:country": "SE", "addr:housenumber": "8", "addr:street": "Hags\u00e4tra torg", "amenity": "pharmacy", "branch": "Morkullan", "brand": "Apoteket", "brand:wikidata": "Q1785637", "dispensing": "yes", "healthcare": "pharmacy", "name": "Apoteket", "opening_hours": "Mo-Fr 09:00-19:00; Sa 10:00-15:00", "operator": "Apoteket AB (556138-6532)", "payment:cash": "yes", "payment:contactless": "yes", "payment:credit_cards": "yes", "payment:debit_cards": "yes", "phone": "+46771450450", "website": "https://www.apoteket.se/apotek/apoteket-morkullan-bandhagen/"}}, {"type": "node", "id": 3447003535, "lat": 59.314402, "lon": 18.0761482, "tags": {"amenity": "pharmacy", "app:apple": "https://itunes.apple.com/se/app/apotek-hj%C3%A4rtat-n%C3%A4ra-dig/id1150817089", "app:google": "https://play.google.com/store/apps/details?id=com.presencekit.apotek.se&hl=en_US", "brand": "Apotek Hj\u00e4rtat", "brand:wikidata": "Q10416114", "brand:wikipedia": "sv:Apotek Hj\u00e4rtat", "check_date:opening_hours": "2025-06-16", "dispensing": "yes", "healthcare": "pharmacy", "name": "Apotek Hj\u00e4rtat", "opening_hours": "Mo-Fr 09:00-19:00; Sa 10:00-17:00; Su 11:00-16:00", "operator": "Apotek Hj\u00e4rtat Retail AB", "owner": "ICA Gruppen AB", "ownership": "private", "phone": "+46771405405", "website": "https://www.apotekhjartat.se/hitta-apotek-hjartat/stockholm/apotek_hjartat_folkungagatan_stockholm/", "website:stock": "https://www.fass.se/", "wheelchair": "yes"}}, {"type": "node", "id": 3660909412, "lat": 59.3281178, "lon": 18.2593188, "tags": {"addr:city": "Saltsj\u00f6-Boo", "addr:country": "SE", "addr:housenumber": "2", "addr:postcode": "132 30", "addr:street": "Ed\u00f6v\u00e4gen", "amenity": "pharmacy", "fixme": "vilken kedja tillh\u00f6r detta apotek?", "healthcare": "pharmacy", "name": "Boo Apotek", "opening_hours": "Mo-Fr 08:00-17:30", "phone": "+4687150742", "website": "http://www.booapotek.se", "website:stock": "https://www.fass.se/"}}, {"type": "node", "id": 3723792926, "lat": 59.284055, "lon": 18.113191, "tags": {"amenity": "pharmacy", "app:apple": "https://itunes.apple.com/se/app/apotek-hj%C3%A4rtat-n%C3%A4ra-dig/id1150817089", "app:google": "https://play.google.com/store/apps/details?id=com.presencekit.apotek.se&hl=en_US", "brand": "Apotek Hj\u00e4rtat", "brand:wikidata": "Q10416114", "brand:wikipedia": "sv:Apotek Hj\u00e4rtat", "dispensing": "yes", "healthcare": "pharmacy", "name": "Apotek Hj\u00e4rtat", "operator": "Apotek Hj\u00e4rtat Retail AB", "owner": "ICA Gruppen AB", "ownership": "private", "phone": "+46771405405", "website:stock": "https://www.fass.se/"}}, {"type": "node", "id": 3779791974, "lat": 59.3392498, "lon": 18.0367759, "tags": {"amenity": "pharmacy", "check_date": "2025-07-25", "dispensing": "yes", "name": "Apoteket", "opening_hours": "Mo-Fr 10:00-19:00; Sa-Su off"}}, {"type": "node", "id": 3787179610, "lat": 59.2701497, "lon": 18.0482564, "tags": {"addr:city": "Bandhagen", "addr:country": "SE", "addr:housenumber": "2", "addr:postcode": "124 34", "addr:street": "Bandhagsplan", "amenity": "pharmacy", "dispensing": "yes", "drive_through": "no", "healthcare": "pharmacy", "name": "Bandhagens Apotek", "opening_hours": "Mo-Fr 08:30-19:00; Sa 10:00-16:00", "operator": "Mansourian H\u00e4lsa AB", "phone": "+46 (0)8 449 64 10", "source": "http://www.bandhagensapotek.se/", "website": "http://www.bandhagensapotek.se/", "website:stock": "https://www.fass.se/"}}, {"type": "node", "id": 3793209817, "lat": 59.2750688, "lon": 18.0130154, "tags": {"amenity": "pharmacy", "brand": "Kronans Apotek", "brand:wikidata": "Q10549422", "brand:wikipedia": "sv:Kronans Apotek", "check_date": "2025-04-15", "healthcare": "pharmacy", "name": "Kronans Apotek", "opening_hours": "Mo-Fr 10:00-19:00; Sa 10:00-17:00; Su 11:00-16:00", "website:stock": "https://www.fass.se/"}}, {"type": "node", "id": 3938202338, "lat": 59.3604519, "lon": 17.9715295, "tags": {"amenity": "pharmacy", "check_date": "2024-07-26", "healthcare": "pharmacy", "name": "Svea Vaccin", "website:stock": "https://www.fass.se/"}}, {"type": "node", "id": 4020607805, "lat": 59.2785746, "lon": 18.0090219, "tags": {"addr:city": "\u00c4lvsj\u00f6", "addr:country": "SE", "addr:housenumber": "17A", "addr:postcode": "12534", "addr:street": "\u00c4lvsj\u00f6 Torg", "amenity": "pharmacy", "app:apk": "se.apoteket.recept", "app:apple": "https://itunes.apple.com/se/app/mitt-apotek/id1053398061", "branch": "Apoteket \u00c4lvsj\u00f6 Torg", "brand": "Apoteket", "brand:wikidata": "Q1785637", "dispensing": "yes", "healthcare": "pharmacy", "name": "Apoteket", "opening_hours": "Mo-Fr 07:00-20:00; Sa 10:00-16:00; Su 11:00-16:00", "operator": "Apoteket AB (556138-6532)", "owner": "Svenska Staten", "ownership": "national", "payment:cash": "yes", "phone": "+46771450450", "website": "https://www.apoteket.se/apotek/apoteket-alvsjo-torg-alvsjo", "website:stock": "https://www.fass.se/", "wheelchair": "yes"}}, {"type": "node", "id": 4027968595, "lat": 59.3704433, "lon": 18.0040198, "tags": {"amenity": "pharmacy", "app:apk": "se.apoteket.recept", "app:apple": "https://itunes.apple.com/se/app/mitt-apotek/id1053398061", "brand": "Apoteket", "brand:wikidata": "Q1785637", "check_date": "2025-02-15", "dispensing": "yes", "healthcare": "pharmacy", "level": "0", "name": "Apoteket", "opening_hours": "Mo-Fr 09:00-21:00; Sa,Su 10:00-21:00", "operator": "Apoteket AB (556138-6532)", "owner": "Svenska Staten", "ownership": "national", "phone": "+46 77 145 04 50", "website:stock": "https://www.fass.se/", "wheelchair": "yes"}}, {"type": "node", "id": 4207681358, "lat": 59.3626372, "lon": 17.9694039, "tags": {"amenity": "pharmacy", "app:apk": "se.apoteket.recept", "app:apple": "https://itunes.apple.com/se/app/mitt-apotek/id1053398061", "brand": "Apoteket", "brand:wikidata": "Q1785637", "check_date": "2025-06-15", "healthcare": "pharmacy", "name": "Apoteket", "opening_hours": "Mo-Fr 09:00-19:00; Sa 10:00-16:00; Su 11:00-16:00", "operator": "Apoteket AB (556138-6532)", "owner": "Svenska Staten", "ownership": "national", "phone": "+46771450450"}}, {"type": "node", "id": 4253429030, "lat": 59.323146, "lon": 18.3811866, "tags": {"amenity": "pharmacy", "app:apk": "se.apoteket.recept", "app:apple": "https://itunes.apple.com/se/app/mitt-apotek/id1053398061", "branch": "Apoteket Gustavsbergs v\u00e5rdcentral", "brand": "Apoteket", "name": "Apoteket", "opening_hours": "Mo-Fr 08:00-18:00; Sa 11:00-16:00", "operator": "Apoteket AB (556138-6532)", "owner": "Svenska Staten", "ownership": "national", "phone": "+46771450450", "start_date": "2016-06-20", "website:stock": "https://www.fass.se/"}}, {"type": "node", "id": 4416431973, "lat": 59.3279845, "lon": 18.016747, "tags": {"amenity": "pharmacy", "app:apple": "https://itunes.apple.com/se/app/mitt-apotek/id1053398061", "app:google": "https://play.google.com/store/apps/details?id=se.apoteket.recept&hl=sv", "branch": "Biet", "brand": "Apoteket", "brand:wikidata": "Q1785637", "check_date": "2025-03-22", "dispensing": "yes", "healthcare": "pharmacy", "name": "Apoteket", "opening_hours": "Mo-Fr 09:00-19:00; Sa 10:00-15:00; Su off", "operator": "Apoteket AB (556138-6532)", "owner": "Svenska Staten", "payment:cash": "yes", "phone": "+46771450450", "website": "https://www.apoteket.se/apotek/apoteket-biet-stockholm", "website:stock": "https://www.fass.se/"}}, {"type": "node", "id": 4868240381, "lat": 59.3584095, "lon": 18.090484, "tags": {"amenity": "pharmacy", "brand": "Kronans Apotek", "brand:wikidata": "Q10549422", "brand:wikipedia": "sv:Kronans Apotek", "dispensing": "yes", "healthcare": "pharmacy", "name": "Kronans Apotek", "opening_hours": "Sa 10:00-16:00; Su off; Mo-Fr 09:00-19:00", "phone": "+46-771-612612", "website": "https://www.kronansapotek.se", "website:stock": "https://www.fass.se/", "wheelchair": "yes"}}, {"type": "node", "id": 5126732026, "lat": 59.3339295, "lon": 18.0325477, "tags": {"amenity": "pharmacy", "app:apple": "https://itunes.apple.com/se/app/kronans-apotek/id1129771604?l=en", "app:google": "https://play.google.com/store/apps/details?id=se.kronansapotek.kronan", "brand": "Kronans Apotek", "brand:wikidata": "Q10549422", "brand:wikipedia": "sv:Kronans Apotek", "check_date": "2025-09-04", "check_date:opening_hours": "2025-09-04", "dispensing": "yes", "healthcare": "pharmacy", "name": "Kronans Apotek", "opening_hours": "Mo-Fr 09:00-19:00; Sa 10:00-16:00; Su 11:00-16:00", "operator": "Kronans Droghandel Apotek AB", "phone": "+46771612612", "website": "https://www.kronansapotek.se", "website:stock": "https://www.fass.se/"}}, {"type": "node", "id": 5482736135, "lat": 59.304169, "lon": 17.9748559, "tags": {"amenity": "pharmacy", "app:apk": "se.apoteket.recept", "app:apple": "https://itunes.apple.com/se/app/mitt-apotek/id1053398061", "branch": "Apoteket Gasellen", "brand": "Apoteket", "brand:wikidata": "Q1785637", "dispensing": "yes", "healthcare": "pharmacy", "name": "Apoteket", "opening_hours": "Mo-Fr 09:00-19:00; Sa 10:00-14:00", "operator": "Apoteket AB (556138-6532)", "owner": "Svenska Staten", "ownership": "national", "phone": "+46771450450", "website": "https://www.apoteket.se/privatpersoner/common/apotek.aspx?id=a07350001", "website:stock": "https://www.fass.se/"}}, {"type": "node", "id": 5694721809, "lat": 59.3106965, "lon": 18.1643461, "tags": {"addr:country": "SE", "addr:housenumber": "12", "addr:street": "Forumv\u00e4gen", "amenity": "pharmacy", "level": "2", "name": "Svea Vaccin Nacka Forum", "website:stock": "https://www.fass.se/"}}, {"type": "node", "id": 5758649918, "lat": 59.3022513, "lon": 18.1017767, "tags": {"amenity": "pharmacy", "dispensing": "yes", "healthcare": "pharmacy", "name": "LloydsApotek", "opening_hours": "Mo-Fr 09:00-19:00; Sa 10:00-17:00; Su off", "operator": "LloydsApotek AB", "owner": "Admenta Sweden AB", "ownership": "private", "phone": "+46-8-50515420", "website": "https://www.lloydsapotek.se", "website:stock": "https://www.fass.se/", "wikipedia": "sv:LloydsApotek"}}, {"type": "node", "id": 5867342315, "lat": 59.3476058, "lon": 18.0030419, "tags": {"addr:city": "Solna", "addr:country": "SE", "addr:housenumber": "24", "addr:postcode": "17161", "addr:street": "Johan Enbergs v\u00e4g", "amenity": "pharmacy", "check_date": "2023-05-02", "dispensing": "yes", "email": "info@akallaapotek.se", "healthcare": "pharmacy", "name": "V\u00e4stra Skogens apotek", "opening_hours": "Mo-Fr 10:00-18:00", "phone": "+46 8 277705", "website": "http://www.v\u00e4straskogensapotek.se/", "website:stock": "https://www.fass.se/"}}, {"type": "node", "id": 5908739992, "lat": 59.339434, "lon": 18.0913046, "tags": {"amenity": "pharmacy", "app:apple": "https://itunes.apple.com/se/app/apotek-hj%C3%A4rtat-n%C3%A4ra-dig/id1150817089", "app:google": "https://play.google.com/store/apps/details?id=com.presencekit.apotek.se&hl=en_US", "brand": "Apotek Hj\u00e4rtat", "brand:wikidata": "Q10416114", "brand:wikipedia": "sv:Apotek Hj\u00e4rtat", "dispensing": "yes", "healthcare": "pharmacy", "level": "0", "name": "Apotek Hj\u00e4rtat", "opening_hours": "Mo-Fr 09:00-20:00; Sa 10:00-18:00; Su 11:00-17:00", "operator": "Apotek Hj\u00e4rtat Retail AB", "owner": "ICA Gruppen AB", "ownership": "private", "phone": "+46 77 140 54 05", "website:stock": "https://www.fass.se/", "wheelchair": "yes"}}, {"type": "node", "id": 6001070878, "lat": 59.3446894, "lon": 18.0575233, "tags": {"amenity": "pharmacy", "app:apk": "se.apoteket.recept", "app:apple": "https://itunes.apple.com/se/app/mitt-apotek/id1053398061", "brand": "Apoteket", "brand:wikidata": "Q1785637", "check_date": "2024-09-03", "dispensing": "yes", "healthcare": "pharmacy", "name": "Apoteket", "opening_hours": "Mo-Fr 09:00-19:00;Sa 10:00-17:00;Su 11:00-16:00", "operator": "Apoteket AB (556138-6532)", "owner": "Svenska Staten", "ownership": "national", "phone": "+46771450450", "website": "https://www.apoteket.se/apotek/apoteket-odengatan-stockholm-stockholm", "website:stock": "https://www.fass.se/"}}, {"type": "node", "id": 6002579990, "lat": 59.2989834, "lon": 18.0814241, "tags": {"amenity": "pharmacy", "app:apk": "se.apoteket.recept", "app:apple": "https://itunes.apple.com/se/app/mitt-apotek/id1053398061", "brand": "Apoteket", "dispensing": "yes", "fixme": "branch - vad heter detta apotek mera \u00e4n apoteket?", "name": "Apoteket", "opening_hours": "Mo-Fr 07:00-21:00;Sa 10:00-17:00;Su 11:00-17:00", "operator": "Apoteket AB (556138-6532)", "owner": "Svenska Staten", "ownership": "national", "phone": "+46771450450", "website": "https://www.apoteket.se/apotek/apoteket-gullmarsplan-stockholm-johanneshov", "website:stock": "https://www.fass.se/"}}, {"type": "node", "id": 6005464170, "lat": 59.3141537, "lon": 18.064534, "tags": {"amenity": "pharmacy", "brand": "Kronans Apotek", "brand:wikidata": "Q10549422", "check_date": "2024-04-29", "dispensing": "yes", "healthcare": "pharmacy", "name": "Kronans Apotek", "opening_hours": "Mo-Fr 10:00-18:00; Sa 11:00-16:00; Su off", "payment:cash": "yes", "phone": "+46-8-59500720", "website": "https://www.kronansapotek.se/hitta-apotek/kronans-apotek-stockholm-sodra-station-5039/", "website:stock": "https://www.fass.se/", "wheelchair": "yes"}}, {"type": "node", "id": 6327124474, "lat": 59.3703318, "lon": 18.004418, "tags": {"amenity": "pharmacy", "brand": "Apotek Hj\u00e4rtat", "brand:wikidata": "Q10416114", "brand:wikipedia": "sv:Apotek Hj\u00e4rtat", "check_date": "2025-02-15", "dispensing": "yes", "healthcare": "pharmacy", "level": "0", "name": "Apotek Hj\u00e4rtat Mall of Scandinavia", "opening_hours": "Mo-Fr 09:00-21:00; Sa,Su 10:00-21:00", "wheelchair": "yes"}}, {"type": "node", "id": 6378430621, "lat": 59.649024, "lon": 17.9292234, "tags": {"amenity": "pharmacy", "brand": "Apoteksgruppen", "brand:wikidata": "Q10416129", "check_date": "2023-03-24", "healthcare": "pharmacy", "name": "Apoteksgruppen", "opening_hours": "Mo-Fr 07:00-20:00; Sa 09:30-18:00; Su 09:30-20:00"}}, {"type": "node", "id": 6578920957, "lat": 59.3732138, "lon": 18.0164583, "tags": {"amenity": "pharmacy", "dispensing": "yes", "healthcare": "pharmacy", "name": "Apoteksgruppen Fr\u00f6sunda", "opening_hours": "Mo-Fr 09:00-18:00; Sa 10:00-14:00; Su closed", "wheelchair": "yes"}}, {"type": "node", "id": 6859063847, "lat": 59.3301888, "lon": 18.0585654, "tags": {"amenity": "pharmacy", "brand": "DOZ Apotek", "brand:wikidata": "Q10475311", "healthcare": "pharmacy", "level": "-1", "name": "DOZ Apotek", "opening_hours": "Mo-Fr 08:00-21:00; Sa,Su 09:00-20:00", "wheelchair": "yes"}}, {"type": "node", "id": 6939292824, "lat": 59.3626431, "lon": 18.0117904, "tags": {"amenity": "pharmacy", "dispensing": "yes", "email": "info@hagalundsapotek.se", "healthcare": "pharmacy", "level": "0", "name": "Hagalunds apotek", "opening_hours": "Mo-Fr 09:00-18:00; Sa 10:00-13:00; Su closed", "phone": "+46 8 277 816", "website": "https://www.hagalundsapotek.se/"}}, {"type": "node", "id": 7001385537, "lat": 59.3432274, "lon": 18.0499758, "tags": {"amenity": "pharmacy", "brand": "Kronans Apotek", "brand:wikidata": "Q10549422", "brand:wikipedia": "sv:Kronans Apotek", "check_date": "2024-10-16", "healthcare": "pharmacy", "name": "Kronans Apotek", "opening_hours": "Mo-Fr 08:00-21:00;Sa-Su 10:00-18:00", "payment:cash": "yes", "wheelchair": "yes"}}, {"type": "node", "id": 7040619461, "lat": 59.3600472, "lon": 18.000495, "tags": {"amenity": "pharmacy", "brand": "Apoteket", "brand:wikidata": "Q1785637", "check_date": "2025-06-29", "check_date:opening_hours": "2025-06-29", "healthcare": "pharmacy", "level": "0", "name": "Apoteket", "opening_hours": "Mo-Fr 09:00-19:00; Sa 10:00-17:00; Su 11:00-17:00", "wheelchair": "yes"}}, {"type": "node", "id": 7069375448, "lat": 59.3418451, "lon": 18.0579532, "tags": {"amenity": "pharmacy", "check_date": "2024-05-29", "healthcare": "pharmacy", "name": "Svea Apotek", "opening_hours": "Mo-Fr 09:00-18:00", "phone": "08 500 22 251", "website": "www.citypoteket.se", "wheelchair": "no"}}, {"type": "node", "id": 7118965708, "lat": 59.3382562, "lon": 18.0473529, "tags": {"amenity": "pharmacy", "brand": "Kronans Apotek", "brand:wikidata": "Q10549422", "brand:wikipedia": "sv:Kronans Apotek", "check_date": "2020-01-09", "dispensing": "yes", "healthcare": "pharmacy", "name": "Kronans Apotek"}}, {"type": "node", "id": 7165983805, "lat": 59.3398426, "lon": 18.0471277, "tags": {"amenity": "pharmacy", "brand": "Apotek Hj\u00e4rtat", "brand:wikidata": "Q10416114", "brand:wikipedia": "sv:Apotek Hj\u00e4rtat", "check_date": "2023-04-08", "healthcare": "pharmacy", "name": "Apotek Hj\u00e4rtat", "opening_hours": "Mo-Fr 10:00-20:00; Sa-Su 10:00-18:00"}}, {"type": "node", "id": 7771298066, "lat": 59.2558103, "lon": 18.1143539, "tags": {"addr:city": "Sk\u00f6ndal", "addr:country": "SE", "addr:housenumber": "87", "addr:postcode": "128 66", "addr:street": "Sk\u00f6ndalsv\u00e4gen", "amenity": "pharmacy", "brand": "Kronans Apotek", "brand:wikidata": "Q10549422", "dispensing": "yes", "healthcare": "pharmacy", "name": "Kronans Apotek", "opening_hours": "Mo-Fr 09:00-18:00; Sa 10:00-15:00", "phone": "+46 8-933258", "website": "https://www.kronansapotek.se/hitta-apotek/kronans-apotek-skondal-0391/", "website:stock": "https://www.fass.se/"}}, {"type": "node", "id": 8115409508, "lat": 59.3123967, "lon": 18.0660332, "tags": {"amenity": "pharmacy", "brand": "Apotek Hj\u00e4rtat", "brand:wikidata": "Q10416114", "brand:wikipedia": "sv:Apotek Hj\u00e4rtat", "check_date": "2024-06-23", "dispensing": "yes", "healthcare": "pharmacy", "name": "Apotek Hj\u00e4rtat", "opening_hours": "Mo-Fr 08:00-20:00; Sa-Su 10:00-18:00", "operator": "Apotek Hj\u00e4rtat Retail AB", "owner": "ICA Gruppen AB", "ownership": "private", "payment:cash": "yes", "phone": "+46771405405", "website": "https://www.apotekhjartat.se/", "website:stock": "https://www.fass.se/", "wheelchair": "yes"}}, {"type": "node", "id": 8720256797, "lat": 59.3063491, "lon": 18.1218831, "tags": {"addr:city": "Nacka", "addr:country": "SE", "addr:housenumber": "16", "addr:postcode": "131 54", "addr:street": "Smedjegatan", "amenity": "pharmacy", "brand": "Kronans Apotek", "brand:wikidata": "Q10549422", "contact:website": "https://www.kronansapotek.se/", "dispensing": "yes", "entrance": "yes", "healthcare": "pharmacy", "name": "Kronans Apotek", "opening_hours": "Mo-Fr 08:00-18:00"}}, {"type": "node", "id": 8730789659, "lat": 59.3645333, "lon": 17.9940839, "tags": {"amenity": "pharmacy", "healthcare": "pharmacy", "name": "R\u00e5sunda apotek", "opening_hours": "Mo-Fr 09:00-18:00", "website": "https://www.r\u00e5sundaapotek.se/"}}, {"type": "node", "id": 9061698067, "lat": 59.534231, "lon": 18.0790582, "tags": {"addr:city": "Vallentuna", "addr:country": "SE", "addr:housename": "Torghuset", "addr:housenumber": "8", "addr:postcode": "186 31", "addr:street": "Tuna Torg", "amenity": "pharmacy", "branch": "Vallentuna", "brand": "Kronans Apotek", "brand:wikidata": "Q10549422", "check_date": "2023-11-26", "healthcare": "pharmacy", "name": "Kronans Apotek", "opening_hours": "Mo-Fr 08:00-18:00; Sa-Su 10:00-15:00", "wheelchair": "yes"}}, {"type": "node", "id": 9101572984, "lat": 59.3367132, "lon": 18.0787078, "tags": {"amenity": "pharmacy", "healthcare": "pharmacy", "name": "Kronapotek"}}, {"type": "node", "id": 9624730742, "lat": 59.3089737, "lon": 18.1652904, "tags": {"amenity": "pharmacy", "brand": "Apoteket", "brand:wikidata": "Q1785637", "healthcare": "pharmacy", "level": "1", "name": "Apoteket Svanen"}}, {"type": "node", "id": 9774672960, "lat": 59.3612242, "lon": 17.9726409, "tags": {"amenity": "pharmacy", "branch": "Sundbyberg", "brand": "Kronans Apotek", "brand:wikidata": "Q10549422", "dispensing": "yes", "healthcare": "pharmacy", "name": "Kronans Apotek", "opening_hours": "Mo-Fr 08:00-18:00; Sa 10:00-15:00", "website": "https://www.kronansapotek.se"}}, {"type": "node", "id": 9897421795, "lat": 59.3166942, "lon": 18.0338596, "tags": {"amenity": "pharmacy", "brand": "Kronans Apotek", "brand:wikidata": "Q10549422", "brand:wikipedia": "sv:Kronans Apotek", "dispensing": "yes", "healthcare": "pharmacy", "level": "-1", "name": "Kronans Apotek", "opening_hours": "Mo-Fr 09:00-20:00;Sa 10:00-18:00;Su 11:00-18:00", "operator": "Kronans Droghandel Apotek AB", "payment:cash": "yes", "phone": "+46771612612", "website": "https://www.kronansapotek.se", "website:stock": "https://www.fass.se/"}}, {"type": "node", "id": 9990685939, "lat": 59.2855373, "lon": 17.9641768, "tags": {"addr:city": "H\u00e4gersten", "addr:country": "SE", "addr:housenumber": "5", "addr:postcode": "129 52", "addr:street": "Fru\u00e4ngsg\u00e5ngen", "amenity": "pharmacy", "app:apple": "https://itunes.apple.com/se/app/apotek-hj%C3%A4rtat-n%C3%A4ra-dig/id1150817089", "app:google": "https://play.google.com/store/apps/details?id=com.presencekit.apotek.se&hl=en_US", "brand": "Apotek Hj\u00e4rtat", "brand:wikidata": "Q10416114", "brand:wikipedia": "sv:Apotek Hj\u00e4rtat", "dispensing": "yes", "healthcare": "pharmacy", "name": "Apotek Hj\u00e4rtat", "opening_hours": "Mo-Fr 09:00-19:00; Sa 10:00-15:00", "operator": "Apotek Hj\u00e4rtat Retail AB", "owner": "ICA Gruppen AB", "ownership": "private", "phone": "+46 771-405 405", "website": "https://www.apotekhjartat.se/hitta-apotek-hjartat/stockholm/apotek_hjartat_fruangen_centrum/", "website:stock": "https://www.fass.se/"}}, {"type": "node", "id": 10189313118, "lat": 59.3082379, "lon": 18.0751196, "tags": {"amenity": "pharmacy", "brand": "Apotek Hj\u00e4rtat", "brand:wikidata": "Q10416114", "healthcare": "pharmacy", "level": "0", "name": "Apotek Hj\u00e4rtat"}}, {"type": "node", "id": 10253627022, "lat": 59.2953484, "lon": 18.0997096, "tags": {"amenity": "pharmacy", "branch": "Hinden", "brand": "Apoteket", "brand:wikidata": "Q1785637", "healthcare": "pharmacy", "name": "Apoteket", "opening_hours": "Mo-Fr 09:00-13:00, 14:00-18:00", "phone": "+46771450450"}}, {"type": "node", "id": 11112135314, "lat": 59.3483062, "lon": 18.0298445, "tags": {"addr:housenumber": "3", "addr:street": "Eugeniav\u00e4gen", "amenity": "pharmacy", "brand": "Apoteket", "brand:wikidata": "Q1785637", "check_date": "2024-05-29", "dispensing": "yes", "drive_through": "no", "healthcare": "pharmacy", "internet_access": "no", "level": "0", "name": "Apoteket", "opening_hours": "Mo-Fr 07:00-19:00; Sa-Su 10:00-15:00", "payment:mastercard": "yes", "payment:visa": "yes", "website": "https://apoteket.se", "wheelchair": "yes"}}, {"type": "node", "id": 11112135315, "lat": 59.3486237, "lon": 18.0328594, "tags": {"addr:housenumber": "12", "addr:street": "Eugeniav\u00e4gen", "amenity": "pharmacy", "brand": "Kronans Apotek", "brand:wikidata": "Q10549422", "check_date": "2023-08-13", "dispensing": "yes", "drive_through": "no", "healthcare": "pharmacy", "internet_access": "no", "level": "0", "name": "Kronans Apotek", "opening_hours": "Mo-Fr 08:00-17:00; Sa 09:00-15:00; Su off", "payment:mastercard": "yes", "payment:visa": "yes", "website": "https://www.kronansapotek.se", "wheelchair": "yes"}}, {"type": "node", "id": 11118221389, "lat": 59.4593139, "lon": 18.1382035, "tags": {"amenity": "pharmacy", "brand": "Apoteket", "brand:wikidata": "Q1785637", "healthcare": "pharmacy", "name": "Apoteket", "opening_hours": "Mo-Fr 09:00-20:00; Sa 10:00-17:00; Su 11:00-17:00", "wheelchair": "yes"}}, {"type": "node", "id": 11736855313, "lat": 59.348077, "lon": 18.1025952, "tags": {"amenity": "pharmacy", "healthcare": "pharmacy", "name": "Apotek", "opening_hours": "Mo-Fr 08:30-18:30; Sa 10:00-14:00", "wheelchair": "no"}}, {"type": "node", "id": 11993273210, "lat": 59.4024676, "lon": 17.9456561, "tags": {"amenity": "pharmacy", "brand": "Apoteket", "brand:wikidata": "Q1785637", "check_date": "2025-02-16", "healthcare": "pharmacy", "level": "0", "name": "Apotek Hj\u00e4rtat"}}, {"type": "node", "id": 12014513391, "lat": 59.2428951, "lon": 18.0912097, "tags": {"amenity": "pharmacy", "brand": "DOZ Apotek", "brand:wikidata": "Q10475311", "healthcare": "pharmacy", "name": "DOZ Apotek"}}, {"type": "node", "id": 12016563685, "lat": 59.2634875, "lon": 18.0418428, "tags": {"amenity": "pharmacy", "brand": "DOZ Apotek", "brand:wikidata": "Q10475311", "healthcare": "pharmacy", "name": "DOZ Apotek", "opening_hours": "Mo-Fr 09:00-19:00; Sa 10:00-17:00; Su 11:00-16:00"}}, {"type": "node", "id": 12017092371, "lat": 59.268158, "lon": 18.0520696, "tags": {"amenity": "pharmacy", "healthcare": "pharmacy", "name": "Mecinkd Fotv\u00e5rd"}}, {"type": "node", "id": 12027927734, "lat": 59.3411605, "lon": 17.9443373, "tags": {"amenity": "pharmacy", "healthcare": "pharmacy", "name": "Medstore"}}, {"type": "node", "id": 12030859048, "lat": 59.2940846, "lon": 18.0796413, "tags": {"amenity": "pharmacy", "healthcare": "pharmacy", "name": "Apotek"}}, {"type": "node", "id": 12142911792, "lat": 59.4021221, "lon": 17.9438147}, {"type": "node", "id": 12142911793, "lat": 59.4020369, "lon": 17.9439305}, {"type": "node", "id": 12142911794, "lat": 59.401979, "lon": 17.9437661}, {"type": "node", "id": 12142911795, "lat": 59.4019024, "lon": 17.9438683}, {"type": "node", "id": 12142911796, "lat": 59.4021534, "lon": 17.9439034}, {"type": "node", "id": 12142911797, "lat": 59.4019906, "lon": 17.9441281}, {"type": "node", "id": 12331385440, "lat": 59.4281004, "lon": 17.9517791, "tags": {"addr:city": "Sollentuna", "addr:country": "SE", "addr:floor": "1", "addr:housenumber": "163C", "addr:postcode": "19147", "addr:street": "Sollentunav\u00e4gen", "amenity": "pharmacy", "brand": "DOZ Apotek", "brand:wikidata": "Q10475311", "check_date": "2024-11-11", "contact:phone": "+46850515160", "contact:website": "http://dozapotek.se", "email": "sollentuna.sollentunacentrum@lloydsapotek.se", "healthcare": "pharmacy", "level": "1", "name": "DOZ Apotek", "opening_hours": "Mo-Fr 09:00-20:00; Sa-Su 10:00-18:00"}}, {"type": "node", "id": 12681468042, "lat": 59.325208, "lon": 18.0069413, "tags": {"addr:city": "Stockholm", "addr:housenumber": "8", "addr:postcode": "112 61", "addr:street": "Essinge Brogata", "amenity": "pharmacy", "dispensing": "yes", "drive_through": "no", "email": "info@essingensapotek.se", "healthcare": "pharmacy", "name": "Essingens Apotek", "opening_hours": "Mo-Fr 09:00-18:30; Sa 10:00-15:00", "phone": "+46 81 2112 100", "website": "https://essingensapotek.se"}}, {"type": "node", "id": 13006271297, "lat": 59.3813311, "lon": 18.0360681, "tags": {"amenity": "pharmacy", "brand": "Kronans Apotek", "brand:wikidata": "Q10549422", "healthcare": "pharmacy", "name": "Kronans Apotek", "opening_hours": "Mo-Fr 08:30-18:00; Sa 11:00-14:30"}}, {"type": "node", "id": 13100743689, "lat": 59.4280817, "lon": 17.9449753, "tags": {"amenity": "pharmacy", "healthcare": "pharmacy", "name": "Sollentuns Apotek", "opening_hours": "Mo-Fr 10:00-18:00", "phone": "+46 76 021 35 24"}}, {"type": "node", "id": 13122801894, "lat": 59.3160444, "lon": 18.0889126, "tags": {"amenity": "pharmacy", "brand": "Apoteket", "brand:wikidata": "Q1785637", "healthcare": "pharmacy", "name": "Apoteket"}}, {"type": "way", "id": 42330513, "nodes": [528423531, 528423558, 528423556, 528423554, 528423531], "tags": {"addr:country": "SE", "addr:housenumber": "179", "addr:street": "Tussm\u00f6tev\u00e4gen", "amenity": "pharmacy", "brand": "Apoteket", "brand:wikidata": "Q1785637", "building": "yes", "healthcare": "pharmacy", "name": "Apoteket", "operator": "Apoteket", "website:stock": "https://www.fass.se/"}}, {"type": "way", "id": 1311862224, "nodes": [12142911796, 12142911797, 12142911795, 12142911794, 12142911793, 12142911792, 12142911796], "tags": {"amenity": "pharmacy", "brand": "Apoteket", "brand:wikidata": "Q1785637", "brand:wikipedia": "sv:Apoteket", "healthcare": "pharmacy", "indoor": "room", "level": "0", "name": "Apoteket", "website:stock": "https://www.fass.se/"}}]}