{"version": 0.6, "generator": "Overpass API 0.7.62.8 e802775f", "osm3s": {"timestamp_osm_base": "2025-10-06T08:20:01Z", "copyright": "The data included in this document is from www.openstreetmap.org. The data is made available under ODbL."}, "elements": [{"type": "node", "id": 1516426425, "lat": 51.9766827, "lon": 18.7939435, "tags": {"amenity": "pharmacy", "dispensing": "yes", "email": "ArnicaM@poczta.onet.pl", "healthcare": "pharmacy", "name": "Dobry Lek", "opening_hours": "Mo-Fr 08:00-18:00; Sa-Su off", "phone": "+48 63 28 88 741", "ref:csioz": "1009810"}}, {"type": "node", "id": 1516426429, "lat": 51.976984, "lon": 18.7944906, "tags": {"amenity": "pharmacy", "dispensing": "yes", "email": "aptekaakacja@vp.pl", "healthcare": "pharmacy", "name": "Akacja", "opening_hours": "Mo-Fr 08:00-20:00; Sa 08:00-16:00; Su 08:00-14:00", "phone": "+48 63 28 88 674", "ref:csioz": "1011093", "wheelchair": "yes"}}, {"type": "node", "id": 1810321508, "lat": 51.9756115, "lon": 19.003154, "tags": {"amenity": "pharmacy", "dispensing": "yes", "healthcare": "pharmacy", "ref:csioz": "1011466"}}, {"type": "node", "id": 2441937694, "lat": 52.2019974, "lon": 18.6397393, "tags": {"amenity": "pharmacy", "dispensing": "yes", "healthcare": "pharmacy", "name": "Prima", "ref:csioz": "1049509"}}, {"type": "node", "id": 2637979800, "lat": 52.0529779, "lon": 19.1915369, "tags": {"amenity": "pharmacy", "dispensing": "yes", "healthcare": "pharmacy", "name": "Sieciowa", "opening_hours": "Mo-Fr 08:00-20:00, Sa 08:00-18:00", "ref:csioz": "1024026"}}, {"type": "node", "id": 3844790447, "lat": 52.3335413, "lon": 18.8986573, "tags": {"addr:city": "Przedecz", "addr:housenumber": "4", "addr:postcode": "62-635", "addr:street": "Zamkowa", "amenity": "pharmacy", "check_date": "2025-05-10", "dispensing": "yes", "healthcare": "pharmacy", "name": "Pod \u0141ab\u0119dziem", "opening_hours": "Mo-Fr 09:00-16:00; Sa 09:00-13:00", "ref:csioz": "1048389"}}, {"type": "node", "id": 3940280431, "lat": 52.0872088, "lon": 18.821883, "tags": {"amenity": "pharmacy", "dispensing": "yes", "healthcare": "pharmacy", "name": "Nova", "ref:csioz": "1048151"}}, {"type": "node", "id": 3954283573, "lat": 52.3443215, "lon": 18.6670014, "tags": {"amenity": "pharmacy", "dispensing": "yes", "healthcare": "pharmacy", "name": "Rodzinna", "ref:csioz": "1183796"}}, {"type": "node", "id": 4331980777, "lat": 52.3535263, "lon": 18.7315166, "tags": {"addr:city": "Brd\u00f3w", "addr:city:simc": "0280844", "addr:housenumber": "23", "addr:postcode": "62-620", "addr:street": "Braterstwa Broni", "amenity": "pharmacy", "dispensing": "yes", "healthcare": "pharmacy", "name": "Punkt Apteczny Eskulap", "ref:csioz": "1049798"}}, {"type": "node", "id": 5035314993, "lat": 52.2037845, "lon": 18.6399864, "tags": {"amenity": "pharmacy", "dispensing": "yes", "healthcare": "pharmacy", "name": "Kwiaty Polskie", "opening_hours": "Mo-Fr 08:00-20:00; Sa 08:00-14:00", "phone": "+48 63 261 09 70", "ref:csioz": "1049428"}}, {"type": "node", "id": 5885130616, "lat": 51.970032, "lon": 18.7974793, "tags": {"amenity": "pharmacy", "dispensing": "yes", "email": "apteka.uniejow@aptekiprima.pl", "healthcare": "pharmacy", "name": "Prima", "opening_hours": "Mo-Fr 08:00-20:00; Sa 08:00-16:00; Su off", "phone": "+48 63 278 85 69", "ref:csioz": "1214316", "wheelchair": "yes"}}, {"type": "node", "id": 6496209761, "lat": 52.2033129, "lon": 18.6308927}, {"type": "node", "id": 6496209762, "lat": 52.2032777, "lon": 18.6310132}, {"type": "node", "id": 6496209763, "lat": 52.2032286, "lon": 18.630975}, {"type": "node", "id": 6496209764, "lat": 52.203222, "lon": 18.6309975}, {"type": "node", "id": 6496209765, "lat": 52.2031709, "lon": 18.6309577}, {"type": "node", "id": 6610233449, "lat": 52.2019008, "lon": 18.6380456, "tags": {"amenity": "pharmacy", "check_date:opening_hours": "2024-03-11", "dispensing": "yes", "healthcare": "pharmacy", "name": "Topfarm", "opening_hours": "Mo-Fr 08:00-19:00; Sa 08:00-14:00", "ref:csioz": "1049170", "wheelchair": "yes"}}, {"type": "node", "id": 6610233450, "lat": 52.2019998, "lon": 18.6384808, "tags": {"amenity": "pharmacy", "dispensing": "yes", "healthcare": "pharmacy", "name": "Apteka Stylowa", "opening_hours": "Mo-Fr 08:00-19:00; Sa 08:00-14:00", "ref:csioz": "1049551", "wheelchair": "yes"}}, {"type": "node", "id": 9586144194, "lat": 52.2587094, "lon": 19.1668017, "tags": {"addr:city": "Kro\u015bniewice", "addr:housenumber": "23B", "addr:postcode": "99-340", "addr:street": "Kolejowa", "amenity": "pharmacy", "dispensing": "yes", "ref:csioz": "1010059"}}, {"type": "node", "id": 9586221074, "lat": 52.2965793, "lon": 19.1932098, "tags": {"addr:housenumber": "7", "addr:place": "Wo\u0142odrza", "addr:postcode": "99-350", "amenity": "pharmacy", "dispensing": "yes", "name": "Medest", "ref:csioz": "1021194"}}, {"type": "node", "id": 9586255242, "lat": 52.3158347, "lon": 19.0825364, "tags": {"addr:city": "D\u0105browice", "addr:housenumber": "31", "addr:postcode": "99-352", "addr:street": "Stary Rynek", "amenity": "pharmacy", "dispensing": "yes", "name": "Aloes", "ref:csioz": "1022934"}}, {"type": "node", "id": 9586262259, "lat": 52.2577059, "lon": 19.1664998, "tags": {"addr:city": "Kro\u015bniewice", "addr:housenumber": "8", "addr:postcode": "99-340", "addr:street": "Kolejowa", "amenity": "pharmacy", "dispensing": "yes", "ref:csioz": "1011926"}}, {"type": "node", "id": 9586265882, "lat": 52.2554932, "lon": 19.1655814, "tags": {"addr:city": "Kro\u015bniewice", "addr:housenumber": "18/20", "addr:postcode": "99-340", "addr:street": "Pozna\u0144ska", "amenity": "pharmacy", "dispensing": "yes", "name": "Elfarm 5", "ref:csioz": "1025376"}}, {"type": "node", "id": 9586343299, "lat": 52.3036436, "lon": 19.1661129, "tags": {"addr:housenumber": "17C", "addr:place": "Ostrowy-Cukrownia", "addr:postcode": "99-350", "amenity": "pharmacy", "dispensing": "yes", "healthcare": "pharmacy", "name": "Pod Jesionem", "ref:csioz": "1018565"}}, {"type": "node", "id": 9592657523, "lat": 52.4043384, "lon": 19.0288393, "tags": {"addr:city": "Chodecz", "addr:housenumber": "3", "addr:postcode": "87-860", "addr:street": "Ko\u015bcielna", "amenity": "pharmacy", "dispensing": "yes", "ref:csioz": "1103927"}}, {"type": "node", "id": 9592678201, "lat": 52.4025531, "lon": 19.16864, "tags": {"addr:city": "Lubie\u0144 Kujawski", "addr:housenumber": "44 A", "addr:postcode": "87-840", "addr:street": "1 Maja", "amenity": "pharmacy", "dispensing": "yes", "name": "Im. J. \u015aniadeckiego", "opening_hours": "Mo-Fr 08:00-18:00; Sa 08:00-15:00; Su off", "ref:csioz": "1104504"}}, {"type": "node", "id": 9592690900, "lat": 52.4015428, "lon": 19.1700725, "tags": {"addr:city": "Lubie\u0144 Kujawski", "addr:housenumber": "46", "addr:postcode": "87-840", "addr:street": "1 Maja", "amenity": "pharmacy", "dispensing": "yes", "ref:csioz": "1104239"}}, {"type": "node", "id": 9592725368, "lat": 52.4057267, "lon": 19.0269076, "tags": {"addr:city": "Chodecz", "addr:housenumber": "6", "addr:postcode": "87-860", "addr:street": "Plac Tadeusza Ko\u015bciuszki", "amenity": "pharmacy", "dispensing": "yes", "name": "Apteka Im. Pf. F. Adamanisa", "ref:csioz": "1110607"}}, {"type": "node", "id": 9659211173, "lat": 52.2490878, "lon": 19.0131074, "tags": {"addr:housenumber": "1", "addr:place": "Chod\u00f3w", "amenity": "pharmacy", "dispensing": "yes", "healthcare": "pharmacy", "name": "Punkt Apteczny Melisana", "ref:csioz": "1049765"}}, {"type": "node", "id": 9920186523, "lat": 52.2055328, "lon": 18.6363493, "tags": {"amenity": "pharmacy", "brand": "Prima", "dispensing": "yes", "drive_through": "no", "healthcare": "pharmacy", "name": "Prima", "opening_hours": "24/7", "ref:csioz": "1049275", "website": "https://aptekaprima24.pl/", "wheelchair": "yes"}}, {"type": "node", "id": 10030064809, "lat": 52.2027837, "lon": 18.6316576, "tags": {"amenity": "pharmacy", "dispensing": "yes", "healthcare": "pharmacy", "name": "Eskulap", "ref:csioz": "1187761"}}, {"type": "node", "id": 10059187779, "lat": 52.202459, "lon": 18.6305166, "tags": {"amenity": "pharmacy", "dispensing": "yes", "healthcare": "pharmacy", "name": "Stylowa 3", "ref:csioz": "1213735"}}, {"type": "node", "id": 10188894332, "lat": 52.1998257, "lon": 18.6356859, "tags": {"amenity": "pharmacy", "dispensing": "yes", "healthcare": "pharmacy", "name": "Stylowa 2", "ref:csioz": "1193306"}}, {"type": "node", "id": 10221273528, "lat": 52.4070484, "lon": 19.0244058, "tags": {"addr:city": "Chodecz", "addr:housenumber": "3", "addr:postcode": "87-860", "addr:street": "Warne\u0144czyka", "amenity": "pharmacy", "dispensing": "yes", "healthcare": "pharmacy", "name": "Pod M\u0142ynem", "ref:csioz": "1216021"}}, {"type": "node", "id": 10224362892, "lat": 52.4525806, "lon": 19.1322926, "tags": {"amenity": "pharmacy", "dispensing": "yes", "healthcare": "pharmacy", "name": "Punkt Apteczny Vigor 3", "ref:csioz": "1202194"}}, {"type": "node", "id": 10229061083, "lat": 52.2032127, "lon": 18.6308147}, {"type": "node", "id": 10229061084, "lat": 52.1967837, "lon": 18.643681, "tags": {"addr:city": "Ko\u0142o", "addr:housenumber": "38", "addr:postcode": "62-600", "addr:street": "3 Maja", "amenity": "pharmacy", "dispensing": "yes", "healthcare": "pharmacy", "name": "Kolska", "opening_hours": "Mo-Fr 08:00-20:00; Sa 08:00-16:00", "ref:csioz": "1120172"}}, {"type": "node", "id": 10229061085, "lat": 52.3345113, "lon": 18.89826, "tags": {"addr:city": "Przedecz", "addr:housenumber": "4", "addr:postcode": "62-635", "addr:street": "plac Wolno\u015bci", "amenity": "pharmacy", "dispensing": "yes", "healthcare": "pharmacy", "name": "Optima", "opening_hours": "Mo-Fr 08:00-16:00; Sa 08:00-13:00", "ref:csioz": "1199552"}}, {"type": "node", "id": 10230582672, "lat": 52.2001598, "lon": 18.6350565, "tags": {"amenity": "pharmacy", "dispensing": "yes", "healthcare": "pharmacy", "name": "Pod Zegarem", "ref:csioz": "1049119"}}, {"type": "node", "id": 10230582673, "lat": 52.1935299, "lon": 18.6318307, "tags": {"amenity": "pharmacy", "dispensing": "yes", "healthcare": "pharmacy", "name": "S\u0142oneczko", "ref:csioz": "1183774"}}, {"type": "node", "id": 10230582674, "lat": 52.2055589, "lon": 18.6266489, "tags": {"amenity": "pharmacy", "brand": "Dbam o Zdrowie", "brand:wikidata": "Q62563833", "dispensing": "yes", "healthcare": "pharmacy", "name": "Dbam o Zdrowie", "ref:csioz": "1049538", "short_name": "DOZ"}}, {"type": "node", "id": 10230582675, "lat": 52.2554946, "lon": 18.9156466, "tags": {"amenity": "pharmacy", "dispensing": "yes", "healthcare": "pharmacy", "name": "Elfarm 5", "ref:csioz": "1048825"}}, {"type": "node", "id": 10230582676, "lat": 52.2478644, "lon": 18.9154725, "tags": {"amenity": "pharmacy", "dispensing": "yes", "healthcare": "pharmacy", "name": "Millenium", "ref:csioz": "1048933"}}, {"type": "node", "id": 10230582677, "lat": 52.2498655, "lon": 18.9121613, "tags": {"addr:city": "K\u0142odawa", "addr:housenumber": "23", "addr:street": "D\u0105bska", "amenity": "pharmacy", "dispensing": "yes", "healthcare": "pharmacy", "name": "Elfarm 5", "ref:csioz": "1048830"}}, {"type": "node", "id": 10230582678, "lat": 52.2494514, "lon": 18.912091, "tags": {"addr:city": "K\u0142odawa", "addr:city:simc": "0949046", "addr:housenumber": "2B", "addr:street": "Armii Krajowej", "addr:street:sym_ul": "00432", "amenity": "pharmacy", "dispensing": "yes", "healthcare": "pharmacy", "name": "Pharmavita", "ref:addr": "4878fc55-6536-4f62-8217-0179b4511fe2", "ref:csioz": "1048218", "source:addr": "klodawakolska.e-mapa.net"}}, {"type": "node", "id": 10230582747, "lat": 52.201619, "lon": 18.734509, "tags": {"amenity": "pharmacy", "dispensing": "yes", "healthcare": "pharmacy", "name": "Twoje Leki", "ref:csioz": "1223461"}}, {"type": "node", "id": 10230582748, "lat": 52.2016411, "lon": 18.7314988, "tags": {"amenity": "pharmacy", "brand": "Dbam o Zdrowie", "brand:wikidata": "Q62563833", "dispensing": "yes", "healthcare": "pharmacy", "name": "Dbam o Zdrowie", "ref:csioz": "1049625", "short_name": "DOZ"}}, {"type": "node", "id": 10230582754, "lat": 52.2948627, "lon": 18.6049878, "tags": {"amenity": "pharmacy", "dispensing": "yes", "healthcare": "pharmacy", "ref:csioz": "1120195"}}, {"type": "node", "id": 10230582758, "lat": 52.1122231, "lon": 18.7538107, "tags": {"amenity": "pharmacy", "dispensing": "yes", "healthcare": "pharmacy", "name": "Punkt Apteczny", "ref:csioz": "1049787"}}, {"type": "node", "id": 10230582759, "lat": 52.3441897, "lon": 18.6659788, "tags": {"amenity": "pharmacy", "dispensing": "yes", "healthcare": "pharmacy", "name": "Pod Jemio\u0142\u0105", "ref:csioz": "1048138", "wheelchair": "no"}}, {"type": "node", "id": 10230582760, "lat": 52.3439507, "lon": 18.6673005, "tags": {"amenity": "pharmacy", "dispensing": "yes", "healthcare": "pharmacy", "name": "Vitafarm", "ref:csioz": "1120481"}}, {"type": "node", "id": 10230582761, "lat": 52.1636905, "lon": 18.8316859, "tags": {"amenity": "pharmacy", "dispensing": "yes", "healthcare": "pharmacy", "ref:csioz": "1048922"}}, {"type": "node", "id": 10230589870, "lat": 52.2624972, "lon": 18.6816452, "tags": {"amenity": "pharmacy", "dispensing": "yes", "healthcare": "pharmacy", "name": "Punkt Apteczny Twoje Leki", "ref:csioz": "1049674"}}, {"type": "node", "id": 10240997159, "lat": 51.9729339, "lon": 18.7929536, "tags": {"amenity": "pharmacy", "dispensing": "yes", "email": "uniejow@przyjazneapteki.com.pl", "healthcare": "pharmacy", "name": "Dobry Lek", "opening_hours": "Mo-Fr 08:00-20:00; Sa 08:00-17:00; Su 09:00-14:00", "phone": "+48 63 278 88 86", "ref:csioz": "1216469", "wheelchair": "yes"}}, {"type": "node", "id": 10282147526, "lat": 52.1545661, "lon": 19.1835121, "tags": {"amenity": "pharmacy", "dispensing": "yes", "healthcare": "pharmacy", "name": "Punkt Apteczny Przyjazny", "ref:csioz": "1024396"}}, {"type": "node", "id": 10282207423, "lat": 52.1270622, "lon": 19.0073496, "tags": {"amenity": "pharmacy", "dispensing": "yes", "healthcare": "pharmacy", "ref:csioz": "1009518"}}, {"type": "node", "id": 10282207424, "lat": 52.0555879, "lon": 19.3226672, "tags": {"amenity": "pharmacy", "dispensing": "yes", "healthcare": "pharmacy", "name": "Punkt Apteczny \u015awi\u0119tej Ma\u0142gorzaty", "ref:csioz": "1023159"}}, {"type": "node", "id": 10282236745, "lat": 52.0609635, "lon": 19.2001602, "tags": {"amenity": "pharmacy", "dispensing": "yes", "healthcare": "pharmacy", "name": "\u0141\u0119czycka", "ref:csioz": "1021750"}}, {"type": "node", "id": 10282236746, "lat": 52.1279815, "lon": 18.9959907, "tags": {"amenity": "pharmacy", "dispensing": "yes", "healthcare": "pharmacy", "name": "Zdrowie", "ref:csioz": "1018634"}}, {"type": "node", "id": 10282279291, "lat": 52.0596229, "lon": 19.1886311, "tags": {"amenity": "pharmacy", "dispensing": "yes", "healthcare": "pharmacy", "name": "\u0141\u0119czycka", "ref:csioz": "1206873"}}, {"type": "node", "id": 10282279292, "lat": 52.0614569, "lon": 19.1991659, "tags": {"amenity": "pharmacy", "dispensing": "yes", "healthcare": "pharmacy", "name": "Zdrowie", "ref:csioz": "1023215"}}, {"type": "node", "id": 10282279293, "lat": 52.0572463, "lon": 19.2029746, "tags": {"amenity": "pharmacy", "dispensing": "yes", "healthcare": "pharmacy", "name": "\u0141\u0119czycka", "ref:csioz": "1026600"}}, {"type": "node", "id": 10282279294, "lat": 52.059072, "lon": 19.1952342, "tags": {"amenity": "pharmacy", "dispensing": "yes", "healthcare": "pharmacy", "name": "Melisa", "ref:csioz": "1013539"}}, {"type": "node", "id": 10282279295, "lat": 52.0600549, "lon": 19.1978365, "tags": {"amenity": "pharmacy", "brand": "Dr. Max", "brand:wikidata": "Q56317371", "dispensing": "yes", "healthcare": "pharmacy", "name": "Dr. Max", "ref:csioz": "1189143"}}, {"type": "node", "id": 10282279296, "lat": 52.0608001, "lon": 19.1986481, "tags": {"amenity": "pharmacy", "dispensing": "yes", "healthcare": "pharmacy", "name": "Przyjazna", "ref:csioz": "1012654"}}, {"type": "node", "id": 10282284405, "lat": 52.1477374, "lon": 19.289749, "tags": {"amenity": "pharmacy", "brand": "Centrum Zdrowia", "dispensing": "yes", "healthcare": "pharmacy", "name": "Centrum Zdrowia", "ref:csioz": "1194926"}}, {"type": "node", "id": 10282284406, "lat": 52.0419495, "lon": 18.921055, "tags": {"amenity": "pharmacy", "dispensing": "yes", "healthcare": "pharmacy", "name": "\u015aw. Faustyny", "ref:csioz": "1009612"}}, {"type": "node", "id": 10282284407, "lat": 52.1769712, "lon": 19.1229234, "tags": {"amenity": "pharmacy", "dispensing": "yes", "fixme": "Lokalizacja do weryfikacji", "healthcare": "pharmacy", "name": "Punkt Apteczny", "ref:csioz": "1010680"}}, {"type": "node", "id": 10285376601, "lat": 52.2032656, "lon": 18.6310038, "tags": {"door": "hinged", "entrance": "main", "level": "0"}}, {"type": "way", "id": 692068265, "nodes": [10229061083, 6496209761, 6496209762, 10285376601, 6496209763, 6496209764, 6496209765, 10229061083], "tags": {"addr:city": "Ko\u0142o", "addr:city:simc": "0949052", "addr:housenumber": "4", "addr:postcode": "62-600", "addr:street": "PCK", "amenity": "pharmacy", "brand": "Dr. Max", "brand:wikidata": "Q56317371", "building": "retail", "dispensing": "yes", "healthcare": "pharmacy", "name": "Dr. Max", "ref:csioz": "1204487", "source:addr": "mkolo.e-mapa.net"}}]}