{"version": 0.6, "generator": "Overpass API 0.7.62.8 e802775f", "osm3s": {"timestamp_osm_base": "2025-10-06T08:20:01Z", "copyright": "The data included in this document is from www.openstreetmap.org. The data is made available under ODbL."}, "elements": [{"type": "node", "id": 2064660919, "lat": 48.1290333, "lon": 21.3434421, "tags": {"amenity": "pharmacy", "name": "BENU Gy\u00f3gyszert\u00e1r"}}, {"type": "node", "id": 2345353705, "lat": 48.1023435, "lon": 20.9655419}, {"type": "node", "id": 2345353706, "lat": 48.1022782, "lon": 20.9657471}, {"type": "node", "id": 2345353707, "lat": 48.1021825, "lon": 20.9656787}, {"type": "node", "id": 2345353708, "lat": 48.102226, "lon": 20.9655419}, {"type": "node", "id": 2345353709, "lat": 48.1021477, "lon": 20.9654931}, {"type": "node", "id": 2345353710, "lat": 48.1021651, "lon": 20.9654149}, {"type": "node", "id": 2392883141, "lat": 48.197137, "lon": 21.531955, "tags": {"amenity": "pharmacy", "healthcare": "pharmacy"}}, {"type": "node", "id": 2396808523, "lat": 47.9537693, "lon": 21.3626824, "tags": {"amenity": "pharmacy", "healthcare": "pharmacy", "name": "Dem-Kel-Er Kft. Kelp Ilona Gy\u00f3gyszert\u00e1r"}}, {"type": "node", "id": 2637175688, "lat": 48.1956382, "lon": 20.9292169}, {"type": "node", "id": 2637175696, "lat": 48.1955439, "lon": 20.9292958}, {"type": "node", "id": 2637175698, "lat": 48.1954838, "lon": 20.9291343}, {"type": "node", "id": 2637175700, "lat": 48.1955781, "lon": 20.9290554}, {"type": "node", "id": 2937100622, "lat": 47.9590138, "lon": 21.3551921, "tags": {"amenity": "pharmacy", "healthcare": "pharmacy", "name": "Kabay Patika"}}, {"type": "node", "id": 2937100629, "lat": 47.9640323, "lon": 21.3492921, "tags": {"amenity": "pharmacy", "name": "Arany Kereszt Gy\u00f3gyszert\u00e1r"}}, {"type": "node", "id": 3186424617, "lat": 47.9342603, "lon": 21.0385643}, {"type": "node", "id": 3186424627, "lat": 47.9342998, "lon": 21.0384168}, {"type": "node", "id": 3186424657, "lat": 47.9343573, "lon": 21.0386743}, {"type": "node", "id": 3186424659, "lat": 47.9343088, "lon": 21.0385187}, {"type": "node", "id": 3186425779, "lat": 47.9343016, "lon": 21.0387252}, {"type": "node", "id": 3186425831, "lat": 47.934325, "lon": 21.0384758}, {"type": "node", "id": 3186425845, "lat": 47.9342387, "lon": 21.0384704}, {"type": "node", "id": 3186425849, "lat": 47.9342315, "lon": 21.0386689}, {"type": "node", "id": 3194509018, "lat": 47.9292617, "lon": 21.0394982, "tags": {"addr:city": "Tisza\u00fajv\u00e1ros", "addr:postcode": "3580", "amenity": "pharmacy", "healthcare": "pharmacy", "wheelchair": "yes"}}, {"type": "node", "id": 3198794339, "lat": 47.9313979, "lon": 21.0336384, "tags": {"amenity": "pharmacy", "dispensing": "yes", "healthcare": "pharmacy", "level": "0", "name": "Rem\u00e9ny Gy\u00f3gyszert\u00e1r", "opening_hours": "Mo-Fr 08:00-17:00; Sa 08:00-12:00"}}, {"type": "node", "id": 3227828478, "lat": 48.151718, "lon": 21.1722204, "tags": {"amenity": "pharmacy", "contact:phone": "+36 47 361 433", "contact:website": "http://www.oroszlanpatika.hu", "healthcare": "pharmacy", "name": "Oroszl\u00e1n Gy\u00f3gyszert\u00e1r", "name:de": "Apotheke zum L\u00f6wen", "name:en": "Lion's Pharmacy", "opening_hours": "Mo,We,Fr 08:00-14:00; Tu,Th 11:00-17:00; PH off", "operator": "Oroszl\u00e1n Patika Kft.", "wheelchair": "yes"}}, {"type": "node", "id": 3397799786, "lat": 48.0366665, "lon": 21.0634969}, {"type": "node", "id": 3397799787, "lat": 48.0367583, "lon": 21.0636341}, {"type": "node", "id": 3397799788, "lat": 48.0367972, "lon": 21.0633014}, {"type": "node", "id": 3397799789, "lat": 48.0368157, "lon": 21.0635482}, {"type": "node", "id": 3397799790, "lat": 48.0368232, "lon": 21.0632542}, {"type": "node", "id": 3397799791, "lat": 48.0368232, "lon": 21.0633014}, {"type": "node", "id": 3397799792, "lat": 48.0368334, "lon": 21.0635745}, {"type": "node", "id": 3397799793, "lat": 48.03687, "lon": 21.0634518}, {"type": "node", "id": 3397799794, "lat": 48.0368918, "lon": 21.0634192}, {"type": "node", "id": 3397799795, "lat": 48.0368927, "lon": 21.0634858}, {"type": "node", "id": 3397799796, "lat": 48.0368945, "lon": 21.0632542}, {"type": "node", "id": 3397799797, "lat": 48.0368945, "lon": 21.0633097}, {"type": "node", "id": 3397799798, "lat": 48.0369233, "lon": 21.0633097}, {"type": "node", "id": 3397799799, "lat": 48.0369233, "lon": 21.0634192}, {"type": "node", "id": 3439664767, "lat": 48.235482, "lon": 21.230316, "tags": {"addr:city": "T\u00e1llya", "addr:housenumber": "54", "addr:postcode": "3907", "addr:street": "R\u00e1k\u00f3czi \u00fat", "amenity": "pharmacy", "healthcare": "pharmacy", "name": "R\u00e9v\u00e9sz Gy\u00f3gyszert\u00e1r", "source": "turistautak.hu", "source:date": "2011-05-08", "url": "http://turistautak.hu/poi.php?id=96004"}}, {"type": "node", "id": 3462207404, "lat": 48.161612, "lon": 21.205867, "tags": {"amenity": "pharmacy", "healthcare": "pharmacy", "source": "turistautak.hu", "source:date": "2011-05-08", "url": "http://turistautak.hu/poi.php?id=68609", "wheelchair": "no"}}, {"type": "node", "id": 3469931828, "lat": 48.0493749, "lon": 21.3423442, "tags": {"amenity": "pharmacy", "drive_through": "no", "healthcare": "pharmacy", "name": "Gy\u00f3gyszert\u00e1r", "source": "turistautak.hu", "source:date": "2011-05-03", "url": "http://turistautak.hu/poi.php?id=97849"}}, {"type": "node", "id": 3469932205, "lat": 48.125573, "lon": 21.408403, "tags": {"addr:city": "Tokaj", "addr:housenumber": "12", "addr:postcode": "3910", "addr:street": "Kossuth t\u00e9r", "amenity": "pharmacy", "brand": "Benu", "brand:wikidata": "Q62562792", "description": "Paracelsus Gy\u00f3gyszert\u00e1r Tokaj, Kossuth t\u00e9r 12. +3647/352-052 \u00c1lland\u00f3 \u00fcgyeletes gy\u00f3gyszert\u00e1r.", "email": "tokaj@cefinvest.hu", "healthcare": "pharmacy", "name": "Benu", "opening_hours": "Mo-Fr 08:00-17:00; Sa 08:00-12:00", "operator": "BENU", "phone": "+36 47 352 052", "source": "turistautak.hu", "source:date": "2011-05-08", "url": "https://benu.hu/shop/gyogyszertarak/paracelsus-gyogyszertar-tokaj", "wheelchair": "yes"}}, {"type": "node", "id": 3692487627, "lat": 47.9316001, "lon": 21.0244367, "tags": {"amenity": "pharmacy", "healthcare": "pharmacy", "name": "Tisza Gy\u00f3gyszert\u00e1r", "opening_hours": "Mo-Fr 08:00-20:00; Sa 08:00-17:00; Su 08:00-13:00", "wheelchair": "yes"}}, {"type": "node", "id": 4833002376, "lat": 48.1632763, "lon": 21.1992313, "tags": {"amenity": "pharmacy", "healthcare": "pharmacy", "name": "Centrum gy\u00f3gyszert\u00e1r"}}, {"type": "node", "id": 4850026058, "lat": 47.9691862, "lon": 20.982635}, {"type": "node", "id": 4850026059, "lat": 47.9691288, "lon": 20.982855}, {"type": "node", "id": 4850026060, "lat": 47.9689743, "lon": 20.9827557}, {"type": "node", "id": 4850026061, "lat": 47.96903, "lon": 20.9825438}, {"type": "node", "id": 4850300856, "lat": 48.1604572, "lon": 21.1889311, "tags": {"amenity": "pharmacy", "healthcare": "pharmacy", "name": "Oroszl\u00e1n gy\u00f3gyszert\u00e1r"}}, {"type": "node", "id": 4850300899, "lat": 48.1527883, "lon": 21.192536, "tags": {"amenity": "pharmacy", "healthcare": "pharmacy"}}, {"type": "node", "id": 6719010818, "lat": 48.3296099, "lon": 21.116984}, {"type": "node", "id": 6719010819, "lat": 48.3295706, "lon": 21.1170712}, {"type": "node", "id": 6719010820, "lat": 48.3295028, "lon": 21.1170021}, {"type": "node", "id": 6719010821, "lat": 48.329542, "lon": 21.1169149}, {"type": "node", "id": 6767775754, "lat": 48.1550346, "lon": 21.4624688, "tags": {"amenity": "pharmacy", "dispensing": "yes", "healthcare": "pharmacy", "name": "Szent Demj\u00e1n gy\u00f3gyszert\u00e1r", "payment:cash": "yes", "payment:credit_cards": "yes"}}, {"type": "node", "id": 8050171638, "lat": 48.0157542, "lon": 21.3758732}, {"type": "node", "id": 8050171639, "lat": 48.0157169, "lon": 21.3756693}, {"type": "node", "id": 8050171640, "lat": 48.0158378, "lon": 21.3756198}, {"type": "node", "id": 8050171641, "lat": 48.0158751, "lon": 21.3758237}, {"type": "node", "id": 9458477866, "lat": 48.0160745, "lon": 21.375352, "tags": {"amenity": "pharmacy", "dispensing": "yes", "healthcare": "pharmacy", "name": "Fl\u00f3ra Gy\u00f3gyszert\u00e1r"}}, {"type": "node", "id": 10278705296, "lat": 48.0495445, "lon": 21.3423568}, {"type": "node", "id": 10278705297, "lat": 48.0495025, "lon": 21.3424519}, {"type": "node", "id": 10278705298, "lat": 48.0494223, "lon": 21.3423727}, {"type": "node", "id": 10278705299, "lat": 48.049358, "lon": 21.3425184}, {"type": "node", "id": 10278705300, "lat": 48.0492779, "lon": 21.3424393}, {"type": "node", "id": 10278705301, "lat": 48.0493841, "lon": 21.3421985}, {"type": "node", "id": 10884509688, "lat": 48.042889, "lon": 21.4545262, "tags": {"addr:city": "Tiszaeszl\u00e1r", "addr:housenumber": "88/a", "addr:postcode": "4464", "addr:street": "R\u00e1k\u00f3czi Ferenc utca", "amenity": "pharmacy", "contact:phone": "+36 42 277 540", "healthcare": "pharmacy", "name": "\u00cdrisz Gy\u00f3gyszert\u00e1r"}}, {"type": "node", "id": 11042062556, "lat": 48.0076826, "lon": 21.6348078, "tags": {"addr:city": "Ny\u00edrtelek", "addr:housenumber": "52/A", "addr:postcode": "4461", "addr:street": "Tokaji \u00fat", "amenity": "pharmacy", "dispensing": "yes", "drive_through": "no", "healthcare": "pharmacy", "level": "0", "name": "\u0150rangyal Gy\u00f3yszert\u00e1r", "opening_hours": "Mo-Fr 08:00-18:00; Sa 09:00-13:00", "operator": "Alma Gy\u00f3gyszert\u00e1rak", "phone": "+36 42 210 071", "wheelchair": "yes"}}, {"type": "node", "id": 12812469499, "lat": 48.2667712, "lon": 21.3560271, "tags": {"amenity": "pharmacy"}}, {"type": "way", "id": 225781274, "nodes": [2345353705, 2345353706, 2345353707, 2345353708, 2345353709, 2345353710, 2345353705], "tags": {"amenity": "pharmacy", "building": "yes", "healthcare": "pharmacy"}}, {"type": "way", "id": 258352355, "nodes": [2637175688, 2637175696, 2637175698, 2637175700, 2637175688], "tags": {"amenity": "pharmacy", "building": "yes"}}, {"type": "way", "id": 312755776, "nodes": [3186424627, 3186425845, 3186424617, 3186425849, 3186425779, 3186424657, 3186424659, 3186425831, 3186424627], "tags": {"addr:city": "Tisza\u00fajv\u00e1ros", "addr:housenumber": "17", "addr:postcode": "3580", "addr:street": "Bethlen G\u00e1bor \u00fat", "amenity": "pharmacy", "building": "yes", "healthcare": "pharmacy", "name": "Arany Sas Gy\u00f3gyszert\u00e1r", "wheelchair": "yes"}}, {"type": "way", "id": 332630714, "nodes": [3397799796, 3397799790, 3397799791, 3397799788, 3397799786, 3397799787, 3397799789, 3397799792, 3397799795, 3397799793, 3397799794, 3397799799, 3397799798, 3397799797, 3397799796], "tags": {"amenity": "pharmacy", "building": "yes"}}, {"type": "way", "id": 493060080, "nodes": [4850026058, 4850026059, 4850026060, 4850026061, 4850026058], "tags": {"addr:city": "Girincs", "addr:housenumber": "1", "addr:postcode": "3578", "addr:street": "Sport t\u00e9r", "amenity": "pharmacy", "building": "yes", "name": "Dolores Gy\u00f3gyszert\u00e1r", "opening_hours": "Mo-Fr 08:00-16:00; PH off"}}, {"type": "way", "id": 714840346, "nodes": [6719010821, 6719010818, 6719010819, 6719010820, 6719010821], "tags": {"amenity": "pharmacy", "building": "yes", "dispensing": "yes", "name": "Benu gy\u00f3gyszert\u00e1r"}}, {"type": "way", "id": 864121504, "nodes": [8050171638, 8050171639, 8050171640, 8050171641, 8050171638], "tags": {"amenity": "pharmacy", "building": "yes", "dispensing": "yes", "healthcare": "pharmacy"}}, {"type": "way", "id": 1123961797, "nodes": [10278705296, 10278705297, 10278705298, 10278705299, 10278705300, 10278705301, 10278705296], "tags": {"amenity": "pharmacy", "building": "house", "drive_through": "no", "healthcare": "pharmacy"}}]}