{"version": 0.6, "generator": "Overpass API 0.7.62.8 e802775f", "osm3s": {"timestamp_osm_base": "2025-10-06T08:04:48Z", "copyright": "The data included in this document is from www.openstreetmap.org. The data is made available under ODbL."}, "elements": [{"type": "node", "id": 469759023, "lat": 47.7912393, "lon": 19.1350927, "tags": {"addr:city": "V\u00e1c", "addr:housenumber": "30", "addr:postcode": "2600", "addr:street": "De\u00e1kv\u00e1ri f\u0151t\u00e9r", "amenity": "pharmacy", "healthcare": "pharmacy", "name": "De\u00e1kv\u00e1ri Gy\u00f3gyszert\u00e1r", "phone": "+36 27 510 805", "wheelchair": "yes"}}, {"type": "node", "id": 470225175, "lat": 47.7817724, "lon": 19.1324063, "tags": {"amenity": "pharmacy", "healthcare": "pharmacy", "name": "Fekete K\u00edgy\u00f3 Gy\u00f3gyszert\u00e1r", "source": "survey"}}, {"type": "node", "id": 470225176, "lat": 47.7823898, "lon": 19.1291668, "tags": {"addr:city": "V\u00e1c", "addr:housenumber": "9", "addr:postcode": "2600", "addr:street": "Zr\u00ednyi Mikl\u00f3s utca", "amenity": "pharmacy", "healthcare": "pharmacy", "name": "Nova V\u00e1c Gy\u00f3gyszert\u00e1r", "source:wheelchair": "jarhato.hu", "wheelchair": "no"}}, {"type": "node", "id": 745579854, "lat": 47.591632, "lon": 19.3606708, "tags": {"amenity": "pharmacy", "healthcare": "pharmacy", "name": "Egyetemi gy\u00f3gyszert\u00e1r", "opening_hours": "Mo-Fr 07:30-18:00; Sa 07:30-12:00", "phone": "+36 28 432 878", "wheelchair": "yes"}}, {"type": "node", "id": 763652207, "lat": 47.493249, "lon": 19.2689621, "tags": {"addr:city": "Budapest", "addr:housenumber": "34", "addr:postcode": "1172", "addr:street": "Diadal utca", "amenity": "pharmacy", "contact:email": "info@humanitasgyogyszertar.hu", "contact:phone": "+36 1 257 8571", "contact:website": "http://www.humanitasgyogyszertar.hu", "healthcare": "pharmacy", "name": "Humanitas Gy\u00f3gyszert\u00e1r", "opening_hours": "Mo-Fr 08:00-20:00", "wheelchair": "limited"}}, {"type": "node", "id": 886366210, "lat": 47.6519715, "lon": 19.489721, "tags": {"amenity": "pharmacy", "name": "Szent Istv\u00e1n Patika"}}, {"type": "node", "id": 914484568, "lat": 47.4788749, "lon": 19.2559487, "tags": {"addr:city": "Budapest", "addr:housenumber": "93", "addr:postcode": "1173", "addr:street": "Ferihegyi \u00fat", "amenity": "pharmacy", "check_date:opening_hours": "2022-07-12", "dispensing": "yes", "healthcare": "pharmacy", "name": "Reflex Gy\u00f3gyszert\u00e1r", "opening_hours": "Mo-Fr 08:00-20:00; Sa 08:00-12:00", "phone": "+36 1 256 0421", "wheelchair": "yes"}}, {"type": "node", "id": 1211150933, "lat": 47.5646199, "lon": 19.5100351, "tags": {"addr:city": "Valk\u00f3", "addr:housenumber": "18", "addr:postcode": "2114", "addr:street": "R\u00e1k\u00f3czi utca", "amenity": "pharmacy", "name": "Valk\u00f3i Patika", "opening_hours": "Mo-Fr 08:00-16:00", "operator": "\u201cValk\u00f3i\u201d Patika Bt.", "phone": "+36 28 572 040;+36 28 572 041"}}, {"type": "node", "id": 1324097609, "lat": 47.4698558, "lon": 19.2925216, "tags": {"addr:city": "Budapest", "addr:housenumber": "368", "addr:postcode": "1171", "addr:street": "Pesti \u00fat", "amenity": "pharmacy", "brand": "Kulcs", "contact:phone": "+36 1 258 2146", "dispensing": "yes", "drive_through": "no", "healthcare": "pharmacy", "name": "Szent Gy\u00f6rgy Gy\u00f3gyszert\u00e1r", "opening_hours": "Mo-Fr 08:00-20:00; Sa 08:00-13:00", "operator": "Gy\u00f6ngy Patik\u00e1k"}}, {"type": "node", "id": 1362212122, "lat": 47.6418975, "lon": 19.1261813, "tags": {"amenity": "pharmacy", "dispensing": "yes", "healthcare": "pharmacy", "name": "Z\u00f6ldk\u00edgy\u00f3"}}, {"type": "node", "id": 1576612986, "lat": 47.6480348, "lon": 19.129885, "tags": {"addr:city": "Dunakeszi", "addr:housenumber": "130", "addr:postcode": "2120", "addr:street": "F\u0151 \u00fat", "amenity": "pharmacy", "contact:phone": "+36 27 341 006", "contact:website": "http://calenduladunakeszi.novodata.hu", "healthcare": "pharmacy", "name": "Calendula Patika", "opening_hours": "Mo-Fr 08:00-18:30"}}, {"type": "node", "id": 1678318892, "lat": 47.5410727, "lon": 19.2440564, "tags": {"amenity": "pharmacy", "dispensing": "yes", "healthcare": "pharmacy", "toilets:wheelchair": "yes", "wheelchair": "yes"}}, {"type": "node", "id": 1678318912, "lat": 47.5396205, "lon": 19.2525215, "tags": {"amenity": "pharmacy", "healthcare": "pharmacy", "name": "Fl\u00f3r Ferenc Gy\u00f3gyszert\u00e1r"}}, {"type": "node", "id": 1683873464, "lat": 47.5465243, "lon": 19.2599435, "tags": {"addr:city": "Kistarcsa", "addr:housenumber": "1", "addr:postcode": "2143", "addr:street": "Hunyadi utca", "amenity": "pharmacy", "healthcare": "pharmacy", "name": "Patrona Hungariae Gy\u00f3gyszert\u00e1r"}}, {"type": "node", "id": 1691291826, "lat": 47.4802731, "lon": 19.2550706, "tags": {"addr:city": "Budapest", "addr:housenumber": "170/A", "addr:postcode": "1173", "addr:street": "Pesti \u00fat", "amenity": "pharmacy", "check_date": "2025-03-26", "check_date:opening_hours": "2022-08-11", "healthcare": "pharmacy", "name": "Szentkereszt Gy\u00f3gyszert\u00e1r", "opening_hours": "Mo-Fr 08:00-20:00; Sa 08:00-14:00", "source": "survey", "wheelchair": "yes"}}, {"type": "node", "id": 1702464656, "lat": 47.6350889, "lon": 19.4800758, "tags": {"addr:city": "Bag", "addr:postcode": "2191", "addr:street": "Pet\u0151fi t\u00e9r", "amenity": "pharmacy", "dispensing": "yes", "drive_through": "no", "healthcare": "pharmacy", "name": "Gener\u00e1ci\u00f3 Patika"}}, {"type": "node", "id": 1704414556, "lat": 47.480857, "lon": 19.239125}, {"type": "node", "id": 1704414558, "lat": 47.4809219, "lon": 19.2387923}, {"type": "node", "id": 1704414560, "lat": 47.4809571, "lon": 19.2391678}, {"type": "node", "id": 1704414562, "lat": 47.4810227, "lon": 19.2388357}, {"type": "node", "id": 1727204653, "lat": 47.7322183, "lon": 19.1501521, "tags": {"amenity": "pharmacy", "brand": "Benu", "contact:phone": "+36 27 352 047", "healthcare": "pharmacy", "name": "Szent Katalin Gy\u00f3gyszert\u00e1r", "opening_hours": "Mo-Fr 08:00-18:00; Sa 07:30-12:00", "wheelchair": "limited"}}, {"type": "node", "id": 1809099060, "lat": 47.6678309, "lon": 19.3076084}, {"type": "node", "id": 1809099068, "lat": 47.6678777, "lon": 19.3076863}, {"type": "node", "id": 1809099082, "lat": 47.6679147, "lon": 19.3074974}, {"type": "node", "id": 1809099084, "lat": 47.6679615, "lon": 19.3075754}, {"type": "node", "id": 1833373708, "lat": 47.6489216, "lon": 19.2922633, "tags": {"addr:city": "Veresegyh\u00e1z", "addr:housenumber": "1/a", "addr:postcode": "2112", "addr:street": "Mester utca", "amenity": "pharmacy", "contact:email": "info@triangolo.paticard.hu", "contact:phone": "+36 28 388 143", "contact:website": "https://www.almapatika.hu/patika/triangolo-gyogyszertar-veresegyhaz", "healthcare": "pharmacy", "name": "Triangolo Patika", "opening_hours": "Mo-Fr 08:00-19:00; Sa 08:00-13:00; Su 08:00-12:00", "operator": "Alma Gy\u00f3gyszert\u00e1rak", "wikimedia_commons": "File:'Veresegyh\u00e1z, Mester utca' bus stop and phamacy, 2019 Veresegyh\u00e1z.jpg"}}, {"type": "node", "id": 1867856503, "lat": 47.6553115, "lon": 19.2631933, "tags": {"addr:city": "Veresegyh\u00e1z", "addr:housenumber": "5", "addr:postcode": "2112", "addr:street": "K\u00f6nyves K\u00e1lm\u00e1n \u00fat", "amenity": "pharmacy", "healthcare": "pharmacy", "name": "Istv\u00e1n Kir\u00e1ly gy\u00f3gyszert\u00e1r", "opening_hours": "Mo-Fr 09:00-19:00", "wheelchair": "yes"}}, {"type": "node", "id": 1940255934, "lat": 47.4895661, "lon": 19.3322105, "tags": {"amenity": "pharmacy", "healthcare": "pharmacy"}}, {"type": "node", "id": 1944969581, "lat": 47.5332589, "lon": 19.192501, "tags": {"amenity": "pharmacy", "healthcare": "pharmacy", "name": "\u00c1rp\u00e1d Gy\u00f3gyszert\u00e1r"}}, {"type": "node", "id": 2006361145, "lat": 47.4819068, "lon": 19.2429423}, {"type": "node", "id": 2006361153, "lat": 47.4819783, "lon": 19.2426109}, {"type": "node", "id": 2006361154, "lat": 47.4819793, "lon": 19.2428561}, {"type": "node", "id": 2006361158, "lat": 47.482008, "lon": 19.2428696}, {"type": "node", "id": 2006361159, "lat": 47.4820175, "lon": 19.2428253}, {"type": "node", "id": 2006361161, "lat": 47.4820272, "lon": 19.2426339}, {"type": "node", "id": 2006361163, "lat": 47.4820836, "lon": 19.2430258}, {"type": "node", "id": 2006361164, "lat": 47.4821167, "lon": 19.2428722}, {"type": "node", "id": 2081183204, "lat": 47.489769, "lon": 19.2605805, "tags": {"addr:city": "Budapest", "addr:housenumber": "18", "addr:postcode": "1172", "addr:street": "H\u0151s\u00f6k tere", "amenity": "pharmacy", "contact:fax": "+36 1 253 5661", "email": "tukorpatika@tukorpatika.t-online.hu", "healthcare": "pharmacy", "name": "T\u00fck\u00f6r Patika", "opening_hours": "Mo-Fr 07:30-20:00; Sa-Su 08:00-13:00", "phone": "+36 1 253 5660", "website": "http://www.tukorbudapest.novodata.hu/", "wheelchair": "yes"}}, {"type": "node", "id": 2124125464, "lat": 47.5106312, "lon": 19.2031517, "tags": {"addr:city": "Budapest", "addr:housenumber": "43/B", "addr:postcode": "1165", "addr:street": "Hunyadv\u00e1r utca", "amenity": "pharmacy", "contact:phone": "+36 1 407 2970", "dispensing": "yes", "healthcare": "pharmacy", "name": "Corvina Patika", "opening_hours": "Mo-Fr 08:00-20:00"}}, {"type": "node", "id": 2124160109, "lat": 47.5115848, "lon": 19.1983349, "tags": {"addr:city": "Budapest", "addr:housenumber": "5", "addr:postcode": "1165", "addr:street": "Di\u00f3sy Lajos utca", "amenity": "pharmacy", "contact:phone": "+36 1 407 0971", "dispensing": "yes", "name": "Park Patika", "opening_hours": "Mo-Fr 08:00-19:00; Sa 08:00-12:00"}}, {"type": "node", "id": 2124704697, "lat": 47.5051287, "lon": 19.2006354, "tags": {"addr:city": "Budapest", "addr:housenumber": "47/b", "addr:postcode": "1165", "addr:street": "\u00dajsz\u00e1sz utca", "amenity": "pharmacy", "dispensing": "yes", "healthcare": "pharmacy", "name": "Simba Gy\u00f3gyszert\u00e1r"}}, {"type": "node", "id": 2164755613, "lat": 47.5202339, "lon": 19.2201653}, {"type": "node", "id": 2164755663, "lat": 47.5203028, "lon": 19.2200569}, {"type": "node", "id": 2164755674, "lat": 47.5204178, "lon": 19.2201717}, {"type": "node", "id": 2210118436, "lat": 47.6624116, "lon": 19.2720233, "tags": {"amenity": "pharmacy", "dispensing": "no", "healthcare": "pharmacy", "name": "Praxis Patika", "opening_hours": "Mo-Fr 08:00-20:00"}}, {"type": "node", "id": 2268061299, "lat": 47.6552974, "lon": 19.2876594, "tags": {"addr:city": "Veresegyh\u00e1z", "addr:housenumber": "56", "addr:postcode": "2112", "addr:street": "F\u0151 \u00fat", "amenity": "pharmacy", "contact:email": "szterzsebetpatika@gmail.com", "contact:fax": "+36 28 589 030", "contact:phone": "+36 28 385 020", "contact:website": "https://szterzsebetpatika.hu/", "dispensing": "no", "name": "Szent Erzs\u00e9bet Gy\u00f3gyszert\u00e1r", "opening_hours": "Mo-Fr 08:00-18:00; Sa 08:00-13:00; Su 09:00-11:00", "wheelchair": "yes", "wheelchair:description": "keskeny r\u00e1mpa", "wikimedia_commons": "File:St. Elisabeth Apotheke, 2019 Veresegyh\u00e1z.jpg"}}, {"type": "node", "id": 2412145055, "lat": 47.7044321, "lon": 19.1445847, "tags": {"addr:city": "G\u00f6d", "addr:housenumber": "3/A", "addr:postcode": "2132", "addr:street": "Ady Endre \u00fat", "amenity": "pharmacy", "name": "Cs\u00e1szi Patika", "opening_hours": "Mo-Fr 08:00-17:00", "post_office": "post_partner", "post_office:brand": "GLS", "post_office:brand:wikidata": "Q366182", "post_office:parcel_from": "yes", "post_office:parcel_to": "yes", "post_office:ref": "2132-CSOMAGPONT01", "source": "import;website;survey", "source:date": "2023-11-14"}}, {"type": "node", "id": 2430419885, "lat": 47.8225769, "lon": 19.0350342, "tags": {"addr:city": "Ver\u0151ce", "addr:housenumber": "3", "addr:postcode": "2621", "addr:street": "R\u00e1k\u00f3czi \u00fat", "amenity": "pharmacy", "healthcare": "pharmacy", "name": "Dunakanyar Gy\u00f3gyszert\u00e1r"}}, {"type": "node", "id": 2770987673, "lat": 47.6121194, "lon": 19.596647, "tags": {"amenity": "pharmacy"}}, {"type": "node", "id": 2771131802, "lat": 47.599892, "lon": 19.3459469, "tags": {"addr:city": "G\u00f6d\u00f6ll\u0151", "addr:housenumber": "12", "addr:postcode": "2100", "addr:street": "D\u00f3zsa Gy\u00f6rgy \u00fat", "amenity": "pharmacy", "brand": "Benu", "brand:wikidata": "Q62562792", "healthcare": "pharmacy", "name": "Benu", "opening_hours": "Mo-Fr 08:00-20:00; Sa 08:00-13:00", "phone": "+36 28 410 251"}}, {"type": "node", "id": 2775011700, "lat": 47.5995751, "lon": 19.3495536, "tags": {"amenity": "pharmacy", "name": "Ez\u00fcstkehely", "opening_hours": "Mo-Fr 08:00-16:00", "phone": "+36 28 416 551"}}, {"type": "node", "id": 2775011701, "lat": 47.5991152, "lon": 19.3476333, "tags": {"amenity": "pharmacy", "brand": "Alma Gy\u00f3gyszert\u00e1r", "brand:website": "https://almapatika.hu", "brand:wikidata": "Q105626221", "contact:phone": "+36 28 510 220", "healthcare": "pharmacy", "name": "Alma Gy\u00f3gyszert\u00e1r", "opening_hours": "Mo-Fr 08:00-19:00, Sa 08:00-13:00"}}, {"type": "node", "id": 2776840907, "lat": 47.6003916, "lon": 19.3481484}, {"type": "node", "id": 2776840908, "lat": 47.6002802, "lon": 19.3482159}, {"type": "node", "id": 2776840911, "lat": 47.6002131, "lon": 19.3477929}, {"type": "node", "id": 2776840912, "lat": 47.6002775, "lon": 19.3477468}, {"type": "node", "id": 2777234138, "lat": 47.6097366, "lon": 19.6017484}, {"type": "node", "id": 2777234140, "lat": 47.6093708, "lon": 19.6018054}, {"type": "node", "id": 2777234141, "lat": 47.6094634, "lon": 19.6020136}, {"type": "node", "id": 2958652792, "lat": 47.4872414, "lon": 19.2591497, "tags": {"addr:city": "Budapest", "addr:housenumber": "40", "addr:postcode": "1172", "addr:street": "Ferihegyi \u00fat", "amenity": "pharmacy", "contact:phone": "+36 1 258 0959", "healthcare": "pharmacy", "name": "R\u00e1kosliget Gy\u00f3gyszert\u00e1r", "opening_hours": "Mo-Fr 08:00-20:00", "wheelchair": "yes"}}, {"type": "node", "id": 3017324817, "lat": 47.7742623, "lon": 19.1402196}, {"type": "node", "id": 3017324823, "lat": 47.7742944, "lon": 19.1401502}, {"type": "node", "id": 3061373729, "lat": 47.6007416, "lon": 19.3832976}, {"type": "node", "id": 3061373730, "lat": 47.6006501, "lon": 19.3832331}, {"type": "node", "id": 3061373731, "lat": 47.6005857, "lon": 19.3834337}, {"type": "node", "id": 3061373732, "lat": 47.6006772, "lon": 19.3834983}, {"type": "node", "id": 3061877672, "lat": 47.4810428, "lon": 19.2569896, "tags": {"addr:city": "Budapest", "addr:housenumber": "81", "addr:postcode": "1173", "addr:street": "Ferihegyi \u00fat", "amenity": "pharmacy", "contact:phone": "+36 1 256 1098", "healthcare": "pharmacy", "name": "Otthon Patika Gy\u00f3gyszert\u00e1r", "opening_hours": "Mo-Fr 08:00-16:00; Sa 08:00-13:00", "wheelchair": "yes"}}, {"type": "node", "id": 3068385134, "lat": 47.7789255, "lon": 19.1288837, "tags": {"addr:city": "V\u00e1c", "addr:housenumber": "3-7", "addr:postcode": "2600", "addr:street": "Sz\u00e9chenyi utca", "amenity": "pharmacy", "brand": "Gy\u00f6ngy patika", "healthcare": "pharmacy", "name": "Gy\u00f6ngyvir\u00e1g Gy\u00f3gyszert\u00e1r", "opening_hours": "Mo-Fr 07:30-18:30; Sa 08:00-13:00", "source": "survey", "source:wheelchair": "jarhato.hu", "wheelchair": "yes"}}, {"type": "node", "id": 3136439647, "lat": 47.7742434, "lon": 19.1400763}, {"type": "node", "id": 3136439648, "lat": 47.7741962, "lon": 19.1401756}, {"type": "node", "id": 3136439649, "lat": 47.7742542, "lon": 19.1402366}, {"type": "node", "id": 3136439650, "lat": 47.7743008, "lon": 19.1401367}, {"type": "node", "id": 3198822761, "lat": 47.4835029, "lon": 19.2383135, "tags": {"addr:city": "Budapest", "addr:housenumber": "34", "addr:postcode": "1173", "addr:street": "Pesti \u00fat", "amenity": "pharmacy", "brand": "wikidata=Q62562792", "healthcare": "pharmacy", "name": "Center Patika", "opening_hours": "Mo-Su 08:00-20:00", "website": "https://benu.hu/center-patika-budapest-xvii"}}, {"type": "node", "id": 3206650171, "lat": 47.6519138, "lon": 19.4747036, "tags": {"amenity": "pharmacy", "drive_through": "no", "healthcare": "pharmacy"}}, {"type": "node", "id": 3211044247, "lat": 47.8015469, "lon": 19.1800784, "tags": {"amenity": "pharmacy", "healthcare": "pharmacy"}}, {"type": "node", "id": 3280131674, "lat": 47.7694727, "lon": 19.1423561, "tags": {"amenity": "pharmacy", "healthcare": "pharmacy", "name": "Als\u00f3v\u00e1rosi Gy\u00f3gyszert\u00e1r", "opening_hours": "Mo-Fr 08:00-18:00; Sa 08:00-12:00"}}, {"type": "node", "id": 3384470839, "lat": 47.6869554, "lon": 19.1343751, "tags": {"amenity": "pharmacy", "healthcare": "pharmacy", "name": "Inczeffy"}}, {"type": "node", "id": 3384474246, "lat": 47.6907443, "lon": 19.1339587, "tags": {"addr:city": "G\u00f6d", "addr:housenumber": "15", "addr:postcode": "2131", "addr:street": "K\u00f6zt\u00e1rsas\u00e1g \u00fat", "amenity": "pharmacy", "healthcare": "pharmacy", "name": "\u00c9letfa Patika", "opening_hours": "Mo-Fr 08:00-18:00; Sa 08:00-12:00"}}, {"type": "node", "id": 3384495057, "lat": 47.6561426, "lon": 19.1296062, "tags": {"addr:city": "Dunakeszi", "addr:housenumber": "190", "addr:postcode": "2120", "addr:street": "F\u0151 \u00fat", "amenity": "pharmacy", "check_date:opening_hours": "2024-11-10", "drive_through": "no", "healthcare": "pharmacy", "name": "PatikaPlus", "opening_hours": "Mo-Sa 08:00-20:00", "operator": "PatikaPlus"}}, {"type": "node", "id": 3398757662, "lat": 47.6067761, "lon": 19.1969321, "tags": {"addr:city": "F\u00f3t", "addr:housenumber": "4", "addr:postcode": "2151", "addr:street": "V\u00f6r\u00f6smarty Mih\u00e1ly t\u00e9r", "amenity": "pharmacy", "check_date": "2024-02-08", "contact:phone": "+36 27 538 955", "dispensing": "yes", "drive_through": "no", "healthcare": "pharmacy", "name": "Somly\u00f3 Gy\u00f3gyszert\u00e1r", "name:hu": "Somly\u00f3 Gy\u00f3gyszert\u00e1r", "opening_hours": "Mo-Fr 08:00-18:00", "payment:cash": "yes", "payment:mastercard": "yes", "payment:visa": "yes", "wheelchair": "no", "wheelchair:description": "1 magas l\u00e9pcs\u0151 (>15cm)"}}, {"type": "node", "id": 3398987696, "lat": 47.718505, "lon": 19.0896531, "tags": {"addr:city": "Le\u00e1nyfalu", "addr:housenumber": "138", "addr:postcode": "2016", "addr:street": "M\u00f3ricz Zsigmond \u00fat", "amenity": "pharmacy", "healthcare": "pharmacy", "name": "Szent Kl\u00e1ra Gy\u00f3gyszert\u00e1r", "operator": "K\u00f6r\u00f6mvir\u00e1g Bt."}}, {"type": "node", "id": 3441705147, "lat": 47.7550042, "lon": 19.0892135, "tags": {"addr:city": "Tahit\u00f3tfalu", "addr:housenumber": "6", "addr:postcode": "2021", "addr:street": "H\u0151s\u00f6k tere", "amenity": "pharmacy", "healthcare": "pharmacy", "name": "Sziget Gy\u00f3gyszert\u00e1r", "source": "turistautak.hu", "source:date": "2013-10-22", "url": "http://turistautak.hu/poi.php?id=142121"}}, {"type": "node", "id": 3441705152, "lat": 47.7535148, "lon": 19.0761342, "tags": {"addr:city": "Tahit\u00f3tfalu", "addr:housenumber": "14", "addr:postcode": "2022", "addr:street": "Visegr\u00e1di \u00fat", "amenity": "pharmacy", "healthcare": "pharmacy", "name": "Sz\u00edv Gy\u00f3gyszert\u00e1r-Orvosi rendel\u0151", "opening_hours": "Mo-Fr 08:00-19:00", "operator": "Pharmatz\u00e9l Kft."}}, {"type": "node", "id": 3441705251, "lat": 47.6877917, "lon": 19.0997819, "tags": {"addr:city": "Szigetmonostor", "addr:housenumber": "9", "addr:postcode": "2015", "addr:street": "J\u00f3zsef Attila utca", "amenity": "pharmacy", "check_date": "2025-05-08", "healthcare": "pharmacy", "name": "Sz\u00edv Gy\u00f3gyszert\u00e1r", "opening_hours": "Mo,We 08:00-12:00; Tu,Th 13:00-17:00; Fr 08:00-13:00"}}, {"type": "node", "id": 3446893937, "lat": 47.825352, "lon": 19.451945, "tags": {"amenity": "pharmacy", "source": "turistautak.hu", "source:date": "2011-07-10", "url": "http://turistautak.hu/poi.php?id=58598"}}, {"type": "node", "id": 3456375589, "lat": 47.710189, "lon": 19.2348563, "tags": {"amenity": "pharmacy", "source": "turistautak.hu", "source:date": "2011-05-16", "url": "http://turistautak.hu/poi.php?id=6940"}}, {"type": "node", "id": 3456376399, "lat": 47.734332, "lon": 19.198702, "tags": {"amenity": "pharmacy", "healthcare": "pharmacy", "source": "turistautak.hu", "source:date": "2014-10-15", "url": "http://turistautak.hu/poi.php?id=4722"}}, {"type": "node", "id": 3456391999, "lat": 47.84595, "lon": 19.29245, "tags": {"amenity": "pharmacy", "healthcare": "pharmacy", "name": "Arany gy\u00f3gyszert\u00e1r", "source": "turistautak.hu", "source:date": "2010-12-02", "url": "http://turistautak.hu/poi.php?id=5702"}}, {"type": "node", "id": 3462242853, "lat": 47.6757345, "lon": 19.3658589, "tags": {"amenity": "pharmacy", "healthcare": "pharmacy", "source": "turistautak.hu", "source:date": "2011-12-29", "url": "http://turistautak.hu/poi.php?id=92313"}}, {"type": "node", "id": 3471889756, "lat": 47.5301823, "lon": 19.2830115, "tags": {"addr:city": "Nagytarcsa", "addr:housenumber": "38", "addr:postcode": "2142", "addr:street": "Zr\u00ednyi Mikl\u00f3s utca", "amenity": "pharmacy", "check_date:opening_hours": "2021-10-24", "email": "winklerpatik@gmail.com", "name": "Winkler Fi\u00f3k Patika", "opening_hours": "Mo-Th 09:00-18:00; Fr 09:00-16:00", "phone": "+36 28 451 179", "wheelchair": "yes"}}, {"type": "node", "id": 3471889766, "lat": 47.536673, "lon": 19.396495, "tags": {"amenity": "pharmacy", "healthcare": "pharmacy", "name": "Liget Patika", "source": "turistautak.hu", "source:date": "2011-12-29", "url": "http://turistautak.hu/poi.php?id=119516", "wheelchair": "yes"}}, {"type": "node", "id": 3471890112, "lat": 47.5545096, "lon": 19.2750934, "tags": {"amenity": "pharmacy", "healthcare": "pharmacy", "name": "Delfin Gy\u00f3gyszert\u00e1r", "source": "turistautak.hu", "source:date": "2014-06-04", "url": "http://turistautak.hu/poi.php?id=169020"}}, {"type": "node", "id": 3471890180, "lat": 47.601099, "lon": 19.242478, "tags": {"addr:city": "Mogyor\u00f3d", "addr:housenumber": "16/A", "addr:postcode": "2146", "addr:street": "G\u00f6d\u00f6ll\u0151i \u00fat", "amenity": "pharmacy", "healthcare": "pharmacy", "source": "turistautak.hu", "source:date": "2012-06-05", "url": "http://turistautak.hu/poi.php?id=5618"}}, {"type": "node", "id": 3475236236, "lat": 47.5986255, "lon": 19.3467563, "tags": {"amenity": "pharmacy", "healthcare": "pharmacy", "name": "Eg\u00e9szs\u00e9gh\u00e1z"}}, {"type": "node", "id": 3479960085, "lat": 47.6641803, "lon": 19.6637411, "tags": {"addr:city": "Hatvan", "addr:housenumber": "9", "addr:postcode": "3000", "addr:street": "Bajcsy-Zsilinszky Endre \u00fat", "amenity": "pharmacy", "name": "Di\u00e1na gy\u00f3gyszert\u00e1r", "source": "turistautak.hu", "source:date": "2012-10-17", "url": "http://turistautak.hu/poi.php?id=146140"}}, {"type": "node", "id": 3479961300, "lat": 47.6663816, "lon": 19.6658219, "tags": {"amenity": "pharmacy", "healthcare": "pharmacy", "name": "Kamilla gy\u00f3gyszert\u00e1r", "source": "turistautak.hu", "source:date": "2012-10-17", "url": "http://turistautak.hu/poi.php?id=146141"}}, {"type": "node", "id": 3605127323, "lat": 47.7256835, "lon": 19.2576594}, {"type": "node", "id": 3605127324, "lat": 47.7256568, "lon": 19.2577665}, {"type": "node", "id": 3605127325, "lat": 47.7254621, "lon": 19.2576574}, {"type": "node", "id": 3605127326, "lat": 47.7254364, "lon": 19.2577605}, {"type": "node", "id": 3605127327, "lat": 47.7256244, "lon": 19.257864}, {"type": "node", "id": 3605127328, "lat": 47.7256054, "lon": 19.2579405}, {"type": "node", "id": 3605127329, "lat": 47.725348, "lon": 19.2577988}, {"type": "node", "id": 3605127330, "lat": 47.725419, "lon": 19.2575138}, {"type": "node", "id": 3605127334, "lat": 47.7256245, "lon": 19.2577481}, {"type": "node", "id": 3692611694, "lat": 47.6351373, "lon": 19.1299789, "tags": {"entrance": "main", "wheelchair": "yes"}}, {"type": "node", "id": 3830249622, "lat": 47.5690705, "lon": 19.269294, "tags": {"amenity": "pharmacy", "healthcare": "pharmacy", "name": "T\u00f6lgyfa Patika"}}, {"type": "node", "id": 4009512775, "lat": 47.8814462, "lon": 19.141221, "tags": {"amenity": "pharmacy", "drive_through": "no", "healthcare": "pharmacy"}}, {"type": "node", "id": 4469288106, "lat": 47.7932362, "lon": 19.3847002, "tags": {"amenity": "pharmacy", "drive_through": "yes", "healthcare": "pharmacy", "name": "Aranyk\u00edgy\u00f3 Gy\u00f3gyszert\u00e1r", "opening_hours": "Mo 07:30-12:00; Tu 07:30-12:00,15:00-18:00; We 07:30-09:00,15:00-18:00; Th 07:30-12:00,15:00-18:00; Fr 07:30-12:00,16:00-18:00", "website": "http://www.acsa.hu/index.php/intezmenyek/tanuszoda/91-aranykigyo-gyogyszertar-nyitva-tartasai"}}, {"type": "node", "id": 4528727089, "lat": 47.6362681, "lon": 19.3113037}, {"type": "node", "id": 4528727091, "lat": 47.636353, "lon": 19.3113694}, {"type": "node", "id": 4528727092, "lat": 47.6362354, "lon": 19.3113966}, {"type": "node", "id": 4528727093, "lat": 47.6363204, "lon": 19.3114623}, {"type": "node", "id": 4542041173, "lat": 47.5662052, "lon": 19.2796273, "tags": {"addr:city": "Kerepes", "addr:postcode": "2144", "addr:street": "T\u00f6lgyfa utca", "amenity": "pharmacy", "healthcare": "pharmacy", "name": "T\u00f6lgyfa patika"}}, {"type": "node", "id": 4568969792, "lat": 47.5670135, "lon": 19.7184979, "tags": {"amenity": "pharmacy"}}, {"type": "node", "id": 4802320560, "lat": 47.8010466, "lon": 19.2505312}, {"type": "node", "id": 4802320565, "lat": 47.8011094, "lon": 19.2504237}, {"type": "node", "id": 4842061858, "lat": 47.8011698, "lon": 19.2505114}, {"type": "node", "id": 4842061859, "lat": 47.8011355, "lon": 19.2506324}, {"type": "node", "id": 5023517993, "lat": 47.706881, "lon": 19.1426209, "tags": {"amenity": "pharmacy", "healthcare": "pharmacy", "name": "Vikt\u00f3ria Gy\u00f3gyszert\u00e1r"}}, {"type": "node", "id": 5176037840, "lat": 47.6002434, "lon": 19.3481051}, {"type": "node", "id": 5176037841, "lat": 47.6002943, "lon": 19.3480387}, {"type": "node", "id": 5269661327, "lat": 47.5491462, "lon": 19.2671594, "tags": {"amenity": "pharmacy", "dispensing": "yes", "healthcare": "pharmacy", "name": "V\u00f6lgy Patika"}}, {"type": "node", "id": 5271359921, "lat": 47.6823283, "lon": 19.2760773, "tags": {"amenity": "pharmacy", "opening_hours": "Mo-Fr 06:00-16:00"}}, {"type": "node", "id": 5279538626, "lat": 47.466573, "lon": 19.2430689}, {"type": "node", "id": 5279538627, "lat": 47.4666483, "lon": 19.2431406}, {"type": "node", "id": 5279538628, "lat": 47.4665958, "lon": 19.2432615}, {"type": "node", "id": 5279538629, "lat": 47.4665204, "lon": 19.2431898}, {"type": "node", "id": 5441103938, "lat": 47.7547605, "lon": 19.0893301, "tags": {"addr:city": "Tahit\u00f3tfalu", "addr:housenumber": "15", "addr:postcode": "2021", "addr:street": "H\u0151s\u00f6k tere", "amenity": "pharmacy", "healthcare": "pharmacy", "name": "\u00c1llatpatika"}}, {"type": "node", "id": 5857154778, "lat": 47.707561, "lon": 19.6331946}, {"type": "node", "id": 5873897957, "lat": 47.7075601, "lon": 19.6333649}, {"type": "node", "id": 5873897958, "lat": 47.7075044, "lon": 19.6333643}, {"type": "node", "id": 5873897959, "lat": 47.7075042, "lon": 19.6334037}, {"type": "node", "id": 5873897960, "lat": 47.7074741, "lon": 19.6334034}, {"type": "node", "id": 5873897961, "lat": 47.7074743, "lon": 19.6333605}, {"type": "node", "id": 5873897962, "lat": 47.7074324, "lon": 19.63336}, {"type": "node", "id": 5873897963, "lat": 47.7074332, "lon": 19.6331932}, {"type": "node", "id": 5993533869, "lat": 47.5203427, "lon": 19.2200533}, {"type": "node", "id": 6470359716, "lat": 47.766409, "lon": 19.70481, "tags": {"amenity": "pharmacy", "dispensing": "yes", "healthcare": "pharmacy"}}, {"type": "node", "id": 6595905207, "lat": 47.7795262, "lon": 19.1330802, "tags": {"addr:city": "V\u00e1c", "addr:housenumber": "46", "addr:postcode": "2600", "addr:street": "Dr. Cs\u00e1nyi L\u00e1szl\u00f3 k\u00f6r\u00fat", "amenity": "pharmacy", "dispensing": "yes", "drive_through": "no", "healthcare": "pharmacy", "name": "K\u00f6zponti gy\u00f3gyszert\u00e1r", "source": "survey"}}, {"type": "node", "id": 6861963585, "lat": 47.8252465, "lon": 19.4521934, "tags": {"addr:postcode": "2688", "amenity": "pharmacy", "name": "Patika"}}, {"type": "node", "id": 6942535820, "lat": 47.5390197, "lon": 19.3946049}, {"type": "node", "id": 6942535821, "lat": 47.5391157, "lon": 19.3949}, {"type": "node", "id": 6942535822, "lat": 47.5391857, "lon": 19.39485}, {"type": "node", "id": 6942535823, "lat": 47.5390897, "lon": 19.394555}, {"type": "node", "id": 7052506847, "lat": 47.7554102, "lon": 19.1463203, "tags": {"amenity": "pharmacy", "dispensing": "yes", "healthcare": "pharmacy", "name": "PatikaPlus"}}, {"type": "node", "id": 7212447585, "lat": 47.6817453, "lon": 19.1441852, "tags": {"addr:postcode": "2131", "amenity": "pharmacy", "email": "badics@yandex.com", "healthcare": "pharmacy", "name": "Homeop\u00e1ti\u00e1s Tan\u00e1csad\u00e1s", "name:en": "Homeopathy Consultations", "opening_hours": "24/7", "phone": "+36 20 624 8433", "website": "https://www.budapesthomeopatia.hu"}}, {"type": "node", "id": 7275494953, "lat": 47.7940255, "lon": 19.1294449, "tags": {"addr:city": "V\u00e1c", "addr:housenumber": "1/A", "addr:postcode": "2600", "addr:street": "Sas utca", "amenity": "pharmacy", "dispensing": "yes", "healthcare": "pharmacy", "name": "V\u00e1ci Levendula gy\u00f3gyszert\u00e1r", "phone": "+36 27 301 367"}}, {"type": "node", "id": 7310102534, "lat": 47.7183673, "lon": 19.0983227, "tags": {"addr:city": "P\u00f3csmegyer", "addr:housenumber": "12", "addr:postcode": "2017", "addr:street": "Ady Endre utca", "amenity": "pharmacy", "dispensing": "yes", "healthcare": "pharmacy"}}, {"type": "node", "id": 7410370423, "lat": 47.6104633, "lon": 19.3381597, "tags": {"amenity": "pharmacy", "brand": "Kulcs patik\u00e1k", "healthcare": "pharmacy", "name": "Sanitas", "opening_hours": "Mo-Sa 08:00-20:00; Su 10:00-18:00", "phone": "+36 28 545 585"}}, {"type": "node", "id": 7473380157, "lat": 47.6011408, "lon": 19.2423454}, {"type": "node", "id": 7473380158, "lat": 47.6011577, "lon": 19.2423395}, {"type": "node", "id": 7473380159, "lat": 47.6011228, "lon": 19.2422309}, {"type": "node", "id": 7473380160, "lat": 47.6011705, "lon": 19.2424208}, {"type": "node", "id": 7473380161, "lat": 47.6012363, "lon": 19.2423981}, {"type": "node", "id": 7473380162, "lat": 47.6012055, "lon": 19.2422023}, {"type": "node", "id": 7526971703, "lat": 47.7386089, "lon": 19.290148}, {"type": "node", "id": 7526971704, "lat": 47.7386779, "lon": 19.290252}, {"type": "node", "id": 7526971705, "lat": 47.7386659, "lon": 19.2900643}, {"type": "node", "id": 7526971706, "lat": 47.7387349, "lon": 19.2901683}, {"type": "node", "id": 7670763362, "lat": 47.6707234, "lon": 19.6833989}, {"type": "node", "id": 7670763363, "lat": 47.6707205, "lon": 19.683736}, {"type": "node", "id": 7670763365, "lat": 47.6706581, "lon": 19.6833977}, {"type": "node", "id": 7670763366, "lat": 47.6659423, "lon": 19.6849587}, {"type": "node", "id": 7670763367, "lat": 47.6658455, "lon": 19.6851323}, {"type": "node", "id": 7670763368, "lat": 47.6659868, "lon": 19.6852709}, {"type": "node", "id": 7670763369, "lat": 47.6660767, "lon": 19.6850999}, {"type": "node", "id": 7670763370, "lat": 47.666017, "lon": 19.6850367}, {"type": "node", "id": 7670763371, "lat": 47.6659188, "lon": 19.6852055}, {"type": "node", "id": 7670763372, "lat": 47.6659082, "lon": 19.6850198}, {"type": "node", "id": 7670799203, "lat": 47.6706779, "lon": 19.6835581, "tags": {"addr:city": "Hatvan", "addr:housenumber": "8", "addr:postcode": "3000", "addr:street": "Balassi B\u00e1lint \u00fat", "amenity": "pharmacy", "dispensing": "yes", "healthcare": "pharmacy", "name": "Halasi Patika", "opening_hours": "Mo-Sa 08:00-18:00"}}, {"type": "node", "id": 7670799204, "lat": 47.6689849, "lon": 19.6802294, "tags": {"addr:city": "Hatvan", "addr:housenumber": "1", "addr:postcode": "3000", "addr:street": "Thurz\u00f3 utca", "amenity": "pharmacy", "dispensing": "yes", "healthcare": "pharmacy", "name": "B\u00e1stya Patika", "opening_hours": "Mo-Fr 08:00-17:00"}}, {"type": "node", "id": 7717696687, "lat": 47.6210925, "lon": 19.3421093, "tags": {"addr:city": "G\u00f6d\u00f6ll\u0151", "addr:housenumber": "49", "addr:postcode": "2100", "addr:street": "Blah\u00e1n\u00e9 utca", "amenity": "pharmacy", "brand": "Gy\u00f6ngy patika", "name": "Blahai gy\u00f3gyszert\u00e1r", "opening_hours": "Mo 08:00-13:00; Tu 08:00-18:00; We 08:00-13:00; Th 08:00-18:00; Fr 08:00-13:00", "phone": "+36 28 420 790", "website": "https://blahaipatika.business.site"}}, {"type": "node", "id": 7890156533, "lat": 47.6294861, "lon": 19.135273}, {"type": "node", "id": 7890156534, "lat": 47.6294761, "lon": 19.1353073}, {"type": "node", "id": 7890156535, "lat": 47.6294966, "lon": 19.1353201}, {"type": "node", "id": 7890156536, "lat": 47.6294799, "lon": 19.1353778}, {"type": "node", "id": 7890156537, "lat": 47.629468, "lon": 19.1353701}, {"type": "node", "id": 7890156538, "lat": 47.6294195, "lon": 19.1355345}, {"type": "node", "id": 7890156539, "lat": 47.6292863, "lon": 19.1354496}, {"type": "node", "id": 7890156540, "lat": 47.6293181, "lon": 19.1353431}, {"type": "node", "id": 7890156541, "lat": 47.6293693, "lon": 19.1353757}, {"type": "node", "id": 7890156542, "lat": 47.6293816, "lon": 19.135333}, {"type": "node", "id": 7890156543, "lat": 47.6293325, "lon": 19.1353019}, {"type": "node", "id": 7890156544, "lat": 47.6293635, "lon": 19.135195}, {"type": "node", "id": 7890156545, "lat": 47.6294857, "lon": 19.1353577, "tags": {"entrance": "main"}}, {"type": "node", "id": 8306052385, "lat": 47.6175391, "lon": 19.192738}, {"type": "node", "id": 8306052386, "lat": 47.6176414, "lon": 19.1927929}, {"type": "node", "id": 8306052387, "lat": 47.6176588, "lon": 19.1926943}, {"type": "node", "id": 8306052388, "lat": 47.6176218, "lon": 19.1926583}, {"type": "node", "id": 8306052389, "lat": 47.6176032, "lon": 19.1927004}, {"type": "node", "id": 8306052390, "lat": 47.6175699, "lon": 19.1926681}, {"type": "node", "id": 8306052401, "lat": 47.6176543, "lon": 19.1927596}, {"type": "node", "id": 8578975733, "lat": 47.6003093, "lon": 19.3481855}, {"type": "node", "id": 8578975734, "lat": 47.6003113, "lon": 19.3482015}, {"type": "node", "id": 8578975735, "lat": 47.6002734, "lon": 19.3481851}, {"type": "node", "id": 8578975736, "lat": 47.6002627, "lon": 19.3481893}, {"type": "node", "id": 8578975737, "lat": 47.6003028, "lon": 19.3480808}, {"type": "node", "id": 8578975738, "lat": 47.6003599, "lon": 19.3479861}, {"type": "node", "id": 8646581603, "lat": 47.6414754, "lon": 19.1414014}, {"type": "node", "id": 8646581604, "lat": 47.6414519, "lon": 19.1414643}, {"type": "node", "id": 8646581605, "lat": 47.641435, "lon": 19.1414504}, {"type": "node", "id": 8646581606, "lat": 47.6414174, "lon": 19.1414974}, {"type": "node", "id": 8646581607, "lat": 47.6414329, "lon": 19.1415101}, {"type": "node", "id": 8646581608, "lat": 47.641405, "lon": 19.1415847}, {"type": "node", "id": 8646581610, "lat": 47.6415159, "lon": 19.1414348}, {"type": "node", "id": 8646581611, "lat": 47.641447, "lon": 19.1416193}, {"type": "node", "id": 8755749839, "lat": 47.6096192, "lon": 19.6016635}, {"type": "node", "id": 8755749840, "lat": 47.609678, "lon": 19.6016059}, {"type": "node", "id": 8755749841, "lat": 47.6095568, "lon": 19.601566}, {"type": "node", "id": 8755749842, "lat": 47.6096071, "lon": 19.6014952}, {"type": "node", "id": 8755749843, "lat": 47.609741, "lon": 19.6017043}, {"type": "node", "id": 8755749844, "lat": 47.6095204, "lon": 19.6017602}, {"type": "node", "id": 8755749845, "lat": 47.609489, "lon": 19.6016897}, {"type": "node", "id": 8846040647, "lat": 47.6351464, "lon": 19.129859}, {"type": "node", "id": 8846040648, "lat": 47.6351292, "lon": 19.1300848}, {"type": "node", "id": 8846040649, "lat": 47.6350329, "lon": 19.1300813}, {"type": "node", "id": 8846040650, "lat": 47.6350338, "lon": 19.1299917}, {"type": "node", "id": 8846040651, "lat": 47.634979, "lon": 19.1299889}, {"type": "node", "id": 8846040652, "lat": 47.6349799, "lon": 19.1298663}, {"type": "node", "id": 9107335040, "lat": 47.6350683, "lon": 19.1300827}, {"type": "node", "id": 9267148556, "lat": 47.520334, "lon": 19.2201906}, {"type": "node", "id": 9267148557, "lat": 47.5202908, "lon": 19.2202514}, {"type": "node", "id": 9267148558, "lat": 47.5203683, "lon": 19.2202429}, {"type": "node", "id": 9275754272, "lat": 47.8287806, "lon": 19.5310695, "tags": {"amenity": "pharmacy", "name": "Rem\u00e9ny Gy\u00f3gyszert\u00e1r"}}, {"type": "node", "id": 9321453364, "lat": 47.551793, "lon": 19.2254785}, {"type": "node", "id": 9321453365, "lat": 47.5517264, "lon": 19.2255864}, {"type": "node", "id": 9321453366, "lat": 47.5517982, "lon": 19.2256757}, {"type": "node", "id": 9321453367, "lat": 47.5518231, "lon": 19.2256264}, {"type": "node", "id": 9321453368, "lat": 47.5519001, "lon": 19.2257297}, {"type": "node", "id": 9321453369, "lat": 47.5519385, "lon": 19.225668}, {"type": "node", "id": 9517197598, "lat": 47.7947765, "lon": 19.2209015, "tags": {"camera:direction": "140", "camera:mount": "wall", "camera:type": "fixed", "man_made": "surveillance", "surveillance": "outdoor", "surveillance:type": "camera", "surveillance:zone": "traffic"}}, {"type": "node", "id": 9517197599, "lat": 47.7949044, "lon": 19.2210303}, {"type": "node", "id": 9517197600, "lat": 47.7948678, "lon": 19.2211108}, {"type": "node", "id": 9517197601, "lat": 47.7947288, "lon": 19.2210065}, {"type": "node", "id": 9853563400, "lat": 47.6706269, "lon": 19.6837342}, {"type": "node", "id": 9853563401, "lat": 47.6706593, "lon": 19.6837348}, {"type": "node", "id": 9853563402, "lat": 47.6706274, "lon": 19.6836673}, {"type": "node", "id": 9853563403, "lat": 47.6706283, "lon": 19.6835598}, {"type": "node", "id": 9853563404, "lat": 47.6706568, "lon": 19.6835603}, {"type": "node", "id": 9930533391, "lat": 47.5426485, "lon": 19.2256303, "tags": {"alt_name": "Smaragd Gy\u00f3gyszert\u00e1r", "amenity": "pharmacy", "healthcare": "pharmacy", "name": "Smaragd Patika", "opening_hours": "Mo-Fr 08:00-19:00", "wheelchair": "no"}}, {"type": "node", "id": 9963772338, "lat": 47.7743792, "lon": 19.6680701, "tags": {"amenity": "pharmacy", "name": "Patika", "opening_hours": "Mo-Fr 11:00-13:00; PH off"}}, {"type": "node", "id": 10209909661, "lat": 47.6332217, "lon": 19.5057759, "tags": {"amenity": "pharmacy", "healthcare": "pharmacy"}}, {"type": "node", "id": 10701454130, "lat": 47.5298833, "lon": 19.2033728, "tags": {"amenity": "pharmacy", "healthcare": "pharmacy", "name": "Eur\u00f3pa Gy\u00f3gyszert\u00e1r"}}, {"type": "node", "id": 10782515239, "lat": 47.6675595, "lon": 19.3034605, "tags": {"addr:city": "Erd\u0151kertes", "addr:door": "5", "addr:housenumber": "31", "addr:postcode": "2113", "addr:street": "F\u0151 \u00fat", "addr:unit": "A", "amenity": "pharmacy", "healthcare": "pharmacy", "name": "Kulcs Patika 0-24", "opening_hours": "24/7", "operator": "Kulcspatik\u00e1k ZRT."}}, {"type": "node", "id": 10858686279, "lat": 47.7947997, "lon": 19.2210779}, {"type": "node", "id": 10858686280, "lat": 47.7948108, "lon": 19.2210534}, {"type": "node", "id": 11064361963, "lat": 47.629491, "lon": 19.1787339, "tags": {"addr:city": "F\u00f3t", "addr:housenumber": "29", "addr:postcode": "2151", "addr:street": "N\u00e9meth K\u00e1lm\u00e1n \u00fat", "amenity": "pharmacy", "brand": "Benu", "check_date": "2023-07-24", "contact:phone": "+36 27 360 174", "dispensing": "yes", "healthcare": "pharmacy", "name": "Ez\u00fcstfeny\u0151 Gy\u00f3gyszert\u00e1r", "opening_hours": "Mo-Fr 08:00-18:00; Sa-Su off", "payment:mastercard": "yes", "payment:visa": "yes", "source": "survey", "wheelchair": "yes"}}, {"type": "node", "id": 11287025550, "lat": 47.8743596, "lon": 19.4015604, "tags": {"addr:city": "Bercel", "addr:housenumber": "10", "addr:postcode": "2687", "addr:street": "Kossuth t\u00e9r", "amenity": "pharmacy", "brand": "Benu"}}, {"type": "node", "id": 12077138587, "lat": 47.5809738, "lon": 19.1623186, "tags": {"amenity": "pharmacy", "healthcare": "pharmacy", "name": "MedoSwiss Flora"}}, {"type": "node", "id": 12103173666, "lat": 47.4866229, "lon": 19.2851055}, {"type": "node", "id": 12103173667, "lat": 47.4865464, "lon": 19.2849099}, {"type": "node", "id": 12103173668, "lat": 47.4866356, "lon": 19.2848336}, {"type": "node", "id": 12103173669, "lat": 47.486712, "lon": 19.2850292}, {"type": "node", "id": 12170520476, "lat": 47.7452427, "lon": 19.211945, "tags": {"addr:city": "V\u00e1cduka", "addr:housenumber": "24", "addr:postcode": "2167", "addr:street": "Kossuth Lajos \u00fat", "amenity": "pharmacy", "check_date": "2024-09-11", "healthcare": "pharmacy", "name": "Szent Katalin Fi\u00f3kpatika - V\u00e1cduka", "payment:cash": "yes", "payment:credit_cards": "yes", "payment:debit_cards": "yes", "wheelchair": "no"}}, {"type": "node", "id": 12332551908, "lat": 47.4770185, "lon": 19.2637405, "tags": {"addr:city": "Budapest", "addr:housenumber": "223", "addr:postcode": "1173", "addr:street": "Pesti \u00fat", "amenity": "pharmacy", "name": "Gy\u00f3gyszert\u00e1r"}}, {"type": "node", "id": 12921357007, "lat": 47.4782068, "lon": 19.233811, "tags": {"addr:city": "Budapest", "addr:housenumber": "3", "addr:postcode": "1173", "addr:street": "Uszoda utca", "amenity": "pharmacy", "brand": "Gy\u00f6ngy Patika", "contact:facebook": "https://www.facebook.com/madardombpatika/", "email": "madardombpatika@gmail.com", "healthcare": "pharmacy", "name": "Mad\u00e1rdomb Gy\u00f3gyszert\u00e1r", "opening_hours": "Mo-Fr 08:00-20:00; Sa 08:00-12:00", "phone": "+36 1 253 0248", "start_date": "2000-06-27"}}, {"type": "node", "id": 12955436249, "lat": 47.7908655, "lon": 19.115469, "tags": {"addr:city": "V\u00e1c", "addr:housenumber": "10", "addr:postcode": "2600", "addr:street": "Pap B\u00e9la utca", "amenity": "pharmacy", "healthcare": "pharmacy", "name": "Kisv\u00e1ci Szent Gell\u00e9rt Gy\u00f3gyszert\u00e1r", "opening_hours": "Mo-Fr 07:30-19:30; Sa 08:00-13:00", "phone": "06-27/306-190", "phone:mobile": "06-70/ 411-7820", "website": "https://www.kisvacipatika.hu/"}}, {"type": "node", "id": 13096409491, "lat": 47.6928077, "lon": 19.3848544, "tags": {"amenity": "pharmacy", "healthcare": "pharmacy"}}, {"type": "way", "id": 158209131, "nodes": [1704414560, 1704414562, 1704414558, 1704414556, 1704414560], "tags": {"amenity": "pharmacy", "building": "yes", "healthcare": "pharmacy", "name": "\u00dajlak Patika"}}, {"type": "way", "id": 169751028, "nodes": [1809099082, 1809099060, 1809099068, 1809099084, 1809099082], "tags": {"addr:city": "Erd\u0151kertes", "addr:housenumber": "5/d", "addr:postcode": "2113", "addr:street": "F\u0151 t\u00e9r", "amenity": "pharmacy", "building": "yes", "contact:fax": "+36 28 594 121", "dispensing": "yes", "email": "borostyan98bt@invitel.hu", "healthcare": "pharmacy", "name": "Borosty\u00e1n Gy\u00f3gyszert\u00e1r", "opening_hours": "Mo-Th 08:00-16:00; Fr 08:00-15:00", "phone": "+36 28 594 120"}}, {"type": "way", "id": 190039033, "nodes": [2006361153, 2006361161, 2006361154, 2006361158, 2006361159, 2006361164, 2006361163, 2006361145, 2006361153], "tags": {"addr:city": "Budapest", "addr:housenumber": "41/d", "addr:postcode": "1173", "addr:street": "Pesti \u00fat", "amenity": "pharmacy", "building": "yes", "email": "patika.pharmatrend@gmail.com", "healthcare": "pharmacy", "name": "Pharmatrend Patika", "opening_hours": "Mo-Th 08:00-18:00; Fr 08:00-16:00", "phone": "+36 1 256 7939"}}, {"type": "way", "id": 206467747, "nodes": [2164755613, 9267148557, 9267148556, 9267148558, 2164755674, 5993533869, 2164755663, 2164755613], "tags": {"addr:city": "Budapest", "addr:housenumber": "2", "addr:postcode": "1164", "addr:street": "Vid\u00e1mv\u00e1s\u00e1r utca", "amenity": "pharmacy", "building": "yes", "dispensing": "yes", "healthcare": "pharmacy", "name": "Vid\u00e1mv\u00e1s\u00e1r Gy\u00f3gyszert\u00e1r", "opening_hours": "Mo-Fr 08:00-20:00; Sa 08:00-12:00"}}, {"type": "way", "id": 272757759, "nodes": [2776840907, 8578975733, 8578975734, 2776840908, 8578975735, 8578975736, 5176037840, 8578975737, 5176037841, 2776840911, 2776840912, 8578975738, 2776840907], "tags": {"addr:city": "G\u00f6d\u00f6ll\u0151", "addr:housenumber": "3", "addr:postcode": "2100", "addr:street": "G\u00e1bor \u00c1ron utca", "amenity": "pharmacy", "brand": "Gy\u00f6ngy patika", "building": "yes", "healthcare": "pharmacy", "name": "K\u00edgy\u00f3 gy\u00f3gyszert\u00e1r", "opening_hours": "Mo-Fr 08:00-19:00, Sa 08:00-13:00", "phone": "+36 28 430 069"}}, {"type": "way", "id": 272805354, "nodes": [8755749840, 8755749842, 8755749841, 8755749839, 8755749844, 8755749845, 2777234140, 2777234141, 2777234138, 8755749843, 8755749840], "tags": {"amenity": "pharmacy", "building": "yes", "healthcare": "pharmacy"}}, {"type": "way", "id": 301959043, "nodes": [3061373729, 3061373730, 3061373731, 3061373732, 3061373729], "tags": {"addr:city": "G\u00f6d\u00f6ll\u0151", "addr:housenumber": "167", "addr:postcode": "2100", "addr:street": "Szabads\u00e1g \u00fat", "amenity": "pharmacy", "brand": "Gy\u00f6ngy patika", "building": "yes", "name": "M\u00e1riabesny\u0151i Gy\u00f3gyszert\u00e1r", "opening_hours": "Mo-Fr 07:30-18:30; Sa 08:00-13:00", "phone": "+36 28 419 749"}}, {"type": "way", "id": 308355762, "nodes": [3136439647, 3136439648, 3136439649, 3017324817, 3017324823, 3136439650, 3136439647], "tags": {"addr:city": "V\u00e1c", "addr:housenumber": "3", "addr:postcode": "2600", "addr:street": "Magyar utca", "amenity": "pharmacy", "building": "retail", "dispensing": "yes", "healthcare": "pharmacy", "name": "V\u00e1cz Remete Gy\u00f3gyszert\u00e1r", "opening_hours": "Mo-Fr 08:00-18:00; Sa 07:30-12:00; PH closed", "phone": "+36 27 305 997"}}, {"type": "way", "id": 354860698, "nodes": [3605127323, 3605127324, 3605127334, 3605127325, 3605127326, 3605127327, 3605127328, 3605127329, 3605127330, 3605127323], "tags": {"addr:city": "V\u00e1charty\u00e1n", "addr:housenumber": "27", "addr:postcode": "2164", "addr:street": "F\u0151 \u00fat", "amenity": "pharmacy", "building": "yes", "healthcare": "pharmacy", "name": "Szent Istv\u00e1n gy\u00f3gyszert\u00e1r", "opening_hours": "Mo 08:00-18:00; Tu-We 08:00-17:00; Th 08:00-12:00; Fr 08:00-16:00"}}, {"type": "way", "id": 456615074, "nodes": [4528727092, 4528727089, 4528727091, 4528727093, 4528727092], "tags": {"amenity": "pharmacy", "building": "yes", "name": "Ez\u00fcstkehely Patika"}}, {"type": "way", "id": 492160968, "nodes": [4842061858, 4802320565, 4802320560, 4842061859, 4842061858], "tags": {"amenity": "pharmacy", "building": "yes", "healthcare": "pharmacy", "name": "Penci Fi\u00f3kgy\u00f3gyszert\u00e1r", "opening_hours": "Tu 08:00-11:00; We 12:00-15:30; Fr 12:00-15:00", "phone": "+36 27 368 408", "wheelchair": "yes"}}, {"type": "way", "id": 546324574, "nodes": [5279538626, 5279538627, 5279538628, 5279538629, 5279538626], "tags": {"addr:city": "Budapest", "addr:housenumber": "16", "addr:postcode": "1174", "addr:street": "Baross utca", "amenity": "pharmacy", "brand": "Benu", "brand:wikidata": "Q62562792", "building": "yes", "email": "rpatika1174@gmail.com", "healthcare": "pharmacy", "name": "R\u00e1koshegy Patika a Megv\u00e1lt\u00f3hoz", "opening_hours": "Mo-Fr 08:00-20:00", "phone": "+36 1 258 5244", "website": "https://benu.hu/rakoshegy-gyogyszertar/"}}, {"type": "way", "id": 621787268, "nodes": [5857154778, 5873897957, 5873897958, 5873897959, 5873897960, 5873897961, 5873897962, 5873897963, 5857154778], "tags": {"addr:city": "Her\u00e9d", "addr:housenumber": "27", "addr:postcode": "3011", "addr:street": "Arany J\u00e1nos utca", "amenity": "pharmacy", "building": "yes", "dispensing": "yes", "drive_through": "no", "healthcare": "pharmacy", "operator": "Halasi Patika Gyop\u00e1r 94 Bt.", "source": "local knowledge"}}, {"type": "way", "id": 741601271, "nodes": [6942535823, 6942535822, 6942535821, 6942535820, 6942535823], "tags": {"addr:city": "Isaszeg", "addr:housenumber": "87", "addr:postcode": "2117", "addr:street": "Kossuth Lajos utca", "air_conditioning": "yes", "amenity": "pharmacy", "building": "retail", "drive_through": "no", "healthcare": "pharmacy", "name": "Ez\u00fcstkehely patika", "opening_hours": "Mo-Fr 08:00-18:00; Sa-Su 08:00-12:00", "phone": "+36 28 582 025"}}, {"type": "way", "id": 799086959, "nodes": [7473380162, 7473380161, 7473380160, 7473380158, 7473380157, 7473380159, 7473380162], "tags": {"addr:city": "Mogyor\u00f3d", "addr:housenumber": "18/B", "addr:postcode": "2146", "addr:street": "G\u00f6d\u00f6ll\u0151i \u00fat", "amenity": "pharmacy", "building": "yes", "dispensing": "yes", "healthcare": "pharmacy", "name": "K\u00edgy\u00f3 Gy\u00f3gyszert\u00e1r"}}, {"type": "way", "id": 804710217, "nodes": [7526971706, 7526971704, 7526971703, 7526971705, 7526971706], "tags": {"amenity": "pharmacy", "building": "yes"}}, {"type": "way", "id": 821492659, "nodes": [7670763362, 7670763363, 9853563401, 9853563400, 9853563402, 9853563403, 9853563404, 7670763365, 7670763362], "tags": {"amenity": "pharmacy", "building": "yes", "dispensing": "yes", "healthcare": "pharmacy"}}, {"type": "way", "id": 821492660, "nodes": [7670763366, 7670763372, 7670763367, 7670763371, 7670763368, 7670763369, 7670763370, 7670763366], "tags": {"addr:city": "Hatvan", "addr:housenumber": "8", "addr:postcode": "3000", "addr:street": "Kossuth t\u00e9r", "amenity": "pharmacy", "building": "yes", "dispensing": "yes", "healthcare": "pharmacy", "name": "Lesty\u00e1n Patika", "opening_hours": "24/7"}}, {"type": "way", "id": 845705140, "nodes": [7890156533, 7890156534, 7890156535, 7890156545, 7890156536, 7890156537, 7890156538, 7890156539, 7890156540, 7890156541, 7890156542, 7890156543, 7890156544, 7890156533], "tags": {"addr:city": "Dunakeszi", "addr:housenumber": "21", "addr:postcode": "2120", "addr:street": "Bajcsy-Zsilinszky utca", "amenity": "pharmacy", "building": "yes", "dispensing": "yes", "healthcare": "pharmacy", "name": "Szent Mih\u00e1ly Gy\u00f3gyszert\u00e1r", "opening_hours": "Mo-Fr 07:30-18:00", "operator": "Gy\u00f6ngy"}}, {"type": "way", "id": 893688134, "nodes": [8306052385, 8306052386, 8306052401, 8306052387, 8306052388, 8306052389, 8306052390, 8306052385], "tags": {"amenity": "pharmacy", "building": "yes", "check_date": "2023-06-15", "contact:phone": "+36 27 538 656", "dispensing": "yes", "healthcare": "pharmacy", "name": "Pandulia Gy\u00f3gyszert\u00e1r", "opening_hours": "Mo-Fr 07:30-19:15; Sa,Su 08:00-12:00", "payment:debit_cards": "yes", "payment:mastercard": "yes", "payment:visa": "yes", "wheelchair": "yes"}}, {"type": "way", "id": 932787430, "nodes": [8646581610, 8646581611]}, {"type": "way", "id": 932787431, "nodes": [8646581610, 8646581603, 8646581604, 8646581605, 8646581606, 8646581607, 8646581608, 8646581611]}, {"type": "way", "id": 955808503, "nodes": [8846040647, 3692611694, 8846040648, 9107335040, 8846040649, 8846040650, 8846040651, 8846040652, 8846040647], "tags": {"addr:city": "Dunakeszi", "addr:housenumber": "13", "addr:postcode": "2120", "addr:street": "Kis utca", "amenity": "pharmacy", "brand": "Benu", "brand:wikidata": "Q62562792", "building": "yes", "check_date": "2025-09-02", "dispensing": "yes", "drive_through": "no", "healthcare": "pharmacy", "name": "BENU \u00c1rnika Gy\u00f3gyszert\u00e1r", "opening_hours": "Mo-Fr 07:30-19:00; Sa 08:00-14:00", "operator": "\u00c1rnika Gy\u00f3gyszerkereskedelmi \u00e9s Szolg\u00e1ltat\u00f3 BT.", "payment:mastercard": "yes", "payment:visa": "yes", "phone": "+36 27 540 505", "wheelchair": "yes"}}, {"type": "way", "id": 1010270341, "nodes": [9321453364, 9321453365, 9321453366, 9321453367, 9321453368, 9321453369, 9321453364], "tags": {"addr:city": "Cs\u00f6m\u00f6r", "addr:housenumber": "17", "addr:postcode": "2141", "addr:street": "V\u00f6r\u00f6smarty utca", "amenity": "pharmacy", "building": "yes", "dispensing": "no", "healthcare": "pharmacy", "name": "Winkler Patika", "opening_hours": "Mo-Fr 08:00-19:00; Sa 08:00-12:00; Su off"}}, {"type": "way", "id": 1032961803, "nodes": [9517197601, 9517197598, 9517197599, 9517197600, 10858686280, 10858686279, 9517197601], "tags": {"addr:city": "R\u00e1d", "addr:housenumber": "17/a", "addr:postcode": "2613", "addr:street": "R\u00e1k\u00f3czi \u00fat", "amenity": "pharmacy", "building": "yes", "contact:phone": "+36 27 310 685", "dispensing": "yes", "name": "R\u00e1di Fi\u00f3kgy\u00f3gyszert\u00e1r", "opening_hours": "Mo, We, Th 12:00-16:00; Tu, Fr 08:00-12:00"}}, {"type": "way", "id": 1306915540, "nodes": [12103173669, 12103173666, 12103173667, 12103173668, 12103173669], "tags": {"addr:city": "Budapest", "addr:housenumber": "188", "addr:postcode": "1171", "addr:street": "P\u00e9celi \u00fat", "amenity": "pharmacy", "building": "yes", "name": "Clematis"}}, {"type": "relation", "id": 12604546, "members": [{"type": "way", "ref": 932787430, "role": "outer"}, {"type": "way", "ref": 932787431, "role": "outer"}], "tags": {"addr:city": "Dunakeszi", "addr:housenumber": "42", "addr:postcode": "2120", "addr:street": "T\u00e1bor utca", "amenity": "pharmacy", "brand": "Gy\u00f6ngy patika", "building:part": "yes", "dispensing": "yes", "healthcare": "pharmacy", "name": "Unikornis gy\u00f3gyszert\u00e1r", "type": "multipolygon"}}]}