{"version": 0.6, "generator": "Overpass API 0.7.62.8 e802775f", "osm3s": {"timestamp_osm_base": "2025-10-06T07:54:35Z", "copyright": "The data included in this document is from www.openstreetmap.org. The data is made available under ODbL."}, "elements": [{"type": "node", "id": 278787554, "lat": 46.4743993, "lon": 18.6817103, "tags": {"addr:city": "Szedres", "addr:housenumber": "2/A", "addr:postcode": "7056", "addr:street": "Zr\u00ednyi Mikl\u00f3s utca", "amenity": "pharmacy", "check_date": "2024-01-10", "contact:email": "info@szeder.paticard.hu", "contact:phone": "+36 74 534 001", "contact:website": "http://www.szeder.paticard.hu", "name": "Szeder Gy\u00f3gyszert\u00e1r", "opening_hours": "Mo,We 08:00-16:00; Tu,Th 10:30-17:00; Fr 10:00-16:00; PH off"}}, {"type": "node", "id": 289114843, "lat": 46.5308924, "lon": 18.7110436, "tags": {"amenity": "pharmacy", "healthcare": "pharmacy"}}, {"type": "node", "id": 311701062, "lat": 46.5083004, "lon": 18.587986, "tags": {"amenity": "pharmacy", "healthcare": "pharmacy"}}, {"type": "node", "id": 312919434, "lat": 46.5951088, "lon": 18.7191652, "tags": {"amenity": "pharmacy", "healthcare": "pharmacy"}}, {"type": "node", "id": 323215906, "lat": 46.4091513, "lon": 18.4561125, "tags": {"amenity": "pharmacy", "created_by": "Potlatch 0.10f"}}, {"type": "node", "id": 871605953, "lat": 46.5333596, "lon": 18.9879053, "tags": {"amenity": "pharmacy"}}, {"type": "node", "id": 871609369, "lat": 46.4865664, "lon": 18.9559334, "tags": {"amenity": "pharmacy"}}, {"type": "node", "id": 872665166, "lat": 46.5321245, "lon": 18.9811694, "tags": {"addr:city": "Kalocsa", "addr:housenumber": "23", "addr:postcode": "6300", "addr:street": "Kossuth Lajos utca", "amenity": "pharmacy", "name": "F\u0151nix Gy\u00f3gyszert\u00e1r"}}, {"type": "node", "id": 872665874, "lat": 46.5243691, "lon": 18.9836843, "tags": {"amenity": "pharmacy", "healthcare": "pharmacy", "wheelchair": "yes"}}, {"type": "node", "id": 1575928375, "lat": 46.5234928, "lon": 18.9841786, "tags": {"addr:street": "Alkony utca", "amenity": "pharmacy", "dispensing": "yes", "healthcare": "pharmacy", "name": "K\u00e9k Kereszt \u00c1llatpatika", "opening_hours": "Mo-Fr 08:00-14:00; 09:00-17:00; PH closed"}}, {"type": "node", "id": 2575927083, "lat": 46.5324493, "lon": 18.979911, "tags": {"amenity": "pharmacy", "healthcare": "pharmacy", "name": "Korona Gy\u00f3gyszert\u00e1r", "wheelchair": "yes"}}, {"type": "node", "id": 2990731002, "lat": 46.5302025, "lon": 18.8198219, "tags": {"addr:city": "Dunaszentgy\u00f6rgy", "addr:housenumber": "83", "addr:postcode": "7135", "addr:street": "R\u00e1k\u00f3czi Ferenc utca", "amenity": "pharmacy", "healthcare": "pharmacy", "name": "Magyar Korona Gy\u00f3gyszert\u00e1r", "opening_hours": "Mo-Fr 08:00-16:30; PH off", "phone": "+36 75 536 015", "survey:date": "2022-06-25"}}, {"type": "node", "id": 3247087080, "lat": 46.807876, "lon": 18.6866794, "tags": {"addr:city": "Alap", "addr:housenumber": "2", "addr:postcode": "7011", "addr:street": "V\u00f6r\u00f6smarty Mih\u00e1ly utca", "amenity": "pharmacy"}}, {"type": "node", "id": 3446561051, "lat": 46.680439, "lon": 18.439019, "tags": {"amenity": "pharmacy", "name": "Korall gy\u00f3gyszert\u00e1r", "source": "turistautak.hu", "source:date": "2012-10-14", "url": "http://turistautak.hu/poi.php?id=85682"}}, {"type": "node", "id": 3446569418, "lat": 46.494867, "lon": 18.420817, "tags": {"amenity": "pharmacy", "description": "Nyitvatart\u00e1s: H\u00e9tf\u0151-P\u00e9ntek: 7:30 - 12:30, 15:00-18:00 \u00dcgyelet nincs, k\u00e9szenl\u00e9t szombat, vas\u00e1rnap: 9:00-12:00 Telefon: +36302007780", "healthcare": "pharmacy", "name": "Szent Ter\u00e9z patika", "source": "turistautak.hu", "source:date": "2012-10-14", "url": "http://turistautak.hu/poi.php?id=131742"}}, {"type": "node", "id": 3446570729, "lat": 46.556127, "lon": 18.478665, "tags": {"amenity": "pharmacy", "source": "turistautak.hu", "source:date": "2012-10-14", "url": "http://turistautak.hu/poi.php?id=30553"}}, {"type": "node", "id": 3446570744, "lat": 46.5782198, "lon": 18.3916098, "tags": {"amenity": "pharmacy", "source": "turistautak.hu", "source:date": "2012-10-14", "url": "http://turistautak.hu/poi.php?id=28064"}}, {"type": "node", "id": 3446571331, "lat": 46.7158244, "lon": 18.4760691, "tags": {"amenity": "pharmacy", "healthcare": "pharmacy", "source": "turistautak.hu", "source:date": "2012-10-14", "url": "http://turistautak.hu/poi.php?id=128728"}}, {"type": "node", "id": 3452829590, "lat": 46.6245964, "lon": 18.8612667, "tags": {"amenity": "pharmacy", "brand": "Alma Gy\u00f3gyszert\u00e1r", "brand:website": "https://almapatika.hu", "brand:wikidata": "Q105626221", "healthcare": "pharmacy", "name": "Alma Gy\u00f3gyszert\u00e1r", "wheelchair": "yes"}}, {"type": "node", "id": 3452829592, "lat": 46.6230078, "lon": 18.8565127, "tags": {"amenity": "pharmacy", "healthcare": "pharmacy", "name": "Aranyk\u00edgy\u00f3 gy\u00f3gyszert\u00e1r", "source": "turistautak.hu", "source:date": "2012-01-01", "url": "http://turistautak.hu/poi.php?id=120876", "wheelchair": "limited"}}, {"type": "node", "id": 3452835406, "lat": 46.625517, "lon": 18.863367, "tags": {"amenity": "pharmacy", "check_date": "2024-07-02", "healthcare": "pharmacy", "name": "Borosty\u00e1n gy\u00f3gyszert\u00e1r", "source": "turistautak.hu", "source:date": "2012-01-01", "url": "http://turistautak.hu/poi.php?id=130401", "wheelchair": "no"}}, {"type": "node", "id": 3452835921, "lat": 46.6159756, "lon": 18.8441066, "tags": {"addr:city": "Paks", "addr:housenumber": "1", "addr:postcode": "7030", "addr:street": "Bar\u00e1ts\u00e1g utca", "amenity": "pharmacy", "healthcare": "pharmacy", "name": "Sz\u00edv\u00e9lyes gy\u00f3gyszert\u00e1r", "source": "turistautak.hu", "source:date": "2012-01-01", "url": "http://turistautak.hu/poi.php?id=130612"}}, {"type": "node", "id": 3452835991, "lat": 46.526583, "lon": 18.713117, "tags": {"amenity": "pharmacy", "healthcare": "pharmacy", "source": "turistautak.hu", "source:date": "2012-01-01", "url": "http://turistautak.hu/poi.php?id=21868"}}, {"type": "node", "id": 3452836155, "lat": 46.6162897, "lon": 18.842588}, {"type": "node", "id": 3470101933, "lat": 46.527, "lon": 18.917, "tags": {"amenity": "pharmacy", "description": "M\u00e1lyva Patika Bt. 6331 Fokt\u0151, F\u0151 utca 64. +3678460015", "name": "M\u00e1lyva patika", "source": "turistautak.hu", "source:date": "2012-08-05", "url": "http://turistautak.hu/poi.php?id=128751"}}, {"type": "node", "id": 4263111264, "lat": 46.6888558, "lon": 18.9545695}, {"type": "node", "id": 4263111265, "lat": 46.6888455, "lon": 18.9544809}, {"type": "node", "id": 4263111266, "lat": 46.6887403, "lon": 18.9545069}, {"type": "node", "id": 4263111267, "lat": 46.68873, "lon": 18.9544188}, {"type": "node", "id": 4263111268, "lat": 46.6886707, "lon": 18.9544335}, {"type": "node", "id": 4263111269, "lat": 46.6886913, "lon": 18.9546102}, {"type": "node", "id": 4316212646, "lat": 46.4115508, "lon": 18.565962, "tags": {"addr:city": "Zomba", "addr:housenumber": "6", "addr:postcode": "7173", "addr:street": "F\u0151 t\u00e9r", "amenity": "pharmacy", "healthcare": "pharmacy", "name": "Rozsnyay Patika", "opening_hours": "Mo,We 08:00-12:00,14:00-18:00; Tu,Th,Fr 08:00-12:00,13:00-17:00", "wheelchair": "no"}}, {"type": "node", "id": 8732174844, "lat": 46.6164016, "lon": 18.8426047}, {"type": "node", "id": 8732174845, "lat": 46.6164176, "lon": 18.842378}, {"type": "node", "id": 8732174846, "lat": 46.6163057, "lon": 18.8423613}, {"type": "node", "id": 8881019613, "lat": 46.6231827, "lon": 18.6562099, "tags": {"addr:city": "Nagydorog", "addr:housenumber": "21-23", "addr:postcode": "7044", "addr:street": "Kossuth utca", "amenity": "pharmacy", "contact:fax": "+36 75 532 032", "contact:mobile": "+36 70 376 7170", "contact:phone": "+36 75 532 031", "dispensing": "yes", "healthcare": "pharmacy", "name": "Ambr\u00f3zia Gy\u00f3gyszert\u00e1r", "opening_hours": "Mo-Fr 08:00-12:00, 13:00-17:00; PH off"}}, {"type": "node", "id": 9165166904, "lat": 46.4116934, "lon": 18.5658489}, {"type": "node", "id": 9165166905, "lat": 46.4115216, "lon": 18.5659677}, {"type": "node", "id": 9165166906, "lat": 46.4115789, "lon": 18.5661419}, {"type": "node", "id": 9165166907, "lat": 46.4116888, "lon": 18.5660659}, {"type": "node", "id": 9165166908, "lat": 46.4118052, "lon": 18.5664201}, {"type": "node", "id": 9165166909, "lat": 46.4118671, "lon": 18.5663772}, {"type": "node", "id": 9765459696, "lat": 46.716238, "lon": 18.7632577, "tags": {"amenity": "pharmacy", "dispensing": "yes", "opening_hours": "Mo 13:00-17:00; Tu-Th 12:00-16:00; PH off", "survey:date": "2022-05-23", "wheelchair": "no"}}, {"type": "node", "id": 11445748247, "lat": 46.7527622, "lon": 18.5534642, "tags": {"amenity": "pharmacy", "name": "Kapinya Gy\u00f3gyszert\u00e1r", "opening_hours": "Mo-Fr 08:00-16:00"}}, {"type": "node", "id": 12014605919, "lat": 46.6061465, "lon": 18.9139275}, {"type": "node", "id": 12014605920, "lat": 46.6059835, "lon": 18.9139802}, {"type": "node", "id": 12014605921, "lat": 46.6059714, "lon": 18.913901}, {"type": "node", "id": 12014605922, "lat": 46.6061344, "lon": 18.9138483}, {"type": "node", "id": 12123587506, "lat": 46.83176, "lon": 18.8212856}, {"type": "node", "id": 12123587507, "lat": 46.8318963, "lon": 18.8211103}, {"type": "node", "id": 12123587508, "lat": 46.8320794, "lon": 18.821408}, {"type": "node", "id": 12123587509, "lat": 46.8320466, "lon": 18.82145}, {"type": "node", "id": 12123587510, "lat": 46.8319398, "lon": 18.8212784}, {"type": "node", "id": 12123587511, "lat": 46.8318363, "lon": 18.8214092}, {"type": "node", "id": 12581975861, "lat": 46.5758071, "lon": 18.8480564, "tags": {"amenity": "pharmacy", "healthcare": "pharmacy"}}, {"type": "node", "id": 13016316967, "lat": 46.525379, "lon": 18.985297, "tags": {"addr:city": "Kalocsa", "addr:housenumber": "8", "addr:postcode": "6300", "addr:street": "Sz\u00e9chenyi utca", "amenity": "pharmacy", "contact:facebook": "aranykigyokalocsa", "contact:phone": "+36 78 465 200", "name": "Arany K\u00edgy\u00f3 Gy\u00f3gyszert\u00e1r"}}, {"type": "way", "id": 427068943, "nodes": [4263111264, 4263111265, 4263111266, 4263111267, 4263111268, 4263111269, 4263111264], "tags": {"amenity": "pharmacy", "building": "yes", "healthcare": "pharmacy"}}, {"type": "way", "id": 943017544, "nodes": [8732174844, 8732174845, 8732174846, 3452836155, 8732174844], "tags": {"amenity": "pharmacy", "building": "yes", "healthcare": "pharmacy", "name": "Gy\u00f6ngy patika", "opening_hours": "Mo-Fr 08:00-18:30", "source": "turistautak.hu", "source:date": "2012-01-01", "url": "http://turistautak.hu/poi.php?id=129737"}}, {"type": "way", "id": 991970394, "nodes": [9165166904, 9165166905, 9165166906, 9165166907, 9165166908, 9165166909, 9165166904], "tags": {"amenity": "pharmacy", "building": "yes", "healthcare": "pharmacy"}}, {"type": "way", "id": 1296587011, "nodes": [12014605922, 12014605919, 12014605920, 12014605921, 12014605922], "tags": {"amenity": "pharmacy", "building": "yes"}}, {"type": "way", "id": 1309202981, "nodes": [12123587506, 12123587507, 12123587508, 12123587509, 12123587510, 12123587511, 12123587506], "tags": {"amenity": "pharmacy", "building": "yes", "healthcare": "pharmacy", "name": "Dr. T\u00f3th Patika Bt."}}]}