{"version": 0.6, "generator": "Overpass API 0.7.62.8 e802775f", "osm3s": {"timestamp_osm_base": "2025-10-06T08:23:05Z", "copyright": "The data included in this document is from www.openstreetmap.org. The data is made available under ODbL."}, "elements": [{"type": "node", "id": 577428141, "lat": 50.08379, "lon": 20.84827, "tags": {"addr:city": "Rad\u0142\u00f3w", "addr:housenumber": "3", "addr:street": "Plac Tadeusza Ko\u015bciuszki", "amenity": "pharmacy", "healthcare": "pharmacy", "phone": "+48146283227", "source": "http://ump.waw.pl/ retrieved 11:18:52 11/17/09 (UMP-Tarnow/src/POI-szpitale.pnt-converted.txt)"}}, {"type": "node", "id": 581906147, "lat": 49.968904, "lon": 20.6447697, "tags": {"amenity": "pharmacy", "dispensing": "yes", "healthcare": "pharmacy", "name": "Vita", "phone": "+48146866600", "ref:csioz": "1078427", "source": "http://ump.waw.pl/ retrieved 11:18:52 11/17/09 (UMP-Tarnow/src/POI-szpitale.pnt-converted.txt)"}}, {"type": "node", "id": 581911585, "lat": 49.9578953, "lon": 20.8373212, "tags": {"addr:city": "Wojnicz", "addr:housenumber": "10", "addr:street": "Rynek", "amenity": "pharmacy", "name": "Apteka", "phone": "+48146790235", "source": "http://ump.waw.pl/ retrieved 11:18:52 11/17/09 (UMP-Tarnow/src/POI-szpitale.pnt-converted.txt)"}}, {"type": "node", "id": 581911603, "lat": 49.9579309, "lon": 20.8393576, "tags": {"addr:city": "Wojnicz", "addr:housenumber": "32", "addr:street": "Rynek", "amenity": "pharmacy", "name": "Apteka im. J.Pazdirka", "phone": "+48146790755", "source": "http://ump.waw.pl/ retrieved 11:18:52 11/17/09 (UMP-Tarnow/src/POI-szpitale.pnt-converted.txt)"}}, {"type": "node", "id": 581913113, "lat": 50.0197801, "lon": 20.8535144, "tags": {"addr:city": "Wierzchos\u0142awice", "amenity": "pharmacy", "name": "Centrum", "name:pl": "Apteka Centrum", "source": "http://ump.waw.pl/ retrieved 11:18:52 11/17/09 (UMP-Tarnow/src/POI-szpitale.pnt-converted.txt)"}}, {"type": "node", "id": 583047755, "lat": 49.8928105, "lon": 21.0605687, "tags": {"addr:city": "Tuch\u00f3w", "addr:housenumber": "1", "addr:street": "Szpitalna", "amenity": "pharmacy", "name": "Kolagen", "phone": "+48146535201", "source": "http://ump.waw.pl/ retrieved 11:18:52 11/17/09 (UMP-Tarnow/src/POI-szpitale.pnt-converted.txt)"}}, {"type": "node", "id": 583047809, "lat": 49.8955, "lon": 21.0527, "tags": {"addr:city": "Tuch\u00f3w", "addr:housenumber": "12", "addr:street": "Rynek", "amenity": "pharmacy", "name": "Pod Bia\u0142ym Or\u0142em", "phone": "+48146526411", "source": "http://ump.waw.pl/ retrieved 11:18:52 11/17/09 (UMP-Tarnow/src/POI-szpitale.pnt-converted.txt)"}}, {"type": "node", "id": 583059444, "lat": 49.8761955, "lon": 21.3032585, "tags": {"addr:city": "Jod\u0142owa", "amenity": "pharmacy", "name": "Apteka w Jod\u0142owej", "source": "http://ump.waw.pl/ retrieved 11:18:52 11/17/09 (UMP-Tarnow/src/POI-szpitale.pnt-converted.txt)"}}, {"type": "node", "id": 583143785, "lat": 49.97797, "lon": 21.29206, "tags": {"addr:city": "Pilzno", "addr:housenumber": "5", "addr:street": "W\u0119gierska", "amenity": "pharmacy", "name": "Na W\u0119gierskiej", "phone": "+48146721306", "source": "http://ump.waw.pl/ retrieved 11:18:52 11/17/09 (UMP-Tarnow/src/POI-szpitale.pnt-converted.txt)"}}, {"type": "node", "id": 583143808, "lat": 49.9785, "lon": 21.29174, "tags": {"addr:city": "Pilzno", "addr:housenumber": "12", "addr:street": "Rynek", "amenity": "pharmacy", "healthcare": "pharmacy", "name": "Apteka", "phone": "+48146721033", "source": "http://ump.waw.pl/ retrieved 11:18:52 11/17/09 (UMP-Tarnow/src/POI-szpitale.pnt-converted.txt)"}}, {"type": "node", "id": 584453651, "lat": 49.9765712, "lon": 20.9054531, "tags": {"addr:city": "Zg\u0142obice", "addr:housenumber": "4", "addr:street": "Rzemie\u015blnicza", "amenity": "pharmacy", "name": "Apteka Mniszek", "opening_hours": "Mo-Fr 08:00-18:00; Sa 09:00-12:00", "phone": "+48146743412", "source": "http://ump.waw.pl/ retrieved 11:18:52 11/17/09 (UMP-Tarnow/src/POI-szpitale.pnt-converted.txt)"}}, {"type": "node", "id": 584460095, "lat": 49.9711196, "lon": 20.991209, "tags": {"addr:housenumber": "72b", "addr:place": "Nowodworze", "amenity": "pharmacy", "name": "Libra", "phone": "+48146794200", "source": "http://ump.waw.pl/ retrieved 11:18:52 11/17/09 (UMP-Tarnow/src/POI-szpitale.pnt-converted.txt)"}}, {"type": "node", "id": 584461291, "lat": 50.0074385, "lon": 20.9737363, "tags": {"addr:city": "Tarn\u00f3w", "addr:housenumber": "53", "addr:street": "Krakowska", "amenity": "pharmacy", "brand": "Dbam o Zdrowie", "brand:wikidata": "Q62563833", "healthcare": "pharmacy", "name": "Dbam o Zdrowie", "ref:csioz": "1077891", "short_name": "DOZ"}}, {"type": "node", "id": 584462303, "lat": 50.00867, "lon": 20.9872, "tags": {"addr:city": "Tarn\u00f3w", "addr:housenumber": "42", "addr:street": "Gabriela Narutowicza", "amenity": "pharmacy", "name": "Pod Kolumnami", "phone": "+48146274808", "source": "http://ump.waw.pl/ retrieved 11:18:52 11/17/09 (UMP-Tarnow/src/POI-szpitale.pnt-converted.txt)"}}, {"type": "node", "id": 584462518, "lat": 50.0083699, "lon": 20.9962473, "tags": {"addr:city": "Tarn\u00f3w", "addr:housenumber": "11", "addr:street": "Gumniska", "amenity": "pharmacy", "name": "\u015aw. Marcina", "phone": "+48146216876", "source": "http://ump.waw.pl/ retrieved 11:18:52 11/17/09 (UMP-Tarnow/src/POI-szpitale.pnt-converted.txt)"}}, {"type": "node", "id": 584464020, "lat": 50.014146, "lon": 20.9190189, "tags": {"addr:city": "Tarn\u00f3w", "addr:housenumber": "15", "addr:street": "Eugeniusza Kwiatkowskiego", "amenity": "pharmacy", "name": "Apteka \"Centrum\"", "opening_hours": "Mo-Fr 08:00-16:00", "phone": "+48146374172", "source": "http://ump.waw.pl/ retrieved 11:18:52 11/17/09 (UMP-Tarnow/src/POI-szpitale.pnt-converted.txt)"}}, {"type": "node", "id": 584464142, "lat": 50.013558, "lon": 20.9241859, "tags": {"addr:city": "Tarn\u00f3w", "addr:housenumber": "4", "addr:postcode": "33-101", "addr:street": "Czerwonych Klon\u00f3w", "amenity": "pharmacy", "healthcare": "pharmacy", "name": "Apteka Niskie Ceny sp. z o.o.", "opening_hours": "Mo-Fr 07:00-20:30; Sa 08:00-16:00", "phone": "+48146390980", "source": "http://ump.waw.pl/ retrieved 11:18:52 11/17/09 (UMP-Tarnow/src/POI-szpitale.pnt-converted.txt)"}}, {"type": "node", "id": 584464145, "lat": 50.0132084, "lon": 20.925951, "tags": {"addr:city": "Tarn\u00f3w", "addr:housenumber": "3", "addr:street": "Akacjowa", "amenity": "pharmacy", "healthcare": "pharmacy", "name": "Apteka im. I. \u0141ukasiewicza", "phone": "+48146630701", "source": "http://ump.waw.pl/ retrieved 11:18:52 11/17/09 (UMP-Tarnow/src/POI-szpitale.pnt-converted.txt)"}}, {"type": "node", "id": 584466936, "lat": 50.01131, "lon": 20.97004, "tags": {"addr:city": "Tarn\u00f3w", "addr:housenumber": "35", "addr:street": "W\u0142adys\u0142awa Reymonta", "amenity": "pharmacy", "healthcare": "pharmacy", "name": "Cefarm", "phone": "+48146212824", "source": "http://ump.waw.pl/ retrieved 11:18:52 11/17/09 (UMP-Tarnow/src/POI-szpitale.pnt-converted.txt)"}}, {"type": "node", "id": 584467155, "lat": 50.0120785, "lon": 20.9766386, "tags": {"addr:city": "Tarn\u00f3w", "addr:housenumber": "1a", "addr:street": "Szkotnik", "amenity": "pharmacy", "healthcare": "pharmacy", "level": "0", "name": "Apteka Cosmedica", "source": "http://ump.waw.pl/%20retrieved%2011:18:52%2011/17/09%20(UMP-Tarnow/src/POI-szpitale.pnt-converted.txt)"}}, {"type": "node", "id": 584467399, "lat": 50.0110096, "lon": 20.9822093, "tags": {"addr:city": "Tarn\u00f3w", "addr:housenumber": "15", "addr:street": "Krakowska", "amenity": "pharmacy", "healthcare": "pharmacy", "name": "Pod Koron\u0105", "phone": "+48146211816", "source": "http://ump.waw.pl/ retrieved 11:18:52 11/17/09 (UMP-Tarnow/src/POI-szpitale.pnt-converted.txt)"}}, {"type": "node", "id": 584467452, "lat": 50.010342, "lon": 20.9829822, "tags": {"addr:city": "Tarn\u00f3w", "addr:housenumber": "7", "addr:street": "Urszula\u0144ska", "amenity": "pharmacy", "healthcare": "pharmacy", "name": "Apteka Twoje Leki", "phone": "+48146275544", "source": "http://ump.waw.pl/ retrieved 11:18:52 11/17/09 (UMP-Tarnow/src/POI-szpitale.pnt-converted.txt)"}}, {"type": "node", "id": 584467692, "lat": 50.0154318, "lon": 20.9781852, "tags": {"addr:city": "Tarn\u00f3w", "addr:housenumber": "2", "addr:street": "Klikowska", "amenity": "pharmacy", "name": "Zielona", "phone": "+48146361800", "source": "http://ump.waw.pl/ retrieved 11:18:52 11/17/09 (UMP-Tarnow/src/POI-szpitale.pnt-converted.txt)"}}, {"type": "node", "id": 584467717, "lat": 50.01712, "lon": 20.97762, "tags": {"addr:city": "Tarn\u00f3w", "addr:housenumber": "2", "addr:street": "Parkowa", "amenity": "pharmacy", "healthcare": "pharmacy", "name": "Stokrotka", "phone": "+48146214940", "source": "http://ump.waw.pl/ retrieved 11:18:52 11/17/09 (UMP-Tarnow/src/POI-szpitale.pnt-converted.txt)"}}, {"type": "node", "id": 584468440, "lat": 50.02407, "lon": 20.97495, "tags": {"addr:city": "Tarn\u00f3w", "addr:housenumber": "57", "addr:street": "Tadeusza Romanowicza", "amenity": "pharmacy", "healthcare": "pharmacy", "phone": "+48146257084", "source": "http://ump.waw.pl/ retrieved 11:18:52 11/17/09 (UMP-Tarnow/src/POI-szpitale.pnt-converted.txt)"}}, {"type": "node", "id": 584468727, "lat": 50.01034, "lon": 20.98601, "tags": {"addr:city": "Tarn\u00f3w", "addr:housenumber": "5", "addr:street": "Genera\u0142a J\u00f3zefa Bema", "amenity": "pharmacy", "name": "M&M", "note": "apteki", "phone": "+48146273979", "source": "http://ump.waw.pl/ retrieved 11:18:52 11/17/09 (UMP-Tarnow/src/POI-szpitale.pnt-converted.txt)"}}, {"type": "node", "id": 584468747, "lat": 50.0118141, "lon": 20.9846217, "tags": {"addr:city": "Tarn\u00f3w", "addr:housenumber": "1", "addr:street": "Krakowska", "amenity": "pharmacy", "healthcare": "pharmacy", "phone": "+48146223736", "source": "http://ump.waw.pl/ retrieved 11:18:52 11/17/09 (UMP-Tarnow/src/POI-szpitale.pnt-converted.txt)"}}, {"type": "node", "id": 584468897, "lat": 50.01003, "lon": 20.98816, "tags": {"addr:city": "Tarn\u00f3w", "addr:housenumber": "2", "addr:street": "Naj\u015bwi\u0119tszej Marii Panny", "amenity": "pharmacy", "name": "Aronia", "phone": "+48146210333", "source": "http://ump.waw.pl/ retrieved 11:18:52 11/17/09 (UMP-Tarnow/src/POI-szpitale.pnt-converted.txt)"}}, {"type": "node", "id": 584468916, "lat": 50.0113426, "lon": 20.9868705, "tags": {"addr:city": "Tarn\u00f3w", "addr:housenumber": "7", "addr:postcode": "33-100", "addr:street": "Targowa", "amenity": "pharmacy", "healthcare": "pharmacy", "name": "Apteka S\u0142oneczna", "phone": "+48146221146", "source": "http://ump.waw.pl/ retrieved 11:18:52 11/17/09 (UMP-Tarnow/src/POI-szpitale.pnt-converted.txt)"}}, {"type": "node", "id": 584468932, "lat": 50.01196, "lon": 20.98674, "tags": {"addr:city": "Tarn\u00f3w", "addr:housenumber": "3", "addr:street": "Plac Kazimierza Wielkiego", "amenity": "pharmacy", "healthcare": "pharmacy", "name": "Antyczna", "phone": "+48146211819", "source": "http://ump.waw.pl/ retrieved 11:18:52 11/17/09 (UMP-Tarnow/src/POI-szpitale.pnt-converted.txt)"}}, {"type": "node", "id": 584469001, "lat": 50.01144, "lon": 20.98844, "tags": {"addr:city": "Tarn\u00f3w", "addr:housenumber": "4", "addr:street": "Bernardy\u0144ska", "amenity": "pharmacy", "name": "Leliwa", "phone": "+48146212987", "source": "http://ump.waw.pl/ retrieved 11:18:52 11/17/09 (UMP-Tarnow/src/POI-szpitale.pnt-converted.txt)"}}, {"type": "node", "id": 584469165, "lat": 50.01382, "lon": 20.98758, "tags": {"addr:city": "Tarn\u00f3w", "addr:housenumber": "23", "addr:street": "Wa\u0142owa", "amenity": "pharmacy", "healthcare": "pharmacy", "name": "Aroma", "phone": "+48146260668", "source": "http://ump.waw.pl/ retrieved 11:18:52 11/17/09 (UMP-Tarnow/src/POI-szpitale.pnt-converted.txt)"}}, {"type": "node", "id": 584469190, "lat": 50.0130131, "lon": 20.9891941, "tags": {"addr:city": "Tarn\u00f3w", "amenity": "pharmacy", "name": "Apteka", "phone": "+48146210095", "source": "http://ump.waw.pl/ retrieved 11:18:52 11/17/09 (UMP-Tarnow/src/POI-szpitale.pnt-converted.txt)"}}, {"type": "node", "id": 584469678, "lat": 50.01311, "lon": 20.99239, "tags": {"addr:city": "Tarn\u00f3w", "addr:housenumber": "14", "addr:street": "Lwowska", "amenity": "pharmacy", "healthcare": "pharmacy", "phone": "+48146223444", "source": "http://ump.waw.pl/ retrieved 11:18:52 11/17/09 (UMP-Tarnow/src/POI-szpitale.pnt-converted.txt)"}}, {"type": "node", "id": 584469713, "lat": 50.013507, "lon": 20.994635, "tags": {"addr:city": "Tarn\u00f3w", "addr:housenumber": "22", "addr:street": "Lwowska", "amenity": "pharmacy", "name": "Apteka 24h", "phone": "+48146222866", "source": "http://ump.waw.pl/ retrieved 11:18:52 11/17/09 (UMP-Tarnow/src/POI-szpitale.pnt-converted.txt)"}}, {"type": "node", "id": 584470317, "lat": 50.0165059, "lon": 20.9937465, "tags": {"addr:city": "Tarn\u00f3w", "addr:housenumber": "26", "addr:street": "Szpitalna", "amenity": "pharmacy", "name": "Pomara\u0144czowa", "phone": "+48146224688", "source": "http://ump.waw.pl/ retrieved 11:18:52 11/17/09 (UMP-Tarnow/src/POI-szpitale.pnt-converted.txt)"}}, {"type": "node", "id": 584470760, "lat": 50.01272, "lon": 20.99858, "tags": {"addr:city": "Tarn\u00f3w", "addr:housenumber": "4A", "addr:street": "Mostowa", "amenity": "pharmacy", "healthcare": "pharmacy", "phone": "+48146273915", "source": "http://ump.waw.pl/ retrieved 11:18:52 11/17/09 (UMP-Tarnow/src/POI-szpitale.pnt-converted.txt)"}}, {"type": "node", "id": 584470787, "lat": 50.01397, "lon": 20.99838, "tags": {"addr:city": "Tarn\u00f3w", "addr:housenumber": "34", "addr:postcode": "33-100", "addr:street": "Lwowska", "amenity": "pharmacy", "name": "Apteka \u015bw. Agnieszki", "phone": "+48146213712", "source": "http://ump.waw.pl/ retrieved 11:18:52 11/17/09 (UMP-Tarnow/src/POI-szpitale.pnt-converted.txt)"}}, {"type": "node", "id": 584470980, "lat": 50.01478, "lon": 21.00456, "tags": {"addr:housenumber": "70", "addr:street": "Lwowska", "amenity": "pharmacy", "name": "Kolagen", "phone": "+48146219314", "source": "http://ump.waw.pl/ retrieved 11:18:52 11/17/09 (UMP-Tarnow/src/POI-szpitale.pnt-converted.txt)"}}, {"type": "node", "id": 584471037, "lat": 50.0174576, "lon": 20.9972546, "tags": {"addr:city": "Tarn\u00f3w", "addr:housenumber": "25", "addr:street": "Widok", "amenity": "pharmacy", "name": "Dobra Apteka", "phone": "+48146210067", "source": "http://ump.waw.pl/ retrieved 11:18:52 11/17/09 (UMP-Tarnow/src/POI-szpitale.pnt-converted.txt)"}}, {"type": "node", "id": 584471264, "lat": 50.01666, "lon": 21.00143, "tags": {"addr:city": "Tarn\u00f3w", "addr:housenumber": "3A", "addr:place": "Osiedle Niepodleg\u0142o\u015bci", "amenity": "pharmacy", "name": "Prolek", "phone": "+48146218393", "source": "http://ump.waw.pl/ retrieved 11:18:52 11/17/09 (UMP-Tarnow/src/POI-szpitale.pnt-converted.txt)"}}, {"type": "node", "id": 584471280, "lat": 50.01737, "lon": 21.00156, "tags": {"addr:city": "Tarn\u00f3w", "addr:housenumber": "37A", "addr:street": "S\u0142oneczna", "amenity": "pharmacy", "healthcare": "pharmacy", "name": "Prima", "phone": "+48146262614", "source": "http://ump.waw.pl/ retrieved 11:18:52 11/17/09 (UMP-Tarnow/src/POI-szpitale.pnt-converted.txt)"}}, {"type": "node", "id": 584471327, "lat": 50.01726, "lon": 21.00285, "tags": {"addr:city": "Tarn\u00f3w", "addr:housenumber": "6", "addr:place": "Osiedle Niepodleg\u0142o\u015bci", "addr:postcode": "33-100", "addr:street": "Bitwy o Wa\u0142 Pomorski", "amenity": "pharmacy", "name": "S\u0142oneczna", "opening_hours": "Mo-Fr 07:00-21:00; Sa 08:00-15:00", "phone": "+48146224938", "source": "http://ump.waw.pl/ retrieved 11:18:52 11/17/09 (UMP-Tarnow/src/POI-szpitale.pnt-converted.txt)"}}, {"type": "node", "id": 584471437, "lat": 50.0179158, "lon": 21.0057644, "tags": {"addr:city": "Tarn\u00f3w", "addr:housenumber": "56E", "addr:street": "S\u0142oneczna", "amenity": "pharmacy", "healthcare": "pharmacy", "name": "Medyczna", "source": "http://ump.waw.pl/ retrieved 11:18:52 11/17/09 (UMP-Tarnow/src/POI-szpitale.pnt-converted.txt)"}}, {"type": "node", "id": 584471457, "lat": 50.0180416, "lon": 21.0016085, "tags": {"addr:city": "Tarn\u00f3w", "addr:housenumber": "32", "addr:street": "S\u0142oneczna", "amenity": "pharmacy", "dispensing": "yes", "healthcare": "pharmacy", "name": "Dobra Apteka", "phone": "+48146272016", "source": "http://ump.waw.pl/ retrieved 11:18:52 11/17/09 (UMP-Tarnow/src/POI-szpitale.pnt-converted.txt)"}}, {"type": "node", "id": 584475470, "lat": 50.03616, "lon": 21.0055, "tags": {"addr:city": "Tarn\u00f3w", "addr:housenumber": "2", "addr:postcode": "33-100", "addr:street": "B\u0142onie", "amenity": "pharmacy", "healthcare": "pharmacy", "opening_hours": "Mo-Sa 09:00-21:00; Su 10:00-19:00", "phone": "+48146251453", "source": "http://ump.waw.pl/ retrieved 11:18:52 11/17/09 (UMP-Tarnow/src/POI-szpitale.pnt-converted.txt)"}}, {"type": "node", "id": 584478368, "lat": 50.0129185, "lon": 21.0061726, "tags": {"addr:city": "Tarn\u00f3w", "addr:housenumber": "63", "addr:street": "Lwowska", "amenity": "pharmacy", "brand": "Dbam o Zdrowie", "brand:wikidata": "Q62563833", "healthcare": "pharmacy", "name": "Dbam o Zdrowie", "phone": "+48 14 62 151 33", "source": "http://ump.waw.pl/ retrieved 11:18:52 11/17/09 (UMP-Tarnow/src/POI-szpitale.pnt-converted.txt)"}}, {"type": "node", "id": 584478904, "lat": 50.02018, "lon": 21.0061, "tags": {"addr:city": "Tarn\u00f3w", "addr:housenumber": "71", "addr:street": "Jasna", "amenity": "pharmacy", "healthcare": "pharmacy", "name": "Jasna", "phone": "+48 14 624 05 63"}}, {"type": "node", "id": 584478938, "lat": 50.01911, "lon": 21.00949, "tags": {"addr:city": "Tarn\u00f3w", "addr:housenumber": "12B", "addr:street": "Do Prochowni", "amenity": "pharmacy", "name": "Apteka", "phone": "+48146241949", "source": "http://ump.waw.pl/ retrieved 11:18:52 11/17/09 (UMP-Tarnow/src/POI-szpitale.pnt-converted.txt)"}}, {"type": "node", "id": 584478953, "lat": 50.01985, "lon": 21.00887, "tags": {"addr:city": "Tarn\u00f3w", "addr:housenumber": "19", "addr:street": "D\u0142uga", "amenity": "pharmacy", "healthcare": "pharmacy", "name": "Euromedycyna", "phone": "+48502170029", "source": "http://ump.waw.pl/ retrieved 11:18:52 11/17/09 (UMP-Tarnow/src/POI-szpitale.pnt-converted.txt)"}}, {"type": "node", "id": 2383675624, "lat": 49.7858092, "lon": 20.9763139, "tags": {"addr:city": "Ci\u0119\u017ckowice", "addr:postcode": "33-190", "amenity": "pharmacy", "healthcare": "pharmacy", "name": "Apteka na Zdrowej", "opening_hours": "Mo-Fr 08:00-17:00", "phone": "+48 14 651 00 06"}}, {"type": "node", "id": 2404203480, "lat": 49.8694233, "lon": 21.0096286, "tags": {"amenity": "pharmacy", "dispensing": "yes"}}, {"type": "node", "id": 2425292776, "lat": 50.0139512, "lon": 20.9978604, "tags": {"addr:city": "Tarn\u00f3w", "addr:country": "PL", "addr:housenumber": "32a", "addr:street": "Lwowska", "amenity": "pharmacy", "healthcare": "pharmacy", "name": "Apteka S\u0142oneczna"}}, {"type": "node", "id": 2711075220, "lat": 50.0611552, "lon": 21.2488625}, {"type": "node", "id": 2711075221, "lat": 50.0611924, "lon": 21.2487221}, {"type": "node", "id": 2711075222, "lat": 50.0612713, "lon": 21.248937}, {"type": "node", "id": 2711075223, "lat": 50.0613084, "lon": 21.2487966}, {"type": "node", "id": 2737056839, "lat": 49.9788132, "lon": 21.2904848}, {"type": "node", "id": 2737056842, "lat": 49.9788704, "lon": 21.2904445}, {"type": "node", "id": 2868013501, "lat": 50.0199502, "lon": 20.8527971, "tags": {"amenity": "pharmacy", "dispensing": "no"}}, {"type": "node", "id": 2882359528, "lat": 50.0051942, "lon": 20.6523336, "tags": {"amenity": "pharmacy", "dispensing": "yes", "healthcare": "pharmacy", "name": "Punkt Apteczny B\u0142awatek", "ref:csioz": "1231010"}}, {"type": "node", "id": 3025773089, "lat": 49.9259154, "lon": 21.128056, "tags": {"amenity": "pharmacy", "name": "Apteka"}}, {"type": "node", "id": 3059838568, "lat": 49.8783847, "lon": 21.1371861, "tags": {"amenity": "pharmacy", "check_date": "2024-12-01", "name:signed": "no"}}, {"type": "node", "id": 3208682965, "lat": 49.7866317, "lon": 20.9730403, "tags": {"addr:city": "Ci\u0119\u017ckowice", "addr:housenumber": "33", "addr:postcode": "33-190", "addr:street": "Rynek", "amenity": "pharmacy", "name": "Apteka"}}, {"type": "node", "id": 3397820041, "lat": 50.014201, "lon": 21.1547138}, {"type": "node", "id": 3397820042, "lat": 50.0140861, "lon": 21.1547827}, {"type": "node", "id": 3397820044, "lat": 50.014195, "lon": 21.1547352}, {"type": "node", "id": 3397820045, "lat": 50.0143191, "lon": 21.1549619}, {"type": "node", "id": 3397820046, "lat": 50.0143587, "lon": 21.1548215}, {"type": "node", "id": 3397820047, "lat": 50.0141095, "lon": 21.1547}, {"type": "node", "id": 3454178930, "lat": 49.9788326, "lon": 21.2905569}, {"type": "node", "id": 3454178934, "lat": 49.9788924, "lon": 21.2905186}, {"type": "node", "id": 3662126309, "lat": 49.9788946, "lon": 20.9037933, "tags": {"addr:city": "Zg\u0142obice", "addr:housenumber": "26", "addr:postcode": "33-113", "addr:street": "Krakowska", "amenity": "pharmacy", "healthcare": "pharmacy", "name": "Apteka Pod Sow\u0105", "opening_hours": "Mo-Fr 08:30-20:00; Sa 08:00-15:00", "wheelchair": "limited"}}, {"type": "node", "id": 3833433607, "lat": 49.8189363, "lon": 21.3875043}, {"type": "node", "id": 3833433613, "lat": 49.8190047, "lon": 21.3875752}, {"type": "node", "id": 3833433616, "lat": 49.8190269, "lon": 21.387524}, {"type": "node", "id": 3833433617, "lat": 49.8190418, "lon": 21.3875395}, {"type": "node", "id": 3833433618, "lat": 49.8190446, "lon": 21.3872546}, {"type": "node", "id": 3833433621, "lat": 49.8190754, "lon": 21.3874129}, {"type": "node", "id": 3833433622, "lat": 49.8190897, "lon": 21.3873799}, {"type": "node", "id": 3833433623, "lat": 49.8190901, "lon": 21.3874281}, {"type": "node", "id": 3833433624, "lat": 49.8191043, "lon": 21.387395}, {"type": "node", "id": 3833433627, "lat": 49.8191278, "lon": 21.3873408}, {"type": "node", "id": 3912162560, "lat": 50.0291757, "lon": 21.0036685, "tags": {"addr:city": "Tarn\u00f3w", "addr:housenumber": "127", "addr:street": "Nowod\u0105browska", "amenity": "pharmacy", "level": "1", "name": "Twoje Leki", "opening_hours": "Mo-Sa 09:00-21:00; Su 09:00-20:00", "operator": "Medico-Invest Sp. z o.o."}}, {"type": "node", "id": 3995703863, "lat": 49.9732508, "lon": 21.1149013, "tags": {"addr:city": "Szynwa\u0142d", "addr:postcode": "33-158", "amenity": "pharmacy", "name": "Apteka"}}, {"type": "node", "id": 4089726745, "lat": 49.7570783, "lon": 21.2224286, "tags": {"amenity": "pharmacy"}}, {"type": "node", "id": 4233473426, "lat": 49.683735, "lon": 20.8415819, "tags": {"addr:city": "Korzenna", "addr:housenumber": "425", "addr:postcode": "33-322", "amenity": "pharmacy", "name": "Apteka Bena-Cor", "ref:csioz": "1080224"}}, {"type": "node", "id": 4315165548, "lat": 49.8362131, "lon": 20.9607377, "tags": {"amenity": "pharmacy", "name": "Punkt apteczny"}}, {"type": "node", "id": 4315175728, "lat": 49.83981, "lon": 20.9544005, "tags": {"addr:city": "Gromnik", "addr:housenumber": "2", "addr:postcode": "33-180", "addr:street": "Kr\u00f3lowej Jadwigi", "amenity": "pharmacy", "healthcare": "pharmacy"}}, {"type": "node", "id": 4529938472, "lat": 49.9516403, "lon": 20.9303187, "tags": {"amenity": "pharmacy"}}, {"type": "node", "id": 4749862539, "lat": 50.0099688, "lon": 20.9774763, "tags": {"addr:city": "Tarn\u00f3w", "addr:housenumber": "1", "addr:street": "Genera\u0142a W\u0142adys\u0142awa Sikorskiego", "amenity": "pharmacy", "healthcare": "pharmacy", "name": "Cefarm"}}, {"type": "node", "id": 4749862567, "lat": 50.0121359, "lon": 20.9855735, "tags": {"addr:city": "Tarn\u00f3w", "addr:housenumber": "2", "addr:postcode": "33-100", "addr:street": "Wa\u0142owa", "amenity": "pharmacy", "brand": "Ziko Apteka", "brand:wikidata": "Q63432892", "description": "Ziko Apteka zlokalizowana jest w Tarnowie przy ul. Wa\u0142owej 2. Czynna jest przez 6 dni w tygodniu \u2013 od poniedzia\u0142ku do soboty. W niedziele plac\u00f3wka jest nieczynna.", "dispensing": "yes", "healthcare": "pharmacy", "name": "Ziko Apteka", "opening_hours": "Mo-Fr 07:00-19:00; Sa 08:00-15:00", "payment:cash": "yes", "payment:coins": "yes", "payment:mastercard": "yes", "payment:visa": "yes", "phone": "+48 12 687 57 47", "short_name": "Ziko", "website": "https://www.ziko.pl/tarnow-apteki-drogerie-ziko/walowa-2/"}}, {"type": "node", "id": 4811674776, "lat": 49.8092276, "lon": 21.1390818}, {"type": "node", "id": 4811674779, "lat": 49.8092518, "lon": 21.1392071}, {"type": "node", "id": 5190753202, "lat": 49.8625414, "lon": 21.0201533, "tags": {"amenity": "pharmacy", "healthcare": "pharmacy", "name": "256A"}}, {"type": "node", "id": 5381538222, "lat": 49.8563019, "lon": 20.8130237, "tags": {"amenity": "pharmacy", "name": "Apteka przy Rondzie"}}, {"type": "node", "id": 5806335394, "lat": 49.9251637, "lon": 20.9446954, "tags": {"addr:housenumber": "537", "addr:place": "Ple\u015bna", "addr:postcode": "33-171", "amenity": "pharmacy", "dispensing": "yes", "healthcare": "pharmacy", "name": "Apteka Lafarma", "opening_hours": "Mo-Fr 07:30-18:00, Sn 8:00-13:00", "payment:cash": "yes", "payment:credit_cards": "yes", "payment:debit_cards": "yes"}}, {"type": "node", "id": 5961213021, "lat": 49.8945399, "lon": 21.0561414, "tags": {"amenity": "pharmacy", "dispensing": "yes", "healthcare": "pharmacy", "name": "Apteka Maria Piech"}}, {"type": "node", "id": 6178209853, "lat": 49.889469, "lon": 21.0532686, "tags": {"addr:housenumber": "48", "addr:street": "Adama Mickiewicza", "amenity": "pharmacy", "dispensing": "yes", "drive_through": "yes", "healthcare": "pharmacy", "name": "Prolek"}}, {"type": "node", "id": 6398176663, "lat": 50.0174658, "lon": 21.0064557, "tags": {"addr:city": "Tarn\u00f3w", "addr:housenumber": "18", "addr:postcode": "33-100", "addr:street": "Le\u015bna", "amenity": "pharmacy", "brand": "Ziko Apteka", "brand:wikidata": "Q63432892", "description": "Ziko Apteka zlokalizowana jest w Tarnowie przy ul. Le\u015bnej 18. Czynna jest przez 6 dni w tygodniu \u2013 od poniedzia\u0142ku do soboty. W niedziele plac\u00f3wka jest nieczynna.", "dispensing": "yes", "healthcare": "pharmacy", "name": "Ziko Apteka", "opening_hours": "Mo-Fr 08:00-20:00; Sa 08:00-16:00", "payment:cash": "yes", "payment:coins": "yes", "payment:mastercard": "yes", "payment:visa": "yes", "phone": "+48 12 687 57 47", "short_name": "Ziko", "website": "https://www.ziko.pl/tarnow-apteki-drogerie-ziko/lesna-18/"}}, {"type": "node", "id": 6398190787, "lat": 50.0163744, "lon": 20.9781813, "tags": {"addr:city": "Tarn\u00f3w", "addr:housenumber": "26", "addr:postcode": "33-100", "addr:street": "Polskiego Czerwonego Krzy\u017ca", "amenity": "pharmacy", "brand": "Ziko Apteka", "brand:wikidata": "Q63432892", "description": "Ziko Apteka zlokalizowana jest w Tarnowie przy ul. PCK 26. Czynna jest przez 6 dni w tygodniu \u2013 od poniedzia\u0142ku do soboty. W niedziele plac\u00f3wka jest nieczynna.", "dispensing": "yes", "healthcare": "pharmacy", "name": "Ziko Apteka", "opening_hours": "Mo-Fr 07:00-20:00; Sa 07:00-15:00", "payment:cash": "yes", "payment:coins": "yes", "payment:mastercard": "yes", "payment:visa": "yes", "phone": "+48 12 687 57 47", "short_name": "Ziko", "website": "https://www.ziko.pl/tarnow-apteki-drogerie-ziko/pck-26/"}}, {"type": "node", "id": 6490110787, "lat": 49.9072065, "lon": 21.2250769, "tags": {"amenity": "pharmacy", "dispensing": "yes", "healthcare": "pharmacy"}}, {"type": "node", "id": 6789264289, "lat": 49.8562551, "lon": 20.8092804, "tags": {"amenity": "pharmacy"}}, {"type": "node", "id": 7030427889, "lat": 49.8771547, "lon": 21.3053159, "tags": {"amenity": "pharmacy", "level": "0", "name": "DOZ"}}, {"type": "node", "id": 7252719429, "lat": 49.8034559, "lon": 21.4320759, "tags": {"amenity": "pharmacy"}}, {"type": "node", "id": 7252719430, "lat": 49.8067445, "lon": 21.4341278, "tags": {"amenity": "pharmacy", "name": "Dom z podcieniami;Vita", "opening_hours": "Mo-Fr 08:00-18:00; Sa 08:00-13:00", "tourism": "attraction"}}, {"type": "node", "id": 7252719432, "lat": 49.8074548, "lon": 21.4336543, "tags": {"amenity": "pharmacy", "name": "Rynek"}}, {"type": "node", "id": 7254681177, "lat": 49.8774476, "lon": 21.3046315, "tags": {"amenity": "pharmacy", "level": "0", "name": "Arnika", "opening_hours": "Mo-Fr 08:00-17:00; Sa 08:00-12:00; PH off"}}, {"type": "node", "id": 7254934486, "lat": 50.0062798, "lon": 20.9747899, "tags": {"addr:city": "Tarn\u00f3w", "addr:housenumber": "4", "addr:postcode": "33-100", "addr:street": "Dworcowa", "amenity": "pharmacy", "healthcare": "pharmacy", "name": "Dobra apteka", "opening_hours": "24/7"}}, {"type": "node", "id": 8219785070, "lat": 49.8249706, "lon": 21.1686478, "tags": {"addr:housenumber": "7", "addr:place": "\u017burowa", "addr:postcode": "38-247", "amenity": "pharmacy", "contact:email": "herbamed.zurowa@wp.pl", "contact:phone": "+48 14 65 28 492", "name": "Herbamed", "opening_hours": "Mo-Fr 08:00-18:00; Sa-Su off; PH off"}}, {"type": "node", "id": 8561843771, "lat": 50.0175396, "lon": 20.9995397, "tags": {"addr:city": "Tarn\u00f3w", "addr:housenumber": "34", "addr:postcode": "33-100", "addr:street": "Ochronek", "amenity": "pharmacy", "dispensing": "yes", "healthcare": "pharmacy", "name": "Apteka Gemini"}}, {"type": "node", "id": 8690978458, "lat": 50.0612575, "lon": 21.2489282, "tags": {"entrance": "yes", "wheelchair": "yes"}}, {"type": "node", "id": 8789596978, "lat": 49.7846431, "lon": 20.9734915, "tags": {"amenity": "pharmacy", "healthcare": "pharmacy", "name": "Millenium"}}, {"type": "node", "id": 8789818693, "lat": 49.7846788, "lon": 20.8982869, "tags": {"amenity": "pharmacy", "healthcare": "pharmacy"}}, {"type": "node", "id": 8789994536, "lat": 49.8549657, "lon": 20.8092148, "tags": {"amenity": "pharmacy", "healthcare": "pharmacy", "name": "Zdrowe Ceny"}}, {"type": "node", "id": 8789994538, "lat": 49.8560351, "lon": 20.8092948, "tags": {"amenity": "pharmacy", "healthcare": "pharmacy", "name": "Zdrowe Ceny"}}, {"type": "node", "id": 9232916993, "lat": 50.0141625, "lon": 21.154713}, {"type": "node", "id": 9232916994, "lat": 50.014157, "lon": 21.1547325}, {"type": "node", "id": 9232916995, "lat": 50.0141646, "lon": 21.1548364}, {"type": "node", "id": 9232916996, "lat": 50.0141599, "lon": 21.154853}, {"type": "node", "id": 9513122322, "lat": 49.8003288, "lon": 21.0479513, "tags": {"addr:housenumber": "169", "addr:place": "Rzepiennik Strzy\u017cewski", "addr:postcode": "33-163", "amenity": "pharmacy", "name": "Apteka", "source:addr": "Yanosik"}}, {"type": "node", "id": 9520615780, "lat": 50.0627364, "lon": 21.246845, "tags": {"amenity": "pharmacy", "dispensing": "yes", "healthcare": "pharmacy", "name": "Apteka \"S\u0142oneczna\"", "opening_hours": "Mo-Fr 08:00-18:00; Sa 08:00-12:00"}}, {"type": "node", "id": 9796339870, "lat": 49.7074776, "lon": 20.9416446, "tags": {"amenity": "pharmacy", "dispensing": "yes", "healthcare": "pharmacy", "opening_hours": "Mo-Fr 07:00-19:00; Sa 07:00-13:00", "ref:csioz": "1081323"}}, {"type": "node", "id": 9796339872, "lat": 49.7062728, "lon": 20.9394126, "tags": {"amenity": "pharmacy", "dispensing": "yes", "healthcare": "pharmacy", "opening_hours": "Mo-Fr 07:00-19:00; Sa 07:00-14:00", "ref:csioz": "1081346"}}, {"type": "node", "id": 9887052895, "lat": 50.0826808, "lon": 21.0258917, "tags": {"addr:city": "Lisia G\u00f3ra", "addr:housenumber": "2", "addr:postcode": "33-140", "addr:street": "Henryka Sucharskiego", "amenity": "pharmacy", "dispensing": "yes", "healthcare": "pharmacy", "name": "Apteka Centrum"}}, {"type": "node", "id": 10189186361, "lat": 49.8090719, "lon": 21.1391536}, {"type": "node", "id": 10189186362, "lat": 49.8090961, "lon": 21.139279}, {"type": "node", "id": 10242047725, "lat": 49.934818, "lon": 20.6786082, "tags": {"amenity": "pharmacy", "dispensing": "yes", "healthcare": "pharmacy", "name": "Punkt Apteczny Bliski", "ref:csioz": "1190720"}}, {"type": "node", "id": 10242127235, "lat": 49.9675601, "lon": 20.7149953, "tags": {"amenity": "pharmacy", "dispensing": "yes", "healthcare": "pharmacy", "ref:csioz": "1217019"}}, {"type": "node", "id": 10242127242, "lat": 49.9344713, "lon": 20.7361255, "tags": {"amenity": "pharmacy", "dispensing": "yes", "healthcare": "pharmacy", "name": "Malwa", "ref:csioz": "1078450"}}, {"type": "node", "id": 10242127253, "lat": 49.9658385, "lon": 20.6988053, "tags": {"amenity": "pharmacy", "dispensing": "yes", "healthcare": "pharmacy", "name": "Bliska", "ref:csioz": "1192248"}}, {"type": "node", "id": 10242127262, "lat": 50.0629135, "lon": 20.7033684, "tags": {"amenity": "pharmacy", "dispensing": "yes", "healthcare": "pharmacy", "name": "Zdrowe Ceny", "ref:csioz": "1117526"}}, {"type": "node", "id": 10588892528, "lat": 49.9228522, "lon": 20.9440182, "tags": {"amenity": "pharmacy", "check_date": "2023-01-28", "healthcare": "pharmacy", "name": "Apteka Todzinna", "opening_hours": "Mo-Fr 08:00-18:00; Sa 08:00-14:00", "wheelchair": "yes"}}, {"type": "node", "id": 10646902379, "lat": 50.1489152, "lon": 21.1048642, "tags": {"amenity": "pharmacy", "dispensing": "yes", "healthcare": "pharmacy", "name": "Punkt Apteczny Witaminka", "ref:csioz": "1193592"}}, {"type": "node", "id": 10651502196, "lat": 49.7076521, "lon": 20.9419943, "tags": {"amenity": "pharmacy", "dispensing": "yes", "fixme": "Lokalizacja do weryfikacji", "healthcare": "pharmacy", "name": "Kinga", "ref:csioz": "1204828"}}, {"type": "node", "id": 10651502198, "lat": 49.7137685, "lon": 20.9535852, "tags": {"amenity": "pharmacy", "dispensing": "yes", "healthcare": "pharmacy", "name": "Z Tradycj\u0105", "ref:csioz": "1214893"}}, {"type": "node", "id": 10651502199, "lat": 49.7328686, "lon": 21.2545707, "tags": {"amenity": "pharmacy", "dispensing": "yes", "healthcare": "pharmacy", "name": "Bratek", "ref:csioz": "1081309"}}, {"type": "node", "id": 10651528109, "lat": 49.7392312, "lon": 21.2677471, "tags": {"amenity": "pharmacy", "dispensing": "yes", "healthcare": "pharmacy", "name": "Herbamed", "ref:csioz": "1081274"}}, {"type": "node", "id": 10651528110, "lat": 49.7351102, "lon": 21.263294, "tags": {"amenity": "pharmacy", "dispensing": "yes", "fixme": "Lokalizacja do weryfikacji", "healthcare": "pharmacy", "name": "Nova", "ref:csioz": "1231533"}}, {"type": "node", "id": 10651550941, "lat": 49.6824233, "lon": 21.0204619, "tags": {"amenity": "pharmacy", "dispensing": "yes", "healthcare": "pharmacy", "ref:csioz": "1081258"}}, {"type": "node", "id": 10651550944, "lat": 49.7203887, "lon": 20.9881341, "tags": {"amenity": "pharmacy", "dispensing": "yes", "healthcare": "pharmacy", "name": "Punkt Apteczny", "ref:csioz": "1081338"}}, {"type": "node", "id": 10651550947, "lat": 49.7237868, "lon": 21.1054363, "tags": {"amenity": "pharmacy", "dispensing": "yes", "healthcare": "pharmacy", "ref:csioz": "1081230"}}, {"type": "node", "id": 10651550948, "lat": 49.7107485, "lon": 21.0512217, "tags": {"amenity": "pharmacy", "dispensing": "yes", "healthcare": "pharmacy", "ref:csioz": "1081249"}}, {"type": "node", "id": 10653096197, "lat": 50.0146099, "lon": 20.9763499, "tags": {"amenity": "pharmacy", "healthcare": "pharmacy", "name": "Dobra Apteka"}}, {"type": "node", "id": 10665854068, "lat": 50.0166374, "lon": 20.977881, "tags": {"amenity": "pharmacy", "brand": "Ziko Apteka", "brand:wikidata": "Q63432892", "healthcare": "pharmacy", "name": "Ziko Apteka", "short_name": "Ziko"}}, {"type": "node", "id": 10690843064, "lat": 50.0166257, "lon": 20.9582346, "tags": {"addr:city": "Tarn\u00f3w", "addr:postcode": "33-100", "addr:street": "Hodowlana", "amenity": "pharmacy", "dispensing": "yes", "drive_through": "no", "healthcare": "pharmacy", "name": "Kalina", "opening_hours": "Mo-Fr 08:00-18:30, Sa 7:30-15:00"}}, {"type": "node", "id": 10814543206, "lat": 49.8096309, "lon": 21.1420502, "tags": {"amenity": "pharmacy", "name": "Punkt apteczny Witaminka", "opening_hours": "Mo-Fr 08:00-18:00; Sa 08:00-14:00"}}, {"type": "node", "id": 11715753848, "lat": 50.013356, "lon": 21.0324659, "tags": {"amenity": "pharmacy", "healthcare": "pharmacy", "name": "S\u0142oneczna", "opening_hours": "Mo-Fr 07:00-21:00; Sa 08:00-21:00; Su 08:00-21:00; PH off", "wheelchair": "yes"}}, {"type": "node", "id": 11748401471, "lat": 49.9992809, "lon": 20.7619505, "tags": {"amenity": "pharmacy", "healthcare": "pharmacy", "name": "Punkt Apteczny - Bliski"}}, {"type": "node", "id": 12048086977, "lat": 50.0612438, "lon": 21.2489194, "tags": {"entrance": "yes"}}, {"type": "node", "id": 12750651498, "lat": 50.0177424, "lon": 21.0036817, "tags": {"addr:city": "Tarn\u00f3w", "addr:housenumber": "6", "addr:postcode": "33-100", "addr:street": "Bitwy o Wa\u0142 Pomorski", "amenity": "pharmacy", "healthcare": "pharmacy", "name": "Apteka S\u0142oneczna"}}, {"type": "node", "id": 12993108834, "lat": 50.0112556, "lon": 20.9836999, "tags": {"addr:city": "Tarn\u00f3w", "addr:housenumber": "8", "addr:postcode": "33-100", "addr:street": "Krakowska", "amenity": "pharmacy", "healthcare": "pharmacy", "name": "S\u0142oneczna"}}, {"type": "node", "id": 12993797612, "lat": 49.9990063, "lon": 20.9168273, "tags": {"amenity": "pharmacy", "healthcare": "pharmacy", "name": "Dobra", "opening_hours": "Mo-Sa 08:00-21:00; Su 10:00-18:00; PH off"}}, {"type": "node", "id": 13181213857, "lat": 50.0077916, "lon": 20.9746544, "tags": {"addr:city": "Tarn\u00f3w", "addr:housenumber": "49", "addr:street": "Krakowska", "amenity": "pharmacy", "dispensing": "yes", "name": "S\u0142oneczna", "ref:csioz": "1214636"}}, {"type": "way", "id": 265437589, "nodes": [2711075221, 2711075223, 2711075222, 8690978458, 12048086977, 2711075220, 2711075221], "tags": {"addr:city": "Czarna", "addr:housenumber": "8", "addr:postcode": "39-215", "addr:street": "Dworcowa", "amenity": "pharmacy", "building": "yes", "dispensing": "yes", "healthcare": "pharmacy", "name": "Apteka Witaminka I", "opening_hours": "Mo-Fr 08:00-18:00; Sa 08:00-13:00"}}, {"type": "way", "id": 332633012, "nodes": [3397820046, 3397820041, 3397820044, 9232916993, 9232916994, 3397820047, 3397820042, 9232916995, 9232916996, 3397820045, 3397820046], "tags": {"amenity": "pharmacy", "building": "yes", "dispensing": "yes", "healthcare": "pharmacy"}}, {"type": "way", "id": 338341446, "nodes": [2737056842, 2737056839, 3454178930, 3454178934, 2737056842], "tags": {"amenity": "pharmacy", "building": "yes", "name": "Adonis", "phone": "+48146721306", "source": "http://ump.waw.pl/ retrieved 11:18:52 11/17/09 (UMP-Tarnow/src/POI-szpitale.pnt-converted.txt)"}}, {"type": "way", "id": 379994387, "nodes": [3833433627, 3833433618, 3833433607, 3833433613, 3833433616, 3833433617, 3833433623, 3833433621, 3833433622, 3833433624, 3833433627], "tags": {"addr:housenumber": "397", "addr:place": "Brzyska", "addr:postcode": "38-312", "amenity": "pharmacy", "building": "yes", "dispensing": "yes", "healthcare": "pharmacy"}}, {"type": "way", "id": 488883260, "nodes": [10189186362, 10189186361, 4811674776, 4811674779, 10189186362], "tags": {"addr:city:simc": "0829431", "addr:housenumber": "549", "addr:place": "Olszyny", "addr:postcode": "33-164", "amenity": "pharmacy", "building": "yes", "building:levels": "1", "source": "www.geoportal.gov.pl", "source:addr": "rzepiennikstrzyzewski.e-mapa.net"}}]}