{"version": 0.6, "generator": "Overpass API 0.7.62.8 e802775f", "osm3s": {"timestamp_osm_base": "2025-10-06T09:01:48Z", "copyright": "The data included in this document is from www.openstreetmap.org. The data is made available under ODbL."}, "elements": [{"type": "node", "id": 347545293, "lat": 43.2139501, "lon": 27.9200087, "tags": {"amenity": "pharmacy", "brand": "\u0421\u0430\u043d\u0438\u0442\u0430", "check_date": "2025-09-16", "ele": "41.3", "healthcare": "pharmacy", "name": "\u0421\u0430\u043d\u0438\u0442\u0430", "name:en": "Sanita", "operator": "Sanita", "operator:wikidata": "Q117303338"}}, {"type": "node", "id": 494933651, "lat": 43.2119872, "lon": 27.9052777, "tags": {"amenity": "pharmacy", "healthcare": "pharmacy", "name": "\u0416\u0438\u0432\u0438\u0442\u0430"}}, {"type": "node", "id": 494997696, "lat": 43.2482416, "lon": 27.8470393, "tags": {"amenity": "pharmacy", "healthcare": "pharmacy"}}, {"type": "node", "id": 494997727, "lat": 43.2511581, "lon": 27.8490567, "tags": {"amenity": "pharmacy"}}, {"type": "node", "id": 519713625, "lat": 43.2194939, "lon": 27.889214, "tags": {"amenity": "pharmacy"}}, {"type": "node", "id": 523140321, "lat": 43.2465849, "lon": 27.8465586, "tags": {"amenity": "pharmacy"}}, {"type": "node", "id": 523228998, "lat": 43.2308648, "lon": 27.8788147, "tags": {"amenity": "pharmacy", "name": "\u0410\u043f\u0442\u0435\u043a\u0430 \u041c\u0430\u0440\u0435\u0448\u043a\u0438", "name:it": "Mareshki"}}, {"type": "node", "id": 760336500, "lat": 43.2186628, "lon": 27.916255, "tags": {"amenity": "pharmacy"}}, {"type": "node", "id": 810482875, "lat": 43.2241911, "lon": 27.9230415, "tags": {"amenity": "pharmacy", "name": "\u0414-\u0440 \u0411\u0430\u0441\u0430\u043d\u043e\u0432\u0438\u0447"}}, {"type": "node", "id": 1159995111, "lat": 43.2146994, "lon": 27.9128637, "tags": {"amenity": "pharmacy"}}, {"type": "node", "id": 1238094135, "lat": 43.2068673, "lon": 27.910534, "tags": {"addr:city": "\u0412\u0430\u0440\u043d\u0430", "addr:floor": "G", "addr:housenumber": "12", "addr:postcode": "9000", "addr:street": "\u0431\u0443\u043b. \u0412\u043b\u0430\u0434\u0438\u0441\u043b\u0430\u0432 \u0412\u0430\u0440\u043d\u0435\u043d\u0447\u0438\u043a", "amenity": "pharmacy", "check_date": "2024-08-21", "dispensing": "yes", "drive_through": "no", "healthcare": "pharmacy", "internet_access": "no", "name": "\u0421\u0430\u043d\u0438\u0442\u0430", "name:bg": "\u0421\u0430\u043d\u0438\u0442\u0430", "name:en": "Pharmacy 24/7", "opening_hours": "24/7", "operator": "\u0421\u0430\u043d\u0438\u0442\u0430", "payment:cash": "yes", "payment:credit_cards": "yes", "payment:debit_cards": "yes", "phone": "+359 52 631 034;+359 52 825 205;+359 88 860 4119", "wheelchair": "yes"}}, {"type": "node", "id": 1243235753, "lat": 43.199061, "lon": 27.912773, "tags": {"amenity": "pharmacy", "brand": "\u041c\u0430\u0440\u0435\u0448\u043a\u0438", "brand:wikidata": "Q108852051", "check_date": "2025-01-28", "healthcare": "pharmacy", "int_name": "Mareshki", "name": "\u041c\u0430\u0440\u0435\u0448\u043a\u0438", "name:bg": "\u041c\u0430\u0440\u0435\u0448\u043a\u0438"}}, {"type": "node", "id": 1243236004, "lat": 43.2180826, "lon": 27.9190101, "tags": {"amenity": "pharmacy", "name": "\u041a-\u041a\u0420\u0415\u0421", "opening_hours": "Mo-Fr 08:00-20:00; Sa,Su 09:00-19:00"}}, {"type": "node", "id": 1270802012, "lat": 43.2145229, "lon": 27.9200325, "tags": {"amenity": "pharmacy", "brand": "\u041c\u0430\u0440\u0435\u0448\u043a\u0438", "brand:wikidata": "Q108852051", "dispensing": "yes", "drive_through": "no", "healthcare": "pharmacy", "int_name": "Mareshki", "name": "\u041c\u0430\u0440\u0435\u0448\u043a\u0438", "name:bg": "\u041c\u0430\u0440\u0435\u0448\u043a\u0438"}}, {"type": "node", "id": 1494401507, "lat": 43.223003, "lon": 27.9290922, "tags": {"addr:city": "\u0412\u0430\u0440\u043d\u0430", "addr:housenumber": "8", "addr:postcode": "9000", "addr:street": "\u041c\u0438\u0440", "amenity": "pharmacy", "healthcare": "pharmacy", "name": "\u0410\u043d\u0438 \u0424\u0430\u0440\u043c\u0430", "opening_hours": "24/7", "operator": "Ani Farma", "payment:coins": "yes", "payment:contactless": "yes", "payment:credit_cards": "yes", "payment:debit_cards": "yes", "payment:notes": "yes", "website": "https://www.anipharma.bg"}}, {"type": "node", "id": 1839219155, "lat": 43.2338911, "lon": 27.8727875, "tags": {"amenity": "pharmacy", "healthcare": "pharmacy", "name": "\u0412\u0430\u043b\u0435\u043d\u0441", "wheelchair": "no"}}, {"type": "node", "id": 1973607452, "lat": 43.2071171, "lon": 27.8974679, "tags": {"amenity": "pharmacy", "dispensing": "yes"}}, {"type": "node", "id": 2286659155, "lat": 42.8767946, "lon": 27.8864059, "tags": {"amenity": "pharmacy"}}, {"type": "node", "id": 2389552500, "lat": 43.2033178, "lon": 27.9117647, "tags": {"amenity": "pharmacy", "check_date": "2025-09-24", "name": "\u0425\u0430\u0434\u0436\u043e\u043b\u044f\u043d", "opening_hours": "Mo-Fr 04:00-20:00; Sa,Su 09:00-19:00"}}, {"type": "node", "id": 2402250403, "lat": 43.2105033, "lon": 27.9030739, "tags": {"amenity": "pharmacy", "brand": "\u041c\u0430\u0440\u0435\u0448\u043a\u0438", "brand:wikidata": "Q108852051", "dispensing": "yes", "healthcare": "pharmacy", "int_name": "Mareshki", "name": "\u041c\u0430\u0440\u0435\u0448\u043a\u0438", "name:bg": "\u041c\u0430\u0440\u0435\u0448\u043a\u0438"}}, {"type": "node", "id": 2717241283, "lat": 43.2083428, "lon": 27.9190961, "tags": {"addr:floor": "G", "addr:housenumber": "70", "addr:street": "\u0431\u0443\u043b. 8-\u043c\u0438 \u041f\u0440\u0438\u043c\u043e\u0440\u0441\u043a\u0438 \u043f\u043e\u043b\u043a", "amenity": "pharmacy", "brand": "SOpharmacy", "brand:wikidata": "Q108852081", "check_date": "2024-08-29", "email": "8.prim.polk.varna@sopharmacy.bg", "healthcare": "pharmacy", "internet_access": "no", "name": "SOpharmacy", "opening_hours": "Mo-Fr 08:00-20:00; Sa-Su 09:00-19:00; PH off", "payment:cash": "yes", "payment:credit_cards": "yes", "payment:debit_cards": "yes", "phone": "+359 88 660 4108", "website": "https://sopharmacy.bg", "wheelchair": "yes"}}, {"type": "node", "id": 3016134989, "lat": 43.2172047, "lon": 27.9164735, "tags": {"amenity": "pharmacy", "dispensing": "no"}}, {"type": "node", "id": 3016134990, "lat": 43.2174476, "lon": 27.9162171, "tags": {"amenity": "pharmacy", "dispensing": "no", "healthcare": "pharmacy", "name": "\u0415\u0432\u0440\u043e\u043f\u0430"}}, {"type": "node", "id": 3103869806, "lat": 42.8756235, "lon": 27.8865272, "tags": {"amenity": "pharmacy"}}, {"type": "node", "id": 3166457156, "lat": 43.2091686, "lon": 27.9195139, "tags": {"amenity": "pharmacy", "brand": "\u0424\u0440\u0430\u043c\u0430\u0440", "brand:wikidata": "Q108852095", "healthcare": "pharmacy", "int_name": "Framar", "name": "\u0424\u0440\u0430\u043c\u0430\u0440", "name:bg": "\u0424\u0440\u0430\u043c\u0430\u0440"}}, {"type": "node", "id": 3526513401, "lat": 43.214281, "lon": 27.9162351, "tags": {"addr:housenumber": "2", "addr:street": "\u0418\u043b\u0438\u043d\u0434\u0435\u043d", "amenity": "pharmacy", "check_date": "2023-08-02", "name": "\u0421\u0432. \u041b\u0443\u043a\u0430", "toilets:wheelchair": "yes", "wheelchair": "yes"}}, {"type": "node", "id": 3946474726, "lat": 43.2180725, "lon": 27.9255396, "tags": {"amenity": "pharmacy", "check_date": "2024-10-23", "check_date:opening_hours": "2024-10-23", "name": "\u0410\u043f\u0442\u0435\u043a\u0430 \u041c\u0430\u043d\u043e\u043b\u043e\u0432\u0430", "opening_hours": "Mo-Fr 08:00-24:00, Sa,Su 09:00-24:00"}}, {"type": "node", "id": 4193660142, "lat": 43.2057378, "lon": 27.9127269, "tags": {"addr:floor": "G", "addr:housenumber": "21", "addr:street": "\u0431\u0443\u043b. \u041c\u0430\u0440\u0438\u044f \u041b\u0443\u0438\u0437\u0430", "amenity": "pharmacy", "check_date": "2024-08-30", "email": "office@k-kres.com", "internet_access": "no", "name": "\u041a-\u041a\u0420\u0415\u0421 \u0438 \u041a\u0430\u043a\u0442\u0443\u0441", "name:bg": "\u041a-\u041a\u0420\u0415\u0421", "opening_hours": "Mo-Fr 08:00-20:00; Sa-Su 09:00-19:00; PH off", "payment:cash": "yes", "payment:credit_cards": "yes", "payment:debit_cards": "yes", "website": "https://k-kres.com", "wheelchair": "yes"}}, {"type": "node", "id": 4358935296, "lat": 43.205362, "lon": 27.9074277, "tags": {"amenity": "pharmacy"}}, {"type": "node", "id": 4373697977, "lat": 42.9899646, "lon": 27.7984216, "tags": {"amenity": "pharmacy"}}, {"type": "node", "id": 4404521705, "lat": 43.2240831, "lon": 27.9141877, "tags": {"amenity": "pharmacy"}}, {"type": "node", "id": 4894405788, "lat": 43.2096373, "lon": 27.9025096, "tags": {"amenity": "pharmacy"}}, {"type": "node", "id": 5359696889, "lat": 43.2080233, "lon": 27.9230042, "tags": {"addr:housenumber": "88", "addr:street": "\u0431\u0443\u043b. \u041a\u043d\u044f\u0437 \u0411\u043e\u0440\u0438\u0441 I", "amenity": "pharmacy"}}, {"type": "node", "id": 5428899726, "lat": 43.2146738, "lon": 27.9167546, "tags": {"amenity": "pharmacy", "brand": "\u0421\u0430\u043d\u0438\u0442\u0430", "healthcare": "pharmacy", "name": "\u0421\u0430\u043d\u0438\u0442\u0430", "name:en": "Sanita", "operator": "\u0421\u043e\u0444\u0430\u0440\u043c\u0430 \u0422\u0440\u0435\u0439\u0434\u0438\u043d\u0433", "operator:wikidata": "Q117303338"}}, {"type": "node", "id": 5594326589, "lat": 43.2101376, "lon": 27.9208946, "tags": {"amenity": "pharmacy", "check_date": "2023-08-12", "internet_access": "no", "level": "0", "name": "\u041f\u044a\u0440\u0432\u0430 \u0447\u0430\u0441\u0442\u043d\u0430 \u0430\u043f\u0442\u0435\u043a\u0430", "shop": "chemist", "wheelchair": "no"}}, {"type": "node", "id": 5981918611, "lat": 43.2145741, "lon": 27.9170684, "tags": {"amenity": "pharmacy", "brand": "\u041c\u0430\u0440\u0435\u0448\u043a\u0438", "brand:wikidata": "Q108852051", "check_date": "2024-01-07", "healthcare": "pharmacy", "int_name": "Mareshki", "name": "\u041c\u0430\u0440\u0435\u0448\u043a\u0438", "name:bg": "\u041c\u0430\u0440\u0435\u0448\u043a\u0438"}}, {"type": "node", "id": 6376903238, "lat": 43.2271717, "lon": 27.9188287, "tags": {"amenity": "pharmacy", "dispensing": "yes", "healthcare": "pharmacy"}}, {"type": "node", "id": 6376903239, "lat": 43.2238068, "lon": 27.914395, "tags": {"amenity": "pharmacy", "dispensing": "yes", "healthcare": "pharmacy"}}, {"type": "node", "id": 6475207929, "lat": 43.2151504, "lon": 27.9093689, "tags": {"amenity": "pharmacy", "dispensing": "yes", "healthcare": "pharmacy", "name": "\u0410\u043f\u0442\u0435\u043a\u0430 \u0412\u0418\u0422\u0410\u041b", "name:bg": "\u0410\u043f\u0442\u0435\u043a\u0430 \u0412\u0418\u0422\u0410\u041b", "name:en": "Pharmacy VITAL"}}, {"type": "node", "id": 6598109017, "lat": 43.2247157, "lon": 27.9018844, "tags": {"amenity": "pharmacy", "brand": "Pharmacie Principale", "brand:wikidata": "Q1547749", "dispensing": "yes", "healthcare": "pharmacy", "name": "Pharmacie Principale"}}, {"type": "node", "id": 6707496931, "lat": 43.2233347, "lon": 27.9249459, "tags": {"addr:city": "\u0412\u0430\u0440\u043d\u0430", "addr:country": "BG", "addr:floor": "G", "addr:housenumber": "39", "addr:street": "\u0414\u0443\u0431\u0440\u043e\u0432\u043d\u0438\u043a", "amenity": "pharmacy", "brand": "SOpharmacy", "brand:wikidata": "Q108852081", "check_date": "2024-08-29", "dispensing": "no", "email": "dubrovnik@sopharmacy.bg", "healthcare": "pharmacy", "internet_access": "no", "name": "SOpharmacy", "opening_hours": "Mo-Fr 08:00-21:00; PH,Sa,Su 09:00-20:00", "payment:cash": "yes", "payment:credit_cards": "yes", "payment:debit_cards": "yes", "phone": "+359 98 819 5635", "website": "https://sopharmacy.bg", "wheelchair": "yes"}}, {"type": "node", "id": 6723071486, "lat": 43.2122373, "lon": 27.9169706, "tags": {"addr:housenumber": "1", "addr:street": "\u0431\u0443\u043b. \u0413\u0435\u043d\u0435\u0440\u0430\u043b \u041a\u043e\u043b\u0435\u0432", "amenity": "pharmacy", "check_date:opening_hours": "2021-10-10", "name": "\u0410\u043f\u0442\u0435\u043a\u0430 \u041c\u0430\u0442\u0440\u0438\u043a\u0430\u0440\u0438\u0430", "name:en": "Matrikaria pharmacy", "opening_hours": "Mo-Fr 08:00-20:00; Sa-Su 09:00-19:00"}}, {"type": "node", "id": 6723108785, "lat": 43.2128585, "lon": 27.9161034, "tags": {"addr:city": "\u0412\u0430\u0440\u043d\u0430", "addr:housenumber": "77\u0430", "addr:postcode": "9000", "addr:street": "\u0431\u0443\u043b. \u0426\u0430\u0440 \u041e\u0441\u0432\u043e\u0431\u043e\u0434\u0438\u0442\u0435\u043b", "amenity": "pharmacy", "name": "\u0414\u0435\u043d\u043e\u043d\u043e\u0449\u043d\u0430 \u0430\u043f\u0442\u0435\u043a\u0430 \u0412\u0430\u043b\u044f \u0414\u0435\u0447\u0435\u0432\u0430", "name:en": "Pharmacy 24/7 Valya Decheva", "opening_hours": "24/7", "operator": "\u0412\u0430\u043b\u044f \u0414\u0435\u0447\u0435\u0432\u0430", "phone": "+359 52 612 008"}}, {"type": "node", "id": 6723108885, "lat": 43.2131565, "lon": 27.9156553, "tags": {"addr:housenumber": "79", "addr:street": "\u0431\u0443\u043b. \u0426\u0430\u0440 \u041e\u0441\u0432\u043e\u0431\u043e\u0434\u0438\u0442\u0435\u043b", "amenity": "pharmacy", "check_date": "2023-08-02", "name": "\u0410\u043f\u0442\u0435\u043a\u0430 Diva", "name:en": "Pharmacy Diva", "opening_hours": "Mo-Su 08:00-22:00"}}, {"type": "node", "id": 6814682724, "lat": 43.2043338, "lon": 27.9184741, "tags": {"addr:city": "\u0412\u0430\u0440\u043d\u0430", "addr:housenumber": "16", "addr:postcode": "9000", "addr:street": "27-\u043c\u0438 \u044e\u043b\u0438", "amenity": "pharmacy", "check_date": "2023-04-15", "dispensing": "yes", "healthcare": "pharmacy", "internet_access": "no", "name": "\u0410\u043f\u0442\u0435\u043a\u0430 \u041f\u043e\u043f\u043e\u0432\u0430", "opening_hours": "Mo-Fr 08:00-20:00; Sa-Su 09:00-19:00", "owner": "\u043c\u0430\u0433.-\u0444\u0430\u0440\u043c. \u0412\u0435\u0441\u0435\u043b\u0438\u043d\u0430 \u041f\u043e\u043f\u043e\u0432\u0430", "payment:mastercard": "yes", "payment:visa": "yes", "phone": "+359 52 616 050", "website": "https://www.credoweb.bg/page/31875/apteka-popova", "wheelchair": "no"}}, {"type": "node", "id": 7169687569, "lat": 42.9901539, "lon": 27.7179775, "tags": {"amenity": "pharmacy"}}, {"type": "node", "id": 7604590246, "lat": 43.2130171, "lon": 27.9060513, "tags": {"addr:city": "\u0412\u0430\u0440\u043d\u0430", "addr:housenumber": "7", "addr:postcode": "9000", "addr:street": "\u0421\u0442\u0440\u0430\u0445\u0438\u043b \u0432\u043e\u0439\u0432\u043e\u0434\u0430", "amenity": "pharmacy", "name": "\u0411\u0438\u043b\u043a\u043e\u043b\u0435\u0447\u0435\u043d\u0438\u0435, \u0415\u0422 \"\u0417\u0434\u0440\u0430\u0432\u0435\u0446-\u0411\u0438\u043b\u043a\u0430\"", "operator": "\u0418\u043b\u0438\u044f \u0414\u0438\u043c\u0438\u0442\u0440\u043e\u0432", "phone": "+359 88 551 1151"}}, {"type": "node", "id": 7733966226, "lat": 43.2064997, "lon": 27.9210299, "tags": {"amenity": "pharmacy", "brand": "\u041c\u0430\u0440\u0435\u0448\u043a\u0438", "brand:wikidata": "Q108852051", "healthcare": "pharmacy", "int_name": "Mareshki", "name": "\u041c\u0430\u0440\u0435\u0448\u043a\u0438", "name:bg": "\u041c\u0430\u0440\u0435\u0448\u043a\u0438", "opening_hours": "Mo-Fr 08:30-19:30; PH,Sa,Su 09:00-18:00"}}, {"type": "node", "id": 7741801810, "lat": 43.2138137, "lon": 27.9337572, "tags": {"amenity": "pharmacy", "name": "\u041a-\u041a\u0440\u0435\u0441"}}, {"type": "node", "id": 8098099006, "lat": 43.2140114, "lon": 27.9060688, "tags": {"addr:floor": "G", "addr:housenumber": "2", "addr:street": "\u041e\u0442\u0435\u0446 \u041f\u0430\u0438\u0441\u0438\u0439", "amenity": "pharmacy", "check_date": "2024-09-03", "internet_access": "no", "name": "\u041f\u043e\u043b\u0438", "opening_hours": "Mo-Fr 08:00-20:00; Sa-Su 09:00-19:00", "payment:cash": "yes", "payment:credit_cards": "yes", "payment:debit_cards": "yes", "phone": "+359 52 601 026", "wheelchair": "yes"}}, {"type": "node", "id": 8112698218, "lat": 43.2155428, "lon": 27.9021, "tags": {"amenity": "pharmacy", "check_date:opening_hours": "2022-10-14", "dispensing": "yes", "healthcare": "pharmacy", "name": "Panatseia", "opening_hours": "08:00-22:00", "phone": "+359 88 211 7141", "survey:date": "2020-11-08", "wheelchair": "yes"}}, {"type": "node", "id": 8503947152, "lat": 43.2129448, "lon": 27.9240892, "tags": {"amenity": "pharmacy", "brand": "\u041c\u0430\u0440\u0435\u0448\u043a\u0438", "brand:wikidata": "Q108852051", "healthcare": "pharmacy", "int_name": "Mareshki", "name": "\u041c\u0430\u0440\u0435\u0448\u043a\u0438", "name:bg": "\u041c\u0430\u0440\u0435\u0448\u043a\u0438", "opening_hours": "Mo-Fr 08:00-20:00; Sa,Su 09:00-19:00"}}, {"type": "node", "id": 8671003379, "lat": 43.206083, "lon": 27.9108176, "tags": {"addr:city": "\u0412\u0430\u0440\u043d\u0430", "addr:country": "BG", "addr:floor": "G", "addr:housenumber": "8-10", "addr:postcode": "9000", "addr:street": "\u0431\u0443\u043b. \u0412\u043b\u0430\u0434\u0438\u0441\u043b\u0430\u0432 \u0412\u0430\u0440\u043d\u0435\u043d\u0447\u0438\u043a", "amenity": "pharmacy", "brand": "SOpharmacy", "brand:wikidata": "Q108852081", "check_date": "2024-08-29", "contact:website": "https://sopharmacy.bg/bg/", "email": "korabostroitel@sopharmacy.bg", "healthcare": "pharmacy", "internet_access": "no", "name": "SOpharmacy", "opening_hours": "Mo-Fr 08:00-21:00; Sa-Su 09:00-20:00; PH off", "payment:cash": "yes", "payment:credit_cards": "yes", "payment:debit_cards": "yes", "phone": "+359 98 819 5683", "wheelchair": "yes"}}, {"type": "node", "id": 8688664297, "lat": 43.2071487, "lon": 27.9218588, "tags": {"amenity": "pharmacy", "check_date": "2023-07-09", "name": "\u0413\u0430\u043b\u0430\u043d\u0442\u0443\u0441", "opening_hours": "Mo-Fr 08:00-20:00; PH,Sa,Su 09:00-20:00"}}, {"type": "node", "id": 8717057739, "lat": 43.2091702, "lon": 27.9139428, "tags": {"amenity": "pharmacy"}}, {"type": "node", "id": 8814981265, "lat": 43.2096101, "lon": 27.9089226, "tags": {"amenity": "pharmacy", "dispensing": "yes", "healthcare": "pharmacy", "name": "\u041f\u043e\u043b\u0438 \u0412\u0430\u043b\u0435\u043d\u0441"}}, {"type": "node", "id": 8818234154, "lat": 43.2098044, "lon": 27.9120985, "tags": {"addr:floor": "G", "addr:housenumber": "29", "addr:street": "\u0410\u043b\u0435\u043a\u0441\u0430\u043d\u0434\u044a\u0440 \u0420\u0430\u0447\u0438\u043d\u0441\u043a\u0438", "amenity": "pharmacy", "brand": "\u0424\u0440\u0430\u043c\u0430\u0440", "brand:wikidata": "Q108852095", "check_date": "2024-08-22", "dispensing": "yes", "email": "framar36@framar.bg", "healthcare": "pharmacy", "int_name": "Framar", "internet_access": "no", "name": "\u0424\u0440\u0430\u043c\u0430\u0440", "name:bg": "\u0424\u0440\u0430\u043c\u0430\u0440", "opening_hours": "Mo-Fr 08:00-20:00; Sa-Su 09:00-19:00", "payment:cash": "yes", "payment:credit_cards": "yes", "payment:debit_cards": "yes", "phone": "+359 89 449 4402", "ref": "36", "wheelchair": "yes"}}, {"type": "node", "id": 8818234191, "lat": 43.2122716, "lon": 27.9056361, "tags": {"amenity": "pharmacy", "dispensing": "yes", "healthcare": "pharmacy", "name": "\u041a\u0440\u0435\u0441"}}, {"type": "node", "id": 9393193018, "lat": 43.2285255, "lon": 27.8845195, "tags": {"amenity": "pharmacy", "dispensing": "yes", "healthcare": "pharmacy", "name": "\u041c\u0430\u0442\u0440\u0438\u043a\u0430\u0440\u0438\u044f", "name:en": "Matrikaria Pharmacy"}}, {"type": "node", "id": 9424609558, "lat": 43.1920974, "lon": 27.7082602, "tags": {"amenity": "pharmacy", "healthcare": "pharmacy", "level": "0", "name": "\u0411\u0435\u043b \u041a\u043e\u043c \u0424\u0430\u0440\u043c\u0430"}}, {"type": "node", "id": 9540152193, "lat": 43.2326302, "lon": 27.8734518, "tags": {"amenity": "pharmacy", "dispensing": "yes", "healthcare": "pharmacy"}}, {"type": "node", "id": 9652922189, "lat": 43.2153451, "lon": 27.9134092, "tags": {"amenity": "pharmacy", "dispensing": "yes", "healthcare": "pharmacy"}}, {"type": "node", "id": 9689924307, "lat": 43.1793335, "lon": 27.444013, "tags": {"amenity": "pharmacy", "dispensing": "yes", "healthcare": "pharmacy", "name": "\u0410\u043f\u0442\u0435\u043a\u0430 \u0419\u043e\u0440\u0434\u0430\u043d\u043e\u0432\u0430"}}, {"type": "node", "id": 9724588896, "lat": 43.1802975, "lon": 27.4443482, "tags": {"amenity": "pharmacy", "dispensing": "yes", "healthcare": "pharmacy", "name": "\u0420\u0430\u0432\u0438\u0430"}}, {"type": "node", "id": 10086106859, "lat": 43.2142118, "lon": 27.9013438, "tags": {"addr:floor": "G", "addr:housenumber": "28", "addr:street": "\u042e\u0440\u0438\u0439 \u0412\u0435\u043d\u0435\u043b\u0438\u043d", "amenity": "pharmacy", "brand": "\u0424\u0440\u0430\u043c\u0430\u0440", "brand:wikidata": "Q108852095", "check_date": "2024-08-22", "dispensing": "yes", "email": "framar37@framar.bg", "healthcare": "pharmacy", "int_name": "Framar", "internet_access": "no", "name": "\u0424\u0440\u0430\u043c\u0430\u0440", "name:bg": "\u0424\u0440\u0430\u043c\u0430\u0440", "opening_hours": "Mo-Fr 08:00-20:00; Sa-Su 09:00-19:00", "payment:cash": "yes", "payment:credit_cards": "yes", "payment:debit_cards": "yes", "phone": "+359 89 557 1042", "ref": "37", "wheelchair": "yes"}}, {"type": "node", "id": 10651632405, "lat": 43.2211719, "lon": 27.9180348, "tags": {"addr:housenumber": "2", "addr:postcode": "9010", "addr:street": "\u041f\u043e\u0434\u043f\u043e\u043b\u043a\u043e\u0432\u043d\u0438\u043a \u041a\u0430\u043b\u0438\u0442\u0438\u043d", "amenity": "pharmacy", "name": "\u0421\u043e\u0444\u0430\u0440\u043c\u0430", "name:bg": "\u0424\u0440\u0430\u043c\u0430\u0440 41", "name:en": "Framar 41"}}, {"type": "node", "id": 10683569006, "lat": 43.2228282, "lon": 27.9208029, "tags": {"amenity": "pharmacy", "healthcare": "pharmacy", "name": "\u041f\u0440\u0430\u0439\u043c", "name:en": "Prime"}}, {"type": "node", "id": 10788184861, "lat": 43.21769, "lon": 27.924474, "tags": {"amenity": "pharmacy", "check_date": "2025-07-10", "name": "\u041c\u0430\u0442\u0440\u0438\u043a\u0430\u0440\u0438\u0430"}}, {"type": "node", "id": 10814014461, "lat": 43.220361, "lon": 27.9304178, "tags": {"amenity": "pharmacy", "healthcare": "pharmacy", "name": "\u041a\u0430\u043a\u0442\u0443\u0441", "opening_hours": "Mo-Fr 08:00-20:00; Sa,Su,PH 09:00-19:00"}}, {"type": "node", "id": 10814380203, "lat": 43.2233339, "lon": 27.9295917, "tags": {"amenity": "pharmacy", "check_date": "2025-08-29", "name": "\u0421\u0430\u043d\u0442\u0435", "phone": "+359 89 992 2977"}}, {"type": "node", "id": 10845306973, "lat": 43.2239412, "lon": 27.9253464, "tags": {"amenity": "pharmacy", "name": "\u0414-\u0440 \u0411\u0430\u0441\u0430\u043d\u043e\u0432\u0438\u0447", "opening_hours": "Mo-Su,PH 08:00-20:00"}}, {"type": "node", "id": 11025877409, "lat": 43.2129458, "lon": 27.9250982, "tags": {"amenity": "pharmacy", "healthcare": "pharmacy"}}, {"type": "node", "id": 11375673087, "lat": 43.2062158, "lon": 27.9093462, "tags": {"amenity": "pharmacy", "brand": "\u041c\u0430\u0440\u0435\u0448\u043a\u0438", "brand:wikidata": "Q108852051", "healthcare": "pharmacy", "int_name": "Mareshki", "name": "\u041c\u0430\u0440\u0435\u0448\u043a\u0438", "name:bg": "\u041c\u0430\u0440\u0435\u0448\u043a\u0438"}}, {"type": "node", "id": 11497147602, "lat": 43.2144473, "lon": 27.916481, "tags": {"amenity": "pharmacy", "healthcare": "pharmacy", "name": "\u0421\u0432. \u0415\u043b\u0435\u043d\u0430"}}, {"type": "node", "id": 11497183045, "lat": 43.2146478, "lon": 27.9171503, "tags": {"amenity": "pharmacy", "healthcare": "pharmacy"}}, {"type": "node", "id": 12100562320, "lat": 43.2120907, "lon": 27.9061918, "tags": {"amenity": "pharmacy", "brand": "\u041c\u0430\u0440\u0435\u0448\u043a\u0438", "brand:wikidata": "Q108852051", "healthcare": "pharmacy", "int_name": "Mareshki", "name": "\u041c\u0430\u0440\u0435\u0448\u043a\u0438", "name:bg": "\u041c\u0430\u0440\u0435\u0448\u043a\u0438"}}, {"type": "node", "id": 12100562322, "lat": 43.2121922, "lon": 27.9060137, "tags": {"amenity": "pharmacy", "healthcare": "pharmacy", "name": "\u041a-\u041a\u0440\u0435\u0441"}}, {"type": "node", "id": 12143956689, "lat": 43.2125808, "lon": 27.9125834, "tags": {"addr:floor": "G", "addr:housenumber": "73", "addr:street": "\u0411\u0440\u0430\u0442\u044f \u041c\u0438\u043b\u0430\u0434\u0438\u043d\u043e\u0432\u0438", "amenity": "pharmacy", "check_date": "2024-08-29", "dispensing": "no", "email": "bratya.miladinovi@sopharmacy.bg", "healthcare": "pharmacy", "internet_access": "no", "name": "SOpharmacy", "opening_hours": "Mo-Fr 08:00-21:00; Sa-Su 09:00-20:00; PH off", "payment:cash": "yes", "payment:credit_cards": "yes", "payment:debit_cards": "yes", "phone": "+359 98 819 5637", "website": "https://sopharmacy.bg", "wheelchair": "no"}}, {"type": "node", "id": 12143990048, "lat": 43.2147724, "lon": 27.9173915, "tags": {"addr:floor": "1", "addr:housenumber": "100", "addr:street": "\u0431\u0443\u043b. \u0426\u0430\u0440 \u041e\u0441\u0432\u043e\u0431\u043e\u0434\u0438\u0442\u0435\u043b", "amenity": "pharmacy", "check_date": "2024-08-29", "email": "vn_dkc4@scs-fr.bg", "healthcare": "pharmacy", "internet_access": "no", "name": "SOpharmacy", "opening_hours": "Mo-Fr 08:00-19:00; Sa-Su,PH off", "payment:cash": "yes", "payment:credit_cards": "yes", "payment:debit_cards": "yes", "phone": "+359 88 450 7029", "website": "https://sopharmacy.bg", "wheelchair": "no"}}, {"type": "node", "id": 12143990049, "lat": 43.2020474, "lon": 27.9010289, "tags": {"addr:floor": "1", "addr:housenumber": "24", "addr:street": "\u0414\u0435\u0432\u043d\u044f", "amenity": "pharmacy", "check_date": "2024-08-29", "dispensing": "no", "email": "vn_kaufland5@scs-fr.bg", "healthcare": "pharmacy", "internet_access": "no", "name": "SOpharmacy", "opening_hours": "08:00-21:00", "payment:cash": "yes", "payment:credit_cards": "yes", "payment:debit_cards": "yes", "phone": "+359 88 643 4631", "website": "https://sopharmacy.bg", "wheelchair": "yes"}}, {"type": "node", "id": 12144154784, "lat": 43.2325326, "lon": 27.8610205, "tags": {"addr:floor": "G", "addr:housenumber": "2", "addr:street": "\u0431\u0443\u043b. \u0410\u0442\u0430\u043d\u0430\u0441 \u041c\u043e\u0441\u043a\u043e\u0432", "amenity": "pharmacy", "check_date": "2024-08-29", "dispensing": "no", "email": "vn_metro@scs-fr.bg", "healthcare": "pharmacy", "internet_access": "no", "name": "SOpharmacy", "opening_hours": "08:30-20:00", "payment:cash": "yes", "payment:credit_cards": "yes", "payment:debit_cards": "yes", "phone": "+359 88 643 9661", "website": "https://sopharmacy.bg", "wheelchair": "yes"}}, {"type": "node", "id": 12144156159, "lat": 43.2209076, "lon": 27.8903604, "tags": {"addr:floor": "1", "addr:housenumber": "2", "addr:street": "\u0431\u0443\u043b. \u0425\u0440\u0438\u0441\u0442\u043e \u0421\u043c\u0438\u0440\u043d\u0435\u043d\u0441\u043a\u0438", "amenity": "pharmacy", "brand": "SOpharmacy", "brand:wikidata": "Q108852081", "check_date": "2024-08-29", "dispensing": "no", "email": "vn_kaufland2@scs-fr.bg", "healthcare": "pharmacy", "internet_access": "no", "name": "SOpharmacy", "opening_hours": "08:00-21:00", "payment:cash": "yes", "payment:credit_cards": "yes", "payment:debit_cards": "yes", "phone": "+359 88 984 4245", "website": "https://sopharmacy.bg", "wheelchair": "yes"}}, {"type": "node", "id": 12144156160, "lat": 43.2272842, "lon": 27.8755442, "tags": {"addr:floor": "-2", "addr:housenumber": "185", "addr:street": "\u0431\u0443\u043b. \u0421\u043b\u0438\u0432\u043d\u0438\u0446\u0430", "amenity": "pharmacy", "check_date": "2024-08-29", "dispensing": "no", "email": "vn_slivnica185@scs-fr.bg", "healthcare": "pharmacy", "internet_access": "no", "name": "SOpharmacy", "opening_hours": "10:00-21:00", "payment:cash": "yes", "payment:credit_cards": "yes", "payment:debit_cards": "yes", "phone": "+359 88 401 8213", "website": "https://sopharmacy.bg", "wheelchair": "yes"}}, {"type": "node", "id": 12144198444, "lat": 43.2351752, "lon": 27.8808437, "tags": {"addr:floor": "G", "addr:housenumber": "60", "addr:street": "\u0431\u0443\u043b. \u0420\u0435\u043f\u0443\u0431\u043b\u0438\u043a\u0430", "amenity": "pharmacy", "brand": "SOpharmacy", "brand:wikidata": "Q108852081", "check_date": "2024-08-29", "dispensing": "no", "email": "varna_kaufland@scs-fr.bg", "healthcare": "pharmacy", "internet_access": "no", "name": "SOpharmacy", "opening_hours": "08:00-21:00", "payment:cash": "yes", "payment:credit_cards": "yes", "payment:debit_cards": "yes", "phone": "+359 88 724 5736", "website": "https://sopharmacy.bg", "wheelchair": "yes"}}, {"type": "node", "id": 12144212808, "lat": 43.2416388, "lon": 27.8501801, "tags": {"addr:floor": "G", "addr:housenumber": "77", "addr:street": "\u0431\u0443\u043b. 3-\u0442\u0438 \u043c\u0430\u0440\u0442", "amenity": "pharmacy", "check_date": "2024-08-29", "dispensing": "no", "email": "vn_kaufland3@scs-fr.bg", "healthcare": "pharmacy", "internet_access": "no", "name": "SOpharmacy", "opening_hours": "Mo-Sa 08:00-20:30; Su 09:00-20:00", "payment:cash": "yes", "payment:credit_cards": "yes", "payment:debit_cards": "yes", "phone": "+359 88 911 1358", "website": "https://sopharmacy.bg", "wheelchair": "yes"}}, {"type": "node", "id": 12282091896, "lat": 43.2033128, "lon": 27.9122126, "tags": {"amenity": "pharmacy", "healthcare": "pharmacy", "name": "\u041f\u0430\u043d\u0430\u0446\u0435\u044f"}}, {"type": "node", "id": 12307319907, "lat": 43.2174363, "lon": 27.921095, "tags": {"amenity": "pharmacy", "healthcare": "pharmacy", "name": "\u0415\u0432\u0440\u043e\u0444\u0430\u0440\u043c\u0430"}}, {"type": "node", "id": 12308868658, "lat": 43.224186, "lon": 27.9123672, "tags": {"amenity": "pharmacy", "name": "\u0412\u0430\u043b\u0435\u043d\u0441"}}, {"type": "node", "id": 12537047226, "lat": 43.2120148, "lon": 27.9173729, "tags": {"addr:city": "\u0412\u0430\u0440\u043d\u0430", "addr:housenumber": "54", "addr:postcode": "9000", "addr:street": "\u0431\u0443\u043b. \u0413\u0435\u043d\u0435\u0440\u0430\u043b \u041a\u043e\u043b\u0435\u0432", "amenity": "pharmacy", "brand": "Subra", "brand:wikidata": "Q118120555", "dispensing": "yes", "drive_through": "no", "healthcare": "pharmacy", "name": "Subra", "name:bg": "\u0421\u0443\u0431\u0440\u0430", "name:en": "Subra", "opening_hours": "Mo-Fr 08:00-20:00"}}, {"type": "node", "id": 12774699407, "lat": 43.2361001, "lon": 27.8608133, "tags": {"amenity": "pharmacy", "drive_through": "no", "healthcare": "pharmacy"}}, {"type": "node", "id": 13112455555, "lat": 43.2160662, "lon": 27.9173228, "tags": {"addr:city": "\u0412\u0430\u0440\u043d\u0430", "addr:housenumber": "11", "addr:postcode": "9002", "addr:street": "\u0421\u0435\u043b\u0438\u043e\u043b\u0443", "amenity": "pharmacy", "brand": "\u0424\u0440\u0430\u043c\u0430\u0440", "brand:wikidata": "Q108852095", "check_date": "2025-09-01", "contact:facebook": "https://www.facebook.com/framar.bg", "dispensing": "yes", "drive_through": "no", "email": "framar42@framar.bg", "healthcare": "pharmacy", "int_name": "Framar", "name": "\u0424\u0440\u0430\u043c\u0430\u0440", "name:bg": "\u0424\u0440\u0430\u043c\u0430\u0440", "opening_hours": "Mo-Fr 08:00-21:00; Sa-Su 09:00-20:00", "operator": "\u0424\u0440\u0430\u043c\u0430\u0440 \u041e\u041e\u0414", "payment:cards": "yes", "payment:cash": "yes", "phone": "+359 893376708"}}, {"type": "node", "id": 13141878393, "lat": 43.2113544, "lon": 27.9292504, "tags": {"addr:city": "\u0412\u0430\u0440\u043d\u0430", "addr:housenumber": "47", "addr:postcode": "9002", "addr:street": "\u0412\u0430\u0441\u0438\u043b \u0414\u0440\u0443\u043c\u0435\u0432", "amenity": "pharmacy", "brand": "AlexPharma", "drive_through": "no", "healthcare": "pharmacy", "opening_hours": "Mo-Su 08:00-20:00", "phone": "0877321066", "wheelchair": "no"}}]}