{"version": 0.6, "generator": "Overpass API 0.7.62.8 e802775f", "osm3s": {"timestamp_osm_base": "2025-10-06T07:37:13Z", "copyright": "The data included in this document is from www.openstreetmap.org. The data is made available under ODbL."}, "elements": [{"type": "node", "id": 1906671262, "lat": 32.119534, "lon": 20.0928565, "tags": {"amenity": "pharmacy", "healthcare": "pharmacy", "name": "\u0635\u064a\u062f\u0644\u064a\u0629 \u0627\u0644\u0634\u0639\u0628", "name:ar": "\u0635\u064a\u062f\u0644\u064a\u0629 \u0627\u0644\u0634\u0639\u0628", "name:en": "Pharmacy"}}, {"type": "node", "id": 3534461300, "lat": 32.094652, "lon": 20.1011148, "tags": {"amenity": "pharmacy", "name": "\u0635\u064a\u062f\u0644\u064a\u0629 \u0634\u0644\u0648\u0641", "name:ar": "\u0635\u064a\u062f\u0644\u064a\u0629 \u0634\u0644\u0648\u0641", "name:en": "Shalouf Pharmacy", "opening_hours": "24/7"}}, {"type": "node", "id": 3676444419, "lat": 32.1158907, "lon": 20.1313191, "tags": {"amenity": "pharmacy", "healthcare": "pharmacy", "name": "\u0635\u064a\u062f\u0644\u064a\u0629 \u0627\u0644\u0645\u0633\u062a\u0642\u0628\u0644", "name:ar": "\u0635\u064a\u062f\u0644\u064a\u0629 \u0627\u0644\u0645\u0633\u062a\u0642\u0628\u0644"}}, {"type": "node", "id": 3676464244, "lat": 32.1183321, "lon": 20.0917517, "tags": {"amenity": "pharmacy", "healthcare": "pharmacy", "name": "\u0635\u064a\u062f\u0644\u064a\u0629 \u0627\u0644\u0631\u062d\u064a\u0642", "name:ar": "\u0635\u064a\u062f\u0644\u064a\u0629 \u0627\u0644\u0631\u062d\u064a\u0642", "name:en": "Arrahiq Pharmacy"}}, {"type": "node", "id": 4112348392, "lat": 32.1322192, "lon": 20.097749, "tags": {"amenity": "pharmacy", "drive_through": "no", "healthcare": "pharmacy", "name": "\u0635\u064a\u062f\u0644\u064a\u0629 \u0627\u0644\u0631\u0628\u0627\u0637", "name:ar": "\u0635\u064a\u062f\u0644\u064a\u0629 \u0627\u0644\u0631\u0628\u0627\u0637", "name:en": "Arribat Pharmacy", "opening_hours": "Mo-Su 09:00-00:00", "phone": "0926388442"}}, {"type": "node", "id": 4291824286, "lat": 32.0901195, "lon": 20.0948789, "tags": {"addr:street": "\u0627\u0644\u0637\u0631\u064a\u0642 \u0627\u0644\u062f\u0627\u0626\u0631\u064a \u0627\u0644\u0623\u0648\u0644", "amenity": "pharmacy", "healthcare": "pharmacy", "name": "\u0635\u064a\u062f\u0644\u064a\u0629 \u064a\u0633", "name:ar": "\u0635\u064a\u062f\u0644\u064a\u0629 \u064a\u0633", "name:en": "Yes Pharmacy", "opening_hours": "Mo-Su 10:00-00:00"}}, {"type": "node", "id": 4314330390, "lat": 32.1065579, "lon": 20.1174511, "tags": {"amenity": "pharmacy", "name": "\u0635\u064a\u062f\u0644\u064a\u0629 \u0627\u0628\u0646 \u0627\u0644\u0646\u0641\u064a\u0633", "name:ar": "\u0635\u064a\u062f\u0644\u064a\u0629 \u0627\u0628\u0646 \u0627\u0644\u0646\u0641\u064a\u0633", "name:en": "Pharmacy"}}, {"type": "node", "id": 4378123891, "lat": 32.0860686, "lon": 20.1214162, "tags": {"addr:street": "\u0634\u0627\u0631\u0639 \u0627\u0644\u062e\u0644\u064a\u062c", "amenity": "pharmacy", "name": "\u0635\u064a\u062f\u0644\u064a\u0629 \u0627\u0644\u0633\u0646\u062f\u064a\u0627\u0646\u0629", "name:ar": "\u0635\u064a\u062f\u0644\u064a\u0629 \u0627\u0644\u0633\u0646\u062f\u064a\u0627\u0646\u0629", "name:en": "Assindiana Pharmacy"}}, {"type": "node", "id": 4467002190, "lat": 32.1099536, "lon": 20.1073981, "tags": {"amenity": "pharmacy", "healthcare": "pharmacy", "name": "\u0635\u064a\u062f\u0644\u064a\u0629 \u0627\u0644\u0628\u064a\u0627\u0646", "name:ar": "\u0635\u064a\u062f\u0644\u064a\u0629 \u0627\u0644\u0628\u064a\u0627\u0646", "name:en": "Pharmacy"}}, {"type": "node", "id": 4478469734, "lat": 32.0843437, "lon": 20.108506, "tags": {"amenity": "pharmacy", "name": "\u0635\u064a\u062f\u0644\u064a\u0629 \u0632\u0643\u0631\u064a\u0627", "name:ar": "\u0635\u064a\u062f\u0644\u064a\u0629 \u0632\u0643\u0631\u064a\u0627", "name:en": "Zakaria's Pharmacy"}}, {"type": "node", "id": 4599712791, "lat": 32.0927627, "lon": 20.1092361, "tags": {"addr:street": "\u0627\u0631\u0636 \u0644\u0645\u0644\u0648\u0645 \u0645\u062f\u062e\u0644 \u0627\u0644\u062d\u062f\u0627\u0626\u0642", "amenity": "pharmacy", "name": "\u0634\u0631\u0643\u0629 \u0633\u0628\u0644 \u0627\u0644\u0633\u0644\u0627\u0645 \u0644\u0644\u0623\u062f\u0648\u064a\u0629", "name:ar": "\u0634\u0631\u0643\u0629 \u0633\u0628\u0644 \u0627\u0644\u0633\u0644\u0627\u0645 \u0644\u0644\u0623\u062f\u0648\u064a\u0629", "name:en": "Soubl El Salam Drug Company", "opening_hours": "Mo-Su 10:00-20:00", "phone": "00218921232010"}}, {"type": "node", "id": 4809774929, "lat": 32.1090416, "lon": 20.1006869, "tags": {"amenity": "pharmacy", "name": "\u0635\u064a\u062f\u0644\u064a\u0629 \u0633\u0631 \u0627\u0644\u0634\u0641\u0627\u0621", "name:ar": "\u0635\u064a\u062f\u0644\u064a\u0629 \u0633\u0631 \u0627\u0644\u0634\u0641\u0627\u0621", "name:en": "Pharmacy"}}, {"type": "node", "id": 4809784023, "lat": 32.1047338, "lon": 20.1006388, "tags": {"addr:city": "\u0628\u0646\u063a\u0627\u0632\u064a", "amenity": "pharmacy", "name": "\u0635\u064a\u062f\u0644\u064a\u0629 24 \u0633\u0627\u0639\u0629", "name:ar": "\u0635\u064a\u062f\u0644\u064a\u0629 24 \u0633\u0627\u0639\u0629", "name:en": "24 h pharmacy"}}, {"type": "node", "id": 4809784024, "lat": 32.1036927, "lon": 20.1001212, "tags": {"amenity": "pharmacy", "healthcare": "pharmacy", "name": "\u0635\u064a\u062f\u0644\u064a\u0629 \u062f\u0648\u0627\u0643\u0645", "name:ar": "\u0635\u064a\u062f\u0644\u064a\u0629 \u062f\u0648\u0627\u0643\u0645", "name:en": "Pharmacy"}}, {"type": "node", "id": 4934255833, "lat": 32.0807448, "lon": 20.0814617, "tags": {"amenity": "pharmacy", "drive_through": "no", "name": "\u0635\u064a\u062f\u0644\u064a\u0629 \u0628\u0648\u0632\u0631\u064a\u0628\u0629", "name:ar": "\u0635\u064a\u062f\u0644\u064a\u0629 \u0628\u0648\u0632\u0631\u064a\u0628\u0629", "name:en": "Bo Zriba Pharmacy", "opening_hours": "08:00-23:00", "phone": "092-5307862"}}, {"type": "node", "id": 4970812921, "lat": 32.0711761, "lon": 20.1245766, "tags": {"amenity": "pharmacy", "name": "\u0635\u064a\u062f\u0644\u064a\u0647 \u0639\u0627\u0641\u064a\u062a\u064a", "name:ar": "\u0635\u064a\u062f\u0644\u064a\u0647 \u0639\u0627\u0641\u064a\u062a\u064a", "name:en": "Pharmacy"}}, {"type": "node", "id": 4970821721, "lat": 32.08585, "lon": 20.12473, "tags": {"amenity": "pharmacy", "name": "\u0635\u064a\u062f\u0644\u064a\u0629 \u0627\u0644\u0641\u064a\u0631\u0648\u0632", "name:ar": "\u0635\u064a\u062f\u0644\u064a\u0629 \u0627\u0644\u0641\u064a\u0631\u0648\u0632", "name:en": "Pharmacy"}}, {"type": "node", "id": 4970830021, "lat": 32.1221851, "lon": 20.0972633, "tags": {"amenity": "pharmacy", "healthcare": "pharmacy", "name": "\u0635\u064a\u062f\u0644\u064a\u0629 \u0627\u0644\u0637\u0628\u064a\u0628", "name:ar": "\u0635\u064a\u062f\u0644\u064a\u0629 \u0627\u0644\u0637\u0628\u064a\u0628", "name:en": "Pharmacy"}}, {"type": "node", "id": 4970834821, "lat": 32.099266, "lon": 20.1158537, "tags": {"amenity": "pharmacy", "healthcare": "pharmacy", "name": "\u0635\u064a\u062f\u0644\u064a\u0629 \u062a\u0628\u0648\u0643", "name:ar": "\u0635\u064a\u062f\u0644\u064a\u0629 \u062a\u0628\u0648\u0643", "name:en": "Pharmacy"}}, {"type": "node", "id": 5004991821, "lat": 32.0992332, "lon": 20.1321855, "tags": {"amenity": "pharmacy", "healthcare": "pharmacy"}}, {"type": "node", "id": 5023057724, "lat": 32.0864869, "lon": 20.0948559, "tags": {"amenity": "pharmacy", "healthcare": "pharmacy", "name": "\u0635\u064a\u062f\u0644\u064a\u0629 \u0628\u062f\u0631", "name:ar": "\u0635\u064a\u062f\u0644\u064a\u0629 \u0628\u062f\u0631", "name:en": "Bader Pharmacy"}}, {"type": "node", "id": 5159677021, "lat": 32.0912656, "lon": 20.1072893, "tags": {"amenity": "pharmacy", "name": "\u0635\u064a\u062f\u0644\u064a\u0629 \u0627\u0644\u062d\u062f\u0627\u0626\u0642 \u0628\u0646\u063a\u0627\u0632\u064a", "name:ar": "\u0635\u064a\u062f\u0644\u064a\u0629 \u0627\u0644\u062d\u062f\u0627\u0626\u0642 \u0628\u0646\u063a\u0627\u0632\u064a", "name:en": "Alhadaik Benghazi\u2019s Pharmacy"}}, {"type": "node", "id": 5159677022, "lat": 32.0915836, "lon": 20.093937, "tags": {"amenity": "pharmacy", "healthcare": "pharmacy", "name": "\u0635\u064a\u062f\u0644\u064a\u0629 \u0627\u0644\u062a\u0648\u0627\u0635\u0644 \u0631\u0642\u0645 \u0648\u0627\u062d\u062f", "name:ar": "\u0635\u064a\u062f\u0644\u064a\u0629 \u0627\u0644\u062a\u0648\u0627\u0635\u0644 \u0631\u0642\u0645 \u0648\u0627\u062d\u062f"}}, {"type": "node", "id": 5172942923, "lat": 32.0780157, "lon": 20.0825779, "tags": {"amenity": "pharmacy", "name": "\u0635\u064a\u062f\u0644\u064a\u0629 \u0627\u0644\u0623\u0633\u0631\u0629", "name:ar": "\u0635\u064a\u062f\u0644\u064a\u0629 \u0627\u0644\u0623\u0633\u0631\u0629", "name:en": "Al Osra Pharmacy"}}, {"type": "node", "id": 5262633021, "lat": 32.0834104, "lon": 20.0811947, "tags": {"addr:street": "\u0634\u0627\u0631\u0639 \u0627\u0644\u0642\u064a\u0631\u0648\u0627\u0646", "amenity": "pharmacy", "healthcare": "pharmacy", "name": "\u0635\u064a\u062f\u0644\u064a\u0629 \u0627\u0644\u0642\u064a\u0631\u0648\u0627\u0646", "name:ar": "\u0635\u064a\u062f\u0644\u064a\u0629 \u0627\u0644\u0642\u064a\u0631\u0648\u0627\u0646", "name:en": "Al Qayrawan Pharmacy"}}, {"type": "node", "id": 5329277323, "lat": 32.0980016, "lon": 20.1177116, "tags": {"addr:street": "\u0634\u0627\u0631\u0639 \u0627\u0644\u062d\u062c\u0627\u0632", "amenity": "pharmacy", "healthcare": "pharmacy", "name": "\u0627\u0644\u064a\u0642\u064a\u0646", "name:ar": "\u0627\u0644\u064a\u0642\u064a\u0646", "name:en": "Al yaqin", "opening_hours": "Mo-Su 09:00-21:55", "operator": "dr osama and dr ezo"}}, {"type": "node", "id": 5329277327, "lat": 32.0977684, "lon": 20.1197868, "tags": {"addr:street": "\u0634\u0627\u0631\u0639 \u0627\u0644\u062d\u062c\u0627\u0632", "amenity": "pharmacy", "healthcare": "pharmacy", "name": "\u0635\u064a\u062f\u0644\u064a\u0629 \u0627\u0644\u064a\u0642\u064a\u0646 \ud83d\udc8a", "name:ar": "\u0635\u064a\u062f\u0644\u064a\u0629 \u0627\u0644\u064a\u0642\u064a\u0646 \ud83d\udc8a", "name:en": "Al yaqin pharmacy \ud83d\udc8a", "opening_hours": "24/7", "operator": "Dr.osama and Dr.Motaze"}}, {"type": "node", "id": 5329280225, "lat": 32.1069482, "lon": 20.1005488, "tags": {"amenity": "pharmacy", "name": "\u0635\u064a\u062f\u0644\u064a\u0629 \u0623\u0633\u0627\u0645\u0629", "name:ar": "\u0635\u064a\u062f\u0644\u064a\u0629 \u0623\u0633\u0627\u0645\u0629", "name:en": "Osama pharmacy"}}, {"type": "node", "id": 5387917521, "lat": 32.0999441, "lon": 20.1204371, "tags": {"amenity": "pharmacy", "healthcare": "pharmacy", "name": "\u0645\u0631\u0643\u0632 \u062a\u0637\u0639\u064a\u0645 \u0627\u0644\u062d\u062c\u0627\u062c \u0648\u0627\u0644\u0645\u0639\u062a\u0645\u0631\u064a\u0646", "name:ar": "\u0645\u0631\u0643\u0632 \u062a\u0637\u0639\u064a\u0645 \u0627\u0644\u062d\u062c\u0627\u062c \u0648\u0627\u0644\u0645\u0639\u062a\u0645\u0631\u064a\u0646", "name:en": "Center for vaccination, Hajj"}}, {"type": "node", "id": 5395316024, "lat": 32.1131242, "lon": 20.1075519, "tags": {"amenity": "pharmacy", "name": "\u0635\u064a\u062f\u0644\u064a\u0629 \u0627\u0644\u0646\u062c\u0627\u062d", "name:ar": "\u0635\u064a\u062f\u0644\u064a\u0629 \u0627\u0644\u0646\u062c\u0627\u062d", "name:en": "Pharmacy"}}, {"type": "node", "id": 5406221522, "lat": 32.1111185, "lon": 20.1319543, "tags": {"amenity": "pharmacy", "healthcare": "pharmacy", "name": "\u0635\u064a\u062f\u0644\u064a\u0629 \u0627\u0644\u062a\u0641\u0627\u062d\u0629 \u0627\u0644\u062e\u0636\u0631\u0627\u0621", "name:ar": "\u0635\u064a\u062f\u0644\u064a\u0629 \u0627\u0644\u062a\u0641\u0627\u062d\u0629 \u0627\u0644\u062e\u0636\u0631\u0627\u0621", "name:en": "Apple Green Pharmacy"}}, {"type": "node", "id": 5422597322, "lat": 32.1081589, "lon": 20.1309817, "tags": {"amenity": "pharmacy", "healthcare": "pharmacy", "name": "\u0635\u064a\u062f\u0644\u064a\u0629 \u0633\u064a\u0631\u0627\u0646", "name:ar": "\u0635\u064a\u062f\u0644\u064a\u0629 \u0633\u064a\u0631\u0627\u0646", "name:en": "Seran Pharmacy"}}, {"type": "node", "id": 5448167521, "lat": 32.123804, "lon": 20.112534, "tags": {"amenity": "pharmacy", "healthcare": "pharmacy", "name": "\u0635\u064a\u062f\u0644\u064a\u0629 \u0627\u0644\u0645\u062f\u064a\u0646\u0629", "name:ar": "\u0635\u064a\u062f\u0644\u064a\u0629 \u0627\u0644\u0645\u062f\u064a\u0646\u0629"}}, {"type": "node", "id": 5543135421, "lat": 32.0793004, "lon": 20.0944023, "tags": {"amenity": "pharmacy", "healthcare": "pharmacy", "name": "\u0635\u064a\u062f\u0644\u064a\u0629 \u064a\u0634\u0641\u064a\u0646", "name:ar": "\u0635\u064a\u062f\u0644\u064a\u0629 \u064a\u0634\u0641\u064a\u0646", "name:en": "Yashfeen farmecy"}}, {"type": "node", "id": 5577681622, "lat": 32.0901059, "lon": 20.1299221, "tags": {"amenity": "pharmacy", "name": "\u0635\u064a\u062f\u0644\u064a\u0629 \u0627\u0644\u062d\u064a\u0627\u0629 \u0627\u0644\u0644\u064a\u062a\u064a", "name:ar": "\u0635\u064a\u062f\u0644\u064a\u0629 \u0627\u0644\u062d\u064a\u0627\u0629 \u0627\u0644\u0644\u064a\u062a\u064a", "name:en": "Pharmacy"}}, {"type": "node", "id": 5591194222, "lat": 32.0834209, "lon": 20.1057133, "tags": {"addr:suburb": "\u0627\u0644\u062d\u062f\u0627\u0626\u0642", "amenity": "pharmacy", "name": "\u0635\u064a\u062f\u0644\u064a\u0629 \u0627\u0644\u0623\u0648\u0644\u0649", "name:ar": "\u0635\u064a\u062f\u0644\u064a\u0629 \u0627\u0644\u0623\u0648\u0644\u0649", "name:en": "Al Awula Pharmacy"}}, {"type": "node", "id": 5603118921, "lat": 32.0825524, "lon": 20.1219524, "tags": {"amenity": "pharmacy", "name": "\u0627\u0644\u0635\u064a\u062f\u0644\u064a\u0629 \u0627\u0644\u0623\u0648\u0644\u0649", "name:ar": "\u0627\u0644\u0635\u064a\u062f\u0644\u064a\u0629 \u0627\u0644\u0623\u0648\u0644\u0649", "name:en": "Al Awula Pharmacy"}}, {"type": "node", "id": 5744547224, "lat": 32.1013896, "lon": 20.0895722, "tags": {"addr:street": "\u0634\u0627\u0631\u0639 \u0627\u0644\u062e\u0644\u064a\u062c \u0627\u0644\u0639\u0631\u0628\u064a", "amenity": "pharmacy", "name": "\u0635\u064a\u062f\u0644\u064a\u0629 \u0628\u0646\u063a\u0627\u0632\u064a", "name:ar": "\u0635\u064a\u062f\u0644\u064a\u0629 \u0628\u0646\u063a\u0627\u0632\u064a", "name:en": "Pharmacy", "opening_hours": "Mo-Su 09:00-18:00"}}, {"type": "node", "id": 5747865623, "lat": 32.0866536, "lon": 20.0995157, "tags": {"amenity": "pharmacy", "name": "\u0635\u064a\u062f\u0644\u064a\u0629 \u0627\u0644\u062b\u0642\u0629 \u0627\u0644\u0645\u062a\u0645\u064a\u0632\u0647 \u0628\u0646\u063a\u0627\u0632\u064a", "name:ar": "\u0635\u064a\u062f\u0644\u064a\u0629 \u0627\u0644\u062b\u0642\u0629 \u0627\u0644\u0645\u062a\u0645\u064a\u0632\u0647 \u0628\u0646\u063a\u0627\u0632\u064a", "name:en": "Pharmacy"}}, {"type": "node", "id": 5910894785, "lat": 32.0734462, "lon": 20.0915175, "tags": {"amenity": "pharmacy", "healthcare": "pharmacy", "name": "\u0635\u064a\u062f\u0644\u064a\u0629 \u0633\u062a\u0631\u064a\u0646 \u0628\u0646\u063a\u0627\u0632\u064a", "name:ar": "\u0635\u064a\u062f\u0644\u064a\u0629 \u0633\u062a\u0631\u064a\u0646 \u0628\u0646\u063a\u0627\u0632\u064a", "name:en": "Strain Benghazi Pharmacy"}}, {"type": "node", "id": 5919127285, "lat": 32.1009776, "lon": 20.0975861, "tags": {"amenity": "pharmacy", "name": "\u0635\u064a\u062f\u0644\u064a\u0629 \u0627\u0644\u0628\u0644\u0633\u0645\u064a\u0646", "name:ar": "\u0635\u064a\u062f\u0644\u064a\u0629 \u0627\u0644\u0628\u0644\u0633\u0645\u064a\u0646", "name:en": "Al-Balsamen"}}, {"type": "node", "id": 5921473186, "lat": 32.1106745, "lon": 20.0704389, "tags": {"addr:street": "\u0634\u0627\u0631\u0639 \u062c\u0645\u0627\u0644 \u0639\u0628\u062f\u0627\u0644\u0646\u0627\u0635\u0631", "amenity": "pharmacy", "healthcare": "pharmacy", "name": "\u0635\u064a\u062f\u0644\u064a\u0629 \u0623\u062d\u0641\u0627\u062f \u0628\u0648\u0632\u0631\u064a\u0628\u0629", "name:ar": "\u0635\u064a\u062f\u0644\u064a\u0629 \u0623\u062d\u0641\u0627\u062f \u0628\u0648\u0632\u0631\u064a\u0628\u0629", "name:en": "Ahfaad Buzrariba Pharmacy"}}, {"type": "node", "id": 6343799086, "lat": 32.1097151, "lon": 20.1061655, "tags": {"amenity": "pharmacy", "healthcare": "pharmacy", "name": "\u0635\u064a\u062f\u0644\u064a\u0629 \u0628\u0631\u0646\u064a\u062a\u0634\u064a", "name:ar": "\u0635\u064a\u062f\u0644\u064a\u0629 \u0628\u0631\u0646\u064a\u062a\u0634\u064a", "name:en": "Pharmacy"}}, {"type": "node", "id": 6418844086, "lat": 32.0769033, "lon": 20.085607, "tags": {"amenity": "pharmacy", "name": "\u0635\u064a\u062f\u0644\u064a\u0629 \u0627\u0641\u0631\u064a\u0642\u064a\u0627", "name:ar": "\u0635\u064a\u062f\u0644\u064a\u0629 \u0627\u0641\u0631\u064a\u0642\u064a\u0627", "name:en": "Pharmacy"}}, {"type": "node", "id": 6443506485, "lat": 32.0681478, "lon": 20.0887902, "tags": {"amenity": "pharmacy", "healthcare": "pharmacy", "name": "\u0635\u064a\u062f\u0644\u064a\u0629 \u0627\u0641\u0631\u064a\u0642\u064a\u0627 \u0627\u0644\u0631\u0633\u0645\u064a\u0629", "name:ar": "\u0635\u064a\u062f\u0644\u064a\u0629 \u0627\u0641\u0631\u064a\u0642\u064a\u0627 \u0627\u0644\u0631\u0633\u0645\u064a\u0629", "name:en": "Africa's official pharmacy"}}, {"type": "node", "id": 6493241837, "lat": 32.1319521, "lon": 20.1235574, "tags": {"addr:street": "\u0627\u0644\u0637\u0631\u064a\u0642 \u0627\u0644\u062f\u0627\u0626\u0631\u064a \u0627\u0644\u0631\u0627\u0628\u0639", "amenity": "pharmacy", "contact:facebook": "https://www.facebook.com/\u0635\u064a\u062f\u0644\u064a\u0629-\u0633\u0627\u062c\u062f\u0629-238018170031065", "healthcare": "pharmacy", "name": "\u0635\u064a\u062f\u0644\u064a\u0647 \u0633\u0627\u062c\u062f\u0647", "name:ar": "\u0635\u064a\u062f\u0644\u064a\u0647 \u0633\u0627\u062c\u062f\u0647", "name:en": "Sajidah Pharmacy"}}, {"type": "node", "id": 6515173885, "lat": 32.1045421, "lon": 20.1081671, "tags": {"amenity": "pharmacy", "healthcare": "pharmacy", "name": "\u0635\u064a\u062f\u0644\u064a\u0629 \u0646\u0648\u0631 \u0627\u0644\u0631\u062d\u0645\u0646", "name:ar": "\u0635\u064a\u062f\u0644\u064a\u0629 \u0646\u0648\u0631 \u0627\u0644\u0631\u062d\u0645\u0646", "name:en": "Pharmacy"}}, {"type": "node", "id": 6780644888, "lat": 32.1164833, "lon": 20.0848717, "tags": {"amenity": "pharmacy", "healthcare": "pharmacy", "name": "\u0635\u064a\u062f\u0644\u064a\u0629 \u062d\u0628\u0627\u0642", "name:ar": "\u0635\u064a\u062f\u0644\u064a\u0629 \u062d\u0628\u0627\u0642", "name:en": "Pharmacy"}}, {"type": "node", "id": 6782952386, "lat": 32.0984138, "lon": 20.1211633, "tags": {"amenity": "pharmacy", "healthcare": "pharmacy", "name": "\u0627\u0644\u0634\u0631\u0643\u0629 \u0627\u0644\u062a\u0648\u0646\u0633\u064a\u0629 \u0644\u0644\u0623\u062f\u0648\u064a\u0629", "name:ar": "\u0627\u0644\u0634\u0631\u0643\u0629 \u0627\u0644\u062a\u0648\u0646\u0633\u064a\u0629 \u0644\u0644\u0623\u062f\u0648\u064a\u0629"}}, {"type": "node", "id": 7866294933, "lat": 32.0869635, "lon": 20.0955167, "tags": {"amenity": "pharmacy", "dispensing": "yes", "healthcare": "pharmacy", "name": "\u0635\u064a\u062f\u0644\u064a\u0629 \u0628\u062f\u0631", "name:ar": "\u0635\u064a\u062f\u0644\u064a\u0629 \u0628\u062f\u0631", "name:en": "Badr Pharmacy"}}, {"type": "node", "id": 7867808230, "lat": 31.9237982, "lon": 20.1653125, "tags": {"amenity": "pharmacy", "dispensing": "yes", "healthcare": "pharmacy"}}, {"type": "node", "id": 7880379085, "lat": 31.9249863, "lon": 20.1686039, "tags": {"amenity": "pharmacy", "name": "\u0635\u064a\u062f\u0644\u064a\u0629 \u0627\u0644\u0627\u0631\u062a\u064a\u0627\u062d", "name:ar": "\u0635\u064a\u062f\u0644\u064a\u0629 \u0627\u0644\u0627\u0631\u062a\u064a\u0627\u062d", "name:en": "Pharmacy"}}, {"type": "node", "id": 7884850590, "lat": 32.0839853, "lon": 20.0791443, "tags": {"amenity": "pharmacy", "dispensing": "yes", "healthcare": "pharmacy", "name": "\u0635\u064a\u062f\u0644\u064a\u0629 \u0627\u0644\u0646\u062e\u0644\u062a\u064a\u0646", "name:ar": "\u0635\u064a\u062f\u0644\u064a\u0629 \u0627\u0644\u0646\u062e\u0644\u062a\u064a\u0646", "name:en": "Pharmacy"}}, {"type": "node", "id": 7913211188, "lat": 32.0891791, "lon": 20.0880332, "tags": {"amenity": "pharmacy"}}, {"type": "node", "id": 7913219186, "lat": 32.0946931, "lon": 20.0900261, "tags": {"amenity": "pharmacy"}}, {"type": "node", "id": 7985402685, "lat": 32.0829394, "lon": 20.1028456, "tags": {"amenity": "pharmacy"}}, {"type": "node", "id": 8569009817, "lat": 32.1358392, "lon": 20.1033301, "tags": {"amenity": "pharmacy", "name": "\u0635\u064a\u062f\u0644\u064a\u0629 \u0627\u0644\u0641\u0627\u0631\u0648\u0642", "name:en": "Pharmacy"}}, {"type": "node", "id": 8569009818, "lat": 32.1301445, "lon": 20.1030905, "tags": {"amenity": "pharmacy", "name": "\u0635\u064a\u062f\u0644\u064a\u0629 \u0646\u0633\u0645\u0629", "name:en": "Pharmacy"}}, {"type": "node", "id": 9046396117, "lat": 32.0903342, "lon": 20.1107276, "tags": {"amenity": "pharmacy", "name": "\u0635\u064a\u062f\u0644\u064a\u0629 \u0627\u0644\u0634\u0631\u064a\u0641 \u0628\u0646\u063a\u0627\u0632\u064a"}}, {"type": "node", "id": 11406281469, "lat": 32.0890541, "lon": 20.08797, "tags": {"amenity": "pharmacy", "name": "\u0635\u064a\u062f\u0644\u064a\u0629 \u0632\u0647\u0648 \u0628\u0646\u063a\u0627\u0632\u064a"}}, {"type": "node", "id": 11415573469, "lat": 32.0779732, "lon": 20.0825758, "tags": {"amenity": "pharmacy", "name:en": "\u0635\u064a\u062f\u0644\u064a\u0629 \u0627\u0644\u0627\u0633\u0631\u0629 \u0642\u0631\u0628 \u0645\u062f\u0631\u0633\u0629 \u0628\u0648\u0628\u0643\u0631"}}, {"type": "node", "id": 11565509969, "lat": 32.1142881, "lon": 20.126301, "tags": {"amenity": "pharmacy", "name": "\u0635\u064a\u062f\u0644\u064a\u0629 \u0627\u0644\u0637\u0644\u062d\u064a -\u0628\u0646\u063a\u0627\u0632\u064a"}}, {"type": "node", "id": 11613381669, "lat": 32.1118132, "lon": 20.1313813, "tags": {"amenity": "pharmacy", "healthcare": "pharmacy", "name": "\u0635\u064a\u062f\u0644\u064a\u0629 \u0627\u0644\u0634\u0631\u064a\u0641 \u0627\u0644\u0645\u0631\u0643\u0632\u064a\u0629"}}]}