{"version": 0.6, "generator": "Overpass API 0.7.62.8 e802775f", "osm3s": {"timestamp_osm_base": "2025-10-06T08:20:01Z", "copyright": "The data included in this document is from www.openstreetmap.org. The data is made available under ODbL."}, "elements": [{"type": "node", "id": 599466884, "lat": 53.4066572, "lon": 18.4357386, "tags": {"amenity": "pharmacy", "dispensing": "yes", "healthcare": "pharmacy", "name": "Centrum Zdrowia", "phone": "+48523324611", "ref:csioz": "1110451", "source": "http://ump.waw.pl/ retrieved 11:19:07 11/17/09 (UMP-Torun/src/POI-BYDGOSZCZ.punkty.pnt-converted.txt)"}}, {"type": "node", "id": 599467015, "lat": 53.4073035, "lon": 18.4510954, "tags": {"addr:city": "\u015awiecie", "addr:housenumber": "4", "addr:postcode": "86-100", "addr:street": "Ksi\u0119cia Grzymis\u0142awa", "amenity": "pharmacy", "dispensing": "yes", "healthcare": "pharmacy", "name": "Pod Or\u0142em", "opening_hours": "24/7", "phone": "+48523311180", "ref:csioz": "1100498", "source": "http://ump.waw.pl/ retrieved 11:19:07 11/17/09 (UMP-Torun/src/POI-BYDGOSZCZ.punkty.pnt-converted.txt)"}}, {"type": "node", "id": 599467024, "lat": 53.4090273, "lon": 18.4517213, "tags": {"addr:city": "\u015awiecie", "addr:city:simc": "0929664", "addr:country": "PL", "addr:housenumber": "1", "addr:postcode": "86-100", "addr:street": "Du\u017cy Rynek", "amenity": "pharmacy", "dispensing": "yes", "healthcare": "pharmacy", "name": "Pod Lwem", "phone": "+48523314362", "ref:csioz": "1099497", "source": "http://ump.waw.pl/ retrieved 11:19:07 11/17/09 (UMP-Torun/src/POI-BYDGOSZCZ.punkty.pnt-converted.txt)"}}, {"type": "node", "id": 1911926182, "lat": 53.515445, "lon": 18.493088}, {"type": "node", "id": 1911926183, "lat": 53.5155036, "lon": 18.492979}, {"type": "node", "id": 1911926184, "lat": 53.5156565, "lon": 18.4931039}, {"type": "node", "id": 1911926195, "lat": 53.5156557, "lon": 18.4930068}, {"type": "node", "id": 2148874208, "lat": 53.5155653, "lon": 18.4931013}, {"type": "node", "id": 2148874209, "lat": 53.5155662, "lon": 18.4931548}, {"type": "node", "id": 2148874210, "lat": 53.515636, "lon": 18.4931032}, {"type": "node", "id": 2148874211, "lat": 53.5156362, "lon": 18.4931815}, {"type": "node", "id": 2642406514, "lat": 53.265654, "lon": 18.1503759}, {"type": "node", "id": 2642406518, "lat": 53.2657666, "lon": 18.1503921}, {"type": "node", "id": 2642406545, "lat": 53.2656666, "lon": 18.1501444}, {"type": "node", "id": 2642406546, "lat": 53.2657765, "lon": 18.1501588}, {"type": "node", "id": 2642730495, "lat": 53.2658579, "lon": 18.144588}, {"type": "node", "id": 2642730498, "lat": 53.2659356, "lon": 18.1445778}, {"type": "node", "id": 2642730500, "lat": 53.2659454, "lon": 18.1447849}, {"type": "node", "id": 2642730503, "lat": 53.2658676, "lon": 18.1447951}, {"type": "node", "id": 3015996171, "lat": 53.1501781, "lon": 18.1403009, "tags": {"addr:city": "Bydgoszcz", "addr:housenumber": "1", "addr:postcode": "85-791", "addr:street": "Witeckiego", "amenity": "pharmacy", "dispensing": "yes", "name": "Bohater\u00f3w", "opening_hours": "Mo-Fr 08:00-20:00; Sa 08:00-16:00", "ref:csioz": "1098875"}}, {"type": "node", "id": 3664784087, "lat": 53.2491648, "lon": 18.5634623, "tags": {"amenity": "pharmacy", "dispensing": "yes", "healthcare": "pharmacy", "name": "Punkt Apteczny", "ref:csioz": "1105361"}}, {"type": "node", "id": 8364194682, "lat": 53.5985795, "lon": 18.3490125, "tags": {"addr:city": "Osie", "addr:housenumber": "5", "addr:postcode": "86-150", "addr:street": "Henryka Sienkiewicza", "amenity": "pharmacy", "dispensing": "yes", "drive_through": "no", "healthcare": "pharmacy", "name": "Pod \u0141ab\u0119dziem", "operator": "Janusz Cichocki", "ref:csioz": "1099896"}}, {"type": "node", "id": 9379559440, "lat": 53.3309341, "lon": 18.2077416, "tags": {"amenity": "pharmacy", "dispensing": "yes", "healthcare": "pharmacy", "name": "W Centrum", "ref:csioz": "1230871"}}, {"type": "node", "id": 9590478988, "lat": 53.4075031, "lon": 18.4382814, "tags": {"addr:city": "\u015awiecie", "addr:housenumber": "88", "addr:postcode": "86-100", "addr:street": "Wojska Polskiego", "amenity": "pharmacy", "dispensing": "yes", "healthcare": "pharmacy", "name": "Apteka Gemini", "ref:csioz": "1100913"}}, {"type": "node", "id": 9590498012, "lat": 53.3327835, "lon": 18.1947738, "tags": {"addr:city": "Pruszcz", "addr:housenumber": "1B", "addr:postcode": "86-120", "addr:street": "Dworcowa", "amenity": "pharmacy", "dispensing": "yes", "name": "Wracam Do Zdrowia", "ref:csioz": "1101702"}}, {"type": "node", "id": 9590498297, "lat": 53.4078511, "lon": 18.4236821, "tags": {"addr:city": "\u015awiecie", "addr:housenumber": "4a", "addr:postcode": "86-100", "addr:street": "Ignacego Paderewskiego", "amenity": "pharmacy", "dispensing": "yes", "name": "Maria\u0144ska", "ref:csioz": "1099684"}}, {"type": "node", "id": 9590506307, "lat": 53.3321828, "lon": 18.1971677, "tags": {"addr:city": "Pruszcz", "addr:housenumber": "5", "addr:postcode": "86-120", "addr:street": "Zamkni\u0119ta", "amenity": "pharmacy", "dispensing": "yes", "name": "Jana Paw\u0142a Ii", "ref:csioz": "1100756"}}, {"type": "node", "id": 9590512351, "lat": 53.3493237, "lon": 18.3120164, "tags": {"addr:city": "Gruczno", "addr:housenumber": "8", "addr:postcode": "86-111", "addr:street": "Wojska Polskiego", "amenity": "pharmacy", "dispensing": "yes", "name": "\u017byj-Zdrowo.Com", "ref:csioz": "1204517"}}, {"type": "node", "id": 9590519965, "lat": 53.5266056, "lon": 18.2103024, "tags": {"addr:city": "Lniano", "addr:housenumber": "18", "addr:postcode": "86-141", "addr:street": "Wyzwolenia", "amenity": "pharmacy", "dispensing": "yes", "name": "\u0179r\u00f3d\u0142o Zdrowia", "ref:csioz": "1181174"}}, {"type": "node", "id": 9590525977, "lat": 53.4115388, "lon": 18.4247163, "tags": {"addr:city": "\u015awiecie", "addr:housenumber": "2", "addr:postcode": "86-100", "addr:street": "Jana III Sobieskiego", "amenity": "pharmacy", "dispensing": "yes", "name": "Farmacja24", "ref:csioz": "1200805"}}, {"type": "node", "id": 9590525978, "lat": 53.5101626, "lon": 18.3129932, "tags": {"addr:city": "Drzycim", "addr:housenumber": "20", "addr:postcode": "86-140", "addr:street": "Dworcowa", "amenity": "pharmacy", "dispensing": "yes", "name": "Arnika", "ref:csioz": "1099167"}}, {"type": "node", "id": 9590531074, "lat": 53.5287239, "lon": 18.2140571, "tags": {"addr:city": "Lniano", "addr:housenumber": "7D", "addr:postcode": "86-141", "addr:street": "Wyzwolenia", "amenity": "pharmacy", "dispensing": "yes", "healthcare": "pharmacy", "name": "Punkt Apteczny Poziomka", "ref:csioz": "1110472"}}, {"type": "node", "id": 9590532940, "lat": 53.4071664, "lon": 18.4336078, "tags": {"addr:city": "\u015awiecie", "addr:housenumber": "81", "addr:postcode": "86-101", "addr:street": "Wojska Polskiego", "amenity": "pharmacy", "dispensing": "yes", "healthcare": "pharmacy", "name": "Wracam Do Zdrowia", "ref:csioz": "1101691"}}, {"type": "node", "id": 9590535428, "lat": 53.4926825, "lon": 18.4539794, "tags": {"amenity": "pharmacy", "dispensing": "yes", "name": "Punkt apteczny", "opening_hours": "Mo-Fr 08:30-15:30", "ref:csioz": "1102170"}}, {"type": "node", "id": 9590536086, "lat": 53.4313691, "lon": 18.2439807, "tags": {"addr:city": "Bukowiec", "addr:housenumber": "16", "addr:postcode": "85-122", "addr:street": "Doktora Floriana Ceynowy", "amenity": "pharmacy", "dispensing": "yes", "name": "Apteka Dbam O Zdrowie", "ref:csioz": "1099027"}}, {"type": "node", "id": 9590536576, "lat": 53.4081447, "lon": 18.4401482, "tags": {"addr:city": "\u015awiecie", "addr:housenumber": "115", "addr:postcode": "86-100", "addr:street": "Wojska Polskiego", "amenity": "pharmacy", "dispensing": "yes", "healthcare": "pharmacy", "name": "Apteka Tania", "ref:csioz": "1102078"}}, {"type": "node", "id": 9590537074, "lat": 53.5964303, "lon": 18.3473974, "tags": {"addr:city": "Osie", "addr:housenumber": "9A", "addr:postcode": "86-150", "addr:street": "Dworcowa", "amenity": "pharmacy", "dispensing": "yes", "drive_through": "no", "healthcare": "pharmacy", "name": "Jana Paw\u0142a II", "opening_hours": "Mo-Fr 08:00-18:00, Su 08:00-14:00", "ref:csioz": "1181528"}}, {"type": "node", "id": 9595568724, "lat": 53.1604195, "lon": 18.1734031, "tags": {"addr:city": "Bydgoszcz", "addr:housenumber": "12", "addr:postcode": "85-793", "addr:street": "Genera\u0142a W\u0142adys\u0142awa Bortnowskiego", "amenity": "pharmacy", "dispensing": "yes", "name": "Cosmedica", "ref:csioz": "1102029"}}, {"type": "node", "id": 9595690793, "lat": 53.1538581, "lon": 18.1674755, "tags": {"addr:city": "Bydgoszcz", "addr:housenumber": "4", "addr:postcode": "85-794", "addr:street": "Samotna", "amenity": "pharmacy", "dispensing": "yes", "name": "Z U\u015bmiechem", "ref:csioz": "1222789"}}, {"type": "node", "id": 9595715813, "lat": 53.1519812, "lon": 18.1443512, "tags": {"addr:city": "Bydgoszcz", "addr:housenumber": "2", "addr:postcode": "85-791", "addr:street": "Genera\u0142a Franciszka Kleeberga", "amenity": "pharmacy", "dispensing": "yes", "name": "Pod Z\u0142ot\u0105 Koron\u0105", "opening_hours": "Mo-Fr 08:00-20:00; Sa 08:00-15:00", "ref:csioz": "1098749"}}, {"type": "node", "id": 9595718480, "lat": 53.1506052, "lon": 18.1537324, "tags": {"addr:city": "Bydgoszcz", "addr:housenumber": "1", "addr:postcode": "85-792", "addr:street": "Janiny Porazi\u0144skiej", "amenity": "pharmacy", "dispensing": "yes", "name": "Im. Prof. F. Adamanisa", "ref:csioz": "1100660"}}, {"type": "node", "id": 9595734136, "lat": 53.165763, "lon": 18.1609603, "tags": {"addr:city": "Bydgoszcz", "addr:housenumber": "41", "addr:postcode": "85-794", "addr:street": "Pelpli\u0144ska", "amenity": "pharmacy", "dispensing": "yes", "name": "Dr. Max", "ref:csioz": "1224431"}}, {"type": "node", "id": 9595735522, "lat": 53.1535643, "lon": 18.1564172, "tags": {"addr:city": "Bydgoszcz", "addr:housenumber": "2", "addr:postcode": "85-791", "addr:street": "Stanis\u0142awa Skar\u017cy\u0144skiego", "amenity": "pharmacy", "check_date": "2025-09-23", "dispensing": "yes", "name": "Apteka Dr Zdrowie", "ref:csioz": "1100853"}}, {"type": "node", "id": 9595754687, "lat": 53.1495687, "lon": 18.1290064, "tags": {"addr:city": "Bydgoszcz", "addr:housenumber": "9d", "addr:postcode": "85-796", "addr:street": "Genera\u0142a Augusta Fieldorfa \u201eNila\u201d", "amenity": "pharmacy", "dispensing": "yes", "name": "Apteka Venus", "ref:csioz": "1100652"}}, {"type": "node", "id": 9595757033, "lat": 53.1609249, "lon": 18.1559867, "tags": {"addr:city": "Bydgoszcz", "addr:housenumber": "5a", "addr:postcode": "85-794", "addr:street": "Janosika", "amenity": "pharmacy", "dispensing": "yes", "name": "Tatrza\u0144ska", "ref:csioz": "1100976"}}, {"type": "node", "id": 9595772049, "lat": 53.1610208, "lon": 18.1615654, "tags": {"addr:city": "Bydgoszcz", "addr:housenumber": "3A", "addr:postcode": "85-794", "addr:street": "Stanis\u0142awa Witkiewicza", "amenity": "pharmacy", "dispensing": "yes", "name": "Apteka Minerwa", "ref:csioz": "1102055"}}, {"type": "node", "id": 9595773332, "lat": 53.1544556, "lon": 18.1472665, "tags": {"addr:city": "Bydgoszcz", "addr:housenumber": "15", "addr:postcode": "85-791", "addr:street": "J\u00f3zefa Twardzickiego", "amenity": "pharmacy", "check_date:opening_hours": "2025-05-09", "dispensing": "yes", "name": "Pod D\u0119bami", "opening_hours": "Mo-Fr 08:00-20:00; Sa 08:00-14:00", "ref:csioz": "1099954"}}, {"type": "node", "id": 9595785579, "lat": 53.1665982, "lon": 18.1635174, "tags": {"addr:city": "Bydgoszcz", "addr:housenumber": "99", "addr:postcode": "85-790", "addr:street": "Wyzwolenia", "amenity": "pharmacy", "brand": "Dbam o Zdrowie", "brand:wikidata": "Q62563833", "dispensing": "yes", "healthcare": "pharmacy", "name": "Dbam o Zdrowie", "ref:csioz": "1099042", "short_name": "DOZ"}}, {"type": "node", "id": 9595792561, "lat": 53.152278, "lon": 18.1221224, "tags": {"addr:city": "Bydgoszcz", "addr:housenumber": "1", "addr:postcode": "85-791", "addr:street": "J\u00f3zefa Twardzickiego", "amenity": "pharmacy", "dispensing": "yes", "name": "Wracam Do Zdrowia", "ref:csioz": "1101715"}}, {"type": "node", "id": 9595795045, "lat": 53.1577382, "lon": 18.162518, "tags": {"addr:city": "Bydgoszcz", "addr:housenumber": "51", "addr:postcode": "85-791", "addr:street": "Genera\u0142a W\u0142adys\u0142awa Andersa", "amenity": "pharmacy", "dispensing": "yes", "name": "Apteka Dr. Optima", "ref:csioz": "1114598"}}, {"type": "node", "id": 9595803213, "lat": 53.1556595, "lon": 18.1549451, "tags": {"addr:city": "Bydgoszcz", "addr:housenumber": "5a", "addr:postcode": "85-791", "addr:street": "Stanis\u0142awa Skar\u017cy\u0144skiego", "amenity": "pharmacy", "dispensing": "yes", "name": "Medapteka", "ref:csioz": "1213422"}}, {"type": "node", "id": 9595821358, "lat": 53.152184, "lon": 18.1205046, "tags": {"addr:city": "Bydgoszcz", "addr:housenumber": "15", "addr:postcode": "85-796", "addr:street": "Ksi\u0119dza Henryka Szumana", "amenity": "pharmacy", "dispensing": "yes", "name": "Przy Twardzickiego", "ref:csioz": "1099965"}}, {"type": "node", "id": 9595853642, "lat": 53.1521341, "lon": 18.123752, "tags": {"addr:city": "Bydgoszcz", "addr:housenumber": "7A", "addr:postcode": "85-796", "addr:street": "Wojciecha \u0141ochowskiego", "amenity": "pharmacy", "dispensing": "yes", "name": "Medic", "ref:csioz": "1101273"}}, {"type": "node", "id": 9595888931, "lat": 53.1567384, "lon": 18.1614143, "tags": {"addr:city": "Bydgoszcz", "addr:housenumber": "20", "addr:postcode": "85-794", "addr:street": "G\u00f3rskiego Ochotniczego Pogotowia Ratunkowego", "amenity": "pharmacy", "dispensing": "yes", "name": "Vital", "ref:csioz": "1098730"}}, {"type": "node", "id": 9595890719, "lat": 53.1487982, "lon": 18.1291427, "tags": {"addr:city": "Bydgoszcz", "addr:housenumber": "6", "addr:postcode": "85-796", "addr:street": "Jerzego Rupniewskiego", "amenity": "pharmacy", "dispensing": "yes", "name": "Apteka Pod Sosnami", "ref:csioz": "1100647"}}, {"type": "node", "id": 9606484879, "lat": 53.321821, "lon": 18.5064394, "tags": {"addr:housenumber": "112", "addr:place": "Stolno", "addr:postcode": "86-212", "amenity": "pharmacy", "dispensing": "yes", "ref:csioz": "1105168"}}, {"type": "node", "id": 9606503413, "lat": 53.3469963, "lon": 18.4427735, "tags": {"addr:city": "Che\u0142mno", "addr:housenumber": "19", "addr:postcode": "86-200", "addr:street": "Marii Sk\u0142odowskiej-Curie", "amenity": "pharmacy", "dispensing": "yes", "healthcare": "pharmacy", "name": "Gemini", "ref:csioz": "1182223"}}, {"type": "node", "id": 9606508815, "lat": 53.3511372, "lon": 18.4354621, "tags": {"addr:city": "Che\u0142mno", "addr:housenumber": "7", "addr:postcode": "86-200", "addr:street": "M\u0142y\u0144ska", "amenity": "pharmacy", "dispensing": "yes", "healthcare": "pharmacy", "name": "Che\u0142mi\u0144ska", "ref:csioz": "1119117"}}, {"type": "node", "id": 9606521581, "lat": 53.2088733, "lon": 18.3839226, "tags": {"addr:city": "Unis\u0142aw", "addr:housenumber": "18a", "addr:postcode": "86-260", "addr:street": "Wi\u015blana", "amenity": "pharmacy", "dispensing": "yes", "healthcare": "pharmacy", "name": "Unis\u0142aw", "ref:csioz": "1110629"}}, {"type": "node", "id": 9606534321, "lat": 53.3497669, "lon": 18.4262341, "tags": {"addr:city": "Che\u0142mno", "addr:housenumber": "14", "addr:postcode": "86-200", "addr:street": "Grudzi\u0105dzka", "amenity": "pharmacy", "dispensing": "yes", "healthcare": "pharmacy", "name": "Apteka Panaceum", "ref:csioz": "1102431"}}, {"type": "node", "id": 9606549391, "lat": 53.3505831, "lon": 18.4305024, "tags": {"addr:city": "Che\u0142mno", "addr:housenumber": "4A", "addr:postcode": "86-200", "addr:street": "Dworcowa", "amenity": "pharmacy", "dispensing": "yes", "healthcare": "pharmacy", "name": "Asklepios", "ref:csioz": "1103608"}}, {"type": "node", "id": 9606643375, "lat": 53.2083602, "lon": 18.3822477, "tags": {"addr:city": "Unis\u0142aw", "addr:housenumber": "17a", "addr:postcode": "86-260", "addr:street": "Parkowa", "amenity": "pharmacy", "dispensing": "yes", "name": "Remedium", "ref:csioz": "1103323"}}, {"type": "node", "id": 9606643376, "lat": 53.2747571, "lon": 18.4433581, "tags": {"addr:city": "Kijewo Kr\u00f3lewskie", "addr:housenumber": "7B", "addr:postcode": "86-253", "addr:street": "Che\u0142mi\u0144ska", "amenity": "pharmacy", "dispensing": "yes", "healthcare": "pharmacy", "name": "Punkt Apteczny Zdr\u00f3wko 4", "ref:csioz": "1231033"}}, {"type": "node", "id": 9606655579, "lat": 53.3480346, "lon": 18.4442737, "tags": {"addr:city": "Che\u0142mno", "addr:housenumber": "1", "addr:postcode": "86-200", "addr:street": "\u0141unawska", "amenity": "pharmacy", "dispensing": "yes", "healthcare": "pharmacy", "name": "Prima", "ref:csioz": "1187154"}}, {"type": "node", "id": 9606710096, "lat": 53.3501501, "lon": 18.4332516, "tags": {"addr:city": "Che\u0142mno", "addr:housenumber": "18", "addr:postcode": "86-200", "addr:street": "Dworcowa", "amenity": "pharmacy", "dispensing": "yes", "healthcare": "pharmacy", "name": "Apteka Alba", "ref:csioz": "1102444"}}, {"type": "node", "id": 9607337819, "lat": 53.2232474, "lon": 18.2735704, "tags": {"addr:city": "Czar\u017ce", "addr:housenumber": "35", "addr:postcode": "86-070", "addr:street": "Che\u0142mi\u0144ska", "amenity": "pharmacy", "dispensing": "yes", "name": "Imbir", "ref:csioz": "1206514"}}, {"type": "node", "id": 9664301162, "lat": 53.5154454, "lon": 18.4929754}, {"type": "node", "id": 9664301163, "lat": 53.5155048, "lon": 18.4929945}, {"type": "node", "id": 10218640148, "lat": 53.4142113, "lon": 18.4672007, "tags": {"addr:city": "\u015awiecie", "addr:housenumber": "126", "addr:street": "Wojska Polskiego", "amenity": "pharmacy", "dispensing": "yes", "healthcare": "pharmacy", "name": "S\u0142oneczna", "ref:csioz": "1110562"}}, {"type": "way", "id": 180732092, "nodes": [1911926195, 1911926184, 2148874210, 2148874211, 2148874209, 2148874208, 1911926182, 9664301162, 1911926183, 9664301163, 1911926195], "tags": {"addr:city": "Je\u017cewo", "addr:housenumber": "2", "addr:postcode": "86-131", "addr:street": "Wiatrakowa", "amenity": "pharmacy", "building": "house", "dispensing": "yes", "name": "Pomorska", "ref:csioz": "1101285", "source:addr": "jezewo.e-mapa.net"}}, {"type": "way", "id": 258934831, "nodes": [2642406546, 2642406545, 2642406514, 2642406518, 2642406546], "tags": {"addr:city": "Dobrcz", "addr:housenumber": "28", "addr:postcode": "86-022", "addr:street": "D\u0142uga", "amenity": "pharmacy", "building": "yes", "dispensing": "yes", "healthcare": "pharmacy", "name": "Apteka Centrum", "phone": "+48 52 522 35 40", "ref:csioz": "1182355"}}, {"type": "way", "id": 258968028, "nodes": [2642730500, 2642730503, 2642730495, 2642730498, 2642730500], "tags": {"addr:city": "Dobrcz", "addr:city:simc": "0084356", "addr:housenumber": "2B", "addr:postcode": "86-022", "addr:street": "Ogrodowa", "addr:street:sym_ul": "14834", "amenity": "pharmacy", "building": "yes", "dispensing": "yes", "healthcare": "pharmacy", "name": "Nova", "operator": "Nova", "ref:csioz": "1099830", "source:addr": "emuia.gugik.gov.pl"}}]}