{"version": 0.6, "generator": "Overpass API 0.7.62.8 e802775f", "osm3s": {"timestamp_osm_base": "2025-10-06T08:16:01Z", "copyright": "The data included in this document is from www.openstreetmap.org. The data is made available under ODbL."}, "elements": [{"type": "node", "id": 534777557, "lat": 47.0200975, "lon": 21.1781061, "tags": {"amenity": "pharmacy", "healthcare": "pharmacy", "name": "D\u00f3zsa Gy\u00f3gyszert\u00e1r"}}, {"type": "node", "id": 534787159, "lat": 47.0169981, "lon": 21.1757368}, {"type": "node", "id": 1432559390, "lat": 47.2153613, "lon": 20.7560576, "tags": {"addr:city": "Kis\u00fajsz\u00e1ll\u00e1s", "addr:housenumber": "12", "addr:postcode": "5310", "addr:street": "Kossuth Lajos utca", "amenity": "pharmacy", "contact:email": "pharmahegedus@mail.datanet.hu", "contact:phone": "+36 59 321 018", "contact:website": "http://www.zoldypatika.webzona.hu", "healthcare": "pharmacy", "int_name": "Z\u00f6ldy Pharmacy", "name": "Z\u00f6ldy Gy\u00f3gyszert\u00e1r", "opening_hours": "Mo-Fr 08:00-19:00; Sa 08:00-12:00"}}, {"type": "node", "id": 1945764701, "lat": 47.217109, "lon": 20.7580316, "tags": {"addr:city": "Kis\u00fajsz\u00e1ll\u00e1s", "addr:housenumber": "2/A", "addr:postcode": "5310", "addr:street": "Szabads\u00e1g utca", "amenity": "pharmacy", "healthcare": "pharmacy", "name": "G\u00f3lya Gy\u00f3gyszert\u00e1r", "phone": "+36 59 520 680"}}, {"type": "node", "id": 2219954185, "lat": 47.3215382, "lon": 21.0928018, "tags": {"amenity": "pharmacy", "healthcare": "pharmacy"}}, {"type": "node", "id": 3065117933, "lat": 47.1017334, "lon": 20.7442908, "tags": {"amenity": "pharmacy", "contact:phone": "+36 56 554 326", "healthcare": "pharmacy", "name": "Paprika gy\u00f3gyszert\u00e1r", "opening_hours": "Mo-Fr 08:00-18:00; Sa 08:00-12:00", "operator": "Gy\u00f6ngy patik\u00e1k"}}, {"type": "node", "id": 3278113029, "lat": 47.3564969, "lon": 21.2725277}, {"type": "node", "id": 3278113030, "lat": 47.3565461, "lon": 21.2725618, "tags": {"entrance": "yes", "wheelchair": "yes"}}, {"type": "node", "id": 3278113031, "lat": 47.3565843, "lon": 21.2725882}, {"type": "node", "id": 3278113032, "lat": 47.3565888, "lon": 21.2722388}, {"type": "node", "id": 3278113033, "lat": 47.3566762, "lon": 21.2722993}, {"type": "node", "id": 3445368127, "lat": 47.103502, "lon": 21.338412, "tags": {"amenity": "pharmacy", "healthcare": "pharmacy", "source": "turistautak.hu", "source:date": "2010-05-16", "url": "http://turistautak.hu/poi.php?id=54863"}}, {"type": "node", "id": 3456353392, "lat": 47.2118924, "lon": 21.2326451, "tags": {"addr:city": "Biharnagybajom", "addr:housenumber": "3", "addr:postcode": "4172", "addr:street": "Sz\u00e9chenyi \u00fat", "amenity": "pharmacy", "healthcare": "pharmacy", "name": "Szent Korona Gy\u00f3gyszert\u00e1r", "opening_hours": "Mo-Fr 08:00-16:00; PH off", "source": "turistautak.hu", "source:date": "2009-03-21", "url": "http://turistautak.hu/poi.php?id=67686"}}, {"type": "node", "id": 3456353797, "lat": 47.292579, "lon": 21.223161, "tags": {"amenity": "pharmacy", "source": "turistautak.hu", "source:date": "2011-06-20", "url": "http://turistautak.hu/poi.php?id=120171"}}, {"type": "node", "id": 3459957730, "lat": 47.02771, "lon": 20.9602, "tags": {"amenity": "pharmacy", "healthcare": "pharmacy", "source": "turistautak.hu", "source:date": "2012-04-06", "url": "http://turistautak.hu/poi.php?id=136658"}}, {"type": "node", "id": 3459957783, "lat": 47.02842, "lon": 20.9657, "tags": {"amenity": "pharmacy", "name": "\u0150rangyal Gy\u00f3gyszert\u00e1r", "source": "turistautak.hu", "source:date": "2013-11-12", "url": "http://turistautak.hu/poi.php?id=162902"}}, {"type": "node", "id": 3459957797, "lat": 46.935335, "lon": 20.834836, "tags": {"amenity": "pharmacy", "name": "Aranysas patika", "source": "turistautak.hu", "source:date": "2011-11-13", "url": "http://turistautak.hu/poi.php?id=127696"}}, {"type": "node", "id": 3459957815, "lat": 46.93771, "lon": 20.82711, "tags": {"amenity": "pharmacy", "healthcare": "pharmacy", "name": "Diadem gy\u00f3gyszert\u00e1r", "source": "turistautak.hu", "source:date": "2010-05-16", "url": "http://turistautak.hu/poi.php?id=86985"}}, {"type": "node", "id": 3462304524, "lat": 47.20315, "lon": 20.998233, "tags": {"amenity": "pharmacy", "source": "turistautak.hu", "source:date": "2013-08-27", "url": "http://turistautak.hu/poi.php?id=158463"}}, {"type": "node", "id": 3841856817, "lat": 47.317809, "lon": 20.926276, "tags": {"amenity": "pharmacy", "brand": "Pingvin Patika", "brand:wikidata": "Q105626461", "healthcare": "pharmacy", "name": "Pingvin Patika", "name:en": "Penguin Pharmacy", "wheelchair": "yes"}}, {"type": "node", "id": 4846039065, "lat": 47.4255982, "lon": 21.1562449, "tags": {"amenity": "pharmacy", "name": "Ezerj\u00f3f\u0171 Patika"}}, {"type": "node", "id": 4846039095, "lat": 47.4271965, "lon": 21.1556719, "tags": {"amenity": "pharmacy", "healthcare": "pharmacy", "name": "Fekete Sas Gy\u00f3gyszert\u00e1r"}}, {"type": "node", "id": 7683086376, "lat": 47.3178225, "lon": 21.1185431, "tags": {"amenity": "pharmacy", "healthcare": "pharmacy", "name": "Gy\u00f6ngy Patika"}}, {"type": "node", "id": 9919431093, "lat": 47.3184639, "lon": 21.115108, "tags": {"amenity": "pharmacy", "dispensing": "yes", "healthcare": "pharmacy", "name": "Rem\u00e9ny Gy\u00f3gyszert\u00e1r"}}, {"type": "node", "id": 11190557191, "lat": 47.1461607, "lon": 20.9245181, "tags": {"amenity": "pharmacy", "healthcare": "pharmacy", "name": "Paracelsus Fi\u00f3kpatika"}}, {"type": "node", "id": 12615288380, "lat": 47.017229, "lon": 21.1757854}, {"type": "node", "id": 12646693702, "lat": 47.0172104, "lon": 21.1759761}, {"type": "node", "id": 12646693803, "lat": 47.0169794, "lon": 21.1759276}, {"type": "node", "id": 12825638601, "lat": 47.1067492, "lon": 21.2106214}, {"type": "node", "id": 12825638701, "lat": 47.1066655, "lon": 21.2105313}, {"type": "node", "id": 12825638801, "lat": 47.1067292, "lon": 21.2106615}, {"type": "node", "id": 12825638802, "lat": 47.1065285, "lon": 21.2107504}, {"type": "node", "id": 12825638803, "lat": 47.1066275, "lon": 21.210552}, {"type": "node", "id": 12825638901, "lat": 47.1066455, "lon": 21.2105714}, {"type": "node", "id": 12825639001, "lat": 47.1066836, "lon": 21.2107478}, {"type": "node", "id": 12825639101, "lat": 47.106709, "lon": 21.2107751}, {"type": "node", "id": 12825639102, "lat": 47.1067529, "lon": 21.2106871}, {"type": "node", "id": 12825639201, "lat": 47.1066286, "lon": 21.2108581}, {"type": "way", "id": 321093515, "nodes": [3278113031, 3278113030, 3278113029, 3278113032, 3278113033, 3278113031], "tags": {"amenity": "pharmacy", "building": "yes", "dispensing": "yes", "name": "Sanitas gy\u00f3gyszert\u00e1r", "opening_hours": "Mo-Fr 08:00-13:00,15:00-18:00; Sa,Su 17:00-18:00", "phone": "+36 54 460 226;+36 54 522 018"}}, {"type": "way", "id": 1365641833, "nodes": [12615288380, 12646693702, 12646693803, 534787159, 12615288380], "tags": {"addr:city": "Szeghalom", "addr:housenumber": "10", "addr:postcode": "5520", "addr:street": "Tildy Zolt\u00e1n utca", "amenity": "pharmacy", "brand": "Gy\u00f6ngy Patik\u00e1k", "building": "yes", "contact:facebook": "https://www.facebook.com/cedrus.gyogyszertar", "contact:phone": "+36 66 371 437", "contact:website": "https://gyongypatikak.hu/", "healthcare": "pharmacy", "name": "C\u00e9drus Gy\u00f3gyszert\u00e1r", "opening_hours": "Mo-Fr 08:00-16:30", "operator": "PATIKA MANAGEMENT Kft.", "operator:addr": "1061 Budapest, Kir\u00e1ly utca 12.", "payment:cash": "yes", "payment:contactless": "yes", "payment:maestro": "yes", "payment:mastercard": "yes", "payment:visa": "yes", "payment:visa_electron": "yes", "ref:HU:company": "01-09-904789", "ref:HU:vatin": "14460287-2-42"}}, {"type": "way", "id": 1385325899, "nodes": [12825638803, 12825638901, 12825638701, 12825638601, 12825638801, 12825639102, 12825639101, 12825639001, 12825639201, 12825638802, 12825638803], "tags": {"amenity": "pharmacy", "brand": "Alma Gy\u00f3gyszert\u00e1r", "brand:website": "https://almapatika.hu", "brand:wikidata": "Q105626221", "building": "yes", "contact:email": "dozsa1@mail.globonet.hu", "contact:phone": "+36 66 371 359;+36 66 590 010", "healthcare": "pharmacy", "name": "F\u00fczes Gy\u00f3gyszert\u00e1r", "opening_hours": "Mo-Fr 08:00-18:00; Sa 08:00-12:00", "operator": "PHARMA-F\u00dcZES Bt.", "operator:addr": "5525 F\u00fczesgyarmat, Kossuth utca 12.", "ref:HU:bank_account": "10402661-50514853-56541004", "ref:HU:company": "04-06-004211", "ref:HU:vatin": "20867188-2-04", "start_date": "1997"}}]}