{"version": 0.6, "generator": "Overpass API 0.7.62.8 e802775f", "osm3s": {"timestamp_osm_base": "2025-10-06T08:35:15Z", "copyright": "The data included in this document is from www.openstreetmap.org. The data is made available under ODbL."}, "elements": [{"type": "node", "id": 1082888034, "lat": 49.4684759, "lon": 22.3285289, "tags": {"amenity": "pharmacy", "dispensing": "yes", "healthcare": "pharmacy", "name": "Apteka Omega", "ref:csioz": "1142867"}}, {"type": "node", "id": 1082888156, "lat": 49.4693316, "lon": 22.329417, "tags": {"amenity": "pharmacy", "dispensing": "yes", "healthcare": "pharmacy", "operator": "Renata Olech", "ref:csioz": "1147212"}}, {"type": "node", "id": 1501852485, "lat": 49.4699523, "lon": 22.3301142, "tags": {"amenity": "pharmacy", "dispensing": "yes", "healthcare": "pharmacy", "name": "Apteka Lisowskich", "ref:csioz": "1142872"}}, {"type": "node", "id": 3617739444, "lat": 49.3709595, "lon": 22.4267503, "tags": {"amenity": "pharmacy", "dispensing": "yes", "healthcare": "pharmacy", "opening_hours": "Mo-Fr 08:00-16:00; Sa 09:00-13:00", "phone": "+48 13 469 2041", "ref:csioz": "1142910"}}, {"type": "node", "id": 3726868297, "lat": 49.4679974, "lon": 22.3318309, "tags": {"amenity": "pharmacy", "dispensing": "yes", "healthcare": "pharmacy", "name": "Maja", "ref:csioz": "1142880"}}, {"type": "node", "id": 4464656692, "lat": 49.4295592, "lon": 22.5875313, "tags": {"addr:city": "Ustrzyki Dolne", "addr:housenumber": "20", "addr:postcode": "38-700", "addr:street": "Rynek", "amenity": "pharmacy", "dispensing": "yes", "email": "118@cefarm36.pl", "healthcare": "pharmacy", "name": "Cef@rm 36,6", "name:pl": "Cef@rm 36,6", "opening_hours": "Mo-Fr 08:00-19:00; Sa 08:00-16:00; Su off", "phone": "+48 13 471 16 65", "ref:csioz": "1140527"}}, {"type": "node", "id": 4464684094, "lat": 49.429933, "lon": 22.5956856, "tags": {"amenity": "pharmacy", "dispensing": "yes", "email": "117@cefarm36.pl", "healthcare": "pharmacy", "name": "Cef@rm 36,6", "name:pl": "Cef@rm 36,6", "opening_hours": "Mo-Fr 08:00-17:00; Sa 08:00-14:00; Su off", "phone": "+48 13 471 18 66", "ref:csioz": "1140493"}}, {"type": "node", "id": 4469684664, "lat": 49.5711871, "lon": 22.7845607, "tags": {"amenity": "pharmacy", "healthcare": "pharmacy"}}, {"type": "node", "id": 4548620892, "lat": 49.440429, "lon": 23.0009186, "tags": {"addr:housenumber": "86-\u0410", "addr:street": "\u0432\u0443\u043b\u0438\u0446\u044f \u041b\u0435\u0432\u0430 \u0413\u0430\u043b\u0438\u0446\u044c\u043a\u043e\u0433\u043e", "amenity": "pharmacy", "name": "\u041f\u043e\u0434\u043e\u0440\u043e\u0436\u043d\u0438\u043a", "opening_hours": "Mo-Su 08:00-20:00"}}, {"type": "node", "id": 4548624593, "lat": 49.4413079, "lon": 23.0018322, "tags": {"addr:street": "\u0432\u0443\u043b\u0438\u0446\u044f \u041b\u0435\u0432\u0430 \u0413\u0430\u043b\u0438\u0446\u044c\u043a\u043e\u0433\u043e", "amenity": "pharmacy", "healthcare": "pharmacy", "name": "DS", "name:uk": "DS"}}, {"type": "node", "id": 4548624594, "lat": 49.4418459, "lon": 23.0021121, "tags": {"addr:street": "\u0432\u0443\u043b\u0438\u0446\u044f \u041b\u0435\u0432\u0430 \u0413\u0430\u043b\u0438\u0446\u044c\u043a\u043e\u0433\u043e", "amenity": "pharmacy", "brand": "3\u0456", "brand:wikidata": "Q117705687", "healthcare": "pharmacy", "name": "3\u0456", "name:uk": "3\u0456"}}, {"type": "node", "id": 4548624595, "lat": 49.4399823, "lon": 23.0017642, "tags": {"amenity": "pharmacy", "healthcare": "pharmacy"}}, {"type": "node", "id": 4548628391, "lat": 49.442563, "lon": 23.0023124, "tags": {"amenity": "pharmacy", "healthcare": "pharmacy"}}, {"type": "node", "id": 4549351690, "lat": 49.4356701, "lon": 22.9977378, "tags": {"amenity": "pharmacy", "healthcare": "pharmacy"}}, {"type": "node", "id": 4549894991, "lat": 49.4374064, "lon": 22.9990809, "tags": {"addr:street": "\u0432\u0443\u043b\u0438\u0446\u044f \u041b\u0435\u0432\u0430 \u0413\u0430\u043b\u0438\u0446\u044c\u043a\u043e\u0433\u043e", "amenity": "pharmacy", "healthcare": "pharmacy"}}, {"type": "node", "id": 5206826122, "lat": 49.2535683, "lon": 22.6925513, "tags": {"addr:housenumber": "83", "addr:place": "Lutowiska", "addr:postcode": "38-713", "amenity": "pharmacy", "dispensing": "yes", "healthcare": "pharmacy", "name": "Punkt apteczny Remedium", "name:pl": "Punkt apteczny Remedium", "opening_hours": "Mo 07:30-18:00; Tu-Fr 07:30-15:00", "ref:csioz": "1140542"}}, {"type": "node", "id": 5512069945, "lat": 49.4347927, "lon": 22.5709859, "tags": {"amenity": "pharmacy", "dispensing": "yes", "email": "ustrzyki@aptekaomega.pl", "healthcare": "pharmacy", "name": "Omega", "opening_hours": "Mo-Fr 08:00-20:00; Sa 08:00-16:00; Su off", "phone": "+48 13 307 52 90", "ref:csioz": "1185716"}}, {"type": "node", "id": 5644911893, "lat": 49.3716381, "lon": 22.4295334, "tags": {"amenity": "pharmacy", "dispensing": "yes", "healthcare": "pharmacy", "name": "Apteka Omega", "opening_hours": "Mo-Sa 08:00-18:00; Su 09:00-18:00", "phone": "+48 13 464 59 56", "ref:csioz": "1187868"}}, {"type": "node", "id": 6003377786, "lat": 49.5358136, "lon": 22.9660614, "tags": {"amenity": "pharmacy"}}, {"type": "node", "id": 7074573185, "lat": 49.324045, "lon": 22.6690009, "tags": {"addr:city": "Czarna G\u00f3rna", "addr:city:simc": "0348000", "addr:housenumber": "75", "addr:place": "Czarna G\u00f3rna", "addr:postcode": "38-710", "amenity": "pharmacy", "dispensing": "yes", "healthcare": "pharmacy", "name": "Punkt apteczny", "opening_hours": "Mo-Fr 08:00-15:00; Sa 08:00-13:00", "ref:csioz": "1140534", "source:addr": "emuia.gugik.gov.pl"}}, {"type": "node", "id": 8772170484, "lat": 49.4306018, "lon": 22.5879588, "tags": {"addr:city": "Ustrzyki Dolne", "addr:housenumber": "12", "addr:postcode": "38-700", "addr:street": "Rynek", "amenity": "pharmacy", "dispensing": "yes", "email": "ustrzykidolnerynek@aptekigemini.pl", "healthcare": "pharmacy", "name": "Gemini", "opening_hours": "Mo-Fr 07:30-19:00; Sa 08:00-15:00; Su off", "phone": "+48 453 060 236", "ref:csioz": "1140516"}}, {"type": "node", "id": 8772331392, "lat": 49.4296676, "lon": 22.5868673, "tags": {"amenity": "pharmacy", "brand": "Dr. Max", "brand:wikidata": "Q56317371", "brand:wikipedia": "fr:Dr.Max", "dispensing": "yes", "email": "ustrzykidolne.rynek@drmax.com.pl", "healthcare": "pharmacy", "name": "Dr.Max", "opening_hours": "Mo-Fr 08:00-19:00; Sa 08:00-15:00; Su off", "phone": "+48 13 461 38 00", "ref:csioz": "1140503"}}, {"type": "node", "id": 9537622257, "lat": 49.4768126, "lon": 22.4451475, "tags": {"amenity": "pharmacy", "dispensing": "yes", "email": "danfarmolszanica@wp.pl", "healthcare": "pharmacy", "name": "Danfarm Punkt Apteczny", "opening_hours": "Mo-Fr 08:00-18:00; Sa 08:00-14:00; Su off", "phone": "+48 798 338 953", "ref:csioz": "1221479"}}, {"type": "node", "id": 9537702034, "lat": 49.4806344, "lon": 22.325077, "tags": {"amenity": "pharmacy", "dispensing": "yes", "healthcare": "pharmacy", "name": "Artfarm", "opening_hours": "Mo-Fr 08:00-19:00; Sa 08:00-15:00", "phone": "13 492 7255", "ref:csioz": "1184925"}}, {"type": "node", "id": 9537720405, "lat": 49.4737992, "lon": 22.3319033, "tags": {"amenity": "pharmacy", "description": "Apteka Szpitalna", "dispensing": "yes", "email": "apteka@spzozlesko.pl", "healthcare": "pharmacy", "opening_hours": "Mo-Fr 07:25-15:00", "phone": "134698398", "ref:csioz": "1138426"}}, {"type": "node", "id": 9588558468, "lat": 49.4315966, "lon": 22.6018708, "tags": {"amenity": "pharmacy", "dispensing": "yes", "email": "apt218320@dbamozdrowie.pl", "name": "Lafarma Na Rogu", "opening_hours": "Mo-Fr 08:00-19:00; Sa 08:00-14:00; Su off", "phone": "+48 723 282 512", "ref:csioz": "1231311"}}, {"type": "node", "id": 9936337565, "lat": 49.5333288, "lon": 22.8495575, "tags": {"amenity": "pharmacy", "name": "\u0410\u043f\u0442\u0435\u043a\u0430", "name:uk": "\u0410\u043f\u0442\u0435\u043a\u0430"}}, {"type": "node", "id": 10881075008, "lat": 49.532238, "lon": 22.8507227, "tags": {"addr:city": "\u0425\u0438\u0440\u0456\u0432", "addr:postcode": "82060", "addr:street": "\u0425\u0438\u0440\u0456\u0432, \u0432\u0443\u043b\u0438\u0446\u044f \u0406\u0432\u0430\u0441\u044e\u043a\u0430, 3", "amenity": "pharmacy", "contact:phone": "+380800303111", "description": "\u041f\u043e\u0434\u043e\u0440\u043e\u0436\u043d\u0438\u043a \u2013 \u043d\u0430\u0439\u0431\u0456\u043b\u044c\u0448\u0430 \u043c\u0435\u0440\u0435\u0436\u0430 \u0430\u043f\u0442\u0435\u043a \u0423\u043a\u0440\u0430\u0457\u043d\u0438. \u0410\u0441\u043e\u0440\u0442\u0438\u043c\u0435\u043d\u0442 \u043d\u0430\u043b\u0456\u0447\u0443\u0454 \u043f\u043e\u043d\u0430\u0434 20 000 \u0442\u043e\u0432\u0430\u0440\u0456\u0432. \u0423 \u0430\u043f\u0442\u0435\u0446\u0456 \u0432\u0438 \u043c\u043e\u0436\u0435\u0442\u0435 \u043f\u0440\u0438\u0434\u0431\u0430\u0442\u0438 \u043f\u043e\u0442\u0440\u0456\u0431\u043d\u0456 \u043b\u0456\u043a\u0438, \u043a\u043e\u0441\u043c\u0435\u0442\u0438\u043a\u0443 \u0442\u0430 \u0456\u043d\u0448\u0456 \u043c\u0435\u0434\u0437\u0430\u0441\u043e\u0431\u0438.", "name": "\u0410\u043f\u0442\u0435\u043a\u0430 \u041f\u043e\u0434\u043e\u0440\u043e\u0436\u043d\u0438\u043a", "name:uk": "\u0410\u043f\u0442\u0435\u043a\u0430 \u041f\u043e\u0434\u043e\u0440\u043e\u0436\u043d\u0438\u043a", "opening_hours": "Mo-Fr 10:00-18:00; Sa 10:00-15:00", "website": "https://podorozhnyk.com"}}, {"type": "node", "id": 10881076907, "lat": 49.5711679, "lon": 22.7845574, "tags": {"addr:city": "\u0414\u043e\u0431\u0440\u043e\u043c\u0438\u043b\u044c", "addr:postcode": "82042", "addr:street": "\u0414\u043e\u0431\u0440\u043e\u043c\u0438\u043b\u044c, \u043f\u043b\u043e\u0449\u0430 \u0420\u0438\u043d\u043e\u043a, 19", "amenity": "pharmacy", "contact:phone": "+380800303111", "description": "\u041f\u043e\u0434\u043e\u0440\u043e\u0436\u043d\u0438\u043a \u2013 \u043d\u0430\u0439\u0431\u0456\u043b\u044c\u0448\u0430 \u043c\u0435\u0440\u0435\u0436\u0430 \u0430\u043f\u0442\u0435\u043a \u0423\u043a\u0440\u0430\u0457\u043d\u0438. \u0410\u0441\u043e\u0440\u0442\u0438\u043c\u0435\u043d\u0442 \u043d\u0430\u043b\u0456\u0447\u0443\u0454 \u043f\u043e\u043d\u0430\u0434 20 000 \u0442\u043e\u0432\u0430\u0440\u0456\u0432. \u0423 \u0430\u043f\u0442\u0435\u0446\u0456 \u0432\u0438 \u043c\u043e\u0436\u0435\u0442\u0435 \u043f\u0440\u0438\u0434\u0431\u0430\u0442\u0438 \u043f\u043e\u0442\u0440\u0456\u0431\u043d\u0456 \u043b\u0456\u043a\u0438, \u043a\u043e\u0441\u043c\u0435\u0442\u0438\u043a\u0443 \u0442\u0430 \u0456\u043d\u0448\u0456 \u043c\u0435\u0434\u0437\u0430\u0441\u043e\u0431\u0438.", "name": "\u0410\u043f\u0442\u0435\u043a\u0430 \u041f\u043e\u0434\u043e\u0440\u043e\u0436\u043d\u0438\u043a", "name:uk": "\u0410\u043f\u0442\u0435\u043a\u0430 \u041f\u043e\u0434\u043e\u0440\u043e\u0436\u043d\u0438\u043a", "opening_hours": "Mo-Fr 10:00-18:00; Sa 10:00-15:00", "website": "https://podorozhnyk.com"}}, {"type": "node", "id": 10886248005, "lat": 49.3353729, "lon": 22.990822, "tags": {"addr:city": "\u0421\u0442\u0440\u0456\u043b\u043a\u0438", "addr:street": "\u0421\u0442\u0440\u0456\u043b\u043a\u0438, \u0432\u0443\u043b\u0438\u0446\u044f \u0410\u0440\u0445\u0456\u0442\u0435\u043a\u0442\u043e\u0440\u0430 \u0412\u0435\u0440\u0431\u0438\u0446\u044c\u043a\u043e\u0433\u043e, 1", "amenity": "pharmacy", "contact:phone": "+380800303111", "description": "\u041f\u043e\u0434\u043e\u0440\u043e\u0436\u043d\u0438\u043a \u2013 \u043d\u0430\u0439\u0431\u0456\u043b\u044c\u0448\u0430 \u043c\u0435\u0440\u0435\u0436\u0430 \u0430\u043f\u0442\u0435\u043a \u0423\u043a\u0440\u0430\u0457\u043d\u0438. \u0410\u0441\u043e\u0440\u0442\u0438\u043c\u0435\u043d\u0442 \u043d\u0430\u043b\u0456\u0447\u0443\u0454 \u043f\u043e\u043d\u0430\u0434 20 000 \u0442\u043e\u0432\u0430\u0440\u0456\u0432. \u0423 \u0430\u043f\u0442\u0435\u0446\u0456 \u0432\u0438 \u043c\u043e\u0436\u0435\u0442\u0435 \u043f\u0440\u0438\u0434\u0431\u0430\u0442\u0438 \u043f\u043e\u0442\u0440\u0456\u0431\u043d\u0456 \u043b\u0456\u043a\u0438, \u043a\u043e\u0441\u043c\u0435\u0442\u0438\u043a\u0443 \u0442\u0430 \u0456\u043d\u0448\u0456 \u043c\u0435\u0434\u0437\u0430\u0441\u043e\u0431\u0438.", "name": "\u0410\u043f\u0442\u0435\u043a\u0430 \u041f\u043e\u0434\u043e\u0440\u043e\u0436\u043d\u0438\u043a", "name:uk": "\u0410\u043f\u0442\u0435\u043a\u0430 \u041f\u043e\u0434\u043e\u0440\u043e\u0436\u043d\u0438\u043a", "opening_hours": "Mo-Fr 10:00-18:00; Sa 10:00-15:00", "website": "https://podorozhnyk.com"}}, {"type": "node", "id": 11032123223, "lat": 49.4372088, "lon": 22.9992282, "tags": {"addr:housenumber": "55", "addr:postcode": "82000", "addr:street": "\u0432\u0443\u043b\u0438\u0446\u044f \u041b\u0435\u0432\u0430 \u0413\u0430\u043b\u0438\u0446\u044c\u043a\u043e\u0433\u043e", "amenity": "pharmacy", "healthcare": "pharmacy", "name": "\u0410\u043f\u0442\u0435\u043a\u0430 \u041f\u043e\u0434\u043e\u0440\u043e\u0436\u043d\u0438\u043a", "name:uk": "\u0410\u043f\u0442\u0435\u043a\u0430 \u041f\u043e\u0434\u043e\u0440\u043e\u0436\u043d\u0438\u043a", "opening_hours": "Mo-Sa 08:00-20:00; Su 09:00-19:00", "website": "https://podorozhnyk.com"}}, {"type": "node", "id": 12095840744, "lat": 49.4349436, "lon": 22.603654, "tags": {"amenity": "pharmacy", "email": "apteka@spzoz-ustrzyki.pl", "name": "SP ZOZ Ustrzyki", "opening_hours": "Mo-Fr 08:00-15:30; Sa-Su off", "phone": "+48 13 476 91 24", "ref": "1125400"}}]}