{"version": 0.6, "generator": "Overpass API 0.7.62.8 e802775f", "osm3s": {"timestamp_osm_base": "2025-10-06T07:48:26Z", "copyright": "The data included in this document is from www.openstreetmap.org. The data is made available under ODbL."}, "elements": [{"type": "node", "id": 427621908, "lat": 42.4461105, "lon": 19.2435397, "tags": {"amenity": "pharmacy", "healthcare": "pharmacy"}}, {"type": "node", "id": 1973623605, "lat": 42.4441054, "lon": 19.2529493, "tags": {"amenity": "pharmacy", "healthcare": "pharmacy", "name:en": "Benu Apoteka"}}, {"type": "node", "id": 2234852241, "lat": 42.4412203, "lon": 19.2513893, "tags": {"amenity": "pharmacy", "healthcare": "pharmacy", "name": "Apoteka \"Petanovi\u0107\""}}, {"type": "node", "id": 2270743857, "lat": 42.4434001, "lon": 19.2488327, "tags": {"addr:housenumber": "22", "addr:street": "Moskovska", "amenity": "pharmacy", "check_date": "2023-10-31", "healthcare": "pharmacy", "name": "Benu Apoteka", "opening_hours": "24/7", "phone": "067202984", "website": "www.benuapoteka.me", "wheelchair": "limited"}}, {"type": "node", "id": 2270744090, "lat": 42.4415982, "lon": 19.2473095, "tags": {"amenity": "pharmacy", "healthcare": "pharmacy", "name": "Sv. Vra\u0107i"}}, {"type": "node", "id": 2430531052, "lat": 42.4353109, "lon": 19.2766126, "tags": {"amenity": "pharmacy", "healthcare": "pharmacy", "name": "Holos"}}, {"type": "node", "id": 2878357638, "lat": 42.4286836, "lon": 19.255001, "tags": {"addr:city": "Podgorica", "addr:street": "Radosava Buri\u0107a", "amenity": "pharmacy", "healthcare": "pharmacy"}}, {"type": "node", "id": 2878357639, "lat": 42.435204, "lon": 19.2605311, "tags": {"amenity": "pharmacy", "healthcare": "pharmacy"}}, {"type": "node", "id": 4318304590, "lat": 42.4345244, "lon": 19.2773658, "tags": {"amenity": "pharmacy", "healthcare": "pharmacy", "name": "Meditas"}}, {"type": "node", "id": 4344444932, "lat": 42.4365092, "lon": 19.26117, "tags": {"amenity": "pharmacy", "healthcare": "pharmacy", "name": "Petanovi\u0107", "name:sr": "\u041f\u0435\u0442\u0430\u043d\u043e\u0432\u0438\u045b"}}, {"type": "node", "id": 4378782589, "lat": 42.4421017, "lon": 19.2501164, "tags": {"amenity": "pharmacy", "healthcare": "pharmacy", "name:en": "Medeonfarm"}}, {"type": "node", "id": 4398175789, "lat": 42.4405309, "lon": 19.2638046, "tags": {"amenity": "pharmacy", "healthcare": "pharmacy", "name": "Lijek"}}, {"type": "node", "id": 4400732592, "lat": 42.4339064, "lon": 19.2667218, "tags": {"amenity": "pharmacy", "check_date": "2025-06-11", "healthcare": "pharmacy", "name": "Tea Medica", "opening_hours": "Mo - Su 08:00-21:00"}}, {"type": "node", "id": 4400738289, "lat": 42.4324913, "lon": 19.2680234, "tags": {"amenity": "pharmacy", "healthcare": "pharmacy", "name": "Pharmalife", "opening_hours": "Mo-Sa 08:00-21:00"}}, {"type": "node", "id": 4545199789, "lat": 42.4306208, "lon": 19.2792361, "tags": {"addr:city": "Podgorica", "addr:housenumber": "31", "addr:postcode": "81000", "addr:street": "Cvijetna", "amenity": "pharmacy", "healthcare": "pharmacy", "name": "Apoteka Benu", "operator": "Benu"}}, {"type": "node", "id": 4854020723, "lat": 42.4228602, "lon": 19.249394, "tags": {"addr:city": "Podgorica", "addr:housenumber": "34", "addr:street": "Jerevanska", "amenity": "pharmacy", "drive_through": "no", "name": "Meditas", "name:en": "Meditas", "opening_hours": "Mo-Sa 07:00-21:00; Su 08:00-14:00", "phone": "+382 20 642 013"}}, {"type": "node", "id": 4966272708, "lat": 42.4406028, "lon": 19.269711, "tags": {"amenity": "pharmacy", "healthcare": "pharmacy", "name": "Tea Medica 19"}}, {"type": "node", "id": 4966272709, "lat": 42.4400048, "lon": 19.2662081, "tags": {"amenity": "pharmacy", "healthcare": "pharmacy"}}, {"type": "node", "id": 5003817324, "lat": 42.3652951, "lon": 19.3297003, "tags": {"amenity": "pharmacy", "healthcare": "pharmacy"}}, {"type": "node", "id": 5461933491, "lat": 42.4524346, "lon": 19.2244243, "tags": {"addr:city": "Podgorica", "addr:housenumber": "34", "addr:postcode": "81000", "addr:street": "Ivangradska", "amenity": "pharmacy", "dispensing": "yes", "healthcare": "pharmacy", "name": "Apoteka Montefarm"}}, {"type": "node", "id": 5462609109, "lat": 42.4489464, "lon": 19.2377998, "tags": {"addr:street": "\u0110oka Mira\u0161evi\u0107a", "amenity": "pharmacy", "brand": "Benu", "brand:wikidata": "Q62562792", "contact:email": "pgblok6@benuapoteka.me", "dispensing": "yes", "healthcare": "pharmacy", "name": "Benu", "opening_hours": "Mo-Sa 08:00-22:00; Su 08:00-20:00", "phone": "067203069"}}, {"type": "node", "id": 5462619846, "lat": 42.4512629, "lon": 19.2340219, "tags": {"addr:city": "Podgorica", "addr:street": "Jelene \u0106etkovi\u0107", "amenity": "pharmacy", "check_date": "2025-08-18", "dispensing": "yes", "healthcare": "pharmacy", "name": "Apoteka Help", "opening_hours": "Mo-Fr 08:00-21:00; Sa 08:30-21:00"}}, {"type": "node", "id": 5552382277, "lat": 42.4382478, "lon": 19.2461002, "tags": {"amenity": "pharmacy", "dispensing": "yes", "healthcare": "pharmacy"}}, {"type": "node", "id": 5778032067, "lat": 42.4261567, "lon": 19.222834, "tags": {"amenity": "pharmacy"}}, {"type": "node", "id": 6311120385, "lat": 42.4443961, "lon": 19.2530926, "tags": {"amenity": "pharmacy", "healthcare": "pharmacy", "name:en": "Tea Medica"}}, {"type": "node", "id": 6311138985, "lat": 42.44329, "lon": 19.2522308, "tags": {"amenity": "pharmacy", "healthcare": "pharmacy", "name:en": "Apoteka Meditas"}}, {"type": "node", "id": 6815368389, "lat": 42.4617791, "lon": 19.2939869, "tags": {"amenity": "pharmacy", "name": "Help", "opening_hours": "Mo-Fr 07:00-21:00; Sa 08:00-21:00"}}, {"type": "node", "id": 7619791105, "lat": 42.4506769, "lon": 19.2358916, "tags": {"addr:street": "Sava \u010celebi\u0107a", "amenity": "pharmacy", "dispensing": "yes", "healthcare": "pharmacy", "name": "Apoteka Zdravlje"}}, {"type": "node", "id": 9051380236, "lat": 42.4481771, "lon": 19.2888093, "tags": {"amenity": "pharmacy", "healthcare": "pharmacy", "name": "Maxima"}}, {"type": "node", "id": 9054348478, "lat": 42.4348638, "lon": 19.2793194, "tags": {"amenity": "pharmacy", "healthcare": "pharmacy"}}, {"type": "node", "id": 9164464917, "lat": 42.4424687, "lon": 19.2449222, "tags": {"amenity": "pharmacy", "name": "Apoteka Maxima", "opening_hours": "Mo-Su 09:00-21:00"}}, {"type": "node", "id": 9177510617, "lat": 42.4324183, "lon": 19.2670605, "tags": {"amenity": "pharmacy", "name:en": "Benu"}}, {"type": "node", "id": 9591965607, "lat": 42.4311836, "lon": 19.2619276, "tags": {"addr:housenumber": "159", "addr:street": "Bulevar Save Kova\u010devi\u0107a", "amenity": "pharmacy", "name": "Benu", "opening_hours": "Mo-Sa 07:00-21:00; Su 08:00-20:00"}}, {"type": "node", "id": 10067571134, "lat": 42.452248, "lon": 19.2345821, "tags": {"addr:city": "Podgorica", "addr:housenumber": "50", "addr:street": "Vlada \u0106etkovi\u0107a", "amenity": "pharmacy", "dispensing": "yes", "healthcare": "pharmacy", "name": "Lara Pharm", "opening_hours": "Mo-Sa 08:00-22:00; Su 08:00-21:00"}}, {"type": "node", "id": 10140041218, "lat": 42.4447243, "lon": 19.2509646, "tags": {"amenity": "pharmacy", "name:en": "Apoteka"}}, {"type": "node", "id": 10171335464, "lat": 42.4540974, "lon": 19.2854929, "tags": {"amenity": "pharmacy", "healthcare": "pharmacy", "name": "Tea Medica"}}, {"type": "node", "id": 10204323562, "lat": 42.4401895, "lon": 19.2470113, "tags": {"amenity": "pharmacy", "healthcare": "pharmacy", "name": "Tea Medica"}}, {"type": "node", "id": 10600952297, "lat": 42.425356, "lon": 19.263306, "tags": {"amenity": "pharmacy", "healthcare": "pharmacy", "name": "Apoteka Help"}}, {"type": "node", "id": 10921804805, "lat": 42.4477887, "lon": 19.2571011, "tags": {"amenity": "pharmacy"}}, {"type": "node", "id": 10974284969, "lat": 42.4219936, "lon": 19.2542906, "tags": {"amenity": "pharmacy", "check_date": "2023-06-13", "healthcare": "pharmacy", "level": "0", "payment:mastercard": "yes", "payment:visa": "yes"}}, {"type": "node", "id": 11013636036, "lat": 42.4388991, "lon": 19.2344211, "tags": {"addr:housenumber": "13", "addr:street": "Radoja Daki\u0107a", "amenity": "pharmacy", "name": "Holos Apoteka", "opening_hours": "Mo-Su 08:00-00:00", "phone": "020450503", "website": "https://www.holos.me/"}}, {"type": "node", "id": 11040432970, "lat": 42.4392715, "lon": 19.2366668, "tags": {"addr:housenumber": "5", "addr:street": "Studentska", "amenity": "pharmacy", "check_date:opening_hours": "2024-12-22", "name": "Apoteka Help", "opening_hours": "Mo-Sa 08:00-22:00"}}, {"type": "node", "id": 11174928438, "lat": 42.4412949, "lon": 19.264493, "tags": {"amenity": "pharmacy"}}, {"type": "node", "id": 11371102438, "lat": 42.4397621, "lon": 19.2336739, "tags": {"amenity": "pharmacy", "contact:email": "teamedica45@teamedica.co.me", "name": "Tea Medica", "opening_hours": "Mo-Su 08:00-22:00", "phone": "+38220256289"}}, {"type": "node", "id": 11371371679, "lat": 42.4400477, "lon": 19.2361065, "tags": {"addr:housenumber": "21/A", "addr:street": "Studentska", "amenity": "pharmacy", "name": "Cali Pharm", "opening_hours": "Mo-Sa 07:30-21:30"}}, {"type": "node", "id": 11513470550, "lat": 42.4380909, "lon": 19.2261905, "tags": {"addr:city": "Podgorica", "addr:postcode": "81000", "addr:street": "Branka Deleti\u0107a", "amenity": "pharmacy", "branch": "apoteka Franca", "brand": "Benu", "brand:wikidata": "Q62562792", "healthcare": "pharmacy", "name": "Benu", "opening_hours": "Mo-Sa 08:00-22:00", "operator": "Benu apoteke"}}, {"type": "node", "id": 11684519755, "lat": 42.4402285, "lon": 19.2378025, "tags": {"amenity": "pharmacy", "name": "Apoteka Maxima", "opening_hours": "Mo-Sa 08:00-21:00"}}, {"type": "node", "id": 12155853560, "lat": 42.4382063, "lon": 19.2321388, "tags": {"amenity": "pharmacy", "check_date": "2024-09-04", "drive_through": "no", "healthcare": "pharmacy", "level": "0", "name": "Tea Media 9", "name:en": "Tea Media 9", "opening_hours": "Mo-Sa 08:00-21:30; Su off", "payment:cash": "yes", "payment:credit_cards": "yes", "payment:debit_cards": "yes", "wheelchair": "yes"}}, {"type": "node", "id": 12321180925, "lat": 42.4373765, "lon": 19.2824761, "tags": {"amenity": "pharmacy", "healthcare": "pharmacy", "name": "Help", "opening_hours": "Mo-Fr 07:00-20:00; Sa 08:00-20:00"}}, {"type": "node", "id": 12657967924, "lat": 42.4537476, "lon": 19.2367943, "tags": {"amenity": "pharmacy", "healthcare": "pharmacy", "name": "Julija 2", "opening_hours": "Mo-Sa 08:00-21:00"}}, {"type": "node", "id": 12761798001, "lat": 42.4556284, "lon": 19.2655508, "tags": {"addr:housenumber": "6/5", "addr:street": "Nikole Tesle", "amenity": "pharmacy", "name": "Luki\u0107", "opening_hours": "Mo-Sa 07:30-21:30"}}, {"type": "node", "id": 12761798401, "lat": 42.4551135, "lon": 19.2637895, "tags": {"addr:housenumber": "7/6", "addr:street": "II Crnogorskog bataljona", "amenity": "pharmacy", "name": "Salvia", "opening_hours": "Mo-Fr 07:00-20:00; Sa 07:00-20:00"}}, {"type": "node", "id": 13038137701, "lat": 42.4472488, "lon": 19.250048, "tags": {"amenity": "pharmacy", "name": "Apoteka 36.6"}}, {"type": "node", "id": 13038137901, "lat": 42.4440285, "lon": 19.2489997, "tags": {"addr:housenumber": "44", "addr:street": "Moskovska", "amenity": "pharmacy"}}, {"type": "node", "id": 13038138001, "lat": 42.4445314, "lon": 19.2488878, "tags": {"amenity": "pharmacy", "name": "Holos"}}, {"type": "node", "id": 13138002080, "lat": 42.4510494, "lon": 19.236874, "tags": {"addr:city": "Podgorica", "addr:country": "ME", "addr:postcode": "81000", "addr:street": "\u0110oka Mira\u0161evi\u0107a", "amenity": "pharmacy", "brand": "Montefarm", "brand:en": "Montefarm", "dispensing": "yes", "healthcare": "pharmacy", "name": "Montefarm Momi\u0161i\u0107i", "name:sr": "\u041c\u043e\u043d\u0442\u0435\u0444\u0430\u0440\u043c \u041c\u043e\u043c\u0438\u0448\u0438\u045b\u0438", "network": "Montefarm", "opening_hours": "Mo-Sa 07:00-20:00; Sa 07:00-15:00", "operator": "Zdravstvena ustanova Apoteke Crne Gore Montefarm", "payment:cash": "yes", "payment:credit_cards": "yes", "phone": "+382 67 148 343", "website": "https://montefarm.co.me"}}]}