{"version": 0.6, "generator": "Overpass API 0.7.62.8 e802775f", "osm3s": {"timestamp_osm_base": "2025-10-06T08:50:33Z", "copyright": "The data included in this document is from www.openstreetmap.org. The data is made available under ODbL."}, "elements": [{"type": "node", "id": 512541949, "lat": 55.9124706, "lon": 21.0632693, "tags": {"addr:city": "Palanga", "addr:contact": "yes", "addr:housenumber": "33", "addr:postcode": "00135", "addr:street": "Vytauto g.", "amenity": "pharmacy", "brand": "Gintarin\u0117 vaistin\u0117", "brand:wikidata": "Q15857801", "healthcare": "pharmacy", "name": "Gintarin\u0117 vaistin\u0117", "opening_hours": "Mo-Sa 09:00-21:00; Su 09:00-18:00", "wheelchair": "yes", "wheelchair:description": "Es gibt eine steile Rampe. Um in das Geb\u00e4ude zu gelangen, muss eine helfende Hand die zweite Fl\u00fcgelt\u00fcr \u00f6ffen."}}, {"type": "node", "id": 972715077, "lat": 55.8941639, "lon": 21.2614757, "tags": {"addr:city": "Kretinga", "addr:contact": "yes", "addr:housenumber": "29", "addr:street": "\u017demait\u0117s al.", "amenity": "pharmacy", "brand": "Eurovaistin\u0117", "brand:wikidata": "Q267205", "dispensing": "no", "healthcare": "pharmacy", "name": "Eurovaistin\u0117", "wheelchair": "yes"}}, {"type": "node", "id": 1168357906, "lat": 55.6978655, "lon": 21.1474033, "tags": {"addr:city": "Klaip\u0117da", "addr:contact": "yes", "addr:housenumber": "28", "addr:street": "Taikos pr.", "amenity": "pharmacy", "check_date": "2024-05-25", "name": "Gintarin\u0117 vaistin\u0117"}}, {"type": "node", "id": 1384170514, "lat": 55.9188563, "lon": 21.0667816, "tags": {"amenity": "pharmacy", "brand": "Eurovaistin\u0117", "brand:wikidata": "Q267205", "check_date": "2024-06-23", "healthcare": "pharmacy", "name": "Eurovaistin\u0117", "opening_hours": "Mo-Sa 08:00-22:00; Su 08:00-21:00", "website": "https://www.eurovaistine.lt", "wheelchair": "yes"}}, {"type": "node", "id": 1384277335, "lat": 55.9157666, "lon": 21.07033, "tags": {"addr:city": "Palanga", "addr:contact": "yes", "addr:housenumber": "9", "addr:postcode": "00132", "addr:street": "Plyt\u0173 g.", "amenity": "pharmacy", "brand": "Camelia", "brand:wikidata": "Q15867413", "healthcare": "pharmacy", "name": "Camelia", "opening_hours": "Mo-Fr 08:00-20:00; Sa 09:00-20:00; Su 09:00-18:00"}}, {"type": "node", "id": 1388569779, "lat": 55.91865, "lon": 21.0683142, "tags": {"amenity": "pharmacy", "brand": "Camelia", "brand:wikidata": "Q15867413", "healthcare": "pharmacy", "name": "Camelia"}}, {"type": "node", "id": 1831831799, "lat": 55.8952819, "lon": 21.2531334}, {"type": "node", "id": 1831831867, "lat": 55.8954357, "lon": 21.253069}, {"type": "node", "id": 1831831872, "lat": 55.8954123, "lon": 21.2532048}, {"type": "node", "id": 1831831878, "lat": 55.8953053, "lon": 21.2529976}, {"type": "node", "id": 2291068411, "lat": 55.7281708, "lon": 21.1242473, "tags": {"addr:city": "Klaip\u0117da", "addr:contact": "yes", "addr:housenumber": "90", "addr:street": "H. Manto g.", "amenity": "pharmacy", "brand": "Gintarin\u0117 vaistin\u0117", "brand:wikidata": "Q15857801", "brand:wikipedia": "lt:Gintarin\u0117 vaistin\u0117", "healthcare": "pharmacy", "name": "Gintarin\u0117 vaistin\u0117", "opening_hours": "Mo-Fr 09:00-20:00; Sa 10:00-18:00; Su 10:00-16:00", "website": "https://www.gintarine.lt/"}}, {"type": "node", "id": 4213000891, "lat": 55.7518602, "lon": 21.1301487, "tags": {"addr:city": "Klaip\u0117da", "addr:contact": "yes", "addr:housenumber": "27", "addr:street": "Liepojos g.", "amenity": "pharmacy", "brand": "Gintarin\u0117 vaistin\u0117", "brand:wikidata": "Q15857801", "healthcare": "pharmacy", "name": "Gintarin\u0117 vaistin\u0117", "opening_hours": "24/7"}}, {"type": "node", "id": 4214535991, "lat": 55.9206109, "lon": 21.078389, "tags": {"amenity": "pharmacy", "brand": "Gintarin\u0117 vaistin\u0117", "brand:wikidata": "Q15857801", "healthcare": "pharmacy", "name": "Gintarin\u0117 vaistin\u0117"}}, {"type": "node", "id": 4362709695, "lat": 55.7324338, "lon": 21.1276124, "tags": {"addr:city": "Klaip\u0117da", "addr:contact": "yes", "addr:housenumber": "12", "addr:postcode": "92296", "addr:street": "Liepojos g.", "amenity": "pharmacy", "name": "Camelia"}}, {"type": "node", "id": 4362719394, "lat": 55.7339368, "lon": 21.1319157, "tags": {"amenity": "pharmacy", "name": "Gintarin\u0117 vaistin\u0117"}}, {"type": "node", "id": 4362719396, "lat": 55.7274181, "lon": 21.1414122, "tags": {"amenity": "pharmacy", "name": "Camelia", "name:en": "Camelia", "name:lt": "Camelia"}}, {"type": "node", "id": 4362809293, "lat": 55.7216391, "lon": 21.116722, "tags": {"amenity": "pharmacy", "name": "Sportinink\u0173 vaistin\u0117", "opening_hours": "Mo-Fr 08:00-20:00, 09:00-18:00; Sa, Su 10:00-17:00"}}, {"type": "node", "id": 4373609864, "lat": 55.6797662, "lon": 21.1643604, "tags": {"amenity": "pharmacy", "name": "Apotheca"}}, {"type": "node", "id": 4374047285, "lat": 55.6780059, "lon": 21.1529824, "tags": {"addr:city": "Klaip\u0117da", "addr:housenumber": "14", "addr:postcode": "93189", "addr:street": "Naikup\u0117s g.", "amenity": "pharmacy", "name": "\u017dvej\u0173 vaistin\u0117", "opening_hours": "Mo-Sa 08:00-19:00", "phone": "+370 46 346102"}}, {"type": "node", "id": 4374059584, "lat": 55.6784806, "lon": 21.1552112, "tags": {"amenity": "pharmacy", "brand": "Eurovaistin\u0117", "brand:wikidata": "Q267205", "brand:wikipedia": "en:Euroapotheca", "dispensing": "yes", "healthcare": "pharmacy", "name": "Eurovaistin\u0117"}}, {"type": "node", "id": 4374066651, "lat": 55.6786017, "lon": 21.1565766, "tags": {"addr:city": "Klaip\u0117da", "addr:contact": "yes", "addr:housenumber": "5", "addr:street": "Nidos g.", "amenity": "pharmacy", "name": "Camelia"}}, {"type": "node", "id": 4374164285, "lat": 55.6833925, "lon": 21.1546079, "tags": {"addr:city": "Klaip\u0117da", "addr:contact": "yes", "addr:housenumber": "3A", "addr:postcode": "93220", "addr:street": "Nidos g.", "amenity": "pharmacy", "contact:facebook": "https://www.facebook.com/BENUvaistine", "contact:instagram": "https://www.instagram.com/benu_vaistine/", "email": "benu.7205@benu.lt", "name": "Benu", "opening_hours": "Mo-Fr 09:00-18:00", "operator": "BENU Vaistin\u0117 UAB", "phone": "+370 698 33520", "website": "https://www.benu.lt"}}, {"type": "node", "id": 4377378902, "lat": 55.6869706, "lon": 21.1560652, "tags": {"addr:city": "Klaip\u0117da", "addr:contact": "yes", "addr:housenumber": "64", "addr:postcode": "93226", "addr:street": "Taikos pr.", "amenity": "pharmacy", "check_date": "2023-08-10", "contact:facebook": "https://www.facebook.com/BENUvaistine", "contact:instagram": "https://www.instagram.com/benu_vaistine/", "email": "benu.7238@benu.lt", "name": "Benu", "opening_hours": "Mo-Su 09:00-20:00", "operator": "BENU Vaistin\u0117 UAB", "phone": "+370 687 59978", "website": "https://www.benu.lt"}}, {"type": "node", "id": 4816102622, "lat": 55.7319222, "lon": 21.1269517, "tags": {"amenity": "pharmacy", "name": "Eurovaistin\u0117", "name:lt": "Eurovaistin\u0117"}}, {"type": "node", "id": 4941864687, "lat": 55.7143612, "lon": 21.1315455, "tags": {"addr:city": "Klaip\u0117da", "addr:contact": "yes", "addr:housenumber": "7", "addr:street": "M. Ma\u017evydo al.", "amenity": "pharmacy", "brand": "Camelia", "brand:wikidata": "Q15867413", "brand:wikipedia": "lt:Nemuno vaistin\u0117", "healthcare": "pharmacy", "level": "0", "name": "Camelia"}}, {"type": "node", "id": 5763981780, "lat": 55.6928562, "lon": 21.1542678, "tags": {"amenity": "pharmacy", "dispensing": "yes", "healthcare": "pharmacy", "name": "Eurovaistin\u0117", "opening_hours": "Mo-Su 08:00-22:00"}}, {"type": "node", "id": 5764357464, "lat": 55.691699, "lon": 21.1811462, "tags": {"addr:city": "Klaip\u0117da", "addr:contact": "yes", "addr:housenumber": "35", "addr:postcode": "94105", "addr:street": "\u0160ilut\u0117s pl.", "amenity": "pharmacy", "brand": "Eurovaistin\u0117", "brand:wikidata": "Q267205", "brand:wikipedia": "en:Euroapotheca", "dispensing": "yes", "healthcare": "pharmacy", "name": "Eurovaistin\u0117", "opening_hours": "Mo-Fr 08:00-21:00; Sa 09:00-21:00; Su 10:00-20:00"}}, {"type": "node", "id": 5764410457, "lat": 55.6846274, "lon": 21.1597405, "tags": {"addr:city": "Klaip\u0117da", "addr:contact": "yes", "addr:housenumber": "66A", "addr:street": "Taikos pr.", "amenity": "pharmacy", "dispensing": "yes", "healthcare": "pharmacy", "name": "Norfos vaistin\u0117"}}, {"type": "node", "id": 5781782672, "lat": 55.719784, "lon": 21.1380484, "tags": {"addr:city": "Klaip\u0117da", "addr:contact": "yes", "addr:housenumber": "9", "addr:street": "Butk\u0173 Juz\u0117s g.", "amenity": "pharmacy", "brand": "Camelia", "brand:wikidata": "Q15867413", "brand:wikipedia": "lt:Nemuno vaistin\u0117", "dispensing": "yes", "healthcare": "pharmacy", "name": "Camelia"}}, {"type": "node", "id": 5789802884, "lat": 55.698676, "lon": 21.149346, "tags": {"addr:city": "Klaip\u0117da", "addr:contact": "yes", "addr:housenumber": "2A", "addr:street": "Pary\u017eiaus Komunos g.", "amenity": "pharmacy", "dispensing": "yes", "healthcare": "pharmacy", "name": "Camelia"}}, {"type": "node", "id": 5846433644, "lat": 55.7071908, "lon": 21.1386259, "tags": {"addr:city": "Klaip\u0117da", "addr:contact": "yes", "addr:housenumber": "29", "addr:postcode": "91249", "addr:street": "Tilt\u0173 g.", "amenity": "pharmacy", "check_date": "2024-05-25", "dispensing": "yes", "healthcare": "pharmacy", "name": "Camelia", "opening_hours": "Mo-Fr 08:00-18:00; Sa 09:00-14:30", "phone": "+370 46 214767", "website": "https://www.camelia.lt/"}}, {"type": "node", "id": 7755780556, "lat": 55.752533, "lon": 21.175352, "tags": {"addr:city": "Slengiai", "addr:contact": "yes", "addr:housenumber": "1", "addr:postcode": "92338", "addr:street": "\u017daliakelio g.", "amenity": "pharmacy", "contact:facebook": "https://www.facebook.com/BENUvaistine", "contact:instagram": "https://www.instagram.com/benu_vaistine/", "email": "benu.7293@benu.lt", "name": "Benu", "opening_hours": "Mo-Fr 09:00-20:00; Su 10:00-16:00; Sa 10:00-16:00", "operator": "BENU Vaistin\u0117 UAB", "phone": "+370 686 04001", "website": "https://www.benu.lt", "wheelchair": "yes"}}, {"type": "node", "id": 7755780566, "lat": 55.750789, "lon": 21.130107, "tags": {"addr:city": "Klaip\u0117da", "addr:contact": "yes", "addr:housenumber": "2", "addr:postcode": "92331", "addr:street": "Drag\u016bn\u0173 g.", "amenity": "pharmacy", "contact:facebook": "https://www.facebook.com/BENUvaistine", "contact:instagram": "https://www.instagram.com/benu_vaistine/", "email": "benu.7273@benu.lt", "name": "Benu", "opening_hours": "Mo-Fr 09:00-17:30", "operator": "BENU Vaistin\u0117 UAB", "phone": "+370 687 60244", "website": "https://www.benu.lt/"}}, {"type": "node", "id": 7755780567, "lat": 55.736744, "lon": 21.1916238, "tags": {"addr:city": "Slengiai", "addr:contact": "yes", "addr:housenumber": "34", "addr:postcode": "92343", "addr:street": "Dangaus g.", "amenity": "pharmacy", "contact:facebook": "https://www.facebook.com/BENUvaistine", "contact:instagram": "https://www.instagram.com/benu_vaistine/", "email": "benu.7272@benu.lt", "name": "Benu", "opening_hours": "Mo-Fr 09:00-20:00; Sa 10:00-17:00; Su 10:00-16:00", "operator": "BENU Vaistin\u0117 UAB", "phone": "+370 662 09923", "website": "https://www.benu.lt"}}, {"type": "node", "id": 8569929368, "lat": 55.7052325, "lon": 21.1423795, "tags": {"amenity": "pharmacy", "brand": "Camelia", "brand:wikidata": "Q15867413", "brand:wikipedia": "lt:Nemuno vaistin\u0117", "check_date": "2024-05-25", "dispensing": "yes", "healthcare": "pharmacy", "name": "Camelia"}}, {"type": "node", "id": 8603473873, "lat": 55.6791969, "lon": 21.1676022, "tags": {"amenity": "pharmacy", "brand": "Eurovaistin\u0117", "brand:wikidata": "Q267205", "brand:wikipedia": "en:Euroapotheca", "dispensing": "yes", "healthcare": "pharmacy", "name": "Eurovaistin\u0117"}}, {"type": "node", "id": 8603473875, "lat": 55.6789778, "lon": 21.1682691, "tags": {"amenity": "pharmacy", "brand": "Camelia", "brand:wikidata": "Q15867413", "brand:wikipedia": "lt:Nemuno vaistin\u0117", "dispensing": "yes", "healthcare": "pharmacy", "name": "Camelia"}}, {"type": "node", "id": 8603473878, "lat": 55.6789702, "lon": 21.1665626, "tags": {"amenity": "pharmacy", "brand": "Gintarin\u0117 vaistin\u0117", "brand:wikidata": "Q15857801", "brand:wikipedia": "lt:Gintarin\u0117 vaistin\u0117", "dispensing": "yes", "healthcare": "pharmacy", "name": "Gintarin\u0117 vaistin\u0117"}}, {"type": "node", "id": 9088049117, "lat": 55.8947055, "lon": 21.2345204, "tags": {"amenity": "pharmacy", "name": "Camelia vaistin\u0117"}}, {"type": "node", "id": 11470772752, "lat": 55.8957842, "lon": 21.2375224, "tags": {"amenity": "pharmacy", "name": "Gintarin\u0117", "opening_hours": "Mo-Fr 09:00-19:00; Sa 09:00-17:00"}}, {"type": "node", "id": 11574033204, "lat": 56.1661554, "lon": 21.5773215, "tags": {"addr:city": "Mos\u0117dis", "addr:housenumber": "2", "addr:street": "\u0160a\u010di\u0173 g.", "amenity": "pharmacy", "brand": "Camelia", "drive_through": "no", "healthcare": "pharmacy", "name": "Camelia", "not:brand:wikidata": "Q15867413", "opening_hours": "Mo-Fr 08:30-16:30", "phone": "+37069401187", "website": "https://camelia.lt/"}}, {"type": "node", "id": 13186238026, "lat": 55.7039441, "lon": 21.1425896, "tags": {"amenity": "pharmacy", "name": "Euro Vaistin\u0117"}}, {"type": "way", "id": 172260639, "nodes": [1831831867, 1831831872, 1831831799, 1831831878, 1831831867], "tags": {"amenity": "pharmacy", "building": "yes"}}]}