{"version": 0.6, "generator": "Overpass API 0.7.62.8 e802775f", "osm3s": {"timestamp_osm_base": "2025-10-06T07:34:09Z", "copyright": "The data included in this document is from www.openstreetmap.org. The data is made available under ODbL."}, "elements": [{"type": "node", "id": 4135983289, "lat": 30.7641775, "lon": 20.2222304, "tags": {"amenity": "pharmacy", "healthcare": "pharmacy", "name": "\u0635\u064a\u062f\u0644\u064a\u0629 \u0627\u0644\u0645\u062f\u064a\u0646\u0629", "name:ar": "\u0635\u064a\u062f\u0644\u064a\u0629 \u0627\u0644\u0645\u062f\u064a\u0646\u0629"}}, {"type": "node", "id": 4668248591, "lat": 30.7453097, "lon": 20.2152566, "tags": {"amenity": "pharmacy", "name": "\u0627\u0644\u0627\u062a\u062d\u0627\u062f \u0627\u0644\u0627\u0641\u0631\u064a\u0642\u064a", "name:ar": "\u0627\u0644\u0627\u062a\u062d\u0627\u062f \u0627\u0644\u0627\u0641\u0631\u064a\u0642\u064a", "name:en": "Pharmacy"}}, {"type": "node", "id": 4668248592, "lat": 30.7427927, "lon": 20.2206158, "tags": {"amenity": "pharmacy", "name": "\u0635\u064a\u062f\u0644\u064a\u0629 \u0634\u0647\u062f", "name:ar": "\u0635\u064a\u062f\u0644\u064a\u0629 \u0634\u0647\u062f", "name:en": "Pharmacy"}}, {"type": "node", "id": 5193788021, "lat": 30.7671119, "lon": 20.2419146, "tags": {"amenity": "pharmacy", "name": "\u0635\u064a\u062f\u0644\u064a\u0629 \u062f\u0627\u0631 \u0627\u0644\u062f\u0648\u0627\u0621", "name:ar": "\u062f\u0627\u0631 \u0627\u0644\u062f\u0648\u0627\u0621", "name:en": "Pharmacy"}}, {"type": "node", "id": 5193788221, "lat": 30.7701963, "lon": 20.2257688, "tags": {"amenity": "pharmacy", "name": "\u0634\u0631\u0643\u0629 \u0627\u0628\u0646 \u0633\u064a\u0646\u0627 \u0644\u0627\u0633\u062a\u064a\u0631\u0627\u062f \u0627\u0644\u0645\u0639\u062f\u0627\u062a \u0627\u0644\u0637\u0628\u064a\u0629", "name:ar": "\u0634\u0631\u0643\u0629 \u0627\u0628\u0646 \u0633\u064a\u0646\u0627 \u0644\u0627\u0633\u062a\u064a\u0631\u0627\u062f \u0627\u0644\u0645\u0639\u062f\u0627\u062a \u0627\u0644\u0637\u0628\u064a\u0629", "name:en": "Ibn Sina Company for Importing Medical Equipment"}}, {"type": "node", "id": 6326273285, "lat": 30.7763132, "lon": 20.2075883, "tags": {"amenity": "pharmacy", "name": "\u0635\u064a\u062f\u0644\u064a\u0629 \u0627\u0644\u0645\u0633\u062a\u0642\u0628\u0644", "name:ar": "\u0635\u064a\u062f\u0644\u064a\u0629 \u0627\u0644\u0645\u0633\u062a\u0642\u0628\u0644", "name:en": "Pharmacy"}}, {"type": "node", "id": 6698001185, "lat": 30.7620592, "lon": 20.2245334, "tags": {"amenity": "pharmacy", "healthcare": "pharmacy", "name": "\u0635\u064a\u062f\u0644\u064a\u0629 \u0646\u0628\u0636 \u0627\u0644\u062d\u064a\u0627\u0629", "name:ar": "\u0635\u064a\u062f\u0644\u064a\u0629 \u0646\u0628\u0636 \u0627\u0644\u062d\u064a\u0627\u0629"}}, {"type": "node", "id": 6795399999, "lat": 30.753549, "lon": 20.2116902, "tags": {"addr:street": "\u0634\u0627\u0631\u0639 \u0627\u0644\u0645\u0644\u0643 \u0625\u062f\u0631\u064a\u0633", "amenity": "pharmacy", "healthcare": "pharmacy", "name": "\u0635\u064a\u062f\u0644\u064a\u0629 \u0627\u0644\u0639\u0627\u0644\u0645\u064a\u0629", "name:ar": "\u0635\u064a\u062f\u0644\u064a\u0629 \u0627\u0644\u0639\u0627\u0644\u0645\u064a\u0629", "name:en": "Alalamieyah pharmacy"}}, {"type": "node", "id": 6872200385, "lat": 30.7632092, "lon": 20.2351677, "tags": {"amenity": "pharmacy", "healthcare": "pharmacy", "name": "\u0635\u064a\u062f\u0644\u064a\u0629 \u0627\u0643\u0644\u064a\u0644 \u0627\u0644\u0634\u0641\u0627\u0621", "name:ar": "\u0635\u064a\u062f\u0644\u064a\u0629 \u0627\u0643\u0644\u064a\u0644 \u0627\u0644\u0634\u0641\u0627\u0621"}}, {"type": "node", "id": 7810990885, "lat": 30.7494304, "lon": 20.2175367, "tags": {"addr:postcode": "218", "addr:street": "\u0634\u0627\u0631\u0639 \u0637\u0631\u0627\u0628\u0644\u0633", "amenity": "pharmacy", "healthcare": "pharmacy", "name": "\u0635\u064a\u062f\u0644\u064a\u0629 \u0627\u0644\u0645\u0631\u0648\u0629", "name:ar": "\u0635\u064a\u062f\u0644\u064a\u0629 \u0627\u0644\u0645\u0631\u0648\u0629", "name:en": "Marwa Pharmacy"}}, {"type": "node", "id": 10805120805, "lat": 30.7451399, "lon": 20.2153718, "tags": {"amenity": "pharmacy", "name": "\u0635\u064a\u062f\u0644\u064a\u0629 \u0627\u0644\u0627\u062a\u062d\u0627\u062f \u0627\u0644\u0627\u0641\u0631\u064a\u0642\u064a"}}, {"type": "node", "id": 10808958205, "lat": 30.7406221, "lon": 20.2278511, "tags": {"amenity": "pharmacy", "name": "\u0635\u064a\u062f\u0644\u064a\u0629 \u0627\u0644\u0633\u0631\u0627\u064a\u0627 \u0627\u0644\u0637\u0628\u064a\u0629"}}, {"type": "node", "id": 10820165605, "lat": 30.7522545, "lon": 20.2196004, "tags": {"amenity": "pharmacy", "healthcare": "pharmacy", "name": "\u0635\u064a\u062f\u0644\u064a\u0629 \u0627\u0644\u0641\u062a\u062d"}}]}