{"version": 0.6, "generator": "Overpass API 0.7.62.8 e802775f", "osm3s": {"timestamp_osm_base": "2025-10-06T08:53:43Z", "copyright": "The data included in this document is from www.openstreetmap.org. The data is made available under ODbL."}, "elements": [{"type": "node", "id": 11527278571, "lat": 38.9335703, "lon": 28.2899183, "tags": {"amenity": "pharmacy", "healthcare": "pharmacy", "name": "Rasimo\u011flu Eczanesi", "phone": "+90 236 547 3891"}}, {"type": "node", "id": 11527278572, "lat": 38.9334801, "lon": 28.2883728, "tags": {"amenity": "pharmacy", "healthcare": "pharmacy", "name": "G\u00fcne\u015f Eczanesi", "phone": "+90 236 547 1205"}}, {"type": "node", "id": 11527286273, "lat": 39.0333976, "lon": 28.4246008, "tags": {"amenity": "pharmacy", "name": "G\u00fcne\u015fli \u015eifa Eczanesi", "phone": "+90 236 568 8800"}}, {"type": "node", "id": 11527288269, "lat": 38.9352713, "lon": 28.286653, "tags": {"amenity": "pharmacy", "healthcare": "pharmacy", "name": "Demirulus Eczanesi", "phone": "+90 236 547 3333"}}, {"type": "node", "id": 11527288270, "lat": 38.9346204, "lon": 28.2875818, "tags": {"amenity": "pharmacy", "healthcare": "pharmacy", "name": "Me\u015fino\u011flu Eczanesi", "phone": "+90 236 547 3030"}}, {"type": "node", "id": 11527288271, "lat": 38.9327991, "lon": 28.2886341, "tags": {"amenity": "pharmacy", "name": "Yava\u015fo\u011flu Eczanesi", "phone": "+90 236 547 1100"}}, {"type": "node", "id": 11527288272, "lat": 38.9329669, "lon": 28.2888046, "tags": {"amenity": "pharmacy", "healthcare": "pharmacy", "name": "Naturel Eczanesi", "phone": "+90 236 547 1001"}}, {"type": "node", "id": 11527288273, "lat": 38.9336503, "lon": 28.2886269, "tags": {"amenity": "pharmacy", "healthcare": "pharmacy", "name": "\u015eifa Eczanesi", "phone": "+90 236 547 1234"}}, {"type": "node", "id": 11527288369, "lat": 38.9354137, "lon": 28.2890819, "tags": {"amenity": "pharmacy", "healthcare": "pharmacy", "name": "G\u00f6rdes Eczanesi", "phone": "+90 531 027 9389"}}, {"type": "node", "id": 11527288370, "lat": 38.9332966, "lon": 28.2887542, "tags": {"amenity": "pharmacy", "healthcare": "pharmacy", "name": "Co\u015fkun Eczanesi", "phone": "+90 236 547 1347"}}, {"type": "node", "id": 11527288371, "lat": 38.9337484, "lon": 28.289063, "tags": {"amenity": "pharmacy", "healthcare": "pharmacy", "name": "Ya\u011fc\u0131o\u011flu Eczanesi", "phone": "+90 236 547 1188"}}, {"type": "node", "id": 11527289269, "lat": 38.9895898, "lon": 28.134233, "tags": {"amenity": "pharmacy", "name": "Zeynep Eczanesi", "phone": "+90 236 421 4045"}}, {"type": "node", "id": 11645042069, "lat": 39.2393291, "lon": 28.1723027, "tags": {"amenity": "pharmacy", "description": "Collapsed as of 10 August 2025 due to earthquake. | 10 A\u011fustos 2025 tarihinde deprem nedeniyle y\u0131k\u0131lm\u0131\u015ft\u0131r.", "healthcare": "pharmacy", "name": "Ertu\u011frul Eczanesi", "phone": "+90 266 516 4235"}}, {"type": "node", "id": 11645042169, "lat": 39.2390497, "lon": 28.1736376, "tags": {"amenity": "pharmacy", "name": "I\u015f\u0131k Eczanesi", "phone": "+90 266 516 4941"}}, {"type": "node", "id": 11645042170, "lat": 39.2387554, "lon": 28.1753494, "tags": {"amenity": "pharmacy", "healthcare": "pharmacy", "name": "\u0130lknur Eczanesi", "phone": "+90 266 516 4097"}}, {"type": "node", "id": 11645042269, "lat": 39.2390091, "lon": 28.1738866, "tags": {"amenity": "pharmacy", "name": "Sa\u011fl\u0131k Eczanesi", "phone": "+90 266 516 1390"}}, {"type": "node", "id": 11645042270, "lat": 39.238358, "lon": 28.1752526, "tags": {"amenity": "pharmacy", "healthcare": "pharmacy", "name": "Y\u0131ld\u0131r\u0131m\u0131n Eczanesi", "phone": "+90 266 516 1567"}}, {"type": "node", "id": 11645042271, "lat": 39.2393617, "lon": 28.1748099, "tags": {"amenity": "pharmacy", "healthcare": "pharmacy", "name": "\u015eifa Eczanesi", "phone": "+90 266 516 2711"}}, {"type": "node", "id": 11645042369, "lat": 39.2387298, "lon": 28.1746435, "tags": {"amenity": "pharmacy", "name": "Sinem Eczanesi", "phone": "+90 266 502 2727"}}, {"type": "node", "id": 11645042370, "lat": 39.2392354, "lon": 28.1748106, "tags": {"amenity": "pharmacy", "healthcare": "pharmacy", "name": "Ero\u011flu Eczanesi", "phone": "+90 266 516 3000"}}, {"type": "node", "id": 11645042469, "lat": 39.2386901, "lon": 28.1747418, "tags": {"amenity": "pharmacy", "name": "Ya\u011fmur Eczanesi", "phone": "+90 266 516 4424"}}, {"type": "node", "id": 11645042569, "lat": 39.2396939, "lon": 28.1748649, "tags": {"amenity": "pharmacy", "name": "Kamil Eczanesi", "phone": "+90 266 516 2244"}}]}