{"version": 0.6, "generator": "Overpass API 0.7.62.8 e802775f", "osm3s": {"timestamp_osm_base": "2025-10-06T08:12:00Z", "copyright": "The data included in this document is from www.openstreetmap.org. The data is made available under ODbL."}, "elements": [{"type": "node", "id": 2989931935, "lat": 43.3245947, "lon": 21.864586, "tags": {"amenity": "pharmacy", "healthcare": "pharmacy"}}, {"type": "node", "id": 3063731776, "lat": 43.3292809, "lon": 21.9226004, "tags": {"amenity": "pharmacy", "healthcare": "pharmacy"}}, {"type": "node", "id": 3546845579, "lat": 43.3220246, "lon": 21.9075564, "tags": {"amenity": "pharmacy", "healthcare": "pharmacy", "name:sr-Latn": "Apoteka Marko"}}, {"type": "node", "id": 3546845582, "lat": 43.3220628, "lon": 21.9074814, "tags": {"amenity": "pharmacy", "healthcare": "pharmacy", "name:sr-Latn": "Apoteka Nini"}}, {"type": "node", "id": 3546845584, "lat": 43.3221035, "lon": 21.907401, "tags": {"amenity": "pharmacy", "healthcare": "pharmacy", "name:sr-Latn": "Apoteka Viola"}}, {"type": "node", "id": 3546845794, "lat": 43.3221819, "lon": 21.9073268, "tags": {"amenity": "pharmacy", "healthcare": "pharmacy"}}, {"type": "node", "id": 3546845795, "lat": 43.3222119, "lon": 21.9072888, "tags": {"amenity": "pharmacy", "healthcare": "pharmacy"}}, {"type": "node", "id": 3546845798, "lat": 43.3222395, "lon": 21.9072494, "tags": {"amenity": "pharmacy", "healthcare": "pharmacy"}}, {"type": "node", "id": 3546845804, "lat": 43.3223104, "lon": 21.9071719, "tags": {"amenity": "pharmacy", "healthcare": "pharmacy"}}, {"type": "node", "id": 3546845811, "lat": 43.322403, "lon": 21.9070541, "tags": {"amenity": "pharmacy", "healthcare": "pharmacy"}}, {"type": "node", "id": 3546845816, "lat": 43.3224693, "lon": 21.9069775, "tags": {"amenity": "pharmacy", "healthcare": "pharmacy"}}, {"type": "node", "id": 3546845819, "lat": 43.3225332, "lon": 21.9080573, "tags": {"amenity": "pharmacy", "healthcare": "pharmacy"}}, {"type": "node", "id": 3752284183, "lat": 43.3128601, "lon": 21.8988126}, {"type": "node", "id": 3752284184, "lat": 43.3128214, "lon": 21.8987774}, {"type": "node", "id": 3752284185, "lat": 43.312793, "lon": 21.898838}, {"type": "node", "id": 3752284186, "lat": 43.3128307, "lon": 21.8988733}, {"type": "node", "id": 4311617291, "lat": 43.31777, "lon": 21.9116756, "tags": {"amenity": "pharmacy", "healthcare": "pharmacy"}}, {"type": "node", "id": 4314157590, "lat": 43.3335162, "lon": 21.9088088, "tags": {"amenity": "pharmacy", "healthcare": "pharmacy", "int_name": "Beladona", "name": "\u0411\u0435\u043b\u0430\u0434\u043e\u043d\u0430", "name:sr": "\u0411\u0435\u043b\u0430\u0434\u043e\u043d\u0430", "name:sr-Latn": "Beladona"}}, {"type": "node", "id": 4314441190, "lat": 43.3185571, "lon": 21.8928013, "tags": {"amenity": "pharmacy", "healthcare": "pharmacy", "name": "Betty"}}, {"type": "node", "id": 4314441192, "lat": 43.3196602, "lon": 21.8910771, "tags": {"addr:housenumber": "1", "addr:street": "\u041a\u043d\u0435\u0433\u0438\u045a\u0435 \u0409\u0443\u0431\u0438\u0446\u0435", "amenity": "pharmacy", "check_date": "2024-08-08", "drive_through": "no", "healthcare": "pharmacy", "level": "0", "name": "1 maj", "wheelchair": "no"}}, {"type": "node", "id": 4402647425, "lat": 43.3162221, "lon": 21.8184789, "tags": {"addr:city": "\u0414\u0435\u0432\u0435\u0442\u0438 \u043c\u0430\u0458", "addr:postcode": "18250", "addr:street": "\u0422\u043e\u043f\u043b\u0438\u0447\u043a\u043e \u043f\u0430\u0440\u0442\u0438\u0437\u0430\u043d\u0441\u043a\u043e\u0433 \u043e\u0434\u0440\u0435\u0434\u0430", "amenity": "pharmacy", "healthcare": "pharmacy"}}, {"type": "node", "id": 4402647435, "lat": 43.3176417, "lon": 21.8186516, "tags": {"addr:city": "\u0414\u0435\u0432\u0435\u0442\u0438 \u043c\u0430\u0458", "addr:postcode": "18250", "amenity": "pharmacy", "healthcare": "pharmacy", "opening_hours": "08:00-20:00"}}, {"type": "node", "id": 4837563826, "lat": 43.3208633, "lon": 21.897664, "tags": {"amenity": "pharmacy", "healthcare": "pharmacy"}}, {"type": "node", "id": 4839235450, "lat": 43.3241858, "lon": 21.8917551, "tags": {"amenity": "pharmacy", "healthcare": "pharmacy"}}, {"type": "node", "id": 4946198224, "lat": 43.3197017, "lon": 21.9188477, "tags": {"amenity": "pharmacy", "healthcare": "pharmacy"}}, {"type": "node", "id": 4946200022, "lat": 43.320069, "lon": 21.9203482, "tags": {"amenity": "pharmacy", "healthcare": "pharmacy"}}, {"type": "node", "id": 5773615736, "lat": 43.3154866, "lon": 21.917183}, {"type": "node", "id": 5773615737, "lat": 43.315388, "lon": 21.9170969}, {"type": "node", "id": 5939862494, "lat": 43.3108377, "lon": 21.9372357, "tags": {"amenity": "pharmacy", "brand": "Benu", "brand:wikidata": "Q62562792", "healthcare": "pharmacy", "name": "Benu", "opening_hours": "Mo-Su 09:00-22:00", "website": "https://www.benuapoteka.rs/"}}, {"type": "node", "id": 6046792081, "lat": 43.2179136, "lon": 22.3110833, "tags": {"amenity": "pharmacy", "dispensing": "yes", "healthcare": "pharmacy", "int_name": "Apoteka Snezana", "name": "Apoteka Sne\u017eana", "name:sr": "\u0410\u043f\u043e\u0442\u0435\u043a\u0430 \u0421\u043d\u0435\u0436\u0430\u043d\u0430", "name:sr-Latn": "Apoteka Sne\u017eana"}}, {"type": "node", "id": 6328867182, "lat": 43.3137877, "lon": 21.8989353}, {"type": "node", "id": 6328867194, "lat": 43.3136472, "lon": 21.8988996}, {"type": "node", "id": 6806518135, "lat": 43.3186202, "lon": 21.8937253, "tags": {"addr:housenumber": "34", "addr:street": "\u041d\u0438\u043a\u043e\u043b\u0435 \u041f\u0430\u0448\u0438\u045b\u0430", "amenity": "pharmacy", "healthcare": "pharmacy", "name": "Melisa", "opening_hours": "Mo-Fr 08:00-21:00; Sa 09:00-20:00; Su 14:00-20:00"}}, {"type": "node", "id": 6806518138, "lat": 43.3170242, "lon": 21.8946338, "tags": {"amenity": "pharmacy", "brand": "Benu", "brand:wikidata": "Q62562792", "healthcare": "pharmacy", "name": "Benu"}}, {"type": "node", "id": 6806518144, "lat": 43.3179744, "lon": 21.8950046, "tags": {"amenity": "pharmacy", "branch": "\u0414\u043e\u043d\u0430 2", "contact:facebook": "https://www.facebook.com/DonaFarmNis", "contact:instagram": "https://www.instagram.com/dona_apoteke/", "drive_through": "no", "email": "dona2@dona.rs", "healthcare": "pharmacy", "int_name": "Dona", "name": "\u0414\u043e\u043d\u0430", "name:sr-Latn": "Dona", "opening_hours": "Mo-Fr 08:00-22:00; Sa 09:00-20:00", "phone": "+381 18 244568"}}, {"type": "node", "id": 6807376586, "lat": 43.3241475, "lon": 21.8902196, "tags": {"amenity": "pharmacy", "healthcare": "pharmacy", "name": "Zegin"}}, {"type": "node", "id": 6807376587, "lat": 43.3243963, "lon": 21.8903438, "tags": {"amenity": "pharmacy", "brand": "Benu", "brand:wikidata": "Q62562792", "healthcare": "pharmacy", "name": "Benu"}}, {"type": "node", "id": 6807405985, "lat": 43.3241768, "lon": 21.891946, "tags": {"amenity": "pharmacy", "healthcare": "pharmacy"}}, {"type": "node", "id": 6807406085, "lat": 43.324163, "lon": 21.8920145, "tags": {"amenity": "pharmacy", "healthcare": "pharmacy"}}, {"type": "node", "id": 6808069587, "lat": 43.3207102, "lon": 21.8995103, "tags": {"amenity": "pharmacy", "healthcare": "pharmacy", "name": "Zegin"}}, {"type": "node", "id": 6808069787, "lat": 43.3198191, "lon": 21.8884881, "tags": {"amenity": "pharmacy", "healthcare": "pharmacy"}}, {"type": "node", "id": 6808070085, "lat": 43.3206445, "lon": 21.8974, "tags": {"amenity": "pharmacy", "healthcare": "pharmacy"}}, {"type": "node", "id": 6808078287, "lat": 43.3190649, "lon": 21.9075157, "tags": {"amenity": "pharmacy", "brand": "Dr. Max", "brand:wikidata": "Q56317371", "healthcare": "pharmacy", "name": "Dr. Max"}}, {"type": "node", "id": 6808078297, "lat": 43.3179519, "lon": 21.9113885, "tags": {"addr:city": "\u041d\u0438\u0448", "addr:housenumber": "31", "addr:postcode": "18000", "addr:street": "\u0411\u0443\u043b\u0435\u0432\u0430\u0440 \u0434\u0440 \u0417\u043e\u0440\u0430\u043d\u0430 \u0402\u0438\u043d\u0452\u0438\u045b\u0430", "amenity": "pharmacy", "brand": "Benu", "brand:wikidata": "Q62562792", "dispensing": "yes", "drive_through": "no", "healthcare": "pharmacy", "int_name": "Benu", "name": "Benu", "name:sr": "\u0411\u0435\u043d\u0443", "opening_hours": "Mo-Fr 08:00-22:00 Sa-Su 09:00-21:00", "operator": "Benu"}}, {"type": "node", "id": 6808078798, "lat": 43.3204834, "lon": 21.8995488, "tags": {"amenity": "pharmacy", "healthcare": "pharmacy"}}, {"type": "node", "id": 6808078886, "lat": 43.3154407, "lon": 21.9158192, "tags": {"amenity": "pharmacy", "healthcare": "pharmacy", "name": "Zegin"}}, {"type": "node", "id": 6808093985, "lat": 43.3181982, "lon": 21.8899255, "tags": {"amenity": "pharmacy", "brand": "Benu", "brand:wikidata": "Q62562792", "healthcare": "pharmacy", "name": "Benu"}}, {"type": "node", "id": 6809644986, "lat": 43.3163471, "lon": 21.8944, "tags": {"addr:city": "\u041d\u0438\u0448", "addr:housenumber": "86", "addr:postcode": "18000", "addr:street": "\u041e\u0431\u0440\u0435\u043d\u043e\u0432\u0438\u045b\u0435\u0432\u0430", "amenity": "pharmacy", "branch": "51", "brand": "\u041a\u0440\u0448\u0435\u043d\u043a\u043e\u0432\u0438\u045b", "brand:wikidata": "Q132782214", "drive_through": "no", "email": "ogranak51nis@gmail.com", "healthcare": "pharmacy", "int_name": "Krsenkovic", "name": "\u041a\u0440\u0448\u0435\u043d\u043a\u043e\u0432\u0438\u045b", "name:sr": "\u041a\u0440\u0448\u0435\u043d\u043a\u043e\u0432\u0438\u045b", "name:sr-Latn": "Kr\u0161enkovi\u0107", "opening_hours": "Mo-Su 08:00-23:00", "phone": "+381 18 .511.343", "ref:RS:kucni_broj": "5930304"}}, {"type": "node", "id": 6809645989, "lat": 43.3153013, "lon": 21.8945211, "tags": {"amenity": "pharmacy", "check_date": "2024-05-11", "drive_through": "no", "healthcare": "pharmacy", "name": "Gracia", "phone": "+381 18 526404"}}, {"type": "node", "id": 6812666787, "lat": 43.3182477, "lon": 21.8963054, "tags": {"amenity": "pharmacy", "brand": "Lilly", "brand:wikidata": "Q111764460", "healthcare": "pharmacy", "name": "Lilly", "name:en": "Lilly", "name:sr": "\u041b\u0438\u043b\u0438", "shop": "chemist"}}, {"type": "node", "id": 7351761499, "lat": 43.3155735, "lon": 21.9170624}, {"type": "node", "id": 7351761500, "lat": 43.3155088, "lon": 21.9172023}, {"type": "node", "id": 7351761501, "lat": 43.3153387, "lon": 21.9170539}, {"type": "node", "id": 7351761502, "lat": 43.3154034, "lon": 21.9169139}, {"type": "node", "id": 7884399850, "lat": 43.2174766, "lon": 22.3206596}, {"type": "node", "id": 7884399851, "lat": 43.2175088, "lon": 22.3208024}, {"type": "node", "id": 7884399852, "lat": 43.2175595, "lon": 22.3207808}, {"type": "node", "id": 7884399853, "lat": 43.2175273, "lon": 22.320638}, {"type": "node", "id": 8118465422, "lat": 43.5671669, "lon": 22.2550613, "tags": {"amenity": "pharmacy", "healthcare": "pharmacy", "name": "\u041c\u0430\u0439\u044f"}}, {"type": "node", "id": 8752809203, "lat": 43.3248087, "lon": 21.9116043, "tags": {"amenity": "pharmacy", "brand": "Benu", "brand:wikidata": "Q62562792", "healthcare": "pharmacy", "name": "Benu", "opening_hours": "Mo-Su 10:00-22:00", "wheelchair": "yes"}}, {"type": "node", "id": 9521543084, "lat": 43.3136576, "lon": 21.898797}, {"type": "node", "id": 9521543085, "lat": 43.3136477, "lon": 21.8988251}, {"type": "node", "id": 9521543086, "lat": 43.3136021, "lon": 21.8988273}, {"type": "node", "id": 9521543087, "lat": 43.313604, "lon": 21.8989017}, {"type": "node", "id": 9521543088, "lat": 43.3136477, "lon": 21.8989218}, {"type": "node", "id": 9521543089, "lat": 43.3137369, "lon": 21.8989808}, {"type": "node", "id": 9521543090, "lat": 43.3137516, "lon": 21.898939}, {"type": "node", "id": 9521543091, "lat": 43.3137805, "lon": 21.8989586}, {"type": "node", "id": 9521543092, "lat": 43.3138025, "lon": 21.898893}, {"type": "node", "id": 9532234719, "lat": 43.3203987, "lon": 21.8952534, "tags": {"amenity": "pharmacy", "contact:facebook": "https://sr-rs.facebook.com/farmacija.nis/", "contact:instagram": "https://www.instagram.com/apoteka__remedia/?hl=en", "dispensing": "yes", "drive_through": "no", "healthcare": "pharmacy", "name": "Remedia", "opening_hours": "Mo-Su 08:00-22:00"}}, {"type": "node", "id": 9532234721, "lat": 43.320326, "lon": 21.8952382, "tags": {"amenity": "pharmacy", "branch": "NI\u0160 - OBRENOVI\u0106EVA", "brand": "Benu", "brand:wikidata": "Q62562792", "dispensing": "yes", "drive_through": "no", "email": "nisobrenoviceva434@benu.rs", "healthcare": "pharmacy", "name": "Benu", "opening_hours": "Mo-Su 08:00-22:00", "phone": "+381 64 8312454", "website": "https://benu.rs/apoteke/apoteka/nis-obrenoviceva"}}, {"type": "node", "id": 9764721102, "lat": 43.319751, "lon": 21.9377568, "tags": {"amenity": "pharmacy", "brand": "Benu", "brand:wikidata": "Q62562792", "healthcare": "pharmacy", "name": "Benu"}}, {"type": "node", "id": 9810036850, "lat": 43.2177516, "lon": 22.3217138, "tags": {"amenity": "pharmacy", "dispensing": "yes", "healthcare": "pharmacy", "name": "Sne\u017eana Dom Zdravlja"}}, {"type": "node", "id": 9859953753, "lat": 43.3997903, "lon": 21.8061882, "tags": {"amenity": "pharmacy", "int_name": "Mirus", "name": "\u041c\u0438\u0440\u0443\u0441", "ref": "4"}}, {"type": "node", "id": 10202590265, "lat": 43.509184, "lon": 21.6945722, "tags": {"amenity": "pharmacy", "int_name": "Adonis", "name": "\u0410\u0434\u043e\u043d\u0438\u0441", "name:sr": "\u0410\u0434\u043e\u043d\u0438\u0441", "name:sr-Latn": "Adonis"}}, {"type": "node", "id": 10202590269, "lat": 43.5092815, "lon": 21.6949378, "tags": {"amenity": "pharmacy", "healthcare": "pharmacy", "name": "Dr. Max", "name:sr": "\u0414\u0440 \u041c\u0430\u043a\u0441", "name:sr-Latn": "Dr Maks", "opening_hours": "Mo-Sa 07:00-21:00; Su 07:00-15:00"}}, {"type": "node", "id": 10202590271, "lat": 43.5099388, "lon": 21.6951334, "tags": {"amenity": "pharmacy", "healthcare": "pharmacy"}}, {"type": "node", "id": 10834096477, "lat": 43.2176502, "lon": 22.311956, "tags": {"amenity": "pharmacy", "name": "\u017dalfija", "phone": "+38118856946"}}, {"type": "node", "id": 11054020805, "lat": 43.3135258, "lon": 21.8985043}, {"type": "node", "id": 11054020806, "lat": 43.3135638, "lon": 21.8985256}, {"type": "node", "id": 11054020807, "lat": 43.3135444, "lon": 21.8984418}, {"type": "node", "id": 11054020811, "lat": 43.3135824, "lon": 21.8984631}, {"type": "node", "id": 11108550714, "lat": 43.3293432, "lon": 21.9104714}, {"type": "node", "id": 11398860154, "lat": 43.3106808, "lon": 21.9371838, "tags": {"amenity": "pharmacy", "brand": "Dr. Max", "brand:wikidata": "Q56317371", "healthcare": "pharmacy", "name": "Dr. Max"}}, {"type": "node", "id": 12093814057, "lat": 43.3210729, "lon": 21.8952283, "tags": {"addr:housenumber": "1", "addr:street": "\u0411\u0430\u043b\u043a\u0430\u043d\u0441\u043a\u0430", "amenity": "pharmacy", "brand": "Benu", "brand:wikidata": "Q62562792", "check_date": "2024-08-05", "drive_through": "no", "healthcare": "pharmacy", "level": "0", "name": "Benu", "opening_hours": "Mo-Sa 08:00-22:00; Su 09:00-16:00", "wheelchair": "no"}}, {"type": "node", "id": 12506609889, "lat": 43.3185953, "lon": 21.8991168, "tags": {"amenity": "pharmacy", "healthcare": "pharmacy", "int_name": "Zalfija", "name": "\u0416\u0430\u043b\u0444\u0438\u0458\u0430", "name:sr": "\u0416\u0430\u043b\u0444\u0438\u0458\u0430", "name:sr-Latn": "\u017dalfija"}}, {"type": "node", "id": 12787618001, "lat": 43.316254, "lon": 21.8947347, "tags": {"addr:housenumber": "57b", "addr:postcode": "18000", "addr:street": "\u041e\u0431\u0440\u0435\u043d\u043e\u0432\u0438\u045b\u0435\u0432\u0430", "amenity": "pharmacy", "int_name": "14. oktobar", "name": "14. \u043e\u043a\u0442\u043e\u0431\u0430\u0440", "opening_hours": "Mo-Fr 07:00-20:00; Sa 08:00-15:00", "phone": "018512352", "website": "https://www.apotekanis.co.rs/"}}, {"type": "node", "id": 13038994234, "lat": 43.509392, "lon": 21.6950203, "tags": {"amenity": "pharmacy", "int_name": "Benu", "name": "\u0411\u0435\u043d\u0443", "name:sr": "\u0411\u0435\u043d\u0443", "name:sr-Latn": "Benu"}}, {"type": "node", "id": 13042991140, "lat": 43.3292411, "lon": 21.9102866}, {"type": "node", "id": 13042991141, "lat": 43.3292444, "lon": 21.9104261}, {"type": "node", "id": 13042991142, "lat": 43.3291756, "lon": 21.9104291}, {"type": "node", "id": 13042991143, "lat": 43.3291724, "lon": 21.9102897}, {"type": "node", "id": 13042991144, "lat": 43.3293757, "lon": 21.9104658}, {"type": "node", "id": 13042991145, "lat": 43.3293885, "lon": 21.9106193}, {"type": "node", "id": 13042991146, "lat": 43.3293145, "lon": 21.9104763}, {"type": "node", "id": 13042991147, "lat": 43.3293284, "lon": 21.9106296}, {"type": "node", "id": 13081542979, "lat": 43.1668146, "lon": 21.8546613, "tags": {"amenity": "pharmacy", "name": "A.U. Lipa - Apoteka Pukovac"}}, {"type": "way", "id": 371668480, "nodes": [3752284183, 3752284184, 3752284185, 3752284186, 3752284183], "tags": {"addr:city": "\u041d\u0438\u0448", "addr:housenumber": "62", "addr:postcode": "18000", "addr:street": "\u0415\u043f\u0438\u0441\u043a\u043e\u043f\u0441\u043a\u0430", "amenity": "pharmacy", "branch": "Palilula", "building": "house", "dispensing": "yes", "drive_through": "no", "healthcare": "pharmacy", "name:en": "BioPharm", "opening_hours": "Mo-Sa 08:00-21:00; Sa 08:00-15:00", "phone": "+381 18 591600", "ref:RS:kucni_broj": "6137391"}}, {"type": "way", "id": 786282120, "nodes": [7351761499, 7351761500, 5773615736, 5773615737, 7351761501, 7351761502, 7351761499], "tags": {"addr:city": "\u041d\u0438\u0448", "addr:country": "RS", "addr:housenumber": "81b", "addr:postcode": "18000", "addr:street": "\u0411\u0443\u043b\u0435\u0432\u0430\u0440 \u0434\u0440 \u0417\u043e\u0440\u0430\u043d\u0430 \u0402\u0438\u043d\u0452\u0438\u045b\u0430", "amenity": "pharmacy", "building": "yes", "healthcare": "pharmacy", "int_name": "Apoteka Nis", "name": "\u0410\u043f\u043e\u0442\u0435\u043a\u0430 \u041d\u0438\u0448", "name:sr": "\u0410\u043f\u043e\u0442\u0435\u043a\u0430 \u041d\u0438\u0448", "name:sr-Latn": "Apoteka Ni\u0161", "phone": "+38118512296", "ref:RS:kucni_broj": "5923730", "website": "https://www.apotekanis.co.rs/"}}, {"type": "way", "id": 845104194, "nodes": [7884399853, 7884399852, 7884399851, 7884399850, 7884399853], "tags": {"amenity": "pharmacy", "building": "yes", "email": "zalfija.belapalanka2@apotekazalfija.co.rs", "healthcare": "pharmacy", "mobile": "+381604551172", "name": "\u017dalfija", "payment:american_express": "yes", "payment:cash": "yes", "payment:maestro": "yes", "payment:mastercard": "yes", "payment:paypass": "yes", "payment:visa": "yes", "phone": "+38118854054"}}, {"type": "way", "id": 1033472810, "nodes": [9521543084, 9521543085, 9521543086, 9521543087, 6328867194, 9521543088, 9521543089, 9521543090, 9521543091, 6328867182, 9521543092, 9521543084], "tags": {"addr:city": "\u041d\u0438\u0448", "addr:housenumber": "51a", "addr:postcode": "18000", "addr:street": "\u0425\u0430\u0458\u0434\u0443\u043a \u0412\u0435\u0459\u043a\u043e\u0432\u0430", "amenity": "pharmacy", "building": "yes", "dispensing": "yes", "drive_through": "no", "healthcare": "pharmacy", "name": "Remedia sunce", "opening_hours": "Mo-Sa 08:00-21:00; Su 08:00-15:00", "phone": "+381 18 278700", "ref:RS:kucni_broj": "5925784"}}, {"type": "way", "id": 1190502885, "nodes": [11054020807, 11054020811, 11054020806, 11054020805, 11054020807], "tags": {"addr:housenumber": "48a", "addr:street": "\u0425\u0430\u0458\u0434\u0443\u043a \u0412\u0435\u0459\u043a\u043e\u0432\u0430", "amenity": "pharmacy", "brand": "Benu", "brand:wikidata": "Q62562792", "building": "yes", "drive_through": "no", "healthcare": "pharmacy", "name": "Benu", "ref:RS:kucni_broj": "5925809"}}, {"type": "way", "id": 1419378112, "nodes": [13042991140, 13042991141, 13042991142, 13042991143, 13042991140], "tags": {"amenity": "pharmacy", "building": "yes", "healthcare": "pharmacy"}}, {"type": "way", "id": 1419378113, "nodes": [13042991146, 13042991147, 13042991145, 13042991144, 11108550714, 13042991146], "tags": {"amenity": "pharmacy", "building": "yes", "healthcare": "pharmacy"}}]}