{"version": 0.6, "generator": "Overpass API 0.7.62.8 e802775f", "osm3s": {"timestamp_osm_base": "2025-10-06T08:46:29Z", "copyright": "The data included in this document is from www.openstreetmap.org. The data is made available under ODbL."}, "elements": [{"type": "node", "id": 1129459494, "lat": 50.984182, "lon": 23.1709662, "tags": {"amenity": "pharmacy", "dispensing": "yes", "healthcare": "pharmacy", "name": "Na Pocztowej", "opening_hours": "Mo-Fr 07:00-20:00; Sa 07:00-16:00", "phone": "+48 82 5762382", "ref:csioz": "1156553", "source": "survey"}}, {"type": "node", "id": 1699965258, "lat": 50.7165763, "lon": 23.2531896, "tags": {"amenity": "pharmacy", "dispensing": "yes", "healthcare": "pharmacy", "name": "Rektorska", "opening_hours": "Mo-Fr 08:00-19:00; Sa 08:00-15:00", "ref:csioz": "1155292", "start_date": "1609", "wikipedia": "Apteka Rektorska w Zamo\u015bciu"}}, {"type": "node", "id": 2094711913, "lat": 50.9185849, "lon": 23.5491725, "tags": {"amenity": "pharmacy", "dispensing": "yes", "email": "apteka.na.gwarku1@wp.pl", "healthcare": "pharmacy", "note": "Oficjalny adres to Lisi\u0144skiego 10, apteka fizycznie znajduje si\u0119 tutaj", "phone": "+48 82 564 10 39", "ref:csioz": "1156961"}}, {"type": "node", "id": 2242514240, "lat": 50.716646, "lon": 23.2558309, "tags": {"addr:city": "Zamo\u015b\u0107", "addr:housenumber": "2", "addr:postcode": "22-400", "addr:street": "Grodzka", "amenity": "pharmacy", "brand": "Dbam o Zdrowie", "brand:wikidata": "Q62563833", "check_date": "2023-10-16", "dispensing": "yes", "email": "apt112060@dbamozdrowie.pl", "healthcare": "pharmacy", "name": "Dbam o Zdrowie", "opening_hours": "Mo-Fr 08:00-19:00; Sa 08:00-15:00", "operator": "DOZ", "phone": "+48846390444", "ref:csioz": "1110763", "short_name": "DOZ", "website": "https://www.doz.pl/apteki/m3271-Zamosc"}}, {"type": "node", "id": 2537418327, "lat": 50.722357, "lon": 23.1236218, "tags": {"amenity": "pharmacy", "dispensing": "yes", "name": "Apteka", "opening_hours": "Mo-Fr 08:00-18:00;PH closed", "ref:csioz": "1153913"}}, {"type": "node", "id": 3147328362, "lat": 50.7114924, "lon": 23.2864152, "tags": {"amenity": "pharmacy", "dispensing": "yes", "healthcare": "pharmacy", "name": "Hetma\u0144ska", "opening_hours": "24/7", "ref:csioz": "1153890"}}, {"type": "node", "id": 3147328365, "lat": 50.7124408, "lon": 23.2875553, "tags": {"amenity": "pharmacy", "dispensing": "yes", "healthcare": "pharmacy", "name": "Apteka W Szpitalu", "opening_hours": "Mo-Su 08:00-21:00", "ref:csioz": "1155305"}}, {"type": "node", "id": 3463468360, "lat": 50.7533138, "lon": 23.765075, "tags": {"amenity": "pharmacy", "dispensing": "yes", "healthcare": "pharmacy", "name": "Apteka Przy Rynku", "opening_hours": "Mo-Fr 08:00-16:00; Sa 08:00-14:00", "ref:csioz": "1155199"}}, {"type": "node", "id": 3463471377, "lat": 50.7534189, "lon": 23.764642, "tags": {"amenity": "pharmacy", "dispensing": "yes", "healthcare": "pharmacy", "name": "Apteka Od Serca", "opening_hours": "Mo-Fr 07:30-18:00; We 07:30-18:30; Sa 08:00-14:00", "ref:csioz": "1154657"}}, {"type": "node", "id": 3662269387, "lat": 50.985463, "lon": 23.1701666}, {"type": "node", "id": 3662280289, "lat": 50.985338, "lon": 23.170413}, {"type": "node", "id": 3662280292, "lat": 50.985354, "lon": 23.170474}, {"type": "node", "id": 3662280472, "lat": 50.98531, "lon": 23.170388}, {"type": "node", "id": 3662280558, "lat": 50.985294, "lon": 23.170351}, {"type": "node", "id": 3662280564, "lat": 50.985329, "lon": 23.170394}, {"type": "node", "id": 3662280565, "lat": 50.985335, "lon": 23.170443}, {"type": "node", "id": 3662280635, "lat": 50.985517, "lon": 23.170287}, {"type": "node", "id": 3662280753, "lat": 50.9854223, "lon": 23.1702145}, {"type": "node", "id": 3718593775, "lat": 50.7265502, "lon": 23.2631563, "tags": {"amenity": "pharmacy", "brand": "Dr. Max", "brand:wikidata": "Q56317371", "brand:wikipedia": "fr:Dr.Max", "dispensing": "yes", "drive_through": "no", "healthcare": "pharmacy", "name": "Dr. Max", "opening_hours": "Mo-Su 09:00-21:00", "operator": "Dr. Max", "ref:csioz": "1183371", "website": "https://drmax.pl/"}}, {"type": "node", "id": 4056358086, "lat": 50.7129, "lon": 23.27675, "tags": {"addr:city": "Zamo\u015b\u0107", "addr:housenumber": "4A", "addr:postcode": "22-400", "addr:street": "Hrubieszowska", "amenity": "pharmacy", "dispensing": "yes", "healthcare": "pharmacy", "name": "Apteka W D.T. Tomasz", "name:pl": "Apteka W D.T. Tomasz", "opening_hours": "Mo-Fr 08:00-19:00; Sa 08:00-15:00", "ref:csioz": "1154072", "source:addr": "mzamosc.e-mapa.net"}}, {"type": "node", "id": 4657802992, "lat": 50.7244226, "lon": 23.2536414, "tags": {"addr:city": "Zamo\u015b\u0107", "addr:housenumber": "1", "addr:postcode": "22-400", "addr:street": "Peowiak\u00f3w", "amenity": "pharmacy", "brand": "S\u0142oneczna", "dispensing": "yes", "email": "zamosc-peowiakow@apteka-sloneczna.pl", "healthcare": "pharmacy", "name": "S\u0142oneczna", "name:pl": "S\u0142oneczna", "opening_hours": "Mo-Fr 07:00-21:00; Sa 08:00-15:00", "phone": "+48846111342", "ref:csioz": "1155414", "website": "http://www.apteka-sloneczna.pl/zamosc/"}}, {"type": "node", "id": 4660768390, "lat": 50.7282555, "lon": 23.2509357, "tags": {"amenity": "pharmacy", "dispensing": "yes", "healthcare": "pharmacy", "name": "Apteka Zamojska", "name:pl": "Apteka Zamojska", "opening_hours": "Mo-Fr 07:00-20:00; Sa 08:00-16:00", "ref:csioz": "1153756"}}, {"type": "node", "id": 4660923689, "lat": 50.7329669, "lon": 23.2517456, "tags": {"amenity": "pharmacy", "dispensing": "yes", "healthcare": "pharmacy", "opening_hours": "Mo-Fr 08:00-19:00; Sa 08:00-15:00", "operator": "Kwieci\u0144ska M., Laskowska J.", "phone": "+48846392542", "ref:csioz": "1153694"}}, {"type": "node", "id": 4661052493, "lat": 50.7244011, "lon": 23.2496882, "tags": {"amenity": "pharmacy", "dispensing": "yes", "healthcare": "pharmacy", "name": "G.E.R.", "opening_hours": "Mo-Tu, Th-Fr 08:00-19:00; We 08:00-20:00; Sa 08:00-15:00", "operator": "Grabski", "phone": "+48846390748", "ref:csioz": "1154095"}}, {"type": "node", "id": 4661156590, "lat": 50.7310295, "lon": 23.245189, "tags": {"amenity": "pharmacy", "dispensing": "yes", "healthcare": "pharmacy", "opening_hours": "Mo-Fr 08:00-19:00; Sa 08:00-15:00", "operator": "mgr farm. Anna Mosi\u0105dz", "phone": "+48846274513", "ref:csioz": "1154369"}}, {"type": "node", "id": 4662974602, "lat": 50.7260843, "lon": 23.2513823, "tags": {"amenity": "pharmacy", "dispensing": "yes", "healthcare": "pharmacy", "name": "Apteka Rumiankowa", "name:pl": "Apteka Rumiankowa", "opening_hours": "Mo-Sa 07:00-19:00; Su 09:00-19:00", "phone": "+48846395902", "ref:csioz": "1154131"}}, {"type": "node", "id": 4664421589, "lat": 50.7080139, "lon": 23.2617764, "tags": {"amenity": "pharmacy", "dispensing": "yes", "healthcare": "pharmacy", "name": "Apteka przy Lipskiej", "name:pl": "Apteka przy Lipskiej", "opening_hours": "Mo-Fr 08:00-20:00; Sa 08:00-15:00", "phone": "+48501238387", "ref:csioz": "1154745"}}, {"type": "node", "id": 4664995593, "lat": 50.7077494, "lon": 23.2703212, "tags": {"amenity": "pharmacy", "dispensing": "yes", "healthcare": "pharmacy", "name": "Apteka Dudek T.", "name:pl": "Apteka Dudek T.", "opening_hours": "Mo-Fr 08:00-19:00; Sa 08:00-15:00", "phone": "+48846385430", "ref:csioz": "1155383"}}, {"type": "node", "id": 4665008406, "lat": 50.7113774, "lon": 23.2695856, "tags": {"amenity": "pharmacy", "dispensing": "yes", "healthcare": "pharmacy", "name": "Apteka Zamojska 1", "name:pl": "Apteka Zamojska 1", "opening_hours": "Mo-Fr 08:00-20:00; Sa 08:00-16:00", "ref:csioz": "1106046"}}, {"type": "node", "id": 4665030300, "lat": 50.7144393, "lon": 23.2621876, "tags": {"addr:city": "Zamo\u015b\u0107", "addr:city:simc": "0987510", "addr:housenumber": "8", "addr:postcode": "22-400", "addr:street": "Genera\u0142a Gustawa Orlicz-Dreszera", "addr:street:sym_ul": "37487", "amenity": "pharmacy", "brand": "Dbam o Zdrowie", "brand:wikidata": "Q62563833", "dispensing": "yes", "healthcare": "pharmacy", "name": "Dbam o Zdrowie", "opening_hours": "Mo-Fr 08:00-20:00; Sa 08:00-15:00", "operator": "DOZ", "phone": "+48846392642", "ref:csioz": "1155276", "short_name": "DOZ", "source:addr": "mzamosc.e-mapa.net", "website": "https://www.doz.pl/apteki/m3271-Zamosc"}}, {"type": "node", "id": 4669561610, "lat": 50.7162261, "lon": 23.2279607, "tags": {"amenity": "pharmacy", "dispensing": "yes", "healthcare": "pharmacy", "name": "Na \u015al\u0105skiej", "opening_hours": "Mo-Fr 08:00-19:00; Sa 08:00-15:00", "phone": "+48846396237", "ref:csioz": "1153735"}}, {"type": "node", "id": 4669583890, "lat": 50.7238661, "lon": 23.2482674, "tags": {"addr:city": "Zamo\u015b\u0107", "addr:housenumber": "8A", "addr:postcode": "22-400", "addr:street": "Sadowa", "amenity": "pharmacy", "dispensing": "yes", "healthcare": "pharmacy", "name": "Apteka Dy\u017curna", "opening_hours": "Mo-Fr 08:00-20:00; Sa 08:00-16:00", "ref:csioz": "1200244"}}, {"type": "node", "id": 4684166792, "lat": 50.7168265, "lon": 23.268186, "tags": {"amenity": "pharmacy", "dispensing": "yes", "name": "Vitamed", "name:pl": "Vitamed", "opening_hours": "Mo-Fr 07:00-21:00; Sa-Su 08:00-20:00", "ref:csioz": "1153828"}}, {"type": "node", "id": 4684261396, "lat": 50.7138486, "lon": 23.2841721, "tags": {"amenity": "pharmacy", "dispensing": "yes", "healthcare": "pharmacy", "name": "Panaceum", "name:pl": "Panaceum", "opening_hours": "Mo-Fr 08:00-19:00; Sa 08:00-19:00", "ref:csioz": "1106009"}}, {"type": "node", "id": 4684272793, "lat": 50.7132281, "lon": 23.2856101, "tags": {"amenity": "pharmacy", "brand": "Apteka S\u0142oneczna", "dispensing": "yes", "healthcare": "pharmacy", "name": "Apteka S\u0142oneczna", "opening_hours": "Mo-Fr 08:00-19:00; Sa 08:00-15:00", "phone": "+48846381844", "ref:csioz": "1153866"}}, {"type": "node", "id": 4684273091, "lat": 50.713064, "lon": 23.2855453, "tags": {"amenity": "pharmacy", "dispensing": "yes", "healthcare": "pharmacy", "name": "Apteka S\u0142oneczna", "name:pl": "Apteka S\u0142oneczna", "opening_hours": "Mo-Fr 07:00-21:00; Sa 08:00-15:00", "ref:csioz": "1117685"}}, {"type": "node", "id": 4684943194, "lat": 50.714273, "lon": 23.2778453, "tags": {"amenity": "pharmacy", "dispensing": "yes", "healthcare": "pharmacy", "name": "Apteka Dy\u017curna", "name:pl": "Apteka Dy\u017curna", "opening_hours": "Mo-Fr 08:00-20:00; Sa 08:00-16:00", "ref:csioz": "1206431"}}, {"type": "node", "id": 4685027291, "lat": 50.7054656, "lon": 23.2834317, "tags": {"amenity": "pharmacy", "brand": "Dr. Max", "brand:wikidata": "Q56317371", "brand:wikipedia": "fr:Dr.Max", "dispensing": "yes", "email": "zamosc.lwowska@drmax.pl", "healthcare": "pharmacy", "name": "Dr. Max", "opening_hours": "Mo-Sa 08:00-21:00; Su 09:00-20:00", "operator": "Dr. Max", "phone": "+48846385368", "ref:csioz": "1154279", "website": "https://www.drmax.pl/"}}, {"type": "node", "id": 4687253793, "lat": 50.7354296, "lon": 23.2566937, "tags": {"amenity": "pharmacy", "dispensing": "yes", "healthcare": "pharmacy", "name": "Apteka W. Staszczuk-Glazer", "name:pl": "Apteka W. Staszczuk-Glazer", "opening_hours": "Mo-Fr 08:00-19:00; Sa 08:00-15:00", "phone": "+48846394787", "ref:csioz": "1155136"}}, {"type": "node", "id": 4687615990, "lat": 50.7353232, "lon": 23.255965, "tags": {"amenity": "pharmacy", "dispensing": "yes", "healthcare": "pharmacy", "opening_hours": "Mo-Fr 08:00-19:00; Sa 08:00-15:00", "ref:csioz": "1154080"}}, {"type": "node", "id": 4726035243, "lat": 50.8243122, "lon": 23.1852004, "tags": {"amenity": "pharmacy", "dispensing": "yes", "name": "Lubelska", "opening_hours": "Mo-Fr 08:00-16:30; Sa 08:00-13:00", "phone": "+48 84 638 52 79", "ref:csioz": "1200963"}}, {"type": "node", "id": 4738046607, "lat": 51.019929, "lon": 23.1859868, "tags": {"amenity": "pharmacy", "dispensing": "yes", "healthcare": "pharmacy", "name": "Premium-Lek", "opening_hours": "Mo-Fr 08:00-18:00", "phone": "+48 82 5770395", "ref:csioz": "1211066"}}, {"type": "node", "id": 4738046610, "lat": 50.9839067, "lon": 23.1644958, "tags": {"addr:city": "Krasnystaw", "addr:city:simc": "0930070", "addr:housenumber": "15", "addr:postcode": "22-300", "addr:street": "Stefana Okrzei", "amenity": "pharmacy", "dispensing": "yes", "healthcare": "pharmacy", "name": "Eskulap", "opening_hours": "24/7", "phone": "+48 82 5762101", "ref:csioz": "1157336", "wheelchair": "yes"}}, {"type": "node", "id": 4738047421, "lat": 50.9853052, "lon": 23.1615437, "tags": {"addr:city": "Krasnystaw", "addr:city:simc": "0930070", "addr:housenumber": "25", "addr:postcode": "22-300", "addr:street": "Stefana Okrzei", "amenity": "pharmacy", "dispensing": "yes", "healthcare": "pharmacy", "name": "Vitamed", "opening_hours": "Mo-Fr 07:00-20:00; Sa 07:00-15:00", "phone": "+48 82 5761885", "ref:csioz": "1157385"}}, {"type": "node", "id": 4738047424, "lat": 50.9848357, "lon": 23.1625408, "tags": {"addr:city": "Krasnystaw", "addr:city:simc": "0930070", "addr:housenumber": "23", "addr:postcode": "22-300", "addr:street": "Stefana Okrzei", "amenity": "pharmacy", "dispensing": "yes", "healthcare": "pharmacy", "name": "Medicus", "opening_hours": "Mo-Su 07:00-23:00", "phone": "+48 82 5764069", "ref:csioz": "1156718"}}, {"type": "node", "id": 4739770035, "lat": 51.0016992, "lon": 23.2983176, "tags": {"addr:housenumber": "259B", "addr:place": "Siennica R\u00f3\u017cana", "addr:postcode": "22-304", "amenity": "pharmacy", "dispensing": "yes", "healthcare": "pharmacy", "name": "Apteka - \u0141ysakowska J.", "opening_hours": "Mo-Fr 08:00-16:00", "phone": "+48 82 5759220", "ref:csioz": "1156973", "wheelchair": "yes"}}, {"type": "node", "id": 4739770042, "lat": 50.9320509, "lon": 23.3523633, "tags": {"addr:city": "Kra\u015bniczyn", "addr:housenumber": "22", "addr:postcode": "22-310", "addr:street": "Tadeusza Ko\u015bciuszki", "amenity": "pharmacy", "dispensing": "yes", "healthcare": "pharmacy", "name": "Anika", "opening_hours": "Mo-Fr 08:00-16:30; Sa 08:00-14:00", "phone": "+48 82 5643928", "ref:csioz": "1197589"}}, {"type": "node", "id": 4739770053, "lat": 50.8931905, "lon": 23.1576974, "tags": {"addr:city": "Izbica", "addr:housenumber": "32", "addr:postcode": "22-375", "addr:street": "Rynek", "amenity": "pharmacy", "dispensing": "yes", "healthcare": "pharmacy", "name": "Apteka. Kita i Wsp\u00f3lnicy", "opening_hours": "Mo-Fr 07:30-17:30; Sa 08:00-14:00", "phone": "+48 84 6183490", "ref:csioz": "1156695"}}, {"type": "node", "id": 4739770054, "lat": 50.8933962, "lon": 23.1583429, "tags": {"addr:city": "Izbica", "addr:housenumber": "98", "addr:postcode": "22-375", "addr:street": "Lubelska", "amenity": "pharmacy", "dispensing": "yes", "healthcare": "pharmacy", "name": "Apteka. Stryjek Maria", "opening_hours": "Mo-Fr 08:00-16:00; Sa 08:00-13:00", "phone": "+48 84 6183012", "ref:csioz": "1157361", "source:addr": "EMUiA@iMPA (izbica.e-mapa.net)"}}, {"type": "node", "id": 4749363390, "lat": 50.6514486, "lon": 23.3724037, "tags": {"amenity": "pharmacy", "dispensing": "yes", "name": "Apteka", "phone": "+48 84 611 35 10", "ref:csioz": "1154571"}}, {"type": "node", "id": 4962455948, "lat": 50.6578775, "lon": 23.2331618, "tags": {"amenity": "pharmacy", "dispensing": "yes", "name": "Apteka w Lipsku", "opening_hours": "Mo-Fr 8:00-16:00; Sa 8:00-14:00", "ref:csioz": "1154190"}}, {"type": "node", "id": 4982575922, "lat": 50.7428907, "lon": 23.5073875, "tags": {"amenity": "pharmacy", "dispensing": "yes", "name": "Apteka", "name:pl": "Apteka", "opening_hours": "Mo-Fr 08:00-16:00; Sa 08:00-12:00", "ref:csioz": "1154612"}}, {"type": "node", "id": 4997077322, "lat": 50.8514629, "lon": 23.3685038, "tags": {"amenity": "pharmacy", "dispensing": "yes", "name": "REMEDIUM", "opening_hours": "Mo-Fr 08:00-18:00; Sa 08:00-14:00", "ref:csioz": "1153815"}}, {"type": "node", "id": 4997126721, "lat": 50.8520475, "lon": 23.3685373, "tags": {"amenity": "pharmacy", "dispensing": "yes", "name": "Apteka A. Michalska", "name:pl": "Apteka A. Michalska", "phone": "+48606937927", "ref:csioz": "1154327"}}, {"type": "node", "id": 5019909621, "lat": 50.7492304, "lon": 23.3611306, "tags": {"amenity": "pharmacy", "dispensing": "yes", "email": "apteka.sitno@gmail.com", "name": "PRIMA Punkt Apteczny", "name:pl": "PRIMA Punkt Apteczny", "opening_hours": "Mo-Fr 08:00-18:00", "phone": "+48846112329", "ref:csioz": "1204945"}}, {"type": "node", "id": 5468036180, "lat": 50.9850469, "lon": 23.5024808, "tags": {"addr:housenumber": "97", "addr:place": "Le\u015bniowice", "addr:postcode": "22-122", "amenity": "pharmacy", "dispensing": "yes", "healthcare": "pharmacy", "name": "Punkt Apteczny Pod \u015awierkami", "opening_hours": "Mo-Fr 08:00-16:00", "ref:csioz": "1194376"}}, {"type": "node", "id": 7266823497, "lat": 50.8190028, "lon": 23.552509, "tags": {"amenity": "pharmacy", "dispensing": "yes", "healthcare": "pharmacy", "name": "Od Serca", "ref:csioz": "1154102", "wheelchair": "yes"}}, {"type": "node", "id": 9092810247, "lat": 50.9075309, "lon": 23.646478, "tags": {"amenity": "pharmacy", "dispensing": "yes", "drive_through": "no", "healthcare": "pharmacy", "opening_hours": "Mo-Fr 08:00-16:00; Sa 09:00-12:00", "ref:csioz": "1154350"}}, {"type": "node", "id": 9546113645, "lat": 50.9184488, "lon": 23.5500044, "tags": {"amenity": "pharmacy", "dispensing": "yes", "email": "apteka_wojs\u0142awice@wp.pl", "healthcare": "pharmacy", "ref:csioz": "1157008"}}, {"type": "node", "id": 9546160657, "lat": 51.0239932, "lon": 23.6732356, "tags": {"amenity": "pharmacy", "dispensing": "yes", "healthcare": "pharmacy", "opening_hours": "Mo-Fr 08:00-16:00", "ref:csioz": "1156589"}}, {"type": "node", "id": 9546166378, "lat": 51.0927555, "lon": 23.5814528, "tags": {"amenity": "pharmacy", "dispensing": "yes", "healthcare": "pharmacy", "name": "Apteka PRIMA", "opening_hours": "Mo-Fr 08:00-16:00", "ref:csioz": "1118116"}}, {"type": "node", "id": 9550277131, "lat": 50.9953775, "lon": 23.1433987, "tags": {"addr:city:simc": "0104484", "addr:housenumber": "2J", "addr:place": "Zakr\u0119cie", "addr:postcode": "22-300", "addr:street": "Zakr\u0119cie", "amenity": "pharmacy", "brand": "Dbam o Zdrowie", "brand:wikidata": "Q62563833", "healthcare": "pharmacy", "name": "Dbam o Zdrowie", "opening_hours": "Mo-Fr 08:00-20:00; Sa 08:00-20:00; Su 10:00-18:00", "phone": "800 110 110", "ref:csioz": "1200231", "short_name": "DOZ", "source:addr": "gugik.gov.pl"}}, {"type": "node", "id": 9568828656, "lat": 50.5941265, "lon": 23.1755919, "tags": {"amenity": "pharmacy", "dispensing": "yes", "healthcare": "pharmacy", "name": "Punkt Apteczny", "ref:csioz": "1191433"}}, {"type": "node", "id": 9568828662, "lat": 50.7597699, "lon": 23.2115343, "tags": {"amenity": "pharmacy", "dispensing": "yes", "healthcare": "pharmacy", "name": "Punkt Apteczny", "ref:csioz": "1208842"}}, {"type": "node", "id": 9569037965, "lat": 50.7105402, "lon": 23.2752947, "tags": {"amenity": "pharmacy", "dispensing": "yes", "name": "Przy Rynku", "ref:csioz": "1222881"}}, {"type": "node", "id": 9569037966, "lat": 50.711538, "lon": 23.276069, "tags": {"amenity": "pharmacy", "dispensing": "yes", "ref:csioz": "1155268"}}, {"type": "node", "id": 9569037967, "lat": 50.7127353, "lon": 23.2776357, "tags": {"amenity": "pharmacy", "dispensing": "yes", "name": "Apteka Gemini", "ref:csioz": "1220799"}}, {"type": "node", "id": 10592022920, "lat": 50.9460052, "lon": 23.0138751, "tags": {"amenity": "pharmacy", "dispensing": "yes", "healthcare": "pharmacy", "opening_hours": "Mo-Fr 08:00-16:00; Sa 07:30-11:00", "operator": "MJ BOLESTA Sp.j.", "phone": "+48 84 6838501", "ref:csioz": "1156680"}}, {"type": "node", "id": 10602366139, "lat": 50.8201621, "lon": 23.5527412, "tags": {"amenity": "pharmacy", "dispensing": "yes", "healthcare": "pharmacy", "ref:csioz": "1155006"}}, {"type": "node", "id": 13125664057, "lat": 50.985298, "lon": 23.170349}, {"type": "node", "id": 13125664058, "lat": 50.985297, "lon": 23.170347}, {"type": "node", "id": 13125664059, "lat": 50.985352, "lon": 23.17048}, {"type": "node", "id": 13125664060, "lat": 50.985353, "lon": 23.170479}, {"type": "node", "id": 13125664061, "lat": 50.985355, "lon": 23.170476}, {"type": "node", "id": 13125664062, "lat": 50.985397, "lon": 23.170424}, {"type": "way", "id": 361798745, "nodes": [3662280635, 13125664062, 3662280292, 13125664061, 13125664060, 13125664059, 3662280565, 3662280289, 3662280564, 3662280472, 3662280558, 13125664058, 13125664057, 3662280753, 3662269387, 3662280635], "tags": {"addr:city": "Krasnystaw", "addr:city:simc": "0930070", "addr:housenumber": "2", "addr:postcode": "22-300", "addr:street": "Cicha", "amenity": "pharmacy", "building": "retail", "building:levels": "1", "dispensing": "yes", "healthcare": "pharmacy", "name": "Medicus II", "opening_hours": "Mo-Fr 07:00-19:00; Sa 07:00-15:00", "phone": "+48 82 5760326", "ref:csioz": "1119210", "source:addr": "mkrasnystaw.e-mapa.net", "source:building": "BDOT", "wheelchair": "yes"}}]}