{"version": 0.6, "generator": "Overpass API 0.7.62.8 e802775f", "osm3s": {"timestamp_osm_base": "2025-10-06T08:59:45Z", "copyright": "The data included in this document is from www.openstreetmap.org. The data is made available under ODbL."}, "elements": [{"type": "node", "id": 823293608, "lat": 54.6309562, "lon": 22.7554594, "tags": {"addr:city": "Kybartai", "addr:contact": "yes", "addr:housenumber": "40", "addr:postcode": "70428", "addr:street": "Vi\u0161ty\u010dio g.", "amenity": "pharmacy", "name": "Norfos vaistin\u0117"}}, {"type": "node", "id": 1872381286, "lat": 54.9543398, "lon": 23.0453223, "tags": {"amenity": "pharmacy", "brand": "Camelia", "brand:wikidata": "Q15867413", "brand:wikipedia": "lt:Nemuno vaistin\u0117", "drive_through": "no", "healthcare": "pharmacy", "name": "Camelia"}}, {"type": "node", "id": 1872381315, "lat": 54.9545826, "lon": 23.0394272, "tags": {"amenity": "pharmacy", "brand": "Camelia", "brand:wikidata": "Q15867413", "brand:wikipedia": "lt:Nemuno vaistin\u0117", "dispensing": "yes", "healthcare": "pharmacy", "name": "Camelia"}}, {"type": "node", "id": 2618473987, "lat": 54.9560576, "lon": 23.0380379, "tags": {"amenity": "pharmacy", "brand": "Camelia", "brand:wikidata": "Q15867413", "brand:wikipedia": "lt:Nemuno vaistin\u0117", "healthcare": "pharmacy", "name": "Camelia"}}, {"type": "node", "id": 2618694741, "lat": 54.9537228, "lon": 23.0455075, "tags": {"addr:city": "\u0160akiai", "addr:contact": "yes", "addr:housenumber": "104", "addr:street": "V. Kudirkos g.", "amenity": "pharmacy", "brand": "Eurovaistin\u0117", "brand:wikidata": "Q267205", "brand:wikipedia": "en:Euroapotheca", "healthcare": "pharmacy", "name": "Eurovaistin\u0117", "opening_hours": "Mo-Fr 08:00-19:00; Sa 08:00-16:00; Su 08:00-15:00", "operator": "UAB EUROVAISTIN\u0116"}}, {"type": "node", "id": 2618694743, "lat": 54.9537483, "lon": 23.0575896, "tags": {"amenity": "pharmacy", "name": "Norfos vaistin\u0117", "opening_hours": "Mo-Fr 08:00-21:00; Sa-Su 08:00-18:00"}}, {"type": "node", "id": 3794106899, "lat": 55.0739607, "lon": 22.979934, "tags": {"addr:city": "Gelgaudi\u0161kis", "addr:contact": "yes", "addr:housenumber": "66", "addr:street": "Taikos g.", "amenity": "pharmacy", "name": "Camelia"}}, {"type": "node", "id": 4684459855, "lat": 54.8498231, "lon": 23.1711802, "tags": {"addr:city": "Gri\u0161kab\u016bdis", "addr:contact": "yes", "addr:housenumber": "1", "addr:postcode": "71295", "addr:street": "Alyv\u0173 g.", "amenity": "pharmacy", "drive_through": "no", "name": "Vaistin\u0117 Ramun\u0117l\u0117", "wheelchair": "no"}}, {"type": "node", "id": 6730895580, "lat": 54.6294521, "lon": 22.5734266, "tags": {"amenity": "pharmacy", "dispensing": "yes", "healthcare": "pharmacy"}}, {"type": "node", "id": 8947904992, "lat": 54.955041, "lon": 23.0269297, "tags": {"amenity": "pharmacy", "brand": "Eurovaistin\u0117", "brand:wikidata": "Q267205", "brand:wikipedia": "en:Euroapotheca", "dispensing": "yes", "healthcare": "pharmacy", "name": "Eurovaistin\u0117"}}, {"type": "node", "id": 11269477973, "lat": 54.7747023, "lon": 22.862931, "tags": {"amenity": "pharmacy", "name": "Camelia vaistin\u0117"}}]}