{"version": 0.6, "generator": "Overpass API 0.7.62.8 e802775f", "osm3s": {"timestamp_osm_base": "2025-10-06T07:51:29Z", "copyright": "The data included in this document is from www.openstreetmap.org. The data is made available under ODbL."}, "elements": [{"type": "node", "id": 4947257634, "lat": 40.6228532, "lon": 20.9865852, "tags": {"amenity": "pharmacy"}}, {"type": "node", "id": 5598889422, "lat": 40.6182686, "lon": 20.7765566, "tags": {"amenity": "pharmacy", "name": "Farmacia 1", "opening_hours": "Mo-Sa 07:30-20:00", "wheelchair": "no"}}, {"type": "node", "id": 6372228362, "lat": 40.6125785, "lon": 20.7767714, "tags": {"amenity": "pharmacy", "name": "Megi", "opening_hours": "Mo-Sa 09:00-21:00; Su off", "wheelchair": "no"}}, {"type": "node", "id": 6372713989, "lat": 40.6180301, "lon": 20.7826117, "tags": {"amenity": "pharmacy", "name": "Borova", "wheelchair": "no"}}, {"type": "node", "id": 6374051772, "lat": 40.6164209, "lon": 20.7833528, "tags": {"amenity": "pharmacy", "name": "Kolaj", "opening_hours": "Mo-Sa 08:00-22:00; Su off", "phone": "+355 69 721 8552", "wheelchair": "no"}}, {"type": "node", "id": 6375617689, "lat": 40.6217595, "lon": 20.7844868, "tags": {"amenity": "pharmacy", "name": "E Terove"}}, {"type": "node", "id": 6376147327, "lat": 40.6303577, "lon": 20.7853742, "tags": {"amenity": "pharmacy", "name": "Mara Pharm", "wheelchair": "no"}}, {"type": "node", "id": 6376221803, "lat": 40.6217514, "lon": 20.7783385, "tags": {"amenity": "pharmacy"}}, {"type": "node", "id": 6376233892, "lat": 40.6209387, "lon": 20.7780663, "tags": {"amenity": "pharmacy", "wheelchair": "no"}}, {"type": "node", "id": 6377776312, "lat": 40.6142876, "lon": 20.7783183, "tags": {"alt_name": "Nefri", "amenity": "pharmacy", "healthcare": "pharmacy", "name": "Zhuli", "opening_hours": "Mo-Sa 08:00-18:00", "wheelchair": "no"}}, {"type": "node", "id": 6380808095, "lat": 40.6132166, "lon": 20.7837351, "tags": {"amenity": "pharmacy", "healthcare": "pharmacy", "name": "Imena", "opening_hours": "Mo-Su 08:30-21:00", "wheelchair": "yes"}}, {"type": "node", "id": 6400580098, "lat": 40.6237531, "lon": 20.7793112, "tags": {"amenity": "pharmacy", "name": "Kosta", "opening_hours": "Mo-Sa 09:00-14:00, 17:00-20:00", "wheelchair": "no"}}, {"type": "node", "id": 6416284307, "lat": 40.6101668, "lon": 20.7881963, "tags": {"amenity": "pharmacy", "healthcare": "pharmacy", "name": "Sandri 2", "wheelchair": "no"}}, {"type": "node", "id": 6416400534, "lat": 40.611106, "lon": 20.7811734, "tags": {"amenity": "pharmacy", "name": "Jatagani"}}, {"type": "node", "id": 6416400538, "lat": 40.6123958, "lon": 20.7819994, "tags": {"amenity": "pharmacy", "name": "Meri"}}, {"type": "node", "id": 6418133508, "lat": 40.6127316, "lon": 20.777416, "tags": {"amenity": "pharmacy", "name": "Dallto"}}, {"type": "node", "id": 6418133529, "lat": 40.6107572, "lon": 20.77694, "tags": {"amenity": "pharmacy", "name": "Pandi", "wheelchair": "no"}}, {"type": "node", "id": 6418193660, "lat": 40.6111039, "lon": 20.7796235, "tags": {"amenity": "pharmacy", "name": "Kristi", "opening_hours": "Mo-Su 08:00-20:00", "wheelchair": "no"}}, {"type": "node", "id": 6419399912, "lat": 40.6227264, "lon": 20.7784396, "tags": {"amenity": "pharmacy", "name": "Juli Farma", "opening_hours": "Mo-Sa 09:00-14:00, 16:00-19:00; Su off", "wheelchair": "no"}}, {"type": "node", "id": 6419399930, "lat": 40.6268848, "lon": 20.7781714, "tags": {"amenity": "pharmacy", "healthcare": "pharmacy", "name": "Gloria", "wheelchair": "no"}}, {"type": "node", "id": 6426186516, "lat": 40.6141902, "lon": 20.7764369, "tags": {"amenity": "pharmacy", "healthcare": "pharmacy", "name": "BioPlus", "wheelchair": "no"}}, {"type": "node", "id": 6430146344, "lat": 40.6084572, "lon": 20.7799614, "tags": {"amenity": "pharmacy", "name": "Arta"}}, {"type": "node", "id": 6430146348, "lat": 40.60847, "lon": 20.780494, "tags": {"amenity": "pharmacy", "name": "Mapika"}}, {"type": "node", "id": 6434138717, "lat": 40.6178105, "lon": 20.7710557, "tags": {"amenity": "pharmacy", "name": "Mikel Qaja", "short_name": "Qaja", "wheelchair": "yes"}}, {"type": "node", "id": 6438906295, "lat": 40.6237248, "lon": 20.9867278, "tags": {"amenity": "pharmacy", "name": "Devolli", "opening_hours": "Mo-Sa 09:00-17:00", "wheelchair": "limited"}}, {"type": "node", "id": 7690634387, "lat": 40.3379556, "lon": 20.6808851, "tags": {"amenity": "pharmacy"}}, {"type": "node", "id": 9183423436, "lat": 40.4157655, "lon": 21.0593257, "tags": {"amenity": "pharmacy", "healthcare": "pharmacy"}}, {"type": "node", "id": 9200216118, "lat": 40.6193231, "lon": 20.7785719, "tags": {"amenity": "pharmacy"}}, {"type": "node", "id": 9200216128, "lat": 40.6219223, "lon": 20.7743025, "tags": {"amenity": "pharmacy", "healthcare": "pharmacy", "name": "Lizeta", "wheelchair": "no"}}, {"type": "node", "id": 9200216323, "lat": 40.6194757, "lon": 20.7749793, "tags": {"amenity": "pharmacy", "healthcare": "pharmacy", "name": "Alma"}}, {"type": "node", "id": 9200216324, "lat": 40.6193645, "lon": 20.7749966, "tags": {"amenity": "pharmacy", "healthcare": "pharmacy", "name": "Marjana"}}, {"type": "node", "id": 9822402414, "lat": 40.6146467, "lon": 20.77972, "tags": {"amenity": "pharmacy", "healthcare": "pharmacy", "name": "Imena", "wheelchair": "no"}}, {"type": "node", "id": 9825988508, "lat": 40.6139572, "lon": 20.7799421, "tags": {"amenity": "pharmacy", "healthcare": "pharmacy", "name": "Orange"}}, {"type": "node", "id": 9826047310, "lat": 40.6191942, "lon": 20.7777994, "tags": {"amenity": "pharmacy", "healthcare": "pharmacy", "name": "Dit\u00eb e Nat\u00eb", "opening_hours": "Mo-Su 07:00-22:00", "website": "http://www.ditenate.al", "wheelchair": "yes"}}, {"type": "node", "id": 9826051434, "lat": 40.6145393, "lon": 20.7798575, "tags": {"amenity": "pharmacy", "healthcare": "pharmacy", "name": "Lizeta", "opening_hours": "Mo-Sa 08:00-21:00; Su 9:00-20:00", "wheelchair": "no"}}, {"type": "node", "id": 9839187210, "lat": 40.6240563, "lon": 20.7821611, "tags": {"amenity": "pharmacy", "healthcare": "pharmacy", "name": "Curaprox", "wheelchair": "no"}}, {"type": "node", "id": 9844769342, "lat": 40.6115464, "lon": 20.7843016, "tags": {"amenity": "pharmacy", "healthcare": "pharmacy", "name": "Dori", "wheelchair": "no"}}, {"type": "node", "id": 9856281304, "lat": 40.5088114, "lon": 20.9285643, "tags": {"amenity": "pharmacy", "healthcare": "pharmacy", "name": "Helptika"}}, {"type": "node", "id": 9865919172, "lat": 40.6182802, "lon": 20.7767691, "tags": {"amenity": "pharmacy", "healthcare": "pharmacy", "name": "Farmavitta", "wheelchair": "no"}}, {"type": "node", "id": 9893625766, "lat": 40.6141251, "lon": 20.7806763, "tags": {"amenity": "pharmacy", "healthcare": "pharmacy", "name": "Eri", "opening_hours": "Mo-Sa 08:00-20:00", "phone": "+355 69 358 3858", "wheelchair": "no"}}, {"type": "node", "id": 10082424895, "lat": 40.6196918, "lon": 20.7827623, "tags": {"amenity": "pharmacy", "healthcare": "pharmacy", "name": "Dea", "wheelchair": "no"}}, {"type": "node", "id": 10118570779, "lat": 40.6216042, "lon": 20.779206, "tags": {"amenity": "pharmacy", "healthcare": "pharmacy", "name": "SiDrit", "phone": "+355 69 360 7407", "wheelchair": "no"}}, {"type": "node", "id": 10199255470, "lat": 40.6111122, "lon": 20.7851972, "tags": {"amenity": "pharmacy", "healthcare": "pharmacy", "name": "Nial", "wheelchair": "no"}}, {"type": "node", "id": 12192631539, "lat": 40.4149154, "lon": 21.0590738, "tags": {"amenity": "pharmacy", "healthcare": "pharmacy", "name": "\u03a6\u03b1\u03c1\u03bc\u03b1\u03ba\u03b5\u03af\u03bf \u039d\u03b9\u03ba\u03cc\u03bb\u03b1\u03bf\u03c2 \u039a. \u0399\u03c9\u03b1\u03bd\u03bd\u03af\u03b4\u03b7\u03c2", "phone": "2467031184"}}, {"type": "node", "id": 12912379399, "lat": 40.6137636, "lon": 20.7814551, "tags": {"amenity": "pharmacy", "healthcare": "pharmacy", "name": "Andi", "wheelchair": "no"}}, {"type": "node", "id": 12954794831, "lat": 40.6175905, "lon": 20.7818599, "tags": {"amenity": "pharmacy", "healthcare": "pharmacy", "name": "Farmavitta", "wheelchair": "no"}}]}