{"version": 0.6, "generator": "Overpass API 0.7.62.8 e802775f", "osm3s": {"timestamp_osm_base": "2025-10-06T08:47:24Z", "copyright": "The data included in this document is from www.openstreetmap.org. The data is made available under ODbL."}, "elements": [{"type": "node", "id": 2472113667, "lat": 38.4973316, "lon": 27.870279, "tags": {"amenity": "pharmacy", "healthcare": "pharmacy", "name": "G\u00f6kkaya Eczanesi"}}, {"type": "node", "id": 3927096334, "lat": 38.6200586, "lon": 27.4362736, "tags": {"addr:city": "Manisa", "amenity": "pharmacy", "healthcare": "pharmacy", "name": "Yeni Hastane Eczanesi", "phone": "+90 236 234 67 67"}}, {"type": "node", "id": 3927096336, "lat": 38.6199774, "lon": 27.4362222, "tags": {"addr:city": "Manisa", "amenity": "pharmacy", "healthcare": "pharmacy", "name": "Kasapo\u011flu Eczanesi"}}, {"type": "node", "id": 3927096339, "lat": 38.6199223, "lon": 27.4361934, "tags": {"addr:city": "Manisa", "amenity": "pharmacy", "healthcare": "pharmacy", "name": "Kevser Eczanesi", "phone": "+90 236 999 18 22"}}, {"type": "node", "id": 3927096351, "lat": 38.6195562, "lon": 27.4359703, "tags": {"addr:city": "Manisa", "amenity": "pharmacy", "healthcare": "pharmacy", "name": "K\u00fcbra Eczanesi", "phone": "+90 236 238 58 88"}}, {"type": "node", "id": 3927096596, "lat": 38.6186237, "lon": 27.4361417, "tags": {"addr:city": "Manisa", "amenity": "pharmacy", "healthcare": "pharmacy", "name": "Duygu Eczanesi", "phone": "+90 236 250 52 50"}}, {"type": "node", "id": 3927096598, "lat": 38.6184749, "lon": 27.43597, "tags": {"amenity": "pharmacy", "healthcare": "pharmacy", "name": "Can Eczanesi", "phone": "+90 236 231 37 09"}}, {"type": "node", "id": 3970270179, "lat": 38.6157285, "lon": 27.4283833, "tags": {"addr:city": "\u015eehzadeler/Manisa", "addr:housenumber": "50/A", "addr:street": "Belediye Caddesi", "amenity": "pharmacy", "healthcare": "pharmacy", "name": "\u00c7\u0131narl\u0131 Eczanesi", "phone": "+90 236 234 03 95"}}, {"type": "node", "id": 7965444782, "lat": 38.4902229, "lon": 27.6926193, "tags": {"amenity": "pharmacy", "healthcare": "pharmacy", "name": "Bar\u0131\u015f Eczanesi", "phone": "+90 236 314 5885"}}, {"type": "node", "id": 7965507394, "lat": 38.491634, "lon": 27.7041379, "tags": {"amenity": "pharmacy", "healthcare": "pharmacy", "name": "Deva Eczanesi", "phone": "+90 236 314 3284"}}, {"type": "node", "id": 7965515533, "lat": 38.4901512, "lon": 27.6929929, "tags": {"amenity": "pharmacy", "healthcare": "pharmacy", "name": "Sa\u011fl\u0131k Eczanesi", "phone": "+90 236 314 6330"}}, {"type": "node", "id": 7968534668, "lat": 38.6170667, "lon": 27.4160783, "tags": {"amenity": "pharmacy", "healthcare": "pharmacy", "name": "Aksoy Eczanesi"}}, {"type": "node", "id": 7968534669, "lat": 38.6140564, "lon": 27.4213005, "tags": {"amenity": "pharmacy", "healthcare": "pharmacy", "name": "\u00c7etin Eczanesi", "phone": "+90 236 231 05 51"}}, {"type": "node", "id": 7968567857, "lat": 38.6167544, "lon": 27.4161058, "tags": {"amenity": "pharmacy", "healthcare": "pharmacy", "name": "Derya Eczanesi"}}, {"type": "node", "id": 7968568781, "lat": 38.616242, "lon": 27.4091587, "tags": {"addr:housenumber": "NO:137/B", "addr:postcode": "45000", "addr:street": "Mimar Sinan Blv.", "amenity": "pharmacy", "healthcare": "pharmacy", "name": "Buse Eczanesi", "opening_hours": "Mo-Fr 08:30-19:00", "phone": "(0236) 232 19 43", "website": "https://www.eczaneler.gen.tr/eczane/manisa-merkez-buse-eczanesi"}}, {"type": "node", "id": 7968575798, "lat": 38.6114998, "lon": 27.4101775, "tags": {"amenity": "pharmacy", "healthcare": "pharmacy", "name": "Evran Eczanesi", "phone": "+90 236 231 61 69"}}, {"type": "node", "id": 7968576743, "lat": 38.6137851, "lon": 27.4196542, "tags": {"amenity": "pharmacy", "healthcare": "pharmacy", "name": "G\u00fcner Eczanesi", "phone": "+90 236 232 01 21"}}, {"type": "node", "id": 7968577342, "lat": 38.6119923, "lon": 27.4098474, "tags": {"amenity": "pharmacy", "healthcare": "pharmacy", "name": "Merkez Eczanesi", "phone": "+90 236 238 92 76"}}, {"type": "node", "id": 7968579167, "lat": 38.6167342, "lon": 27.4158892, "tags": {"amenity": "pharmacy", "healthcare": "pharmacy", "name": "\u015eenkal Eczanesi"}}, {"type": "node", "id": 7968579645, "lat": 38.6110097, "lon": 27.4111767, "tags": {"amenity": "pharmacy", "healthcare": "pharmacy", "name": "\u00d6zdo\u011fan Eczanesi"}}, {"type": "node", "id": 7968588832, "lat": 38.6123773, "lon": 27.4097226, "tags": {"amenity": "pharmacy", "healthcare": "pharmacy", "name": "Mesir Eczanesi", "phone": "+90 236 232 00 71"}}, {"type": "node", "id": 7968591605, "lat": 38.6103181, "lon": 27.4102978, "tags": {"amenity": "pharmacy", "healthcare": "pharmacy", "name": "G\u00fcm\u00fc\u015f Eczanesi"}}, {"type": "node", "id": 10692822205, "lat": 38.6101507, "lon": 27.4369811, "tags": {"amenity": "pharmacy", "healthcare": "pharmacy", "name": "Arzu Eczanesi", "phone": "+90 236 237 55 66"}}, {"type": "node", "id": 10692822206, "lat": 38.6103294, "lon": 27.4370272, "tags": {"amenity": "pharmacy", "healthcare": "pharmacy", "name": "Merc\u00fcl Eczanesi", "phone": "+90 236 234 59 99"}}, {"type": "node", "id": 10692822207, "lat": 38.6127704, "lon": 27.4347541, "tags": {"amenity": "pharmacy", "healthcare": "pharmacy", "name": "Borsa Eczanesi", "phone": "+90 236 232 42 90"}}, {"type": "node", "id": 10692822208, "lat": 38.6139862, "lon": 27.4382928, "tags": {"amenity": "pharmacy", "healthcare": "pharmacy", "name": "Alaybey Eczanesi", "phone": "+90 236 232 00 69"}}, {"type": "node", "id": 10692822209, "lat": 38.61226, "lon": 27.4307084, "tags": {"amenity": "pharmacy", "healthcare": "pharmacy", "name": "Hilal Eczanesi", "phone": "+90 236 237 10 08"}}, {"type": "node", "id": 10692822210, "lat": 38.6129101, "lon": 27.430446, "tags": {"amenity": "pharmacy", "healthcare": "pharmacy", "name": "G\u00fcm\u00fc\u015fsu Eczanesi", "phone": "+90 236 231 35 75"}}, {"type": "node", "id": 10692822211, "lat": 38.6131085, "lon": 27.4288146, "tags": {"amenity": "pharmacy", "healthcare": "pharmacy", "name": "Bulvar Eczanesi", "phone": "+90 236 239 36 41"}}, {"type": "node", "id": 10692822212, "lat": 38.6144456, "lon": 27.4300101, "tags": {"amenity": "pharmacy", "healthcare": "pharmacy", "name": "Ahmet Selim Eczanesi", "phone": "+90 236 231 19 58"}}, {"type": "node", "id": 10692822213, "lat": 38.6158613, "lon": 27.4310607, "tags": {"addr:housenumber": "23/A", "addr:street": "Cumhuriyet Caddesi", "amenity": "pharmacy", "healthcare": "pharmacy", "name": "Deva Eczanesi", "phone": "+90 236 231 25 27"}}, {"type": "node", "id": 10692822214, "lat": 38.6161257, "lon": 27.4314137, "tags": {"addr:housenumber": "29/B", "addr:street": "Cumhuriyet Caddesi", "amenity": "pharmacy", "healthcare": "pharmacy", "name": "Saadet Eczanesi", "phone": "+90 236 231 30 87"}}, {"type": "node", "id": 10692822215, "lat": 38.6160508, "lon": 27.428755, "tags": {"amenity": "pharmacy", "healthcare": "pharmacy", "name": "Umut Eczanesi", "phone": "+90 236 231 61 74"}}, {"type": "node", "id": 10692822216, "lat": 38.616201, "lon": 27.428825, "tags": {"amenity": "pharmacy", "healthcare": "pharmacy", "name": "T\u00fcrkay Eczanesi", "phone": "+90 236 231 61 72"}}, {"type": "node", "id": 10692822217, "lat": 38.6183038, "lon": 27.4259506, "tags": {"amenity": "pharmacy", "healthcare": "pharmacy", "name": "G\u00fcrsev Eczanesi", "phone": "+90 236 238 72 77"}}, {"type": "node", "id": 10692822218, "lat": 38.6145045, "lon": 27.4205284, "tags": {"amenity": "pharmacy", "healthcare": "pharmacy", "name": "Cansu Eczanesi", "phone": "+90 236 408 24 51"}}, {"type": "node", "id": 10692822219, "lat": 38.6141573, "lon": 27.4194824, "tags": {"amenity": "pharmacy", "healthcare": "pharmacy", "name": "Ada Eczanesi", "phone": "+90 236 231 09 73"}}, {"type": "node", "id": 10692822220, "lat": 38.6097344, "lon": 27.4235104, "tags": {"amenity": "pharmacy", "healthcare": "pharmacy", "name": "\u015eifa Eczanesi", "phone": "+90 236 238 63 61"}}, {"type": "node", "id": 10692822221, "lat": 38.6108554, "lon": 27.4246983, "tags": {"amenity": "pharmacy", "healthcare": "pharmacy", "name": "Do\u011fanay Eczanesi", "phone": "+90 236 237 37 20"}}, {"type": "node", "id": 10692822222, "lat": 38.6089883, "lon": 27.420923, "tags": {"amenity": "pharmacy", "healthcare": "pharmacy", "name": "Karak\u00f6y Eczanesi", "phone": "+90 236 239 58 24"}}, {"type": "node", "id": 10692822223, "lat": 38.6082116, "lon": 27.4187462, "tags": {"amenity": "pharmacy", "healthcare": "pharmacy", "name": "\u0130lk Umut Eczanesi", "phone": "+90 236 239 58 24"}}, {"type": "node", "id": 10692822305, "lat": 38.6126288, "lon": 27.4356132, "tags": {"amenity": "pharmacy", "healthcare": "pharmacy", "name": "Koza Eczanesi", "phone": "+90 236 231 13 03"}}, {"type": "node", "id": 10692822306, "lat": 38.6151049, "lon": 27.4255885, "tags": {"amenity": "pharmacy", "healthcare": "pharmacy", "name": "G\u00fcne\u015f Eczanesi", "phone": "+90 236 231 30 97"}}, {"type": "node", "id": 10692822307, "lat": 38.618723, "lon": 27.4261267, "tags": {"amenity": "pharmacy", "healthcare": "pharmacy", "name": "\u00c7al\u0131\u015fkan Eczanesi"}}, {"type": "node", "id": 10692822308, "lat": 38.6125663, "lon": 27.4185505, "tags": {"amenity": "pharmacy", "healthcare": "pharmacy", "name": "G\u00fcrer Eczanesi", "phone": "+90 236 408 66 76"}}, {"type": "node", "id": 10692822309, "lat": 38.6127318, "lon": 27.4181363, "tags": {"amenity": "pharmacy", "healthcare": "pharmacy", "name": "Pelin Akkaya Eczanesi", "phone": "+90 236 250 66 44"}}, {"type": "node", "id": 10692822310, "lat": 38.6090935, "lon": 27.4162696, "tags": {"amenity": "pharmacy", "healthcare": "pharmacy", "name": "P\u0131nar Eczanesi", "phone": "+90 236 232 74 02"}}, {"type": "node", "id": 10692822311, "lat": 38.6089008, "lon": 27.416189, "tags": {"amenity": "pharmacy", "healthcare": "pharmacy", "name": "Aksakal Eczanesi", "phone": "+90 236 231 59 67"}}, {"type": "node", "id": 10692822905, "lat": 38.6147248, "lon": 27.438471, "tags": {"amenity": "pharmacy", "healthcare": "pharmacy", "name": "Dilek Eczanesi", "phone": "+90 236 231 33 03"}}, {"type": "node", "id": 10692822906, "lat": 38.611712, "lon": 27.4303665, "tags": {"amenity": "pharmacy", "healthcare": "pharmacy", "name": "Emine Bet\u00fcl Eczanesi", "phone": "+90 236 231 40 42"}}, {"type": "node", "id": 10692822907, "lat": 38.6126921, "lon": 27.4301957, "tags": {"amenity": "pharmacy", "healthcare": "pharmacy", "name": "Yeni Eczanesi", "phone": "+90 236 232 00 70"}}, {"type": "node", "id": 10692822908, "lat": 38.6170203, "lon": 27.4236851, "tags": {"amenity": "pharmacy", "healthcare": "pharmacy", "name": "Sekiz Eyl\u00fcl Eczanesi", "phone": "+90 236 231 64 17"}}, {"type": "node", "id": 10692822909, "lat": 38.6094811, "lon": 27.4219657, "tags": {"amenity": "pharmacy", "healthcare": "pharmacy", "name": "Kalfao\u011flu Eczanesi", "phone": "+90 236 231 70 68"}}, {"type": "node", "id": 10692823005, "lat": 38.6118256, "lon": 27.4307284, "tags": {"amenity": "pharmacy", "healthcare": "pharmacy", "name": "Manisa Eczanesi", "phone": "+90 236 232 41 32"}}, {"type": "node", "id": 10692823105, "lat": 38.6123757, "lon": 27.430351, "tags": {"amenity": "pharmacy", "healthcare": "pharmacy", "name": "G\u00f6zdem Eczanesi", "phone": "+90 236 237 88 00"}}, {"type": "node", "id": 10692823106, "lat": 38.6130625, "lon": 27.4291601, "tags": {"amenity": "pharmacy", "healthcare": "pharmacy", "name": "Park Eczanesi", "phone": "+90 236 231 12 89"}}, {"type": "node", "id": 10692823107, "lat": 38.6139676, "lon": 27.4311164, "tags": {"amenity": "pharmacy", "healthcare": "pharmacy", "name": "Nursen Eczanesi", "phone": "+90 236 237 34 04"}}, {"type": "node", "id": 10692823108, "lat": 38.6174534, "lon": 27.4275629, "tags": {"amenity": "pharmacy", "healthcare": "pharmacy", "name": "G\u00fclen Eczanesi", "phone": "+90 236 237 30 03"}}, {"type": "node", "id": 10692823109, "lat": 38.6142129, "lon": 27.4265122, "tags": {"amenity": "pharmacy", "healthcare": "pharmacy", "name": "Meltem Eczanesi", "phone": "+90 236 232 32 12"}}, {"type": "node", "id": 10692823110, "lat": 38.6139283, "lon": 27.4238625, "tags": {"amenity": "pharmacy", "healthcare": "pharmacy", "name": "G\u00f6zde Eczanesi", "phone": "+90 236 231 08 00"}}, {"type": "node", "id": 10692823111, "lat": 38.617621, "lon": 27.4229748, "tags": {"amenity": "pharmacy", "healthcare": "pharmacy", "name": "Ba\u015far\u0131 Eczanesi", "phone": "+90 236 231 46 26"}}, {"type": "node", "id": 10692823112, "lat": 38.6186861, "lon": 27.4242431, "tags": {"amenity": "pharmacy", "healthcare": "pharmacy", "name": "\u00d6nc\u00fc Eczanesi", "phone": "+90 236 234 04 04"}}, {"type": "node", "id": 10692823113, "lat": 38.6106597, "lon": 27.4247122, "tags": {"amenity": "pharmacy", "healthcare": "pharmacy", "name": "Bar\u0131\u015f Eczanesi", "phone": "+90 236 232 96 10"}}, {"type": "node", "id": 10692823114, "lat": 38.6106907, "lon": 27.4249562, "tags": {"amenity": "pharmacy", "healthcare": "pharmacy", "name": "Saruhan Eczanesi", "phone": "+90 236 231 06 65"}}, {"type": "node", "id": 10692823115, "lat": 38.6093775, "lon": 27.4165042, "tags": {"amenity": "pharmacy", "healthcare": "pharmacy", "name": "Ufuk Eczanesi", "phone": "+90 236 409 55 75"}}, {"type": "node", "id": 10692823116, "lat": 38.6099546, "lon": 27.4136681, "tags": {"amenity": "pharmacy", "healthcare": "pharmacy", "name": "Yunusemre Eczanesi", "phone": "+90 236 234 49 88"}}, {"type": "node", "id": 10692823205, "lat": 38.6155323, "lon": 27.4303646, "tags": {"addr:housenumber": "3/A", "addr:street": "1714. (Adalet) Sokak", "amenity": "pharmacy", "healthcare": "pharmacy", "name": "Yavuz Eczanesi"}}, {"type": "node", "id": 10692823206, "lat": 38.6100063, "lon": 27.4253449, "tags": {"amenity": "pharmacy", "healthcare": "pharmacy", "name": "Vitamin Eczanesi", "phone": "+90 236 231 58 59"}}, {"type": "node", "id": 10692823207, "lat": 38.6092498, "lon": 27.4171117, "tags": {"amenity": "pharmacy", "healthcare": "pharmacy", "name": "Esra Eczanesi", "phone": "+90 236 232 12 15"}}, {"type": "node", "id": 10698730005, "lat": 38.6161147, "lon": 27.4608112, "tags": {"amenity": "pharmacy", "healthcare": "pharmacy", "name": "\u00c7a\u011fr\u0131 Eczanesi", "phone": "+90 236 239 28 84"}}, {"type": "node", "id": 10698730006, "lat": 38.6149631, "lon": 27.4608998, "tags": {"amenity": "pharmacy", "healthcare": "pharmacy", "name": "Co\u015fkun Eczanesi", "phone": "+90 236 237 52 58"}}, {"type": "node", "id": 10698730007, "lat": 38.6150482, "lon": 27.4608204, "tags": {"amenity": "pharmacy", "healthcare": "pharmacy", "name": "\u015eehir Eczanesi", "phone": "+90 236 231 75 74"}}, {"type": "node", "id": 10698730008, "lat": 38.615006, "lon": 27.4608574, "tags": {"amenity": "pharmacy", "healthcare": "pharmacy", "name": "Nab\u0131z Eczanesi", "phone": "+90 236 503 30 05"}}, {"type": "node", "id": 10698730009, "lat": 38.6151934, "lon": 27.4607068, "tags": {"amenity": "pharmacy", "healthcare": "pharmacy", "name": "Beyaz Eczanesi", "phone": "+90 236 503 80 89"}}, {"type": "node", "id": 10698730010, "lat": 38.6174282, "lon": 27.456934, "tags": {"amenity": "pharmacy", "healthcare": "pharmacy", "name": "G\u00f6khan Eczanesi", "phone": "+90 236 234 19 94"}}, {"type": "node", "id": 10698730011, "lat": 38.6178266, "lon": 27.4419177, "tags": {"amenity": "pharmacy", "healthcare": "pharmacy", "name": "Akdur Eczanesi", "phone": "+90 236 231 34 64"}}, {"type": "node", "id": 10698730012, "lat": 38.6178236, "lon": 27.4431368, "tags": {"amenity": "pharmacy", "healthcare": "pharmacy", "name": "Ay\u015fenur Eczanesi", "phone": "+90 236 235 22 29"}}, {"type": "node", "id": 10698730013, "lat": 38.6182999, "lon": 27.4431057, "tags": {"amenity": "pharmacy", "healthcare": "pharmacy", "name": "Seval Eczanesi", "phone": "+90 236 237 10 09"}}, {"type": "node", "id": 10698730014, "lat": 38.6183063, "lon": 27.4360947, "tags": {"amenity": "pharmacy", "healthcare": "pharmacy", "name": "Yi\u011fit Eczanesi", "phone": "+90 236 232 01 23"}}, {"type": "node", "id": 10698730015, "lat": 38.6182771, "lon": 27.4359368, "tags": {"amenity": "pharmacy", "healthcare": "pharmacy", "name": "Ekin Eczanesi", "phone": "+90 236 239 36 00"}}, {"type": "node", "id": 10698730016, "lat": 38.6186129, "lon": 27.4359703, "tags": {"amenity": "pharmacy", "healthcare": "pharmacy", "name": "Ad\u0131g\u00fczel Eczanesi", "phone": "+90 236 232 35 36"}}, {"type": "node", "id": 10698730017, "lat": 38.6190905, "lon": 27.4359096, "tags": {"amenity": "pharmacy", "healthcare": "pharmacy", "name": "Kaptan Eczanesi", "phone": "+90 236 231 25 28"}}, {"type": "node", "id": 10698730105, "lat": 38.6149266, "lon": 27.460948, "tags": {"amenity": "pharmacy", "healthcare": "pharmacy", "name": "Oksijen Eczanesi", "phone": "+90 236 503 16 00"}}, {"type": "node", "id": 10698730106, "lat": 38.617665, "lon": 27.4430673, "tags": {"amenity": "pharmacy", "healthcare": "pharmacy", "name": "\u00d6zalp Eczanesi", "phone": "+90 236 238 77 33"}}, {"type": "node", "id": 10698730205, "lat": 38.6151413, "lon": 27.4607336, "tags": {"amenity": "pharmacy", "healthcare": "pharmacy", "name": "Yeni Hastane Eczanesi", "phone": "+90 236 231 15 47"}}, {"type": "node", "id": 10698730206, "lat": 38.6150952, "lon": 27.4607745, "tags": {"amenity": "pharmacy", "healthcare": "pharmacy", "name": "Spil Eczanesi", "phone": "+90 236 503 40 54"}}, {"type": "node", "id": 10698730207, "lat": 38.6152617, "lon": 27.4606664, "tags": {"amenity": "pharmacy", "healthcare": "pharmacy", "name": "Kurto\u011flu Eczanesi", "phone": "+90 236 503 40 47"}}, {"type": "node", "id": 10698730208, "lat": 38.6174923, "lon": 27.4551373, "tags": {"amenity": "pharmacy", "healthcare": "pharmacy", "name": "I\u015f\u0131k Eczanesi", "phone": "+90 236 234 08 20"}}, {"type": "node", "id": 10698730209, "lat": 38.6205233, "lon": 27.4519905, "tags": {"amenity": "pharmacy", "healthcare": "pharmacy", "name": "Sevim Eczanesi", "phone": "+90 236 234 26 50"}}, {"type": "node", "id": 10698730210, "lat": 38.6180594, "lon": 27.4431172, "tags": {"amenity": "pharmacy", "healthcare": "pharmacy", "name": "Yapa Eczanesi", "phone": "+90 236 239 77 33"}}, {"type": "node", "id": 10698730211, "lat": 38.617558, "lon": 27.4360765, "tags": {"amenity": "pharmacy", "healthcare": "pharmacy", "name": "Havuzlu Eczanesi", "phone": "+90 236 239 53 52"}}, {"type": "node", "id": 10698730305, "lat": 38.6198111, "lon": 27.4547129, "tags": {"amenity": "pharmacy", "healthcare": "pharmacy", "name": "\u00d6zden Eczanesi", "phone": "+90 236 714 65 01"}}, {"type": "node", "id": 10698730306, "lat": 38.617945, "lon": 27.443126, "tags": {"amenity": "pharmacy", "healthcare": "pharmacy", "name": "Eslek Eczanesi", "phone": "+90 236 239 09 30"}}, {"type": "node", "id": 10698730307, "lat": 38.6181738, "lon": 27.4431112, "tags": {"amenity": "pharmacy", "healthcare": "pharmacy", "name": "Sa\u011fl\u0131k Eczanesi", "phone": "+90 236 234 30 34"}}, {"type": "node", "id": 10698730308, "lat": 38.6183279, "lon": 27.4359477, "tags": {"amenity": "pharmacy", "healthcare": "pharmacy", "name": "U\u011fur Eczanesi", "phone": "+90 236 238 28 62"}}, {"type": "node", "id": 10698730309, "lat": 38.6193149, "lon": 27.4357658, "tags": {"amenity": "pharmacy", "healthcare": "pharmacy", "name": "Nur Ege Eczanesi", "phone": "+90 236 239 67 44"}}, {"type": "node", "id": 11396681873, "lat": 38.4588371, "lon": 27.4486645, "tags": {"amenity": "pharmacy", "name": "S\u00fct\u00e7\u00fcler Eczanesi", "phone": "+90 232 887 1440"}}, {"type": "node", "id": 11396695869, "lat": 38.418521, "lon": 27.4669041, "tags": {"amenity": "pharmacy", "name": "Yeni \u00d6rnekk\u00f6y Eczanesi", "phone": "+90 232 883 1617"}}, {"type": "node", "id": 11601279069, "lat": 38.4904195, "lon": 27.7291109, "tags": {"amenity": "pharmacy", "healthcare": "pharmacy", "name": "\u0130nci Eczanesi", "phone": "+90 236 320 0263"}}, {"type": "node", "id": 11601279070, "lat": 38.5088443, "lon": 27.7055714, "tags": {"amenity": "pharmacy", "name": "\u015eifa Eczanesi", "phone": "+90 236 313 1212"}}, {"type": "node", "id": 11601279071, "lat": 38.5066272, "lon": 27.6977863, "tags": {"amenity": "pharmacy", "healthcare": "pharmacy", "name": "\u00d6zkan Eczanesi", "phone": "+90 236 312 1661"}}, {"type": "node", "id": 11601279072, "lat": 38.5011795, "lon": 27.6960821, "tags": {"amenity": "pharmacy", "name": "Demirkaya Eczanesi", "phone": "+90 236 312 0201"}}, {"type": "node", "id": 11601279073, "lat": 38.4928728, "lon": 27.6970522, "tags": {"amenity": "pharmacy", "healthcare": "pharmacy", "name": "Sevin\u00e7 Eczanesi", "phone": "+90 236 312 0112"}}, {"type": "node", "id": 11601279169, "lat": 38.4904131, "lon": 27.728826, "tags": {"amenity": "pharmacy", "healthcare": "pharmacy", "name": "\u00d6zge Eczanesi", "phone": "+90 236 503 7540"}}, {"type": "node", "id": 11601279170, "lat": 38.5009205, "lon": 27.6969495, "tags": {"amenity": "pharmacy", "name": "\u0130kbal Eczanesi", "phone": "+90 236 314 0108"}}, {"type": "node", "id": 11601279171, "lat": 38.485942, "lon": 27.7041283, "tags": {"amenity": "pharmacy", "healthcare": "pharmacy", "name": "Uzun Eczanesi", "phone": "+90 236 312 5253"}}, {"type": "node", "id": 11601279172, "lat": 38.4859828, "lon": 27.7039007, "tags": {"amenity": "pharmacy", "healthcare": "pharmacy", "name": "Selvilitepe Eczanesi", "phone": "+90 236 314 4144"}}, {"type": "node", "id": 11601279269, "lat": 38.5040699, "lon": 27.7125584, "tags": {"amenity": "pharmacy", "healthcare": "pharmacy", "name": "Altay Eczanesi", "phone": "+90 236 314 4250"}}, {"type": "node", "id": 11601279270, "lat": 38.5066519, "lon": 27.6975426, "tags": {"amenity": "pharmacy", "healthcare": "pharmacy", "name": "Baran Eczanesi", "phone": "+90 236 314 1177"}}, {"type": "node", "id": 11601279271, "lat": 38.4934634, "lon": 27.6951419, "tags": {"amenity": "pharmacy", "healthcare": "pharmacy", "name": "Y\u00fcksel Eczanesi", "phone": "+90 236 313 9900"}}, {"type": "node", "id": 11601279369, "lat": 38.5036682, "lon": 27.7124283, "tags": {"amenity": "pharmacy", "healthcare": "pharmacy", "name": "Eser Eczanesi", "phone": "+90 236 312 3637"}}, {"type": "node", "id": 11601279370, "lat": 38.5100341, "lon": 27.7083923, "tags": {"amenity": "pharmacy", "healthcare": "pharmacy", "name": "Ba\u015fak Eczanesi", "phone": "+90 236 313 7826"}}, {"type": "node", "id": 11601279371, "lat": 38.5101578, "lon": 27.7079983, "tags": {"amenity": "pharmacy", "healthcare": "pharmacy", "name": "Yeni Ya\u015fam Eczanesi", "phone": "+90 236 312 1021"}}, {"type": "node", "id": 11601279372, "lat": 38.5087947, "lon": 27.7057471, "tags": {"amenity": "pharmacy", "name": "Ta\u015f\u00e7\u0131o\u011flu Eczanesi", "phone": "+90 236 314 8727"}}, {"type": "node", "id": 11601279373, "lat": 38.5058235, "lon": 27.7043157, "tags": {"amenity": "pharmacy", "name": "Yeni Hastane Eczanesi", "phone": "+90 236 313 3339"}}, {"type": "node", "id": 11601279374, "lat": 38.49025, "lon": 27.6923412, "tags": {"amenity": "pharmacy", "healthcare": "pharmacy", "name": "Berra Eczanesi", "phone": "+90 236 312 3235"}}, {"type": "node", "id": 11601279375, "lat": 38.4934509, "lon": 27.6973157, "tags": {"amenity": "pharmacy", "healthcare": "pharmacy", "name": "Sevenler Eczanesi", "phone": "+90 236 314 0777"}}, {"type": "node", "id": 11601279376, "lat": 38.493029, "lon": 27.6975555, "tags": {"amenity": "pharmacy", "healthcare": "pharmacy", "name": "Defne Eczanesi", "phone": "+90 236 312 2575"}}, {"type": "node", "id": 11601279377, "lat": 38.4928614, "lon": 27.69725, "tags": {"amenity": "pharmacy", "healthcare": "pharmacy", "name": "\u00dcnl\u00fcer Eczanesi", "phone": "+90 236 312 4266"}}, {"type": "node", "id": 11601279378, "lat": 38.4859882, "lon": 27.7035851, "tags": {"amenity": "pharmacy", "healthcare": "pharmacy", "name": "S\u0131hhat Eczanesi", "phone": "+90 236 313 5098"}}, {"type": "node", "id": 11601279379, "lat": 38.4954722, "lon": 27.7050912, "tags": {"amenity": "pharmacy", "name": "K\u0131rdar Eczanesi", "phone": "+90 236 313 2148"}}, {"type": "node", "id": 11601279380, "lat": 38.4956064, "lon": 27.7055154, "tags": {"amenity": "pharmacy", "name": "Bulvar Eczanesi", "phone": "+90 236 313 4925"}}, {"type": "node", "id": 11601279469, "lat": 38.4934413, "lon": 27.6953249, "tags": {"amenity": "pharmacy", "healthcare": "pharmacy", "name": "Kumral Eczanesi", "phone": "+90 236 312 4272"}}, {"type": "node", "id": 11607109469, "lat": 38.5200472, "lon": 27.837982, "tags": {"amenity": "pharmacy", "name": "Onur Eczanesi", "phone": "+90 236 345 1011"}}, {"type": "node", "id": 11607109471, "lat": 38.519686, "lon": 27.9383156, "tags": {"amenity": "pharmacy", "name": "Kolay Eczanesi", "phone": "+90 236 768 2925"}}, {"type": "node", "id": 11607109472, "lat": 38.5179002, "lon": 27.9382304, "tags": {"amenity": "pharmacy", "name": "Gayret Eczanesi", "phone": "+90 236 768 1478"}}, {"type": "node", "id": 11607109473, "lat": 38.5185032, "lon": 27.9376908, "tags": {"amenity": "pharmacy", "name": "Sa\u011fl\u0131k Eczanesi", "phone": "+90 236 768 2646"}}, {"type": "node", "id": 11607109474, "lat": 38.5185272, "lon": 27.9383492, "tags": {"amenity": "pharmacy", "name": "Ahmetli K\u0131van\u00e7 Eczanesi", "phone": "+90 236 768 2120"}}, {"type": "node", "id": 11607109570, "lat": 38.5185571, "lon": 27.9385933, "tags": {"amenity": "pharmacy", "name": "\u00dcst\u00fcn Eczanesi", "phone": "+90 236 768 2719"}}, {"type": "node", "id": 11607249370, "lat": 38.4935472, "lon": 27.7642367, "tags": {"amenity": "pharmacy", "name": "Karde\u015f Eczanesi", "phone": "+90 236 325 6024"}}, {"type": "node", "id": 11607249371, "lat": 38.4954226, "lon": 27.7140561, "tags": {"amenity": "pharmacy", "name": "Turgutlu Yedieyl\u00fcl Eczanesi", "phone": "+90 236 314 8663"}}, {"type": "node", "id": 11607249372, "lat": 38.4970116, "lon": 27.7038639, "tags": {"amenity": "pharmacy", "name": "Onur \u015een Eczanesi", "phone": "+90 236 313 6263"}}, {"type": "node", "id": 11607249373, "lat": 38.497206, "lon": 27.7039805, "tags": {"amenity": "pharmacy", "name": "Bal Eczanesi", "phone": "+90 544 351 7145"}}, {"type": "node", "id": 11607249374, "lat": 38.499766, "lon": 27.7037658, "tags": {"amenity": "pharmacy", "name": "Halk Eczanesi", "phone": "+90 236 313 4348"}}, {"type": "node", "id": 11607249375, "lat": 38.4988889, "lon": 27.7056874, "tags": {"amenity": "pharmacy", "name": "\u015eirvan Eczanesi", "phone": "+90 236 313 2106"}}, {"type": "node", "id": 11607249376, "lat": 38.4978556, "lon": 27.7067792, "tags": {"amenity": "pharmacy", "name": "Aksu Eczanesi", "phone": "+90 236 312 3144"}}, {"type": "node", "id": 11607249377, "lat": 38.4998202, "lon": 27.7076097, "tags": {"amenity": "pharmacy", "name": "Akcan Eczanesi", "phone": "+90 236 313 3330"}}, {"type": "node", "id": 11607249378, "lat": 38.5001897, "lon": 27.7081562, "tags": {"amenity": "pharmacy", "name": "Ekin Eczanesi", "phone": "+90 236 312 9912"}}, {"type": "node", "id": 11607249379, "lat": 38.5008888, "lon": 27.7091791, "tags": {"amenity": "pharmacy", "name": "Kasaba Eczanesi", "phone": "+90 236 313 4715"}}, {"type": "node", "id": 11607256969, "lat": 38.4957579, "lon": 27.7144159, "tags": {"amenity": "pharmacy", "name": "Okay Eczanesi", "phone": "+90 236 313 2414"}}, {"type": "node", "id": 11607256970, "lat": 38.4962404, "lon": 27.7142608, "tags": {"amenity": "pharmacy", "name": "Gezer Eczanesi", "phone": "+90 236 313 6878"}}, {"type": "node", "id": 11607256971, "lat": 38.496345, "lon": 27.7045749, "tags": {"amenity": "pharmacy", "name": "Ate\u015f Eczanesi", "phone": "+90 236 313 4666"}}, {"type": "node", "id": 11607256972, "lat": 38.4968102, "lon": 27.7037059, "tags": {"amenity": "pharmacy", "name": "Kutay Eczanesi", "phone": "+90 236 314 7282"}}, {"type": "node", "id": 11607256973, "lat": 38.5020975, "lon": 27.7055644, "tags": {"amenity": "pharmacy", "name": "Melek Eczanesi", "phone": "+90 236 312 3600"}}, {"type": "node", "id": 11607256974, "lat": 38.5000641, "lon": 27.7055785, "tags": {"amenity": "pharmacy", "name": "Elifim Eczanesi", "phone": "+90 501 240 1991"}}, {"type": "node", "id": 11607256975, "lat": 38.498535, "lon": 27.7072373, "tags": {"amenity": "pharmacy", "name": "G\u00f6zde Eczanesi", "phone": "+90 236 313 3684"}}, {"type": "node", "id": 11607256976, "lat": 38.4995192, "lon": 27.7081568, "tags": {"amenity": "pharmacy", "name": "Derman Eczanesi", "phone": "+90 236 313 2818"}}, {"type": "node", "id": 11607256977, "lat": 38.4998522, "lon": 27.7083943, "tags": {"amenity": "pharmacy", "name": "Turgutlu Eczanesi", "phone": "+90 236 313 1211"}}, {"type": "node", "id": 11607256978, "lat": 38.5000067, "lon": 27.7091845, "tags": {"amenity": "pharmacy", "name": "Y\u0131lmaz Eczanesi", "phone": "+90 236 313 2022"}}, {"type": "node", "id": 11607256979, "lat": 38.5000335, "lon": 27.708118, "tags": {"amenity": "pharmacy", "name": "Say\u0131lgan Eczanesi", "phone": "+90 236 312 2232"}}, {"type": "node", "id": 11607256980, "lat": 38.5007645, "lon": 27.7090639, "tags": {"amenity": "pharmacy", "name": "Aykut Eczanesi", "phone": "+90 236 312 7154"}}, {"type": "node", "id": 11607258169, "lat": 38.4991372, "lon": 27.7076587, "tags": {"amenity": "pharmacy", "name": "Deniz Eczanesi", "phone": "+90 236 313 6228"}}, {"type": "node", "id": 11607258170, "lat": 38.499978, "lon": 27.707779, "tags": {"amenity": "pharmacy", "name": "P\u0131nar Eczanesi", "phone": "+90 236 313 8250"}}, {"type": "node", "id": 11607258171, "lat": 38.50017, "lon": 27.7078608, "tags": {"amenity": "pharmacy", "name": "Eren Eczanesi", "phone": "+90 236 312 3400"}}, {"type": "node", "id": 11607763869, "lat": 38.7758879, "lon": 27.8805397, "tags": {"amenity": "pharmacy", "name": "Derman Eczanesi", "phone": "+90 236 436 8688"}}, {"type": "node", "id": 11607763969, "lat": 38.7175056, "lon": 27.9117077, "tags": {"amenity": "pharmacy", "healthcare": "pharmacy", "name": "O\u011fuzay Eczanesi", "phone": "+90 236 473 7435"}}, {"type": "node", "id": 11607763970, "lat": 38.7175624, "lon": 27.9113208, "tags": {"amenity": "pharmacy", "healthcare": "pharmacy", "name": "Vatan Eczanesi", "phone": "+90 236 515 1152"}}, {"type": "node", "id": 11607764069, "lat": 38.7174436, "lon": 27.9113033, "tags": {"amenity": "pharmacy", "healthcare": "pharmacy", "name": "K\u00fcbra Eczanesi", "phone": "+90 236 515 2282"}}, {"type": "node", "id": 11607764169, "lat": 38.7175122, "lon": 27.9112032, "tags": {"amenity": "pharmacy", "healthcare": "pharmacy", "name": "G\u00f6lmarmara Eczanesi", "phone": "+90 236 515 1453"}}, {"type": "node", "id": 11607764170, "lat": 38.71759, "lon": 27.9112869, "tags": {"amenity": "pharmacy", "healthcare": "pharmacy", "name": "\u0130nci Eczanesi", "phone": "+90 236 515 1505"}}, {"type": "node", "id": 11607795469, "lat": 38.7737619, "lon": 27.5256291, "tags": {"amenity": "pharmacy", "name": "Pa\u015fak\u00f6y Eczanesi", "phone": "+90 236 397 8548"}}, {"type": "node", "id": 11607795470, "lat": 38.6826257, "lon": 27.5843431, "tags": {"amenity": "pharmacy", "name": "Saruhanl\u0131 Eczanesi", "phone": "+90 236 398 7222"}}, {"type": "node", "id": 11607795471, "lat": 38.6558793, "lon": 27.63542, "tags": {"amenity": "pharmacy", "name": "Koldere Eczanesi", "phone": "+90 236 366 1220"}}, {"type": "node", "id": 11607795472, "lat": 38.7348205, "lon": 27.571828, "tags": {"amenity": "pharmacy", "healthcare": "pharmacy", "name": "G\u00fclery\u00fcz Eczanesi", "phone": "+90 236 357 4243"}}, {"type": "node", "id": 11607795473, "lat": 38.7339502, "lon": 27.5675867, "tags": {"amenity": "pharmacy", "healthcare": "pharmacy", "name": "Sar\u0131o\u011flu Eczanesi", "phone": "+90 236 357 4899"}}, {"type": "node", "id": 11607795474, "lat": 38.7340732, "lon": 27.5675995, "tags": {"amenity": "pharmacy", "healthcare": "pharmacy", "name": "Do\u011fa Eczanesi", "phone": "+90 236 357 4540"}}, {"type": "node", "id": 11607795475, "lat": 38.7344479, "lon": 27.5675964, "tags": {"amenity": "pharmacy", "healthcare": "pharmacy", "name": "Mete Eczanesi", "phone": "+90 236 357 3530"}}, {"type": "node", "id": 11607795476, "lat": 38.7346661, "lon": 27.5680988, "tags": {"amenity": "pharmacy", "healthcare": "pharmacy", "name": "Alkan Eczanesi", "phone": "+90 236 357 1127"}}, {"type": "node", "id": 11607795569, "lat": 38.7544761, "lon": 27.629509, "tags": {"amenity": "pharmacy", "name": "Efe Eczanesi", "phone": "+90 236 362 5050"}}, {"type": "node", "id": 11607795570, "lat": 38.7510546, "lon": 27.6032367, "tags": {"amenity": "pharmacy", "name": "Hac\u0131rahmanl\u0131 Eczanesi", "phone": "+90 236 364 1899"}}, {"type": "node", "id": 11607795571, "lat": 38.6806342, "lon": 27.5179657, "tags": {"amenity": "pharmacy", "name": "Yeni Karaa\u011fa\u00e7 Eczanesi", "phone": "+90 236 249 1311"}}, {"type": "node", "id": 11607795572, "lat": 38.7329776, "lon": 27.5557687, "tags": {"amenity": "pharmacy", "healthcare": "pharmacy", "name": "Onur Eczanesi", "phone": "+90 236 357 5460"}}, {"type": "node", "id": 11607795573, "lat": 38.7333966, "lon": 27.567487, "tags": {"amenity": "pharmacy", "healthcare": "pharmacy", "name": "\u015eanl\u0131er Eczanesi", "phone": "+90 236 357 3649"}}, {"type": "node", "id": 11607795574, "lat": 38.7335474, "lon": 27.5674822, "tags": {"amenity": "pharmacy", "healthcare": "pharmacy", "name": "Hastane Eczanesi", "phone": "+90 533 482 6216"}}, {"type": "node", "id": 11607795575, "lat": 38.7336223, "lon": 27.5677179, "tags": {"amenity": "pharmacy", "healthcare": "pharmacy", "name": "Ba\u015fak Levent Eczanesi"}}, {"type": "node", "id": 11607795669, "lat": 38.6870169, "lon": 27.6799587, "tags": {"amenity": "pharmacy", "name": "Halitpa\u015fa Eczanesi", "phone": "+90 236 368 2058"}}, {"type": "node", "id": 11607795670, "lat": 38.7338141, "lon": 27.5675875, "tags": {"amenity": "pharmacy", "healthcare": "pharmacy", "name": "T\u00fcrkmen Eczanesi", "phone": "+90 236 357 1743"}}, {"type": "node", "id": 11881312082, "lat": 38.6163203, "lon": 27.409216, "tags": {"addr:housenumber": "No:137", "addr:street": "Merkez Efendi, Mimar Sinan Blv.", "amenity": "pharmacy", "healthcare": "pharmacy", "name": "Hekimo\u011flu Eczanesi", "phone": "(0236) 232 23 23", "website": "https://manisa.eczaneleri.org/merkez-hekimoglu-eczanesi.html"}}]}