{"version": 0.6, "generator": "Overpass API 0.7.62.8 e802775f", "osm3s": {"timestamp_osm_base": "2025-10-06T07:54:35Z", "copyright": "The data included in this document is from www.openstreetmap.org. The data is made available under ODbL."}, "elements": [{"type": "node", "id": 310002821, "lat": 46.0814469, "lon": 18.6581866, "tags": {"amenity": "pharmacy"}}, {"type": "node", "id": 960303581, "lat": 45.9982986, "lon": 18.6826753, "tags": {"amenity": "pharmacy"}}, {"type": "node", "id": 1085540947, "lat": 45.9965857, "lon": 18.6589037, "tags": {"amenity": "pharmacy"}}, {"type": "node", "id": 1343095724, "lat": 46.1899082, "lon": 18.7248344, "tags": {"addr:city": "B\u00e1tasz\u00e9k", "addr:housenumber": "17", "addr:postcode": "7140", "addr:street": "Budai utca", "amenity": "pharmacy", "name": "Altus", "opening_hours": "Mo-Fr 08:00-18:00; Sa 08:00-12:00; PH off", "phone": "+36 74 492 104"}}, {"type": "node", "id": 1343103943, "lat": 46.0871714, "lon": 18.7589227, "tags": {"addr:city": "Dunaszekcs\u0151", "addr:housenumber": "1", "addr:postcode": "7712", "addr:street": "R\u00e9v utca", "amenity": "pharmacy", "brand": "Gy\u00f6ngy", "contact:phone": "+36 20 514 4563", "drive_through": "no", "healthcare": "pharmacy"}}, {"type": "node", "id": 1343128384, "lat": 45.9982733, "lon": 18.6811653, "tags": {"amenity": "pharmacy", "lastcheck": "2018-12-24", "name": "Szent Ferenc", "opening_hours": "Mo-Fr 08:00-18:00; Sa 08:00-12:00; PH off"}}, {"type": "node", "id": 1385847859, "lat": 46.2856252, "lon": 18.7626609, "tags": {"amenity": "pharmacy", "name": "Korona Gy\u00f3gyszert\u00e1r"}}, {"type": "node", "id": 1639138215, "lat": 46.1831597, "lon": 18.9397879, "tags": {"amenity": "pharmacy", "healthcare": "pharmacy", "name": "Kehely Gy\u00f3gyszert\u00e1r"}}, {"type": "node", "id": 1684754321, "lat": 46.1296982, "lon": 18.77864, "tags": {"addr:city": "B\u00e1ta", "addr:housenumber": "202", "addr:postcode": "7149", "addr:street": "F\u0151 utca", "amenity": "pharmacy", "contact:phone": "+36 74 490 541", "contact:website": "http://www.szentlaszlobata.novodata.hu", "healthcare": "pharmacy", "name": "Szent L\u00e1szl\u00f3 Patika", "opening_hours": "Mo-Th 07:00-16:00; Fr 07:00-14:00"}}, {"type": "node", "id": 2403921266, "lat": 46.2951011, "lon": 18.5186459, "tags": {"addr:city": "Bonyh\u00e1d", "addr:housenumber": "41", "addr:postcode": "7150", "addr:street": "Dr. Kolta L\u00e1szl\u00f3 utca", "amenity": "pharmacy", "dispensing": "yes", "healthcare": "pharmacy", "name": "Melissa Gy\u00f3gyszert\u00e1r", "opening_hours": "08:00-13:00,14:00-17:00"}}, {"type": "node", "id": 2510447173, "lat": 46.1655631, "lon": 18.9552035, "tags": {"amenity": "pharmacy", "name": "Forr\u00e1s Patika", "opening_hours": "Mo-Fr 08:00-19:00; Sa 08:00-12:00"}}, {"type": "node", "id": 2519607002, "lat": 46.1809192, "lon": 18.9581973, "tags": {"amenity": "pharmacy", "healthcare": "pharmacy", "name": "Manna Patika", "wheelchair": "yes"}}, {"type": "node", "id": 2519728397, "lat": 46.195445, "lon": 18.9576495, "tags": {"amenity": "pharmacy", "healthcare": "pharmacy", "name": "Kamilla Patika"}}, {"type": "node", "id": 2612187496, "lat": 46.1796334, "lon": 18.9532695, "tags": {"amenity": "pharmacy", "healthcare": "pharmacy", "name": "V\u00e1roskapu Gy\u00f3gyszert\u00e1r"}}, {"type": "node", "id": 2612187500, "lat": 46.1806093, "lon": 18.9527042, "tags": {"amenity": "pharmacy", "brand": "Pingvin Patika", "brand:wikidata": "Q105626461", "healthcare": "pharmacy", "name": "Pingvin Patika", "name:en": "Penguin Pharmacy", "name:hu": "Pingvin Patika", "wheelchair": "yes"}}, {"type": "node", "id": 2612187504, "lat": 46.1812646, "lon": 18.9534565, "tags": {"amenity": "pharmacy", "healthcare": "pharmacy"}}, {"type": "node", "id": 2612187507, "lat": 46.1789952, "lon": 18.9514643, "tags": {"amenity": "pharmacy", "brand": "Benu", "brand:wikidata": "Q62562792", "healthcare": "pharmacy", "name": "Korona Gy\u00f3gyszert\u00e1r"}}, {"type": "node", "id": 2612187511, "lat": 46.1740778, "lon": 18.9525571, "tags": {"amenity": "pharmacy", "healthcare": "pharmacy", "name": "Aranykereszt Gy\u00f3gyszert\u00e1r"}}, {"type": "node", "id": 2612187512, "lat": 46.1747681, "lon": 18.961179, "tags": {"amenity": "pharmacy", "healthcare": "pharmacy", "name": "Sugovica Gy\u00f3gyszert\u00e1r"}}, {"type": "node", "id": 2923512798, "lat": 46.352014, "lon": 18.6928383, "tags": {"addr:city": "Szeksz\u00e1rd", "addr:housenumber": "10", "addr:postcode": "7100", "addr:street": "Kand\u00f3 K\u00e1lm\u00e1n utca", "amenity": "pharmacy", "contact:fax": "+36 74 511 139", "dispensing": "yes", "name": "Menta Patika", "opening_hours": "Mo-Fr 08:00-17:00", "payment:cash": "yes", "phone": "+36 74 412 083", "wheelchair": "no"}}, {"type": "node", "id": 2925699748, "lat": 46.3438016, "lon": 18.7048932, "tags": {"addr:city": "Szeksz\u00e1rd", "addr:housenumber": "5", "addr:postcode": "7100", "addr:street": "Vasv\u00e1ri P\u00e1l utca", "amenity": "pharmacy", "brand": "Alma Gy\u00f3gyszert\u00e1r", "brand:website": "https://almapatika.hu", "brand:wikidata": "Q105626221", "contact:facebook": "https://hu-hu.facebook.com/alma.gyogyszertarszekszard/", "dispensing": "yes", "email": "szekszard@almapatika.hu", "name": "Alma Patika", "opening_hours": "Mo-Fr 07:30-19:00; Sa 08:00-12:00; PH off", "payment:american_express": "yes", "payment:cash": "yes", "payment:debit_cards": "yes", "payment:mastercard": "yes", "payment:visa": "yes", "phone": "+36 74 510 727", "ref:HU:vatin": "23917471-2-43", "wheelchair": "yes"}}, {"type": "node", "id": 2925699751, "lat": 46.3476281, "lon": 18.7098353, "tags": {"addr:city": "Szeksz\u00e1rd", "addr:housenumber": "6", "addr:postcode": "7100", "addr:street": "Hunyadi utca", "amenity": "pharmacy", "dispensing": "yes", "name": "Hunyadi Gy\u00f3gyszert\u00e1r", "opening_hours": "Mo-Fr 07:00-17:00, PH off", "wheelchair": "yes"}}, {"type": "node", "id": 2967967556, "lat": 46.4194921, "lon": 18.7686715, "tags": {"addr:city": "Tolna", "addr:housenumber": "24", "addr:postcode": "7130", "addr:street": "Alkotm\u00e1ny utca", "amenity": "pharmacy", "contact:fax": "+36 74 540 049", "dispensing": "no", "email": "tilia@tolna.net", "healthcare": "pharmacy", "name": "Tilia Gy\u00f3gyszert\u00e1r", "opening_hours": "Mo-Fr 09:00-17:00; PH off", "phone": "+36 74 440 462", "website": "http://www.tiliatolna.novodata.hu/", "wheelchair": "yes"}}, {"type": "node", "id": 3073952841, "lat": 46.3465148, "lon": 18.59404, "tags": {"amenity": "pharmacy"}}, {"type": "node", "id": 3128363951, "lat": 45.9855292, "lon": 18.7865353, "tags": {"amenity": "pharmacy"}}, {"type": "node", "id": 3428281008, "lat": 46.2052763, "lon": 18.960473, "tags": {"amenity": "pharmacy", "contact:mobile": "+36 20 220 6290", "contact:phone": "+36 79 428 551", "contact:website": "http://patikaszentistvan.hu", "healthcare": "pharmacy", "name": "Szent Istv\u00e1n Patika", "opening_hours": "Mo-Fr 08:00-18:00; Sa 08:00-12:00"}}, {"type": "node", "id": 3462188477, "lat": 46.3461318, "lon": 18.7017434, "tags": {"addr:city": "Szeksz\u00e1rd", "addr:housenumber": "64", "addr:postcode": "7100", "addr:street": "Sz\u00e9chenyi utca", "amenity": "pharmacy", "check_date": "2024-11-15", "contact:email": "aesculapszekszard@BENUgyogyszertar.hu", "contact:fax": "+36 74 411 734", "contact:phone": "+36 74 411 734", "dispensing": "yes", "name": "BENU Gy\u00f3gyszert\u00e1r", "old_name": "Aesculap gy\u00f3gyszert\u00e1r", "opening_hours": "Mo-Fr 07:30-19:00; Sa 07:30-12:00; PH off", "operator": "Aesculap 64 Kft.", "ref:HU:vatin": "14379226-2-17", "wheelchair": "yes"}}, {"type": "node", "id": 3462188482, "lat": 46.34965, "lon": 18.702, "tags": {"addr:city": "Szeksz\u00e1rd", "addr:housenumber": "30", "addr:postcode": "7100", "addr:street": "Sz\u00e9chenyi utca", "amenity": "pharmacy", "contact:fax": "+36 74 511 581", "dispensing": "yes", "email": "postmaster@ezustharsfa.t-online.hu", "name": "H\u00e1rsfa gy\u00f3gyszert\u00e1r", "opening_hours": "Mo-Fr 08:00-18:00, Sa 08:00-12:00, PH off", "phone": "+36 74 511 580", "ref:HU:vatin": "24846813-2-17", "survey:date": "2019-12-28", "website": "https://www.harsfagyogyszertar.hu", "wheelchair": "no"}}, {"type": "node", "id": 3462189528, "lat": 46.3569608, "lon": 18.7033124, "tags": {"addr:city": "Szeksz\u00e1rd", "addr:housenumber": "66", "addr:postcode": "7100", "addr:street": "Kossuth Lajos utca", "amenity": "pharmacy", "check_date": "2024-11-15", "check_date:opening_hours": "2024-11-15", "dispensing": "yes", "name": "\u00dajv\u00e1rosi gy\u00f3gyszert\u00e1r", "opening_hours": "Mo-Fr 08:00-17:00; Sa 08:00-11:00; PH off", "payment:cash": "yes", "payment:mastercard": "yes", "payment:visa": "yes", "payment:visa_debit": "yes", "payment:visa_electron": "yes", "phone": "+36 74 419 177", "wheelchair": "limited"}}, {"type": "node", "id": 3487703938, "lat": 46.10487, "lon": 18.919388, "tags": {"amenity": "pharmacy", "healthcare": "pharmacy", "source": "turistautak.hu", "source:date": "2011-06-24", "url": "http://turistautak.hu/poi.php?id=73197"}}, {"type": "node", "id": 3490736486, "lat": 46.247094, "lon": 19.141914, "tags": {"amenity": "pharmacy", "healthcare": "pharmacy", "name": "Majoranna patika", "source": "turistautak.hu", "source:date": "2013-10-15", "url": "http://turistautak.hu/poi.php?id=160588"}}, {"type": "node", "id": 3771776092, "lat": 46.3441473, "lon": 18.7008876, "tags": {"addr:city": "Szeksz\u00e1rd", "addr:housenumber": "5-7", "addr:postcode": "7100", "addr:street": "B\u00e9ri Balogh \u00c1d\u00e1m utca", "amenity": "pharmacy", "dispensing": "yes", "email": "ezustkigyo@tmkorhaz.hu", "name": "Ez\u00fcst k\u00edgy\u00f3 gy\u00f3gyszert\u00e1r", "opening_hours": "Mo-Fr 08:00-16:00", "phone": "+36 74 501 666", "ref:HU:vatin": "15416308-2-17", "survey:date": "2023-07-03", "wheelchair": "yes"}}, {"type": "node", "id": 3771776093, "lat": 46.3303553, "lon": 18.6983169, "tags": {"addr:city": "Szeksz\u00e1rd", "addr:housenumber": "3", "addr:postcode": "7100", "addr:street": "Csat\u00e1ri utca", "amenity": "pharmacy", "contact:phone": "+36 74 412 657", "healthcare": "pharmacy", "name": "Aur\u00e9lia gy\u00f3gyszert\u00e1r", "opening_hours": "Mo-Fr 08:00-19:00; Sa 08:00-12:00; PH off"}}, {"type": "node", "id": 3909566858, "lat": 45.9919386, "lon": 18.6940867, "tags": {"amenity": "pharmacy", "name": "Szenth\u00e1roms\u00e1g Patika"}}, {"type": "node", "id": 3909589657, "lat": 45.9913307, "lon": 18.6910018, "tags": {"amenity": "pharmacy", "healthcare": "pharmacy", "name": "Gy\u00f3gyn\u00f6v\u00e9ny Patika"}}, {"type": "node", "id": 3909593858, "lat": 45.9909304, "lon": 18.6886646, "tags": {"amenity": "pharmacy", "healthcare": "pharmacy", "name": "Belv\u00e1rosi Gy\u00f3gyszert\u00e1r"}}, {"type": "node", "id": 3912818357, "lat": 45.9908105, "lon": 18.6836785, "tags": {"amenity": "pharmacy", "healthcare": "pharmacy", "name": "Tulip\u00e1n Gy\u00f3gyszert\u00e1r"}}, {"type": "node", "id": 4450005189, "lat": 46.4183386, "lon": 18.92246, "tags": {"addr:city": "Fajsz", "addr:housenumber": "19", "addr:postcode": "6352", "addr:street": "Szent Istv\u00e1n utca", "amenity": "pharmacy", "healthcare": "pharmacy"}}, {"type": "node", "id": 4550693414, "lat": 46.1553554, "lon": 18.6186208, "tags": {"addr:city": "V\u00e9m\u00e9nd", "addr:housenumber": "127", "addr:postcode": "7726", "addr:street": "Kossuth Lajos utca", "amenity": "pharmacy", "name:en": "Pharmacy", "name:hu": "Gy\u00f3gyszert\u00e1r", "opening_hours": "Mo, Th 07:30-12:30, 15:30-17:00; Tu-We 07:30-12:30; Fr 07:30-12:30, 15:30-16:30", "phone": "+36 69 343 120"}}, {"type": "node", "id": 4578060322, "lat": 45.9915689, "lon": 18.6798824, "tags": {"amenity": "pharmacy", "lastcheck": "2016-12-28", "name": "Ii. Lajos Kir\u00e1ly Gy\u00f3gyszert\u00e1r"}}, {"type": "node", "id": 6521066782, "lat": 46.3302098, "lon": 18.7059549, "tags": {"amenity": "pharmacy", "check_date:opening_hours": "2022-05-19", "healthcare": "pharmacy", "name": "Patika Plus", "opening_hours": "Mo-Sa 08:00-20:00, Su 08:00-19:00", "phone": "+36 74 313 476"}}, {"type": "node", "id": 7138457276, "lat": 46.3891116, "lon": 18.6495588, "tags": {"addr:city": "Si\u00f3ag\u00e1rd", "addr:housenumber": "6", "addr:postcode": "7171", "addr:street": "Kossuth utca", "amenity": "pharmacy", "contact:phone": "+36 74 437 098", "dispensing": "yes", "healthcare": "pharmacy", "name": "Fi\u00f3kgy\u00f3gyszert\u00e1r", "opening_hours": "Mo,Tu,Th,Fr 11:00-13:00; We 16:00-18:00", "operator": "Remedia Patika"}}, {"type": "node", "id": 7704179067, "lat": 46.3453671, "lon": 18.7099273, "tags": {"amenity": "pharmacy", "brand": "Benu", "healthcare": "pharmacy", "opening_hours": "Mo,Th-Sa 08:00-20:00; Tu,We 08:00-19:00; PH off", "phone": "+36 74 510 718"}}, {"type": "node", "id": 9748614500, "lat": 46.1928512, "lon": 18.7250014, "tags": {"addr:city": "B\u00e1tasz\u00e9k", "addr:housenumber": "1", "addr:postcode": "7140", "addr:street": "K\u00e1polna utca", "amenity": "pharmacy", "email": "postmaster@kapolnapatika.t-online.hu", "name": "K\u00e1polna Patika", "opening_hours": "Mo-Fr 08:00-16:00; PH off", "phone": "+36 74 493 812", "survey:date": "2023-10-13"}}, {"type": "node", "id": 11224390264, "lat": 46.4273811, "lon": 18.7867713, "tags": {"addr:city": "Tolna", "addr:housenumber": "27", "addr:postcode": "7130", "addr:street": "Bajcsy-Zsilinszky utca", "amenity": "pharmacy", "dispensing": "yes", "name": "Salvia Gy\u00f3gyszert\u00e1r", "opening_hours": "Mo-Fr 08:00-18:00; Sa 08:00-12:00; PH off", "phone": "+36 74 440 516", "survey:date": "2023-09-27", "wheelchair": "no"}}, {"type": "node", "id": 11391734631, "lat": 46.3844347, "lon": 18.8251041, "tags": {"amenity": "pharmacy", "name": "Salvia fi\u00f3kgy\u00f3gyszert\u00e1r", "opening_hours": "Mo-Fr 12:00-16:00; PH off", "survey:date": "2023-11-29"}}, {"type": "node", "id": 12234504282, "lat": 46.1955601, "lon": 19.1860215, "tags": {"addr:city": "Fels\u0151szentiv\u00e1n", "addr:housenumber": "5", "addr:postcode": "6447", "addr:street": "Martinovics utca", "amenity": "pharmacy"}}]}