{"version": 0.6, "generator": "Overpass API 0.7.62.8 e802775f", "osm3s": {"timestamp_osm_base": "2025-10-06T08:40:23Z", "copyright": "The data included in this document is from www.openstreetmap.org. The data is made available under ODbL."}, "elements": [{"type": "node", "id": 1283391765, "lat": 53.8661449, "lon": 20.9558155}, {"type": "node", "id": 1718629231, "lat": 53.8639814, "lon": 20.9553973, "tags": {"addr:city": "Biskupiec", "addr:housenumber": "5A", "addr:postcode": "11-300", "addr:street": "Plac Wolno\u015bci", "amenity": "pharmacy", "check_date": "2025-08-28", "dispensing": "yes", "healthcare": "pharmacy", "name": "Apteka \"Panaceum\"", "ref:csioz": "1038880"}}, {"type": "node", "id": 1718629235, "lat": 53.8640692, "lon": 20.955268, "tags": {"addr:city": "Biskupiec", "addr:housenumber": "6", "addr:postcode": "11-300", "addr:street": "Plac Wolno\u015bci", "amenity": "pharmacy", "check_date": "2025-08-28", "dispensing": "yes", "healthcare": "pharmacy", "name": "Apteka Hibiskus", "official_name": "Hibiskus", "payment:cash": "yes", "payment:credit_cards": "yes", "payment:debit_cards": "yes", "ref:csioz": "1038851", "wheelchair": "no"}}, {"type": "node", "id": 1843124989, "lat": 53.8661396, "lon": 20.9558063}, {"type": "node", "id": 1843124990, "lat": 53.8661157, "lon": 20.956043}, {"type": "node", "id": 1843124994, "lat": 53.8660163, "lon": 20.9562167}, {"type": "node", "id": 1843125032, "lat": 53.8659538, "lon": 20.9561137}, {"type": "node", "id": 2459479974, "lat": 53.8704676, "lon": 21.3033136, "tags": {"addr:city": "Mr\u0105gowo", "addr:housenumber": "2", "addr:street": "Ma\u0142y Rynek", "amenity": "pharmacy", "dispensing": "yes", "healthcare": "pharmacy", "name": "Pod Or\u0142em", "ref:csioz": "1039479"}}, {"type": "node", "id": 2475644123, "lat": 53.8282173, "lon": 20.6907211, "tags": {"addr:postcode": "11-010", "amenity": "pharmacy", "dispensing": "yes", "healthcare": "pharmacy", "name": "Pod Mo\u017adzierzem", "opening_hours": "Mo-Fr 08:00-18:00; Sa 08:00-14:00", "phone": "89 514 83 97", "ref:csioz": "1038001"}}, {"type": "node", "id": 3028201606, "lat": 53.8617872, "lon": 20.9489635, "tags": {"amenity": "pharmacy", "dispensing": "yes", "healthcare": "pharmacy", "name": "Mi\u0119towa", "opening_hours": "Mo-Fr 08:00-18:00; Sa 09:00-14:00", "ref:csioz": "1038867", "wheelchair": "yes"}}, {"type": "node", "id": 3098286576, "lat": 54.1259229, "lon": 20.5799786, "tags": {"addr:city": "Lidzbark Warmi\u0144ski", "addr:city:simc": "0964732", "addr:housenumber": "6", "addr:postcode": "11-100", "addr:street": "Plac Wolno\u015bci", "amenity": "pharmacy", "dispensing": "yes", "name": "Centrum", "ref:csioz": "1039341"}}, {"type": "node", "id": 3607174731, "lat": 54.1695711, "lon": 21.1387334, "tags": {"addr:city": "Korsze", "addr:housenumber": "6", "addr:street": "Adama Mickiewicza", "amenity": "pharmacy", "dispensing": "yes", "healthcare": "pharmacy", "name": "Pod Koron\u0105", "opening_hours": "Mo-Fr 07:45-17:00; Sa 08:00-12:00", "ref:csioz": "1039295"}}, {"type": "node", "id": 3607174732, "lat": 54.1702817, "lon": 21.1351281, "tags": {"addr:city": "Korsze", "addr:housenumber": "2", "addr:street": "W\u0142adys\u0142awa Reymonta", "amenity": "pharmacy", "brand": "Dbam o Zdrowie", "brand:wikidata": "Q62563833", "dispensing": "yes", "healthcare": "pharmacy", "name": "Dbam o Zdrowie", "ref:csioz": "1039280", "short_name": "DOZ"}}, {"type": "node", "id": 3854295757, "lat": 53.8798265, "lon": 21.3040767, "tags": {"addr:city": "Mr\u0105gowo", "addr:housenumber": "1B", "addr:street": "M\u0142ynowa", "amenity": "pharmacy", "brand": "Dr. Max", "brand:wikidata": "Q56317371", "dispensing": "yes", "healthcare": "pharmacy", "name": "Dr. Max", "ref:csioz": "1175411"}}, {"type": "node", "id": 3866282867, "lat": 53.8657826, "lon": 21.3057006, "tags": {"addr:city": "Mr\u0105gowo", "addr:housenumber": "45B", "addr:street": "Warszawska", "amenity": "pharmacy", "dispensing": "yes", "healthcare": "pharmacy", "name": "Nowa", "opening_hours": "Mo-Th 08:30-18:00; Fr 08:30-22:00; Sa 09:00-18:00; Su 10:00-15:00", "ref:csioz": "1039465"}}, {"type": "node", "id": 3866282868, "lat": 53.8729307, "lon": 21.3038051, "tags": {"addr:city": "Mr\u0105gowo", "addr:housenumber": "23A", "addr:street": "Kr\u00f3lewiecka", "amenity": "pharmacy", "dispensing": "yes", "healthcare": "pharmacy", "name": "T\u0119cza", "ref:csioz": "1039498"}}, {"type": "node", "id": 4723981791, "lat": 54.1287532, "lon": 20.5739109, "tags": {"addr:city": "Lidzbark Warmi\u0144ski", "addr:city:simc": "0964732", "addr:housenumber": "2", "addr:postcode": "11-100", "addr:street": "Aleksandra \u015awi\u0119tochowskiego", "amenity": "pharmacy", "brand": "Dbam o Zdrowie", "brand:wikidata": "Q62563833", "dispensing": "yes", "healthcare": "pharmacy", "name": "Dbam o Zdrowie", "ref:csioz": "1039378"}}, {"type": "node", "id": 4723982189, "lat": 54.1300426, "lon": 20.574074, "tags": {"addr:city": "Lidzbark Warmi\u0144ski", "addr:city:simc": "0964732", "addr:housenumber": "7a", "addr:postcode": "11-100", "addr:street": "Aleksandra \u015awi\u0119tochowskiego", "amenity": "pharmacy", "dispensing": "yes", "name": "Lidzbarska", "ref:csioz": "1039393"}}, {"type": "node", "id": 4727951589, "lat": 54.1236795, "lon": 20.574973, "tags": {"addr:city": "Lidzbark Warmi\u0144ski", "addr:city:simc": "0964732", "addr:housenumber": "1", "addr:postcode": "11-100", "addr:street": "Kresowa", "amenity": "pharmacy", "dispensing": "yes", "name": "Pod Kasztanem", "ref:csioz": "1204549"}}, {"type": "node", "id": 5181909024, "lat": 54.0487354, "lon": 21.1458172, "tags": {"addr:city": "Reszel", "addr:housenumber": "23", "addr:street": "Rynek", "amenity": "pharmacy", "dispensing": "yes", "healthcare": "pharmacy", "level": "0", "name": "Od Serca", "opening_hours": "Mo-Fr 08:00-18:00;Sa 08:00-15:00;PH closed", "ref:csioz": "1039724"}}, {"type": "node", "id": 5594963124, "lat": 54.1704143, "lon": 21.1353194, "tags": {"addr:city": "Korsze", "addr:housenumber": "13", "addr:street": "Tadeusza Ko\u015bciuszki", "amenity": "pharmacy", "dispensing": "yes", "healthcare": "pharmacy", "name": "Nowa", "ref:csioz": "1219325"}}, {"type": "node", "id": 6834743399, "lat": 54.0486558, "lon": 21.1465996, "tags": {"addr:city": "Reszel", "addr:housenumber": "1", "addr:postcode": "11-440", "addr:street": "Henryka Sienkiewicza", "amenity": "pharmacy", "dispensing": "yes", "healthcare": "pharmacy", "name": "Zamkowa", "opening_hours": "Mo-Fr 08:00-18:00; Sa 08:00-14:00; PH closed", "ref:csioz": "1212283", "wheelchair": "no"}}, {"type": "node", "id": 7765056008, "lat": 54.1266776, "lon": 20.5769139, "tags": {"addr:city": "Lidzbark Warmi\u0144ski", "addr:city:simc": "0964732", "addr:housenumber": "3", "addr:postcode": "11-100", "addr:street": "Konstytucji 3 Maja", "amenity": "pharmacy", "brand": "Dbam o Zdrowie", "brand:wikidata": "Q62563833", "dispensing": "yes", "healthcare": "pharmacy", "name": "Dbam o Zdrowie", "ref:csioz": "1039355", "short_name": "DOZ"}}, {"type": "node", "id": 9581612742, "lat": 54.0853632, "lon": 20.9033911, "tags": {"addr:city": "Bisztynek", "addr:housenumber": "3A", "addr:street": "Henryka Sienkiewicza", "amenity": "pharmacy", "dispensing": "yes", "healthcare": "pharmacy", "name": "S\u0142oneczna", "ref:csioz": "1228320"}}, {"type": "node", "id": 9594208467, "lat": 54.1212897, "lon": 20.5561633, "tags": {"addr:housenumber": "14", "addr:place": "Pilnik", "amenity": "pharmacy", "dispensing": "yes", "name": "Od Serca", "ref:csioz": "1039683"}}, {"type": "node", "id": 9594208472, "lat": 54.1274023, "lon": 20.5761953, "tags": {"addr:city": "Lidzbark Warmi\u0144ski", "addr:city:simc": "0964732", "addr:housenumber": "2c", "addr:postcode": "11-100", "addr:street": "Lipowa", "amenity": "pharmacy", "dispensing": "yes", "name": "Lipowa", "ref:csioz": "1039406"}}, {"type": "node", "id": 9594208473, "lat": 54.127584, "lon": 20.5727202, "tags": {"addr:city": "Lidzbark Warmi\u0144ski", "addr:city:simc": "0964732", "addr:housenumber": "2", "addr:postcode": "11-100", "addr:street": "Ksi\u0119cia J\u00f3zefa Poniatowskiego", "amenity": "pharmacy", "brand": "Dbam o Zdrowie", "brand:wikidata": "Q62563833", "dispensing": "yes", "healthcare": "pharmacy", "name": "Dbam o Zdrowie", "ref:csioz": "1039364"}}, {"type": "node", "id": 9595781245, "lat": 54.0508919, "lon": 21.1449135, "tags": {"addr:city": "Reszel", "addr:housenumber": "3", "addr:street": "Kolejowa", "amenity": "pharmacy", "dispensing": "yes", "healthcare": "pharmacy", "name": "Melissa", "ref:csioz": "1039708"}}, {"type": "node", "id": 9597522392, "lat": 53.874563, "lon": 21.3035289, "tags": {"addr:city": "Mr\u0105gowo", "addr:housenumber": "43", "addr:street": "Kr\u00f3lewiecka", "amenity": "pharmacy", "dispensing": "yes", "healthcare": "pharmacy", "name": "Spo\u0142eczna", "operator": "Grupa Nowa Farmacja", "ref:csioz": "1180583"}}, {"type": "node", "id": 9597522393, "lat": 53.8691466, "lon": 21.2876445, "tags": {"addr:city": "Mr\u0105gowo", "addr:housenumber": "33A", "addr:street": "Osiedle Mazurskie", "amenity": "pharmacy", "dispensing": "yes", "healthcare": "pharmacy", "name": "T\u0119cza Bis", "ref:csioz": "1039501"}}, {"type": "node", "id": 9597522394, "lat": 53.8755596, "lon": 21.3046806, "tags": {"addr:city": "Mr\u0105gowo", "addr:housenumber": "58", "addr:street": "Kr\u00f3lewiecka", "amenity": "pharmacy", "brand": "Dbam o Zdrowie", "brand:wikidata": "Q62563833", "dispensing": "yes", "healthcare": "pharmacy", "name": "Dbam o Zdrowie", "ref:csioz": "1039433", "short_name": "DOZ"}}, {"type": "node", "id": 9597522395, "lat": 53.8749809, "lon": 21.3040227, "tags": {"addr:city": "Mr\u0105gowo", "addr:housenumber": "45A", "addr:street": "Kr\u00f3lewiecka", "amenity": "pharmacy", "brand": "Dbam o Zdrowie", "brand:wikidata": "Q62563833", "dispensing": "yes", "healthcare": "pharmacy", "name": "Dbam o Zdrowie", "ref:csioz": "1039422", "short_name": "DOZ"}}, {"type": "node", "id": 9668525531, "lat": 53.8650088, "lon": 20.9519127, "tags": {"addr:city": "Biskupiec", "addr:housenumber": "7A", "addr:postcode": "11-300", "addr:street": "1 Maja", "amenity": "pharmacy", "brand": "Dr. Max", "brand:wikidata": "Q56317371", "check_date": "2025-08-25", "dispensing": "yes", "healthcare": "pharmacy", "name": "Dr. Max", "payment:cash": "yes", "payment:credit_cards": "yes", "payment:debit_cards": "yes", "ref:csioz": "1114587"}}, {"type": "node", "id": 9668525533, "lat": 53.8658536, "lon": 20.9540044, "tags": {"addr:city": "Biskupiec", "addr:housenumber": "12A", "addr:postcode": "11-300", "addr:street": "1 Maja", "amenity": "pharmacy", "check_date": "2025-08-28", "dispensing": "yes", "healthcare": "pharmacy", "internet_access": "no", "name": "Apteka Przyjazna", "opening_hours": "Mo-Fr 08:00-20:00; Sa 08:00-16:00", "payment:cash": "yes", "payment:credit_cards": "yes", "payment:debit_cards": "yes", "ref:csioz": "1038907", "wheelchair": "no"}}, {"type": "node", "id": 9668525534, "lat": 53.8666828, "lon": 20.9562189, "tags": {"amenity": "pharmacy", "dispensing": "yes", "healthcare": "pharmacy", "name": "Hibiskus", "ref:csioz": "1038846"}}, {"type": "node", "id": 9668978434, "lat": 53.9761857, "lon": 20.7476506, "tags": {"addr:city": "Jeziorany", "addr:housenumber": "5", "addr:postcode": "11-320", "addr:street": "Tadeusza Ko\u015bciuszki", "amenity": "pharmacy", "check_date": "2023-08-25", "dispensing": "yes", "healthcare": "pharmacy", "name": "Z\u0142ota", "official_name": "\"Apteka \"\"Z\u0142ota\"\" Bicka Sp\u00f3\u0142ka Jawna\"", "opening_hours": "Mo-Fr 09:00-16:00; Sa 09:00-14:00; Su off", "ref:csioz": "1039142"}}, {"type": "node", "id": 9668978436, "lat": 53.8331518, "lon": 20.6921983, "tags": {"addr:city": "Barczewo", "addr:housenumber": "19", "addr:postcode": "11-010", "addr:street": "Wojska Polskiego", "amenity": "pharmacy", "dispensing": "yes", "healthcare": "pharmacy", "name": "Apteka Przyjazna", "ref:csioz": "1038017"}}, {"type": "node", "id": 9668978437, "lat": 53.8327206, "lon": 20.6940282, "tags": {"addr:postcode": "11-010", "amenity": "pharmacy", "dispensing": "yes", "healthcare": "pharmacy", "name": "Apteka G\u00f3ra", "official_name": "G\u00f3ra Sp.J.", "opening_hours": "Mo-Fr 08:00-18:00; Sa 08:00-14:00", "ref:csioz": "1037994"}}, {"type": "node", "id": 9668978438, "lat": 53.9753042, "lon": 20.7459126, "tags": {"addr:city": "Jeziorany", "addr:housenumber": "18", "addr:postcode": "11-320", "addr:street": "Micha\u0142a Kajki", "amenity": "pharmacy", "dispensing": "yes", "drive_through": "no", "healthcare": "pharmacy", "name": "Wioleta Leszczy\u0144ska", "ref:csioz": "1039150"}}, {"type": "node", "id": 12529958126, "lat": 53.8584691, "lon": 21.2835617}, {"type": "node", "id": 12529958127, "lat": 53.8584583, "lon": 21.2834821}, {"type": "node", "id": 12529958128, "lat": 53.858443, "lon": 21.2834855}, {"type": "node", "id": 12529958129, "lat": 53.858423, "lon": 21.2833321}, {"type": "node", "id": 12593110660, "lat": 53.8584288, "lon": 21.2833763}, {"type": "node", "id": 12641304076, "lat": 53.8583846, "lon": 21.2837565}, {"type": "node", "id": 12641304077, "lat": 53.8583305, "lon": 21.2833681}, {"type": "node", "id": 12641304078, "lat": 53.8584899, "lon": 21.2837154}, {"type": "node", "id": 12915352629, "lat": 53.8661258, "lon": 20.9560593}, {"type": "node", "id": 12915352630, "lat": 53.8660699, "lon": 20.9561532}, {"type": "node", "id": 12915352631, "lat": 53.8660612, "lon": 20.95614}, {"type": "node", "id": 12915352632, "lat": 53.8660348, "lon": 20.956187}, {"type": "node", "id": 12915352635, "lat": 53.8661774, "lon": 20.9559448}, {"type": "node", "id": 12915352636, "lat": 53.8661985, "lon": 20.9559074}, {"type": "way", "id": 173516856, "nodes": [12915352632, 12915352631, 12915352630, 12915352629, 1843124990, 12915352635, 12915352636, 1283391765, 1843124989, 1843125032, 1843124994, 12915352632], "tags": {"addr:city": "Biskupiec", "addr:housenumber": "2A", "addr:postcode": "11-300", "addr:street": "Armii Krajowej", "amenity": "pharmacy", "brand": "Dbam o Zdrowie", "brand:wikidata": "Q62563833", "building": "yes", "building:levels": "1", "dispensing": "yes", "healthcare": "pharmacy", "name": "Dbam o Zdrowie", "ref:csioz": "1038838", "short_name": "DOZ", "source:building": "BDOT", "source:geometry": "EGiB"}}, {"type": "way", "id": 1365053400, "nodes": [12641304078, 12529958126, 12529958127, 12529958128, 12593110660, 12529958129, 12641304077, 12641304076, 12641304078], "tags": {"amenity": "pharmacy", "fixme": "Check opening hours", "healthcare": "pharmacy", "indoor": "room", "level": "0"}}]}