{"version": 0.6, "generator": "Overpass API 0.7.62.8 e802775f", "osm3s": {"timestamp_osm_base": "2025-10-06T08:53:43Z", "copyright": "The data included in this document is from www.openstreetmap.org. The data is made available under ODbL."}, "elements": [{"type": "node", "id": 7996795532, "lat": 40.1062599, "lon": 27.659396, "tags": {"amenity": "pharmacy", "healthcare": "pharmacy", "name": "Mehmet Efendi Eczanesi", "phone": "+90 266 762 87 84"}}, {"type": "node", "id": 11455132570, "lat": 40.0202227, "lon": 28.1481931, "tags": {"amenity": "pharmacy", "healthcare": "pharmacy", "name": "Y\u0131lmaz Eczanesi", "phone": "+90 266 873 1010"}}, {"type": "node", "id": 11645042570, "lat": 39.9116881, "lon": 28.1577623, "tags": {"amenity": "pharmacy", "healthcare": "pharmacy", "name": "G\u00f6khan Eczanesi", "phone": "+90 266 865 7349"}}, {"type": "node", "id": 11645042571, "lat": 39.9154553, "lon": 28.1567768, "tags": {"amenity": "pharmacy", "healthcare": "pharmacy", "name": "Ya\u015fam Eczanesi", "phone": "+90 266 875 5900"}}, {"type": "node", "id": 11645042572, "lat": 39.9156135, "lon": 28.1568243, "tags": {"amenity": "pharmacy", "healthcare": "pharmacy", "name": "Merkez Eczanesi", "phone": "+90 266 865 1233"}}, {"type": "node", "id": 11645079470, "lat": 39.9143095, "lon": 28.1580615, "tags": {"amenity": "pharmacy", "healthcare": "pharmacy", "name": "Buket Naz Eczanesi", "phone": "+90 266 502 0770"}}, {"type": "node", "id": 11645079471, "lat": 39.9146396, "lon": 28.157265, "tags": {"amenity": "pharmacy", "healthcare": "pharmacy", "name": "Susurluk Eczanesi", "phone": "+90 266 865 3486"}}, {"type": "node", "id": 11645079472, "lat": 39.9146611, "lon": 28.1558016, "tags": {"amenity": "pharmacy", "healthcare": "pharmacy", "name": "Emre Eczanesi", "phone": "+90 266 865 5251"}}, {"type": "node", "id": 11645079473, "lat": 39.9147425, "lon": 28.1556542, "tags": {"amenity": "pharmacy", "healthcare": "pharmacy", "name": "S\u00fcmer Eczanesi", "phone": "+90 266 865 1377"}}, {"type": "node", "id": 11645079474, "lat": 39.915619, "lon": 28.1528212, "tags": {"amenity": "pharmacy", "healthcare": "pharmacy", "name": "Ela Eczanesi", "phone": "+90 266 865 6999"}}, {"type": "node", "id": 11645079475, "lat": 39.9174229, "lon": 28.1543994, "tags": {"amenity": "pharmacy", "healthcare": "pharmacy", "name": "An\u0131l Eczanesi", "phone": "+90 266 865 4118"}}, {"type": "node", "id": 11645082272, "lat": 39.9146924, "lon": 28.1560022, "tags": {"amenity": "pharmacy", "healthcare": "pharmacy", "name": "Efe Eczanesi", "phone": "+90 266 865 6923"}}, {"type": "node", "id": 11645082273, "lat": 39.9162255, "lon": 28.1559328, "tags": {"amenity": "pharmacy", "healthcare": "pharmacy", "name": "Serkan Eczanesi", "phone": "+90 266 865 5051"}}, {"type": "node", "id": 11645082274, "lat": 39.9161223, "lon": 28.1517847, "tags": {"amenity": "pharmacy", "healthcare": "pharmacy", "name": "Huzur Eczanesi", "phone": "+90 266 865 1003"}}, {"type": "node", "id": 11645082369, "lat": 39.9165216, "lon": 28.1517923, "tags": {"amenity": "pharmacy", "healthcare": "pharmacy", "name": "Ercay Eczanesi", "phone": "+90 266 875 5254"}}, {"type": "node", "id": 11645107069, "lat": 40.042735, "lon": 27.9729471, "tags": {"amenity": "pharmacy", "name": "\u015eent\u00fcrk Eczanesi", "phone": "+90 266 818 3191"}}, {"type": "node", "id": 11645107070, "lat": 40.0469695, "lon": 27.9677979, "tags": {"amenity": "pharmacy", "name": "Tok Eczanesi", "phone": "+90 266 818 1214"}}, {"type": "node", "id": 11645107071, "lat": 40.0478502, "lon": 27.9685275, "tags": {"amenity": "pharmacy", "name": "Hunca Eczanesi", "phone": "+90 266 818 1001"}}, {"type": "node", "id": 11645107169, "lat": 40.0477783, "lon": 27.9674282, "tags": {"amenity": "pharmacy", "healthcare": "pharmacy", "name": "\u00d6zek Eczanesi", "phone": "+90 266 818 1059"}}, {"type": "node", "id": 11645107269, "lat": 40.0479261, "lon": 27.9677984, "tags": {"amenity": "pharmacy", "healthcare": "pharmacy", "name": "\u00c7ar\u015f\u0131 Eczanesi", "phone": "+90 266 818 2100"}}, {"type": "node", "id": 11665839569, "lat": 40.0956254, "lon": 27.6487002, "tags": {"amenity": "pharmacy", "name": "Marmara Eczanesi", "phone": "+90 266 762 6263"}}, {"type": "node", "id": 11665839670, "lat": 40.1014711, "lon": 27.6753097, "tags": {"amenity": "pharmacy", "healthcare": "pharmacy", "name": "K\u00fc\u00e7\u00fckkoyuncu Eczanesi", "phone": "+90 266 762 1584"}}, {"type": "node", "id": 11665839671, "lat": 40.1026807, "lon": 27.6630222, "tags": {"amenity": "pharmacy", "name": "Ersoy Eczanesi", "phone": "+90 266 763 1221"}}, {"type": "node", "id": 11665839672, "lat": 40.1013919, "lon": 27.6544281, "tags": {"amenity": "pharmacy", "name": "G\u00f6nen Eczanesi", "phone": "+90 266 762 2532"}}, {"type": "node", "id": 11665839673, "lat": 40.1059912, "lon": 27.6515212, "tags": {"amenity": "pharmacy", "healthcare": "pharmacy", "name": "Tokyay Eczanesi", "phone": "+90 266 762 9100"}}, {"type": "node", "id": 11665839769, "lat": 40.1012733, "lon": 27.6613735, "tags": {"amenity": "pharmacy", "name": "Duman Eczanesi", "phone": "+90 266 762 1834"}}, {"type": "node", "id": 11665839770, "lat": 40.1027654, "lon": 27.658554, "tags": {"amenity": "pharmacy", "name": "Can Eczanesi", "phone": "+90 266 762 6886"}}, {"type": "node", "id": 11665839771, "lat": 40.1068765, "lon": 27.655043, "tags": {"amenity": "pharmacy", "healthcare": "pharmacy", "name": "Ceren Eczanesi", "phone": "+90 266 762 2828"}}, {"type": "node", "id": 11665839772, "lat": 40.1085712, "lon": 27.6510008, "tags": {"amenity": "pharmacy", "healthcare": "pharmacy", "name": "G\u00fcven\u00e7 Eczanesi", "phone": "+90 266 762 3366"}}, {"type": "node", "id": 11665839773, "lat": 40.1087497, "lon": 27.649711, "tags": {"amenity": "pharmacy", "healthcare": "pharmacy", "name": "Esra Eczanesi", "phone": "+90 266 763 1330"}}, {"type": "node", "id": 11665839774, "lat": 40.1105721, "lon": 27.6591078, "tags": {"amenity": "pharmacy", "healthcare": "pharmacy", "name": "Meral Eczanesi", "phone": "+90 266 762 1139"}}, {"type": "node", "id": 11665839869, "lat": 40.1013061, "lon": 27.6510727, "tags": {"amenity": "pharmacy", "name": "Fulya Eczanesi", "phone": "+90 266 762 1984"}}, {"type": "node", "id": 11665839870, "lat": 40.1055257, "lon": 27.6533631, "tags": {"amenity": "pharmacy", "healthcare": "pharmacy", "name": "K\u0131z\u0131lay Eczanesi", "phone": "+90 266 762 1212"}}, {"type": "node", "id": 11665839871, "lat": 40.1100609, "lon": 27.6526566, "tags": {"amenity": "pharmacy", "healthcare": "pharmacy", "name": "Murat Engin Eczanesi", "phone": "+90 266 762 1825"}}, {"type": "node", "id": 11665839872, "lat": 40.1104048, "lon": 27.6593892, "tags": {"amenity": "pharmacy", "healthcare": "pharmacy", "name": "\u0130lkay Eczanesi", "phone": "+90 266 762 5951"}}, {"type": "node", "id": 11665839873, "lat": 40.1105352, "lon": 27.6392897, "tags": {"amenity": "pharmacy", "name": "Boz Eczanesi", "phone": "+90 266 772 5244"}}, {"type": "node", "id": 11665839969, "lat": 40.1055077, "lon": 27.6522264, "tags": {"amenity": "pharmacy", "healthcare": "pharmacy", "name": "Ba\u015fak Eczanesi", "phone": "+90 266 762 1745"}}, {"type": "node", "id": 11665839970, "lat": 40.1063068, "lon": 27.6495982, "tags": {"amenity": "pharmacy", "healthcare": "pharmacy", "name": "Fazilet Eczanesi", "phone": "+90 266 762 0560"}}, {"type": "node", "id": 11665839971, "lat": 40.1076766, "lon": 27.6506523, "tags": {"amenity": "pharmacy", "healthcare": "pharmacy", "name": "\u015eermin Eczanesi", "phone": "+90 266 762 1836"}}, {"type": "node", "id": 11665839972, "lat": 40.1078272, "lon": 27.6507911, "tags": {"amenity": "pharmacy", "healthcare": "pharmacy", "name": "\u015eenel Eczanesi", "phone": "+90 266 762 1753"}}, {"type": "node", "id": 11665839973, "lat": 40.1079475, "lon": 27.6509313, "tags": {"amenity": "pharmacy", "healthcare": "pharmacy", "name": "Ak\u00e7i\u00e7ek Eczanesi", "phone": "+90 266 762 1835"}}, {"type": "node", "id": 11665839974, "lat": 40.1106969, "lon": 27.6597194, "tags": {"amenity": "pharmacy", "healthcare": "pharmacy", "name": "Hilal Eczanesi", "phone": "+90 266 762 7274"}}, {"type": "node", "id": 11665839975, "lat": 40.1106281, "lon": 27.6382615, "tags": {"amenity": "pharmacy", "name": "Kar\u015f\u0131yaka Eczanesi", "phone": "+90 266 762 5366"}}, {"type": "node", "id": 11665840069, "lat": 40.1070123, "lon": 27.6495774, "tags": {"amenity": "pharmacy", "healthcare": "pharmacy", "name": "Merkez Eczanesi", "phone": "+90 266 762 1600"}}, {"type": "node", "id": 11665840070, "lat": 40.1085821, "lon": 27.6500768, "tags": {"amenity": "pharmacy", "healthcare": "pharmacy", "name": "G\u00fcder Eczanesi", "phone": "+90 266 762 2370"}}, {"type": "node", "id": 11665840071, "lat": 40.110509, "lon": 27.6598101, "tags": {"amenity": "pharmacy", "healthcare": "pharmacy", "name": "G\u00f6knar Eczanesi", "phone": "+90 266 763 0646"}}, {"type": "node", "id": 12293006301, "lat": 40.1024961, "lon": 27.6645113, "tags": {"amenity": "pharmacy", "name": "Ersoy Eczanesi", "phone": "+90 266 763 1221"}}]}