{"version": 0.6, "generator": "Overpass API 0.7.62.8 e802775f", "osm3s": {"timestamp_osm_base": "2025-10-06T09:00:45Z", "copyright": "The data included in this document is from www.openstreetmap.org. The data is made available under ODbL."}, "elements": [{"type": "node", "id": 2830977076, "lat": 46.4741447, "lon": 26.4902191, "tags": {"addr:city": "Moine\u0219ti", "amenity": "pharmacy", "name": "Farmacie"}}, {"type": "node", "id": 4968094223, "lat": 46.7054937, "lon": 26.742718, "tags": {"amenity": "pharmacy", "name": "CMI Arminia Iulia Gabriela", "name:ro": "CMI Arminia Iulia Gabriela"}}, {"type": "node", "id": 4984800521, "lat": 46.4043798, "lon": 26.7325675, "tags": {"amenity": "pharmacy", "name": "Farm Liv srl", "name:ro": "Farm Liv srl"}}, {"type": "node", "id": 4986454826, "lat": 46.6579819, "lon": 26.8074592, "tags": {"amenity": "pharmacy", "name": "Luckfarm srl", "name:ro": "Luckfarm srl"}}, {"type": "node", "id": 5042804021, "lat": 46.4393603, "lon": 26.7373449, "tags": {"amenity": "pharmacy", "healthcare": "pharmacy", "name": "ROUAFARM SRL", "name:ro": "ROUAFARM SRL"}}, {"type": "node", "id": 9806243799, "lat": 46.4834241, "lon": 26.4919003, "tags": {"amenity": "pharmacy", "dispensing": "yes", "healthcare": "pharmacy"}}, {"type": "node", "id": 10968211132, "lat": 46.2800123, "lon": 26.6101144, "tags": {"addr:city": "T\u00e2rgu Ocna", "addr:street": "Bulevardul Republicii", "amenity": "pharmacy", "healthcare": "pharmacy", "name": "Ropharma"}}, {"type": "node", "id": 11143790305, "lat": 46.2206818, "lon": 26.4355085, "tags": {"amenity": "pharmacy", "name": "Farmacia"}}]}