{"version": 0.6, "generator": "Overpass API 0.7.62.8 e802775f", "osm3s": {"timestamp_osm_base": "2025-10-06T07:48:26Z", "copyright": "The data included in this document is from www.openstreetmap.org. The data is made available under ODbL."}, "elements": [{"type": "node", "id": 525355913, "lat": 44.5280645, "lon": 18.6417758, "tags": {"amenity": "pharmacy", "name": "Apoteka Lijek"}}, {"type": "node", "id": 652432382, "lat": 44.5343143, "lon": 18.6947751, "tags": {"amenity": "pharmacy", "healthcare": "pharmacy", "name": "Mediflor"}}, {"type": "node", "id": 652432384, "lat": 44.5340229, "lon": 18.6964374, "tags": {"amenity": "pharmacy", "drive_through": "no", "healthcare": "pharmacy", "name": "Galenplant"}}, {"type": "node", "id": 652432385, "lat": 44.5380263, "lon": 18.6969963, "tags": {"amenity": "pharmacy", "healthcare": "pharmacy", "name": "Eurofarm Edal"}}, {"type": "node", "id": 652432386, "lat": 44.5313882, "lon": 18.708086, "tags": {"amenity": "pharmacy", "name": "DurPharm"}}, {"type": "node", "id": 652432388, "lat": 44.5343097, "lon": 18.6876801, "tags": {"amenity": "pharmacy", "name": "Bosnafarm"}}, {"type": "node", "id": 652432390, "lat": 44.5348923, "lon": 18.690681, "tags": {"amenity": "pharmacy", "name": "Mara Pe\u010det"}}, {"type": "node", "id": 652432392, "lat": 44.5343827, "lon": 18.6899492, "tags": {"amenity": "pharmacy", "name": "DurPharm"}}, {"type": "node", "id": 652432394, "lat": 44.5406463, "lon": 18.6686161, "tags": {"amenity": "pharmacy", "name": "Ibn Sina Slatina"}}, {"type": "node", "id": 652432396, "lat": 44.5421383, "lon": 18.6666158, "tags": {"amenity": "pharmacy", "name": "Higia"}}, {"type": "node", "id": 652432397, "lat": 44.5384133, "lon": 18.6734796, "tags": {"amenity": "pharmacy", "name": "Apoteka Taba\u0161nice"}}, {"type": "node", "id": 652432398, "lat": 44.5375495, "lon": 18.6773748, "tags": {"amenity": "pharmacy", "healthcare": "pharmacy", "name": "Gradske apoteke Tuzla"}}, {"type": "node", "id": 652432399, "lat": 44.5356748, "lon": 18.6533153, "tags": {"amenity": "pharmacy", "healthcare": "pharmacy", "name": "Tuzlafarm"}}, {"type": "node", "id": 652432400, "lat": 44.5388978, "lon": 18.6582031, "tags": {"amenity": "pharmacy", "healthcare": "pharmacy", "name": "Apoteka Ibn-Sina"}}, {"type": "node", "id": 652432402, "lat": 44.5405742, "lon": 18.6676131, "tags": {"amenity": "pharmacy", "healthcare": "pharmacy", "name": "Gradske Apoteke Tuzla", "wheelchair": "no"}}, {"type": "node", "id": 652432403, "lat": 44.540826, "lon": 18.6686268, "tags": {"amenity": "pharmacy", "name": "Bosnafarm Slatina"}}, {"type": "node", "id": 653208950, "lat": 44.5343679, "lon": 18.6985543, "tags": {"amenity": "pharmacy", "healthcare": "pharmacy", "name": "IbnSina"}}, {"type": "node", "id": 659721553, "lat": 44.5523074, "lon": 18.6935299, "tags": {"amenity": "pharmacy", "name": "Apoteka Anea"}}, {"type": "node", "id": 1334645140, "lat": 44.4502617, "lon": 18.650115, "tags": {"amenity": "pharmacy"}}, {"type": "node", "id": 1334645142, "lat": 44.4493579, "lon": 18.6502979, "tags": {"amenity": "pharmacy", "name": "Gradska Apoteka"}}, {"type": "node", "id": 1557943738, "lat": 44.5376182, "lon": 18.527926, "tags": {"amenity": "pharmacy", "name": "Apoteka Adonis Lukavac"}}, {"type": "node", "id": 1719176112, "lat": 44.5409768, "lon": 18.6686421, "tags": {"amenity": "pharmacy", "healthcare": "pharmacy", "name": "Adonis"}}, {"type": "node", "id": 1719177928, "lat": 44.5333307, "lon": 18.6403338, "tags": {"amenity": "pharmacy", "name": "Apoteka Solana"}}, {"type": "node", "id": 1725890869, "lat": 44.5305484, "lon": 18.5374708, "tags": {"amenity": "pharmacy"}}, {"type": "node", "id": 2595279389, "lat": 44.5466503, "lon": 18.4792814}, {"type": "node", "id": 2595279390, "lat": 44.546667, "lon": 18.4791301}, {"type": "node", "id": 2595279391, "lat": 44.5465677, "lon": 18.4791086}, {"type": "node", "id": 2595279392, "lat": 44.546551, "lon": 18.4792598}, {"type": "node", "id": 2595280069, "lat": 44.5464213, "lon": 18.4789114}, {"type": "node", "id": 2595280070, "lat": 44.546411, "lon": 18.4790518}, {"type": "node", "id": 2595280071, "lat": 44.5462647, "lon": 18.4790307}, {"type": "node", "id": 2595280072, "lat": 44.5462788, "lon": 18.4788375}, {"type": "node", "id": 2595280073, "lat": 44.5463722, "lon": 18.4788509}, {"type": "node", "id": 2595280074, "lat": 44.5463684, "lon": 18.4789037}, {"type": "node", "id": 2849475659, "lat": 44.5310597, "lon": 18.6905781, "tags": {"amenity": "pharmacy", "name": "Eurofarm Edal", "wheelchair": "yes"}}, {"type": "node", "id": 2849475660, "lat": 44.5310213, "lon": 18.6923194, "tags": {"amenity": "pharmacy", "name": "Ibn Sina", "wheelchair": "yes"}}, {"type": "node", "id": 3764519355, "lat": 44.4890718, "lon": 18.5684847, "tags": {"amenity": "pharmacy", "name": "Eurofarm"}}, {"type": "node", "id": 3772168119, "lat": 44.5147373, "lon": 18.5696622}, {"type": "node", "id": 3772168120, "lat": 44.5142869, "lon": 18.5696745}, {"type": "node", "id": 3772168121, "lat": 44.5143089, "lon": 18.5700411}, {"type": "node", "id": 3772168122, "lat": 44.5143594, "lon": 18.5700411}, {"type": "node", "id": 3772168123, "lat": 44.5143726, "lon": 18.5703462}, {"type": "node", "id": 3772168124, "lat": 44.5147768, "lon": 18.570263}, {"type": "node", "id": 3772168125, "lat": 44.5147703, "lon": 18.5698224}, {"type": "node", "id": 3772168126, "lat": 44.5147373, "lon": 18.5698101}, {"type": "node", "id": 3810040409, "lat": 44.5360614, "lon": 18.5282037, "tags": {"addr:city": "Lukavac", "addr:postcode": "75300", "addr:street": "Sarajevska bb", "amenity": "pharmacy", "name": "De\u017eurna apoteka Adonis", "opening_hours": "00:00-24:00"}}, {"type": "node", "id": 4084815074, "lat": 44.5413057, "lon": 18.6680995, "tags": {"amenity": "pharmacy", "name": "Gradske apoteke"}}, {"type": "node", "id": 4095097081, "lat": 44.5335232, "lon": 18.6917318, "tags": {"addr:housenumber": "31", "addr:street": "Aleja Alije Izetbegovi\u0107a", "amenity": "pharmacy", "name": "Apotheke"}}, {"type": "node", "id": 4304343650, "lat": 44.5324896, "lon": 18.7002954, "tags": {"addr:city": "Tuzla", "addr:housenumber": "28", "addr:postcode": "75000", "addr:street": "Ismeta Mujezinovi\u0107a", "amenity": "pharmacy", "check_date:opening_hours": "2023-04-13", "description": "apoteka_sjenjak@bih.net.ba", "drive_through": "no", "name": "Apoteka 'Sjenjak'", "opening_hours": "08:00-19:00", "operator": "JZU 'Gradske Apoteke' Tuzla"}}, {"type": "node", "id": 4304693103, "lat": 44.5329773, "lon": 18.700911, "tags": {"addr:city": "Tuzla", "addr:housenumber": "29", "addr:postcode": "75000", "addr:street": "Ismeta Mujezinovi\u0107a", "amenity": "pharmacy", "check_date:opening_hours": "2023-04-13", "description": "035 278-183", "drive_through": "no", "name": "Apoteka Sjenjak", "opening_hours": "08:00-20:00", "operator": "PZU APOTEKA IBN-SINA"}}, {"type": "node", "id": 5567608421, "lat": 44.53492, "lon": 18.68697, "tags": {"amenity": "pharmacy", "name": "Apoteka"}}, {"type": "node", "id": 5625338152, "lat": 44.5358248, "lon": 18.6533085, "tags": {"amenity": "pharmacy", "dispensing": "yes", "healthcare": "pharmacy", "name": "Medex-Pharm"}}, {"type": "node", "id": 6132159070, "lat": 44.5377455, "lon": 18.6548331, "tags": {"amenity": "pharmacy", "dispensing": "yes", "healthcare": "pharmacy", "name": "Apoteka Ibn-Sina"}}, {"type": "node", "id": 6327134986, "lat": 44.5294019, "lon": 18.6942843, "tags": {"addr:street": "Mehmedalije Maka Dizdara", "amenity": "pharmacy", "name": "Ibn Sina"}}, {"type": "node", "id": 7803923970, "lat": 44.5143592, "lon": 18.5696725}, {"type": "node", "id": 7803923971, "lat": 44.5145079, "lon": 18.5703183}, {"type": "node", "id": 8597533684, "lat": 44.536681, "lon": 18.6558918, "tags": {"amenity": "pharmacy", "dispensing": "yes", "healthcare": "pharmacy", "name": "Apoteka"}}, {"type": "node", "id": 8666715086, "lat": 44.5300919, "lon": 18.6906233, "tags": {"amenity": "pharmacy", "dispensing": "yes", "healthcare": "pharmacy", "name": "Ibn Sina apoteka"}}, {"type": "node", "id": 8695921590, "lat": 44.5405667, "lon": 18.6620417, "tags": {"amenity": "pharmacy", "dispensing": "yes", "healthcare": "pharmacy", "name": "Ibn Sina"}}, {"type": "node", "id": 8695973044, "lat": 44.5374317, "lon": 18.6687343, "tags": {"amenity": "pharmacy", "dispensing": "yes", "healthcare": "pharmacy", "name": "Ibn Sina"}}, {"type": "node", "id": 8695980929, "lat": 44.5355134, "lon": 18.6529688, "tags": {"amenity": "pharmacy", "dispensing": "yes", "healthcare": "pharmacy", "name": "Apoteka"}}, {"type": "node", "id": 8695980930, "lat": 44.5353987, "lon": 18.6529393, "tags": {"amenity": "pharmacy", "dispensing": "yes", "healthcare": "pharmacy", "name": "Apoteka"}}, {"type": "node", "id": 8695984169, "lat": 44.5347057, "lon": 18.6947313, "tags": {"amenity": "pharmacy", "dispensing": "yes", "healthcare": "pharmacy", "name": "Apoteka"}}, {"type": "node", "id": 10224184617, "lat": 44.5408958, "lon": 18.662727, "tags": {"amenity": "pharmacy", "healthcare": "pharmacy"}}, {"type": "node", "id": 10724619187, "lat": 44.5324929, "lon": 18.6527364, "tags": {"amenity": "pharmacy", "healthcare": "pharmacy", "name": "Super Apoteka"}}, {"type": "node", "id": 11603216834, "lat": 44.5251435, "lon": 18.6279512, "tags": {"amenity": "pharmacy", "healthcare": "pharmacy", "name": "Apoteka Rose Pharm"}}, {"type": "node", "id": 11962689349, "lat": 44.5920982, "lon": 18.6826725, "tags": {"amenity": "pharmacy", "opening_hours": "Mo-Fr 08:00-15:00"}}, {"type": "node", "id": 13161362395, "lat": 44.4699062, "lon": 18.7171377, "tags": {"amenity": "pharmacy", "healthcare": "pharmacy", "name": "OS-pharm"}}, {"type": "way", "id": 253622704, "nodes": [2595279389, 2595279390, 2595279391, 2595279392, 2595279389], "tags": {"amenity": "pharmacy", "building": "yes", "healthcare": "pharmacy", "name": "Apoteka Adonis"}}, {"type": "way", "id": 253622813, "nodes": [2595280069, 2595280070, 2595280071, 2595280072, 2595280073, 2595280074, 2595280069], "tags": {"amenity": "pharmacy", "building": "yes", "healthcare": "pharmacy", "operator": "Apoteka"}}, {"type": "way", "id": 373808734, "nodes": [3772168119, 7803923970, 3772168120, 3772168121, 3772168122, 3772168123, 7803923971, 3772168124, 3772168125, 3772168126, 3772168119], "tags": {"addr:city": "Lukavac", "addr:housenumber": "bb", "addr:place": "Donji Bistarac", "addr:postcode": "75300", "amenity": "pharmacy", "building": "yes", "healthcare": "pharmacy", "level": "3", "name": "ZADA Pharmaceuticals d.o.o."}}]}