{"version": 0.6, "generator": "Overpass API 0.7.62.8 e802775f", "osm3s": {"timestamp_osm_base": "2025-10-06T07:58:43Z", "copyright": "The data included in this document is from www.openstreetmap.org. The data is made available under ODbL."}, "elements": [{"type": "node", "id": 5287256147, "lat": 38.5285584, "lon": 22.3770288, "tags": {"amenity": "pharmacy", "healthcare": "pharmacy"}}, {"type": "node", "id": 5287323793, "lat": 38.5280614, "lon": 22.3760543, "tags": {"amenity": "pharmacy", "healthcare": "pharmacy"}}, {"type": "node", "id": 5294227744, "lat": 38.4801488, "lon": 22.5841209, "tags": {"amenity": "pharmacy", "healthcare": "pharmacy"}}, {"type": "node", "id": 5296125170, "lat": 38.4312899, "lon": 22.4247709, "tags": {"amenity": "pharmacy", "healthcare": "pharmacy"}}, {"type": "node", "id": 9048729056, "lat": 38.4312179, "lon": 22.4251258, "tags": {"amenity": "pharmacy", "healthcare": "pharmacy"}}, {"type": "node", "id": 9048729061, "lat": 38.4310091, "lon": 22.4261365, "tags": {"amenity": "pharmacy", "healthcare": "pharmacy"}}, {"type": "node", "id": 9048729074, "lat": 38.4292377, "lon": 22.4435828}, {"type": "node", "id": 9048729075, "lat": 38.4292286, "lon": 22.4434295}, {"type": "node", "id": 9048729076, "lat": 38.4290935, "lon": 22.4434426}, {"type": "node", "id": 9048729077, "lat": 38.4291025, "lon": 22.4435958}, {"type": "node", "id": 9604150191, "lat": 38.4784668, "lon": 22.4960433, "tags": {"amenity": "pharmacy", "healthcare": "pharmacy"}}, {"type": "node", "id": 9609112960, "lat": 38.3892766, "lon": 22.6523894, "tags": {"amenity": "pharmacy", "dispensing": "yes", "healthcare": "pharmacy"}}, {"type": "node", "id": 9815441417, "lat": 38.4314649, "lon": 22.4239174, "tags": {"amenity": "pharmacy", "healthcare": "pharmacy", "name": "Polizois"}}, {"type": "way", "id": 977918210, "nodes": [9048729077, 9048729076, 9048729075, 9048729074, 9048729077], "tags": {"amenity": "pharmacy", "building": "yes", "healthcare": "pharmacy"}}]}