{"version": 0.6, "generator": "Overpass API 0.7.62.8 e802775f", "osm3s": {"timestamp_osm_base": "2025-10-06T08:50:33Z", "copyright": "The data included in this document is from www.openstreetmap.org. The data is made available under ODbL."}, "elements": [{"type": "node", "id": 889160532, "lat": 56.4992587, "lon": 20.99968, "tags": {"addr:city": "Liep\u0101ja", "addr:country": "LV", "addr:housenumber": "31", "addr:postcode": "LV-3401", "addr:street": "D\u0101rtas iela", "amenity": "pharmacy", "ref:LV:addr": "106436855"}}, {"type": "node", "id": 898672745, "lat": 56.5150723, "lon": 21.0144451, "tags": {"addr:city": "Liep\u0101ja", "addr:country": "LV", "addr:housenumber": "1", "addr:postcode": "LV-3401", "addr:street": "Rai\u0146a iela", "amenity": "pharmacy", "healthcare": "pharmacy", "name": "Remedium", "ref:LV:addr": "102434330"}}, {"type": "node", "id": 899356832, "lat": 56.5038062, "lon": 21.0149109, "tags": {"addr:city": "Liep\u0101ja", "addr:country": "LV", "addr:housenumber": "11", "addr:postcode": "LV-3401", "addr:street": "Eduarda Veidenbauma iela", "amenity": "pharmacy", "healthcare": "pharmacy", "ref:LV:addr": "102405051"}}, {"type": "node", "id": 1357648649, "lat": 56.5363801, "lon": 21.0027476, "tags": {"addr:city": "Liep\u0101ja", "addr:country": "LV", "addr:housenumber": "86", "addr:postcode": "LV-3405", "addr:street": "Oskara Kalpaka iela", "amenity": "pharmacy", "brand": "M\u0113ness aptieka", "brand:wikidata": "Q57583051", "healthcare": "pharmacy", "name": "M\u0113ness aptieka", "opening_hours": "Mo-Fr 09:00-20:00; Sa 09:00-18:00; Su 09:00-17:00", "phone": "+371 20 377 468;+371 67 617 805", "ref:LV:addr": "102427823", "website": "https://www.menessaptieka.lv"}}, {"type": "node", "id": 1864430547, "lat": 56.5114677, "lon": 21.017725, "tags": {"addr:city": "Liep\u0101ja", "addr:country": "LV", "addr:housenumber": "8", "addr:postcode": "LV-3401", "addr:street": "K\u0101r\u013ca Z\u0101les laukums", "amenity": "pharmacy", "healthcare": "pharmacy", "name": "Apotheka", "opening_hours": "Mo-Sa 10:00-21:00; Su 10:00-20:00", "phone": "+371 63 424 104", "ref:LV:addr": "102439661", "website": "https://www.apotheka.lv"}}, {"type": "node", "id": 2435744525, "lat": 56.5353269, "lon": 21.1641863}, {"type": "node", "id": 2435744526, "lat": 56.5352199, "lon": 21.1642051}, {"type": "node", "id": 2435744527, "lat": 56.5352392, "lon": 21.1645647}, {"type": "node", "id": 2435744528, "lat": 56.5353462, "lon": 21.1645458}, {"type": "node", "id": 2837201917, "lat": 56.4919363, "lon": 21.0040308, "tags": {"addr:city": "Liep\u0101ja", "addr:country": "LV", "addr:housenumber": "62", "addr:postcode": "LV-3416", "addr:street": "Klaip\u0113das iela", "amenity": "pharmacy", "brand": "Benu", "brand:wikidata": "Q62562792", "contact:email": "benu.6026@benu.lv", "contact:facebook": "https://www.facebook.com/BENUAptieka", "contact:phone": "+371 63 437 068", "contact:website": "https://benu.lv/", "healthcare": "pharmacy", "level": "0", "name": "Benu", "opening_hours": "09:00-21:00", "operator": "BENU Aptieka SIA", "ref:LV:addr": "101695536"}}, {"type": "node", "id": 3647306645, "lat": 56.4925759, "lon": 21.0210223, "tags": {"addr:city": "Liep\u0101ja", "addr:country": "LV", "addr:housenumber": "15", "addr:postcode": "LV-3411", "addr:street": "Dz\u0113rves iela", "amenity": "pharmacy", "brand": "M\u0113ness aptieka", "brand:wikidata": "Q57583051", "healthcare": "pharmacy", "name": "M\u0113ness aptieka", "opening_hours": "Mo-Fr 09:00-18:00", "phone": "+371 27 011 519;+371 67 617 805", "ref:LV:addr": "102403224", "website": "https://www.menessaptieka.lv"}}, {"type": "node", "id": 3654392852, "lat": 56.5095483, "lon": 21.0067682, "tags": {"addr:city": "Liep\u0101ja", "addr:country": "LV", "addr:housenumber": "40", "addr:postcode": "LV-3401", "addr:street": "Graudu iela", "amenity": "pharmacy", "healthcare": "pharmacy", "name": "Apotheka", "opening_hours": "Mo-Fr 09:00-19:00; Sa 09:00-15:00", "phone": "+371 63 424 204", "ref:LV:addr": "101693565", "website": "https://www.apotheka.lv"}}, {"type": "node", "id": 3665984146, "lat": 56.5071427, "lon": 21.0085095, "tags": {"addr:city": "Liep\u0101ja", "addr:country": "LV", "addr:housenumber": "4", "addr:postcode": "LV-3401", "addr:street": "Ludvi\u0137a iela", "amenity": "pharmacy", "brand": "Benu", "brand:wikidata": "Q62562792", "contact:email": "benu.6025@benu.lv", "contact:facebook": "https://www.facebook.com/BENUAptieka", "contact:phone": "+371 63 420 199", "contact:website": "https://benu.lv/", "healthcare": "pharmacy", "name": "Benu", "opening_hours": "Mo-Fr 09:00-18:00", "operator": "BENU Aptieka SIA", "ref:LV:addr": "102423326"}}, {"type": "node", "id": 3722534803, "lat": 56.533967, "lon": 21.1797946, "tags": {"addr:city": "Grobi\u0146a", "addr:country": "LV", "addr:district": "Dienvidkurzemes novads", "addr:housenumber": "118", "addr:postcode": "LV-3430", "addr:street": "Liel\u0101 iela", "amenity": "pharmacy", "healthcare": "pharmacy", "name": "A Aptieka", "ref:LV:addr": "101456385"}}, {"type": "node", "id": 5044600723, "lat": 56.4838089, "lon": 21.0170806, "tags": {"addr:city": "Liep\u0101ja", "addr:country": "LV", "addr:housenumber": "5", "addr:postcode": "LV-3407", "addr:street": "Mirdzas \u0136empes iela", "amenity": "pharmacy", "brand": "M\u0113ness aptieka", "brand:wikidata": "Q57583051", "healthcare": "pharmacy", "name": "M\u0113ness aptieka", "opening_hours": "Mo-Fr 09:00-18:00; Sa 10:00-16:00", "phone": "+371 20 377 465;+371 67 617 805", "ref:LV:addr": "102425885", "website": "https://www.menessaptieka.lv"}}, {"type": "node", "id": 5044622822, "lat": 56.4861216, "lon": 21.0170079, "tags": {"addr:city": "Liep\u0101ja", "addr:country": "LV", "addr:housenumber": "175/177", "addr:postcode": "LV-3407", "addr:street": "Gan\u012bbu iela", "amenity": "pharmacy", "brand": "Benu", "brand:wikidata": "Q62562792", "contact:email": "benu.6030@benu.lv", "contact:facebook": "https://www.facebook.com/BENUAptieka", "contact:phone": "+371 63 484 238", "contact:website": "https://benu.lv/", "healthcare": "pharmacy", "name": "Benu", "name:lv": "BENU aptieka", "opening_hours": "Mo-Fr 08:00-21:00;Sa-Su 09:00-19:00", "operator": "BENU Aptieka SIA", "ref:LV:addr": "104131905"}}, {"type": "node", "id": 5044823636, "lat": 56.5152982, "lon": 21.017635, "tags": {"addr:city": "Liep\u0101ja", "addr:country": "LV", "addr:housenumber": "3/5", "addr:postcode": "LV-3401", "addr:street": "Jaun\u0101 ostmala", "amenity": "pharmacy", "healthcare": "pharmacy", "name": "EiroAptieka", "opening_hours": "Mo-Su 09:00-20:00", "ref:LV:addr": "104162281"}}, {"type": "node", "id": 6328527115, "lat": 56.3453799, "lon": 21.0674592, "tags": {"addr:city": "N\u012bca", "addr:country": "LV", "addr:district": "Dienvidkurzemes novads", "addr:housenumber": "5", "addr:postcode": "LV-3473", "addr:street": "Skolas iela", "addr:subdistrict": "N\u012bcas pagasts", "amenity": "pharmacy", "healthcare": "pharmacy", "name": "Aptieka", "phone": "+371 6346906", "ref:LV:addr": "103402597"}}, {"type": "node", "id": 6769066267, "lat": 56.4865956, "lon": 21.0052942, "tags": {"addr:city": "Liep\u0101ja", "addr:country": "LV", "addr:housenumber": "104C", "addr:postcode": "LV-3416", "addr:street": "Klaip\u0113das iela", "amenity": "pharmacy", "brand": "M\u0113ness aptieka", "brand:wikidata": "Q57583051", "dispensing": "yes", "healthcare": "pharmacy", "name": "M\u0113ness aptieka", "opening_hours": "Mo-Sa 09:00-20:00; Su 10:00-19:00", "phone": "+371 20 377 529;+371 67 617 805", "ref:LV:addr": "102415062", "website": "https://www.menessaptieka.lv"}}, {"type": "node", "id": 7511754985, "lat": 56.5513852, "lon": 21.0152865, "tags": {"addr:city": "Liep\u0101ja", "addr:country": "LV", "addr:housenumber": "7", "addr:postcode": "LV-3414", "addr:street": "Pulkve\u017ea Brie\u017ea iela", "amenity": "pharmacy", "opening_hours": "Mo 09:00-18:00; Tu-Th 08:00-19:00; Fr 09:00-19:00; Sa 09:00-16:00", "ref:LV:addr": "102433948"}}, {"type": "node", "id": 9925465900, "lat": 56.5162611, "lon": 21.0099724, "tags": {"addr:city": "Liep\u0101ja", "addr:country": "LV", "addr:housenumber": "20/24", "addr:postcode": "LV-3401", "addr:street": "Aldaru iela", "amenity": "pharmacy", "brand": "M\u0113ness aptieka", "brand:wikidata": "Q57583051", "dispensing": "yes", "healthcare": "pharmacy", "name": "M\u0113ness aptieka", "opening_hours": "Mo-Th 08:00-17:00; Fr 08:00-16:00", "phone": "+371 27 043 413;+371 67 617 805", "ref:LV:addr": "104764938", "website": "https://www.menessaptieka.lv"}}, {"type": "node", "id": 9925549749, "lat": 56.5116581, "lon": 21.0160723, "tags": {"addr:city": "Liep\u0101ja", "addr:country": "LV", "addr:housenumber": "6", "addr:postcode": "LV-3401", "addr:street": "K\u0101r\u013ca Z\u0101les laukums", "amenity": "pharmacy", "dispensing": "yes", "healthcare": "pharmacy", "name": "Centra Aptieka", "ref:LV:addr": "102414421"}}, {"type": "node", "id": 9929492309, "lat": 56.5060656, "lon": 21.0087758, "tags": {"addr:city": "Liep\u0101ja", "addr:country": "LV", "addr:housenumber": "24", "addr:postcode": "LV-3401", "addr:street": "Tirgo\u0146u iela", "amenity": "pharmacy", "brand": "M\u0113ness aptieka", "brand:wikidata": "Q57583051", "dispensing": "yes", "healthcare": "pharmacy", "name": "M\u0113ness aptieka", "opening_hours": "Mo-Fr 08:00-20:00; Sa 09:00-18:00; Su 10:00-18:00", "phone": "+371 20 377 467;+371 67 617 805", "ref:LV:addr": "101702031", "website": "https://www.menessaptieka.lv"}}, {"type": "node", "id": 11042142430, "lat": 56.5042199, "lon": 21.0106978, "tags": {"addr:city": "Liep\u0101ja", "addr:country": "LV", "addr:housenumber": "7", "addr:postcode": "LV-3401", "addr:street": "Kur\u0161u laukums", "amenity": "pharmacy", "healthcare": "pharmacy", "name": "Apotheka", "opening_hours": "Mo-Fr 08:00-19:00; Sa 08:00-17:00; Su 08:00-15:00", "phone": "+371 63 420 710", "ref:LV:addr": "101696691", "website": "https://www.apotheka.lv"}}, {"type": "node", "id": 11051483228, "lat": 56.5548076, "lon": 21.0416606, "tags": {"addr:city": "Liep\u0101ja", "addr:country": "LV", "addr:housenumber": "1A", "addr:postcode": "LV-3402", "addr:street": "Vir\u0161u iela", "amenity": "pharmacy", "healthcare": "pharmacy", "name": "Vir\u0161u aptieka", "ref:LV:addr": "102449455"}}, {"type": "node", "id": 12061071350, "lat": 56.5190843, "lon": 21.0157149, "tags": {"addr:city": "Liep\u0101ja", "addr:country": "LV", "addr:housenumber": "37/39", "addr:postcode": "LV-3401", "addr:street": "R\u012bgas iela", "amenity": "pharmacy", "healthcare": "pharmacy", "name": "Mana Aptieka", "ref:LV:addr": "102435902"}}, {"type": "node", "id": 12343238776, "lat": 56.5043278, "lon": 21.0100522, "tags": {"addr:city": "Liep\u0101ja", "addr:country": "LV", "addr:housenumber": "7/9", "addr:postcode": "LV-3401", "addr:street": "Kur\u0161u iela", "amenity": "pharmacy", "healthcare": "pharmacy", "name": "Apotheka", "opening_hours": "Mo-Fr 08:00-19:00; Sa 08:00-17:00; Su 09:00-15:00", "phone": "+371 63 420 265", "ref:LV:addr": "101696513", "website": "https://www.apotheka.lv"}}, {"type": "node", "id": 12350628670, "lat": 56.5310752, "lon": 21.0032098, "tags": {"addr:city": "Liep\u0101ja", "addr:country": "LV", "addr:housenumber": "60", "addr:postcode": "LV-3405", "addr:street": "Oskara Kalpaka iela", "amenity": "pharmacy", "healthcare": "pharmacy", "name": "Apotheka", "opening_hours": "Mo-Fr 09:00-18:00", "phone": "+371 63 429 173", "ref:LV:addr": "101698613", "website": "https://www.apotheka.lv"}}, {"type": "node", "id": 12350631369, "lat": 56.5526709, "lon": 21.1011239, "tags": {"addr:city": "Liep\u0101ja", "addr:country": "LV", "addr:housenumber": "25", "addr:postcode": "LV-3414", "addr:street": "Slimn\u012bcas iela", "amenity": "pharmacy", "healthcare": "pharmacy", "name": "Apotheka", "opening_hours": "Mo-Fr 08:00-19:00; Sa 09:00-17:00", "phone": "+371 63 426 809", "ref:LV:addr": "101082500", "website": "https://www.apotheka.lv"}}, {"type": "node", "id": 12387720071, "lat": 56.5349318, "lon": 21.0124345, "tags": {"addr:city": "Liep\u0101ja", "addr:country": "LV", "addr:housenumber": "13", "addr:postcode": "LV-3405", "addr:street": "Zieme\u013cu iela", "amenity": "pharmacy", "brand": "M\u0113ness aptieka", "brand:wikidata": "Q57583051", "healthcare": "pharmacy", "name": "M\u0113ness aptieka", "opening_hours": "Mo-Fr 08:00-21:00; Sa 08:00-20:00; Su 09:00-18:00", "phone": "+371 27 046 116;+371 67 617 805", "ref:LV:addr": "101703716", "website": "https://www.menessaptieka.lv"}}, {"type": "node", "id": 12766010866, "lat": 56.5238252, "lon": 21.0253792, "tags": {"addr:city": "Liep\u0101ja", "addr:country": "LV", "addr:housenumber": "95", "addr:postcode": "LV-3401", "addr:street": "Br\u012bv\u012bbas iela", "amenity": "pharmacy", "brand": "M\u0113ness aptieka", "brand:wikidata": "Q57583051", "healthcare": "pharmacy", "name": "M\u0113ness aptieka", "opening_hours": "Mo-Th 08:00-18:00; Fr 08:00-17:00", "phone": "+371 20 377 517;+371 67 617 805", "ref:LV:addr": "101691408", "website": "https://www.menessaptieka.lv"}}, {"type": "way", "id": 235531627, "nodes": [2435744525, 2435744526, 2435744527, 2435744528, 2435744525], "tags": {"addr:city": "Grobi\u0146a", "addr:country": "LV", "addr:district": "Dienvidkurzemes novads", "addr:housenumber": "27", "addr:postcode": "LV-3430", "addr:street": "Liel\u0101 iela", "amenity": "pharmacy", "brand": "M\u0113ness aptieka", "brand:wikidata": "Q57583051", "building": "yes", "healthcare": "pharmacy", "name": "M\u0113ness aptieka", "ref:LV:addr": "102206674"}}]}