{"version": 0.6, "generator": "Overpass API 0.7.62.8 e802775f", "osm3s": {"timestamp_osm_base": "2025-10-06T09:00:45Z", "copyright": "The data included in this document is from www.openstreetmap.org. The data is made available under ODbL."}, "elements": [{"type": "node", "id": 687984659, "lat": 46.257261, "lon": 26.7768729, "tags": {"amenity": "pharmacy"}}, {"type": "node", "id": 5118323800, "lat": 45.9488144, "lon": 26.5795514, "tags": {"amenity": "pharmacy", "name": "Farmacie"}}, {"type": "node", "id": 6579666188, "lat": 46.24031, "lon": 26.766091, "tags": {"amenity": "pharmacy", "lead_pharmacist": "Dascalu Mihaela Elena", "name": "2 M Farm", "reviewed": "no"}}, {"type": "node", "id": 6887316523, "lat": 45.9114798, "lon": 26.7366245, "tags": {"amenity": "pharmacy", "dispensing": "yes", "healthcare": "pharmacy", "name": "Sanos Farm"}}, {"type": "node", "id": 7857395849, "lat": 45.9101366, "lon": 26.9054861, "tags": {"amenity": "pharmacy", "name": "Farmacie"}}, {"type": "node", "id": 11093159962, "lat": 46.2069826, "lon": 26.4384333, "tags": {"addr:city": "Sl\u0103nic-Moldova", "amenity": "pharmacy", "healthcare": "pharmacy", "name": "Ropharma"}}, {"type": "node", "id": 12050635567, "lat": 46.250527, "lon": 26.762606, "tags": {"amenity": "pharmacy", "brand": "Dr. Max", "healthcare": "pharmacy", "name": "Dr. Max", "opening_hours": "Mo-Fr 08:00-20:00; Sa 08:00-14:00; PH off"}}, {"type": "node", "id": 12050646018, "lat": 46.2054038, "lon": 26.628457, "tags": {"amenity": "pharmacy", "brand": "Dr. Max", "healthcare": "pharmacy", "name": "Dr. Max", "opening_hours": "Mo-Fr 09:00-17:00; PH off", "phone": "+40 729 105 891"}}, {"type": "node", "id": 12050681991, "lat": 46.2055557, "lon": 26.6202209, "tags": {"amenity": "pharmacy", "healthcare": "pharmacy"}}, {"type": "node", "id": 12050681992, "lat": 46.2057615, "lon": 26.6204292, "tags": {"amenity": "pharmacy", "healthcare": "pharmacy", "opening_hours": "Mo-Fr 08:00-18:00; Sa,Su 08:00-13:00"}}]}