{"version": 0.6, "generator": "Overpass API 0.7.62.8 e802775f", "osm3s": {"timestamp_osm_base": "2025-10-06T08:52:35Z", "copyright": "The data included in this document is from www.openstreetmap.org. The data is made available under ODbL."}, "elements": [{"type": "node", "id": 704771230, "lat": 50.8631881, "lon": 24.3257631, "tags": {"amenity": "pharmacy", "healthcare": "pharmacy"}}, {"type": "node", "id": 1469008104, "lat": 50.8609551, "lon": 24.1491861}, {"type": "node", "id": 1469008106, "lat": 50.8609551, "lon": 24.1493846}, {"type": "node", "id": 1469008110, "lat": 50.8611511, "lon": 24.1491861}, {"type": "node", "id": 1469008111, "lat": 50.8611511, "lon": 24.1493846}, {"type": "node", "id": 1485122975, "lat": 50.8467115, "lon": 24.3185963, "tags": {"amenity": "pharmacy", "contact:phone": "+380 3342 23 614", "contact:website": "http://vpharm.com.ua/", "healthcare": "pharmacy", "name": "\u0412\u043e\u043b\u0438\u043d\u044c\u0444\u0430\u0440\u043c", "name:uk": "\u0412\u043e\u043b\u0438\u043d\u044c\u0444\u0430\u0440\u043c", "operator": "\u0412\u043e\u043b\u0438\u043d\u044c\u0444\u0430\u0440\u043c", "ref": "4", "wheelchair": "yes"}}, {"type": "node", "id": 1490362832, "lat": 50.8459159, "lon": 24.3197696, "tags": {"amenity": "pharmacy", "contact:phone": "+380 3342 24 413", "healthcare": "pharmacy", "name": "\u0410\u043f\u0442\u0435\u043a\u0430", "name:uk": "\u0410\u043f\u0442\u0435\u043a\u0430", "operator": "\u0412\u043e\u043b\u0438\u043d\u044c\u0444\u0430\u0440\u043c\u043f\u043e\u0441\u0442\u0430\u0447", "ref": "11"}}, {"type": "node", "id": 1490362849, "lat": 50.8546505, "lon": 24.3225634, "tags": {"amenity": "pharmacy", "healthcare": "pharmacy", "name": "\u0414\u0406\u041f", "name:uk": "\u0414\u0406\u041f", "phone": "+380 3342 23 618"}}, {"type": "node", "id": 1490362869, "lat": 50.8380318, "lon": 24.3296988, "tags": {"amenity": "pharmacy", "contact:phone": "+380 3342 21 683", "name": "\u041f\u043e\u043a\u0440\u043e\u0432\u0441\u044c\u043a\u0430", "name:uk": "\u041f\u043e\u043a\u0440\u043e\u0432\u0441\u044c\u043a\u0430"}}, {"type": "node", "id": 1490362871, "lat": 50.8503318, "lon": 24.3200355, "tags": {"amenity": "pharmacy", "contact:phone": "+380 3342 20 852", "healthcare": "pharmacy", "name": "\u0421\u0430\u043b\u044e\u0441", "name:uk": "\u0421\u0430\u043b\u044e\u0441", "wheelchair": "no"}}, {"type": "node", "id": 1693258225, "lat": 50.8493188, "lon": 24.3206798, "tags": {"amenity": "pharmacy", "healthcare": "pharmacy", "name": "\u041f\u0440\u043e\u0432\u0456\u0437\u043e\u0440", "name:uk": "\u041f\u0440\u043e\u0432\u0456\u0437\u043e\u0440", "phone": "+380 3342 20 474"}}, {"type": "node", "id": 2489205521, "lat": 50.8440524, "lon": 24.3202378, "tags": {"amenity": "pharmacy", "healthcare": "pharmacy", "name": "\u0412\u0435\u0442\u0435\u0440\u0438\u043d\u0430\u0440\u043d\u0438\u0439 \u043a\u0456\u043e\u0441\u043a", "name:uk": "\u0412\u0435\u0442\u0435\u0440\u0438\u043d\u0430\u0440\u043d\u0438\u0439 \u043a\u0456\u043e\u0441\u043a", "opening_hours": "Mo-Fr 09:00-17:00"}}, {"type": "node", "id": 3471947643, "lat": 50.8462616, "lon": 24.3139272, "tags": {"amenity": "pharmacy", "healthcare": "pharmacy", "name": "\u0410\u043f\u0442\u0435\u043a\u0430", "name:uk": "\u0410\u043f\u0442\u0435\u043a\u0430", "opening_hours": "24/7", "wheelchair": "yes"}}, {"type": "node", "id": 3560744864, "lat": 50.8506419, "lon": 24.3212681, "tags": {"amenity": "pharmacy", "contact:website": "http://vpharm.com.ua/", "healthcare": "pharmacy", "name": "\u0410\u043f\u0442\u0435\u043a\u0430", "name:uk": "\u0410\u043f\u0442\u0435\u043a\u0430", "operator": "\u0412\u043e\u043b\u0438\u043d\u044c\u0444\u0430\u0440\u043c", "ref": "33", "wheelchair": "yes"}}, {"type": "node", "id": 3560744865, "lat": 50.8586451, "lon": 24.3176746, "tags": {"amenity": "pharmacy", "contact:website": "http://vpharm.com.ua/", "healthcare": "pharmacy", "operator": "\u0412\u043e\u043b\u0438\u043d\u044c\u0444\u0430\u0440\u043c", "wheelchair": "yes"}}, {"type": "node", "id": 3560896991, "lat": 50.8478444, "lon": 24.3206027, "tags": {"amenity": "pharmacy", "brand": "\u041c\u0435\u0434-\u0441\u0435\u0440\u0432\u0456\u0441", "brand:wikidata": "Q117706878", "contact:phone": "+380 3342 34 066", "contact:website": "http://med-service.com.ua/", "healthcare": "pharmacy", "name": "\u041c\u0435\u0434-\u0441\u0435\u0440\u0432\u0456\u0441", "name:uk": "\u041c\u0435\u0434-\u0441\u0435\u0440\u0432\u0456\u0441", "operator": "\u041c\u0435\u0434-\u0441\u0435\u0440\u0432\u0456\u0441", "wheelchair": "yes"}}, {"type": "node", "id": 3710432696, "lat": 50.9008682, "lon": 23.7547869}, {"type": "node", "id": 3710432856, "lat": 50.900789, "lon": 23.7548275}, {"type": "node", "id": 3710433180, "lat": 50.9008615, "lon": 23.7548477}, {"type": "node", "id": 3710433582, "lat": 50.9007973, "lon": 23.7547374}, {"type": "node", "id": 3827143892, "lat": 50.846218, "lon": 24.3160703, "tags": {"amenity": "pharmacy", "name": "\u0412\u0435\u0442\u0430\u043f\u0442\u0435\u043a\u0430", "name:uk": "\u0412\u0435\u0442\u0430\u043f\u0442\u0435\u043a\u0430", "opening_hours": "Mo-Fr 09:00-17:00"}}, {"type": "node", "id": 5286878088, "lat": 50.8482881, "lon": 24.3203985, "tags": {"amenity": "pharmacy", "dispensing": "yes", "healthcare": "pharmacy", "opening_hours": "Mo-Fr 09:00-18:00; Sa-Su 10:00-17:00", "phone": "+380 66 744 5646"}}, {"type": "node", "id": 6006786166, "lat": 50.805389, "lon": 23.8907552, "tags": {"addr:city": "Hrubiesz\u00f3w", "addr:housenumber": "2", "addr:postcode": "22-500", "addr:street": "3 Maja", "amenity": "pharmacy", "dispensing": "yes", "healthcare": "pharmacy", "note": "Apteka znajduje si\u0119 dok\u0142adnie w tym miejscu i maadres 3 Maja 2", "opening_hours": "Mo-Sa 07:30-20:00", "ref:csioz": "1154864", "wheelchair": "no"}}, {"type": "node", "id": 6367626029, "lat": 50.7948854, "lon": 23.8915881, "tags": {"addr:city": "Hrubiesz\u00f3w", "addr:housenumber": "4", "addr:postcode": "22-500", "addr:street": "Stanis\u0142awa Basaja \"Rysia\"", "amenity": "pharmacy", "description": "Ziko Apteka zlokalizowana jest w Hrubieszowie przy ulicy Stanis\u0142awa Basaja \"Rysia\" 4. Czynna jest przez 6 dni w tygodniu \u2013 od poniedzia\u0142ku do soboty. W niedziele handlowe plac\u00f3wka jest czynna.", "dispensing": "yes", "healthcare": "pharmacy", "name": "Ziko Apteka", "opening_hours": "Mo-Fr 08:00-20:00, Sa 08:00-21:30, Su 08:00-18:00", "payment:cash": "yes", "payment:coins": "yes", "payment:mastercard": "yes", "payment:visa": "yes", "phone": "+48 12 687 57 47", "ref:csioz": "1219587", "website": "https://www.ziko.pl/hrubieszow-apteki-drogerie-ziko/basaja-4/"}}, {"type": "node", "id": 6634915174, "lat": 50.8453485, "lon": 24.3169183, "tags": {"amenity": "pharmacy", "dispensing": "no", "name": "\u0410\u043f\u0442\u0435\u043a\u0430 \"\u0412\u0435\u0441\u0442\u0444\u0430\u0440\u043c\"", "name:uk": "\u0410\u043f\u0442\u0435\u043a\u0430 \"\u0412\u0435\u0441\u0442\u0444\u0430\u0440\u043c\"", "opening_hours": "24/7", "operator": "\u041f\u0424 \"\u0412\u0435\u0441\u0442\u0444\u0430\u0440\u043c\"", "wheelchair": "yes"}}, {"type": "node", "id": 6663123618, "lat": 50.8508811, "lon": 24.3213218, "tags": {"amenity": "pharmacy", "name": "\u041f\u0435\u0440\u0448\u0430 \u0410\u043f\u0442\u0435\u043a\u0430", "name:uk": "\u041f\u0435\u0440\u0448\u0430 \u0410\u043f\u0442\u0435\u043a\u0430"}}, {"type": "node", "id": 7812772927, "lat": 50.846289, "lon": 24.318001, "tags": {"amenity": "pharmacy", "contact:email": "admin@apteka911.com.ua", "contact:facebook": "https://www.facebook.com/apteki911", "contact:website": "https://apteka911.com.ua/", "contact:youtube": "https://www.youtube.com/channel/UCgft8X02aVC-B8WwpKiFEIg", "name": "\u0410\u043f\u0442\u0435\u043a\u0430 \u043e\u043f\u0442\u043e\u0432\u0438\u0445 \u0446\u0456\u043d", "name:ru": "\u0410\u043f\u0442\u0435\u043a\u0430 \u043e\u043f\u0442\u043e\u0432\u044b\u0445 \u0446\u0435\u043d", "name:uk": "\u0410\u043f\u0442\u0435\u043a\u0430 \u043e\u043f\u0442\u043e\u0432\u0438\u0445 \u0446\u0456\u043d", "opening_hours": "Mo-Su 08:00-20:00", "operator": "\u0423\u041a\u0420\u0410\u0407\u041d\u0421\u042c\u041a\u0410 \u0424\u0410\u0420\u041c\u0410\u0426\u0415\u0412\u0422\u0418\u0427\u041d\u0410 \u0420\u041e\u0417\u0414\u0420\u0406\u0411\u041d\u0410 \u041a\u041e\u041c\u041f\u0410\u041d\u0406\u042f \u0422\u041e\u0412", "phone:UA": "0 800 505 911"}}, {"type": "node", "id": 9546157275, "lat": 50.9854859, "lon": 23.7314594, "tags": {"amenity": "pharmacy", "dispensing": "yes", "healthcare": "pharmacy", "opening_hours": "Mo-Fr 08:00-15:00; Sa 08:00-12:00", "ref:csioz": "1156739"}}, {"type": "node", "id": 9549563200, "lat": 50.8366001, "lon": 23.780035, "tags": {"amenity": "pharmacy", "dispensing": "yes", "healthcare": "pharmacy", "ref:csioz": "1106474"}}, {"type": "node", "id": 9549624269, "lat": 50.8436041, "lon": 24.0231891, "tags": {"amenity": "pharmacy", "dispensing": "yes", "healthcare": "pharmacy", "name": "Apteka", "ref:csioz": "1203566"}}, {"type": "node", "id": 9549627515, "lat": 50.89423, "lon": 24.0421101, "tags": {"amenity": "pharmacy", "dispensing": "yes", "healthcare": "pharmacy", "opening_hours": "Mo-Fr 08:00-16:00; Sa 08:00-13:00", "ref:csioz": "1154449"}}, {"type": "node", "id": 9549663863, "lat": 50.8451478, "lon": 23.9180838, "tags": {"amenity": "pharmacy", "dispensing": "yes", "healthcare": "pharmacy", "opening_hours": "Mo-Fr 08:00-16:00", "ref:csioz": "1155098"}}, {"type": "node", "id": 9549666310, "lat": 50.8069724, "lon": 23.890956, "tags": {"amenity": "pharmacy", "dispensing": "yes", "healthcare": "pharmacy", "name": "Apteka Premium-Lek", "opening_hours": "Mo-Fr 08:00-19:00; Sa 07:00-15:00", "ref:csioz": "1200698"}}, {"type": "node", "id": 9549674069, "lat": 50.8141755, "lon": 23.8846064, "tags": {"amenity": "pharmacy", "dispensing": "yes", "healthcare": "pharmacy", "name": "Apteka", "note": "Dwernickiego 92 to oficjalny adres apteki, w rzeczywisto\u015bci jest w tym miejscu", "opening_hours": "Mo-Fr 08:00-19:00; Sa 08:00-15:00", "ref:csioz": "1154908"}}, {"type": "node", "id": 9549696979, "lat": 50.8057117, "lon": 23.8946309, "tags": {"addr:city": "Hrubiesz\u00f3w", "addr:housenumber": "20", "addr:postcode": "22-500", "addr:street": "Targowa", "amenity": "pharmacy", "dispensing": "yes", "healthcare": "pharmacy", "name": "Apteka Od Serca", "opening_hours": "Mo-Fr 08:00-17:00; Sa 08:00-15:00", "ref:csioz": "1154661"}}, {"type": "node", "id": 9549711940, "lat": 50.8060563, "lon": 23.8930633, "tags": {"amenity": "pharmacy", "dispensing": "yes", "healthcare": "pharmacy", "opening_hours": "Mo-Fr 08:00-19:00; Sa 08:00-15:00", "ref:csioz": "1202644"}}, {"type": "node", "id": 9549721419, "lat": 50.8057514, "lon": 23.8890812, "tags": {"amenity": "pharmacy", "brand": "Dbam o Zdrowie", "brand:wikidata": "Q62563833", "dispensing": "yes", "healthcare": "pharmacy", "name": "Dbam o Zdrowie", "opening_hours": "Mo-Fr 08:00-19:00; Sa 08:00-15:00", "ref:csioz": "1155237", "short_name": "DOZ"}}, {"type": "node", "id": 9550483004, "lat": 50.8033155, "lon": 23.8952947, "tags": {"amenity": "pharmacy", "dispensing": "yes", "healthcare": "pharmacy", "opening_hours": "Mo-Fr 08:00-19:00; Sa 08:00-15:00", "ref:csioz": "1153937", "wheelchair": "yes"}}, {"type": "node", "id": 9550504680, "lat": 50.802816, "lon": 23.8955292, "tags": {"amenity": "pharmacy", "dispensing": "yes", "healthcare": "pharmacy", "name": "Apteka Szpitalna Og\u00f3lnodost\u0119pna", "note": "Tak w\u0142a\u015bnie si\u0119 ta apteka nazywa, du\u017cy napis na fasadzie", "opening_hours": "Mo-Fr 08:00-15:30; Sa 08:00-12:00", "ref:csioz": "1155326", "wheelchair": "yes"}}, {"type": "node", "id": 9550535258, "lat": 50.802977, "lon": 23.8968413, "tags": {"amenity": "pharmacy", "dispensing": "yes", "healthcare": "pharmacy", "opening_hours": "Mo-Fr 08:00-19:00; Sa 08:00-15:00", "ref:csioz": "1153968", "wheelchair": "no"}}, {"type": "node", "id": 9550556722, "lat": 50.8023371, "lon": 23.894775, "tags": {"amenity": "pharmacy", "dispensing": "yes", "healthcare": "pharmacy", "name": "Apteka Premium-Lek", "opening_hours": "Mo-Fr 08:00-19:00; Sa 08:00-14:00", "ref:csioz": "1222325"}}, {"type": "node", "id": 9550579853, "lat": 50.8003801, "lon": 23.8911194, "tags": {"amenity": "pharmacy", "dispensing": "yes", "healthcare": "pharmacy", "opening_hours": "Mo-Fr 08:00-19:00; Sa 08:00-14:00", "ref:csioz": "1154855", "wheelchair": "yes"}}, {"type": "node", "id": 9721847801, "lat": 50.9008714, "lon": 23.7547579}, {"type": "node", "id": 10886248006, "lat": 50.8478835, "lon": 24.3201973, "tags": {"addr:housenumber": "23", "addr:street": "\u0432\u0443\u043b. \u041a\u043e\u0432\u0435\u043b\u044c\u0441\u044c\u043a\u0430", "amenity": "pharmacy", "contact:phone": "0800303111", "description": "\u041f\u043e\u0434\u043e\u0440\u043e\u0436\u043d\u0438\u043a \u2013 \u043d\u0430\u0439\u0431\u0456\u043b\u044c\u0448\u0430 \u043c\u0435\u0440\u0435\u0436\u0430 \u0430\u043f\u0442\u0435\u043a \u0423\u043a\u0440\u0430\u0457\u043d\u0438. \u0410\u0441\u043e\u0440\u0442\u0438\u043c\u0435\u043d\u0442 \u043d\u0430\u043b\u0456\u0447\u0443\u0454 \u043f\u043e\u043d\u0430\u0434 20 000 \u0442\u043e\u0432\u0430\u0440\u0456\u0432. \u0423 \u0430\u043f\u0442\u0435\u0446\u0456 \u0432\u0438 \u043c\u043e\u0436\u0435\u0442\u0435 \u043f\u0440\u0438\u0434\u0431\u0430\u0442\u0438 \u043f\u043e\u0442\u0440\u0456\u0431\u043d\u0456 \u043b\u0456\u043a\u0438, \u043a\u043e\u0441\u043c\u0435\u0442\u0438\u043a\u0443 \u0442\u0430 \u0456\u043d\u0448\u0456 \u043c\u0435\u0434\u0437\u0430\u0441\u043e\u0431\u0438.", "name": "\u0410\u043f\u0442\u0435\u043a\u0430 \u041f\u043e\u0434\u043e\u0440\u043e\u0436\u043d\u0438\u043a", "name:uk": "\u0410\u043f\u0442\u0435\u043a\u0430 \u041f\u043e\u0434\u043e\u0440\u043e\u0436\u043d\u0438\u043a", "opening_hours": "Mo-Fr 10:00-18:00; Sa 10:00-15:00", "website": "https://podorozhnyk.com"}}, {"type": "way", "id": 133461605, "nodes": [1469008106, 1469008104, 1469008110, 1469008111, 1469008106], "tags": {"addr:city": "\u0423\u0441\u0442\u0438\u043b\u0443\u0433", "addr:housenumber": "3", "addr:street": "\u0432\u0443\u043b\u0438\u0446\u044f \u0413\u0430\u0433\u0430\u0440\u0456\u043d\u0430", "amenity": "pharmacy", "building": "yes", "building:levels": "1", "contact:phone": "+380 3342 93 310", "healthcare": "pharmacy", "operator": "\u0412\u043e\u043b\u0438\u043d\u044c\u0444\u0430\u0440\u043c\u043f\u043e\u0441\u0442\u0430\u0447", "ref": "7"}}, {"type": "way", "id": 367084723, "nodes": [9721847801, 3710433582, 3710432856, 3710433180, 3710432696, 9721847801], "tags": {"addr:housenumber": "9a", "addr:place": "Teratyn", "addr:postcode": "22-510", "amenity": "pharmacy", "building": "retail", "dispensing": "yes", "healthcare": "pharmacy", "ref:csioz": "1106526", "source:addr": "uchanie.e-mapa.net"}}]}