{"version": 0.6, "generator": "Overpass API 0.7.62.8 e802775f", "osm3s": {"timestamp_osm_base": "2025-10-06T08:12:00Z", "copyright": "The data included in this document is from www.openstreetmap.org. The data is made available under ODbL."}, "elements": [{"type": "node", "id": 931815113, "lat": 47.1786616, "lon": 20.4093056, "tags": {"addr:city": "T\u00f6r\u00f6kszentmikl\u00f3s", "addr:postcode": "5200", "amenity": "pharmacy", "healthcare": "pharmacy", "name": "Feh\u00e9rkereszt Gy\u00f3gyszert\u00e1r"}}, {"type": "node", "id": 1496243690, "lat": 47.178942, "lon": 20.1784064, "tags": {"addr:city": "Szolnok", "addr:housenumber": "5", "addr:postcode": "5000", "addr:street": "Jubileumi t\u00e9r", "amenity": "pharmacy", "check_date": "2025-04-25", "contact:phone": "+36 56 422 044", "email": "szolnok2@pingvinpatika.hu", "healthcare": "pharmacy", "name": "Pingvin Patika", "opening_hours": "Mo-Fr 08:00-19:00; Sa 08:00-13:00; Su off", "payment:cash": "yes", "payment:credit_cards": "yes", "payment:debit_cards": "yes", "wheelchair": "yes"}}, {"type": "node", "id": 1907522719, "lat": 47.1798928, "lon": 20.4128785, "tags": {"amenity": "pharmacy", "healthcare": "pharmacy", "name": "Fontana"}}, {"type": "node", "id": 2084267993, "lat": 47.1937629, "lon": 20.1872817, "tags": {"amenity": "pharmacy", "healthcare": "pharmacy", "name": "Magiszter Patika"}}, {"type": "node", "id": 2091700621, "lat": 47.123237, "lon": 20.2101437, "tags": {"amenity": "pharmacy", "name": "Szent Orb\u00e1n Patika"}}, {"type": "node", "id": 2324782486, "lat": 47.1744999, "lon": 20.2998434, "tags": {"addr:city": "Szajol", "addr:housenumber": "22", "addr:postcode": "5081", "addr:street": "K\u00f6lcsey Ferenc \u00fat", "amenity": "pharmacy", "dispensing": "no", "healthcare": "pharmacy", "name": "Vikt\u00f3ria Gy\u00f3gyszert\u00e1r"}}, {"type": "node", "id": 2326296658, "lat": 47.180974, "lon": 20.4187085, "tags": {"amenity": "pharmacy", "dispensing": "no", "healthcare": "pharmacy", "name": "K\u00edgy\u00f3 Patika"}}, {"type": "node", "id": 2470958084, "lat": 47.1809761, "lon": 20.2066699, "tags": {"amenity": "pharmacy", "healthcare": "pharmacy", "name": "V\u00e1rosmajor \u00fati gy\u00f3gyszert\u00e1r"}}, {"type": "node", "id": 2711045399, "lat": 47.1922066, "lon": 20.1931228}, {"type": "node", "id": 2711045400, "lat": 47.1921056, "lon": 20.193098}, {"type": "node", "id": 2711045401, "lat": 47.1920118, "lon": 20.1931936}, {"type": "node", "id": 2711045402, "lat": 47.1920094, "lon": 20.1933988}, {"type": "node", "id": 2711045403, "lat": 47.1920984, "lon": 20.1934201}, {"type": "node", "id": 2711045404, "lat": 47.1922114, "lon": 20.1932962}, {"type": "node", "id": 2817629642, "lat": 47.2747404, "lon": 20.4504628, "tags": {"amenity": "pharmacy", "healthcare": "pharmacy"}}, {"type": "node", "id": 2948971133, "lat": 47.0003745, "lon": 20.6255172, "tags": {"amenity": "pharmacy", "dispensing": "yes", "healthcare": "pharmacy", "name": "Kamilla Gy\u00f3gyszert\u00e1r"}}, {"type": "node", "id": 2948971137, "lat": 47.0069531, "lon": 20.6220597, "tags": {"amenity": "pharmacy", "dispensing": "yes", "name": "Vas\u00fati Gy\u00f3gyszert\u00e1r"}}, {"type": "node", "id": 2948971138, "lat": 47.001261, "lon": 20.630115, "tags": {"amenity": "pharmacy", "dispensing": "yes", "healthcare": "pharmacy", "name": "V\u00e1rosh\u00e1za Gy\u00f3gyszert\u00e1r"}}, {"type": "node", "id": 2948971140, "lat": 46.9978862, "lon": 20.6106794, "tags": {"amenity": "pharmacy", "dispensing": "yes", "healthcare": "pharmacy", "name": "\u00dajv\u00e1rosi Gy\u00f3gyszert\u00e1r"}}, {"type": "node", "id": 2985905812, "lat": 47.1736298, "lon": 20.2069956}, {"type": "node", "id": 2985905813, "lat": 47.1736896, "lon": 20.2072576}, {"type": "node", "id": 2985905814, "lat": 47.1735922, "lon": 20.2073278}, {"type": "node", "id": 2985905815, "lat": 47.1735707, "lon": 20.2072358}, {"type": "node", "id": 2985905816, "lat": 47.1734968, "lon": 20.2072437}, {"type": "node", "id": 2985905817, "lat": 47.1735089, "lon": 20.2070609}, {"type": "node", "id": 3265308890, "lat": 47.1761738, "lon": 20.1892979, "tags": {"addr:city": "Szolnok", "addr:housenumber": "5", "addr:postcode": "5000", "addr:street": "Baross utca", "amenity": "pharmacy", "dispensing": "no", "drive_through": "no", "healthcare": "pharmacy", "name": "Feh\u00e9r Kereszt Gy\u00f3gyszert\u00e1r"}}, {"type": "node", "id": 3459957822, "lat": 46.9317297, "lon": 20.7741527, "tags": {"amenity": "pharmacy", "brand": "Kulcs Patik\u00e1k", "healthcare": "pharmacy", "name": "Endr\u0151d patika", "source": "turistautak.hu", "source:date": "2012-08-01", "url": "http://turistautak.hu/poi.php?id=137893"}}, {"type": "node", "id": 3468130925, "lat": 46.867783, "lon": 20.549417, "tags": {"amenity": "pharmacy", "fixme": "resurvey (source was old)", "healthcare": "pharmacy", "name": "Pingvin patika", "source": "turistautak.hu", "source:date": "2008-09-15", "url": "http://turistautak.hu/poi.php?id=55206"}}, {"type": "node", "id": 3468131019, "lat": 46.8721021, "lon": 20.4845386, "tags": {"amenity": "pharmacy", "healthcare": "pharmacy", "source": "turistautak.hu", "source:date": "2012-08-01", "url": "http://turistautak.hu/poi.php?id=142459", "wheelchair": "yes"}}, {"type": "node", "id": 3485146919, "lat": 46.9080615, "lon": 20.3849522, "tags": {"amenity": "pharmacy", "source": "turistautak.hu", "source:date": "2012-07-31", "url": "http://turistautak.hu/poi.php?id=142390"}}, {"type": "node", "id": 3489427668, "lat": 47.0190415, "lon": 20.2805183, "tags": {"amenity": "pharmacy", "check_date": "2025-04-25", "healthcare": "pharmacy", "name": "Diana gy\u00f3gyszert\u00e1r", "opening_hours": "Mo-Fr 08:00-17:00; Sa 08:00-10:30; Su off", "payment:cash": "yes", "payment:credit_cards": "yes", "payment:debit_cards": "yes", "source": "turistautak.hu", "source:date": "2010-03-11", "url": "http://turistautak.hu/poi.php?id=88160", "wheelchair": "yes"}}, {"type": "node", "id": 3490728180, "lat": 47.08826, "lon": 20.33484, "tags": {"amenity": "pharmacy", "source": "turistautak.hu", "source:date": "2011-12-13", "url": "http://turistautak.hu/poi.php?id=130689"}}, {"type": "node", "id": 3816610559, "lat": 47.1938972, "lon": 20.1831677, "tags": {"addr:city": "Szolnok", "addr:housenumber": "129", "addr:postcode": "5000", "addr:street": "Sz\u00e9chenyi Istv\u00e1n k\u00f6r\u00fat", "amenity": "pharmacy", "healthcare": "pharmacy", "name": "Sz\u00e9chenyi gy\u00f3gyszert\u00e1r", "wheelchair": "yes"}}, {"type": "node", "id": 3951292725, "lat": 47.1774067, "lon": 20.1909392, "tags": {"addr:city": "Szolnok", "addr:postcode": "5000", "addr:street": "Ady Endre \u00fat", "amenity": "pharmacy", "brand": "Benu", "brand:wikidata": "Q62562792", "healthcare": "pharmacy", "name": "Benu patika", "wheelchair": "yes"}}, {"type": "node", "id": 4544783985, "lat": 46.8622161, "lon": 20.5479395}, {"type": "node", "id": 4544783986, "lat": 46.8623101, "lon": 20.5475744}, {"type": "node", "id": 4544783989, "lat": 46.8623481, "lon": 20.5480122}, {"type": "node", "id": 5599813590, "lat": 47.1784386, "lon": 20.4114063, "tags": {"amenity": "pharmacy", "dispensing": "yes", "healthcare": "pharmacy", "name": "Pingvin"}}, {"type": "node", "id": 5604427504, "lat": 47.1731708, "lon": 20.4114623, "tags": {"addr:city": "T\u00f6r\u00f6kszentmikl\u00f3s", "addr:postcode": "5200", "amenity": "pharmacy", "dispensing": "yes", "healthcare": "pharmacy", "name": "Amaryllis"}}, {"type": "node", "id": 6076987287, "lat": 46.8624422, "lon": 20.5476472}, {"type": "node", "id": 6076987490, "lat": 46.8622796, "lon": 20.5476928}, {"type": "node", "id": 6095901835, "lat": 46.8636046, "lon": 20.5480425, "tags": {"amenity": "pharmacy", "brand": "Pingvin Patika", "brand:wikidata": "Q105626461", "dispensing": "yes", "healthcare": "pharmacy", "name": "Pingvin Patika", "name:en": "Penguin Pharmacy", "name:hu": "Pingvin Patika"}}, {"type": "node", "id": 8787608167, "lat": 46.8648062, "lon": 20.2061923, "tags": {"amenity": "pharmacy", "healthcare": "pharmacy", "name": "Forr\u00e1s Gy\u00f3gyszert\u00e1r"}}, {"type": "node", "id": 8830245104, "lat": 47.1217829, "lon": 20.2119849, "tags": {"amenity": "pharmacy", "branch": "Szolnok Elix\u00edr", "brand": "Benu", "brand:wikidata": "Q62562792", "contact:website": "https://benu.hu/benu-gyogyszertar-szolnok-elixir", "healthcare": "pharmacy", "name": "Benu"}}, {"type": "node", "id": 9944652941, "lat": 47.1686295, "lon": 20.175797}, {"type": "node", "id": 9944652942, "lat": 47.1685565, "lon": 20.1757606}, {"type": "node", "id": 9944652943, "lat": 47.1685114, "lon": 20.1759983}, {"type": "node", "id": 9944652944, "lat": 47.1686959, "lon": 20.176026}, {"type": "node", "id": 9944652945, "lat": 47.1687104, "lon": 20.1759014}, {"type": "node", "id": 9944652946, "lat": 47.1686156, "lon": 20.1758819}, {"type": "node", "id": 10537722133, "lat": 46.9831705, "lon": 20.2534659, "tags": {"amenity": "pharmacy", "healthcare": "pharmacy", "name": "Olajfa patika"}}, {"type": "node", "id": 10778001131, "lat": 47.1007233, "lon": 20.1486316, "tags": {"amenity": "pharmacy", "dispensing": "yes", "healthcare": "pharmacy"}}, {"type": "node", "id": 11193120988, "lat": 47.2518519, "lon": 20.5256518, "tags": {"amenity": "pharmacy", "healthcare": "pharmacy", "name": "Borosty\u00e1n Patika"}}, {"type": "node", "id": 11249008976, "lat": 47.2554723, "lon": 20.5218051}, {"type": "node", "id": 11249008977, "lat": 47.2553978, "lon": 20.5219673}, {"type": "node", "id": 11249008978, "lat": 47.2554883, "lon": 20.5220591}, {"type": "node", "id": 11249008979, "lat": 47.2555661, "lon": 20.5218986}, {"type": "node", "id": 12390151685, "lat": 47.1800436, "lon": 20.1964833, "tags": {"addr:city": "Szolnok", "addr:housenumber": "23", "addr:postcode": "5000", "addr:street": "Kolozsv\u00e1ri utca", "amenity": "pharmacy", "check_date": "2024-12-02", "dispensing": "yes", "drive_through": "no", "healthcare": "pharmacy", "name": "Kolozsv\u00e1ri Gy\u00f3gyszert\u00e1r", "opening_hours": "Mo-Fr 08:00-17:00", "payment:cash": "yes", "payment:maestro": "yes", "payment:visa": "yes", "phone": "0656420385", "source": "survey"}}, {"type": "node", "id": 12407234329, "lat": 47.1800986, "lon": 20.1963612}, {"type": "node", "id": 12407234330, "lat": 47.1800175, "lon": 20.1962592}, {"type": "node", "id": 12407234331, "lat": 47.1798625, "lon": 20.1965194}, {"type": "node", "id": 12407234332, "lat": 47.1799847, "lon": 20.1966374}, {"type": "node", "id": 12474286639, "lat": 47.177188, "lon": 20.1912843, "tags": {"amenity": "pharmacy", "brand": "Benu", "brand:wikidata": "Q62562792", "dispensing": "yes", "healthcare": "pharmacy", "name": "Benu", "opening_hours": "Mo-Fr 07:30-20:00; Sa 07:30-20:00; Su 09:00-18:00"}}, {"type": "node", "id": 12640777104, "lat": 47.1939967, "lon": 20.1779316, "tags": {"addr:city": "Szolnok", "addr:housenumber": "3", "addr:postcode": "5000", "addr:street": "Cs\u00f3ka utca", "amenity": "pharmacy", "healthcare": "pharmacy", "name": "Manna gy\u00f3gyszert\u00e1r", "opening_hours": "Mo-Fr 07:30-20:00; Sa,Su 08:00-20:00", "phone": "+36 56 210 318"}}, {"type": "node", "id": 12842290329, "lat": 47.0172867, "lon": 20.2804717, "tags": {"amenity": "pharmacy", "check_date": "2025-05-16", "healthcare": "pharmacy", "name": "Arany F\u0151nix Gy\u00f3gyszert\u00e1r", "opening_hours": "Mo-Fr 08:00-18:00; Sa-Su off", "payment:cash": "yes", "payment:credit_cards": "yes", "payment:debit_cards": "yes", "wheelchair": "yes"}}, {"type": "node", "id": 13110036902, "lat": 46.8622253, "lon": 20.5483903, "tags": {"addr:city": "Szarvas", "addr:housenumber": "23", "addr:postcode": "5540", "addr:street": "Szabads\u00e1g \u00fat", "amenity": "pharmacy", "dispensing": "yes", "drive_through": "no", "healthcare": "pharmacy", "name": "Szirony Gy\u00f3gyszert\u00e1r", "opening_hours": "Mo-Fr 07:30-17:30; Sa 08:00-12:00"}}, {"type": "way", "id": 265435730, "nodes": [2711045399, 2711045400, 2711045401, 2711045402, 2711045403, 2711045404, 2711045399], "tags": {"addr:city": "Szolnok", "addr:housenumber": "6/A", "addr:postcode": "5000", "addr:street": "Sz\u00e9chenyi Istv\u00e1n k\u00f6r\u00fat", "amenity": "pharmacy", "building": "yes", "healthcare": "pharmacy", "name": "Levendula Gy\u00f3gyszert\u00e1r", "office": "physician"}}, {"type": "way", "id": 294950861, "nodes": [2985905812, 2985905813, 2985905814, 2985905815, 2985905816, 2985905817, 2985905812], "tags": {"amenity": "pharmacy", "building": "yes", "healthcare": "pharmacy", "name": "Szent Istv\u00e1n gy\u00f3gyszert\u00e1r \u00e9s eg\u00e9szs\u00e9gh\u00e1z", "wheelchair": "yes"}}, {"type": "way", "id": 458486442, "nodes": [4544783989, 6076987287, 4544783986, 6076987490, 4544783985, 4544783989], "tags": {"amenity": "pharmacy", "building": "yes", "building:levels": "2", "healthcare": "pharmacy", "name": "Szirony Gy\u00f3gyszert\u00e1r"}}, {"type": "way", "id": 1085303129, "nodes": [9944652941, 9944652942, 9944652943, 9944652944, 9944652945, 9944652946, 9944652941], "tags": {"amenity": "pharmacy", "building": "yes", "dispensing": "yes", "healthcare": "pharmacy", "name": "K\u00edgy\u00f3 Gy\u00f3gyszert\u00e1r"}}, {"type": "way", "id": 1214133728, "nodes": [11249008976, 11249008977, 11249008978, 11249008979, 11249008976], "tags": {"amenity": "pharmacy", "building": "yes", "healthcare": "pharmacy", "name": "Levendula Gy\u00f3gyszert\u00e1r"}}, {"type": "way", "id": 1341297836, "nodes": [12407234329, 12407234330, 12407234331, 12407234332, 12407234329], "tags": {"amenity": "pharmacy", "building": "yes", "healthcare": "pharmacy", "name": "Kolozsv\u00e1ri gy\u00f3gyszert\u00e1r"}}]}