{"version": 0.6, "generator": "Overpass API 0.7.62.8 e802775f", "osm3s": {"timestamp_osm_base": "2025-10-06T08:30:13Z", "copyright": "The data included in this document is from www.openstreetmap.org. The data is made available under ODbL."}, "elements": [{"type": "node", "id": 283341227, "lat": 53.2598369, "lon": 19.8212902, "tags": {"addr:city": "Lidzbark", "addr:housenumber": "3", "addr:street": "Zielu\u0144ska", "amenity": "pharmacy", "dispensing": "yes", "healthcare": "pharmacy", "ref:csioz": "1039329"}}, {"type": "node", "id": 469499749, "lat": 53.5048434, "lon": 19.7500394, "tags": {"addr:city": "Lubawa", "addr:housenumber": "2", "addr:street": "Grunwaldzka", "amenity": "pharmacy", "dispensing": "yes", "name": "Grunwaldzka", "opening_hours": "Mo-Fr 08:00-20:00, Sa 08:00-14:00", "operator": "\u015awiat Zdrowia", "ref:csioz": "1040620", "wheelchair": "yes"}}, {"type": "node", "id": 476216289, "lat": 53.4243589, "lon": 19.5875746, "tags": {"addr:city": "Nowe Miasto Lubawskie", "addr:housenumber": "11B", "addr:street": "Adama Mickiewicza", "amenity": "pharmacy", "brand": "Dbam o Zdrowie", "brand:wikidata": "Q62563833", "dispensing": "yes", "healthcare": "pharmacy", "name": "Panaceum", "phone": "+48564742324", "ref:csioz": "1040864", "source": "http://ump.waw.pl/ retrieved 12:40:28 08/23/09 (UMP-Ciechanow/src/POI-Ciechanow.szpitale.pnt-converted.txt)"}}, {"type": "node", "id": 476216319, "lat": 53.3832457, "lon": 19.9263745, "tags": {"addr:city": "Rybno", "addr:housenumber": "60", "addr:postcode": "13-220", "addr:street": "Zajeziorna", "amenity": "pharmacy", "dispensing": "yes", "name": "Pod Mi\u0142orz\u0119bem", "phone": "+48236966040", "ref:csioz": "1039743"}}, {"type": "node", "id": 476216401, "lat": 53.4242714, "lon": 19.5929011, "tags": {"addr:city": "Nowe Miasto Lubawskie", "addr:housenumber": "12", "addr:street": "Rynek", "amenity": "pharmacy", "dispensing": "yes", "name": "Pod Or\u0142em", "opening_hours": "Mo-Fr 08:00-20:00; Sa 08:00-17:00; Su 09:00-13:00", "operator": "Andrzej Grajek", "phone": "+48564742918", "ref:csioz": "1040878", "source": "http://ump.waw.pl/ retrieved 12:40:28 08/23/09 (UMP-Ciechanow/src/POI-Ciechanow.szpitale.pnt-converted.txt)"}}, {"type": "node", "id": 476216454, "lat": 53.4227879, "lon": 19.5926837, "tags": {"addr:city": "Nowe Miasto Lubawskie", "addr:housenumber": "6", "addr:street": "19 Stycznia", "amenity": "pharmacy", "brand": "Dbam o Zdrowie", "brand:wikidata": "Q62563833", "dispensing": "yes", "healthcare": "pharmacy", "name": "Jola", "phone": "+48564743171", "ref:csioz": "1040841", "source": "http://ump.waw.pl/ retrieved 12:40:28 08/23/09 (UMP-Ciechanow/src/POI-Ciechanow.szpitale.pnt-converted.txt)"}}, {"type": "node", "id": 476219055, "lat": 53.1984739, "lon": 19.6440522, "tags": {"addr:city": "G\u00f3rzno", "addr:housenumber": "23", "addr:street": "Rynek", "amenity": "pharmacy", "dispensing": "yes", "drive_through": "no", "healthcare": "pharmacy", "name": "Avena W G\u00f3rznie", "opening_hours": "Mo-Fr 08:00-16:00; Sa 08:30-11:30", "phone": "+48564989252", "ref:csioz": "1211380", "toilets:wheelchair": "no", "wheelchair": "yes"}}, {"type": "node", "id": 476219235, "lat": 53.4297226, "lon": 19.5890029, "tags": {"addr:city": "Nowe Miasto Lubawskie", "addr:housenumber": "11", "addr:street": "Grunwaldzka", "amenity": "pharmacy", "dispensing": "yes", "name": "Malwa", "phone": "+48564743106", "ref:csioz": "1040855"}}, {"type": "node", "id": 1365473648, "lat": 53.2430058, "lon": 20.1892513}, {"type": "node", "id": 1365473649, "lat": 53.2430868, "lon": 20.1887919}, {"type": "node", "id": 1365473650, "lat": 53.2431637, "lon": 20.189269}, {"type": "node", "id": 1365473651, "lat": 53.2432307, "lon": 20.1888569}, {"type": "node", "id": 2141053829, "lat": 53.2432386, "lon": 20.1884015, "tags": {"addr:city": "Dzia\u0142dowo", "addr:housenumber": "36", "addr:street": "Nidzicka", "amenity": "pharmacy", "dispensing": "yes", "opening_hours": "Mo-Sa 08:00-23:00", "phone": "+48 697 8888", "ref:csioz": "1039057"}}, {"type": "node", "id": 2408318080, "lat": 53.4314703, "lon": 20.0351807, "tags": {"addr:city": "D\u0105br\u00f3wno", "addr:housenumber": "1", "addr:street": "Plac Tadeusza Ko\u015bciuszki", "amenity": "pharmacy", "dispensing": "yes", "name": "Eliksir", "operator": "J. Ka\u017amierska & Wsp\u00f3lnicy Sp\u00f3\u0142ka Jawna", "phone": "+48 89 6474037", "ref:csioz": "1201612"}}, {"type": "node", "id": 2992145467, "lat": 53.5045049, "lon": 19.7494942, "tags": {"addr:city": "Lubawa", "addr:housenumber": "6", "addr:street": "Rynek", "amenity": "pharmacy", "dispensing": "yes", "name": "Dla Ciebie", "opening_hours": "Mo-Fr 08:00-20:00; Sa 08:00-14:00", "ref:csioz": "1192870"}}, {"type": "node", "id": 2992300605, "lat": 53.5063058, "lon": 19.7508657, "tags": {"addr:city": "Lubawa", "addr:housenumber": "3", "addr:postcode": "14-260", "addr:street": "Miko\u0142aja Kopernika", "amenity": "pharmacy", "dispensing": "yes", "healthcare": "pharmacy", "name": "Grunwaldzka 1", "ref:csioz": "1114856"}}, {"type": "node", "id": 3092923572, "lat": 53.2542095, "lon": 19.8215851, "tags": {"addr:city": "Lidzbark", "addr:housenumber": "42F", "addr:street": "Zielu\u0144ska", "amenity": "pharmacy", "dispensing": "yes", "name": "Welska", "ref:csioz": "1039332"}}, {"type": "node", "id": 3723668308, "lat": 53.3256361, "lon": 19.4774975, "tags": {"addr:housenumber": "27", "addr:place": "Pokrzydowo", "addr:postcode": "87-312", "amenity": "pharmacy", "dispensing": "yes", "healthcare": "pharmacy", "name": "Punkt Apteczny", "phone": "+48 (56) 498 58 98", "ref:csioz": "1105145", "wheelchair": "limited"}}, {"type": "node", "id": 4588959994, "lat": 53.2415852, "lon": 20.1996918, "tags": {"addr:city": "Dzia\u0142dowo", "addr:housenumber": "13D", "addr:street": "Le\u015bna", "amenity": "pharmacy", "dispensing": "yes", "name": "Manada II", "ref:csioz": "1114650"}}, {"type": "node", "id": 4770678605, "lat": 53.2591884, "lon": 19.817081, "tags": {"addr:city": "Lidzbark", "addr:housenumber": "21", "addr:postcode": "13-230", "addr:street": "Brzozowa", "alt_name": "Dobra", "amenity": "pharmacy", "dispensing": "yes", "email": "dobra@apitech.pl", "healthcare": "pharmacy", "name": "Green Cross", "opening_hours": "Mo-Fr 08:00-18:00", "payment:cash": "yes", "payment:coins": "yes", "payment:mastercard": "yes", "payment:visa": "yes", "ref:csioz": "1214496"}}, {"type": "node", "id": 5274043162, "lat": 53.4128681, "lon": 19.7565446, "tags": {"addr:housenumber": "17C", "addr:place": "Nowe Grodziczno", "addr:postcode": "13-324", "amenity": "pharmacy", "dispensing": "yes", "healthcare": "pharmacy", "name": "Punkt Apteczny", "ref:csioz": "1115269"}}, {"type": "node", "id": 8714244270, "lat": 53.2350319, "lon": 20.1748491, "tags": {"addr:city": "Dzia\u0142dowo", "addr:housenumber": "26", "addr:street": "W\u0142adys\u0142awa Jagie\u0142\u0142y", "amenity": "pharmacy", "dispensing": "yes", "healthcare": "pharmacy", "name": "Moja", "ref:csioz": "1039020"}}, {"type": "node", "id": 9588590398, "lat": 53.2430801, "lon": 20.1888329}, {"type": "node", "id": 9588590399, "lat": 53.2430743, "lon": 20.1888303}, {"type": "node", "id": 9588590400, "lat": 53.2431439, "lon": 20.18926}, {"type": "node", "id": 9588590401, "lat": 53.2431358, "lon": 20.18931}, {"type": "node", "id": 9588590402, "lat": 53.2231243, "lon": 20.2059774, "tags": {"addr:housenumber": "124", "addr:place": "Kisiny", "amenity": "pharmacy", "dispensing": "yes", "email": "punkt-apteczny@manada.pl", "name": "Punkt Apteczny Manada", "ref:csioz": "1229636"}}, {"type": "node", "id": 9588590404, "lat": 53.2421786, "lon": 20.1881513, "tags": {"addr:city": "Dzia\u0142dowo", "addr:housenumber": "10", "addr:street": "Nidzicka", "amenity": "pharmacy", "brand": "Dr. Max", "brand:wikidata": "Q56317371", "brand:wikipedia": "fr:Dr.Max", "dispensing": "yes", "email": "dzialdowo.nidzicka@drmax.com.pl", "healthcare": "pharmacy", "name": "Dr. Max", "ref:csioz": "1209353"}}, {"type": "node", "id": 9588590405, "lat": 53.2335976, "lon": 20.1788963, "tags": {"addr:city": "Dzia\u0142dowo", "addr:housenumber": "34", "addr:street": "Plac Adama Mickiewicza", "amenity": "pharmacy", "dispensing": "yes", "email": "dzialdowo.mickiewicza34@ap.info.pl", "name": "Spo\u0142eczna", "operator": "Grupa Nowa Farmacja", "ref:csioz": "1206787"}}, {"type": "node", "id": 9588590406, "lat": 53.2662979, "lon": 19.8277999, "tags": {"addr:city": "Lidzbark", "addr:housenumber": "23", "addr:street": "Jele\u0144ska", "amenity": "pharmacy", "brand": "Dbam o Zdrowie", "brand:wikidata": "Q62563833", "dispensing": "yes", "healthcare": "pharmacy", "name": "Dbam o Zdrowie", "ref:csioz": "1184569"}}, {"type": "node", "id": 9588590407, "lat": 53.1771611, "lon": 20.0449233, "tags": {"addr:housenumber": "92", "addr:place": "Niech\u0142onin", "amenity": "pharmacy", "dispensing": "yes", "fixme": "Lokalizacja do weryfikacji", "name": "Punkt Apteczny Lubczyk", "ref:csioz": "1176002"}}, {"type": "node", "id": 9588590408, "lat": 53.2345517, "lon": 20.1759567, "tags": {"addr:city": "Dzia\u0142dowo", "addr:housenumber": "22", "addr:street": "W\u0142adys\u0142awa Jagie\u0142\u0142y", "amenity": "pharmacy", "dispensing": "yes", "email": "dzialdowo@pharma-land.pl", "healthcare": "pharmacy", "name": "Pharma-Land", "ref:csioz": "1175386"}}, {"type": "node", "id": 9588590409, "lat": 53.2618086, "lon": 19.8234824, "tags": {"addr:city": "Lidzbark", "addr:housenumber": "2", "addr:street": "Nowy Rynek", "amenity": "pharmacy", "dispensing": "yes", "healthcare": "pharmacy", "name": "Dla Ciebie", "ref:csioz": "1171181"}}, {"type": "node", "id": 9588590410, "lat": 53.2724, "lon": 20.0088444, "tags": {"addr:city": "P\u0142o\u015bnica", "addr:housenumber": "2", "addr:street": "Lipowa", "amenity": "pharmacy", "dispensing": "yes", "ref:csioz": "1039694"}}, {"type": "node", "id": 9588590411, "lat": 53.2631527, "lon": 19.8224979, "tags": {"addr:city": "Lidzbark", "addr:housenumber": "10", "addr:street": "Plac genera\u0142a J\u00f3zefa Hallera", "alt_name": "Staromiejska", "amenity": "pharmacy", "dispensing": "yes", "email": "staromiejska@apitech.pl", "healthcare": "pharmacy", "name": "Green Cross", "opening_hours": "Mo-Fr 07:30-20:00; Sa 08:00-14:00", "ref:csioz": "1039310"}}, {"type": "node", "id": 9588590413, "lat": 53.233839, "lon": 20.1760606, "tags": {"addr:city": "Dzia\u0142dowo", "addr:housenumber": "9A", "addr:street": "Pocztowa", "amenity": "pharmacy", "dispensing": "yes", "ref:csioz": "1039073"}}, {"type": "node", "id": 9588590414, "lat": 53.2403026, "lon": 20.1806034, "tags": {"addr:city": "Dzia\u0142dowo", "addr:housenumber": "21A", "addr:street": "Cypriana Kamila Norwida", "amenity": "pharmacy", "dispensing": "yes", "ref:csioz": "1039061"}}, {"type": "node", "id": 9588590415, "lat": 53.2367136, "lon": 20.181774, "tags": {"addr:city": "Dzia\u0142dowo", "addr:housenumber": "23", "addr:street": "Stefana Wyszy\u0144skiego", "amenity": "pharmacy", "dispensing": "yes", "name": "Manada", "opening_hours": "Mo-Fr 08:00-18:00; Sa 08:00-14:00", "ref:csioz": "1039012"}}, {"type": "node", "id": 9588613900, "lat": 53.3453247, "lon": 20.0997463, "tags": {"addr:housenumber": "8", "addr:place": "Uzdowo", "addr:postcode": "13-200", "amenity": "pharmacy", "dispensing": "yes", "name": "Punkt Apteczny", "ref:csioz": "1230884"}}, {"type": "node", "id": 9592762194, "lat": 53.5013459, "lon": 19.7489926, "tags": {"addr:city": "Lubawa", "addr:housenumber": "20", "addr:street": "Teofila Rzepnikowskiego", "amenity": "pharmacy", "dispensing": "yes", "name": "Remedium", "ref:csioz": "1040636"}}, {"type": "node", "id": 9592762195, "lat": 53.5037775, "lon": 19.7501371, "tags": {"addr:city": "Lubawa", "addr:housenumber": "20", "addr:street": "Rynek", "amenity": "pharmacy", "dispensing": "yes", "name": "Arnika", "ref:csioz": "1040612"}}, {"type": "node", "id": 9598250274, "lat": 53.3999781, "lon": 19.578671, "tags": {"addr:city": "Kurz\u0119tnik", "addr:housenumber": "12", "addr:street": "\u0141\u0105kowa", "amenity": "pharmacy", "dispensing": "yes", "name": "Dr. Optima", "ref:csioz": "1222616"}}, {"type": "node", "id": 9598250275, "lat": 53.409607, "lon": 19.5939511, "tags": {"addr:city": "Kurz\u0119tnik", "addr:housenumber": "3", "addr:postcode": "13-306", "addr:street": "Henryka Sienkiewicza", "amenity": "pharmacy", "dispensing": "yes", "name": "Punkt Apteczny Green Cross", "ref:csioz": "1207257"}}, {"type": "node", "id": 9598250276, "lat": 53.424528, "lon": 19.5918683, "tags": {"addr:city": "Nowe Miasto Lubawskie", "addr:housenumber": "4", "addr:street": "3 Maja", "amenity": "pharmacy", "dispensing": "yes", "fixme": "Lokalizacja do weryfikacji", "name": "Pharmaland", "ref:csioz": "1181255"}}, {"type": "node", "id": 9601769845, "lat": 53.4321445, "lon": 20.0366065, "tags": {"addr:city": "D\u0105br\u00f3wno", "addr:housenumber": "9B", "addr:street": "Plac Tadeusza Ko\u015bciuszki", "amenity": "pharmacy", "dispensing": "yes", "fixme": "Lokalizacja do weryfikacji", "name": "Nowa", "ref:csioz": "1187418"}}, {"type": "node", "id": 9609578918, "lat": 53.1512576, "lon": 19.5565364, "tags": {"addr:housenumber": "93", "addr:place": "\u015awiedziebnia", "addr:postcode": "87-335", "amenity": "pharmacy", "dispensing": "yes", "name": "Pod Kasztanami", "ref:csioz": "1102952"}}, {"type": "node", "id": 9609597766, "lat": 53.2119514, "lon": 19.5161332, "tags": {"addr:housenumber": "15", "addr:place": "Jastrz\u0119bie", "addr:postcode": "87-322", "amenity": "pharmacy", "dispensing": "yes", "name": "Avena W Jastrz\u0119biu", "ref:csioz": "1223910"}}, {"type": "node", "id": 9683404422, "lat": 53.1733289, "lon": 19.8570199, "tags": {"addr:city": "Zielu\u0144", "addr:housenumber": "6", "addr:postcode": "09-304", "addr:street": "\u015awi\u0119toja\u0144ska", "amenity": "pharmacy", "dispensing": "yes", "name": "Doz Punkt Apteczny. Dbam O Zdrowie Mgr Adam Justyn Cicho\u0144", "ref:csioz": "1197771"}}, {"type": "node", "id": 9683443328, "lat": 53.1230012, "lon": 19.8403509, "tags": {"addr:city": "Lubowidz", "addr:housenumber": "14", "addr:postcode": "09-304", "addr:street": "Pod\u015bwi\u0119tna", "amenity": "pharmacy", "dispensing": "yes", "ref:csioz": "1091943"}}, {"type": "node", "id": 10218255689, "lat": 53.1522326, "lon": 19.5565005, "tags": {"amenity": "pharmacy", "dispensing": "yes", "healthcare": "pharmacy", "name": "Dla Ciebie", "ref:csioz": "1123630"}}, {"type": "node", "id": 10218255690, "lat": 53.3242855, "lon": 19.6102712, "tags": {"addr:housenumber": "176", "addr:place": "Brzozie", "addr:postcode": "87-313", "amenity": "pharmacy", "dispensing": "yes", "healthcare": "pharmacy", "name": "Punkt Apteczny Avena", "phone": "+48 56 493 54 58", "ref:csioz": "1231099"}}, {"type": "node", "id": 12344240427, "lat": 53.4121068, "lon": 19.5939774, "tags": {"amenity": "pharmacy", "brand": "Gemini", "brand:wikidata": "Q130243797", "healthcare": "pharmacy", "name": "Gemini"}}, {"type": "way", "id": 122131359, "nodes": [1365473651, 1365473650, 9588590400, 9588590401, 1365473648, 9588590399, 9588590398, 1365473649, 1365473651], "tags": {"addr:city": "Dzia\u0142dowo", "addr:housenumber": "2", "addr:postcode": "13-200", "addr:street": "Marii Zientary-Malewskiej", "amenity": "pharmacy", "building": "yes", "dispensing": "yes", "name": "Manada", "phone": "+48 23 6980748", "ref:csioz": "1208200"}}]}