{"version": 0.6, "generator": "Overpass API 0.7.62.8 e802775f", "osm3s": {"timestamp_osm_base": "2025-10-06T08:16:01Z", "copyright": "The data included in this document is from www.openstreetmap.org. The data is made available under ODbL."}, "elements": [{"type": "node", "id": 1279247412, "lat": 46.6805398, "lon": 21.0977637, "tags": {"amenity": "pharmacy", "healthcare": "pharmacy", "name": "Sas Patika", "wheelchair": "limited"}}, {"type": "node", "id": 1279291594, "lat": 46.6783784, "lon": 21.0943743, "tags": {"amenity": "pharmacy", "healthcare": "pharmacy", "name": "K\u00edgy\u00f3 Patika", "wheelchair": "limited", "wikimedia_commons": "File:Andr\u00e1ssy \u00fat 19, B\u00e9k\u00e9scsaba - 2013 (31).jpg"}}, {"type": "node", "id": 1279311217, "lat": 46.6782602, "lon": 21.0947884, "tags": {"addr:city": "B\u00e9k\u00e9scsaba", "addr:housenumber": "14", "addr:postcode": "5600", "addr:street": "Andr\u00e1ssy \u00fat", "amenity": "pharmacy", "brand": "Pingvin Patik\u00e1k", "contact:phone": "+36 66 520 130", "healthcare": "pharmacy", "name": "Pingvin Patika", "opening_hours": "Mo-Fr 08:00-19:00; Sa 08:00-13:00", "wheelchair": "yes"}}, {"type": "node", "id": 1280849944, "lat": 46.6851926, "lon": 21.0913863, "tags": {"addr:city": "B\u00e9k\u00e9scsaba", "addr:housenumber": "34", "addr:postcode": "5600", "addr:street": "Baross utca", "amenity": "pharmacy", "brand": "Alma Gy\u00f3gyszert\u00e1r", "brand:website": "https://almapatika.hu", "brand:wikidata": "Q105626221", "contact:phone": "+36 66 321 726", "healthcare": "pharmacy", "name": "Alma Gy\u00f3gyszert\u00e1r", "opening_hours": "Mo-Fr 07:00-19:00"}}, {"type": "node", "id": 1678345938, "lat": 46.675874, "lon": 21.0905943, "tags": {"addr:city": "B\u00e9k\u00e9scsaba", "addr:housenumber": "2", "addr:postcode": "5600", "addr:street": "Pet\u0151fi utca", "amenity": "pharmacy", "healthcare": "pharmacy", "name": "Krist\u00e1ly Gy\u00f3gyszert\u00e1r"}}, {"type": "node", "id": 1679032973, "lat": 46.675604, "lon": 21.086534, "tags": {"amenity": "pharmacy", "healthcare": "pharmacy", "name": "Iris", "wikimedia_commons": "File:Iris Gy\u00f3gyszert\u00e1r, B\u00e9k\u00e9scsaba, Trefort utca 3. - 2013 (76).jpg"}}, {"type": "node", "id": 1680719927, "lat": 46.645451, "lon": 21.2783942, "tags": {"amenity": "pharmacy", "name": "Erkel"}}, {"type": "node", "id": 1680720015, "lat": 46.6443363, "lon": 21.2729928, "tags": {"amenity": "pharmacy", "name": "Belv\u00e1rosi"}}, {"type": "node", "id": 1943926131, "lat": 46.6001645, "lon": 21.0751523, "tags": {"addr:city": "Szabadk\u00edgy\u00f3s", "addr:housenumber": "3", "addr:postcode": "5712", "addr:street": "J\u00f3zsef Attila utca", "amenity": "pharmacy", "contact:email": "info@szentmartonpatika.hu", "contact:phone": "+36 66 247 670", "contact:website": "http://www.szentmartongyogyszertar.hu", "dispensing": "yes", "healthcare": "pharmacy", "name": "Szent M\u00e1rton Gy\u00f3gyszert\u00e1r", "opening_hours": "Mo-Fr 07:30-18:00; Sa 08:00-12:00"}}, {"type": "node", "id": 2363051362, "lat": 46.7620319, "lon": 21.0391206}, {"type": "node", "id": 2363051363, "lat": 46.7620283, "lon": 21.0392924}, {"type": "node", "id": 2363051364, "lat": 46.7621624, "lon": 21.0392983}, {"type": "node", "id": 2363051365, "lat": 46.762166, "lon": 21.0391265}, {"type": "node", "id": 2704920520, "lat": 46.9262336, "lon": 21.2642716, "tags": {"amenity": "pharmacy", "healthcare": "pharmacy"}}, {"type": "node", "id": 2934242829, "lat": 46.6504158, "lon": 21.2641709, "tags": {"addr:city": "Gyula", "addr:housenumber": "1/b", "addr:postcode": "5700", "addr:street": "N\u00fcrnbergi utca", "amenity": "pharmacy", "contact:website": "https://coronellapatika.hu/", "dispensing": "yes", "drive_through": "no", "healthcare": "pharmacy", "name": "Coronella Patika"}}, {"type": "node", "id": 3462303746, "lat": 46.929302, "lon": 21.266699, "tags": {"amenity": "pharmacy", "name": "Magyar patika", "source": "turistautak.hu", "source:date": "2011-07-28", "url": "http://turistautak.hu/poi.php?id=122375"}}, {"type": "node", "id": 3465203042, "lat": 46.871163, "lon": 21.181784, "tags": {"amenity": "pharmacy", "name": "C\u00e9drus Gy\u00f3gyszert\u00e1r", "source": "turistautak.hu", "source:date": "2011-08-29", "url": "http://turistautak.hu/poi.php?id=123923"}}, {"type": "node", "id": 3465206137, "lat": 46.883471, "lon": 21.027922, "tags": {"amenity": "pharmacy", "name": "Szentl\u00e9lek gy\u00f3gyszert\u00e1r", "source": "turistautak.hu", "source:date": "2012-02-14", "url": "http://turistautak.hu/poi.php?id=120356"}}, {"type": "node", "id": 3465206156, "lat": 46.823237, "lon": 21.028583, "tags": {"amenity": "pharmacy", "healthcare": "pharmacy", "name": "Vereckei Patika", "source": "turistautak.hu", "source:date": "2013-06-26", "url": "http://turistautak.hu/poi.php?id=49163"}}, {"type": "node", "id": 3465206188, "lat": 46.769064, "lon": 21.130177, "tags": {"amenity": "pharmacy", "healthcare": "pharmacy", "source": "turistautak.hu", "source:date": "2013-07-30", "url": "http://turistautak.hu/poi.php?id=157146"}}, {"type": "node", "id": 3465206191, "lat": 46.7709175, "lon": 21.1324579, "tags": {"addr:city": "B\u00e9k\u00e9s", "addr:housenumber": "2", "addr:postcode": "5630", "addr:street": "Piac t\u00e9r", "amenity": "pharmacy", "description": "Eg\u00e9szs\u00e9gk\u00e1rtya nem haszn\u00e1lhat\u00f3 (2022).", "healthcare": "pharmacy", "name": "Turul", "phone": "+36 66 411 014"}}, {"type": "node", "id": 4185907002, "lat": 46.7353872, "lon": 21.2428628, "tags": {"addr:city": "Doboz", "addr:housenumber": "2", "addr:postcode": "5624", "addr:street": "Nagy utca", "amenity": "pharmacy", "contact:email": "dobozipatika@t-online.hu", "contact:facebook": "https://www.facebook.com/kazaypatikadoboz", "contact:phone": "+36 66 268 762", "name": "Kazay Endre gy\u00f3gyszert\u00e1r", "opening_hours": "Mo-Fr 08:00-17:00; PH off"}}, {"type": "node", "id": 4212710427, "lat": 46.6689823, "lon": 21.0668378, "tags": {"amenity": "pharmacy", "name": "Marsai alma", "opening_hours": "Mo-Fr 07:30-16:30"}}, {"type": "node", "id": 4212710463, "lat": 46.6620724, "lon": 21.0750927, "tags": {"amenity": "pharmacy", "healthcare": "pharmacy", "name": "Jamina Patika"}}, {"type": "node", "id": 4544772762, "lat": 46.6430615, "lon": 21.2759292}, {"type": "node", "id": 4544772763, "lat": 46.6428676, "lon": 21.2758197}, {"type": "node", "id": 4544772764, "lat": 46.6429259, "lon": 21.2755897}, {"type": "node", "id": 4544772765, "lat": 46.643047, "lon": 21.2756523}, {"type": "node", "id": 4824355827, "lat": 46.6808556, "lon": 21.0755895, "tags": {"addr:city": "B\u00e9k\u00e9scsaba", "addr:housenumber": "68", "addr:postcode": "5600", "addr:street": "Szarvasi \u00fat", "amenity": "pharmacy", "healthcare": "pharmacy", "name": "PatikaPlus Gy\u00f3gyszert\u00e1r", "opening_hours": "Mo-Sa 08:00-20:00; Su 08:00-18:00", "operator": "Patika Profi Nyugat Kft.", "operator:addr": "8000 Sz\u00e9kesfeh\u00e9rv\u00e1r, Kadocsa utca 84", "ref:HU:vatin": "24715612-4-07"}}, {"type": "node", "id": 5258205428, "lat": 46.6430831, "lon": 21.2758216}, {"type": "node", "id": 5258205429, "lat": 46.6430144, "lon": 21.2757861}, {"type": "node", "id": 5258216089, "lat": 46.6428924, "lon": 21.2757138}, {"type": "node", "id": 5260883388, "lat": 46.774165, "lon": 21.1345948, "tags": {"addr:city": "B\u00e9k\u00e9s", "addr:housenumber": "3", "addr:postcode": "5630", "addr:street": "R\u00e1k\u00f3czi utca", "amenity": "pharmacy", "dispensing": "no", "name": "J\u00e1zmin Gy\u00f3gyszert\u00e1r"}}, {"type": "node", "id": 5274930866, "lat": 46.6429592, "lon": 21.2726741, "tags": {"amenity": "pharmacy", "check_date:opening_hours": "2022-01-01", "name": "Aranykereszt Gy\u00f3gyszert\u00e1r", "opening_hours": "Mo-Fr 07:30-18:00; Sa 07:30-12:00", "wheelchair": "yes"}}, {"type": "node", "id": 5577888072, "lat": 46.9261861, "lon": 21.2648116}, {"type": "node", "id": 5577888073, "lat": 46.9262594, "lon": 21.2643476}, {"type": "node", "id": 5577888074, "lat": 46.9262228, "lon": 21.2642859}, {"type": "node", "id": 5577888075, "lat": 46.9260909, "lon": 21.2642403}, {"type": "node", "id": 5577888076, "lat": 46.9260616, "lon": 21.2644334}, {"type": "node", "id": 5577888077, "lat": 46.9261422, "lon": 21.2644817}, {"type": "node", "id": 5577888078, "lat": 46.9260872, "lon": 21.2647821}, {"type": "node", "id": 5577888079, "lat": 46.9261422, "lon": 21.2648008}, {"type": "node", "id": 5631184242, "lat": 46.6901687, "lon": 21.0816259, "tags": {"addr:city": "B\u00e9k\u00e9scsaba", "addr:housenumber": "69", "addr:postcode": "5600", "addr:street": "Ber\u00e9nyi \u00fat", "amenity": "pharmacy", "dispensing": "yes", "healthcare": "pharmacy", "name": "Aranykehely Gy\u00f3gyszert\u00e1r"}}, {"type": "node", "id": 5631184256, "lat": 46.6801262, "lon": 21.1025983, "tags": {"amenity": "pharmacy", "dispensing": "yes", "healthcare": "pharmacy", "name": "Isteni Gondvisel\u00e9s Gy\u00f3gyszert\u00e1r"}}, {"type": "node", "id": 6338103886, "lat": 46.8990247, "lon": 21.348296, "tags": {"addr:city": "Ok\u00e1ny", "addr:housenumber": "15", "addr:postcode": "5534", "addr:street": "Kossuth utca", "amenity": "pharmacy", "healthcare": "pharmacy", "name": "Korona gy\u00f3gyszert\u00e1r", "name:en": "Crown Pharmacy", "name:hu": "Korona gy\u00f3gyszert\u00e1r", "phone": "+36 66 488 108"}}, {"type": "node", "id": 8831031297, "lat": 46.6994652, "lon": 21.1844088, "tags": {"addr:city": "B\u00e9k\u00e9scsaba", "addr:housenumber": "11", "addr:postcode": "5623", "addr:street": "Wenckheim K\u00e1roly t\u00e9r", "addr:suburb": "Gerla", "amenity": "pharmacy", "healthcare": "pharmacy", "name": "Kazay Endre Fi\u00f3kgy\u00f3gyszert\u00e1r"}}, {"type": "node", "id": 9002605527, "lat": 46.9606292, "lon": 21.0849354}, {"type": "node", "id": 9002605528, "lat": 46.9607287, "lon": 21.0849682}, {"type": "node", "id": 9002605529, "lat": 46.9607438, "lon": 21.0848164}, {"type": "node", "id": 9002605530, "lat": 46.9606443, "lon": 21.0847836}, {"type": "node", "id": 9002605533, "lat": 46.9606544, "lon": 21.084718}, {"type": "node", "id": 9002605534, "lat": 46.9607556, "lon": 21.08474}, {"type": "node", "id": 9002605537, "lat": 46.9605708, "lon": 21.0846904}, {"type": "node", "id": 9002605538, "lat": 46.9608521, "lon": 21.0847718}, {"type": "node", "id": 9207008635, "lat": 46.8236992, "lon": 21.0260542, "tags": {"addr:city": "Mez\u0151ber\u00e9ny", "addr:housenumber": "1", "addr:postcode": "5650", "addr:street": "Luther utca", "amenity": "pharmacy", "dispensing": "yes", "healthcare": "pharmacy", "name": "Oroszl\u00e1n Gy\u00f3gyszert\u00e1r", "opening_hours": "Mo-Fr 07:30-18:00, Sa 08:00-12:00"}}, {"type": "node", "id": 9306781050, "lat": 46.7445968, "lon": 21.3847369, "tags": {"addr:city": "Sarkad", "addr:housenumber": "4", "addr:postcode": "5720", "addr:street": "B\u00e9ke s\u00e9t\u00e1ny", "amenity": "pharmacy", "dispensing": "yes", "drive_through": "no", "healthcare": "pharmacy", "name": "S\u00e9t\u00e1ny Patika", "opening_hours": "Mo-Fr 08:00-18:00", "operator": "S\u00e9t\u00e1ny Patika Bt.", "payment:cash": "yes", "payment:credit_cards": "yes", "wheelchair": "yes"}}, {"type": "node", "id": 9535923824, "lat": 46.9607241, "lon": 21.0849984}, {"type": "node", "id": 9535925625, "lat": 46.9605332, "lon": 21.0849355}, {"type": "node", "id": 9535925626, "lat": 46.9606246, "lon": 21.0849656}, {"type": "node", "id": 9535925627, "lat": 46.9608128, "lon": 21.0850277}, {"type": "node", "id": 9869320658, "lat": 46.6505667, "lon": 21.2787473, "tags": {"amenity": "pharmacy", "brand": "Alma Gy\u00f3gyszert\u00e1r", "brand:website": "https://almapatika.hu", "brand:wikidata": "Q105626221", "healthcare": "pharmacy", "internet_access:ssid": "KalvinPatika;KalvinPatika_5G", "name": "K\u00e1lvin Gy\u00f3gyszert\u00e1r"}}, {"type": "node", "id": 10653293706, "lat": 46.6789424, "lon": 21.0807475, "tags": {"addr:city": "B\u00e9k\u00e9scsaba", "addr:housenumber": "16", "addr:postcode": "5600", "addr:street": "Kazinczy utca", "amenity": "pharmacy", "contact:email": "webaruhaz@pingvinpatika.hu", "contact:phone": "+36 66 322 201", "name": "Pingvin Patika", "opening_hours": "Mo-Fr 07:30-18:30; Sa 07:30-12:30", "operator": "Pingvin Napf\u00e9ny Zrt.", "operator:addr": "6720 Szeged, Sz\u00e9chenyi t\u00e9r 17.", "ref:HU:vatin": "24700450-2-06"}}, {"type": "node", "id": 11189794570, "lat": 46.8109381, "lon": 21.3831264, "tags": {"addr:city": "Sarkadkereszt\u00far", "addr:housenumber": "16", "addr:postcode": "5731", "addr:street": "R\u00e1k\u00f3czi \u00fat", "amenity": "pharmacy", "contact:phone": "+36 66 375 653", "drive_through": "no", "healthcare": "pharmacy", "wheelchair": "yes"}}, {"type": "node", "id": 11189966458, "lat": 46.7379105, "lon": 21.3709894, "tags": {"amenity": "pharmacy", "brand": "Alma Gy\u00f3gyszert\u00e1r", "brand:website": "https://almapatika.hu", "brand:wikidata": "Q105626221", "healthcare": "pharmacy", "name": "Mim\u00f3za Gy\u00f3gyszert\u00e1r"}}, {"type": "way", "id": 227655521, "nodes": [2363051362, 2363051363, 2363051364, 2363051365, 2363051362], "tags": {"amenity": "pharmacy", "building": "yes", "healthcare": "pharmacy"}}, {"type": "way", "id": 458485232, "nodes": [4544772765, 4544772764, 5258216089, 4544772763, 4544772762, 5258205428, 5258205429, 4544772765], "tags": {"amenity": "pharmacy", "building": "yes", "building:levels": "1", "healthcare": "pharmacy", "internet_access:ssid": "CentrumPatika", "name": "Centrum Patika", "wheelchair": "yes"}}, {"type": "way", "id": 583432977, "nodes": [5577888072, 5577888073, 5577888074, 5577888075, 5577888076, 5577888077, 5577888078, 5577888079, 5577888072], "tags": {"amenity": "pharmacy", "building": "yes", "dispensing": "yes", "healthcare": "pharmacy"}}, {"type": "way", "id": 972702593, "nodes": [9535925625, 9002605537, 9002605533, 9002605530, 9002605529, 9002605534, 9002605538, 9535925627, 9535923824, 9002605528, 9002605527, 9535925626, 9535925625], "tags": {"addr:city": "K\u00f6r\u00f6slad\u00e1ny", "addr:housenumber": "4", "addr:postcode": "5516", "addr:street": "Kossuth Lajos \u00fat", "amenity": "pharmacy", "brand": "Benu", "brand:wikidata": "Q62562792", "building": "yes", "contact:phone": "+36 66 474 008", "dispensing": "yes", "healthcare": "pharmacy", "name": "K\u00edgy\u00f3 Gy\u00f3gyszert\u00e1r", "opening_hours": "Mo-Fr 08:00-17:00; Sa-Su off", "wheelchair": "yes"}}]}