{"version": 0.6, "generator": "Overpass API 0.7.62.8 e802775f", "osm3s": {"timestamp_osm_base": "2025-10-06T07:57:45Z", "copyright": "The data included in this document is from www.openstreetmap.org. The data is made available under ODbL."}, "elements": [{"type": "node", "id": 301465610, "lat": 44.8269649, "lon": 20.4567976, "tags": {"amenity": "pharmacy", "healthcare": "pharmacy", "int_name": "Moc bilja - Dr Josif Pancic", "name": "\u041c\u043e\u045b \u0431\u0438\u0459\u0430 - \u0414\u0440 \u0408\u043e\u0441\u0438\u0444 \u041f\u0430\u043d\u0447\u0438\u045b", "name:sr": "\u041c\u043e\u045b \u0431\u0438\u0459\u0430 - \u0414\u0440 \u0408\u043e\u0441\u0438\u0444 \u041f\u0430\u043d\u0447\u0438\u045b", "name:sr-Latn": "Mo\u0107 bilja - Dr Josif Pan\u010di\u0107", "website": "https://www.mocbilja.rs/"}}, {"type": "node", "id": 356074529, "lat": 44.7885488, "lon": 20.4655021, "tags": {"amenity": "pharmacy", "healthcare": "pharmacy"}}, {"type": "node", "id": 416127997, "lat": 44.8724654, "lon": 20.4601356, "tags": {"amenity": "pharmacy", "healthcare": "pharmacy"}}, {"type": "node", "id": 462109323, "lat": 44.7823034, "lon": 20.4185784, "tags": {"amenity": "pharmacy", "healthcare": "pharmacy", "opening_hours": "24/7"}}, {"type": "node", "id": 552994411, "lat": 44.845683, "lon": 20.4100758, "tags": {"amenity": "pharmacy", "healthcare": "pharmacy", "int_name": "Apoteka Beograd", "name": "\u0410\u043f\u043e\u0442\u0435\u043a\u0430 \u0411\u0435\u043e\u0433\u0440\u0430\u0434", "name:sr": "\u0410\u043f\u043e\u0442\u0435\u043a\u0430 \u0411\u0435\u043e\u0433\u0440\u0430\u0434", "name:sr-Latn": "Apoteka Beograd", "opening_hours": "24/7", "operator": "\u0410\u043f\u043e\u0442\u0435\u043a\u0430 \u0411\u0435\u043e\u0433\u0440\u0430\u0434", "wheelchair": "yes"}}, {"type": "node", "id": 558651225, "lat": 44.7844163, "lon": 20.4927421, "tags": {"amenity": "pharmacy", "healthcare": "pharmacy", "name": "R-pharm"}}, {"type": "node", "id": 673990863, "lat": 44.7932876, "lon": 20.5059741, "tags": {"amenity": "pharmacy", "dispensing": "yes", "healthcare": "pharmacy", "name": "Pharmazoik"}}, {"type": "node", "id": 830401116, "lat": 44.8311619, "lon": 20.4122678, "tags": {"amenity": "pharmacy", "healthcare": "pharmacy", "int_name": "Bogdan Vujosevic", "name": "\u0411\u043e\u0433\u0434\u0430\u043d \u0412\u0443\u0458\u043e\u0448\u0435\u0432\u0438\u045b", "name:sr": "\u0411\u043e\u0433\u0434\u0430\u043d \u0412\u0443\u0458\u043e\u0448\u0435\u0432\u0438\u045b", "name:sr-Latn": "Bogdan Vujo\u0161evi\u0107", "opening_hours": "24/7", "operator": "\u0410\u043f\u043e\u0442\u0435\u043a\u0430 \u0411\u0435\u043e\u0433\u0440\u0430\u0434"}}, {"type": "node", "id": 849463075, "lat": 44.7498532, "lon": 20.4995, "tags": {"amenity": "pharmacy", "healthcare": "pharmacy"}}, {"type": "node", "id": 859527203, "lat": 44.9666714, "lon": 20.2817802, "tags": {"amenity": "pharmacy", "drive_through": "no", "healthcare": "pharmacy", "int_name": "Lara farm", "name": "\u041b\u0430\u0440\u0430 \u0444\u0430\u0440\u043c", "name:sr": "\u041b\u0430\u0440\u0430 \u0444\u0430\u0440\u043c", "name:sr-Latn": "Lara farm", "opening_hours": "Mo-Fr 07:30-23:30; Sa,Su 08:00-23:00"}}, {"type": "node", "id": 859528782, "lat": 44.9668966, "lon": 20.281246, "tags": {"addr:city": "\u0411\u0430\u043d\u043e\u0432\u0446\u0438 \u0414\u0443\u043d\u0430\u0432", "addr:housenumber": "6", "addr:postcode": "22303", "addr:street": "\u0421\u0432\u0435\u0442\u043e\u0441\u0430\u0432\u0441\u043a\u0430", "amenity": "pharmacy", "brand": "Benu", "brand:wikidata": "Q62562792", "drive_through": "no", "healthcare": "pharmacy", "name": "Benu", "name:sr": "\u0411\u0415\u041d\u0423", "name:sr-Latn": "BENU", "opening_hours": "Mo-Fr 07:00-21:00; Sa 08:00-20:00; Su 08:00-14:00"}}, {"type": "node", "id": 859537979, "lat": 44.9682088, "lon": 20.2795937, "tags": {"addr:city": "\u0411\u0430\u043d\u043e\u0432\u0446\u0438 \u0414\u0443\u043d\u0430\u0432", "addr:postcode": "22303", "addr:street": "\u0414\u043e\u0441\u0438\u0442\u0435\u0458\u0430 \u041e\u0431\u0440\u0430\u0434\u043e\u0432\u0438\u045b\u0430", "amenity": "pharmacy", "healthcare": "pharmacy", "name": "Jankovi\u0107", "opening_hours": "Mo-Fr 07:30-20:30; Sa,Su 08:00-15:00"}}, {"type": "node", "id": 859540197, "lat": 44.9571763, "lon": 20.2805501, "tags": {"addr:city": "\u041d\u043e\u0432\u0438 \u0411\u0430\u043d\u043e\u0432\u0446\u0438", "addr:housenumber": "90", "addr:postcode": "22304", "addr:street": "\u0421\u0432\u0435\u0442\u043e\u0441\u0430\u0432\u0441\u043a\u0430", "amenity": "pharmacy", "drive_through": "no", "healthcare": "pharmacy", "int_name": "Alfa Farm", "name": "\u0410\u043b\u0444\u0430 \u0424\u0430\u0440\u043c", "name:sr": "\u0410\u043b\u0444\u0430 \u0424\u0430\u0440\u043c", "name:sr-Latn": "Alfa Farm", "phone": "+381 22 341090"}}, {"type": "node", "id": 859540325, "lat": 44.9566993, "lon": 20.283408, "tags": {"amenity": "pharmacy"}}, {"type": "node", "id": 866284008, "lat": 44.9839968, "lon": 20.2844266, "tags": {"addr:city": "\u0421\u0442\u0430\u0440\u0438 \u0411\u0430\u043d\u043e\u0432\u0446\u0438", "addr:housenumber": "21", "addr:postcode": "22305", "addr:street": "\u0413\u0440\u0447\u043a\u0430", "amenity": "pharmacy", "drive_through": "no", "healthcare": "pharmacy", "name": "Lara pharm", "opening_hours": "Mo-Fr 07:30-20:30; Sa 08:00-19:00; Su 08:00-16:00", "operator": "Lara Farm"}}, {"type": "node", "id": 866539514, "lat": 44.9813404, "lon": 20.2744659, "tags": {"amenity": "pharmacy", "healthcare": "pharmacy"}}, {"type": "node", "id": 1018369369, "lat": 44.8187735, "lon": 20.4645709, "tags": {"addr:city": "\u0411\u0435\u043e\u0433\u0440\u0430\u0434", "addr:housenumber": "24", "addr:street": "\u0424\u0440\u0430\u043d\u0446\u0443\u0441\u043a\u0430", "amenity": "pharmacy", "check_date:opening_hours": "2024-05-25", "healthcare": "pharmacy", "int_name": "Prima", "name": "\u041f\u0440\u0438\u043c\u0430", "name:sr": "\u041f\u0440\u0438\u043c\u0430", "name:sr-Latn": "Prima", "opening_hours": "00:00-24:00"}}, {"type": "node", "id": 1038344990, "lat": 44.7601975, "lon": 20.4772467, "tags": {"addr:housenumber": "14", "addr:street": "\u041d\u0435\u0430 \u041f\u0435\u043d\u0434\u0435\u043b\u0438", "amenity": "pharmacy", "dispensing": "yes", "healthcare": "pharmacy", "int_name": "Ben", "mapillary": "1027738022270022", "name": "\u0411\u0435\u043d", "name:sr": "\u0411\u0435\u043d", "name:sr-Latn": "Ben", "opening_hours": "24/7", "phone": "0113984754"}}, {"type": "node", "id": 1124731550, "lat": 44.816794, "lon": 20.4579489, "tags": {"addr:city": "\u0411\u0435\u043e\u0433\u0440\u0430\u0434", "addr:housenumber": "27", "addr:postcode": "11000", "addr:street": "\u041a\u043d\u0435\u0437\u0430 \u041c\u0438\u0445\u0430\u0438\u043b\u0430", "amenity": "pharmacy", "check_date": "2023-05-01", "healthcare": "pharmacy", "name": "\u041c\u0440 \u041c\u0430\u0442\u0435\u0458 \u0418\u0432\u0430\u043d\u043e\u0432\u0438\u045b", "name:en": "Mr Matej Ivanovi\u0107", "name:sr": "\u041c\u0440 \u041c\u0430\u0442\u0435\u0458 \u0418\u0432\u0430\u043d\u043e\u0432\u0438\u045b", "name:sr-Latn": "Mr Matej Ivanovi\u0107", "opening_hours": "Mo-Fr 08:00-21:00; Sa 10:00-21:00; Su 11:00-21:00", "operator": "\u0410\u043f\u043e\u0442\u0435\u043a\u0430\u0440\u0441\u043a\u0430 \u0443\u0441\u0442\u0430\u043d\u043e\u0432\u0430 \u201e\u0411\u0435\u043e\u0433\u0440\u0430\u0434\u201d", "phone": "+381 11 2632 284", "website": "https://apotekabeograd.co.rs/", "wheelchair": "yes"}}, {"type": "node", "id": 1382344368, "lat": 44.8776976, "lon": 20.451626, "tags": {"amenity": "pharmacy", "healthcare": "pharmacy"}}, {"type": "node", "id": 1580323593, "lat": 44.8184151, "lon": 20.4665876, "tags": {"addr:housenumber": "32", "addr:street": "\u0426\u0435\u0442\u0438\u045a\u0441\u043a\u0430", "amenity": "pharmacy", "healthcare": "pharmacy"}}, {"type": "node", "id": 1618015907, "lat": 44.8137478, "lon": 20.4565606, "tags": {"amenity": "pharmacy", "healthcare": "pharmacy", "int_name": "Orlean plus", "name": "\u041e\u0440\u043b\u0435\u0430\u043d \u043f\u043b\u0443\u0441"}}, {"type": "node", "id": 1633930194, "lat": 44.8012933, "lon": 20.4928502, "tags": {"addr:housenumber": "100", "addr:postcode": "11000", "addr:street": "\u0414\u0438\u043c\u0438\u0442\u0440\u0438\u0458\u0430 \u0422\u0443\u0446\u043e\u0432\u0438\u045b\u0430", "amenity": "pharmacy", "dispensing": "yes", "drive_through": "no", "email": "apotekakalepharm2@gmail.com", "healthcare": "pharmacy", "name": "Kale Pharm 2", "opening_hours": "Mo-Fr 07:00-21:00, Sa 08:00-20:00", "phone": "+381 11 3809 696"}}, {"type": "node", "id": 1640079429, "lat": 44.7839608, "lon": 20.4791428, "tags": {"amenity": "pharmacy", "healthcare": "pharmacy"}}, {"type": "node", "id": 1706394261, "lat": 44.7885503, "lon": 20.4997963, "tags": {"alt_name": "Z.U. Apoteka Medica BG", "amenity": "pharmacy", "dispensing": "yes", "healthcare": "pharmacy", "int_name": "Vojislava Ilica", "name": "\u0412\u043e\u0458\u0438\u0441\u043b\u0430\u0432\u0430 \u0418\u043b\u0438\u045b\u0430", "name:sr": "\u0412\u043e\u0458\u0438\u0441\u043b\u0430\u0432\u0430 \u0418\u043b\u0438\u045b\u0430", "name:sr-Latn": "Vojislava Ili\u0107a", "source": "my knowledge"}}, {"type": "node", "id": 2005042747, "lat": 44.7495687, "lon": 20.4164241, "tags": {"amenity": "pharmacy", "healthcare": "pharmacy", "int_name": "Cerak", "name": "\u0426\u0435\u0440\u0430\u043a", "name:sr": "\u0426\u0435\u0440\u0430\u043a", "name:sr-Latn": "Cerak"}}, {"type": "node", "id": 2005042834, "lat": 44.7499014, "lon": 20.4169398, "tags": {"amenity": "pharmacy", "dispensing": "yes", "drive_through": "no", "healthcare": "pharmacy", "int_name": "Cerak", "name": "\u0426\u0435\u0440\u0430\u043a", "name:sr": "\u0426\u0435\u0440\u0430\u043a", "opening_hours": "Mo-Fr 08:00-15:30", "phone": "+381112399566"}}, {"type": "node", "id": 2021045994, "lat": 44.8133751, "lon": 20.4692579, "tags": {"amenity": "pharmacy", "healthcare": "pharmacy"}}, {"type": "node", "id": 2112218351, "lat": 44.8210962, "lon": 20.4180273, "tags": {"amenity": "pharmacy", "dispensing": "yes", "healthcare": "pharmacy"}}, {"type": "node", "id": 2112218365, "lat": 44.8214192, "lon": 20.4177538, "tags": {"amenity": "pharmacy", "dispensing": "yes", "healthcare": "pharmacy", "name": "Oaza Zdravlja"}}, {"type": "node", "id": 2126288750, "lat": 44.8168331, "lon": 20.4174448, "tags": {"amenity": "pharmacy", "brand": "Benu", "brand:wikidata": "Q62562792", "dispensing": "yes", "healthcare": "pharmacy", "name": "Benu", "opening_hours": "Mo-Fr 08:00-08:30; Sa 08:00-16:00"}}, {"type": "node", "id": 2128052356, "lat": 44.8271883, "lon": 20.4617278, "tags": {"amenity": "pharmacy", "healthcare": "pharmacy"}}, {"type": "node", "id": 2244998357, "lat": 44.8149856, "lon": 20.4771529, "tags": {"amenity": "pharmacy", "healthcare": "pharmacy"}}, {"type": "node", "id": 2432330221, "lat": 44.7728658, "lon": 20.4143025, "tags": {"addr:housenumber": "87", "addr:street": "\u041f\u043e\u0436\u0435\u0448\u043a\u0430", "amenity": "pharmacy", "branch": "53", "designation": "0-24", "dispensing": "yes", "drive_through": "no", "healthcare": "pharmacy", "int_name": "Miroslav Trajkovic", "name": "\u041c\u0438\u0440\u043e\u0441\u043b\u0430\u0432 \u0422\u0440\u0430\u0458\u043a\u043e\u0432\u0438\u045b", "name:sr": "\u041c\u0438\u0440\u043e\u0441\u043b\u0430\u0432 \u0422\u0440\u0430\u0458\u043a\u043e\u0432\u0438\u045b", "name:sr-Latn": "Miroslav Trajkovi\u0107", "opening_hours": "Mo-Fr 07:00-20:00; Sa 07:00-18:00; Su 08:00-16:00", "operator": "Apoteka Beograd", "website": "https://www.apotekabeograd.co.rs/"}}, {"type": "node", "id": 2459660649, "lat": 44.7771447, "lon": 20.414385, "tags": {"amenity": "pharmacy", "healthcare": "pharmacy", "int_name": "Vukadinovic", "name": "\u0412\u0443\u043a\u0430\u0434\u0438\u043d\u043e\u0432\u0438\u045b", "name:sr": "\u0412\u0443\u043a\u0430\u0434\u0438\u043d\u043e\u0432\u0438\u045b", "name:sr-Latn": "Vukadinovi\u0107"}}, {"type": "node", "id": 2510167393, "lat": 44.8170167, "lon": 20.4697005, "tags": {"amenity": "pharmacy", "healthcare": "pharmacy", "int_name": "Apoteka Beograd", "name": "\u0410\u043f\u043e\u0442\u0435\u043a\u0430 \u0411\u0435\u043e\u0433\u0440\u0430\u0434", "name:sr": "\u0410\u043f\u043e\u0442\u0435\u043a\u0430 \u0411\u0435\u043e\u0433\u0440\u0430\u0434", "name:sr-Latn": "Apoteka Beograd", "opening_hours": "Mo-Fr 07:30-20:00; Sa 08:30-15:00"}}, {"type": "node", "id": 2510167394, "lat": 44.8170526, "lon": 20.4710071, "tags": {"amenity": "pharmacy", "check_date": "2025-02-09", "healthcare": "pharmacy", "name": "Oaza Zdravlja", "opening_hours": "Mo-Fr 07:30-20:30; Sa 08:00-17:00; Su 08:00-14:00", "wheelchair": "no"}}, {"type": "node", "id": 2547720828, "lat": 44.8203501, "lon": 20.4678682, "tags": {"amenity": "pharmacy", "healthcare": "pharmacy", "name": "Lidia Vet"}}, {"type": "node", "id": 2584263564, "lat": 44.8180514, "lon": 20.4678507, "tags": {"amenity": "pharmacy", "dispensing": "yes", "healthcare": "pharmacy"}}, {"type": "node", "id": 2682502926, "lat": 44.7790944, "lon": 20.4795367, "tags": {"addr:city": "\u0411\u0435\u043e\u0433\u0440\u0430\u0434", "addr:housenumber": "78a", "addr:postcode": "11000", "addr:street": "\u041a\u0443\u043c\u043e\u0434\u0440\u0430\u0448\u043a\u0430", "amenity": "pharmacy", "healthcare": "pharmacy", "name": "Ephedra", "opening_hours": "Mo-Fr 08:00-21:00;Sa 08:00-18:00;Su 08:00-14:00", "phone": "+38111 3978586", "website": "https://apotekaephedra.tripod.com/", "wheelchair": "no"}}, {"type": "node", "id": 2732437042, "lat": 44.7673848, "lon": 20.4800315, "tags": {"addr:city": "\u0411\u0435\u043e\u0433\u0440\u0430\u0434", "addr:housenumber": "282", "addr:postcode": "11000", "addr:street": "\u0412\u043e\u0458\u0432\u043e\u0434\u0435 \u0421\u0442\u0435\u043f\u0435", "amenity": "pharmacy", "healthcare": "pharmacy", "name": "Sima Proti\u0107", "opening_hours": "Mo-Fr 08:00-20:00; Sa 08:00-15:00", "wheelchair": "yes"}}, {"type": "node", "id": 2738278777, "lat": 44.7873015, "lon": 20.4761199, "tags": {"addr:city": "\u0411\u0435\u043e\u0433\u0440\u0430\u0434", "addr:housenumber": "4", "addr:postcode": "11000", "addr:street": "\u041a\u0440\u0438\u0432\u043e\u043b\u0430\u0447\u043a\u0430", "amenity": "pharmacy", "fax": "+381112448745", "healthcare": "pharmacy", "int_name": "Brace Kovac", "name": "\u0411\u0440\u0430\u045b\u0435 \u041a\u043e\u0432\u0430\u0447", "name:sr": "\u0411\u0440\u0430\u045b\u0435 \u041a\u043e\u0432\u0430\u0447", "name:sr-Latn": "Bra\u0107e Kova\u010d", "opening_hours": "07:00-19:00", "phone": "+381113087321", "wheelchair": "yes"}}, {"type": "node", "id": 2983674568, "lat": 44.8250583, "lon": 20.4573314, "tags": {"amenity": "pharmacy", "healthcare": "pharmacy"}}, {"type": "node", "id": 3028692648, "lat": 44.8085988, "lon": 20.4635071, "tags": {"addr:city": "\u0411\u0435\u043e\u0433\u0440\u0430\u0434", "addr:housenumber": "9", "addr:postcode": "11000", "addr:street": "\u041a\u0440\u0430\u0459\u0430 \u041c\u0438\u043b\u0430\u043d\u0430", "amenity": "pharmacy", "brand": "Apoteka Beograd", "check_date": "2025-05-28", "drive_through": "no", "email": "info@apotekabeograd.co.rs", "healthcare": "pharmacy", "int_name": "1. maj", "name": "1. \u043c\u0430\u0458", "name:sr": "1. \u043c\u0430\u0458", "name:sr-Latn": "1. maj", "opening_hours": "24/7", "operator": "Apoteka Beograd", "phone": "+381 11 3241349;+381 11 3237060", "wheelchair": "limited"}}, {"type": "node", "id": 3030472142, "lat": 44.8076178, "lon": 20.4567661, "tags": {"amenity": "pharmacy", "healthcare": "pharmacy", "int_name": "Apteka Beograd", "name": "\u0410\u043f\u0442\u0435\u043a\u0430 \u0411\u0435\u043e\u0433\u0440\u0430\u0434"}}, {"type": "node", "id": 3071459552, "lat": 44.7743209, "lon": 20.4779971, "tags": {"addr:city": "\u0411\u0435\u043e\u0433\u0440\u0430\u0434", "addr:housenumber": "78", "addr:postcode": "11000", "addr:street": "\u0413\u043e\u0441\u0442\u0438\u0432\u0430\u0440\u0441\u043a\u0430", "amenity": "pharmacy", "healthcare": "pharmacy", "name": "Biljna apoteka \u201ePrimeda\u201d", "wheelchair": "yes"}}, {"type": "node", "id": 3079295468, "lat": 44.8193832, "lon": 20.4664989, "tags": {"amenity": "pharmacy", "dispensing": "no", "healthcare": "pharmacy", "int_name": "Apoteka Beograd", "name": "\u0410\u043f\u043e\u0442\u0435\u043a\u0430 \u0411\u0435\u043e\u0433\u0440\u0430\u0434", "name:sr": "\u0410\u043f\u043e\u0442\u0435\u043a\u0430 \u0411\u0435\u043e\u0433\u0440\u0430\u0434", "name:sr-Latn": "Apoteka Beograd"}}, {"type": "node", "id": 3140671034, "lat": 44.7493541, "lon": 20.4106576}, {"type": "node", "id": 3298391661, "lat": 44.8126384, "lon": 20.4616049, "tags": {"addr:city": "\u0411\u0435\u043e\u0433\u0440\u0430\u0434", "addr:housenumber": "29", "addr:postcode": "11103", "addr:street": "\u0422\u0435\u0440\u0430\u0437\u0438\u0458\u0435", "amenity": "pharmacy", "check_date": "2025-05-28", "healthcare": "pharmacy", "int_name": "Apoteka Beograd", "name": "\u0410\u043f\u043e\u0442\u0435\u043a\u0430 \u0411\u0435\u043e\u0433\u0440\u0430\u0434", "name:sr": "\u0410\u043f\u043e\u0442\u0435\u043a\u0430 \u0411\u0435\u043e\u0433\u0440\u0430\u0434", "name:sr-Latn": "Apoteka Beograd", "opening_hours": "Mo-Fr 08:00-20:00; Sa 08:00-15:00; Su 08:00-16:00", "wheelchair": "yes"}}, {"type": "node", "id": 3373183480, "lat": 44.7750181, "lon": 20.4138107, "tags": {"addr:housenumber": "81b", "addr:street": "\u041f\u043e\u0436\u0435\u0448\u043a\u0430", "amenity": "pharmacy", "drive_through": "no", "healthcare": "pharmacy", "name": "Prima", "name:sr": "\u041f\u0440\u0438\u043c\u0430", "opening_hours": "24/7", "operator": "Primax", "website": "https://primax.rs"}}, {"type": "node", "id": 3463470931, "lat": 44.8082456, "lon": 20.4773686, "tags": {"amenity": "pharmacy", "healthcare": "pharmacy"}}, {"type": "node", "id": 3469292780, "lat": 44.8076468, "lon": 20.4775188, "tags": {"addr:housenumber": "23", "addr:street": "\u041a\u0440\u0430\u0459\u0438\u0446\u0435 \u041c\u0430\u0440\u0438\u0458\u0435", "amenity": "pharmacy", "healthcare": "pharmacy", "name": "Nana"}}, {"type": "node", "id": 3469307682, "lat": 44.8080664, "lon": 20.476988, "tags": {"amenity": "pharmacy", "healthcare": "pharmacy", "name": "Oaza zdravlja"}}, {"type": "node", "id": 3521849142, "lat": 44.8106814, "lon": 20.4764148, "tags": {"addr:country": "RS", "addr:housenumber": "16", "addr:street": "\u041a\u043d\u0435\u0437\u0430 \u0414\u0430\u043d\u0438\u043b\u0430", "amenity": "pharmacy", "contact:phone": "+381-11-303-5501", "healthcare": "pharmacy", "int_name": "Beograd", "name": "\u0411\u0435\u043e\u0433\u0440\u0430\u0434", "name:sr-Latn": "Beograd", "opening_hours": "Mo-Fr 07:00-20:00; Sa 08:00-18:00; Su 08:00-18:00", "operator": "\u0410\u043f\u043e\u0442\u0435\u043a\u0430 \u0411\u0435\u043e\u0433\u0440\u0430\u0434"}}, {"type": "node", "id": 3522261380, "lat": 44.8079044, "lon": 20.4816309, "tags": {"amenity": "pharmacy", "healthcare": "pharmacy"}}, {"type": "node", "id": 3572096207, "lat": 44.7918691, "lon": 20.2690951}, {"type": "node", "id": 3572096208, "lat": 44.7918177, "lon": 20.2691079}, {"type": "node", "id": 3572096209, "lat": 44.7918459, "lon": 20.2693192}, {"type": "node", "id": 3572096210, "lat": 44.7918111, "lon": 20.2693496}, {"type": "node", "id": 3572096211, "lat": 44.7918393, "lon": 20.26945}, {"type": "node", "id": 3572096212, "lat": 44.7919205, "lon": 20.2694033}, {"type": "node", "id": 3572096213, "lat": 44.7918948, "lon": 20.2693064}, {"type": "node", "id": 3572097392, "lat": 44.7910753, "lon": 20.27109}, {"type": "node", "id": 3572097399, "lat": 44.7910015, "lon": 20.2711182}, {"type": "node", "id": 3594346823, "lat": 44.8076675, "lon": 20.4812911, "tags": {"amenity": "pharmacy", "healthcare": "pharmacy", "name": "Vega"}}, {"type": "node", "id": 3609542066, "lat": 44.8110437, "lon": 20.4742651, "tags": {"amenity": "pharmacy", "healthcare": "pharmacy", "name": "Vega farma", "opening_hours": "Mo-Fr 07:00-21:00; Sa 08:00-20:00"}}, {"type": "node", "id": 3710441332, "lat": 44.8195793, "lon": 20.402446, "tags": {"amenity": "pharmacy", "healthcare": "pharmacy", "opening_hours": "Mo-Fr 07:00-21:00; Sa 08:00-18:00; Su 08:00-14:00"}}, {"type": "node", "id": 3721597274, "lat": 44.805662, "lon": 20.4700356, "tags": {"amenity": "pharmacy", "branch": "Drogerie", "brand": "Lilly", "brand:wikidata": "Q111764460", "healthcare": "pharmacy", "level": "0", "name": "Lilly", "name:en": "Lilly", "name:sr": "\u041b\u0438\u043b\u0438", "opening_hours": "Mo-Fr 08:15-21:00; Sa 08:00-18:00; PH closed", "shop": "chemist", "wheelchair": "no"}}, {"type": "node", "id": 3721597284, "lat": 44.8068, "lon": 20.4716973, "tags": {"addr:city": "\u0411\u0435\u043e\u0433\u0440\u0430\u0434", "addr:housenumber": "68", "addr:postcode": "11000", "addr:street": "\u0411\u0443\u043b\u0435\u0432\u0430\u0440 \u043a\u0440\u0430\u0459\u0430 \u0410\u043b\u0435\u043a\u0441\u0430\u043d\u0434\u0440\u0430", "amenity": "pharmacy", "healthcare": "pharmacy", "int_name": "Apoteka Beograd", "name": "\u0410\u043f\u043e\u0442\u0435\u043a\u0430 \u0411\u0435\u043e\u0433\u0440\u0430\u0434", "opening_hours": "Mo-Fr 08:00-20:00; Sa 08:00-17:00", "wheelchair": "no"}}, {"type": "node", "id": 3723968542, "lat": 44.8169032, "lon": 20.474653, "tags": {"amenity": "pharmacy", "brand": "Benu", "brand:wikidata": "Q62562792", "healthcare": "pharmacy", "name": "Benu", "opening_hours": "Mo-Sa 08:00-22:00; Su 08:00-14:00"}}, {"type": "node", "id": 3728456812, "lat": 44.8124527, "lon": 20.4703689, "tags": {"amenity": "pharmacy", "healthcare": "pharmacy", "int_name": "Beograd", "name": "\u0411\u0435\u043e\u0433\u0440\u0430\u0434", "opening_hours": "Mo-Sa 07:30-20:00", "wheelchair": "no"}}, {"type": "node", "id": 3769190731, "lat": 44.7845838, "lon": 20.4752832, "tags": {"addr:city": "\u0411\u0435\u043e\u0433\u0440\u0430\u0434", "addr:housenumber": "5A", "addr:postcode": "11000", "addr:street": "\u041a\u0443\u043c\u043e\u0434\u0440\u0430\u0448\u043a\u0430", "amenity": "pharmacy", "drive_through": "yes", "healthcare": "pharmacy", "int_name": "Adonis", "name": "\u0410\u0434\u043e\u043d\u0438\u0441"}}, {"type": "node", "id": 3825193342, "lat": 44.8448145, "lon": 20.4916839, "tags": {"amenity": "pharmacy", "healthcare": "pharmacy"}}, {"type": "node", "id": 3825193343, "lat": 44.8445863, "lon": 20.4929874, "tags": {"amenity": "pharmacy", "healthcare": "pharmacy"}}, {"type": "node", "id": 3825195327, "lat": 44.8536532, "lon": 20.4841455, "tags": {"amenity": "pharmacy", "healthcare": "pharmacy"}}, {"type": "node", "id": 3951811986, "lat": 44.7546516, "lon": 20.4544568, "tags": {"amenity": "pharmacy", "healthcare": "pharmacy"}}, {"type": "node", "id": 3951814620, "lat": 44.7524911, "lon": 20.4546612, "tags": {"amenity": "pharmacy", "healthcare": "pharmacy"}}, {"type": "node", "id": 3952777131, "lat": 44.748376, "lon": 20.4506061, "tags": {"addr:housenumber": "13", "addr:street": "\u0427\u0435\u043b\u0435\u0431\u0438\u045b\u043a\u0430", "amenity": "pharmacy", "healthcare": "pharmacy", "name": "Emily Pharm", "opening_hours": "Mo-Fr 08:00-21:00; Sa 08:00-21:00; Su 08:00-15:00"}}, {"type": "node", "id": 3952792642, "lat": 44.7496133, "lon": 20.4600122, "tags": {"amenity": "pharmacy", "healthcare": "pharmacy", "name": "VEGA Farma"}}, {"type": "node", "id": 3953936808, "lat": 44.7485225, "lon": 20.4523859}, {"type": "node", "id": 3953936809, "lat": 44.7484813, "lon": 20.4523907}, {"type": "node", "id": 3953936810, "lat": 44.7484859, "lon": 20.4524692}, {"type": "node", "id": 3953936811, "lat": 44.7485271, "lon": 20.4524644}, {"type": "node", "id": 3955372722, "lat": 44.7482474, "lon": 20.4491112}, {"type": "node", "id": 3955372723, "lat": 44.7482001, "lon": 20.4491205}, {"type": "node", "id": 3955372724, "lat": 44.7482098, "lon": 20.4492191}, {"type": "node", "id": 3955372725, "lat": 44.7482572, "lon": 20.4492099}, {"type": "node", "id": 3955372728, "lat": 44.7482243, "lon": 20.4491157}, {"type": "node", "id": 4024381775, "lat": 44.7981934, "lon": 20.4876411, "tags": {"addr:housenumber": "5", "addr:street": "\u0411\u0440\u0430\u043d\u043a\u0430 \u041a\u0440\u0441\u043c\u0430\u043d\u043e\u0432\u0438\u045b\u0430", "amenity": "pharmacy", "check_date": "2024-06-10", "healthcare": "pharmacy", "name": "Apoteka Plus", "opening_hours": "Mo-Fr 08:00-21:00; Sa 08:00-17:00; Su 08:00-14:00", "ref:RS:kucni_broj": "3618281", "wheelchair": "no"}}, {"type": "node", "id": 4047461039, "lat": 44.8435819, "lon": 20.4150037}, {"type": "node", "id": 4047461040, "lat": 44.8434898, "lon": 20.4150134}, {"type": "node", "id": 4047461041, "lat": 44.8434946, "lon": 20.4152064}, {"type": "node", "id": 4047461042, "lat": 44.8435515, "lon": 20.4151993}, {"type": "node", "id": 4047461043, "lat": 44.8435492, "lon": 20.4151652}, {"type": "node", "id": 4047461044, "lat": 44.8436146, "lon": 20.415155}, {"type": "node", "id": 4047533876, "lat": 44.8434905, "lon": 20.4150329}, {"type": "node", "id": 4047533877, "lat": 44.8434937, "lon": 20.4151618}, {"type": "node", "id": 4054594693, "lat": 44.8421143, "lon": 20.4135027}, {"type": "node", "id": 4054594694, "lat": 44.8419999, "lon": 20.413585}, {"type": "node", "id": 4054594695, "lat": 44.8420374, "lon": 20.4136951}, {"type": "node", "id": 4054594696, "lat": 44.842129, "lon": 20.4137002}, {"type": "node", "id": 4054594697, "lat": 44.8421715, "lon": 20.4136716}, {"type": "node", "id": 4054594698, "lat": 44.8421228, "lon": 20.413682}, {"type": "node", "id": 4054594699, "lat": 44.8420965, "lon": 20.4136993}, {"type": "node", "id": 4054594700, "lat": 44.8420831, "lon": 20.4136598}, {"type": "node", "id": 4056041813, "lat": 44.8420356, "lon": 20.4052021}, {"type": "node", "id": 4056041814, "lat": 44.8418627, "lon": 20.404954}, {"type": "node", "id": 4056041815, "lat": 44.8418062, "lon": 20.4050511}, {"type": "node", "id": 4056041816, "lat": 44.841842, "lon": 20.4051}, {"type": "node", "id": 4056041817, "lat": 44.8418072, "lon": 20.4051637}, {"type": "node", "id": 4056041818, "lat": 44.8419168, "lon": 20.4053147}, {"type": "node", "id": 4056041819, "lat": 44.8419001, "lon": 20.4053388}, {"type": "node", "id": 4056041820, "lat": 44.8419412, "lon": 20.4054143}, {"type": "node", "id": 4056041821, "lat": 44.8420375, "lon": 20.405307}, {"type": "node", "id": 4057077420, "lat": 44.8435109, "lon": 20.4150112, "tags": {"addr:housenumber": "8", "addr:street": "\u0411\u0435\u043e\u0433\u0440\u0430\u0434\u0441\u043a\u0430"}}, {"type": "node", "id": 4057077421, "lat": 44.8435646, "lon": 20.4150055, "tags": {"addr:housenumber": "10", "addr:street": "\u0411\u0435\u043e\u0433\u0440\u0430\u0434\u0441\u043a\u0430", "ref:RS:kucni_broj": "3679235"}}, {"type": "node", "id": 4058685524, "lat": 44.8420651, "lon": 20.4135354, "tags": {"addr:housenumber": "4", "addr:street": "\u0413\u043b\u0430\u0432\u043d\u0430"}}, {"type": "node", "id": 4117082351, "lat": 44.8208903, "lon": 20.4642885, "tags": {"amenity": "pharmacy", "healthcare": "pharmacy", "name": "Maelia", "opening_hours": "Mo-Su 08:00-22:00"}}, {"type": "node", "id": 4128511788, "lat": 44.8401976, "lon": 20.368924, "tags": {"addr:city": "\u0417\u0435\u043c\u0443\u043d", "addr:housenumber": "71\u0430", "addr:street": "\u041a\u0440\u0430\u0458\u0438\u0448\u043a\u0430", "amenity": "pharmacy", "healthcare": "pharmacy", "name": "Filly Farm", "name:sr": "\u0424\u0438\u043b\u0438 \u0424\u0430\u0440\u043c"}}, {"type": "node", "id": 4128523469, "lat": 44.8303526, "lon": 20.3600044, "tags": {"amenity": "pharmacy", "brand": "Benu", "brand:wikidata": "Q62562792", "healthcare": "pharmacy", "name": "Benu", "name:sr": "\u0411\u0435\u043d\u0443"}}, {"type": "node", "id": 4157497213, "lat": 44.8123358, "lon": 20.3702435, "tags": {"amenity": "pharmacy", "healthcare": "pharmacy"}}, {"type": "node", "id": 4188058102, "lat": 44.7685136, "lon": 20.4994767}, {"type": "node", "id": 4188058103, "lat": 44.768412, "lon": 20.4994103}, {"type": "node", "id": 4188058104, "lat": 44.7683354, "lon": 20.4996426}, {"type": "node", "id": 4188058105, "lat": 44.768437, "lon": 20.4997091}, {"type": "node", "id": 4297731216, "lat": 44.7643296, "lon": 20.4928537}, {"type": "node", "id": 4297731217, "lat": 44.7642565, "lon": 20.4927599}, {"type": "node", "id": 4297731218, "lat": 44.7641834, "lon": 20.4928728}, {"type": "node", "id": 4297731219, "lat": 44.7642566, "lon": 20.4929667}, {"type": "node", "id": 4307710997, "lat": 44.8106991, "lon": 20.4800552, "tags": {"addr:street": "\u0426\u0432\u0438\u0458\u0438\u045b\u0435\u0432\u0430", "amenity": "pharmacy", "healthcare": "pharmacy"}}, {"type": "node", "id": 4315422490, "lat": 44.8096796, "lon": 20.4809686, "tags": {"amenity": "pharmacy", "healthcare": "pharmacy"}}, {"type": "node", "id": 4424032990, "lat": 44.9056921, "lon": 20.2854745, "tags": {"amenity": "pharmacy", "healthcare": "pharmacy"}}, {"type": "node", "id": 4491639245, "lat": 44.8199665, "lon": 20.46564, "tags": {"addr:street": "\u0426\u0430\u0440\u0430 \u0414\u0443\u0448\u0430\u043d\u0430", "amenity": "pharmacy", "healthcare": "pharmacy", "name": "Euro Medic"}}, {"type": "node", "id": 4553363145, "lat": 44.7955694, "lon": 20.4901517, "tags": {"addr:street": "\u0412\u043e\u0458\u0438\u0441\u043b\u0430\u0432\u0430 \u0418\u043b\u0438\u045b\u0430", "amenity": "pharmacy", "check_date": "2025-08-31", "healthcare": "pharmacy", "name": "Bozur"}}, {"type": "node", "id": 4610517396, "lat": 44.7569199, "lon": 20.4530555, "tags": {"addr:street": "\u0420\u0435\u0459\u043a\u043e\u0432\u0438\u045b\u0435\u0432\u0430", "amenity": "pharmacy", "healthcare": "pharmacy"}}, {"type": "node", "id": 4660063516, "lat": 44.7764848, "lon": 20.4592812, "tags": {"amenity": "pharmacy", "healthcare": "pharmacy", "int_name": "Prima", "name": "\u041f\u0440\u0438\u043c\u0430", "opening_hours": "00:00-24:00", "website": "http://primax.rs/prima-apoteke/"}}, {"type": "node", "id": 4660132201, "lat": 44.7702182, "lon": 20.4652868, "tags": {"amenity": "pharmacy", "healthcare": "pharmacy", "name": "Velika apoteka", "opening_hours": "Mo-Fr 08:00-21:00; Sa 08:00-20:00; Su 08:00-15:00"}}, {"type": "node", "id": 4660170705, "lat": 44.7764745, "lon": 20.4582522, "tags": {"addr:street": "\u0412\u043b\u0430\u0434\u0438\u043c\u0438\u0440\u0430 \u0413\u0430\u045b\u0438\u043d\u043e\u0432\u0438\u045b\u0430", "amenity": "pharmacy", "healthcare": "pharmacy", "name": "Oaza zdravlja"}}, {"type": "node", "id": 4700322199, "lat": 44.8434195, "lon": 20.4068272, "tags": {"addr:city": "\u0417\u0435\u043c\u0443\u043d", "addr:housenumber": "46", "addr:postcode": "11080", "addr:street": "\u0411\u0435\u0436\u0430\u043d\u0438\u0458\u0441\u043a\u0430", "amenity": "pharmacy", "healthcare": "pharmacy", "int_name": "Menta", "name": "\u041c\u0435\u043d\u0442\u0430", "name:sr-Latn": "Menta"}}, {"type": "node", "id": 4700322200, "lat": 44.8409701, "lon": 20.4061812}, {"type": "node", "id": 4700322201, "lat": 44.8409421, "lon": 20.406208}, {"type": "node", "id": 4700322202, "lat": 44.8409865, "lon": 20.4063}, {"type": "node", "id": 4700322203, "lat": 44.8410145, "lon": 20.4062732}, {"type": "node", "id": 4700322204, "lat": 44.8406491, "lon": 20.4066416, "tags": {"addr:city": "\u0417\u0435\u043c\u0443\u043d", "addr:housenumber": "35c", "addr:postcode": "11080", "addr:street": "\u0412\u0440\u0442\u043b\u0430\u0440\u0441\u043a\u0430", "amenity": "pharmacy", "healthcare": "pharmacy", "int_name": "Lipa Lek", "name": "\u041b\u0438\u043f\u0430 \u041b\u0435\u043a", "name:sr": "\u041b\u0438\u043f\u0430 \u041b\u0435\u043a", "name:sr-Latn": "Lipa Lek", "opening_hours": "Mo-Fr 07:00-21:00; Sa,Su 08:00-21:00", "wheelchair": "limited"}}, {"type": "node", "id": 4700322208, "lat": 44.8382016, "lon": 20.4168591, "tags": {"addr:city": "\u0417\u0435\u043c\u0443\u043d", "addr:housenumber": "7", "addr:postcode": "11080", "addr:street": "\u041a\u0430\u0440\u0430\u0452\u043e\u0440\u0452\u0435\u0432 \u0442\u0440\u0433", "amenity": "pharmacy", "healthcare": "pharmacy", "name": "Viva Z"}}, {"type": "node", "id": 4700322209, "lat": 44.8377339, "lon": 20.415857, "tags": {"addr:city": "\u0417\u0435\u043c\u0443\u043d", "addr:housenumber": "1", "addr:postcode": "11080", "addr:street": "\u0414\u0432\u0430\u0434\u0435\u0441\u0435\u0442 \u0434\u0440\u0443\u0433\u043e\u0433 \u043e\u043a\u0442\u043e\u0431\u0440\u0430", "amenity": "pharmacy", "healthcare": "pharmacy", "name": "Oaza zdravlja V"}}, {"type": "node", "id": 4717945804, "lat": 44.8303299, "lon": 20.4122143, "tags": {"amenity": "pharmacy", "healthcare": "pharmacy", "int_name": "Oaza zdravlja", "name": "\u041e\u0430\u0437\u0430 \u0437\u0434\u0440\u0430\u0432\u0459\u0430", "name:sr-Latn": "Oaza zdravlja", "opening_hours": "24/7"}}, {"type": "node", "id": 4773276548, "lat": 44.7700469, "lon": 20.49037, "tags": {"amenity": "pharmacy", "brand": "Benu", "brand:wikidata": "Q62562792", "healthcare": "pharmacy", "name": "Benu"}}, {"type": "node", "id": 4779995920, "lat": 44.8983008, "lon": 20.2886667}, {"type": "node", "id": 4779996021, "lat": 44.8981659, "lon": 20.2885508}, {"type": "node", "id": 4779996022, "lat": 44.8981223, "lon": 20.288652}, {"type": "node", "id": 4779996023, "lat": 44.8982571, "lon": 20.2887679}, {"type": "node", "id": 4782694521, "lat": 44.9122275, "lon": 20.2804331, "tags": {"addr:housenumber": "1", "addr:street": "\u041a\u0430\u0442\u0438\u0446\u0435 \u041e\u043f\u0430\u0447\u0438\u045b", "amenity": "pharmacy", "healthcare": "pharmacy"}}, {"type": "node", "id": 4782694522, "lat": 44.8997887, "lon": 20.2855362, "tags": {"addr:housenumber": "136", "addr:street": "\u041c\u0430\u0458\u043e\u0440\u0430 \u0417\u043e\u0440\u0430\u043d\u0430 \u0420\u0430\u0434\u043e\u0441\u0430\u0432\u0459\u0435\u0432\u0438\u045b\u0430", "amenity": "pharmacy"}}, {"type": "node", "id": 4789905526, "lat": 44.8013348, "lon": 20.3700214, "tags": {"amenity": "pharmacy", "drive_through": "no", "healthcare": "pharmacy", "int_name": "Luka M", "name": "\u041b\u0443\u043a\u0430 \u041c", "name:sr": "\u041b\u0443\u043a\u0430 \u041c", "name:sr-Latn": "Luka M"}}, {"type": "node", "id": 4797052023, "lat": 44.7807442, "lon": 20.5117574, "tags": {"addr:housenumber": "2", "addr:street": "\u041e\u043b\u0433\u0435 \u0410\u043b\u043a\u0430\u043b\u0430\u0458", "amenity": "pharmacy", "brand": "Benu", "brand:wikidata": "Q62562792", "dispensing": "yes", "drive_through": "no", "email": "bgkonjarnik@benuapoteka.rs", "healthcare": "pharmacy", "name": "Benu", "opening_hours": "Mo-Fr 08:00-21:30; Sa 08:00-15:00", "phone": "+381 11 3478932", "website": "https://benu.rs/"}}, {"type": "node", "id": 4797052024, "lat": 44.7819426, "lon": 20.5116094, "tags": {"amenity": "pharmacy", "brand": "Benu", "brand:wikidata": "Q62562792", "dispensing": "yes", "healthcare": "pharmacy", "name": "Benu"}}, {"type": "node", "id": 4802449624, "lat": 44.7559065, "lon": 20.4964871, "tags": {"amenity": "pharmacy", "healthcare": "pharmacy"}}, {"type": "node", "id": 4802449727, "lat": 44.7598053, "lon": 20.4896229, "tags": {"amenity": "pharmacy", "healthcare": "pharmacy", "name": "Alba Graeca", "opening_hours": "Mo-Su 08:00-23:00"}}, {"type": "node", "id": 4873676043, "lat": 44.8572886, "lon": 20.3694726, "tags": {"addr:housenumber": "35", "addr:street": "\u041a\u043e\u0441\u0442\u0435 \u0414\u0440\u0430\u0433\u0438\u045b\u0435\u0432\u0438\u045b\u0430", "amenity": "pharmacy", "healthcare": "pharmacy", "int_name": "Farmanea", "name": "\u0424\u0430\u0440\u043c\u0430\u043d\u0435\u0430", "name:sr": "\u0424\u0430\u0440\u043c\u0430\u043d\u0435\u0430"}}, {"type": "node", "id": 4873690830, "lat": 44.8574592, "lon": 20.3695501, "tags": {"addr:housenumber": "35", "addr:street": "\u041a\u043e\u0441\u0442\u0435 \u0414\u0440\u0430\u0433\u0438\u045b\u0435\u0432\u0438\u045b\u0430", "amenity": "pharmacy", "healthcare": "pharmacy", "int_name": "Apoteka Beograd", "name": "\u0410\u043f\u043e\u0442\u0435\u043a\u0430 \u0411\u0435\u043e\u0433\u0440\u0430\u0434", "name:sr": "\u0410\u043f\u043e\u0442\u0435\u043a\u0430 \u0411\u0435\u043e\u0433\u0440\u0430\u0434", "name:sr-Latn": "Apoteka Beograd", "opening_hours": "Mo-Fr 07:00-20:00; Sa 08:00-15:00", "ref:RS:kucni_broj": "7079244"}}, {"type": "node", "id": 4873694323, "lat": 44.8576947, "lon": 20.3702824, "tags": {"addr:housenumber": "3", "addr:postcode": "11186", "addr:street": "\u041d\u0438\u043a\u043e\u043b\u0435 \u0420\u0438\u0431\u0430\u0440\u0438\u045b\u0430", "amenity": "pharmacy", "brand": "Benu", "brand:wikidata": "Q62562792", "email": "maxinovagalenika@benuapoteka.rs", "healthcare": "pharmacy", "name": "Benu", "name:sr": "\u0410\u043f\u043e\u0442\u0435\u043a\u0430 \"\u0411\u0435\u043d\u0443\"", "name:sr-Latn": "Apoteka \"Benu\"", "opening_hours": "Mo-Sa 08:00-21:00; Su 08:00-15:00", "phone": "+381 11 773 2050", "website": "http://www.benuapoteka.rs/"}}, {"type": "node", "id": 4895745079, "lat": 44.8196482, "lon": 20.4208885, "tags": {"amenity": "pharmacy", "brand": "Benu", "brand:wikidata": "Q62562792", "healthcare": "pharmacy", "name": "Benu"}}, {"type": "node", "id": 4902442623, "lat": 44.8013908, "lon": 20.4521284, "tags": {"amenity": "pharmacy", "check_date:opening_hours": "2025-06-10", "healthcare": "pharmacy", "level": "0", "name": "Zdravlje", "opening_hours": "Mo-Fr 08:00-20:00; Sa 08:00-15:00; PH closed", "wheelchair": "limited"}}, {"type": "node", "id": 5017987381, "lat": 44.9674049, "lon": 20.2809632, "tags": {"addr:city": "\u0411\u0430\u043d\u043e\u0432\u0446\u0438 \u0414\u0443\u043d\u0430\u0432", "addr:housenumber": "2", "addr:postcode": "22303", "addr:street": "\u0412\u0438\u0434\u043e\u0432\u0434\u0430\u043d\u0441\u043a\u0438 \u0422\u0440\u0433", "amenity": "pharmacy", "brand": "Benu", "brand:wikidata": "Q62562792", "drive_through": "no", "healthcare": "pharmacy", "name": "Benu", "opening_hours": "Mo-Fr 07:30-20:30; Sa 08:00-20:00; Su 08:00-14:00"}}, {"type": "node", "id": 5029108912, "lat": 44.9838481, "lon": 20.2842761, "tags": {"addr:city": "\u0421\u0442\u0430\u0440\u0438 \u0411\u0430\u043d\u043e\u0432\u0446\u0438", "addr:housenumber": "19", "addr:postcode": "22305", "addr:street": "\u0413\u0440\u0447\u043a\u0430", "amenity": "pharmacy", "contact:email": "dzspazova@gmail.com", "contact:website": "http://www.dzspazova.rs/sluzba-za-farmaceutsku-zdravstevnu-delatnost.php?lang=sr_cir#stari-banovci", "drive_through": "no", "healthcare": "pharmacy", "int_name": "Stari Banovci", "name": "\u0421\u0442\u0430\u0440\u0438 \u0411\u0430\u043d\u043e\u0432\u0446\u0438", "opening_hours": "Mo-Fr 07:00-20:00; Sa 07:00-13:30", "phone": "+381 22 351273", "ref:RS:kucni_broj": "5136443"}}, {"type": "node", "id": 5396570605, "lat": 44.8014301, "lon": 20.3699449, "tags": {"amenity": "pharmacy", "dispensing": "yes", "drive_through": "no", "healthcare": "pharmacy", "opening_hours": "24/7"}}, {"type": "node", "id": 5487796521, "lat": 44.803597, "lon": 20.3869808, "tags": {"amenity": "pharmacy", "healthcare": "pharmacy", "name": "Prima pharmacy", "opening_hours": "Mo-Su 08:00-22:00"}}, {"type": "node", "id": 5504268822, "lat": 44.7680526, "lon": 20.4196486, "tags": {"amenity": "pharmacy", "brand": "Benu", "brand:wikidata": "Q62562792", "healthcare": "pharmacy", "name": "Benu"}}, {"type": "node", "id": 5583058488, "lat": 44.7784383, "lon": 20.414898, "tags": {"amenity": "pharmacy", "dispensing": "yes", "healthcare": "pharmacy", "name": "Tilia Cor.", "opening_hours": "Mo-Fr 07:30-20:30; Sa 08:00-20:00; Su 08:00-17:00", "wheelchair": "no"}}, {"type": "node", "id": 5777916135, "lat": 44.8083509, "lon": 20.4499438, "tags": {"amenity": "pharmacy", "brand": "Benu", "brand:wikidata": "Q62562792", "healthcare": "pharmacy", "name": "Benu", "name:en": "Benu", "name:sr": "\u0411\u0435\u043d\u0443", "name:sr-Latn": "Benu"}}, {"type": "node", "id": 5846542134, "lat": 44.8047299, "lon": 20.4765837, "tags": {"addr:city": "\u0411\u0435\u043e\u0433\u0440\u0430\u0434", "addr:housenumber": "100", "addr:postcode": "11000", "addr:street": "\u0411\u0443\u043b\u0435\u0432\u0430\u0440 \u043a\u0440\u0430\u0459\u0430 \u0410\u043b\u0435\u043a\u0441\u0430\u043d\u0434\u0440\u0430", "amenity": "pharmacy", "dispensing": "yes", "drive_through": "no", "healthcare": "pharmacy", "name": "Maelia", "opening_hours": "24/7", "payment:cards": "yes", "payment:cash": "yes", "pets_allowed": "no", "surveillance": "yes", "wheelchair": "no"}}, {"type": "node", "id": 5863244721, "lat": 44.7995843, "lon": 20.5003407, "tags": {"amenity": "pharmacy", "branch": "58", "brand": "Lilly", "brand:wikidata": "Q111764460", "drive_through": "no", "healthcare": "pharmacy", "name": "Lilly", "name:en": "Lilly", "name:sr": "\u041b\u0438\u043b\u0438", "opening_hours": "Mo-Fr 08:00-21:00, Sa 08:00-18:00, Su 08:00-14:00", "phone": "+381 11 3837391", "shop": "chemist", "website": "https://www.lilly.rs/"}}, {"type": "node", "id": 5863315902, "lat": 44.7956038, "lon": 20.499312, "tags": {"amenity": "pharmacy", "check_date": "2023-11-06", "dispensing": "yes", "drive_through": "no", "healthcare": "pharmacy", "name": "Lilly 97", "opening_hours": "Mo-Fr 08:00-21:00, Sa-Su 08:00-18:00", "phone": "+381 11 3808034", "website": "https://www.lilly.rs/", "wheelchair": "yes"}}, {"type": "node", "id": 5868726233, "lat": 44.8005147, "lon": 20.4866896, "tags": {"amenity": "pharmacy", "drive_through": "no", "healthcare": "pharmacy", "name": "Lilly 108", "opening_hours": "Mo-Fr 08:00-21:00; Sa 08:00-21:00; Su 08:00-15:00", "phone": "+381 11 2431406"}}, {"type": "node", "id": 5881563387, "lat": 44.7956538, "lon": 20.4981431, "tags": {"amenity": "pharmacy", "brand": "Apoteka Beograd", "dispensing": "yes", "drive_through": "no", "email": "info@apotekabeograd.co.rs", "healthcare": "pharmacy", "int_name": "Apoteka Beograd - Lipov Lad", "name": "\u0410\u043f\u043e\u0442\u0435\u043a\u0430 \u0411\u0435\u043e\u0433\u0440\u0430\u0434 - \u041b\u0438\u043f\u043e\u0432 \u041b\u0430\u0434", "name:sr": "\u0410\u043f\u043e\u0442\u0435\u043a\u0430 \u0411\u0435\u043e\u0433\u0440\u0430\u0434 - \u041b\u0438\u043f\u043e\u0432 \u041b\u0430\u0434", "name:sr-Latn": "Apoteka Beograd - Lipov Lad", "opening_hours": "Mo-Sa 08:00-20:00", "operator": "Apoteka Beograd", "phone": "+381 11 2414965;+381 11 3088894", "website": "https://www.apotekabeograd.co.rs/", "wheelchair": "yes"}}, {"type": "node", "id": 5888546593, "lat": 44.7995175, "lon": 20.5005619, "tags": {"amenity": "pharmacy", "dispensing": "yes", "drive_through": "no", "healthcare": "pharmacy", "name": "Aloja farmacija", "phone": "+381 11 2414366"}}, {"type": "node", "id": 5905785190, "lat": 44.8308784, "lon": 20.4102813, "tags": {"addr:city": "\u041d\u043e\u0432\u0438 \u0411\u0435\u043e\u0433\u0440\u0430\u0434", "addr:postcode": "11070", "addr:street": "\u0411\u0443\u043b\u0435\u0432\u0430\u0440 \u041c\u0438\u0445\u0430\u0458\u043b\u0430 \u041f\u0443\u043f\u0438\u043d\u0430", "amenity": "pharmacy", "brand": "Dr. Max", "brand:wikidata": "Q56317371", "check_date": "2025-09-18", "dispensing": "yes", "healthcare": "pharmacy", "name": "Dr. Max", "name:en": "Dr. Max", "opening_hours": "Mo-Fr 08:00-21:00; Sa 08:00-20:00; Su 09:00-15:00", "website": "https://www.drmax.rs/"}}, {"type": "node", "id": 5910422056, "lat": 44.7830731, "lon": 20.5010534, "tags": {"addr:city": "\u0411\u0435\u043e\u0433\u0440\u0430\u0434", "addr:housenumber": "170", "addr:postcode": "11000", "addr:street": "\u0423\u0441\u0442\u0430\u043d\u0438\u0447\u043a\u0430", "amenity": "pharmacy", "dispensing": "yes", "healthcare": "pharmacy", "name": "Oaza Zdravlja", "opening_hours": "24/7", "website": "https://oazazdravlja.rs/"}}, {"type": "node", "id": 5921429870, "lat": 44.8236901, "lon": 20.4591087, "tags": {"amenity": "pharmacy", "check_date": "2023-01-06", "drive_through": "no", "healthcare": "pharmacy", "int_name": "Molika", "name": "\u041c\u043e\u043b\u0438\u043a\u0430", "name:sr-Latn": "Molika", "opening_hours": "Mo-Fr 08:00-20:00; Sa 09:00-20:00; Su off", "payment:mastercard": "yes", "payment:visa": "yes"}}, {"type": "node", "id": 5921430396, "lat": 44.8180936, "lon": 20.4669904, "tags": {"amenity": "pharmacy", "healthcare": "pharmacy"}}, {"type": "node", "id": 5926461093, "lat": 44.7981904, "lon": 20.4932222, "tags": {"addr:city": "\u0411\u0435\u043e\u0433\u0440\u0430\u0434", "addr:housenumber": "187", "addr:postcode": "11000", "addr:street": "\u0411\u0443\u043b\u0435\u0432\u0430\u0440 \u043a\u0440\u0430\u0459\u0430 \u0410\u043b\u0435\u043a\u0441\u0430\u043d\u0434\u0440\u0430", "amenity": "pharmacy", "dispensing": "yes", "drive_through": "no", "healthcare": "pharmacy", "name": "Genia", "opening_hours": "Mo-Fr 08:00-21:30, Sa 08:00-17:00", "phone": "+381 11 3807507"}}, {"type": "node", "id": 5926481761, "lat": 44.7993286, "lon": 20.4957796, "tags": {"addr:city": "\u0411\u0435\u043e\u0433\u0440\u0430\u0434", "addr:housenumber": "52", "addr:postcode": "11000", "addr:street": "\u041f\u0440\u0435\u0448\u0435\u0432\u0441\u043a\u0430", "amenity": "pharmacy", "dispensing": "yes", "drive_through": "no", "healthcare": "pharmacy", "name": "Vita"}}, {"type": "node", "id": 5927823033, "lat": 44.8060116, "lon": 20.4791904, "tags": {"addr:city": "\u0411\u0435\u043e\u0433\u0440\u0430\u0434", "addr:housenumber": "2", "addr:postcode": "11000", "addr:street": "\u0420\u0443\u0437\u0432\u0435\u043b\u0442\u043e\u0432\u0430", "amenity": "pharmacy", "brand": "Apoteka Beograd", "dispensing": "yes", "drive_through": "no", "email": "info@apotekabeograd.co.rs", "healthcare": "pharmacy", "int_name": "Zagubica", "name": "\u0416\u0430\u0433\u0443\u0431\u0438\u0446\u0430", "name:sr": "\u0416\u0430\u0433\u0443\u0431\u0438\u0446\u0430", "name:sr-Latn": "\u017dagubica", "opening_hours": "Mo-Fr 08:00-20:00; Sa 08:00-15:00", "operator": "Apoteka Beograd", "phone": "+381 11 3088501; +381 11 3088502", "website": "https://www.apotekabeograd.co.rs/"}}, {"type": "node", "id": 5927838394, "lat": 44.8033909, "lon": 20.4798222, "tags": {"addr:city": "\u0411\u0435\u043e\u0433\u0440\u0430\u0434", "addr:housenumber": "132", "addr:postcode": "11000", "addr:street": "\u0411\u0443\u043b\u0435\u0432\u0430\u0440 \u043a\u0440\u0430\u0459\u0430 \u0410\u043b\u0435\u043a\u0441\u0430\u043d\u0434\u0440\u0430", "amenity": "pharmacy", "brand": "Apoteka Beograd", "check_date": "2025-08-03", "dispensing": "yes", "email": "info@apotekabeograd.co.rs", "healthcare": "pharmacy", "name": "Studentski dom", "opening_hours": "Mo-Fr 08:00-20:00; Sa 08:00-15:00; Su off", "operator": "Apoteka Beograd", "payment:cards": "yes", "payment:cash": "yes", "phone": "+381 11 3087984;+381 11 3087985", "smoking": "no", "website": "https://www.apotekabeograd.co.rs/", "wheelchair": "yes"}}, {"type": "node", "id": 5927838395, "lat": 44.800801, "lon": 20.4859038, "tags": {"amenity": "pharmacy", "brand": "Apoteka Beograd", "dispensing": "yes", "drive_through": "no", "email": "info@apotekabeograd.co.rs", "healthcare": "pharmacy", "int_name": "Stari djeram", "name": "\u0421\u0442\u0430\u0440\u0438 \u0452\u0435\u0440\u0430\u043c", "name:sr": "\u0421\u0442\u0430\u0440\u0438 \u0452\u0435\u0440\u0430\u043c", "name:sr-Latn": "Stari \u0111eram", "opening_hours": "Mo-We,Fr 07:30-20:00; Th 07:30-21:00; Sa 08:00-15:00; Su 08:00-15:00", "operator": "Apoteka Beograd", "phone": "+381 11 3087508", "website": "https://www.apotekabeograd.co.rs/"}}, {"type": "node", "id": 5964980371, "lat": 44.6523896, "lon": 20.2598328, "tags": {"amenity": "pharmacy", "dispensing": "yes", "healthcare": "pharmacy"}}, {"type": "node", "id": 6092386114, "lat": 44.8109027, "lon": 20.4284033, "tags": {"amenity": "pharmacy", "dispensing": "yes", "healthcare": "pharmacy", "payment:cash": "yes", "payment:coins": "yes", "payment:credit_cards": "yes", "payment:debit_cards": "yes", "payment:maestro": "yes", "payment:mastercard": "yes", "payment:visa": "yes", "payment:visa_debit": "yes", "payment:visa_electron": "yes"}}, {"type": "node", "id": 6167387542, "lat": 44.8006415, "lon": 20.486328, "tags": {"amenity": "pharmacy", "brand": "Benu", "brand:wikidata": "Q62562792", "dispensing": "yes", "drive_through": "no", "email": "bgbulevardjeram204@benuapoteka.rs", "healthcare": "pharmacy", "name": "Benu", "opening_hours": "24/7", "operator": "BENU", "phone": "+381 11 2440150", "website": "http://www.benuapoteka.rs/"}}, {"type": "node", "id": 6244650662, "lat": 44.8195677, "lon": 20.4714915, "tags": {"addr:housenumber": "46", "addr:street": "\u0412\u0435\u043d\u0438\u0437\u0435\u043b\u043e\u0441\u043e\u0432\u0430", "amenity": "pharmacy", "check_date": "2025-05-18", "healthcare": "pharmacy", "int_name": "Adam i Eva", "name": "\u0410\u0434\u0430\u043c \u0438 \u0415\u0432\u0430", "name:sr": "\u0410\u0434\u0430\u043c \u0438 \u0415\u0432\u0430", "name:sr-Latn": "Adam i Eva"}}, {"type": "node", "id": 6270379463, "lat": 44.8027523, "lon": 20.4794103, "tags": {"addr:city": "\u0411\u0435\u043e\u0433\u0440\u0430\u0434", "addr:housenumber": "3", "addr:postcode": "11000", "addr:street": "\u0421\u0438\u043d\u0452\u0435\u043b\u0438\u045b\u0435\u0432\u0430", "amenity": "pharmacy", "contact:instagram": "srbotrade_apoteka", "delivery": "yes", "dispensing": "yes", "drive_through": "no", "email": "podrska@apotekasrbotrade.rs", "healthcare": "pharmacy", "name": "Srbotrade", "opening_hours": "Mo-Su 07:00-21:00", "payment:cards": "yes", "payment:cash": "yes", "phone": "+381 11 6301102;+381 64 8218450", "surveillance": "yes", "website": "https://www.apotekasrbotrade.rs/", "wheelchair": "no"}}, {"type": "node", "id": 6302110877, "lat": 44.7914995, "lon": 20.5067121, "tags": {"addr:city": "\u0411\u0435\u043e\u0433\u0440\u0430\u0434", "addr:postcode": "11000", "addr:street": "\u041c\u0430\u0458\u043a\u0435 \u041a\u0443\u0458\u0443\u043d\u045f\u0438\u045b", "amenity": "pharmacy", "dispensing": "yes", "drive_through": "no", "email": "info@apotekabeograd.co.rs", "healthcare": "pharmacy", "int_name": "Apoteka Beograd - Djuro Djakovic", "name": "\u0410\u043f\u043e\u0442\u0435\u043a\u0430 \u0411\u0435\u043e\u0433\u0440\u0430\u0434 - \u0402\u0443\u0440\u043e \u0402\u0430\u043a\u043e\u0432\u0438\u045b", "name:sr": "\u0410\u043f\u043e\u0442\u0435\u043a\u0430 \u0411\u0435\u043e\u0433\u0440\u0430\u0434 - \u0402\u0443\u0440\u043e \u0402\u0430\u043a\u043e\u0432\u0438\u045b", "name:sr-Latn": "Apoteka Beograd - \u0110uro \u0110akovi\u0107", "nohousenumber": "yes", "opening_hours": "Mo-Fr 09:00-20:00, Sa-Su 08:00-18:00", "operator": "\u0410\u043f\u043e\u0442\u0435\u043a\u0430 \u0411\u0435\u043e\u0433\u0440\u0430\u0434", "phone": "+381 11 3047314", "website": "https://www.apotekabeograd.co.rs/"}}, {"type": "node", "id": 6323688014, "lat": 44.7858398, "lon": 20.4810646, "tags": {"amenity": "pharmacy", "healthcare": "pharmacy", "name": "Farma Mis", "opening_hours": "Mo-Fr 08:00-21:00; Sa 08:00-18:00; Su 08:00-15:00"}}, {"type": "node", "id": 6324294734, "lat": 44.7908004, "lon": 20.4798661, "tags": {"addr:street": "\u041c\u0430\u043a\u0441\u0438\u043c\u0430 \u0413\u043e\u0440\u043a\u043e\u0433", "amenity": "pharmacy", "fixme": "name", "healthcare": "pharmacy"}}, {"type": "node", "id": 6324385442, "lat": 44.821226, "lon": 20.4636529, "tags": {"addr:street": "\u0426\u0430\u0440\u0430 \u0414\u0443\u0448\u0430\u043d\u0430", "amenity": "pharmacy", "healthcare": "pharmacy", "name": "Iva\u010di\u0107 i sin", "opening_hours": "Mo-Fr 08:00-21:00; Sa 09:00-17:00", "wheelchair": "no"}}, {"type": "node", "id": 6325871213, "lat": 44.7995074, "lon": 20.4702263, "tags": {"addr:city": "\u0411\u0435\u043e\u0433\u0440\u0430\u0434", "addr:housenumber": "16", "addr:postcode": "11000", "addr:street": "\u041a\u0430\u0442\u0430\u043d\u0438\u045b\u0435\u0432\u0430", "amenity": "pharmacy", "dispensing": "yes", "drive_through": "no", "healthcare": "pharmacy", "name": "Laurus", "opening_hours": "24/7", "payment:cards": "yes", "payment:cash": "yes", "surveillance": "yes", "wheelchair": "limited"}}, {"type": "node", "id": 6325942951, "lat": 44.7966614, "lon": 20.4717618, "tags": {"addr:city": "\u0411\u0435\u043e\u0433\u0440\u0430\u0434", "addr:housenumber": "27", "addr:postcode": "11000", "addr:street": "\u0421\u0442\u043e\u0458\u0430\u043d\u0430 \u041f\u0440\u043e\u0442\u0438\u045b\u0430", "amenity": "pharmacy", "brand": "\u0414\u043e\u043c\u0430\u045b\u0438 \u0410\u043f\u043e\u0442\u0435\u043a\u0430\u0440\u0438", "dispensing": "yes", "drive_through": "no", "healthcare": "pharmacy", "name": "Adam i Eva", "opening_hours": "Mo-Fr 08:00-22:00; Sa-Su 08:00-20:00", "payment:cards": "yes", "payment:cash": "yes"}}, {"type": "node", "id": 6325943805, "lat": 44.7963898, "lon": 20.4691493, "tags": {"addr:city": "\u0411\u0435\u043e\u0433\u0440\u0430\u0434", "addr:floor": "G", "addr:housenumber": "4", "addr:postcode": "11000", "addr:street": "\u0411\u0440\u0430\u043d\u0438\u0447\u0435\u0432\u0441\u043a\u0430", "amenity": "pharmacy", "check_date": "2025-07-19", "dispensing": "yes", "drive_through": "no", "email": "zuasunce@gmail.com", "healthcare": "pharmacy", "level": "0", "name": "Sunce", "opening_hours": "Mo-Fr 07:30-21:00; Sa-Su 08:00-16:00", "phone": "+381 60 4249009", "website": "https://www.apotekasunce.rs/"}}, {"type": "node", "id": 6326339453, "lat": 44.8014762, "lon": 20.394895, "tags": {"addr:housenumber": "81", "addr:street": "\u0408\u0443\u0440\u0438\u0458\u0430 \u0413\u0430\u0433\u0430\u0440\u0438\u043d\u0430", "amenity": "pharmacy", "brand": "Benu", "brand:wikidata": "Q62562792", "check_date": "2024-05-28", "healthcare": "pharmacy", "internet_access": "no", "name": "Benu", "opening_hours": "Mo-Fr 07:30-21:00; Sa 08:00-16:00; Su 08:00-14:00", "payment:cash": "yes", "payment:credit_cards": "yes", "payment:debit_cards": "yes", "phone": "+381 11 3817513", "website": "https://www.benuapoteka.rs", "wheelchair": "yes"}}, {"type": "node", "id": 6326396893, "lat": 44.7978739, "lon": 20.4784083, "tags": {"amenity": "pharmacy", "fixme": "name", "healthcare": "pharmacy", "name": "Lirafarma"}}, {"type": "node", "id": 6326495488, "lat": 44.7916265, "lon": 20.5052827, "tags": {"addr:city": "\u0411\u0435\u043e\u0433\u0440\u0430\u0434", "addr:housenumber": "18a", "addr:postcode": "11000", "addr:street": "\u041e\u043b\u0433\u0435 \u0408\u043e\u0432\u0430\u043d\u043e\u0432\u0438\u045b", "amenity": "pharmacy", "dispensing": "yes", "drive_through": "no", "healthcare": "pharmacy", "name": "Jankovi\u0107", "opening_hours": "Mo-Fr 07:00-21:00; Sa-Su 08:00-21:00", "phone": "+381 63 1033500"}}, {"type": "node", "id": 6326495489, "lat": 44.7913129, "lon": 20.506255, "tags": {"addr:street": "\u041e\u043b\u0433\u0435 \u0408\u043e\u0432\u0430\u043d\u043e\u0432\u0438\u045b", "amenity": "pharmacy", "fixme": "name", "healthcare": "pharmacy"}}, {"type": "node", "id": 6331197392, "lat": 44.8019101, "lon": 20.4584038, "tags": {"addr:street": "\u0420\u0435\u0441\u0430\u0432\u0441\u043a\u0430", "amenity": "pharmacy", "fixme": "name", "healthcare": "pharmacy", "name": "Prima", "opening_hours": "24/7", "wheelchair": "limited"}}, {"type": "node", "id": 6331236263, "lat": 44.812477, "lon": 20.4094759, "tags": {"amenity": "pharmacy", "brand": "Benu", "brand:wikidata": "Q62562792", "healthcare": "pharmacy", "name": "Benu"}}, {"type": "node", "id": 6331472577, "lat": 44.8149286, "lon": 20.4639868, "tags": {"addr:street": "\u041d\u0443\u0448\u0438\u045b\u0435\u0432\u0430", "amenity": "pharmacy", "healthcare": "pharmacy", "int_name": "Krsenkovnc", "name": "\u041a\u0440\u0448\u0435\u043d\u043a\u043e\u0432\u043d\u045b"}}, {"type": "node", "id": 6331659024, "lat": 44.7926644, "lon": 20.5090526, "tags": {"addr:city": "\u0411\u0435\u043e\u0433\u0440\u0430\u0434", "addr:housenumber": "321\u0436", "addr:postcode": "11000", "addr:street": "\u0411\u0443\u043b\u0435\u0432\u0430\u0440 \u043a\u0440\u0430\u0459\u0430 \u0410\u043b\u0435\u043a\u0441\u0430\u043d\u0434\u0440\u0430", "amenity": "pharmacy", "dispensing": "yes", "drive_through": "no", "email": "markfarm.rs@gmail.com", "healthcare": "pharmacy", "name": "MarkFarm", "phone": "+381 62 332975", "website": "https://www.markfarm.rs/"}}, {"type": "node", "id": 6331834430, "lat": 44.7882829, "lon": 20.5077155, "tags": {"addr:city": "\u0411\u0435\u043e\u0433\u0440\u0430\u0434", "addr:housenumber": "5a", "addr:postcode": "11000", "addr:street": "\u041c\u0438\u0441 \u0418\u0440\u0431\u0438\u0458\u0435\u0432\u0435", "amenity": "pharmacy", "drive_through": "no", "healthcare": "pharmacy"}}, {"type": "node", "id": 6334088937, "lat": 44.8040282, "lon": 20.4831176, "tags": {"addr:street": "\u0412\u043e\u0458\u0432\u043e\u0434\u0435 \u0411\u043e\u0433\u0434\u0430\u043d\u0430", "amenity": "pharmacy", "healthcare": "pharmacy"}}, {"type": "node", "id": 6334088939, "lat": 44.8040626, "lon": 20.4848081, "tags": {"addr:street": "\u0412\u043e\u0458\u0432\u043e\u0434\u0435 \u0411\u0440\u0430\u043d\u0435", "amenity": "pharmacy", "healthcare": "pharmacy"}}, {"type": "node", "id": 6335733096, "lat": 44.8005786, "lon": 20.4761482, "tags": {"addr:city": "\u0411\u0435\u043e\u0433\u0440\u0430\u0434", "addr:housenumber": "5", "addr:postcode": "11000", "addr:street": "\u041c\u0430\u043a\u0441\u0438\u043c\u0430 \u0413\u043e\u0440\u043a\u043e\u0433", "amenity": "pharmacy", "branch": "Kaleni\u0107", "brand": "Norapharm", "dispensing": "yes", "drive_through": "no", "email": "kalenic@norapharm.rs", "healthcare": "pharmacy", "name": "Norapharm", "opening_hours": "Mo-Fr 08:00-21:00; Sa 08:00-18:00; Su 09:00-16:00", "payment:cards": "yes", "payment:cash": "yes", "phone": "+381 64 8855847", "website": "https://www.norapharm.rs/"}}, {"type": "node", "id": 6336064999, "lat": 44.7873663, "lon": 20.5143875, "tags": {"addr:street": "\u0416\u0438\u0432\u043a\u0430 \u0414\u0430\u0432\u0438\u0434\u043e\u0432\u0438\u045b\u0430", "amenity": "pharmacy", "fixme": "name", "healthcare": "pharmacy"}}, {"type": "node", "id": 6336102445, "lat": 44.8070329, "lon": 20.4813446, "tags": {"addr:street": "\u0412\u043e\u0458\u0432\u043e\u0434\u0435 \u0411\u0440\u0430\u043d\u0435", "amenity": "pharmacy", "healthcare": "pharmacy"}}, {"type": "node", "id": 6337978917, "lat": 44.8521516, "lon": 20.3867896, "tags": {"addr:street": "\u0424\u0438\u043b\u0438\u043f\u0430 \u0412\u0438\u0448\u045a\u0438\u045b\u0430", "amenity": "pharmacy", "email": "zuapo19@gmail.com", "healthcare": "pharmacy", "name": "Medika Plus", "phone": "+381114036592"}}, {"type": "node", "id": 6338063912, "lat": 44.8497807, "lon": 20.3863038, "tags": {"addr:street": "\u0420\u0430\u0434\u0435 \u041a\u043e\u043d\u0447\u0430\u0440\u0430", "amenity": "pharmacy", "healthcare": "pharmacy"}}, {"type": "node", "id": 6339803957, "lat": 44.7271468, "lon": 20.368427, "tags": {"addr:street": "\u041b\u043e\u043b\u0435 \u0420\u0438\u0431\u0430\u0440\u0430", "amenity": "pharmacy", "healthcare": "pharmacy"}}, {"type": "node", "id": 6340044304, "lat": 44.7463704, "lon": 20.4770109, "tags": {"amenity": "pharmacy", "fixme": "name", "healthcare": "pharmacy"}}, {"type": "node", "id": 6340581298, "lat": 44.7933696, "lon": 20.4953827, "tags": {"amenity": "pharmacy", "fixme": "name", "healthcare": "pharmacy"}}, {"type": "node", "id": 6340676147, "lat": 44.7939668, "lon": 20.4932691, "tags": {"addr:city": "\u0411\u0435\u043e\u0433\u0440\u0430\u0434", "addr:housenumber": "20", "addr:postcode": "11000", "addr:street": "\u0412\u043e\u0458\u0438\u0441\u043b\u0430\u0432\u0430 \u0418\u043b\u0438\u045b\u0430", "amenity": "pharmacy", "brand": "Galen pharm", "brand:wikidata": "Q132851975", "dispensing": "yes", "healthcare": "pharmacy", "name": "Galen pharm", "name:sr": "\u0413\u0430\u043b\u0435\u043d \u0444\u0430\u0440\u043c", "name:sr-Latn": "Galen farm", "opening_hours": "Mo-Fr 08:00-21:00; Sa 08:00-17:00", "phone": "+381 11 2419542", "website": "https://www.galenpharm.com/"}}, {"type": "node", "id": 6340676149, "lat": 44.7933015, "lon": 20.4948892, "tags": {"addr:street": "\u0412\u043e\u0458\u0438\u0441\u043b\u0430\u0432\u0430 \u0418\u043b\u0438\u045b\u0430", "amenity": "pharmacy", "healthcare": "pharmacy"}}, {"type": "node", "id": 6345326275, "lat": 44.8438461, "lon": 20.3945766, "tags": {"addr:housenumber": "34", "addr:street": "\u0413\u043e\u0440\u045a\u043e\u0433\u0440\u0430\u0434\u0441\u043a\u0430", "amenity": "pharmacy", "healthcare": "pharmacy", "name": "Cveji\u0107", "opening_hours": "Mo-Fr 08:00-21:00; Sa 08:00-16:00; Su 08:00-14:00", "phone": "0113168091", "wheelchair": "yes"}}, {"type": "node", "id": 6345326280, "lat": 44.8412278, "lon": 20.3934513, "tags": {"addr:street": "\u0413\u043e\u0440\u045a\u043e\u0433\u0440\u0430\u0434\u0441\u043a\u0430", "amenity": "pharmacy", "check_date": "2025-05-07", "healthcare": "pharmacy", "name": "Filly farm", "opening_hours": "Mo-Fr 08:00-20:00; Sa 08:00-17:00; Su 08:00-13:00"}}, {"type": "node", "id": 6345724234, "lat": 44.7721557, "lon": 20.4821319, "tags": {"amenity": "pharmacy", "brand": "Lilly", "brand:wikidata": "Q111764460", "healthcare": "pharmacy", "name": "Lilly", "name:en": "Lilly", "name:sr": "\u041b\u0438\u043b\u0438", "shop": "chemist"}}, {"type": "node", "id": 6345733407, "lat": 44.8412122, "lon": 20.3959051, "tags": {"addr:street": "\u041f\u0440\u0432\u043e\u043c\u0430\u0458\u0441\u043a\u0430", "amenity": "pharmacy", "check_date": "2025-05-25", "healthcare": "pharmacy"}}, {"type": "node", "id": 6345889701, "lat": 44.7202566, "lon": 20.4244557, "tags": {"addr:street": "\u041c\u0438\u043b\u043e\u0440\u0430\u0434\u0430 \u0414\u0440\u0430\u0448\u043a\u043e\u0432\u0438\u045b\u0430", "amenity": "pharmacy", "healthcare": "pharmacy"}}, {"type": "node", "id": 6346365199, "lat": 44.725709, "lon": 20.4286373, "tags": {"addr:street": "\u041e\u043f\u043b\u0435\u043d\u0430\u0447\u043a\u0430", "amenity": "pharmacy", "healthcare": "pharmacy"}}, {"type": "node", "id": 6346365200, "lat": 44.7259486, "lon": 20.4278514, "tags": {"addr:street": "\u041e\u043f\u043b\u0435\u043d\u0430\u0447\u043a\u0430", "amenity": "pharmacy", "healthcare": "pharmacy"}}, {"type": "node", "id": 6347476744, "lat": 44.7530924, "lon": 20.4253161, "tags": {"addr:housenumber": "121", "addr:street": "\u0420\u0430\u0442\u043a\u0430 \u041c\u0438\u0442\u0440\u043e\u0432\u0438\u045b\u0430", "amenity": "pharmacy", "branch": "10", "dispensing": "yes", "drive_through": "no", "healthcare": "pharmacy", "name": "Prima", "opening_hours": "24/7"}}, {"type": "node", "id": 6347707266, "lat": 44.7464427, "lon": 20.4391931, "tags": {"addr:street": "\u0421\u0442\u0430\u0440\u0446\u0430 \u041c\u0438\u043b\u0438\u0458\u0435", "amenity": "pharmacy", "fixme": "name", "healthcare": "pharmacy"}}, {"type": "node", "id": 6348057484, "lat": 44.7689447, "lon": 20.4664779, "tags": {"addr:street": "\u0420\u0430\u0448\u043a\u0430", "amenity": "pharmacy", "healthcare": "pharmacy"}}, {"type": "node", "id": 6348073393, "lat": 44.8063768, "lon": 20.3529802}, {"type": "node", "id": 6348073394, "lat": 44.8063971, "lon": 20.353083}, {"type": "node", "id": 6348073395, "lat": 44.8064463, "lon": 20.3530638}, {"type": "node", "id": 6348073396, "lat": 44.806426, "lon": 20.352961}, {"type": "node", "id": 6349801101, "lat": 44.7573739, "lon": 20.4541699, "tags": {"addr:street": "\u041f\u0435\u0440\u0435 \u0412\u0435\u043b\u0438\u043c\u0438\u0440\u043e\u0432\u0438\u045b\u0430", "amenity": "pharmacy", "healthcare": "pharmacy"}}, {"type": "node", "id": 6349904336, "lat": 44.772606, "lon": 20.4785109, "tags": {"addr:street": "\u041d\u0438\u043a\u0448\u0438\u045b\u043a\u0430", "amenity": "pharmacy", "brand": "Benu", "brand:wikidata": "Q62562792", "healthcare": "pharmacy", "name": "Benu", "name:en": "Benu"}}, {"type": "node", "id": 6365779623, "lat": 44.792368, "lon": 20.4621041, "tags": {"amenity": "pharmacy", "dispensing": "yes", "healthcare": "pharmacy"}}, {"type": "node", "id": 6367544353, "lat": 44.6391739, "lon": 20.5204338, "tags": {"amenity": "pharmacy", "dispensing": "yes", "healthcare": "pharmacy"}}, {"type": "node", "id": 6369116224, "lat": 44.8471431, "lon": 20.4020907, "tags": {"addr:street": "\u041d\u043e\u0432\u043e\u0433\u0440\u0430\u0434\u0441\u043a\u0430", "amenity": "pharmacy", "healthcare": "pharmacy", "name": "Neo Gral", "opening_hours": "Mo-Fr 09:00-14:00,17:00-20:00; Sa 09:00-17:00; Su 09:00-13:00"}}, {"type": "node", "id": 6371026356, "lat": 44.7445568, "lon": 20.5009174, "tags": {"addr:street": "\u041f\u0440\u0430\u0432\u0430", "amenity": "pharmacy", "healthcare": "pharmacy"}}, {"type": "node", "id": 6386879843, "lat": 44.7960502, "lon": 20.4981926, "tags": {"amenity": "pharmacy", "check_date": "2024-05-27", "dispensing": "yes", "drive_through": "no", "healthcare": "pharmacy", "name": "Milo\u0161evi\u0107", "opening_hours": "07:00-21:00", "phone": "+381 61 2930344", "wheelchair": "limited"}}, {"type": "node", "id": 6430832185, "lat": 44.7843309, "lon": 20.4916846, "tags": {"addr:city": "\u0411\u0435\u043e\u0433\u0440\u0430\u0434", "addr:housenumber": "125b", "addr:postcode": "11050", "addr:street": "\u0423\u0441\u0442\u0430\u043d\u0438\u0447\u043a\u0430", "amenity": "pharmacy", "healthcare": "pharmacy", "int_name": "Apoteka \u201eBeograd\u201d", "name": "\u0410\u043f\u043e\u0442\u0435\u043a\u0430 \u201e\u0411\u0435\u043e\u0433\u0440\u0430\u0434\u201d", "name:sr": "\u0410\u043f\u043e\u0442\u0435\u043a\u0430 \u201e\u0411\u0435\u043e\u0433\u0440\u0430\u0434\u201d", "name:sr-Latn": "Apoteka \u201eBeograd\u201d", "phone": "+381 11 3087360; +381 11 3087361", "wheelchair": "yes"}}, {"type": "node", "id": 6473448340, "lat": 44.8337118, "lon": 20.3667296, "tags": {"amenity": "pharmacy", "brand": "Mark Farm", "email": "apotekamarkfarm@gmail.com", "healthcare": "pharmacy", "name": "Mark Farm", "opening_hours": "Mo 08:30-20:30; Tu 08:30-18:00; We-Sa 08:30-20:30; Su 08:30-18:00", "website": "https://www.markfarm.rs/", "wheelchair": "yes"}}, {"type": "node", "id": 6481776933, "lat": 44.7405926, "lon": 20.4859368, "tags": {"addr:city": "\u0411\u0435\u043e\u0433\u0440\u0430\u0434", "addr:housenumber": "103a", "addr:street": "\u0411\u0443\u043b\u0435\u0432\u0430\u0440 \u0408\u041d\u0410", "amenity": "pharmacy", "brand": "Benu", "brand:wikidata": "Q62562792", "dispensing": "yes", "healthcare": "pharmacy", "name": "Benu", "payment:cards": "yes", "payment:cash": "yes", "payment:credit_cards": "yes", "payment:debit_cards": "yes", "payment:mastercard": "yes", "payment:notes": "yes", "payment:visa": "yes", "phone": "+381 11 3940 137", "website": "https://benu.rs/"}}, {"type": "node", "id": 6522495821, "lat": 44.8060306, "lon": 20.4700502, "tags": {"amenity": "pharmacy", "healthcare": "pharmacy", "level": "0", "name": "Galenpharm", "opening_hours": "Mo-Fr 08:00-21:00; Sa 08:00-17:00; PH closed", "wheelchair": "no"}}, {"type": "node", "id": 6570779166, "lat": 44.8082248, "lon": 20.386331, "tags": {"amenity": "pharmacy", "brand": "Benu", "brand:wikidata": "Q62562792", "check_date": "2025-08-31", "dispensing": "yes", "healthcare": "pharmacy", "int_name": "Benu", "level": "0", "name": "Benu", "name:sr-Latn": "Benu", "opening_hours": "Mo-Su 07:30-21:30"}}, {"type": "node", "id": 6576383841, "lat": 44.7944762, "lon": 20.5006737, "tags": {"addr:city": "\u0411\u0435\u043e\u0433\u0440\u0430\u0434", "addr:housenumber": "318", "addr:postcode": "11000", "addr:street": "\u0411\u0443\u043b\u0435\u0432\u0430\u0440 \u043a\u0440\u0430\u0459\u0430 \u0410\u043b\u0435\u043a\u0441\u0430\u043d\u0434\u0440\u0430", "amenity": "pharmacy", "check_date": "2024-03-14", "dispensing": "yes", "drive_through": "no", "email": "bulevar@lirafarma.rs", "healthcare": "pharmacy", "name": "Lira Farma", "opening_hours": "Mo-Fr 07:00-21:00; Sa 08:00-21:00; Su 08:00-14:00", "phone": "+381 11 3835456", "website": "https://lirafarma.rs/"}}, {"type": "node", "id": 6576498765, "lat": 44.7934407, "lon": 20.5030499, "tags": {"addr:city": "\u0411\u0435\u043e\u0433\u0440\u0430\u0434", "addr:housenumber": "336", "addr:postcode": "11000", "addr:street": "\u0411\u0443\u043b\u0435\u0432\u0430\u0440 \u043a\u0440\u0430\u0459\u0430 \u0410\u043b\u0435\u043a\u0441\u0430\u043d\u0434\u0440\u0430", "amenity": "pharmacy", "check_date": "2024-03-14", "dispensing": "yes", "drive_through": "no", "healthcare": "pharmacy", "name": "Baofarm", "opening_hours": "Mo-Fr 07:30-20:30; Sa 07:30-17:00; Su off", "phone": "+381 11 2412469"}}, {"type": "node", "id": 6587495488, "lat": 44.8203947, "lon": 20.4134498, "tags": {"amenity": "pharmacy", "brand": "Benu", "brand:wikidata": "Q62562792", "healthcare": "pharmacy", "level": "1", "name": "Benu", "name:sr": "\u0411\u0435\u043d\u0443", "name:sr-Latn": "Benu"}}, {"type": "node", "id": 6632004663, "lat": 44.7974366, "lon": 20.4848822, "tags": {"addr:city": "\u0411\u0435\u043e\u0433\u0440\u0430\u0434", "addr:housenumber": "13", "addr:postcode": "11000", "addr:street": "\u0412\u0435\u043b\u0438\u043c\u0438\u0440\u0430 \u0411\u0430\u0442\u0435 \u0416\u0438\u0432\u043e\u0458\u0438\u043d\u043e\u0432\u0438\u045b\u0430", "amenity": "pharmacy", "brand": "\u041a\u0440\u0448\u0435\u043d\u043a\u043e\u0432\u0438\u045b", "brand:wikidata": "Q132782214", "dispensing": "yes", "drive_through": "no", "email": "ogranak36beograd@gmail.com", "healthcare": "pharmacy", "int_name": "Krsenkovic", "name": "\u041a\u0440\u0448\u0435\u043d\u043a\u043e\u0432\u0438\u045b", "name:sr": "\u041a\u0440\u0448\u0435\u043d\u043a\u043e\u0432\u0438\u045b", "name:sr-Latn": "Kr\u0161enkovi\u0107", "phone": "+381 11 7702204", "website": "https://www.apotekakrsenkovic.rs/"}}, {"type": "node", "id": 6632004664, "lat": 44.8039653, "lon": 20.4679833, "tags": {"addr:city": "\u0411\u0435\u043e\u0433\u0440\u0430\u0434", "addr:housenumber": "18", "addr:postcode": "11000", "addr:street": "\u0411\u0435\u043e\u0433\u0440\u0430\u0434\u0441\u043a\u0430", "amenity": "pharmacy", "brand": "\u041a\u0440\u0448\u0435\u043d\u043a\u043e\u0432\u0438\u045b", "brand:wikidata": "Q132782214", "dispensing": "yes", "drive_through": "no", "email": "ogranak35beograd@gmail.com", "healthcare": "pharmacy", "int_name": "Krsenkovic", "name": "\u041a\u0440\u0448\u0435\u043d\u043a\u043e\u0432\u0438\u045b", "name:sr": "\u041a\u0440\u0448\u0435\u043d\u043a\u043e\u0432\u0438\u045b", "name:sr-Latn": "Kr\u0161enkovi\u0107", "phone": "+381 11 3443387", "website": "https://www.apotekakrsenkovic.rs/"}}, {"type": "node", "id": 6718589310, "lat": 44.8072152, "lon": 20.3828644, "tags": {"amenity": "pharmacy", "dispensing": "yes", "drive_through": "no", "healthcare": "pharmacy", "int_name": "Neven", "name": "\u041d\u0435\u0432\u0435\u043d", "name:sr": "\u041d\u0435\u0432\u0435\u043d", "name:sr-Latn": "Neven", "opening_hours": "Mo-Fr 07:00-21:00; Sa 08:00-21:00; Su 08:00-16:00"}}, {"type": "node", "id": 6718649297, "lat": 44.8070666, "lon": 20.382514, "tags": {"amenity": "pharmacy", "check_date:opening_hours": "2024-09-29", "drive_through": "no", "healthcare": "pharmacy", "int_name": "Nada", "name": "\u041d\u0430\u0434\u0430", "name:sr": "\u041d\u0430\u0434\u0430", "name:sr-Latn": "Nada", "opening_hours": "Mo-Su 08:00-21:00"}}, {"type": "node", "id": 6736045374, "lat": 44.8014007, "lon": 20.3817577, "tags": {"addr:floor": "G", "addr:housenumber": "51", "addr:street": "\u041d\u0435\u0445\u0440\u0443\u043e\u0432\u0430", "amenity": "pharmacy", "brand": "Benu", "brand:wikidata": "Q62562792", "check_date": "2024-11-05", "drive_through": "no", "healthcare": "pharmacy", "int_name": "Krsenkovic", "level": "0", "name": "Benu", "name:sr": "\u0411\u0435\u043d\u0443", "name:sr-Latn": "Benu", "opening_hours": "Mo-Fr 07:00-20:00; Sa-Su 07:00-14:00", "payment:cash": "yes", "payment:credit_cards": "yes", "payment:debit_cards": "yes", "phone": "+381 11 3185944", "wheelchair": "yes"}}, {"type": "node", "id": 6736054141, "lat": 44.8021852, "lon": 20.3804447, "tags": {"amenity": "pharmacy", "healthcare": "pharmacy", "name": "Filly farm", "name:en": "Filly farm", "opening_hours": "Mo-Fr 08:00-21:00; Sa 08:00-17:00; Su 08:00-15:00"}}, {"type": "node", "id": 6736068634, "lat": 44.8047, "lon": 20.3867557, "tags": {"amenity": "pharmacy", "healthcare": "pharmacy", "name": "Julija pharm", "name:sr-Latn": "Julija pharm", "opening_hours": "Mo-Sa 08:00-22:00; Su 08:00-17:00"}}, {"type": "node", "id": 6736069387, "lat": 44.8014163, "lon": 20.3818177, "tags": {"amenity": "pharmacy", "brand": "Benu", "brand:wikidata": "Q62562792", "check_date": "2024-10-05", "drive_through": "no", "healthcare": "pharmacy", "int_name": "Benu", "name": "\u0411\u0435\u043d\u0443", "name:sr": "\u0411\u0435\u043d\u0443", "name:sr-Latn": "Benu", "opening_hours": "Mo-Fr 07:00-20:00; Sa,Su 07:00-14:00"}}, {"type": "node", "id": 6751124912, "lat": 44.7985599, "lon": 20.3747523, "tags": {"amenity": "pharmacy", "brand": "\u041a\u0440\u0448\u0435\u043d\u043a\u043e\u0432\u0438\u045b", "brand:wikidata": "Q132782214", "healthcare": "pharmacy", "int_name": "Krsenkovic", "level": "0", "name": "\u041a\u0440\u0448\u0435\u043d\u043a\u043e\u0432\u0438\u045b", "name:sr": "\u041a\u0440\u0448\u0435\u043d\u043a\u043e\u0432\u0438\u045b", "name:sr-Latn": "Kr\u0161enkovi\u0107"}}, {"type": "node", "id": 6751163175, "lat": 44.7981431, "lon": 20.3737825, "tags": {"amenity": "pharmacy", "healthcare": "pharmacy", "int_name": "Melisa farm", "level": "0", "name": "\u041c\u0435\u043b\u0438\u0441\u0430 \u0444\u0430\u0440\u043c", "name:sr": "\u041c\u0435\u043b\u0438\u0441\u0430 \u0444\u0430\u0440\u043c", "name:sr-Latn": "Melisa farm"}}, {"type": "node", "id": 6751163777, "lat": 44.7983305, "lon": 20.3742052, "tags": {"amenity": "pharmacy", "healthcare": "pharmacy", "int_name": "Nada", "level": "0", "name": "\u041d\u0430\u0434\u0430", "name:sr": "\u041d\u0430\u0434\u0430", "name:sr-Latn": "Nada"}}, {"type": "node", "id": 6772465985, "lat": 44.8005325, "lon": 20.3342596, "tags": {"amenity": "pharmacy", "healthcare": "pharmacy"}}, {"type": "node", "id": 6772465990, "lat": 44.7992497, "lon": 20.4689748, "tags": {"amenity": "pharmacy", "check_date": "2024-03-17", "healthcare": "pharmacy", "opening_hours": "Mo-Fr 07:00-21:00; Sa-Su 08:00-20:00"}}, {"type": "node", "id": 6772465994, "lat": 44.8006342, "lon": 20.4705165, "tags": {"addr:city": "\u0411\u0435\u043e\u0433\u0440\u0430\u0434", "addr:housenumber": "47", "addr:postcode": "11000", "addr:street": "\u041c\u0430\u043a\u0435\u043d\u0437\u0438\u0458\u0435\u0432\u0430", "amenity": "pharmacy", "brand": "Apoteka Beograd", "dispensing": "yes", "drive_through": "no", "fax": "+381 11 2431291", "healthcare": "pharmacy", "int_name": "Mr Milan Zivkovic", "name": "\u041c\u0440 \u041c\u0438\u043b\u0430\u043d \u0416\u0438\u0432\u043a\u043e\u0432\u0438\u045b", "opening_hours": "Mo-Fr 08:00-20:00; Sa 08:00-15:00; Su off; PF off", "phone": "+381 11 3086795", "smoking": "no", "website": "https://apotekabeograd.co.rs/"}}, {"type": "node", "id": 6772466289, "lat": 44.7997902, "lon": 20.4716713, "tags": {"amenity": "pharmacy", "healthcare": "pharmacy"}}, {"type": "node", "id": 6774895088, "lat": 44.786471, "lon": 20.4804386, "tags": {"amenity": "pharmacy", "healthcare": "pharmacy", "name": "Oaza Zdravlja"}}, {"type": "node", "id": 6774895111, "lat": 44.8092856, "lon": 20.4582998, "tags": {"amenity": "pharmacy", "brand": "\u041a\u0440\u0448\u0435\u043d\u043a\u043e\u0432\u0438\u045b", "brand:wikidata": "Q132782214", "check_date": "2025-09-16", "healthcare": "pharmacy", "int_name": "Krsenkovic", "level": "0", "name": "\u041a\u0440\u0448\u0435\u043d\u043a\u043e\u0432\u0438\u045b", "name:sr": "\u041a\u0440\u0448\u0435\u043d\u043a\u043e\u0432\u0438\u045b", "name:sr-Latn": "Kr\u0161enkovi\u0107", "opening_hours": "Mo-Fr 08:00-21:00; Sa 08:00-18:00; Su off", "wheelchair": "no"}}, {"type": "node", "id": 6774932092, "lat": 44.7879684, "lon": 20.4989121, "tags": {"amenity": "pharmacy", "healthcare": "pharmacy"}}, {"type": "node", "id": 6774938686, "lat": 44.7869518, "lon": 20.4828469, "tags": {"amenity": "pharmacy", "drive_through": "no", "healthcare": "pharmacy"}}, {"type": "node", "id": 6775595787, "lat": 44.786368, "lon": 20.4669917, "tags": {"amenity": "pharmacy", "healthcare": "pharmacy"}}, {"type": "node", "id": 6777839396, "lat": 44.7932011, "lon": 20.4784672, "tags": {"amenity": "pharmacy", "healthcare": "pharmacy"}}, {"type": "node", "id": 6779223185, "lat": 44.7994382, "lon": 20.46598, "tags": {"addr:city": "\u0411\u0435\u043e\u0433\u0440\u0430\u0434", "addr:housenumber": "1", "addr:postcode": "11000", "addr:street": "\u0411\u0440\u0430\u043d\u0435 \u0426\u0440\u043d\u0447\u0435\u0432\u0438\u045b\u0430", "amenity": "pharmacy", "brand": "Alba Graeca Pharm", "check_date": "2024-03-17", "contact:facebook": "https://www.facebook.com/people/AU-ALBA-GRAECA-PHARM/100083329683088/", "contact:instagram": "https://www.instagram.com/albagraecapharm/", "drive_through": "no", "email": "info@apotekaalba.rs", "healthcare": "pharmacy", "name": "Alba Graeca 8", "name:en": "Alba Graeca 8", "opening_hours": "Mo-Sa 07:30-21:30; Su off", "phone": "+381 11 2424224", "surveillance": "yes", "website": "https://apotekaalba.rs/", "wheelchair": "yes"}}, {"type": "node", "id": 6779715688, "lat": 44.818866, "lon": 20.468237, "tags": {"amenity": "pharmacy", "check_date": "2025-01-12", "healthcare": "pharmacy", "name": "Lipa"}}, {"type": "node", "id": 6779717010, "lat": 44.7846488, "lon": 20.4693383, "tags": {"amenity": "pharmacy", "healthcare": "pharmacy"}}, {"type": "node", "id": 6779719487, "lat": 44.8037438, "lon": 20.4775459, "tags": {"addr:city": "\u0411\u0435\u043e\u0433\u0440\u0430\u0434", "addr:housenumber": "27", "addr:postcode": "11000", "addr:street": "\u0425\u0430\u045f\u0438-\u0402\u0435\u0440\u0438\u043d\u0430", "amenity": "pharmacy", "delivery": "yes", "healthcare": "pharmacy", "name": "Valerijana plus", "opening_hours": "Mo-Sa 07:30-21:00; Su 09:00-17:00", "phone": "+381 11 3443118", "website": "https://www.apotekavalerijana.rs/"}}, {"type": "node", "id": 6780744691, "lat": 44.7959273, "lon": 20.4747974, "tags": {"amenity": "pharmacy", "brand": "Dr. Max", "brand:wikidata": "Q56317371", "healthcare": "pharmacy", "name": "Dr. Max", "name:signed": "no", "smoking": "no"}}, {"type": "node", "id": 6780758889, "lat": 44.7917497, "lon": 20.4758511, "tags": {"amenity": "pharmacy", "healthcare": "pharmacy"}}, {"type": "node", "id": 6782814291, "lat": 44.7947623, "lon": 20.4674077, "tags": {"amenity": "pharmacy", "check_date": "2024-09-26", "healthcare": "pharmacy", "int_name": "Apoteka Park", "name": "\u0410\u043f\u043e\u0442\u0435\u043a\u0430 \u041f\u0430\u0440\u043a"}}, {"type": "node", "id": 6782814301, "lat": 44.8146932, "lon": 20.4631114, "tags": {"amenity": "pharmacy", "healthcare": "pharmacy", "name": "Prima", "opening_hours": "Mo-Fr 07:00-22:00; Sa 08:00-22:00; Su 09:00-22:00", "wheelchair": "yes"}}, {"type": "node", "id": 6782874200, "lat": 44.8143231, "lon": 20.4631704, "tags": {"amenity": "pharmacy", "check_date": "2025-05-12", "healthcare": "pharmacy", "int_name": "Benu", "name": "\u0411\u0435\u043d\u0443"}}, {"type": "node", "id": 6782874219, "lat": 44.8203808, "lon": 20.4554042, "tags": {"amenity": "pharmacy", "healthcare": "pharmacy"}}, {"type": "node", "id": 6786392288, "lat": 44.8023696, "lon": 20.4576466, "tags": {"amenity": "pharmacy", "brand": "Dr. Max", "brand:wikidata": "Q56317371", "healthcare": "pharmacy", "name": "Dr. Max", "opening_hours": "Mo-Fr 07:30-20:00; Sa 08:00-15:00", "wheelchair": "no"}}, {"type": "node", "id": 6786398893, "lat": 44.809148, "lon": 20.4608394, "tags": {"amenity": "pharmacy", "healthcare": "pharmacy"}}, {"type": "node", "id": 6786399890, "lat": 44.7999702, "lon": 20.4738035, "tags": {"addr:city": "\u0411\u0435\u043e\u0433\u0440\u0430\u0434", "addr:housenumber": "19", "addr:postcode": "11000", "addr:street": "\u041d\u0435\u0432\u0435\u0441\u0438\u045a\u0441\u043a\u0430", "amenity": "pharmacy", "brand": "Laurus", "drive_through": "no", "email": "aulaurus12@gmail.com", "healthcare": "pharmacy", "name": "Laurus 12", "opening_hours": "Mo-Su 08:00-22:00", "phone": "+381 11 6901858;+381 63 1136909", "website": "https://apotekalaurus.rs/"}}, {"type": "node", "id": 6788244992, "lat": 44.7932391, "lon": 20.5054376, "tags": {"addr:city": "\u0411\u0435\u043e\u0433\u0440\u0430\u0434", "addr:housenumber": "297", "addr:postcode": "11000", "addr:street": "\u0411\u0443\u043b\u0435\u0432\u0430\u0440 \u043a\u0440\u0430\u0459\u0430 \u0410\u043b\u0435\u043a\u0441\u0430\u043d\u0434\u0440\u0430", "amenity": "pharmacy", "brand": "Dr. Max", "brand:wikidata": "Q56317371", "dispensing": "yes", "drive_through": "no", "healthcare": "pharmacy", "name": "Dr. Max", "opening_hours": "Mo-Fr 07:30-17:30; Sa-Su 07:30-15:00", "website": "https://www.drmax.rs/"}}, {"type": "node", "id": 6790616196, "lat": 44.7359446, "lon": 20.4202062, "tags": {"amenity": "pharmacy", "healthcare": "pharmacy", "name": "Puls Pharm"}}, {"type": "node", "id": 6790627200, "lat": 44.7403866, "lon": 20.4225949, "tags": {"amenity": "pharmacy", "healthcare": "pharmacy", "int_name": "Panacea", "name": "\u041f\u0430\u043d\u0430\u0446\u0435\u0430", "opening_hours": "Mo-Fr 08:00-20:00; Sa 08:00-16:00; Su 08:00-14:00", "wheelchair": "yes"}}, {"type": "node", "id": 6790629289, "lat": 44.7404745, "lon": 20.4223342, "tags": {"amenity": "pharmacy", "healthcare": "pharmacy", "name": "Oaza Zdravlja"}}, {"type": "node", "id": 6790884685, "lat": 44.8003893, "lon": 20.4739856, "tags": {"amenity": "pharmacy", "check_date": "2025-09-06", "healthcare": "pharmacy", "name": "Sana Pharm Plus"}}, {"type": "node", "id": 6790884885, "lat": 44.8006571, "lon": 20.4689634, "tags": {"addr:city": "\u0411\u0435\u043e\u0433\u0440\u0430\u0434", "addr:housenumber": "24", "addr:postcode": "11000", "addr:street": "\u041a\u043d\u0435\u0433\u0438\u045a\u0435 \u0417\u043e\u0440\u043a\u0435", "amenity": "pharmacy", "branch": "Kneginje Zorke", "brand": "Esensa", "email": "kneginjezorke@esensaapoteka.rs", "healthcare": "pharmacy", "name": "Esensa", "opening_hours": "Mo-Fr 08:00-21:00; Sa 09:00-16:00", "payment:cards": "yes", "payment:cash": "yes", "phone": "+381 64 8209724", "website": "https://www.esensaapoteka.rs/", "wheelchair": "no"}}, {"type": "node", "id": 6797553849, "lat": 44.8024099, "lon": 20.3879196, "tags": {"amenity": "pharmacy", "check_date": "2025-03-09", "healthcare": "pharmacy", "name": "Markfarm", "opening_hours": "Mo-Su 00:00-24:00", "wheelchair": "no"}}, {"type": "node", "id": 6797562141, "lat": 44.8016675, "lon": 20.3844003, "tags": {"addr:floor": "G", "amenity": "pharmacy", "brand": "Benu", "brand:wikidata": "Q62562792", "check_date": "2024-10-13", "dispensing": "yes", "drive_through": "no", "healthcare": "pharmacy", "level": "0", "name": "Benu", "name:sr": "\u0411\u0435\u043d\u0443", "name:sr-Latn": "Benu", "opening_hours": "Mo-Fr 07:00-20:00;Sa 07:00-16:00;Su 07:00-14:00;Mo-Fr 08:00-20:00;Sa 08:00-16:00;Su 08:00-14:00", "payment:cash": "yes", "payment:credit_cards": "yes", "payment:debit_cards": "yes"}}, {"type": "node", "id": 6797573654, "lat": 44.8016576, "lon": 20.384355, "tags": {"amenity": "pharmacy", "check_date:opening_hours": "2024-02-08", "dispensing": "yes", "drive_through": "no", "healthcare": "pharmacy", "name": "Galen pharm", "opening_hours": "Mo-Fr 07:30-20:30; Sa 07:30-16:00; Su 07:30-14:00"}}, {"type": "node", "id": 6799951458, "lat": 44.7982089, "lon": 20.376959, "tags": {"amenity": "pharmacy", "dispensing": "yes", "drive_through": "no", "healthcare": "pharmacy", "int_name": "Apoteka Beograd", "name": "\u0410\u043f\u043e\u0442\u0435\u043a\u0430 \u0411\u0435\u043e\u0433\u0440\u0430\u0434", "name:sr-Latn": "Apoteka Beograd", "opening_hours": "Mo-Fr 08:00-20:00; Sa 08:00-15:00", "wheelchair": "yes"}}, {"type": "node", "id": 6799957108, "lat": 44.7981854, "lon": 20.3769796, "tags": {"amenity": "pharmacy", "brand": "Galen pharm", "brand:wikidata": "Q132851975", "healthcare": "pharmacy", "name": "Galen pharm", "name:sr": "\u0413\u0430\u043b\u0435\u043d \u0444\u0430\u0440\u043c", "name:sr-Latn": "Galen farm", "opening_hours": "Mo-Sa 07:30-21:00; Su 07:30-15:00", "wheelchair": "yes"}}, {"type": "node", "id": 6831076607, "lat": 44.7983912, "lon": 20.4927381, "tags": {"addr:city": "\u0411\u0435\u043e\u0433\u0440\u0430\u0434", "addr:housenumber": "181", "addr:postcode": "11000", "addr:street": "\u0411\u0443\u043b\u0435\u0432\u0430\u0440 \u043a\u0440\u0430\u0459\u0430 \u0410\u043b\u0435\u043a\u0441\u0430\u043d\u0434\u0440\u0430", "amenity": "pharmacy", "drive_through": "no", "healthcare": "pharmacy", "name": "Vasa Pelagi\u0107", "ref:RS:kucni_broj": "3596753"}}, {"type": "node", "id": 6831399189, "lat": 44.8156998, "lon": 20.4609468, "tags": {"addr:housenumber": "1", "addr:street": "\u041a\u043e\u043b\u0430\u0440\u0447\u0435\u0432\u0430", "amenity": "pharmacy", "healthcare": "pharmacy", "name": "Gamma Pharm", "opening_hours": "Mo-Fr 08:00-21:00; Sa 09:00-19:00"}}, {"type": "node", "id": 6832990586, "lat": 44.806197, "lon": 20.4649403, "tags": {"amenity": "pharmacy", "brand": "Apoteka Beograd", "healthcare": "pharmacy", "int_name": "Njegos", "name": "\u040a\u0435\u0433\u043e\u0448", "name:sr": "\u040a\u0435\u0433\u043e\u0448", "name:sr-Latn": "Njego\u0161", "opening_hours": "Mo-Sa 09:00-16:00", "operator": "Apoteka Beograd"}}, {"type": "node", "id": 6833041886, "lat": 44.8183883, "lon": 20.4617291, "tags": {"amenity": "pharmacy", "check_date": "2023-12-09", "healthcare": "pharmacy", "name": "Beograd", "opening_hours": "Mo-Fr 07:00-20:00; Sa 08:00-15:00"}}, {"type": "node", "id": 6833042785, "lat": 44.8181765, "lon": 20.4616874, "tags": {"amenity": "pharmacy", "brand": "Dr. Max", "brand:wikidata": "Q56317371", "brand:wikipedia": "fr:Dr.Max", "healthcare": "pharmacy", "name": "Dr. Max", "opening_hours": "Mo-Fr 07:00-20:00; Sa 08:00-17:00; Su off"}}, {"type": "node", "id": 6833042787, "lat": 44.821517, "lon": 20.4574801, "tags": {"amenity": "pharmacy", "brand": "Dr. Max", "brand:wikidata": "Q56317371", "check_date": "2025-05-20", "healthcare": "pharmacy", "name": "Dr. Max"}}, {"type": "node", "id": 6833058786, "lat": 44.8228467, "lon": 20.4588429, "tags": {"addr:housenumber": "85", "addr:street": "\u041a\u0440\u0430\u0459\u0430 \u041f\u0435\u0442\u0440\u0430", "amenity": "pharmacy", "check_date": "2023-05-09", "healthcare": "pharmacy", "int_name": "Apoteka Beograd", "name": "\u0410\u043f\u043e\u0442\u0435\u043a\u0430 \u0411\u0435\u043e\u0433\u0440\u0430\u0434", "name:sr": "\u0410\u043f\u043e\u0442\u0435\u043a\u0430 \u0411\u0435\u043e\u0433\u0440\u0430\u0434", "name:sr-Latn": "Apoteka Beograd"}}, {"type": "node", "id": 6838073787, "lat": 44.7982126, "lon": 20.4811811, "tags": {"amenity": "pharmacy", "healthcare": "pharmacy", "name": "Tygia"}}, {"type": "node", "id": 6838107993, "lat": 44.7997644, "lon": 20.4711493, "tags": {"amenity": "pharmacy", "brand": "Benu", "brand:wikidata": "Q62562792", "check_date": "2024-01-31", "healthcare": "pharmacy", "name": "Benu"}}, {"type": "node", "id": 6840447110, "lat": 44.7985769, "lon": 20.4833114, "tags": {"amenity": "pharmacy", "healthcare": "pharmacy"}}, {"type": "node", "id": 6840447297, "lat": 44.7996495, "lon": 20.480103, "tags": {"amenity": "pharmacy", "healthcare": "pharmacy", "int_name": "Stankovic", "name": "\u0421\u0442\u0430\u043d\u043a\u043e\u0432\u0438\u045b", "name:sr": "\u0421\u0442\u0430\u043d\u043a\u043e\u0432\u0438\u045b", "name:sr-Latn": "Stankovi\u0107", "opening_hours": "Mo-Fr 07:30-20:30; Sa 08:00-16:00; Su 09:00-14:00"}}, {"type": "node", "id": 6845608379, "lat": 44.8055265, "lon": 20.4084903, "tags": {"amenity": "pharmacy", "check_date": "2025-04-26", "dispensing": "yes", "drive_through": "no", "healthcare": "pharmacy", "int_name": "Benu", "level": "0", "name": "\u0411\u0435\u043d\u0443", "name:sr": "\u0411\u0435\u043d\u0443", "name:sr-Latn": "Benu", "opening_hours": "Mo-Fr 08:00-21:00; Sa 09:00-16:00", "payment:cash": "yes", "payment:credit_cards": "yes", "payment:debit_cards": "yes", "phone": "+381 11 6306838", "wheelchair": "no"}}, {"type": "node", "id": 6845761863, "lat": 44.8047802, "lon": 20.3489691, "tags": {"amenity": "pharmacy", "healthcare": "pharmacy", "int_name": "Apoteka 0-24", "name": "\u0410\u043f\u043e\u0442\u0435\u043a\u0430 0-24", "name:sr": "\u0410\u043f\u043e\u0442\u0435\u043a\u0430 0-24", "name:sr-Latn": "Apoteka 0-24", "opening_hours": "24/7"}}, {"type": "node", "id": 6854229301, "lat": 44.8018824, "lon": 20.3947828, "tags": {"amenity": "pharmacy", "check_date": "2024-05-28", "healthcare": "pharmacy", "int_name": "Apoteka Beograd", "name": "\u0410\u043f\u043e\u0442\u0435\u043a\u0430 \u0411\u0435\u043e\u0433\u0440\u0430\u0434", "name:sr-Latn": "Apoteka Beograd", "opening_hours": "Mo-Fr 08:00-20:00; Sa 08:00-15:00", "wheelchair": "no"}}, {"type": "node", "id": 6854244265, "lat": 44.8014777, "lon": 20.3946165, "tags": {"amenity": "pharmacy", "brand": "Lilly", "brand:wikidata": "Q111764460", "check_date": "2024-05-27", "drive_through": "no", "healthcare": "pharmacy", "name": "Lilly", "name:en": "Lilly", "name:sr": "\u041b\u0438\u043b\u0438", "opening_hours": "Mo-Fr 08:00-21:00; Sa 08:00-18:00; Su 08:00-15:00", "payment:cash": "yes", "payment:credit_cards": "yes", "payment:debit_cards": "yes", "shop": "chemist", "wheelchair": "yes"}}, {"type": "node", "id": 6901294517, "lat": 44.8058863, "lon": 20.4738585, "tags": {"addr:city": "\u0411\u0435\u043e\u0433\u0440\u0430\u0434", "addr:housenumber": "82", "addr:postcode": "11000", "addr:street": "\u0411\u0443\u043b\u0435\u0432\u0430\u0440 \u043a\u0440\u0430\u0459\u0430 \u0410\u043b\u0435\u043a\u0441\u0430\u043d\u0434\u0440\u0430", "amenity": "pharmacy", "check_date": "2024-07-21", "contact:facebook": "https://www.facebook.com/apotekeprima", "dispensing": "yes", "drive_through": "no", "email": "prima.bulevar@primax.rs", "healthcare": "pharmacy", "name": "Prima", "opening_hours": "24/7", "phone": "+381 11 3085583", "website": "https://primax.rs/", "wheelchair": "limited"}}, {"type": "node", "id": 6913295006, "lat": 44.8095977, "lon": 20.3975939, "tags": {"addr:floor": "0", "amenity": "pharmacy", "brand": "Benu", "brand:wikidata": "Q62562792", "check_date": "2025-09-21", "healthcare": "pharmacy", "name": "Benu", "name:sr-Latn": "Benu apoteka", "opening_hours": "Mo-Sa 08:00-21:00; Su 09:00-16:00", "payment:cash": "yes", "payment:credit_cards": "yes", "payment:debit_cards": "yes"}}, {"type": "node", "id": 6935642934, "lat": 44.7964071, "lon": 20.4941199, "tags": {"amenity": "pharmacy", "dispensing": "yes", "drive_through": "no", "healthcare": "pharmacy", "name": "Popadi\u0107"}}, {"type": "node", "id": 6944804642, "lat": 44.7831508, "lon": 20.5018299, "tags": {"amenity": "pharmacy", "healthcare": "pharmacy", "name": "Julija nova"}}, {"type": "node", "id": 7026819304, "lat": 44.7401143, "lon": 20.4370634, "tags": {"addr:housenumber": "14", "addr:street": "\u041f\u0430\u0442\u0440\u0438\u0458\u0430\u0440\u0445\u0430 \u0414\u0438\u043c\u0438\u0442\u0440\u0438\u0458\u0430", "amenity": "pharmacy", "brand": "Galen pharm", "brand:wikidata": "Q132851975", "healthcare": "pharmacy", "name": "Galen pharm", "name:sr": "\u0413\u0430\u043b\u0435\u043d \u0444\u0430\u0440\u043c", "name:sr-Latn": "Galen farm"}}, {"type": "node", "id": 7056558538, "lat": 44.8014513, "lon": 20.3707829, "tags": {"amenity": "pharmacy", "dispensing": "yes", "drive_through": "no", "healthcare": "pharmacy", "int_name": "Apoteka Beograd", "name": "\u0410\u043f\u043e\u0442\u0435\u043a\u0430 \u0411\u0435\u043e\u0433\u0440\u0430\u0434", "name:sr-Latn": "Apoteka Beograd"}}, {"type": "node", "id": 7071889200, "lat": 44.9435813, "lon": 20.2199229, "tags": {"amenity": "pharmacy", "dispensing": "yes", "healthcare": "pharmacy", "name": "Biofarm"}}, {"type": "node", "id": 7071889208, "lat": 44.9439903, "lon": 20.220181, "tags": {"amenity": "pharmacy", "dispensing": "yes", "healthcare": "pharmacy", "name": "Lira"}}, {"type": "node", "id": 7071889218, "lat": 44.9398605, "lon": 20.2244332, "tags": {"amenity": "pharmacy", "brand": "Benu", "brand:wikidata": "Q62562792", "dispensing": "yes", "healthcare": "pharmacy", "name": "Benu"}}, {"type": "node", "id": 7072706038, "lat": 44.813081, "lon": 20.4692917, "tags": {"addr:city": "\u0411\u0435\u043e\u0433\u0440\u0430\u0434", "addr:housenumber": "40", "addr:postcode": "11000", "addr:street": "\u0421\u0432\u0435\u0442\u043e\u0433\u043e\u0440\u0441\u043a\u0430", "amenity": "pharmacy", "dispensing": "yes", "drive_through": "no", "healthcare": "pharmacy", "name": "Kamilica", "opening_hours": "Mo-Fr 08:00-20:00; Sa 08:00-15:00", "phone": "+381 11 3235564", "website": "https://kamilica.rs/", "wheelchair": "no"}}, {"type": "node", "id": 7072706039, "lat": 44.7981023, "lon": 20.46415, "tags": {"addr:city": "\u0411\u0435\u043e\u0433\u0440\u0430\u0434", "addr:housenumber": "14a", "addr:postcode": "11000", "addr:street": "\u041f\u0430\u0441\u0442\u0435\u0440\u043e\u0432\u0430", "amenity": "pharmacy", "dispensing": "yes", "drive_through": "no", "healthcare": "pharmacy", "name": "Kamilica", "opening_hours": "Mo-Sa 07:00-20:00; Su 09:00-16:00", "phone": "+381 11 2684743", "website": "https://kamilica.rs/", "wheelchair": "limited"}}, {"type": "node", "id": 7147385558, "lat": 44.7432393, "lon": 20.42541, "tags": {"amenity": "pharmacy", "dispensing": "yes", "healthcare": "pharmacy"}}, {"type": "node", "id": 7168029825, "lat": 44.7961693, "lon": 20.4969388, "tags": {"addr:housenumber": "294", "addr:street": "\u0411\u0443\u043b\u0435\u0432\u0430\u0440 \u043a\u0440\u0430\u0459\u0430 \u0410\u043b\u0435\u043a\u0441\u0430\u043d\u0434\u0440\u0430", "amenity": "pharmacy", "brand": "Dr. Max", "brand:wikidata": "Q56317371", "dispensing": "yes", "drive_through": "no", "healthcare": "pharmacy", "name": "Dr. Max", "opening_hours": "Mo-Fr 07:30-21:00; Sa 08:00-17:00", "phone": "+381 11 2691088"}}, {"type": "node", "id": 7179794726, "lat": 44.7604896, "lon": 20.5060976, "tags": {"amenity": "pharmacy", "healthcare": "pharmacy"}}, {"type": "node", "id": 7179794727, "lat": 44.7618769, "lon": 20.5056032, "tags": {"amenity": "pharmacy", "healthcare": "pharmacy"}}, {"type": "node", "id": 7195739495, "lat": 44.6526871, "lon": 20.2599276}, {"type": "node", "id": 7195739496, "lat": 44.6526938, "lon": 20.2599533}, {"type": "node", "id": 7195739497, "lat": 44.6526283, "lon": 20.2600228}, {"type": "node", "id": 7195739498, "lat": 44.6526461, "lon": 20.2600136}, {"type": "node", "id": 7195739499, "lat": 44.6526312, "lon": 20.2599564}, {"type": "node", "id": 7195739501, "lat": 44.6527473, "lon": 20.2600328}, {"type": "node", "id": 7195739502, "lat": 44.6527227, "lon": 20.2599384}, {"type": "node", "id": 7195739512, "lat": 44.6526359, "lon": 20.260051}, {"type": "node", "id": 7195743918, "lat": 44.6526611, "lon": 20.2600773}, {"type": "node", "id": 7195743922, "lat": 44.6526449, "lon": 20.2600856}, {"type": "node", "id": 7247575400, "lat": 44.7862152, "lon": 20.5144015, "tags": {"amenity": "pharmacy", "brand": "Benu", "brand:wikidata": "Q62562792", "dispensing": "yes", "healthcare": "pharmacy", "name": "Benu", "opening_hours": "Mo-Su 08:00-22:00"}}, {"type": "node", "id": 7366229624, "lat": 44.7602585, "lon": 20.4759206, "tags": {"amenity": "pharmacy", "brand": "Benu", "brand:wikidata": "Q62562792", "email": "bgkokanova@benu.rs", "healthcare": "pharmacy", "name": "Benu", "name:sr": "\u0411\u0435\u043d\u0443", "name:sr-Latn": "Benu", "opening_hours": "Mo-Fr 07:00-20:00; Sa 07:00-15:00; Su 07:00-14:00", "phone": "0113984599", "website": "https://benu.rs/beograd-kokanova-1614356763"}}, {"type": "node", "id": 7527285310, "lat": 44.8042576, "lon": 20.3854838, "tags": {"amenity": "pharmacy", "healthcare": "pharmacy", "name": "Z.U. Multi Pharmacija", "opening_hours": "Mo-Fr 08:00-20:00; Sa 09:00-16:00"}}, {"type": "node", "id": 7536831253, "lat": 44.7330035, "lon": 20.4276381, "tags": {"amenity": "pharmacy", "dispensing": "yes", "healthcare": "pharmacy"}}, {"type": "node", "id": 7554925469, "lat": 44.8009875, "lon": 20.382005, "tags": {"amenity": "pharmacy", "dispensing": "yes", "drive_through": "no", "healthcare": "pharmacy", "int_name": "Sunce", "name": "\u0421\u0443\u043d\u0446\u0435", "name:sr": "\u0421\u0443\u043d\u0446\u0435", "name:sr-Latn": "Sunce"}}, {"type": "node", "id": 7554989041, "lat": 44.8010066, "lon": 20.3821246, "tags": {"addr:floor": "G", "addr:housenumber": "51", "addr:street": "\u041d\u0435\u0445\u0440\u0443\u043e\u0432\u0430", "amenity": "pharmacy", "brand": "Benu", "brand:wikidata": "Q62562792", "check_date": "2025-07-06", "dispensing": "yes", "drive_through": "no", "healthcare": "pharmacy", "internet_access": "no", "level": "0", "name": "Benu", "opening_hours": "Mo-Fr 07:00-21:00; Sa 07:00-18:00; Su 07:00-14:30", "payment:cash": "yes", "payment:credit_cards": "yes", "payment:debit_cards": "yes", "wheelchair": "limited"}}, {"type": "node", "id": 7661823689, "lat": 44.7501851, "lon": 20.4170564, "tags": {"amenity": "pharmacy", "dispensing": "yes", "healthcare": "pharmacy", "int_name": "Farmanea", "name": "\u0424\u0430\u0440\u043c\u0430\u043d\u0435\u0430", "name:sr-Latn": "Farmanea"}}, {"type": "node", "id": 7728596564, "lat": 44.8053833, "lon": 20.4003625, "tags": {"amenity": "pharmacy", "healthcare": "pharmacy", "name": "Maelia"}}, {"type": "node", "id": 7728622737, "lat": 44.8062214, "lon": 20.4004926, "tags": {"amenity": "pharmacy", "healthcare": "pharmacy", "int_name": "Zdravkoteka", "name": "\u0417\u0434\u0440\u0430\u0432\u043a\u043e\u0442\u0435\u043a\u0430", "name:sr": "\u0417\u0434\u0440\u0430\u0432\u043a\u043e\u0442\u0435\u043a\u0430", "name:sr-Latn": "Zdravkoteka"}}, {"type": "node", "id": 7728622907, "lat": 44.8062297, "lon": 20.4019139, "tags": {"amenity": "pharmacy", "check_date": "2024-10-20", "healthcare": "pharmacy", "int_name": "Jagoda", "name": "\u0408\u0430\u0433\u043e\u0434\u0430", "name:sr": "\u0408\u0430\u0433\u043e\u0434\u0430", "name:sr-Latn": "Jagoda"}}, {"type": "node", "id": 7890081285, "lat": 44.8253985, "lon": 20.4090489, "tags": {"amenity": "pharmacy", "healthcare": "pharmacy", "name": "Lara Pharm"}}, {"type": "node", "id": 7981376184, "lat": 44.793228, "lon": 20.5042562, "tags": {"amenity": "pharmacy", "dispensing": "yes", "healthcare": "pharmacy"}}, {"type": "node", "id": 8023279656, "lat": 44.816972, "lon": 20.4209482, "tags": {"amenity": "pharmacy", "contact:instagram": "ivancic_i_sin_apoteke", "dispensing": "yes", "drive_through": "no", "healthcare": "pharmacy", "int_name": "Ivancic i sin", "name": "\u0418\u0432\u0430\u043d\u0447\u0438\u045b \u0438 \u0441\u0438\u043d", "name:sr": "\u0418\u0432\u0430\u043d\u0447\u0438\u045b \u0438 \u0441\u0438\u043d", "name:sr-Latn": "Ivan\u010di\u0107 i sin", "website": "https://apotekeivancic.rs/"}}, {"type": "node", "id": 8062900610, "lat": 44.8041772, "lon": 20.378088, "tags": {"amenity": "pharmacy", "brand": "Benu", "brand:wikidata": "Q62562792", "dispensing": "yes", "drive_through": "no", "healthcare": "pharmacy", "int_name": "Benu", "name": "Benu", "name:sr": "\u0411\u0435\u043d\u0443", "name:sr-Latn": "Benu", "opening_hours": "Mo-Sa 07:30-21:00; Su 08:00-20:00"}}, {"type": "node", "id": 8094492035, "lat": 44.8102525, "lon": 20.3831885, "tags": {"amenity": "pharmacy", "dispensing": "yes", "drive_through": "no", "healthcare": "pharmacy", "int_name": "Vegafarma", "name": "\u0412\u0435\u0433\u0430\u0444\u0430\u0440\u043c\u0430", "name:sr": "\u0412\u0435\u0433\u0430\u0444\u0430\u0440\u043c\u0430", "name:sr-Latn": "Vegafarma", "opening_hours": "Mo-Fr 07:00-21:00; Sa 08:00-20:00; Su 08:00-14:00"}}, {"type": "node", "id": 8099146980, "lat": 44.8024292, "lon": 20.4787788, "tags": {"addr:city": "\u0411\u0435\u043e\u0433\u0440\u0430\u0434", "addr:housenumber": "14", "addr:postcode": "11000", "addr:street": "\u0421\u0438\u043d\u0452\u0435\u043b\u0438\u045b\u0435\u0432\u0430", "amenity": "pharmacy", "dispensing": "yes", "drive_through": "no", "healthcare": "pharmacy", "name": "Srbotrade 2", "opening_hours": "Mo-Su 08:00-22:00", "phone": "+381 11 2437989", "website": "https://www.apotekasrbotrade.rs/", "wheelchair": "no"}}, {"type": "node", "id": 8446703336, "lat": 44.752265, "lon": 20.4557571, "tags": {"amenity": "pharmacy", "dispensing": "yes", "healthcare": "pharmacy", "int_name": "Prof. dr Mirjana Stupar", "name": "\u041f\u0440\u043e\u0444. \u0434\u0440 \u041c\u0438\u0440\u0458\u0430\u043d\u0430 \u0421\u0442\u0443\u043f\u0430\u0440", "name:sr": "\u041f\u0440\u043e\u0444. \u0434\u0440 \u041c\u0438\u0440\u0458\u0430\u043d\u0430 \u0421\u0442\u0443\u043f\u0430\u0440", "name:sr-Latn": "Prof. dr Mirjana Stupar", "operator": "\u0410\u043f\u043e\u0442\u0435\u043a\u0430 \u0411\u0435\u043e\u0433\u0440\u0430\u0434", "phone": "+381 11 3515 076; +381 11 7704 919"}}, {"type": "node", "id": 8512756817, "lat": 44.7396033, "lon": 20.4233152, "tags": {"amenity": "pharmacy", "brand": "Lilly", "brand:wikidata": "Q111764460", "healthcare": "pharmacy", "name": "Lilly", "name:en": "Lilly", "name:sr": "\u041b\u0438\u043b\u0438", "shop": "chemist"}}, {"type": "node", "id": 8674011447, "lat": 44.7929615, "lon": 20.4765059, "tags": {"amenity": "pharmacy", "dispensing": "yes", "drive_through": "no", "healthcare": "pharmacy", "name": "Galena lab"}}, {"type": "node", "id": 8722032707, "lat": 44.8059494, "lon": 20.4790849, "tags": {"addr:city": "\u0411\u0435\u043e\u0433\u0440\u0430\u0434", "addr:housenumber": "2", "addr:postcode": "11000", "addr:street": "\u0420\u0443\u0437\u0432\u0435\u043b\u0442\u043e\u0432\u0430", "amenity": "pharmacy", "dispensing": "yes", "healthcare": "pharmacy", "name": "Laurus"}}, {"type": "node", "id": 8805262836, "lat": 44.7910369, "lon": 20.2708563}, {"type": "node", "id": 8859699507, "lat": 44.8206236, "lon": 20.4586276, "tags": {"addr:city": "\u0411\u0435\u043e\u0433\u0440\u0430\u0434", "addr:housenumber": "5", "addr:postcode": "11000", "addr:street": "\u0412\u0438\u0448\u045a\u0438\u045b\u0435\u0432\u0430", "amenity": "pharmacy", "drive_through": "no", "healthcare": "pharmacy", "name": "Dermo 5 Romana", "opening_hours": "Mo-Fr 09:00-17:00, Su 09:00-14:00"}}, {"type": "node", "id": 8989440101, "lat": 44.7625743, "lon": 20.4839358, "tags": {"amenity": "pharmacy", "brand": "Benu", "brand:wikidata": "Q62562792", "dispensing": "yes", "healthcare": "pharmacy", "name": "Benu", "opening_hours": "Mo-Fr 08:00-21:00; Sa,Su 08:00-16:00"}}, {"type": "node", "id": 9006718519, "lat": 44.759875, "lon": 20.4892778, "tags": {"addr:city": "\u0411\u0435\u043e\u0433\u0440\u0430\u0434", "addr:housenumber": "17", "addr:postcode": "11000", "addr:street": "\u0413\u0435\u043d\u0435\u0440\u0430\u043b\u0430 \u0428\u0442\u0435\u0444\u0430\u043d\u0438\u043a\u0430", "amenity": "pharmacy", "dispensing": "yes", "drive_through": "no", "healthcare": "pharmacy", "name": "Sunce", "opening_hours": "Mo-Su 08:00-23:00", "operator": "Sunce"}}, {"type": "node", "id": 9024872931, "lat": 44.7884805, "lon": 20.5007078, "tags": {"amenity": "pharmacy", "dispensing": "yes", "healthcare": "pharmacy", "name": "Lipa lek", "opening_hours": "Mo-Fr 08:00-21:00; Sa 08:00-18:00; Su 08:00-14:00"}}, {"type": "node", "id": 9077731740, "lat": 44.8175143, "lon": 20.4954294, "tags": {"addr:city": "\u0411\u0435\u043e\u0433\u0440\u0430\u0434", "addr:housenumber": "204C", "addr:postcode": "11060", "addr:street": "\u0411\u0443\u043b\u0435\u0432\u0430\u0440 \u0434\u0435\u0441\u043f\u043e\u0442\u0430 \u0421\u0442\u0435\u0444\u0430\u043d\u0430", "amenity": "pharmacy", "dispensing": "yes", "drive_through": "no", "email": "julijaapoteka@gmail.com", "healthcare": "pharmacy", "name": "JB Pharm", "phone": "+381 11 2755 000", "source": "https://www.rfzo.rs/download/dzu/privapo/apo1-1.pdf"}}, {"type": "node", "id": 9091313040, "lat": 44.7980604, "lon": 20.4854267, "tags": {"amenity": "pharmacy", "brand": "Benu", "brand:wikidata": "Q62562792", "check_date": "2025-08-31", "healthcare": "pharmacy", "name": "Benu"}}, {"type": "node", "id": 9091313044, "lat": 44.8191381, "lon": 20.4736026, "tags": {"amenity": "pharmacy", "healthcare": "pharmacy"}}, {"type": "node", "id": 9091313051, "lat": 44.8090207, "lon": 20.4670248, "tags": {"amenity": "pharmacy", "brand": "Benu", "brand:wikidata": "Q62562792", "check_date:opening_hours": "2024-03-01", "healthcare": "pharmacy", "name": "Benu", "opening_hours": "Mo-Fr 08:00-20:30; Sa 09:00-18:00", "wheelchair": "yes"}}, {"type": "node", "id": 9091313055, "lat": 44.7550581, "lon": 20.4767584, "tags": {"amenity": "pharmacy", "brand": "Dr. Max", "brand:wikidata": "Q56317371", "healthcare": "pharmacy", "name": "Dr. Max"}}, {"type": "node", "id": 9091313067, "lat": 44.8082999, "lon": 20.4691733, "tags": {"amenity": "pharmacy", "check_date": "2025-07-03", "healthcare": "pharmacy", "name": "Bella", "opening_hours": "Mo-Fr 08:00-21:00; Sa 09:00-20:00; Su 09:00-15:00"}}, {"type": "node", "id": 9091313073, "lat": 44.7717448, "lon": 20.4934158, "tags": {"addr:city": "\u0411\u0435\u043e\u0433\u0440\u0430\u0434", "addr:housenumber": "57i", "addr:street": "\u0417\u0430\u043f\u043b\u0430\u045a\u0441\u043a\u0430", "amenity": "pharmacy", "check_date": "2023-12-12", "drive_through": "no", "email": "zuasunce@gmail.com", "healthcare": "pharmacy", "mobile": "+381 60 4242 705", "name": "\u0421\u0443\u043d\u0446\u0435 3", "name:en": "Sunce 3", "name:sr": "\u0421\u0443\u043d\u0446\u0435 3", "name:sr-Latn": "Sunce 3", "opening_hours": "Mo-Su 07:00-00:30", "operator": "\u0410\u043f\u043e\u0442\u0435\u043a\u0430\u0440\u0441\u043a\u0430 \u0443\u0441\u0442\u0430\u043d\u043e\u0432\u0430 \u201e\u0421\u0443\u043d\u0446\u0435\u201d", "phone": "+381 11 3962 556", "website": "https://www.apotekasunce.rs/sr/o-nama"}}, {"type": "node", "id": 9091313338, "lat": 44.8213126, "lon": 20.418613, "tags": {"amenity": "pharmacy", "brand": "Benu", "brand:wikidata": "Q62562792", "healthcare": "pharmacy", "name": "Benu"}}, {"type": "node", "id": 9091313437, "lat": 44.8020985, "lon": 20.4716657, "tags": {"addr:housenumber": "55", "addr:street": "\u040a\u0435\u0433\u043e\u0448\u0435\u0432\u0430", "amenity": "pharmacy", "check_date": "2023-12-23", "healthcare": "pharmacy", "name": "Lilly", "opening_hours": "Mo-Sa 08:00-21:00; Su 09:00-15:00", "payment:cash": "yes", "payment:contactless": "yes", "payment:credit_cards": "yes", "payment:debit_cards": "yes", "wheelchair": "no"}}, {"type": "node", "id": 9091313454, "lat": 44.8034757, "lon": 20.4876166, "tags": {"amenity": "pharmacy", "healthcare": "pharmacy", "name": "Althea"}}, {"type": "node", "id": 9091313471, "lat": 44.7596959, "lon": 20.4762825, "tags": {"amenity": "pharmacy", "brand": "Benu", "brand:wikidata": "Q62562792", "healthcare": "pharmacy", "name": "Benu", "name:sr": "\u0411\u0435\u043d\u0443", "name:sr-Latn": "Benu"}}, {"type": "node", "id": 9091313727, "lat": 44.8147008, "lon": 20.4645952, "tags": {"amenity": "pharmacy", "contact:instagram": "https://www.instagram.com/zelenaapotekadavidovac", "healthcare": "pharmacy", "name": "Zelena apoteka Davidovac", "name:sr": "\u0417\u0435\u043b\u0435\u043d\u0430 \u0430\u043f\u043e\u0442\u0435\u043a\u0430 \u0414\u0430\u0432\u0438\u0434\u043e\u0432\u0430\u0446", "name:sr-Latn": "Zelena apoteka Davidovac", "website": "https://prodaja.zelena-apoteka.com/"}}, {"type": "node", "id": 9129613388, "lat": 44.8272435, "lon": 20.3971166, "tags": {"amenity": "pharmacy", "brand": "Benu", "brand:wikidata": "Q62562792", "dispensing": "yes", "drive_through": "no", "healthcare": "pharmacy", "name": "Benu"}}, {"type": "node", "id": 9152067328, "lat": 44.8072978, "lon": 20.4233968, "tags": {"amenity": "pharmacy", "drive_through": "no", "healthcare": "pharmacy", "name": "Bokvica"}}, {"type": "node", "id": 9270502954, "lat": 44.8308659, "lon": 20.4184014, "tags": {"amenity": "pharmacy", "dispensing": "yes", "drive_through": "no", "healthcare": "pharmacy", "int_name": "Domaci Apotekari", "name": "\u0414\u043e\u043c\u0430\u0447\u0438 \u0410\u043f\u043e\u0442\u0435\u043a\u0430\u0440\u0438", "opening_hours": "Mo-Sa 07:30-21:00; Su 09:00-15:00"}}, {"type": "node", "id": 9309792817, "lat": 44.7431951, "lon": 20.4266586, "tags": {"amenity": "pharmacy", "healthcare": "pharmacy", "opening_hours": "24/7"}}, {"type": "node", "id": 9455651487, "lat": 44.7969772, "lon": 20.4832516, "tags": {"addr:city": "\u0411\u0435\u043e\u0433\u0440\u0430\u0434", "addr:country": "RS", "addr:housenumber": "16", "addr:postcode": "11000", "addr:street": "\u0412\u0435\u043b\u0438\u043c\u0438\u0440\u0430 \u0411\u0430\u0442\u0435 \u0416\u0438\u0432\u043e\u0458\u0438\u043d\u043e\u0432\u0438\u045b\u0430", "amenity": "pharmacy", "dispensing": "yes", "email": "office@apotekabeograd.co.rs", "government": "healthcare", "healthcare": "pharmacy", "int_name": "Apoteka Beograd", "medical_supply": "yes", "name": "\u0410\u043f\u043e\u0442\u0435\u043a\u0430 \u0411\u0435\u043e\u0433\u0440\u0430\u0434", "name:sr-Latn": "Apoteka Beograd", "office": "government", "phone": "+381112452648; +381112456448", "website": "https://apotekabeograd.co.rs/"}}, {"type": "node", "id": 9577140717, "lat": 44.8010984, "lon": 20.4665365, "tags": {"amenity": "pharmacy", "healthcare": "pharmacy", "name": "Lab", "name:en": "Lab"}}, {"type": "node", "id": 9767860417, "lat": 44.762506, "lon": 20.410402, "tags": {"amenity": "pharmacy", "healthcare": "pharmacy", "name": "Betty", "name:en": "Betty"}}, {"type": "node", "id": 9774663217, "lat": 44.7827902, "lon": 20.421974, "tags": {"amenity": "pharmacy", "healthcare": "pharmacy", "name": "Gamma Pharm", "name:en": "Gamma Pharm"}}, {"type": "node", "id": 9774689417, "lat": 44.7669959, "lon": 20.4099979, "tags": {"amenity": "pharmacy", "healthcare": "pharmacy", "name": "Babovi\u0107 Medika", "name:en": "Babovich Medika"}}, {"type": "node", "id": 9774689617, "lat": 44.7634573, "lon": 20.4129796, "tags": {"amenity": "pharmacy", "brand": "Galen pharm", "brand:wikidata": "Q132851975", "healthcare": "pharmacy", "name": "Galen pharm", "name:en": "Galen pharm", "name:sr": "\u0413\u0430\u043b\u0435\u043d \u0444\u0430\u0440\u043c", "name:sr-Latn": "Galen farm", "opening_hours": "Mo-Fr 08:00-20:00; Sa 08:00-16:00; Su 08:00-14:00", "phone": "+38112390659"}}, {"type": "node", "id": 9774689717, "lat": 44.7648721, "lon": 20.4152838, "tags": {"amenity": "pharmacy", "healthcare": "pharmacy", "name": "Frezijapharm", "name:en": "Frezijapharm", "opening_hours": "Mo-Fr 08:00-20:00; Sa 08:00-16:00; Su 09:00-13:00", "phone": "+38112507801"}}, {"type": "node", "id": 9810777885, "lat": 44.8459708, "lon": 20.4880898, "tags": {"addr:housenumber": "27B", "addr:street": "\u0417\u0440\u0435\u045a\u0430\u043d\u0438\u043d\u0441\u043a\u0438 \u043f\u0443\u0442", "amenity": "pharmacy", "healthcare": "pharmacy"}}, {"type": "node", "id": 9849567917, "lat": 44.7586765, "lon": 20.4156483, "tags": {"amenity": "pharmacy", "brand": "Benu", "brand:wikidata": "Q62562792", "dispensing": "yes", "drive_through": "no", "healthcare": "pharmacy", "level": "0", "name": "Benu"}}, {"type": "node", "id": 9863903563, "lat": 44.8059097, "lon": 20.4962025, "tags": {"amenity": "pharmacy", "brand": "Dr. Max", "brand:wikidata": "Q56317371", "dispensing": "yes", "healthcare": "pharmacy", "name": "Dr. Max"}}, {"type": "node", "id": 9874909943, "lat": 44.8170305, "lon": 20.4530667, "tags": {"amenity": "pharmacy", "dispensing": "yes", "drive_through": "no", "healthcare": "pharmacy", "level": "0", "name": "Iris SM", "opening_hours": "Mo-Fr 09:00-17:00; Sa 10:00-16:00"}}, {"type": "node", "id": 9925290018, "lat": 44.8203335, "lon": 20.3899191, "tags": {"amenity": "pharmacy", "check_date": "2025-06-24", "healthcare": "pharmacy", "name": "D\u017eavi\u0107", "name:sr": "\u040f\u0430\u0432\u0438\u045b", "opening_hours": "07:00-22:00"}}, {"type": "node", "id": 9925310217, "lat": 44.8200821, "lon": 20.3913131, "tags": {"amenity": "pharmacy", "healthcare": "pharmacy"}}, {"type": "node", "id": 9954281523, "lat": 44.8049467, "lon": 20.4060948, "tags": {"amenity": "pharmacy", "brand": "Benu", "brand:wikidata": "Q62562792", "check_date": "2025-04-26", "dispensing": "yes", "drive_through": "no", "healthcare": "pharmacy", "level": "0", "name": "Benu"}}, {"type": "node", "id": 9986459629, "lat": 44.7694845, "lon": 20.4907871, "tags": {"addr:city": "\u0411\u0435\u043e\u0433\u0440\u0430\u0434", "addr:housenumber": "34", "addr:street": "\u041c\u0435\u0448\u0442\u0440\u043e\u0432\u0438\u045b\u0435\u0432\u0430", "amenity": "pharmacy", "dispensing": "yes", "drive_through": "no", "healthcare": "pharmacy", "name": "\u0410\u043b\u0435\u043a\u0441\u0430\u043d\u0434\u0430\u0440 \u0408\u0435\u043b\u0438\u0447\u0438\u045b", "name:en": "Aleksandar Jeli\u010di\u0107", "name:sr": "\u0410\u043b\u0435\u043a\u0441\u0430\u043d\u0434\u0430\u0440 \u0408\u0435\u043b\u0438\u0447\u0438\u045b", "name:sr-Latn": "Aleksandar Jeli\u010di\u0107", "opening_hours": "Mo-Fr 07:00-20:00; Sa 08:00-15:00; Su off", "operator": "\u0410\u043f\u043e\u0442\u0435\u043a\u0430\u0440\u0441\u043a\u0430 \u0443\u0441\u0442\u0430\u043d\u043e\u0432\u0430 \u201e\u0411\u0435\u043e\u0433\u0440\u0430\u0434\u201d", "phone": "+381 11 3096 763", "website": "https://apotekabeograd.co.rs/"}}, {"type": "node", "id": 10043405559, "lat": 44.8153907, "lon": 20.4362013, "tags": {"amenity": "pharmacy", "brand": "Benu", "brand:wikidata": "Q62562792", "check_date:opening_hours": "2024-03-12", "healthcare": "pharmacy", "level": "0", "name": "Benu", "opening_hours": "Mo-Su 10:00-22:00", "shop": "houseware", "wheelchair": "yes"}}, {"type": "node", "id": 10092672022, "lat": 44.7820364, "lon": 20.4174469, "tags": {"amenity": "pharmacy", "dispensing": "yes", "healthcare": "pharmacy", "int_name": "Apoteka Beograd", "name": "\u0410\u043f\u043e\u0442\u0435\u043a\u0430 \u0411\u0435\u043e\u0433\u0440\u0430\u0434"}}, {"type": "node", "id": 10108684952, "lat": 44.8068508, "lon": 20.4646997, "tags": {"amenity": "pharmacy", "healthcare": "pharmacy", "name": "Swiss rockets", "opening_hours": "Mo-Fr 08:00-20:00; Sa 08:00-15:00"}}, {"type": "node", "id": 10108685425, "lat": 44.808832, "lon": 20.466788, "tags": {"amenity": "pharmacy", "check_date": "2025-07-03", "healthcare": "pharmacy", "name": "Esensa", "opening_hours": "Mo-Fr 08:00-21:00; Sa 09:00-16:00", "wheelchair": "no"}}, {"type": "node", "id": 10108692298, "lat": 44.8090942, "lon": 20.4671171, "tags": {"amenity": "pharmacy", "check_date": "2024-10-23", "check_date:opening_hours": "2024-03-01", "healthcare": "pharmacy", "int_name": "Igor", "name": "\u0418\u0433\u043e\u0440", "name:sr-Latn": "Igor", "opening_hours": "Mo-Fr 09:00-20:00; Sa 09:00-16:00", "phone": "33 40 618", "wheelchair": "no"}}, {"type": "node", "id": 10108695461, "lat": 44.8074226, "lon": 20.4650353, "tags": {"amenity": "pharmacy", "check_date": "2025-07-03", "healthcare": "pharmacy", "medical_supply": "orthopedic", "name": "Rudo", "opening_hours": "Mo-Sa 08:00-17:00", "shop": "medical_supply", "wheelchair": "no"}}, {"type": "node", "id": 10113592010, "lat": 44.8172573, "lon": 20.475978, "tags": {"amenity": "pharmacy", "check_date:opening_hours": "2025-03-28", "dispensing": "yes", "drive_through": "no", "healthcare": "pharmacy", "int_name": "Apoteka Beograd", "name": "\u0410\u043f\u043e\u0442\u0435\u043a\u0430 \u0411\u0435\u043e\u0433\u0440\u0430\u0434", "name:sr-Latn": "Apoteka Beograd", "opening_hours": "Mo-Fr 08:00-20:00; Sa 08:00-17:00", "opening_hours:signed": "no", "wheelchair": "limited"}}, {"type": "node", "id": 10114869124, "lat": 44.8169224, "lon": 20.4752831, "tags": {"addr:street": "\u0411\u0443\u043b\u0435\u0432\u0430\u0440 \u0434\u0435\u0441\u043f\u043e\u0442\u0430 \u0421\u0442\u0435\u0444\u0430\u043d\u0430", "amenity": "pharmacy", "dispensing": "yes", "drive_through": "no", "healthcare": "pharmacy", "name": "Meduza", "opening_hours": "Mo-Fr 07:30-21:00; Sa 08:00-16:00; Su 08:00-14:30", "source": "survey"}}, {"type": "node", "id": 10116301656, "lat": 44.8078489, "lon": 20.4639504, "tags": {"amenity": "pharmacy", "brand": "Galen pharm", "brand:wikidata": "Q132851975", "check_date": "2025-05-28", "healthcare": "pharmacy", "name": "Galen pharm", "name:sr": "\u0413\u0430\u043b\u0435\u043d \u0444\u0430\u0440\u043c", "name:sr-Latn": "Galen farm", "opening_hours": "Mo-Sa 08:00-21:00"}}, {"type": "node", "id": 10127576870, "lat": 44.80109, "lon": 20.4554659, "tags": {"amenity": "pharmacy", "dispensing": "yes", "healthcare": "pharmacy", "name": "Diafit", "opening_hours": "Mo-Fr 08:00-20:00; Sa 09:00-14:00; Su off"}}, {"type": "node", "id": 10127576871, "lat": 44.8006722, "lon": 20.4559468, "tags": {"amenity": "pharmacy", "dispensing": "yes", "healthcare": "pharmacy", "opening_hours": "Mo-Fr 07:30-20:00; Sa 08:00-16:00", "wheelchair": "no"}}, {"type": "node", "id": 10177808918, "lat": 44.8027256, "lon": 20.4892079, "tags": {"addr:city": "\u0411\u0435\u043e\u0433\u0440\u0430\u0434", "addr:housenumber": "74", "addr:postcode": "11000", "addr:street": "\u0414\u0438\u043c\u0438\u0442\u0440\u0438\u0458\u0430 \u0422\u0443\u0446\u043e\u0432\u0438\u045b\u0430", "amenity": "pharmacy", "dispensing": "yes", "healthcare": "pharmacy", "name": "Alba Graeca", "opening_hours": "Mo-Su 08:00-22:00", "phone": "+381 11 2405155", "website": "https://apotekaalba.rs/"}}, {"type": "node", "id": 10185298569, "lat": 44.76522, "lon": 20.4806722, "tags": {"addr:housenumber": "65", "addr:street": "\u0411\u0438\u043b\u0435\u045b\u043a\u0430", "amenity": "pharmacy", "check_date": "2022-11-15", "healthcare": "pharmacy", "level": "0"}}, {"type": "node", "id": 10309534505, "lat": 44.8005937, "lon": 20.4875168, "tags": {"amenity": "pharmacy", "check_date": "2025-08-05"}}, {"type": "node", "id": 10540387209, "lat": 44.8139292, "lon": 20.4243845, "tags": {"amenity": "pharmacy", "healthcare": "pharmacy", "survey:date": "2023-01-11"}}, {"type": "node", "id": 10676766807, "lat": 44.8102999, "lon": 20.4594019, "tags": {"amenity": "pharmacy", "check_date": "2025-05-26", "healthcare": "pharmacy", "int_name": "Apoteka Beograd", "name": "\u0410\u043f\u043e\u0442\u0435\u043a\u0430 \u0411\u0435\u043e\u0433\u0440\u0430\u0434", "name:sr-Latn": "Apoteka Beograd", "opening_hours": "Mo-Fr 08:00-20:00; Sa 08:00-17:00", "wheelchair": "limited"}}, {"type": "node", "id": 10684437598, "lat": 44.8148435, "lon": 20.4595727, "tags": {"amenity": "pharmacy", "brand": "\u041a\u0440\u0448\u0435\u043d\u043a\u043e\u0432\u0438\u045b", "brand:wikidata": "Q132782214", "check_date": "2025-06-17", "drive_through": "no", "healthcare": "pharmacy", "int_name": "Krsenkovic", "name": "\u041a\u0440\u0448\u0435\u043d\u043a\u043e\u0432\u0438\u045b", "name:sr": "\u041a\u0440\u0448\u0435\u043d\u043a\u043e\u0432\u0438\u045b", "name:sr-Latn": "Kr\u0161enkovi\u0107"}}, {"type": "node", "id": 10684437602, "lat": 44.816181, "lon": 20.4575738, "tags": {"amenity": "pharmacy", "healthcare": "pharmacy", "int_name": "Lea", "name": "\u041b\u0435\u0430", "name:sr": "\u041b\u0435\u0430", "name:sr-Latn": "Lea", "opening_hours": "Mo-Fr 08:00-21:00; Sa 09:00-21:00; Su 09:00-15:00", "phone": "+381 11 7496492"}}, {"type": "node", "id": 10759926832, "lat": 44.8199906, "lon": 20.454569, "tags": {"addr:floor": "B", "amenity": "pharmacy", "brand": "Benu", "brand:wikidata": "Q62562792", "check_date": "2024-08-23", "healthcare": "pharmacy", "level": "-1", "name": "Benu"}}, {"type": "node", "id": 10781811655, "lat": 44.7189273, "lon": 20.4514843, "tags": {"addr:housenumber": "21", "addr:street": "\u0408\u043e\u0441\u0438\u043f\u0430 \u0422\u0435\u043b\u0430\u0440\u0435\u0432\u0438\u045b\u0430", "amenity": "pharmacy", "healthcare": "pharmacy", "name": "Meduza 4", "opening_hours": "Mo-Fr 07:30-21:00; Sa 08:00-20:00; Su 08:00-14:00 open"}}, {"type": "node", "id": 10787166515, "lat": 44.7909522, "lon": 20.2708828}, {"type": "node", "id": 10823664623, "lat": 44.7646619, "lon": 20.4830628, "tags": {"amenity": "pharmacy", "healthcare": "pharmacy", "name": "Apotekamo", "name:sr": "\u0410\u043f\u043e\u0442\u0435\u043a\u0430\u043c\u043e", "name:sr-Latn": "Apotekamo", "opening_hours": "Mo-Fr 08:00-21:00; Sa 08:00-15:30"}}, {"type": "node", "id": 10823680117, "lat": 44.7651099, "lon": 20.4822173, "tags": {"amenity": "pharmacy", "brand": "Benu", "brand:wikidata": "Q62562792", "healthcare": "pharmacy", "name": "Benu", "opening_hours": "Mo-Fr 08:00-21:00; Sa-Su 08:00-15:00"}}, {"type": "node", "id": 10895884375, "lat": 44.7704033, "lon": 20.478277, "tags": {"amenity": "pharmacy", "healthcare": "pharmacy"}}, {"type": "node", "id": 10905612650, "lat": 44.8046034, "lon": 20.4558153, "tags": {"addr:housenumber": "14", "addr:street": "\u0421\u0430\u0440\u0430\u0458\u0435\u0432\u0441\u043a\u0430", "amenity": "pharmacy", "check_date": "2025-10-05", "check_date:opening_hours": "2024-12-25", "healthcare": "pharmacy", "level": "0", "name": "Hygia", "opening_hours": "Mo-Fr 08:00-21:00; Sa 08:00-16:00; PH off", "payment:cash": "yes", "payment:contactless": "yes", "payment:credit_cards": "yes", "payment:debit_cards": "yes", "wheelchair": "limited"}}, {"type": "node", "id": 10905612651, "lat": 44.8052364, "lon": 20.4566785, "tags": {"amenity": "pharmacy", "brand": "Dr. Max", "brand:wikidata": "Q56317371", "check_date:opening_hours": "2024-12-25", "healthcare": "pharmacy", "level": "0", "name": "Dr. Max", "opening_hours": "Mo-Fr 07:30-20:00; Sa 08:00-15:00; PH closed", "wheelchair": "no"}}, {"type": "node", "id": 10905612653, "lat": 44.8023637, "lon": 20.4532199, "tags": {"addr:housenumber": "44", "addr:street": "\u0421\u0430\u0440\u0430\u0458\u0435\u0432\u0441\u043a\u0430", "amenity": "pharmacy", "check_date": "2024-12-28", "check_date:opening_hours": "2024-12-28", "healthcare": "pharmacy", "level": "0", "name": "Bella", "opening_hours": "Mo-Fr 07:00-21:00; PH off; Sa 08:00-18:00; Su 08:00-15:00", "payment:cash": "yes", "payment:contactless": "yes", "payment:credit_cards": "yes", "payment:debit_cards": "yes", "wheelchair": "limited"}}, {"type": "node", "id": 10929151754, "lat": 44.7717307, "lon": 20.4775114, "tags": {"amenity": "pharmacy", "brand": "Dr. Max", "brand:wikidata": "Q56317371", "healthcare": "pharmacy", "name": "Dr. Max"}}, {"type": "node", "id": 10935475073, "lat": 44.729312, "lon": 20.3706761, "tags": {"amenity": "pharmacy", "healthcare": "pharmacy"}}, {"type": "node", "id": 11056686044, "lat": 44.7399358, "lon": 20.416429, "tags": {"amenity": "pharmacy", "brand": "Benu", "brand:wikidata": "Q62562792", "healthcare": "pharmacy", "name": "Benu"}}, {"type": "node", "id": 11084298343, "lat": 44.8458485, "lon": 20.3958218, "tags": {"addr:housenumber": "50", "addr:street": "\u0413\u043e\u0440\u045a\u043e\u0433\u0440\u0430\u0434\u0441\u043a\u0430", "amenity": "pharmacy", "healthcare": "pharmacy", "name": "Stankovic", "opening_hours": "Mo-Sa 08:00-20:00; Su 09:00-13:00"}}, {"type": "node", "id": 11096521779, "lat": 44.9062057, "lon": 20.2742523, "tags": {"amenity": "pharmacy"}}, {"type": "node", "id": 11130975623, "lat": 44.8156571, "lon": 20.4618604, "tags": {"amenity": "pharmacy", "check_date": "2025-09-03", "healthcare": "pharmacy", "level": "0", "name": "Super Dr. Max", "opening_hours": "08:00-21:00", "payment:cash": "yes", "payment:credit_cards": "yes", "payment:debit_cards": "yes", "phone": "+381 62 8012642"}}, {"type": "node", "id": 11152851574, "lat": 44.7480042, "lon": 20.4300033, "tags": {"addr:housenumber": "189", "addr:street": "\u0420\u0430\u0442\u043a\u0430 \u041c\u0438\u0442\u0440\u043e\u0432\u0438\u045b\u0430", "amenity": "pharmacy", "dispensing": "yes", "drive_through": "no", "email": "prima.filmskigrad@primax.rs", "healthcare": "pharmacy", "level": "0", "mobile": "+381 64 88 98 116", "name": "Prima", "opening_hours": "Mo-Su 07:00-22:00", "phone": "+381 11 239 04 04", "website": "https://primax.rs"}}, {"type": "node", "id": 11181938584, "lat": 44.7482734, "lon": 20.4311188, "tags": {"addr:housenumber": "31\u0430", "addr:street": "\u041a\u043d\u0435\u0437\u0430 \u0412\u0438\u0448\u0435\u0441\u043b\u0430\u0432\u0430", "amenity": "pharmacy", "drive_through": "no", "healthcare": "pharmacy", "name": "Alba Graeca"}}, {"type": "node", "id": 11181982455, "lat": 44.7776269, "lon": 20.4147075, "tags": {"addr:housenumber": "67\u0430", "addr:street": "\u041f\u043e\u0436\u0435\u0448\u043a\u0430", "amenity": "pharmacy", "brand": "Dr. Max", "brand:wikidata": "Q56317371", "drive_through": "no", "healthcare": "pharmacy", "name": "Dr. Max", "opening_hours": "Mo-Fr 07:30-20:30; Sa 08:30-17:00; Su 08:00-15:00"}}, {"type": "node", "id": 11189794658, "lat": 44.7479837, "lon": 20.429621, "tags": {"addr:street": "\u0420\u0430\u0442\u043a\u0430 \u041c\u0438\u0442\u0440\u043e\u0432\u0438\u045b\u0430", "amenity": "pharmacy", "branch": "20", "dispensing": "yes", "drive_through": "no", "email": "vidikovac@oazazdravlja.rs", "healthcare": "pharmacy", "int_name": "Oaza zdravlja", "mobile": "+381 63 860 14 20", "name": "\u041e\u0430\u0437\u0430 \u0437\u0434\u0440\u0430\u0432\u0459\u0430", "name:sr-Latn": "Oaza zdravlja", "opening_hours": "Mo-Fr 07:30-20:30; Sa 08:00-17:00; Su 08:00-14:00", "phone": "+381 11 231 07 12", "website": "https://www.oazazdravlja.rs"}}, {"type": "node", "id": 11196361639, "lat": 44.8278472, "lon": 20.4006018, "tags": {"addr:city": "\u041d\u043e\u0432\u0438 \u0411\u0435\u043e\u0433\u0440\u0430\u0434", "addr:housenumber": "67", "addr:postcode": "11070", "addr:street": "\u041f\u0430\u0440\u0438\u0441\u043a\u0435 \u043a\u043e\u043c\u0443\u043d\u0435", "amenity": "pharmacy", "healthcare": "pharmacy", "name": "Ignjatovi\u0107", "opening_hours": "Mo-Fr 08:30-20:00; Sa 08:30-15:30"}}, {"type": "node", "id": 11211224184, "lat": 44.7767075, "lon": 20.4085777, "tags": {"addr:housenumber": "3", "addr:street": "\u041b\u0430\u0437\u0430\u0440\u0435\u0432\u0430\u0447\u043a\u0438 \u0434\u0440\u0443\u043c", "amenity": "pharmacy", "dispensing": "yes", "drive_through": "no", "email": "apoteka.padina@apotekeivancic.rs", "healthcare": "pharmacy", "int_name": "Ivancic i sin", "name": "\u0418\u0432\u0430\u043d\u0447\u0438\u045b \u0438 \u0441\u0438\u043d", "name:sr": "\u0418\u0432\u0430\u043d\u0447\u0438\u045b \u0438 \u0441\u0438\u043d", "name:sr-Latn": "Ivan\u010di\u0107 i sin", "opening_hours": "Mo-Fr 08:00-20:00; Sa 09:00-17:00", "phone": "+381 11 3547221", "website": "https://apotekeivancic.rs"}}, {"type": "node", "id": 11248556137, "lat": 44.7767056, "lon": 20.4746046, "tags": {"amenity": "pharmacy", "healthcare": "pharmacy", "name": "Livada", "website": "https://apotekalivada.rs/"}}, {"type": "node", "id": 11248607438, "lat": 44.7784769, "lon": 20.473388, "tags": {"amenity": "pharmacy", "healthcare": "pharmacy"}}, {"type": "node", "id": 11248716343, "lat": 44.7721373, "lon": 20.4774894, "tags": {"amenity": "pharmacy", "healthcare": "pharmacy", "name:en": "Apoteka Laurus"}}, {"type": "node", "id": 11304341448, "lat": 44.8421664, "lon": 20.4136566}, {"type": "node", "id": 11307421569, "lat": 44.7621112, "lon": 20.4843447, "tags": {"amenity": "pharmacy", "healthcare": "pharmacy", "int_name": "Neofarm", "name": "\u041d\u0435\u043e\u0444\u0430\u0440\u043c"}}, {"type": "node", "id": 11307426469, "lat": 44.7625618, "lon": 20.4847344, "tags": {"amenity": "pharmacy", "healthcare": "pharmacy", "int_name": "Mala ruska", "name": "\u041c\u0430\u043b\u0430 \u0440\u0443\u0441\u043a\u0430", "name:sr-Latn": "Mala ruska", "opening_hours": "Mo-Fr 08:00-20:00; Sa 08:00-15:00", "website": "https://www.malaruska.com/"}}, {"type": "node", "id": 11307438571, "lat": 44.768568, "lon": 20.479732, "tags": {"amenity": "pharmacy", "healthcare": "pharmacy", "name:en": "Hatra"}}, {"type": "node", "id": 11310216867, "lat": 44.8445409, "lon": 20.3940423, "tags": {"addr:housenumber": "11a", "addr:street": "\u0413\u043e\u0440\u045a\u043e\u0433\u0440\u0430\u0434\u0441\u043a\u0430", "amenity": "pharmacy", "healthcare": "pharmacy", "int_name": "Nada II", "name": "\u041d\u0430\u0434\u0430 II", "opening_hours": "Mo-Fr 07:30-20:30; Sa 08:00-20:00; Su 08:30-15:00"}}, {"type": "node", "id": 11331990908, "lat": 44.845392, "lon": 20.411507, "tags": {"addr:city": "\u0417\u0435\u043c\u0443\u043d", "addr:housenumber": "10", "addr:postcode": "11080", "addr:street": "\u0417\u043c\u0430\u0458 \u0408\u043e\u0432\u0438\u043d\u0430", "amenity": "pharmacy", "healthcare": "pharmacy", "int_name": "Biofarm", "name": "\u0411\u0438\u043e\u0444\u0430\u0440\u043c"}}, {"type": "node", "id": 11343258669, "lat": 44.792842, "lon": 20.5052193, "tags": {"amenity": "pharmacy", "check_date": "2025-09-27", "healthcare": "pharmacy", "name": "Ruska biljna apoteka"}}, {"type": "node", "id": 11365772561, "lat": 44.7935756, "lon": 20.4533432}, {"type": "node", "id": 11365772562, "lat": 44.7935808, "lon": 20.4533499}, {"type": "node", "id": 11365772563, "lat": 44.7935827, "lon": 20.4533541}, {"type": "node", "id": 11365772564, "lat": 44.7935847, "lon": 20.4533583}, {"type": "node", "id": 11365772565, "lat": 44.7935868, "lon": 20.4533675}, {"type": "node", "id": 11365772566, "lat": 44.7935872, "lon": 20.4533772}, {"type": "node", "id": 11365772567, "lat": 44.7935859, "lon": 20.4533868}, {"type": "node", "id": 11365772568, "lat": 44.7935685, "lon": 20.4534362}, {"type": "node", "id": 11365789269, "lat": 44.7935295, "lon": 20.4534113}, {"type": "node", "id": 11365789271, "lat": 44.7935555, "lon": 20.4533303}, {"type": "node", "id": 11365789272, "lat": 44.7935372, "lon": 20.4533873}, {"type": "node", "id": 11371475649, "lat": 44.7475432, "lon": 20.4297796, "tags": {"addr:housenumber": "142", "addr:street": "\u041a\u043d\u0435\u0437\u0430 \u0412\u0438\u0448\u0435\u0441\u043b\u0430\u0432\u0430", "amenity": "pharmacy", "branch": "506", "brand": "Benu", "brand:wikidata": "Q62562792", "dispensing": "yes", "drive_through": "no", "healthcare": "pharmacy", "name": "Benu", "opening_hours": "Mo-Fr 08:00-20:30, Sa-Su 08:00-15:00"}}, {"type": "node", "id": 11381436653, "lat": 44.7484091, "lon": 20.4296473, "tags": {"addr:housenumber": "187", "addr:street": "\u0420\u0430\u0442\u043a\u0430 \u041c\u0438\u0442\u0440\u043e\u0432\u0438\u045b\u0430", "amenity": "pharmacy", "dispensing": "yes", "drive_through": "no", "email": "ratkamitrovica@galenpharm.com", "healthcare": "pharmacy", "mobile": "+381 66 8820858", "name": "Galen Pharm", "opening_hours": "Mo-Fr 08:00-21:00, Sa 08:00-20:00, Su 08:00-14:00", "phone": "+381 11 2310134", "website": "https://www.galenpharm.com/"}}, {"type": "node", "id": 11392262286, "lat": 44.817109, "lon": 20.4586864, "tags": {"amenity": "pharmacy", "check_date": "2025-09-08"}}, {"type": "node", "id": 11392262288, "lat": 44.8168426, "lon": 20.4590167, "tags": {"amenity": "pharmacy", "healthcare": "pharmacy", "name": "Maelia"}}, {"type": "node", "id": 11411031139, "lat": 44.7695107, "lon": 20.4901349, "tags": {"addr:city": "\u0411\u0435\u043e\u0433\u0440\u0430\u0434", "addr:housenumber": "32", "addr:street": "\u041c\u0435\u0448\u0442\u0440\u043e\u0432\u0438\u045b\u0435\u0432\u0430", "amenity": "pharmacy", "drive_through": "no", "email": "zuasunce@gmail.com", "healthcare": "pharmacy", "mobile": "+381 60 4242 708", "name": "\u0421\u0443\u043d\u0446\u0435 6", "name:en": "Sunce 6", "name:sr": "\u0421\u0443\u043d\u0446\u0435 6", "opening_hours": "Mo-Fr 07:00-20:00; Sa 08:00-12:00; Su 08:00-14:00", "operator": "\u0410\u043f\u043e\u0442\u0435\u043a\u0430\u0440\u0441\u043a\u0430 \u0443\u0441\u0442\u0430\u043d\u043e\u0432\u0430 \u201e\u0421\u0443\u043d\u0446\u0435\u201d", "phone": "+381 11 3962 627", "website": "https://www.apotekasunce.rs/sr/o-nama"}}, {"type": "node", "id": 11418117530, "lat": 44.7739177, "lon": 20.4101971, "tags": {"addr:housenumber": "10", "addr:street": "\u0422\u043e\u0448\u0435 \u0408\u043e\u0432\u0430\u043d\u043e\u0432\u0438\u045b\u0430", "amenity": "pharmacy", "branch": "498", "brand": "Benu", "brand:wikidata": "Q62562792", "dispensing": "yes", "drive_through": "no", "email": "tosejovanovica498@benu.rs", "healthcare": "pharmacy", "name": "Benu", "opening_hours": "Mo-Fr 08:00-21:00; Sa 08:00-16:00", "phone": "+381 64 8441889"}}, {"type": "node", "id": 11421785263, "lat": 44.754336, "lon": 20.4243653, "tags": {"amenity": "pharmacy", "brand": "Dr. Max", "brand:wikidata": "Q56317371", "dispensing": "yes", "drive_through": "no", "healthcare": "pharmacy", "mobile": "+381 63 268150", "name": "Dr. Max", "opening_hours": "Mo-Fr 08:00-21:00; Sa 08:00-21:00; Su 08:00-14:00", "phone": "+381 11 2393237", "website": "https://www.drmax.rs/"}}, {"type": "node", "id": 11436676728, "lat": 44.8030674, "lon": 20.453569, "tags": {"amenity": "pharmacy", "brand": "Benu", "brand:wikidata": "Q62562792", "check_date": "2023-12-21", "healthcare": "pharmacy", "level": "-1", "name": "Benu", "opening_hours": "Mo-Sa 08:00-21:00; Su 08:00-15:00", "payment:cash": "yes", "payment:contactless": "yes", "payment:credit_cards": "yes", "payment:debit_cards": "yes", "wheelchair": "no"}}, {"type": "node", "id": 11446255951, "lat": 44.8037068, "lon": 20.4663868, "tags": {"addr:housenumber": "43", "addr:street": "\u041a\u0440\u0430\u0459\u0430 \u041c\u0438\u043b\u0430\u043d\u0430", "amenity": "pharmacy", "check_date": "2025-05-25", "healthcare": "pharmacy", "name": "Prima", "opening_hours": "Mo-Sa 08:00-22:00; Su 10:00-17:00", "payment:cash": "yes", "payment:contactless": "yes", "payment:credit_cards": "yes", "payment:debit_cards": "yes", "wheelchair": "no"}}, {"type": "node", "id": 11446255959, "lat": 44.8034826, "lon": 20.4694755, "tags": {"addr:housenumber": "31b", "addr:street": "\u040a\u0435\u0433\u043e\u0448\u0435\u0432\u0430", "amenity": "pharmacy", "brand": "Benu", "brand:wikidata": "Q62562792", "check_date": "2023-12-23", "healthcare": "pharmacy", "name": "Benu", "opening_hours": "Mo-Sa 08:00-22:00; Su 08:00-15:00", "payment:cash": "yes", "payment:contactless": "yes", "payment:credit_cards": "yes", "payment:debit_cards": "yes", "wheelchair": "no"}}, {"type": "node", "id": 11451656005, "lat": 44.7598385, "lon": 20.4145479, "tags": {"addr:housenumber": "26", "addr:street": "\u0422\u0440\u0433\u043e\u0432\u0430\u0447\u043a\u0430", "amenity": "pharmacy", "dispensing": "yes", "drive_through": "no", "healthcare": "pharmacy", "int_name": "Zarkovo", "name": "\u0416\u0430\u0440\u043a\u043e\u0432\u043e", "name:sr": "\u0416\u0430\u0440\u043a\u043e\u0432\u043e", "name:sr-Latn": "\u017darkovo", "opening_hours": "Mo-Fr 08:00-16:00", "operator": "\u0410\u043f\u043e\u0442\u0435\u043a\u0430 \u0411\u0435\u043e\u0433\u0440\u0430\u0434", "phone": "+381 11 2500 752;+381 11 6304 512", "website": "https://apotekabeograd.co.rs"}}, {"type": "node", "id": 11459799877, "lat": 44.7500869, "lon": 20.4354662, "tags": {"addr:housenumber": "77a", "addr:street": "\u041b\u0443\u043a\u0435 \u0412\u043e\u0458\u0432\u043e\u0434\u0438\u045b\u0430", "amenity": "pharmacy", "brand": "Dr. Max", "brand:wikidata": "Q56317371", "dispensing": "yes", "drive_through": "no", "healthcare": "pharmacy", "name": "Dr. Max", "opening_hours": "Mo-Fr 08:00-20:30; Sa 08:00-17:00; Su 08:00-14:00", "phone": "+381 11 6301506"}}, {"type": "node", "id": 11466025632, "lat": 44.7712476, "lon": 20.4173279, "tags": {"amenity": "pharmacy", "healthcare": "pharmacy", "name": "Bo\u0161kovi\u0107 Farm"}}, {"type": "node", "id": 11475955210, "lat": 44.7732769, "lon": 20.4166251, "tags": {"amenity": "pharmacy", "dispensing": "yes", "drive_through": "no", "healthcare": "pharmacy", "name": "Montiva", "name:sr": "\u041c\u043e\u043d\u0442\u0438\u0432\u0430", "name:sr-Latn": "Montiva"}}, {"type": "node", "id": 11508488157, "lat": 44.8124769, "lon": 20.4609174, "tags": {"amenity": "pharmacy", "drive_through": "no", "healthcare": "pharmacy", "name": "Maelia", "opening_hours": "24/7", "phone": "+381 800 444555"}}, {"type": "node", "id": 11519716569, "lat": 44.833889, "lon": 20.409125, "tags": {"amenity": "pharmacy", "healthcare": "pharmacy", "int_name": "Fili", "name": "\u0424\u0438\u043b\u0438", "name:en": "Filly", "name:sr": "\u0424\u0438\u043b\u0438", "opening_hours": "Mo-Fr 07:00-20:00; Sa 08:00-20:00; Su 08:00-13:00"}}, {"type": "node", "id": 11521399869, "lat": 44.8342044, "lon": 20.4088091, "tags": {"amenity": "pharmacy", "name": "\u0410\u043b\u0442\u0438\u043e\u0440\u0430 \u04107", "name:en": "Altiora A7", "opening_hours": "Mo-Fr 08:00-21:00; Sa 08:00-18:00; Su 09:00-14:00", "phone": "0648772720"}}, {"type": "node", "id": 11540007636, "lat": 44.7840921, "lon": 20.5194622, "tags": {"amenity": "pharmacy", "check_date": "2025-08-31", "healthcare": "pharmacy"}}, {"type": "node", "id": 11572450179, "lat": 44.8116152, "lon": 20.4762147, "tags": {"amenity": "pharmacy", "brand": "Dr. Max", "brand:wikidata": "Q56317371", "healthcare": "pharmacy", "name": "Dr. Max", "opening_hours": "Mo-Fr 08:00-21:00; Sa 08:00-20:00; Su off"}}, {"type": "node", "id": 11581896564, "lat": 44.8130921, "lon": 20.4287604, "tags": {"amenity": "pharmacy", "drive_through": "no", "healthcare": "pharmacy", "name": "Filly", "opening_hours": "Mo-Fr 08:00-21:00; Sa 08:00-17:00; Su 08:00-13:00"}}, {"type": "node", "id": 11585368828, "lat": 44.8139254, "lon": 20.4602761, "tags": {"amenity": "pharmacy", "check_date": "2025-09-03", "drive_through": "no", "healthcare": "pharmacy", "name": "Maelia", "operator": "Maelia"}}, {"type": "node", "id": 11585368833, "lat": 44.8144047, "lon": 20.4605855, "tags": {"amenity": "pharmacy", "check_date": "2025-06-17", "healthcare": "pharmacy", "int_name": "Apoteka Beograd", "name": "\u0410\u043f\u043e\u0442\u0435\u043a\u0430 \u0411\u0435\u043e\u0433\u0440\u0430\u0434", "name:sr": "\u0410\u043f\u043e\u0442\u0435\u043a\u0430 \u0411\u0435\u043e\u0433\u0440\u0430\u0434", "name:sr-Latn": "Apoteka Beograd", "operator": "\u0410\u043f\u043e\u0442\u0435\u043a\u0430 \u0411\u0435\u043e\u0433\u0440\u0430\u0434"}}, {"type": "node", "id": 11590107463, "lat": 44.8155119, "lon": 20.4604167, "tags": {"amenity": "pharmacy", "check_date": "2024-09-25", "healthcare": "pharmacy", "name": "Maelia", "opening_hours": "24/7", "wheelchair": "limited"}}, {"type": "node", "id": 11591421145, "lat": 44.8155757, "lon": 20.4653514, "tags": {"amenity": "pharmacy", "brand": "Dr. Max", "brand:wikidata": "Q56317371", "healthcare": "pharmacy", "name": "Dr. Max", "opening_hours": "Mo-Fr 08:00-21:00; Sa 10:00-19:00", "wheelchair": "limited"}}, {"type": "node", "id": 11659953770, "lat": 44.8816974, "lon": 20.4556877, "tags": {"amenity": "pharmacy", "check_date": "2024-02-24", "healthcare": "pharmacy", "name": "Julija Nova", "opening_hours": "Mo-Sa 07:30-21:00; Su 08:00-17:00"}}, {"type": "node", "id": 11734251172, "lat": 44.8037998, "lon": 20.4529679, "tags": {"amenity": "pharmacy", "check_date": "2023-12-23", "healthcare": "pharmacy", "wheelchair": "no"}}, {"type": "node", "id": 11736809462, "lat": 44.8007393, "lon": 20.4568973, "tags": {"amenity": "pharmacy", "healthcare": "pharmacy", "name": "Sunce"}}, {"type": "node", "id": 11737939160, "lat": 44.8154386, "lon": 20.4769801, "tags": {"amenity": "pharmacy", "opening_hours": "Mo-Fr 08:00-20:30; Sa 09:00-14:30"}}, {"type": "node", "id": 11750461347, "lat": 44.784832, "lon": 20.5176809, "tags": {"amenity": "pharmacy", "check_date": "2024-03-21", "healthcare": "pharmacy", "name": "Integra"}}, {"type": "node", "id": 11765452167, "lat": 44.8075335, "lon": 20.4565938, "tags": {"amenity": "pharmacy", "healthcare": "pharmacy", "name": "Prima I", "opening_hours": "24/7", "wheelchair": "no"}}, {"type": "node", "id": 11805272143, "lat": 44.7991236, "lon": 20.4884181, "tags": {"amenity": "pharmacy", "check_date": "2024-04-09", "healthcare": "pharmacy", "name": "Baofarm", "opening_hours": "Mo-Fr 07:30-20:30; Sa 07:30-17:00; Su off", "wheelchair": "limited"}}, {"type": "node", "id": 11835041958, "lat": 44.7994862, "lon": 20.4891034, "tags": {"amenity": "pharmacy", "check_date": "2024-04-21", "healthcare": "pharmacy"}}, {"type": "node", "id": 11860335434, "lat": 44.8771333, "lon": 20.451032, "tags": {"amenity": "pharmacy", "check_date": "2024-04-24", "healthcare": "pharmacy", "name": "Betty Apoteka Nada", "opening_hours": "Mo-Fr 08:00-20:00; Sa 08:00-16:00; Su 08:00-14:00"}}, {"type": "node", "id": 11887128043, "lat": 44.7754185, "lon": 20.4133713, "tags": {"addr:housenumber": "138", "addr:street": "\u041f\u043e\u0436\u0435\u0448\u043a\u0430", "amenity": "pharmacy", "dispensing": "yes", "drive_through": "no", "healthcare": "pharmacy", "name": "Maelia", "opening_hours": "Mo-Su 08:00-22:00", "payment:cards": "yes", "payment:cash": "yes", "phone": "0800 444 555", "website": "https://maelia.rs"}}, {"type": "node", "id": 11888400562, "lat": 44.773424, "lon": 20.4196937, "tags": {"amenity": "pharmacy", "drive_through": "no", "healthcare": "pharmacy", "name": "Meduza 7"}}, {"type": "node", "id": 11893440400, "lat": 44.7925384, "lon": 20.5055031, "tags": {"addr:city": "\u0411\u0435\u043e\u0433\u0440\u0430\u0434", "addr:housenumber": "4", "addr:postcode": "11000", "addr:street": "\u0416\u0438\u0432\u043a\u0430 \u0414\u0430\u0432\u0438\u0434\u043e\u0432\u0438\u045b\u0430", "amenity": "pharmacy", "brand": "Benu", "brand:wikidata": "Q62562792", "dispensing": "yes", "drive_through": "no", "email": "bgzivkadavidovica366@benu.rs", "healthcare": "pharmacy", "name": "Benu", "opening_hours": "Mo-Fr 07:00-20:30; Sa 08:00-20:00; Su 08:00-14:00", "phone": "+381 11 3806352"}}, {"type": "node", "id": 11913876870, "lat": 44.8180759, "lon": 20.3838662, "tags": {"amenity": "pharmacy", "brand": "Benu", "brand:wikidata": "Q62562792", "check_date": "2024-06-10", "healthcare": "pharmacy", "internet_access": "no", "level": "0", "name": "Benu", "opening_hours": "Mo-Sa 08:00-21:00; Su 08:00-18:00", "payment:cash": "yes", "payment:credit_cards": "yes", "payment:debit_cards": "yes", "phone": "+381 11 2288772", "wheelchair": "yes"}}, {"type": "node", "id": 11925719085, "lat": 44.9003301, "lon": 20.2801182, "tags": {"amenity": "pharmacy", "brand": "Dr. Max", "brand:wikidata": "Q56317371", "healthcare": "pharmacy", "name": "Dr. Max", "opening_hours": "Mo-Fr 07:30-20:00; Sa 08:00-15:00"}}, {"type": "node", "id": 11933979670, "lat": 44.654558, "lon": 20.1994329, "tags": {"amenity": "pharmacy", "check_date": "2024-05-23", "healthcare": "pharmacy"}}, {"type": "node", "id": 11937042332, "lat": 44.8015495, "lon": 20.3948773, "tags": {"addr:floor": "0", "addr:housenumber": "81", "addr:street": "\u0408\u0443\u0440\u0438\u0458\u0430 \u0413\u0430\u0433\u0430\u0440\u0438\u043d\u0430", "amenity": "pharmacy", "brand": "Benu", "brand:wikidata": "Q62562792", "check_date": "2024-05-28", "healthcare": "pharmacy", "internet_access": "no", "name": "Benu", "opening_hours": "Mo-Fr 07:30-21:00; Sa 08:00-16:00; Su 08:00-14:00", "payment:cash": "yes", "payment:credit_cards": "yes", "payment:debit_cards": "yes", "wheelchair": "limited"}}, {"type": "node", "id": 11937070555, "lat": 44.8014823, "lon": 20.3947335, "tags": {"addr:floor": "0", "addr:housenumber": "81", "addr:street": "\u0408\u0443\u0440\u0438\u0458\u0430 \u0413\u0430\u0433\u0430\u0440\u0438\u043d\u0430", "amenity": "pharmacy", "check_date": "2024-05-28", "healthcare": "pharmacy", "name": "Esensa", "opening_hours": "Mo-Fr 08:00-20:30; Sa 08:00-16:00; Su 08:00-14:00", "wheelchair": "no"}}, {"type": "node", "id": 11948173872, "lat": 44.8008502, "lon": 20.4023239, "tags": {"amenity": "pharmacy", "check_date": "2025-09-04", "healthcare": "pharmacy", "name": "Benu", "opening_hours": "Mo-Fr 08:00-20:30; Sa 08:00-17:00; Su 08:00-14:00"}}, {"type": "node", "id": 11982163241, "lat": 44.8827347, "lon": 20.4547192, "tags": {"amenity": "pharmacy", "check_date": "2024-06-14", "healthcare": "pharmacy", "name": "Altea", "opening_hours": "Mo-Fr 08:00-21:00; Sa 08:00-18:00; Su 08:00-15:00"}}, {"type": "node", "id": 11982163245, "lat": 44.8825384, "lon": 20.454996, "tags": {"addr:housenumber": "71", "addr:street": "\u0411\u0440\u0430\u0442\u0441\u0442\u0432\u0430 \u0438 \u0458\u0435\u0434\u0438\u043d\u0441\u0442\u0432\u0430", "amenity": "pharmacy", "check_date": "2024-06-14", "healthcare": "pharmacy", "name": "Aloja", "opening_hours": "Mo-Fr 08:00-21:00; Sa 08:00-20:00; Su 08:00-15:00"}}, {"type": "node", "id": 11984177788, "lat": 44.8814148, "lon": 20.4533048, "tags": {"addr:housenumber": "44", "addr:street": "\u0411\u0440\u0430\u0442\u0441\u0442\u0432\u0430 \u0438 \u0458\u0435\u0434\u0438\u043d\u0441\u0442\u0432\u0430", "amenity": "pharmacy", "check_date": "2024-06-15", "healthcare": "pharmacy", "name": "Ceca Lek", "opening_hours": "Mo-Sa 08:00-23:00; Su 08:00-16:00", "operator": "Svetlana Markovi\u0107 PR"}}, {"type": "node", "id": 12002693776, "lat": 44.784376, "lon": 20.5180116, "tags": {"amenity": "pharmacy", "check_date": "2024-06-23", "healthcare": "pharmacy", "name": "Radosavljevi\u0107 Plus", "opening_hours": "Mo-Sa 08:00-20:00; Su off", "wheelchair": "no"}}, {"type": "node", "id": 12027905023, "lat": 44.7606886, "lon": 20.47748, "tags": {"amenity": "pharmacy", "drive_through": "no", "healthcare": "pharmacy", "mapillary": "439261172270765", "name": "Jonex", "name:sr": "\u0408\u043e\u043d\u0435\u043a\u0441", "name:sr-Latn": "Joneks", "opening_hours": "Mo-Fr 08:00-21:00; Sa 09:00-16:00; Su 09:00-13:00"}}, {"type": "node", "id": 12036455014, "lat": 44.8030365, "lon": 20.3988395, "tags": {"amenity": "pharmacy", "check_date": "2025-09-21", "healthcare": "pharmacy", "name": "Markfarm", "opening_hours": "Mo-Fr 08:00-22:00; Sa 08:00-20:00; Su off"}}, {"type": "node", "id": 12036455020, "lat": 44.8030387, "lon": 20.3981832, "tags": {"amenity": "pharmacy", "check_date": "2025-09-21", "healthcare": "pharmacy", "name": "Oaza zdravlja", "name:sr": "\u041e\u0430\u0437\u0430 \u0437\u0434\u0440\u0430\u0432\u0459\u0430"}}, {"type": "node", "id": 12042165139, "lat": 44.8008148, "lon": 20.4020249, "tags": {"amenity": "pharmacy", "check_date": "2025-09-04", "healthcare": "pharmacy", "name": "Laurus", "name:sr": "\u041b\u0430\u0443\u0440\u0443\u0441", "opening_hours": "Mo-Fr 08:00-22:00; Sa-Su 08:00-17:00", "payment:cash": "yes", "payment:credit_cards": "yes", "payment:debit_cards": "yes"}}, {"type": "node", "id": 12042203464, "lat": 44.8005237, "lon": 20.4020642, "tags": {"amenity": "pharmacy", "check_date": "2024-07-08", "healthcare": "pharmacy", "name": "Majana", "name:sr": "\u041c\u0430\u0458\u0430\u043d\u0430"}}, {"type": "node", "id": 12055104021, "lat": 44.7997537, "lon": 20.3651979, "tags": {"amenity": "pharmacy", "check_date": "2024-07-15", "healthcare": "pharmacy", "int_name": "Zivanovic", "name": "\u0416\u0438\u0432\u0430\u043d\u043e\u0432\u0438\u045b", "name:sr": "\u0416\u0438\u0432\u0430\u043d\u043e\u0432\u0438\u045b", "name:sr-Latn": "\u017divanovi\u0107", "opening_hours": "Mo-Fr 08:00-21:00; Sa 08:00-16:00; Su 08:00-13:00"}}, {"type": "node", "id": 12055224038, "lat": 44.759375, "lon": 20.4798857, "tags": {"addr:housenumber": "80", "addr:street": "\u0411\u0443\u043b\u0435\u0432\u0430\u0440 \u043e\u0441\u043b\u043e\u0431\u043e\u0452\u0435\u045a\u0430", "amenity": "pharmacy", "dispensing": "yes", "healthcare": "pharmacy", "int_name": "Apoteka Banjica", "mapillary": "827399639357130", "name": "\u0410\u043f\u043e\u0442\u0435\u043a\u0430 \u0411\u0430\u045a\u0438\u0446\u0430", "name:sr": "\u0410\u043f\u043e\u0442\u0435\u043a\u0430 \u0411\u0430\u045a\u0438\u0446\u0430", "name:sr-Latn": "Apoteka Banjica", "opening_hours": "Mo-Fr 07:00-20:00; Sa 08:00-15:00", "operator": "Apoteka Beograd"}}, {"type": "node", "id": 12064062981, "lat": 44.8975086, "lon": 20.2903603, "tags": {"amenity": "pharmacy", "name": "Pharmacy"}}, {"type": "node", "id": 12066665173, "lat": 44.7981178, "lon": 20.4806262, "tags": {"amenity": "pharmacy", "brand": "Benu", "brand:wikidata": "Q62562792", "healthcare": "pharmacy", "name": "Benu"}}, {"type": "node", "id": 12076507838, "lat": 44.8156456, "lon": 20.4619933, "tags": {"amenity": "pharmacy", "check_date": "2025-09-03", "healthcare": "pharmacy", "level": "0", "name": "Lekofarma", "name:sr": "\u041b\u0435\u043a\u043e\u0444\u0430\u0440\u043c\u0430", "opening_hours": "Mo-Fr 08:00-21:00; Sa 08:00-20:00; Su off"}}, {"type": "node", "id": 12084611113, "lat": 44.7465945, "lon": 20.4294324, "tags": {"addr:housenumber": "49", "addr:street": "\u041a\u043d\u0435\u0437\u0430 \u0412\u0438\u0448\u0435\u0441\u043b\u0430\u0432\u0430", "amenity": "pharmacy", "dispensing": "yes", "drive_through": "no", "healthcare": "pharmacy", "mobile": "+381 64 8898 100", "name": "Prima", "opening_hours": "Mo-Su 08:00-22:00", "website": "https://primax.rs"}}, {"type": "node", "id": 12090844744, "lat": 44.8758135, "lon": 20.4488948, "tags": {"addr:housenumber": "38b", "addr:street": "\u0411\u0435\u043b\u0435 \u0411\u0430\u0440\u0442\u043e\u043a\u0430", "amenity": "pharmacy", "check_date": "2024-08-03", "healthcare": "pharmacy", "name": "Benu", "opening_hours": "Mo-Fr 08:00-20:00; Sa-Su 08:00-15:00", "phone": "+381 11 3323478"}}, {"type": "node", "id": 12096220936, "lat": 44.8735601, "lon": 20.4598438, "tags": {"addr:housenumber": "20", "addr:street": "\u0418\u0432\u0430\u043d\u0430 \u041c\u0438\u043b\u0443\u0442\u0438\u043d\u043e\u0432\u0438\u045b\u0430", "amenity": "pharmacy", "brand": "Benu", "brand:wikidata": "Q62562792", "check_date": "2024-08-07", "healthcare": "pharmacy", "name": "Benu", "opening_hours": "Mo-Fr 07:30-20:30; Sa-Su 08:00-15:00", "phone": "+381 11 3322996"}}, {"type": "node", "id": 12096220939, "lat": 44.8733124, "lon": 20.4588624, "tags": {"amenity": "pharmacy", "brand": "Dr. Max", "brand:wikidata": "Q56317371", "check_date": "2024-08-07", "healthcare": "pharmacy", "name": "Dr. Max", "opening_hours": "Mo-Sa 08:00-20:00; Su 08:00-15:00", "operator": "AsterFarm d.o.o."}}, {"type": "node", "id": 12096220942, "lat": 44.8730434, "lon": 20.4584143, "tags": {"addr:housenumber": "19", "addr:street": "\u0418\u0432\u0430\u043d\u0430 \u041c\u0438\u043b\u0443\u0442\u0438\u043d\u043e\u0432\u0438\u045b\u0430", "amenity": "pharmacy", "check_date": "2024-08-07", "healthcare": "pharmacy", "name": "Biopharm", "opening_hours": "Mo-Fr 08:00-21:00; Sa-Su 08:00-15:00"}}, {"type": "node", "id": 12096220948, "lat": 44.872582, "lon": 20.4576135, "tags": {"amenity": "pharmacy", "check_date": "2024-08-07", "healthcare": "pharmacy", "name": "Puls", "opening_hours": "Mo-Fr 08:00-20:00; Sa 08:00-15:00"}}, {"type": "node", "id": 12104680250, "lat": 44.8028618, "lon": 20.4486102, "tags": {"amenity": "pharmacy", "check_date": "2024-10-02", "check_date:opening_hours": "2024-10-02", "healthcare": "pharmacy", "name": "Maelia", "opening_hours": "Mo-Su 08:00-23:00"}}, {"type": "node", "id": 12122869007, "lat": 44.8163788, "lon": 20.4660802, "tags": {"addr:housenumber": "10", "addr:street": "\u0426\u0435\u0442\u0438\u045a\u0441\u043a\u0430", "amenity": "pharmacy", "check_date": "2024-08-20", "healthcare": "pharmacy", "level": "0", "name": "Laurus", "opening_hours": "08:00-22:00", "wheelchair": "no"}}, {"type": "node", "id": 12147951072, "lat": 44.8023156, "lon": 20.4639887, "tags": {"amenity": "pharmacy", "brand": "Dr. Max", "brand:wikidata": "Q56317371", "check_date": "2024-08-30", "healthcare": "pharmacy", "name": "Dr. Max"}}, {"type": "node", "id": 12174793170, "lat": 44.7602601, "lon": 20.4758834, "tags": {"addr:city": "\u0411\u0435\u043e\u0433\u0440\u0430\u0434", "addr:housenumber": "4", "addr:street": "\u0421\u0430\u0448\u0435 \u0421\u0438\u043c\u0435\u0443\u043d\u043e\u0432\u0438\u045b\u0430", "amenity": "pharmacy", "dispensing": "yes", "healthcare": "pharmacy", "mapillary": "1721196678644506", "name": "Menta plus 3", "name:sr": "\u041c\u0435\u043d\u0442\u0430 \u043f\u043b\u0443\u0441 3", "name:sr-Latn": "Menta plus 3", "opening_hours": "Mo-Fr 07:00-20:00; Sa 07:00-15:00; Su 07:00-14:00"}}, {"type": "node", "id": 12180377439, "lat": 44.8426331, "lon": 20.4139438, "tags": {"addr:housenumber": "5", "addr:street": "\u0414\u0430\u0432\u0438\u0434\u043e\u0432\u0438\u045b\u0435\u0432\u0430", "amenity": "pharmacy", "brand": "Dr. Max", "brand:wikidata": "Q56317371", "check_date": "2024-09-16", "drive_through": "no", "healthcare": "pharmacy", "level": "0", "name": "Dr. Max", "opening_hours": "Mo-Fr 08:00-20:00; Sa 08:00-15:00; Su off", "payment:cash": "yes", "payment:credit_cards": "yes", "payment:debit_cards": "yes", "wheelchair": "no"}}, {"type": "node", "id": 12192486198, "lat": 44.8014611, "lon": 20.3829739, "tags": {"addr:floor": "G", "amenity": "pharmacy", "check_date": "2024-09-22", "healthcare": "pharmacy", "level": "0", "name": "Fillyfarm", "opening_hours": "Mo,Su 08:00-15:00; Tu-Sa 07:00-16:00", "payment:cash": "yes", "payment:credit_cards": "yes", "payment:debit_cards": "yes", "wheelchair": "no"}}, {"type": "node", "id": 12202228496, "lat": 44.8021154, "lon": 20.4640786, "tags": {"amenity": "pharmacy", "brand": "Dr. Max", "brand:wikidata": "Q56317371", "check_date": "2024-10-01", "healthcare": "pharmacy", "name": "Dr. Max", "opening_hours": "Mo-Fr 08:00-21:00; Sa 08:00-15:00", "wheelchair": "no"}}, {"type": "node", "id": 12206733074, "lat": 44.8279399, "lon": 20.4007024, "tags": {"amenity": "pharmacy", "healthcare": "pharmacy", "name": "Ignjatovi\u0107", "opening_hours": "Mo-Fr 08:00-20:00; Sa 08:00-15:30"}}, {"type": "node", "id": 12218946855, "lat": 44.8124564, "lon": 20.401566, "tags": {"addr:floor": "G", "amenity": "pharmacy", "brand": "Benu", "brand:wikidata": "Q62562792", "check_date": "2025-03-22", "healthcare": "pharmacy", "level": "0", "name": "Benu", "name:sr": "\u0411\u0435\u043d\u0443", "opening_hours": "09:00-22:00", "payment:cash": "yes", "payment:credit_cards": "yes", "payment:debit_cards": "yes", "phone": "+381 64 6431054", "wheelchair": "yes"}}, {"type": "node", "id": 12229744082, "lat": 44.7867547, "lon": 20.4184182, "tags": {"amenity": "pharmacy", "brand": "Galen pharm", "brand:wikidata": "Q132851975", "check_date": "2024-10-06", "healthcare": "pharmacy", "level": "3", "name": "Galen pharm", "name:sr": "\u0413\u0430\u043b\u0435\u043d \u0444\u0430\u0440\u043c", "name:sr-Latn": "Galen farm"}}, {"type": "node", "id": 12229979490, "lat": 44.7875454, "lon": 20.4184288, "tags": {"addr:floor": "G", "amenity": "pharmacy", "check_date": "2024-10-06", "healthcare": "pharmacy", "level": "0", "name": "Super Dr. Max", "name:sr": "\u0421\u0443\u043f\u0435\u0440 \u0434\u0440 \u041c\u0430\u043a\u0441"}}, {"type": "node", "id": 12230067588, "lat": 44.83332, "lon": 20.4111086, "tags": {"amenity": "pharmacy", "brand": "Benu", "brand:wikidata": "Q62562792", "check_date": "2024-10-06", "healthcare": "pharmacy", "name": "Benu"}}, {"type": "node", "id": 12238571708, "lat": 44.816329, "lon": 20.4833192, "tags": {"amenity": "pharmacy", "check_date": "2024-10-06", "healthcare": "pharmacy", "name": "Iris SM", "opening_hours": "Mo-Fr 08:00-21:00; Sa 09:00-19:00; Su 09:00-15:00"}}, {"type": "node", "id": 12238802109, "lat": 44.7080269, "lon": 20.5077679, "tags": {"amenity": "pharmacy", "brand": "Benu", "brand:wikidata": "Q62562792", "check_date": "2024-10-09", "healthcare": "pharmacy", "name": "Benu"}}, {"type": "node", "id": 12272924702, "lat": 44.7918293, "lon": 20.5168008, "tags": {"amenity": "pharmacy", "brand": "Dr. Max", "brand:wikidata": "Q56317371", "healthcare": "pharmacy", "name": "Dr. Max", "opening_hours": "Mo-Fr 08:00-21:00; Sa 08:00-20:00; Su 09:00-15:00"}}, {"type": "node", "id": 12277537001, "lat": 44.8152299, "lon": 20.3742016, "tags": {"amenity": "pharmacy", "healthcare": "pharmacy", "name": "Aqua Flos"}}, {"type": "node", "id": 12291537321, "lat": 44.8139068, "lon": 20.4559978, "tags": {"amenity": "pharmacy", "check_date": "2025-05-22", "healthcare": "pharmacy", "name": "Evalar"}}, {"type": "node", "id": 12297217752, "lat": 44.8058729, "lon": 20.4702961, "tags": {"addr:floor": "G", "addr:housenumber": "50", "addr:street": "\u0411\u0435\u043e\u0433\u0440\u0430\u0434\u0441\u043a\u0430", "amenity": "pharmacy", "brand": "Benu", "brand:wikidata": "Q62562792", "check_date": "2024-10-29", "healthcare": "pharmacy", "level": "0", "name": "Benu"}}, {"type": "node", "id": 12356878609, "lat": 44.8426918, "lon": 20.4140414, "tags": {"addr:city": "\u0417\u0435\u043c\u0443\u043d", "addr:housenumber": "5", "addr:postcode": "11080", "addr:street": "\u0414\u0430\u0432\u0438\u0434\u043e\u0432\u0438\u045b\u0435\u0432\u0430", "amenity": "pharmacy", "healthcare": "pharmacy", "name": "Farmanea Zemun Kej"}}, {"type": "node", "id": 12390068946, "lat": 44.7493717, "lon": 20.4105949}, {"type": "node", "id": 12390068947, "lat": 44.7493377, "lon": 20.4105772}, {"type": "node", "id": 12390068948, "lat": 44.7493197, "lon": 20.4106412}, {"type": "node", "id": 12485856624, "lat": 44.7309169, "lon": 20.4821089, "tags": {"amenity": "pharmacy", "brand": "Benu", "brand:wikidata": "Q62562792", "healthcare": "pharmacy", "name": "Benu", "payment:cards": "yes", "payment:cash": "yes", "payment:debit_cards": "yes", "payment:mastercard": "yes", "payment:notes": "yes", "payment:visa": "yes", "phone": "+381 11 39 44 037", "website": "https://benu.rs/"}}, {"type": "node", "id": 12520798689, "lat": 44.7601929, "lon": 20.4769858, "tags": {"alt_name": "\u041e\u0433\u0440\u0430\u043d\u0430\u043a 20", "amenity": "pharmacy", "dispensing": "yes", "healthcare": "pharmacy", "int_name": "Neofarm", "mapillary": "1322278129090002", "name": "\u041d\u0435\u043e\u0444\u0430\u0440\u043c", "operator": "\u041d\u0435\u043e\u0444\u0430\u0440\u043c"}}, {"type": "node", "id": 12594524362, "lat": 44.7870679, "lon": 20.5036132, "tags": {"amenity": "pharmacy", "brand": "Benu", "brand:wikidata": "Q62562792", "healthcare": "pharmacy", "level": "0", "name": "Benu", "website": "https://benu.rs/"}}, {"type": "node", "id": 12609897626, "lat": 44.8096328, "lon": 20.4320844, "tags": {"addr:housenumber": "9", "addr:street": "\u041c\u0438\u043b\u0435\u043d\u0442\u0438\u0458\u0430 \u041f\u043e\u043f\u043e\u0432\u0438\u045b\u0430", "amenity": "pharmacy", "brand": "Galen pharm", "brand:wikidata": "Q132851975", "check_date": "2025-02-22", "healthcare": "pharmacy", "level": "-1", "name": "Galen pharm", "name:sr": "\u0413\u0430\u043b\u0435\u043d \u0444\u0430\u0440\u043c", "name:sr-Latn": "Galen farm", "opening_hours": "08:00-21:00", "phone": "+381 66 8820850", "website": "https://www.galenpharm.com/"}}, {"type": "node", "id": 12697044476, "lat": 44.7525286, "lon": 20.4552256, "tags": {"amenity": "pharmacy", "healthcare": "pharmacy"}}, {"type": "node", "id": 12739925506, "lat": 44.8423296, "lon": 20.3835804, "tags": {"addr:housenumber": "100", "addr:street": "\u041f\u0440\u0432\u043e\u043c\u0430\u0458\u0441\u043a\u0430", "amenity": "pharmacy", "check_date": "2025-04-08", "healthcare": "pharmacy", "int_name": "Zdravlje Lek 13", "name": "\u0417\u0434\u0440\u0430\u0432\u0459\u0435 \u041b\u0435\u043a 13", "name:sr": "\u0417\u0434\u0440\u0430\u0432\u0459\u0435 \u041b\u0435\u043a 13", "name:sr-Latn": "Zdravlje Lek 13", "opening_hours": "24/7"}}, {"type": "node", "id": 12739925510, "lat": 44.8425363, "lon": 20.3827207, "tags": {"addr:housenumber": "104a", "addr:street": "\u041f\u0440\u0432\u043e\u043c\u0430\u0458\u0441\u043a\u0430", "amenity": "pharmacy", "check_date": "2025-04-08", "healthcare": "pharmacy", "name": "Valerijana", "opening_hours": "Mo-Fr 08:00-21:00; Sa 08:00-15:00; Su 09:00-15:00"}}, {"type": "node", "id": 12766068704, "lat": 44.7982868, "lon": 20.3169691, "tags": {"addr:housenumber": "379a", "addr:street": "\u0412\u043e\u0458\u0432\u043e\u0452\u0430\u043d\u0441\u043a\u0430", "amenity": "pharmacy", "healthcare": "pharmacy", "name": "Maelia", "opening_hours": "Mo-Fr 07:00-21:00; Sa,Su 08:00-15:00"}}, {"type": "node", "id": 12766915819, "lat": 44.8412951, "lon": 20.3894486, "tags": {"amenity": "pharmacy", "check_date": "2025-04-18", "healthcare": "pharmacy", "name": "Fortuna", "opening_hours": "Mo-Fr 08:00-21:00; Sa 08:00-16:00"}}, {"type": "node", "id": 12770979403, "lat": 44.8460433, "lon": 20.4127287, "tags": {"amenity": "pharmacy", "check_date": "2025-04-20", "healthcare": "pharmacy", "name": "Maelia", "opening_hours": "Mo-Fr 07:30-21:00; Sa-Su 08:00-18:00"}}, {"type": "node", "id": 12795999486, "lat": 44.8467471, "lon": 20.3800898, "tags": {"addr:housenumber": "6a", "addr:street": "\u0421\u0440\u0435\u043c\u0441\u043a\u0438\u0445 \u0431\u043e\u0440\u0430\u0446\u0430", "amenity": "pharmacy", "check_date": "2025-04-28", "healthcare": "pharmacy", "name": "Eurolek", "opening_hours": "Mo-Fr 08:30-21:00; Sa-Su 08:30-17:00", "phone": "+381 11 3160627"}}, {"type": "node", "id": 12863319687, "lat": 44.8412154, "lon": 20.3942791, "tags": {"amenity": "pharmacy", "check_date": "2025-05-25", "healthcare": "pharmacy", "name": "Sunce", "opening_hours": "Mo-Fr 07:00-21:00; Sa-Su 08:00-16:00"}}, {"type": "node", "id": 12863319694, "lat": 44.8418927, "lon": 20.3944705, "tags": {"amenity": "pharmacy", "check_date": "2025-05-25", "healthcare": "pharmacy", "name": "Dr. Max", "opening_hours": "Mo-Fr 08:00-19:30; Sa-Su 08:00-14:00", "operator": "AsterFarm d.o.o."}}, {"type": "node", "id": 12863411004, "lat": 44.8412192, "lon": 20.3950427, "tags": {"addr:housenumber": "6d", "addr:street": "\u041f\u0440\u0432\u043e\u043c\u0430\u0458\u0441\u043a\u0430", "amenity": "pharmacy", "check_date": "2025-05-25", "healthcare": "pharmacy", "name": "Molika", "opening_hours": "Mo-Fr 07:30-20:30; Sa-Su 07:30-14:30"}}, {"type": "node", "id": 12863411013, "lat": 44.8412301, "lon": 20.3962252, "tags": {"amenity": "pharmacy", "check_date": "2025-05-25", "healthcare": "pharmacy", "name": "Julija Nova", "opening_hours": "24/7"}}, {"type": "node", "id": 12872020323, "lat": 44.8453336, "lon": 20.3852337, "tags": {"amenity": "pharmacy", "check_date": "2025-05-28", "healthcare": "pharmacy", "name": "Benu"}}, {"type": "node", "id": 12872020327, "lat": 44.8450128, "lon": 20.3873065, "tags": {"amenity": "pharmacy", "check_date": "2025-05-28", "healthcare": "pharmacy", "name": "Baofarm", "opening_hours": "Mo-Fr 07:30-20:30; Sa 07:30-17:00"}}, {"type": "node", "id": 12882819313, "lat": 44.6565857, "lon": 20.2032205, "tags": {"addr:city": "\u041e\u0431\u0440\u0435\u043d\u043e\u0432\u0430\u0446", "addr:housenumber": "84", "addr:street": "\u0412\u0443\u043a\u0430 \u041a\u0430\u0440\u0430\u045f\u0438\u045b\u0430", "amenity": "pharmacy", "brand": "Dr. Max", "brand:wikidata": "Q56317371", "healthcare": "pharmacy", "name": "Dr. Max"}}, {"type": "node", "id": 12888462285, "lat": 44.8024369, "lon": 20.465249, "tags": {"amenity": "pharmacy", "healthcare": "pharmacy", "name": "Benu"}}, {"type": "node", "id": 12974809671, "lat": 44.8369754, "lon": 20.4172648, "tags": {"addr:housenumber": "18", "addr:street": "\u041a\u0430\u0440\u0430\u0452\u043e\u0440\u0452\u0435\u0432 \u0442\u0440\u0433", "amenity": "pharmacy", "check_date": "2025-07-01", "healthcare": "pharmacy", "name": "Zero Pharm", "opening_hours": "Mo-Fr 08:00-21:00; Sa 08:00-16:00"}}, {"type": "node", "id": 12990216509, "lat": 44.8476128, "lon": 20.4856079, "tags": {"addr:housenumber": "1m", "addr:street": "\u0421\u0443\u0442\u0458\u0435\u0441\u043a\u0430 \u0443\u043b\u0438\u0446\u0430 1.", "amenity": "pharmacy", "check_date": "2024-08-13", "contact:email": "office@medxapoteka.rs", "contact:facebook": "https://www.facebook.com/MED-X-APOTEKA-100803361661364/", "contact:mobile": "+381 61 24 57 039", "contact:website": "https://medxapoteka.rs", "dispensing": "yes", "healthcare": "pharmacy", "name": "Med-X", "opening_hours": "Mo-Fr 08:00-20:00; Sa-Su 08:00-15:00", "operator": "Zulfer Bahtijari"}}, {"type": "node", "id": 13021204513, "lat": 44.7992109, "lon": 20.4758813, "tags": {"addr:city": "\u0411\u0435\u043e\u0433\u0440\u0430\u0434", "addr:housenumber": "90", "addr:postcode": "11000", "addr:street": "\u040a\u0435\u0433\u043e\u0448\u0435\u0432\u0430", "amenity": "pharmacy", "brand": "Benu", "brand:wikidata": "Q62562792", "dispensing": "yes", "healthcare": "pharmacy", "name": "Benu", "opening_hours": "Mo-Fr 08:00-20:30; Sa 08:00-16:00; Su 08:00-15:00", "payment:cards": "yes", "payment:cash": "yes", "phone": "+381 11 3836783", "wheelchair": "no"}}, {"type": "node", "id": 13029450652, "lat": 44.7998896, "lon": 20.4760907, "tags": {"addr:city": "\u0411\u0435\u043e\u0433\u0440\u0430\u0434", "addr:place": "Kaleni\u0107 pijaca", "addr:plot": "64", "addr:postcode": "11000", "amenity": "pharmacy", "contact:instagram": "apoteka_bella", "healthcare": "pharmacy", "name": "Bella Pharm", "opening_hours": "Mo-Fr 07:00-21:00; Sa 08:00-18:00; Su off"}}, {"type": "node", "id": 13039510727, "lat": 44.7987838, "lon": 20.4767408, "tags": {"addr:city": "\u0411\u0435\u043e\u0433\u0440\u0430\u0434", "addr:housenumber": "43", "addr:postcode": "11000", "addr:street": "\u041d\u043e\u0432\u043e\u043f\u0430\u0437\u0430\u0440\u0441\u043a\u0430", "amenity": "pharmacy", "dispensing": "yes", "drive_through": "no", "healthcare": "pharmacy", "int_name": "Apoteka Beograd \u201eKalenic\u201d", "name": "\u0410\u043f\u043e\u0442\u0435\u043a\u0430 \u0411\u0435\u043e\u0433\u0440\u0430\u0434 \u201e\u041a\u0430\u043b\u0435\u043d\u0438\u045b\u201d", "name:en": "Beograd Pharmacy", "name:sr": "\u0410\u043f\u043e\u0442\u0435\u043a\u0430 \u0411\u0435\u043e\u0433\u0440\u0430\u0434 \u201e\u041a\u0430\u043b\u0435\u043d\u0438\u045b\u201d", "name:sr-Latn": "Apoteka Beograd \u201eKaleni\u0107\u201d", "opening_hours": "Mo-Fr 07:30-20:00; Sa 08:00-15:00; Su 08:00-15:00", "payment:cards": "yes", "payment:cash": "yes", "smoking": "no", "wheelchair": "yes"}}, {"type": "node", "id": 13045866601, "lat": 44.9011975, "lon": 20.2692322, "tags": {"amenity": "pharmacy", "brand": "Benu", "brand:wikidata": "Q62562792", "healthcare": "pharmacy", "name": "Benu"}}, {"type": "node", "id": 13052188237, "lat": 44.7981745, "lon": 20.4733017, "tags": {"addr:city": "\u0411\u0435\u043e\u0433\u0440\u0430\u0434", "addr:housenumber": "4", "addr:postcode": "11000", "addr:street": "\u0421\u043e\u043a\u043e\u043b\u0441\u043a\u0430", "amenity": "pharmacy", "dispensing": "yes", "drive_through": "no", "healthcare": "pharmacy", "name": "Nova Farm +", "opening_hours": "Mo-Sa 08:00-22:00; Su 09:00-22:00"}}, {"type": "node", "id": 13070840915, "lat": 44.8002048, "lon": 20.4521813, "tags": {"amenity": "pharmacy", "check_date": "2025-09-02", "healthcare": "pharmacy"}}, {"type": "node", "id": 13097711939, "lat": 44.821368, "lon": 20.4185524, "tags": {"amenity": "pharmacy", "healthcare": "pharmacy", "int_name": "Moc bilja - Dr Josif Pancic", "name": "\u041c\u043e\u045b \u0431\u0438\u0459\u0430 - \u0414\u0440 \u0408\u043e\u0441\u0438\u0444 \u041f\u0430\u043d\u0447\u0438\u045b", "name:sr": "\u041c\u043e\u045b \u0431\u0438\u0459\u0430 - \u0414\u0440 \u0408\u043e\u0441\u0438\u0444 \u041f\u0430\u043d\u0447\u0438\u045b", "name:sr-Latn": "Mo\u0107 bilja - Dr Josif Pan\u010di\u0107", "website": "https://www.mocbilja.rs/"}}, {"type": "node", "id": 13110730621, "lat": 44.8081835, "lon": 20.3862257, "tags": {"addr:housenumber": "21", "addr:street": "\u0413\u0430\u043d\u0434\u0438\u0458\u0435\u0432\u0430", "amenity": "pharmacy", "check_date": "2025-08-31", "healthcare": "pharmacy", "level": "0", "name": "Super Dr. Max", "opening_hours": "08:00-21:30"}}, {"type": "node", "id": 13173604528, "lat": 44.8038805, "lon": 20.4776911, "tags": {"addr:city": "\u0411\u0435\u043e\u0433\u0440\u0430\u0434", "addr:housenumber": "38", "addr:postcode": "11000", "addr:street": "\u0413\u043e\u043b\u0441\u0432\u043e\u0440\u0434\u0438\u0458\u0435\u0432\u0430", "amenity": "pharmacy", "drive_through": "no", "email": "office@malaruska.com", "healthcare": "pharmacy", "name": "Mala ruska apoteka", "opening_hours": "Mo-Fr 08:00-20:00; Sa 08:00-15:00; Su off", "operator": "DINA BULAJI\u0106 pr", "payment:cards": "yes", "payment:cash": "yes", "phone": "+381 11 2420031", "smoking": "no", "website": "https://www.malaruska.com/", "wheelchair": "no"}}, {"type": "way", "id": 351442894, "nodes": [3572096207, 3572096208, 3572096209, 3572096210, 3572096211, 3572096212, 3572096213, 3572096207], "tags": {"addr:housenumber": "5", "addr:street": "\u0411\u0440\u0430\u045b\u0435 \u041f\u0443\u0445\u0430\u043b\u043e\u0432\u0438\u045b", "amenity": "pharmacy", "building": "house", "fixme": "name", "healthcare": "pharmacy", "ref:RS:kucni_broj": "3366217"}}, {"type": "way", "id": 392128016, "nodes": [3953936808, 3953936809, 3953936810, 3953936811, 3953936808], "tags": {"amenity": "pharmacy", "building": "yes", "healthcare": "pharmacy"}}, {"type": "way", "id": 392301665, "nodes": [3955372722, 3955372728, 3955372723, 3955372724, 3955372725, 3955372722], "tags": {"amenity": "pharmacy", "building": "yes", "healthcare": "pharmacy", "int_name": "3m", "name": "3\u043c", "name:sr": "3\u043c", "name:sr-Latn": "3m"}}, {"type": "way", "id": 402332584, "nodes": [4047461039, 4057077421, 4057077420, 4047461040, 4047533876, 4047533877, 4047461041, 4047461042, 4047461043, 4047461044, 4047461039], "tags": {"addr:city": "\u0417\u0435\u043c\u0443\u043d", "addr:housenumber": "8", "addr:postcode": "11080", "addr:street": "\u0411\u0435\u043e\u0433\u0440\u0430\u0434\u0441\u043a\u0430", "amenity": "pharmacy", "building": "yes", "healthcare": "pharmacy", "int_name": "Galen Farm", "name": "\u0413\u0430\u043b\u0435\u043d \u0424\u0430\u0440\u043c", "name:en": "Galen pharm", "name:sr": "\u0413\u0430\u043b\u0435\u043d \u0424\u0430\u0440\u043c", "name:sr-Latn": "Galen Farm", "ref:RS:kucni_broj": "3690412"}}, {"type": "way", "id": 403077207, "nodes": [4054594693, 4058685524, 4054594694, 4054594695, 4054594700, 4054594699, 4054594698, 4054594696, 4054594697, 11304341448, 4054594693], "tags": {"addr:city": "\u0417\u0435\u043c\u0443\u043d", "addr:housenumber": "4", "addr:postcode": "11080", "addr:street": "\u0413\u043b\u0430\u0432\u043d\u0430", "amenity": "pharmacy", "building": "apartments", "building:levels": "2", "email": "info@apotekabeograd.co.rs", "healthcare": "pharmacy", "int_name": "Fruska Gora", "name": "\u0424\u0440\u0443\u0448\u043a\u0430 \u0413\u043e\u0440\u0430", "name:sr": "\u0424\u0440\u0443\u0448\u043a\u0430 \u0413\u043e\u0440\u0430", "name:sr-Latn": "Fru\u0161ka Gora", "opening_hours": "Mo-Fr 08:00-20:00; Sa 08:00-15:00; Su off", "operator": "\u0410\u043f\u043e\u0442\u0435\u043a\u0430 \u0411\u0435\u043e\u0433\u0440\u0430\u0434", "phone": "+381 11 3076975", "phone_1": "+381 11 3076976", "ref:RS:kucni_broj": "3679448", "roof:levels": "1", "website": "https://www.apotekabeograd.co.rs/"}}, {"type": "way", "id": 403235212, "nodes": [4056041813, 4056041814, 4056041815, 4056041816, 4056041817, 4056041818, 4056041819, 4056041820, 4056041821, 4056041813], "tags": {"amenity": "pharmacy", "brand": "Lilly", "brand:wikidata": "Q111764460", "building": "retail", "check_date": "2025-04-18", "healthcare": "pharmacy", "name": "Lilly", "name:en": "Lilly", "name:sr": "\u041b\u0438\u043b\u0438", "opening_hours": "Mo-Fr 08:00-21:00; Sa 08:00-18:00; Su 08:00-14:00", "shop": "chemist"}}, {"type": "way", "id": 418373328, "nodes": [4188058102, 4188058103, 4188058104, 4188058105, 4188058102], "tags": {"amenity": "pharmacy", "building": "house", "building:levels": "1", "healthcare": "pharmacy", "roof:shape": "gabled"}}, {"type": "way", "id": 430506036, "nodes": [4297731216, 4297731217, 4297731218, 4297731219, 4297731216], "tags": {"addr:housenumber": "108v", "addr:street": "\u0411\u0440\u0430\u045b\u0435 \u0408\u0435\u0440\u043a\u043e\u0432\u0438\u045b", "amenity": "pharmacy", "building": "yes", "building:levels": "1", "dispensing": "yes", "healthcare": "pharmacy", "int_name": "Beolek", "name": "\u0411\u0435\u043e\u043b\u0435\u043a", "operator": "\u0410\u043f\u043e\u0442\u0435\u043a\u0430\u0440\u0441\u043a\u0430 \u0443\u0441\u0442\u0430\u043d\u043e\u0432\u0430 \u0411\u0435\u043e\u043b\u0435\u043a", "ref:RS:kucni_broj": "3239166", "roof:levels": "1"}}, {"type": "way", "id": 476444107, "nodes": [4700322200, 4700322201, 4700322202, 4700322203, 4700322200], "tags": {"addr:city": "\u0417\u0435\u043c\u0443\u043d", "addr:housenumber": "55\u0446", "addr:postcode": "11080", "addr:street": "\u0412\u0440\u0442\u043b\u0430\u0440\u0441\u043a\u0430", "amenity": "pharmacy", "building": "yes", "healthcare": "pharmacy", "int_name": "Radenkovic", "name": "\u0420\u0430\u0434\u0435\u043d\u043a\u043e\u0432\u0438\u045b", "name:sr": "\u0420\u0430\u0434\u0435\u043d\u043a\u043e\u0432\u0438\u045b", "name:sr-Latn": "Radenkovi\u0107", "opening_hours": "Mo-Fr 08:00-21:00; Sa 08:00-16:00", "wheelchair": "no"}}, {"type": "way", "id": 485222527, "nodes": [4779995920, 4779996021, 4779996022, 4779996023, 4779995920], "tags": {"addr:housenumber": "174a", "addr:street": "\u041c\u0430\u0458\u043e\u0440\u0430 \u0417\u043e\u0440\u0430\u043d\u0430 \u0420\u0430\u0434\u043e\u0441\u0430\u0432\u0459\u0435\u0432\u0438\u045b\u0430", "amenity": "pharmacy", "building": "yes", "ref:RS:kucni_broj": "3683351"}}, {"type": "way", "id": 677970525, "nodes": [6348073396, 6348073395, 6348073394, 6348073393, 6348073396], "tags": {"addr:street": "\u0421\u0443\u0440\u0447\u0438\u043d\u0441\u043a\u0430", "amenity": "pharmacy", "building": "retail", "healthcare": "pharmacy"}}, {"type": "way", "id": 770896718, "nodes": [7195739502, 7195739501, 7195743918, 7195743922, 7195739512, 7195739497, 7195739498, 7195739499, 7195739495, 7195739496, 7195739502], "tags": {"addr:housenumber": "27a", "addr:street": "\u0411\u0430\u0440\u0438\u0447\u043a\u0430 \u0440\u0435\u043a\u0430", "amenity": "pharmacy", "building": "yes", "dispensing": "yes", "healthcare": "pharmacy", "ref:RS:kucni_broj": "3488837"}}, {"type": "way", "id": 951287793, "nodes": [10787166515, 3572097399, 3572097392, 8805262836, 10787166515], "tags": {"addr:housenumber": "90b", "addr:street": "\u0412\u043e\u0458\u0432\u043e\u0452\u0430\u043d\u0441\u043a\u0430", "amenity": "pharmacy", "building": "retail", "healthcare": "pharmacy", "name": "605", "ref:RS:kucni_broj": "3372023"}}, {"type": "way", "id": 1225598055, "nodes": [11365789272, 11365789269, 11365772568, 11365772567, 11365772566, 11365772565, 11365772564, 11365772563, 11365772562, 11365772561, 11365789271, 11365789272], "tags": {"amenity": "pharmacy", "healthcare": "pharmacy", "indoor": "room", "int_name": "Apoteka Beograd", "level": "1", "name": "\u0410\u043f\u043e\u0442\u0435\u043a\u0430 \u0411\u0435\u043e\u0433\u0440\u0430\u0434", "name:en": "Pharmacy Belgrade", "name:sr-Latn": "Apoteka Beograd"}}, {"type": "way", "id": 1339453563, "nodes": [12390068946, 12390068947, 12390068948, 3140671034, 12390068946], "tags": {"amenity": "pharmacy", "building": "yes", "healthcare": "pharmacy", "name": "Star Pharmacy"}}]}