{"version": 0.6, "generator": "Overpass API 0.7.62.8 e802775f", "osm3s": {"timestamp_osm_base": "2025-10-06T08:03:46Z", "copyright": "The data included in this document is from www.openstreetmap.org. The data is made available under ODbL."}, "elements": [{"type": "node", "id": 549888068, "lat": 46.9063767, "lon": 19.6948711, "tags": {"addr:city": "Kecskem\u00e9t", "addr:housenumber": "1", "addr:postcode": "6000", "addr:street": "Csongr\u00e1di \u00fat", "amenity": "pharmacy", "contact:phone": "+36 76 508 077", "dispensing": "yes", "healthcare": "pharmacy", "name": "Medicina Patika", "opening_hours": "Mo-Fr 08:00-18:00", "payment:american_express": "yes", "payment:cash": "yes", "payment:contactless": "yes", "payment:jcb": "yes", "payment:maestro": "yes", "payment:mastercard": "yes", "payment:unionpay": "yes", "payment:visa": "yes", "source": "http://kecskemet.hu/?r=806", "wheelchair": "no"}}, {"type": "node", "id": 891110869, "lat": 46.9276869, "lon": 19.5833853, "tags": {"amenity": "pharmacy", "healthcare": "pharmacy", "name": "M\u00e9rleg Patika"}}, {"type": "node", "id": 1296409759, "lat": 46.9107595, "lon": 19.6939845, "tags": {"addr:city": "Kecskem\u00e9t", "addr:housenumber": "1", "addr:postcode": "6000", "addr:street": "Budai utca", "amenity": "pharmacy", "check_date": "2024-10-27", "contact:phone": "+36 76 505 595", "contact:website": "http://kecskemeti-szent-gyorgy-kecskemet.gyongypatikak.hu/", "healthcare": "pharmacy", "name": "Szent Gy\u00f6rgy Gy\u00f3gyszert\u00e1r", "opening_hours": "Mo 08:00-18:00; Tu 07:00-18:00; We-Th 08:00-18:00; Fr 07:00-18:00; Sa 07:00-12:00", "operator": "Gy\u00f6ngy Patik\u00e1k", "source": "http://kecskemeti-szent-gyorgy-kecskemet.gyongypatikak.hu/", "wheelchair": "no"}}, {"type": "node", "id": 1612901398, "lat": 46.8952826, "lon": 19.6537726, "tags": {"addr:city": "Kecskem\u00e9t", "addr:housenumber": "1", "addr:postcode": "6000", "addr:street": "Sz\u00fcret utca", "amenity": "pharmacy", "contact:email": "info@szektoikigyo.paticard.hu", "contact:phone": "+36 76 493 405", "contact:website": "http://www.szektoikigyo.paticard.hu", "healthcare": "pharmacy", "name": "Sz\u00e9kt\u00f3i K\u00edgy\u00f3 Gy\u00f3gyszert\u00e1r", "opening_hours": "Mo-Fr 08:00-18:30; Sa 08:00-12:00"}}, {"type": "node", "id": 1693151326, "lat": 46.7641453, "lon": 19.7542491, "tags": {"amenity": "pharmacy"}}, {"type": "node", "id": 2213003684, "lat": 46.7111544, "lon": 19.8519594, "tags": {"amenity": "pharmacy", "healthcare": "pharmacy"}}, {"type": "node", "id": 2213003702, "lat": 46.7101318, "lon": 19.8437411, "tags": {"amenity": "pharmacy", "healthcare": "pharmacy"}}, {"type": "node", "id": 2429826054, "lat": 46.7049244, "lon": 19.8628524}, {"type": "node", "id": 2429826075, "lat": 46.7049833, "lon": 19.8629382}, {"type": "node", "id": 2429826082, "lat": 46.7049024, "lon": 19.8630561}, {"type": "node", "id": 2429826145, "lat": 46.7048436, "lon": 19.8629703}, {"type": "node", "id": 2453470711, "lat": 46.9169227, "lon": 19.6779038, "tags": {"addr:city": "Kecskem\u00e9t", "addr:housenumber": "1", "addr:postcode": "6000", "addr:street": "Aradi v\u00e9rtan\u00fak tere", "amenity": "pharmacy", "brand": "Pingvin Patika", "brand:wikidata": "Q105626461", "contact:phone": "+36 76 504 672", "contact:website": "https://pingvinpatika.hu/", "dispensing": "yes", "drive_through": "no", "healthcare": "pharmacy", "name": "Pingvin Patika", "name:en": "Penguin Pharmacy", "opening_hours": "Mo-Fr 08:00-19:00; Sa 08:00-13:00; PH off", "operator": "Pingvin B\u00e1cs Zrt.", "operator:addr": "6720 Szeged, Sz\u00e9chenyi t\u00e9r 17.", "ref:HU:vatin": "24700319-2-06"}}, {"type": "node", "id": 2463407945, "lat": 46.8935561, "lon": 19.6657476, "tags": {"addr:city": "Kecskem\u00e9t", "addr:housenumber": "12/B", "addr:postcode": "6000", "addr:street": "Izs\u00e1ki \u00fat", "amenity": "pharmacy", "contact:phone": "+36 76 506 260", "contact:website": "http://www.patikaplus.hu/patika/patikaplus-gyogyszertar-33.html", "currency:HUF": "yes", "healthcare": "pharmacy", "name": "PatikaPlus Gy\u00f3gyszert\u00e1r", "opening_hours": "Mo-Sa 09:00-19:00", "payment:american_express": "yes", "payment:cash": "yes", "payment:contactless": "yes", "payment:maestro": "yes", "payment:mastercard": "yes", "payment:visa": "yes", "payment:visa_debit": "yes", "payment:visa_electron": "yes", "wheelchair": "yes"}}, {"type": "node", "id": 2968226246, "lat": 46.9151043, "lon": 19.6665005, "tags": {"addr:city": "Kecskem\u00e9t", "addr:housenumber": "9", "addr:postcode": "6000", "addr:street": "Gy\u0151zelem utca", "amenity": "pharmacy", "contact:phone": "+36 76 492 302", "contact:website": "http://pajzs-kecskemet.gyongypatikak.hu/", "healthcare": "pharmacy", "name": "Pajzs Patika", "opening_hours": "Mo-Fr 08:00-18:30; Sa 08:00-12:00", "source": "http://kecskemet.hu/?r=806", "wheelchair": "limited"}}, {"type": "node", "id": 2977512561, "lat": 46.9097969, "lon": 19.6922802, "tags": {"addr:city": "Kecskem\u00e9t", "addr:housenumber": "7", "addr:postcode": "6000", "addr:street": "Piarist\u00e1k tere", "amenity": "pharmacy", "contact:phone": "+36 76 487 708", "healthcare": "pharmacy", "name": "Partner Patika", "opening_hours": "Mo-Fr 08:00-18:00", "source": "http://kecskemet.hu/?r=806"}}, {"type": "node", "id": 3240423161, "lat": 46.907993, "lon": 19.6886238, "tags": {"addr:city": "Kecskem\u00e9t", "addr:housenumber": "2", "addr:postcode": "6000", "addr:street": "Korona utca", "amenity": "pharmacy", "contact:phone": "+36 76 504 948", "contact:website": "http://malomkecskemet.novodata.hu/", "healthcare": "pharmacy", "name": "Malom Gy\u00f3gyszert\u00e1r", "opening_hours": "Mo-Fr 08:00-20:00; Sa 10:00-20:00; Su 10:00-18:00", "wheelchair": "yes"}}, {"type": "node", "id": 3242688027, "lat": 46.9100696, "lon": 19.67591, "tags": {"addr:city": "Kecskem\u00e9t", "addr:housenumber": "38/a", "addr:postcode": "6000", "addr:street": "Ny\u00edri \u00fat", "amenity": "pharmacy", "contact:phone": "+36 76 506 539", "contact:website": "http://www.koronapatika.hu/", "healthcare": "pharmacy", "name": "Korona Patika", "opening_hours": "Mo-Fr 08:00-18:00", "source": "http://www.koronapatika.hu/html/index2.htm", "wheelchair": "no"}}, {"type": "node", "id": 3265671520, "lat": 46.8038185, "lon": 20.2068532, "tags": {"amenity": "pharmacy", "dispensing": "no", "healthcare": "pharmacy"}}, {"type": "node", "id": 3343004897, "lat": 46.914514, "lon": 19.6813499, "tags": {"amenity": "pharmacy", "healthcare": "pharmacy", "name": "Menta Patika"}}, {"type": "node", "id": 3432048207, "lat": 47.024707, "lon": 19.559644, "tags": {"amenity": "pharmacy", "healthcare": "pharmacy", "name": "Familia patika", "source": "turistautak.hu", "url": "http://turistautak.hu/poi.php?id=87090"}}, {"type": "node", "id": 3432048419, "lat": 47.026133, "lon": 19.557535, "tags": {"amenity": "pharmacy", "name": "Szent Istv\u00e1n patika", "source": "turistautak.hu", "url": "http://turistautak.hu/poi.php?id=80992"}}, {"type": "node", "id": 3439443259, "lat": 46.890567, "lon": 19.655717, "tags": {"addr:city": "Kecskem\u00e9t", "addr:housenumber": "1/A", "addr:postcode": "6000", "addr:street": "Bagoly utca", "amenity": "pharmacy", "contact:phone": "+36 76 508 362", "dispensing": "yes", "healthcare": "pharmacy", "name": "Bagoly Patika", "opening_hours": "Mo-Fr 08:00-19:00", "source:date": "2013-02-11", "url": "http://turistautak.hu/poi.php?id=150513", "wheelchair": "yes"}}, {"type": "node", "id": 3439443349, "lat": 46.890358, "lon": 19.655229, "tags": {"amenity": "pharmacy", "healthcare": "pharmacy", "name": "Filosz patika", "source": "turistautak.hu", "source:date": "2011-06-24", "url": "http://turistautak.hu/poi.php?id=60706"}}, {"type": "node", "id": 3439443410, "lat": 46.9153097, "lon": 19.7066466, "tags": {"amenity": "pharmacy", "healthcare": "pharmacy", "name": "Hunyadi gy\u00f3gyszert\u00e1r", "source": "turistautak.hu", "source:date": "2011-06-24", "url": "http://turistautak.hu/poi.php?id=60708"}}, {"type": "node", "id": 3439443838, "lat": 46.908464, "lon": 19.692814, "tags": {"amenity": "pharmacy", "dispensing": "yes", "healthcare": "pharmacy", "name": "M\u00e1ty\u00e1s Kir\u00e1ly gy\u00f3gyszert\u00e1r", "opening_hours": "Mo-Fr 07:00-20:00; Sa,Su 07:00-14:00; PH 07:00-14:00", "source": "turistautak.hu", "source:date": "2011-06-24", "url": "http://turistautak.hu/poi.php?id=62550", "wheelchair": "limited"}}, {"type": "node", "id": 3439443839, "lat": 46.9069306, "lon": 19.6841369, "tags": {"amenity": "pharmacy", "healthcare": "pharmacy", "name": "Kugler Patika"}}, {"type": "node", "id": 3439443885, "lat": 46.913815, "lon": 19.678601, "tags": {"addr:city": "Kecskem\u00e9t", "addr:housenumber": "5", "addr:postcode": "6000", "addr:street": "Sz\u00e9chenyi Istv\u00e1n s\u00e9t\u00e1ny", "amenity": "pharmacy", "healthcare": "pharmacy", "name": "Oroszl\u00e1n Patika", "source": "turistautak.hu", "source:date": "2012-10-15", "url": "http://turistautak.hu/poi.php?id=136174"}}, {"type": "node", "id": 3439444137, "lat": 46.9096235, "lon": 19.6961543, "tags": {"amenity": "pharmacy", "healthcare": "pharmacy", "name": "R\u00e1k\u00f3czi patika", "source": "turistautak.hu", "source:date": "2011-06-24", "url": "http://turistautak.hu/poi.php?id=59575"}}, {"type": "node", "id": 3439444173, "lat": 46.910866, "lon": 19.6867814, "tags": {"addr:city": "Kecskem\u00e9t", "addr:housenumber": "15", "addr:postcode": "6000", "addr:street": "K\u00e1polna utca", "amenity": "pharmacy", "contact:phone": "+36 76 507 992", "dispensing": "yes", "healthcare": "pharmacy", "name": "Szent Benedek Europatika", "opening_hours": "Mo-Su 07:00-20:00", "payment:american_express": "yes", "payment:cash": "yes", "payment:contactless": "yes", "payment:maestro": "yes", "payment:mastercard": "yes", "payment:visa": "yes", "payment:visa_electron": "yes", "source": "turistautak.hu", "source:date": "2012-10-15", "url": "http://turistautak.hu/poi.php?id=121102"}}, {"type": "node", "id": 3439444176, "lat": 46.914114, "lon": 19.689298, "tags": {"amenity": "pharmacy", "healthcare": "pharmacy", "name": "Szent Istv\u00e1n gy\u00f3gyszert\u00e1r", "source": "turistautak.hu", "source:date": "2011-06-24", "url": "http://turistautak.hu/poi.php?id=59974"}}, {"type": "node", "id": 3439444194, "lat": 46.913664, "lon": 19.677441, "tags": {"addr:city": "Kecskem\u00e9t", "addr:housenumber": "6", "addr:postcode": "6000", "addr:street": "Sz\u00e9chenyi Istv\u00e1n s\u00e9t\u00e1ny", "amenity": "pharmacy", "healthcare": "pharmacy", "name": "Sz\u00e9chenyi Gy\u00f3gyszert\u00e1r", "source": "turistautak.hu", "source:date": "2012-10-15", "url": "http://turistautak.hu/poi.php?id=136175"}}, {"type": "node", "id": 3439444307, "lat": 46.874718, "lon": 19.618724, "tags": {"amenity": "pharmacy", "healthcare": "pharmacy", "source": "turistautak.hu", "source:date": "2011-06-24", "url": "http://turistautak.hu/poi.php?id=102282"}}, {"type": "node", "id": 3439444544, "lat": 46.903796, "lon": 19.684385, "tags": {"amenity": "pharmacy", "healthcare": "pharmacy", "name": "\u00cdrisz gy\u00f3gyszert\u00e1r", "source": "turistautak.hu", "source:date": "2011-06-24", "url": "http://turistautak.hu/poi.php?id=61217"}}, {"type": "node", "id": 3454580720, "lat": 47.1189633, "lon": 19.9297258, "tags": {"amenity": "pharmacy", "healthcare": "pharmacy", "name": "Szent Margit", "source": "turistautak.hu", "source:date": "2008-06-11", "url": "http://turistautak.hu/poi.php?id=30088"}}, {"type": "node", "id": 3459944585, "lat": 47.034648, "lon": 19.457833, "tags": {"amenity": "pharmacy", "healthcare": "pharmacy", "source": "turistautak.hu", "source:date": "2011-06-24", "url": "http://turistautak.hu/poi.php?id=69549"}}, {"type": "node", "id": 3459947820, "lat": 46.8376193, "lon": 19.6221883, "tags": {"addr:city": "Helv\u00e9cia", "addr:housenumber": "10", "addr:postcode": "6034", "addr:street": "Pet\u0151fi S\u00e1ndor utca", "amenity": "pharmacy", "contact:phone": "+36 76 428 544", "currency:HUF": "yes", "dispensing": "yes", "healthcare": "pharmacy", "name": "Helv\u00e9ciai K\u00edgy\u00f3 Patika", "opening_hours": "Mo-Fr 08:00-12:30, 13:00-18:00", "payment:cash": "yes", "payment:contactless": "yes", "url": "http://turistautak.hu/poi.php?id=34526", "wheelchair": "yes"}}, {"type": "node", "id": 3459947842, "lat": 46.861546, "lon": 19.570837, "tags": {"amenity": "pharmacy", "healthcare": "pharmacy", "source": "turistautak.hu", "source:date": "2011-06-24", "url": "http://turistautak.hu/poi.php?id=48677"}}, {"type": "node", "id": 3485146778, "lat": 46.8216, "lon": 20.085383, "tags": {"amenity": "pharmacy", "source": "turistautak.hu", "source:date": "2014-08-15", "url": "http://turistautak.hu/poi.php?id=170683"}}, {"type": "node", "id": 3485197392, "lat": 46.7131279, "lon": 19.849492, "tags": {"amenity": "pharmacy", "healthcare": "pharmacy", "name": "Korona patika", "source": "turistautak.hu", "source:date": "2011-06-24", "url": "http://turistautak.hu/poi.php?id=102890", "wheelchair": "yes"}}, {"type": "node", "id": 3485199046, "lat": 46.687508, "lon": 19.679814, "tags": {"amenity": "pharmacy", "healthcare": "pharmacy", "source": "turistautak.hu", "source:date": "2012-10-15", "url": "http://turistautak.hu/poi.php?id=140300"}}, {"type": "node", "id": 3485199061, "lat": 46.721682, "lon": 19.8498972, "tags": {"addr:city": "Kiskunf\u00e9legyh\u00e1za", "addr:housenumber": "2", "addr:postcode": "6100", "addr:street": "Darvas t\u00e9r", "amenity": "pharmacy", "dispensing": "yes", "drive_through": "no", "email": "petofipatika88@gmail.com", "healthcare": "pharmacy", "name": "Pet\u0151fi Patika", "opening_hours": "Mo-Fr 08:00-17:00; Sa 08:00-11:00", "operator": "K\u00f3rh\u00e1zi Patika Kft.", "phone": "+36 76 432 624", "source:date": "2011-06-24", "website": "https://petofipatika.hu", "wheelchair": "limited"}}, {"type": "node", "id": 3487784315, "lat": 46.9269722, "lon": 19.6891009, "tags": {"amenity": "pharmacy", "healthcare": "pharmacy", "name": "K\u00f6rpatika"}}, {"type": "node", "id": 3488383736, "lat": 46.857033, "lon": 20.055083, "tags": {"amenity": "pharmacy", "name": "Fi\u00f3kpatika", "source": "turistautak.hu", "source:date": "2014-08-15", "url": "http://turistautak.hu/poi.php?id=170681"}}, {"type": "node", "id": 3488383765, "lat": 46.874959, "lon": 20.00313, "tags": {"amenity": "pharmacy", "name": "Sz\u00e9chenyi patika", "source": "turistautak.hu", "source:date": "2011-06-24", "url": "http://turistautak.hu/poi.php?id=65354"}}, {"type": "node", "id": 3488425567, "lat": 47.0289265, "lon": 19.781484, "tags": {"amenity": "pharmacy", "healthcare": "pharmacy", "name": "Oroszl\u00e1n Gy\u00f3gyszert\u00e1r", "opening_hours": "Mo-Fr 08:00-18:30; Sa 08:00-12:00; Su 08:00-11:00", "source": "turistautak.hu", "source:date": "2013-03-25", "url": "http://turistautak.hu/poi.php?id=151842"}}, {"type": "node", "id": 4263364260, "lat": 46.9028557, "lon": 19.696233, "tags": {"addr:city": "Kecskem\u00e9t", "addr:housenumber": "5", "addr:postcode": "6000", "addr:street": "Czollner t\u00e9r", "amenity": "pharmacy", "contact:phone": "+36 76 325 155", "contact:website": "http://www.muemlekpatika.hu/", "healthcare": "pharmacy", "name": "M\u0171eml\u00e9k Patika", "opening_hours": "Mo-Fr 08:00-18:00; PH off"}}, {"type": "node", "id": 4336696989, "lat": 47.0335683, "lon": 19.7815578, "tags": {"amenity": "pharmacy", "name": "Arany Patika"}}, {"type": "node", "id": 4339795793, "lat": 47.0341664, "lon": 19.7763184, "tags": {"amenity": "pharmacy", "name": "Szent Gy\u00f6rgy Patika", "opening_hours": "Mo-Fr 08:00-18:00"}}, {"type": "node", "id": 4341608189, "lat": 47.0465572, "lon": 19.781596, "tags": {"amenity": "pharmacy", "healthcare": "pharmacy"}}, {"type": "node", "id": 4357472025, "lat": 47.0373166, "lon": 19.7850446, "tags": {"amenity": "pharmacy", "name": "kulcs Patika", "name:hu": "kulcs Patika"}}, {"type": "node", "id": 4397780291, "lat": 46.9027872, "lon": 19.6904028, "tags": {"addr:city": "Kecskem\u00e9t", "amenity": "pharmacy", "healthcare": "pharmacy"}}, {"type": "node", "id": 4459344199, "lat": 46.932628, "lon": 20.0957887, "tags": {"amenity": "pharmacy", "healthcare": "pharmacy", "opening_hours": "Mo-Fr 08:00-20:00; Sa 08:00-13:00"}}, {"type": "node", "id": 4567914827, "lat": 46.9148133, "lon": 19.690047, "tags": {"addr:city": "Kecskem\u00e9t", "addr:housenumber": "4", "addr:postcode": "6000", "addr:street": "Kada Elek utca", "amenity": "pharmacy", "healthcare": "pharmacy", "name": "Narancs gy\u00f3gyszert\u00e1r"}}, {"type": "node", "id": 4987074740, "lat": 46.8968511, "lon": 19.721036, "tags": {"amenity": "pharmacy", "healthcare": "pharmacy"}}, {"type": "node", "id": 7644216898, "lat": 46.8954806, "lon": 19.6537667}, {"type": "node", "id": 7644216899, "lat": 46.8954085, "lon": 19.6538956}, {"type": "node", "id": 7644216900, "lat": 46.8952441, "lon": 19.6536987}, {"type": "node", "id": 7644216901, "lat": 46.8953162, "lon": 19.6535698}, {"type": "node", "id": 8013148025, "lat": 46.9061405, "lon": 19.6893308, "tags": {"addr:city": "Kecskem\u00e9t", "addr:housenumber": "6", "addr:postcode": "6000", "addr:street": "De\u00e1k Ferenc t\u00e9r", "amenity": "pharmacy", "brand": "Pingvin Patika", "brand:wikidata": "Q105626461", "contact:website": "https://pingvinpatika.hu/", "dispensing": "yes", "healthcare": "pharmacy", "name": "Pingvin Patika", "name:en": "Penguin Pharmacy", "opening_hours": "Mo-Fr 08:00-19:00; Sa 08:00-13:00", "operator": "Pingvin Napf\u00e9ny Zrt.", "payment:cash": "yes", "payment:debit_cards": "yes", "wheelchair": "yes"}}, {"type": "node", "id": 8013173098, "lat": 46.9013521, "lon": 19.6895002, "tags": {"addr:city": "Kecskem\u00e9t", "addr:housenumber": "37", "addr:postcode": "6000", "addr:street": "Batthy\u00e1ny utca", "amenity": "pharmacy", "brand": "Pingvin Patika", "brand:wikidata": "Q105626461", "dispensing": "yes", "healthcare": "pharmacy", "name": "Pingvin Patika", "name:en": "Penguin Pharmacy", "opening_hours": "Mo-Fr 08:00-19:00; Sa 08:00-13:00", "operator": "Pingvin Napf\u00e9ny Zrt.", "payment:cash": "yes", "payment:debit_cards": "yes", "wheelchair": "yes"}}, {"type": "node", "id": 8037801511, "lat": 46.7614461, "lon": 19.6024952, "tags": {"addr:city": "Jakabsz\u00e1ll\u00e1s", "addr:housenumber": "6/B", "addr:postcode": "6078", "addr:street": "Pet\u0151fi S\u00e1ndor utca", "amenity": "pharmacy", "contact:phone": "+36 76 382 033", "dispensing": "yes", "healthcare": "pharmacy", "name": "H\u00e1rsfa Gy\u00f3gyszert\u00e1r", "opening_hours": "Mo-Tu 07:30-16:00; We 15:00-20:00; Th-Fr 07:30-16:00", "payment:cash": "yes", "payment:maestro": "yes", "payment:mastercard": "yes", "payment:visa": "yes", "wheelchair": "limited"}}, {"type": "node", "id": 8281784433, "lat": 46.9611267, "lon": 19.7233823, "tags": {"addr:city": "Kecskem\u00e9t", "addr:housenumber": "25/a", "addr:postcode": "6000", "addr:street": "Zsigmond Ferenc utca", "addr:suburb": "Katonatelep", "amenity": "pharmacy", "name": "Boldogasszony Fi\u00f3kpatika"}}, {"type": "node", "id": 8305741712, "lat": 46.9151787, "lon": 19.6667555}, {"type": "node", "id": 8305741713, "lat": 46.915042, "lon": 19.6665682}, {"type": "node", "id": 8305741714, "lat": 46.9151103, "lon": 19.6664613}, {"type": "node", "id": 8714807599, "lat": 47.0031654, "lon": 19.9185819}, {"type": "node", "id": 8714807600, "lat": 47.0032549, "lon": 19.9186347}, {"type": "node", "id": 8714807601, "lat": 47.0032864, "lon": 19.9185199}, {"type": "node", "id": 8714807602, "lat": 47.0033581, "lon": 19.9185622}, {"type": "node", "id": 8714807603, "lat": 47.0033901, "lon": 19.9184454}, {"type": "node", "id": 8714807604, "lat": 47.0032289, "lon": 19.9183504}, {"type": "node", "id": 8830097750, "lat": 46.9326269, "lon": 19.6663494, "tags": {"addr:city": "Kecskem\u00e9t", "addr:housenumber": "1", "addr:place": "Talf\u00e1ja tanya", "addr:postcode": "6000", "amenity": "pharmacy", "healthcare": "pharmacy", "name": "PatikaPlus", "source": "pharmacy", "url": "http://www.patikaplus.hu/patika/patikaplus-gyogyszertar-34.html"}}, {"type": "node", "id": 10146801651, "lat": 46.915247, "lon": 19.6666486}, {"type": "node", "id": 10757254425, "lat": 47.0337043, "lon": 19.7781362, "tags": {"amenity": "pharmacy", "dispensing": "yes", "healthcare": "pharmacy", "name": "Ez\u00fcst Patika"}}, {"type": "node", "id": 10877480869, "lat": 46.8071964, "lon": 20.1298214, "tags": {"addr:city": "Cs\u00e9pa", "addr:housenumber": "133", "addr:postcode": "5475", "addr:street": "B\u00e9ke utca", "amenity": "pharmacy", "contact:phone": "+36 56 323 012", "healthcare": "pharmacy", "opening_hours": "Mo-Fr 11:00-13:30"}}, {"type": "node", "id": 11178879781, "lat": 46.8651053, "lon": 19.8790495}, {"type": "node", "id": 11178879782, "lat": 46.8650822, "lon": 19.8792001}, {"type": "node", "id": 11178879784, "lat": 46.8649277, "lon": 19.8789768}, {"type": "node", "id": 11178879785, "lat": 46.8649117, "lon": 19.8789923}, {"type": "node", "id": 11178879786, "lat": 46.8648655, "lon": 19.8789768}, {"type": "node", "id": 11178879787, "lat": 46.8648549, "lon": 19.8790781}, {"type": "node", "id": 11178879788, "lat": 46.8649117, "lon": 19.8790962}, {"type": "node", "id": 11178879789, "lat": 46.8649117, "lon": 19.8791326}, {"type": "node", "id": 11734867896, "lat": 46.9049858, "lon": 19.6864852, "tags": {"addr:city": "Kecskem\u00e9t", "addr:housenumber": "3", "addr:postcode": "6000", "addr:street": "Pet\u0151fi S\u00e1ndor utca", "amenity": "pharmacy", "contact:email": "szalaghazpatika@gmail.com", "contact:facebook": "https://www.facebook.com/szalaghazgyogyszertar/", "contact:phone": "+36 76 325 155", "dispensing": "yes", "healthcare": "pharmacy", "name": "Szalagh\u00e1z Gy\u00f3gyszert\u00e1r", "opening_hours": "Mo-Fr 07:00-19:00; Sa 08:00-13:00; PH off", "start_date": "2022", "wheelchair": "yes"}}, {"type": "node", "id": 12043180331, "lat": 46.9276571, "lon": 19.5834155}, {"type": "node", "id": 12043180332, "lat": 46.927688, "lon": 19.5831892}, {"type": "node", "id": 12043180333, "lat": 46.9278208, "lon": 19.5832311}, {"type": "node", "id": 12043180334, "lat": 46.9277865, "lon": 19.5834574}, {"type": "node", "id": 12206578064, "lat": 46.7101914, "lon": 19.8467218, "tags": {"addr:city": "Kiskunf\u00e9legyh\u00e1za", "addr:housenumber": "5", "addr:postcode": "6100", "addr:street": "Korond utca", "amenity": "pharmacy", "brand": "Benu", "brand:wikidata": "Q62562792", "healthcare": "pharmacy", "name": "Benu"}}, {"type": "node", "id": 12318483957, "lat": 46.915128, "lon": 19.6664856}, {"type": "node", "id": 12318483964, "lat": 46.9151983, "lon": 19.6665819}, {"type": "node", "id": 12388364434, "lat": 46.9108053, "lon": 19.6738068, "tags": {"amenity": "pharmacy", "healthcare": "pharmacy", "name": "Korona Patika"}}, {"type": "node", "id": 12531435996, "lat": 46.8224427, "lon": 19.9879671, "tags": {"amenity": "pharmacy", "healthcare": "pharmacy"}}, {"type": "node", "id": 12533621791, "lat": 46.7235012, "lon": 19.8642714, "tags": {"amenity": "pharmacy", "healthcare": "pharmacy", "name": "Kamilla Patika"}}, {"type": "node", "id": 12805989053, "lat": 46.7537575, "lon": 20.0344581}, {"type": "node", "id": 12805989054, "lat": 46.753751, "lon": 20.0346023}, {"type": "node", "id": 12805989066, "lat": 46.7537025, "lon": 20.0345444}, {"type": "node", "id": 12805989068, "lat": 46.7538026, "lon": 20.0345192}, {"type": "way", "id": 234858054, "nodes": [2429826145, 2429826082, 2429826075, 2429826054, 2429826145], "tags": {"addr:city": "Kiskunf\u00e9legyh\u00e1za", "addr:housenumber": "10/A", "addr:postcode": "6100", "addr:street": "Szegf\u0171 utca", "amenity": "pharmacy", "building": "yes", "drive_through": "no", "healthcare": "pharmacy", "name": "H\u00f3vir\u00e1g Gy\u00f3gyszert\u00e1r", "phone": "+36 76 463 363"}}, {"type": "way", "id": 818544857, "nodes": [7644216898, 7644216899, 7644216900, 7644216901, 7644216898], "tags": {"amenity": "pharmacy", "building": "yes", "dispensing": "yes", "healthcare": "pharmacy"}}, {"type": "way", "id": 893656700, "nodes": [8305741712, 8305741713, 8305741714, 12318483957, 12318483964, 10146801651, 8305741712], "tags": {"addr:city": "Kecskem\u00e9t", "addr:housenumber": "9", "addr:postcode": "6000", "addr:street": "Gy\u0151zelem utca", "amenity": "pharmacy", "building": "yes", "dispensing": "yes", "healthcare": "pharmacy", "name": "Pajzs Patika", "opening_hours": "Mo-Fr 08:00-18:30; Sa 08:00-12:00"}}, {"type": "way", "id": 941002707, "nodes": [8714807599, 8714807600, 8714807601, 8714807602, 8714807603, 8714807604, 8714807599], "tags": {"amenity": "pharmacy", "building": "yes", "healthcare": "pharmacy"}}, {"type": "way", "id": 1206396361, "nodes": [11178879781, 11178879784, 11178879785, 11178879786, 11178879787, 11178879788, 11178879789, 11178879782, 11178879781], "tags": {"amenity": "pharmacy", "building": "yes", "healthcare": "pharmacy"}}, {"type": "way", "id": 1300189251, "nodes": [12043180331, 12043180332, 12043180333, 12043180334, 12043180331], "tags": {"amenity": "pharmacy", "building": "yes", "healthcare": "pharmacy", "name": "M\u00e9rleg Patika"}}, {"type": "way", "id": 1383243910, "nodes": [12805989068, 12805989053, 12805989066, 12805989054, 12805989068], "tags": {"amenity": "pharmacy", "building": "public", "name": "Fi\u00f3kgy\u00f3gyszert\u00e1r", "opening_hours": "Mo-Fr 10:30-14:30; PH off"}}]}