{"version": 0.6, "generator": "Overpass API 0.7.62.8 e802775f", "osm3s": {"timestamp_osm_base": "2025-10-06T08:51:34Z", "copyright": "The data included in this document is from www.openstreetmap.org. The data is made available under ODbL."}, "elements": [{"type": "node", "id": 2292104285, "lat": 52.7424944, "lon": 22.839262, "tags": {"amenity": "pharmacy", "brand": "Cef@Rm 36,6", "dispensing": "yes", "healthcare": "pharmacy", "name": "Cef@Rm 36,6", "ref:csioz": "1022704"}}, {"type": "node", "id": 2292104660, "lat": 52.7441284, "lon": 22.8412404, "tags": {"amenity": "pharmacy", "dispensing": "yes", "healthcare": "pharmacy", "ref:csioz": "1020607"}}, {"type": "node", "id": 2448713264, "lat": 52.462856, "lon": 23.0797893, "tags": {"amenity": "pharmacy", "dispensing": "yes", "healthcare": "pharmacy", "ref:csioz": "1024565"}}, {"type": "node", "id": 3057390691, "lat": 52.768215, "lon": 23.1908791, "tags": {"amenity": "pharmacy", "brand": "Dbam o Zdrowie", "brand:wikidata": "Q62563833", "dispensing": "yes", "healthcare": "pharmacy", "name": "Dbam o Zdrowie", "ref:csioz": "1114862", "short_name": "DOZ"}}, {"type": "node", "id": 3057413240, "lat": 52.7675464, "lon": 23.1901508, "tags": {"amenity": "pharmacy", "brand": "Cef@Rm 36,6", "dispensing": "yes", "healthcare": "pharmacy", "name": "Cef@Rm 36,6", "ref:csioz": "1022624"}}, {"type": "node", "id": 3060763583, "lat": 52.7703641, "lon": 23.1862729, "tags": {"amenity": "pharmacy", "brand": "Cef@Rm 36,6", "dispensing": "yes", "healthcare": "pharmacy", "name": "Cef@Rm 36,6", "ref:csioz": "1022821"}}, {"type": "node", "id": 3060765199, "lat": 52.7705893, "lon": 23.1866353, "tags": {"amenity": "pharmacy", "dispensing": "yes", "healthcare": "pharmacy", "name": "Galena", "ref:csioz": "1023228"}}, {"type": "node", "id": 5537551222, "lat": 52.515616, "lon": 23.3523226, "tags": {"addr:city": "Czeremcha", "addr:city:simc": "0025810", "addr:housenumber": "86d", "addr:postcode": "17-240", "addr:street": "1 Maja", "addr:street:sym_ul": "11926", "amenity": "pharmacy", "brand": "Arnika", "dispensing": "yes", "healthcare": "pharmacy", "name": "Arnika", "opening_hours": "Mo-Fr 08:00-16:00; Sa 08:30-12:30", "ref:csioz": "1021846"}}, {"type": "node", "id": 5747679269, "lat": 52.7734311, "lon": 23.1853932, "tags": {"addr:city": "Bielsk Podlaski", "addr:housenumber": "54", "addr:postcode": "17-100", "addr:street": "Aleja J\u00f3zefa Pi\u0142sudskiego", "amenity": "pharmacy", "dispensing": "yes", "drive_through": "yes", "email": "bielsk@pogodnaapteka.pl", "healthcare": "pharmacy", "name": "Pogodna Ap Drive", "opening_hours": "24/7", "operator": "Pogodna Apteka B. Kuczy\u0144ska Sp.j", "ref:csioz": "1219317"}}, {"type": "node", "id": 6939991678, "lat": 52.7703983, "lon": 23.1807975, "tags": {"amenity": "pharmacy", "brand": "Cosmedica", "dispensing": "yes", "healthcare": "pharmacy", "name": "Cosmedica", "ref:csioz": "1213057"}}, {"type": "node", "id": 9103080842, "lat": 52.7419124, "lon": 22.8407896, "tags": {"amenity": "pharmacy", "dispensing": "yes", "healthcare": "pharmacy", "ref:csioz": "1020221"}}, {"type": "node", "id": 9498979610, "lat": 52.7727874, "lon": 23.1989821, "tags": {"addr:housenumber": "28", "addr:street": "Ogrodowa", "amenity": "pharmacy", "dispensing": "yes", "healthcare": "pharmacy", "name": "Maria Niewi\u0144ska", "phone": "857305485", "ref:csioz": "1020185"}}, {"type": "node", "id": 9499004568, "lat": 52.7720215, "lon": 23.192851, "tags": {"addr:housenumber": "51", "addr:street": "Mickiewicza", "addr:unit": "3", "amenity": "pharmacy", "dispensing": "yes", "healthcare": "pharmacy", "name": "Spo\u0142eczna", "phone": "85 833 68 03", "ref:csioz": "1189696"}}, {"type": "node", "id": 9556817741, "lat": 52.5681859, "lon": 22.9145906, "tags": {"addr:housenumber": "47", "addr:place": "Dziadkowice", "addr:postcode": "17-306", "amenity": "pharmacy", "name": "Apteka", "ref:csioz": "1230659"}}, {"type": "node", "id": 9605933360, "lat": 52.7599683, "lon": 23.2018822, "tags": {"addr:city": "Bielsk Podlaski", "addr:housenumber": "1B", "addr:postcode": "17-100", "addr:street": "Kleszczelowska", "amenity": "pharmacy", "dispensing": "yes", "healthcare": "pharmacy", "name": "Bliska", "ref:csioz": "1230824"}}, {"type": "node", "id": 10269865469, "lat": 52.7721499, "lon": 23.1918668, "tags": {"amenity": "pharmacy", "dispensing": "yes", "healthcare": "pharmacy", "name": "Od Serca", "ref:csioz": "1023304"}}, {"type": "node", "id": 10269865470, "lat": 52.7692358, "lon": 23.1811845, "tags": {"amenity": "pharmacy", "brand": "Dbam o Zdrowie", "brand:wikidata": "Q62563833", "dispensing": "yes", "healthcare": "pharmacy", "name": "Dbam o Zdrowie", "ref:csioz": "1020284", "short_name": "DOZ"}}, {"type": "node", "id": 10269865487, "lat": 52.7698289, "lon": 23.1975997, "tags": {"amenity": "pharmacy", "dispensing": "yes", "healthcare": "pharmacy", "name": "Medica", "ref:csioz": "1023081"}}, {"type": "node", "id": 10269865495, "lat": 52.7692481, "lon": 23.1968077, "tags": {"amenity": "pharmacy", "dispensing": "yes", "healthcare": "pharmacy", "ref:csioz": "1024587"}}, {"type": "node", "id": 10269885960, "lat": 52.7069509, "lon": 23.328774, "tags": {"amenity": "pharmacy", "dispensing": "yes", "healthcare": "pharmacy", "name": "Od Serca", "ref:csioz": "1178396"}}, {"type": "node", "id": 10269885964, "lat": 52.6614274, "lon": 22.8676503, "tags": {"amenity": "pharmacy", "dispensing": "yes", "healthcare": "pharmacy", "name": "Punkt Apteczny", "ref:csioz": "1015085"}}, {"type": "node", "id": 10269909731, "lat": 52.7440986, "lon": 22.8369026, "tags": {"amenity": "pharmacy", "dispensing": "yes", "healthcare": "pharmacy", "name": "Pod D\u0119bem", "ref:csioz": "1017294"}}, {"type": "node", "id": 10269909735, "lat": 52.6506411, "lon": 23.0454064, "tags": {"amenity": "pharmacy", "dispensing": "yes", "fixme": "Lokalizacja do weryfikacji", "healthcare": "pharmacy", "ref:csioz": "1231147"}}, {"type": "node", "id": 10270154239, "lat": 52.5740039, "lon": 23.3262377, "tags": {"amenity": "pharmacy", "dispensing": "yes", "healthcare": "pharmacy", "name": "Aqua", "ref:csioz": "1024382", "wheelchair": "no"}}, {"type": "node", "id": 10270154279, "lat": 52.7767428, "lon": 23.4226928, "tags": {"amenity": "pharmacy", "dispensing": "yes", "healthcare": "pharmacy", "name": "Punkt Apteczny", "ref:csioz": "1231217"}}]}