{"version": 0.6, "generator": "Overpass API 0.7.62.8 e802775f", "osm3s": {"timestamp_osm_base": "2025-10-06T08:24:06Z", "copyright": "The data included in this document is from www.openstreetmap.org. The data is made available under ODbL."}, "elements": [{"type": "node", "id": 577431032, "lat": 50.1323361, "lon": 20.8846961, "tags": {"addr:housenumber": "10", "addr:street": "Plac Grunwaldzki", "amenity": "pharmacy", "name": "Apteka", "phone": "+48146456118", "source": "http://ump.waw.pl/ retrieved 11:18:52 11/17/09 (UMP-Tarnow/src/POI-szpitale.pnt-converted.txt)"}}, {"type": "node", "id": 577436945, "lat": 50.1727734, "lon": 20.9815595, "tags": {"addr:city": "D\u0105browa Tarnowska", "addr:housenumber": "9", "addr:place": "Osiedle Ko\u015bciuszki", "amenity": "pharmacy", "dispensing": "yes", "healthcare": "pharmacy", "name": "Panaceum", "phone": "+48146422684", "ref:csioz": "1079311", "source:addr": "Yanosik"}}, {"type": "node", "id": 577437004, "lat": 50.17722, "lon": 20.97583, "tags": {"addr:city": "D\u0105browa Tarnowska", "addr:housenumber": "1", "addr:street": "Szpitalna", "amenity": "pharmacy", "dispensing": "yes", "healthcare": "pharmacy", "phone": "+48146425566", "ref:csioz": "1186634", "source": "http://ump.waw.pl/ retrieved 11:18:52 11/17/09 (UMP-Tarnow/src/POI-szpitale.pnt-converted.txt)"}}, {"type": "node", "id": 577437048, "lat": 50.17851, "lon": 20.98337, "tags": {"addr:city": "D\u0105browa Tarnowska", "addr:housenumber": "7", "addr:street": "Majora Henryka Sucharskiego", "amenity": "pharmacy", "dispensing": "yes", "healthcare": "pharmacy", "name": "Galen", "phone": "+48146423796", "ref:csioz": "1079333", "source": "http://ump.waw.pl/ retrieved 11:18:52 11/17/09 (UMP-Tarnow/src/POI-szpitale.pnt-converted.txt)"}}, {"type": "node", "id": 577437124, "lat": 50.1739104, "lon": 20.9849173, "tags": {"addr:city": "D\u0105browa Tarnowska", "addr:housenumber": "7", "addr:street": "J\u00f3zefa Pi\u0142sudskiego", "amenity": "pharmacy", "dispensing": "yes", "healthcare": "pharmacy", "phone": "+48146422488", "ref:csioz": "1079322", "source": "http://ump.waw.pl/ retrieved 11:18:52 11/17/09 (UMP-Tarnow/src/POI-szpitale.pnt-converted.txt)"}}, {"type": "node", "id": 577437224, "lat": 50.1745692, "lon": 20.9853039, "tags": {"addr:city": "D\u0105browa Tarnowska", "addr:housenumber": "8", "addr:street": "Rynek", "amenity": "pharmacy", "dispensing": "yes", "healthcare": "pharmacy", "name": "Lekoland", "phone": "+48146424231", "ref:csioz": "1079281", "source": "http://ump.waw.pl/ retrieved 11:18:52 11/17/09 (UMP-Tarnow/src/POI-szpitale.pnt-converted.txt)"}}, {"type": "node", "id": 1191651859, "lat": 50.2810677, "lon": 20.9469918, "tags": {"amenity": "pharmacy"}}, {"type": "node", "id": 2482352464, "lat": 50.13266, "lon": 20.8888819}, {"type": "node", "id": 2482352525, "lat": 50.1327387, "lon": 20.8886889}, {"type": "node", "id": 2482352528, "lat": 50.132742, "lon": 20.8889626}, {"type": "node", "id": 2482352577, "lat": 50.1327746, "lon": 20.8888823}, {"type": "node", "id": 2482352608, "lat": 50.1327911, "lon": 20.8888985}, {"type": "node", "id": 2482352614, "lat": 50.1327955, "lon": 20.8888309}, {"type": "node", "id": 2482352630, "lat": 50.1328125, "lon": 20.8888452}, {"type": "node", "id": 2482352640, "lat": 50.1328181, "lon": 20.8887679}, {"type": "node", "id": 2482353582, "lat": 50.1333888, "lon": 20.8842594}, {"type": "node", "id": 2482353723, "lat": 50.1334258, "lon": 20.8840559}, {"type": "node", "id": 2482353944, "lat": 50.1334922, "lon": 20.8842017}, {"type": "node", "id": 2482354014, "lat": 50.1335165, "lon": 20.8841124}, {"type": "node", "id": 2482354019, "lat": 50.1335213, "lon": 20.884314}, {"type": "node", "id": 2482354064, "lat": 50.1335334, "lon": 20.8842211}, {"type": "node", "id": 2840921543, "lat": 50.3088036, "lon": 21.0732372, "tags": {"amenity": "pharmacy", "dispensing": "yes", "healthcare": "pharmacy", "ref:csioz": "1079420"}}, {"type": "node", "id": 2868200949, "lat": 50.1831477, "lon": 20.8122531, "tags": {"addr:housenumber": "259", "addr:place": "Otfin\u00f3w", "addr:postcode": "33-250", "amenity": "pharmacy", "dispensing": "no", "healthcare": "pharmacy", "name": "Punkt Apteczny Bliski", "opening_hours": "Mo-Fr 08:00-16:00", "phone": "+48 12 446 62 91", "website": "https://aptekibliskie.pl"}}, {"type": "node", "id": 3251389177, "lat": 50.4593874, "lon": 20.7220901, "tags": {"addr:city": "Busko-Zdr\u00f3j", "addr:city:simc": "0946651", "addr:housenumber": "17", "addr:postcode": "28-100", "addr:street": "1 Maja", "addr:street:sym_ul": "11926", "amenity": "pharmacy", "dispensing": "yes", "healthcare": "pharmacy", "name": "Vita", "ref:csioz": "1002248", "source:addr": "buskozdroj.e-mapa.net"}}, {"type": "node", "id": 3358913731, "lat": 50.4675115, "lon": 20.7284512, "tags": {"addr:city": "Busko-Zdr\u00f3j", "addr:housenumber": "26", "addr:postcode": "28-100", "addr:street": "Osiedle W\u0142adys\u0142awa Sikorskiego", "amenity": "pharmacy", "dispensing": "yes", "healthcare": "pharmacy", "name": "Apteka Na Sikorskiego", "ref:csioz": "1001945"}}, {"type": "node", "id": 3358914175, "lat": 50.4697531, "lon": 20.7182661, "tags": {"addr:city": "Busko-Zdr\u00f3j", "addr:country": "PL", "addr:district": "buski", "addr:housenumber": "10", "addr:postcode": "28-100", "addr:province": "\u015awi\u0119tokrzyskie", "addr:street": "Plac Zwyci\u0119stwa", "addr:subdistrict": "Busko Zdr\u00f3j", "amenity": "pharmacy", "dispensing": "yes", "healthcare": "pharmacy", "name": "Centrum", "opening_hours": "Mo-Su 07:30-21:00", "phone": "+48 41 378 34 88", "ref:csioz": "1000704"}}, {"type": "node", "id": 3636379846, "lat": 50.1733679, "lon": 20.982618}, {"type": "node", "id": 3675683038, "lat": 50.2979015, "lon": 20.8089156, "tags": {"addr:city": "Nowy Korczyn", "addr:housenumber": "12", "addr:street": "Krakowska", "amenity": "pharmacy", "dispensing": "yes", "healthcare": "pharmacy", "name": "Nad Rzek\u0105", "ref:csioz": "1000111"}}, {"type": "node", "id": 3953261764, "lat": 50.1733381, "lon": 20.982439}, {"type": "node", "id": 3953261765, "lat": 50.1732867, "lon": 20.9824593}, {"type": "node", "id": 3953261766, "lat": 50.1732932, "lon": 20.9824966}, {"type": "node", "id": 3953261767, "lat": 50.1731824, "lon": 20.9825427}, {"type": "node", "id": 3953261768, "lat": 50.173208, "lon": 20.9826848}, {"type": "node", "id": 5683850222, "lat": 50.366847, "lon": 20.8873917, "tags": {"addr:city": "Solec-Zdr\u00f3j", "addr:housenumber": "4", "addr:street": "1 Maja", "amenity": "pharmacy", "dispensing": "yes", "name": "Zdr\u00f3j", "opening_hours": "Mo-Fr 08:00-18:00; Sa 08:00-14:00", "ref:csioz": "1002862"}}, {"type": "node", "id": 5705167821, "lat": 50.3996624, "lon": 21.0412283, "tags": {"addr:city": "Pacan\u00f3w", "addr:city:simc": "0258715", "addr:housenumber": "11", "addr:postcode": "28-133", "addr:street": "Rynek", "amenity": "pharmacy", "dispensing": "yes", "healthcare": "pharmacy", "name": "Rodzinna", "opening_hours": "Mo-Fr 07:00-19:00; Sa 07:00-14:00", "ref:csioz": "1003644"}}, {"type": "node", "id": 5705479221, "lat": 50.4404687, "lon": 20.9384277, "tags": {"addr:city": "Stopnica", "addr:housenumber": "4", "addr:street": "Plac J\u00f3zefa Pi\u0142sudskiego", "amenity": "pharmacy", "dispensing": "yes", "ref:csioz": "1001781"}}, {"type": "node", "id": 6076905707, "lat": 50.4397842, "lon": 20.9390028, "tags": {"addr:city": "Stopnica", "addr:housenumber": "31", "addr:street": "Plac J\u00f3zefa Pi\u0142sudskiego", "amenity": "pharmacy", "dispensing": "yes", "healthcare": "pharmacy", "name": "Nova", "ref:csioz": "1002972"}}, {"type": "node", "id": 6158812349, "lat": 50.4691576, "lon": 20.7219672, "tags": {"addr:city": "Busko-Zdr\u00f3j", "addr:housenumber": "3", "addr:postcode": "28-100", "addr:street": "Stefana Batorego", "amenity": "pharmacy", "dispensing": "yes", "healthcare": "pharmacy", "name": "Dr. Optima", "ref:csioz": "1222212"}}, {"type": "node", "id": 6159142738, "lat": 50.4697827, "lon": 20.7169149, "tags": {"addr:city": "Busko-Zdr\u00f3j", "addr:housenumber": "15", "addr:street": "Jana Kili\u0144skiego", "amenity": "pharmacy", "dispensing": "yes", "healthcare": "pharmacy", "name": "Codzienna", "opening_hours": "Mo-Fr 08:00-20:00; Sa 08:00-15:00", "ref:csioz": "1004170"}}, {"type": "node", "id": 6161100746, "lat": 50.4712901, "lon": 20.7177538, "tags": {"addr:city": "Busko-Zdr\u00f3j", "addr:housenumber": "2A", "addr:street": "Stanis\u0142awa Staszica", "amenity": "pharmacy", "dispensing": "yes", "healthcare": "pharmacy", "name": "Farmavit", "ref:csioz": "1000380"}}, {"type": "node", "id": 6161345385, "lat": 50.4698588, "lon": 20.7214594, "tags": {"addr:city": "Busko-Zdr\u00f3j", "addr:housenumber": "4", "addr:street": "Targowa", "amenity": "pharmacy", "dispensing": "yes", "healthcare": "pharmacy", "name": "Na Targowej", "ref:csioz": "1003074"}}, {"type": "node", "id": 6161979316, "lat": 50.4727314, "lon": 20.7193452, "tags": {"addr:city": "Busko-Zdr\u00f3j", "addr:housenumber": "14", "addr:street": "Wojska Polskiego", "amenity": "pharmacy", "dispensing": "yes", "healthcare": "pharmacy", "name": "S\u0142oneczna", "opening_hours": "24/7", "ref:csioz": "1003742"}}, {"type": "node", "id": 7099455486, "lat": 50.1320516, "lon": 20.8855378, "tags": {"amenity": "pharmacy", "name": "Apteka", "name:en": "Pharmacy"}}, {"type": "node", "id": 8221832821, "lat": 50.4685663, "lon": 20.7051727, "tags": {"addr:city": "Busko-Zdr\u00f3j", "addr:housenumber": "67D", "addr:street": "Bohater\u00f3w Warszawy", "amenity": "pharmacy", "dispensing": "yes", "healthcare": "pharmacy", "name": "Plus", "ref:csioz": "1112044"}}, {"type": "node", "id": 8221832969, "lat": 50.4689121, "lon": 20.7061289, "tags": {"addr:city": "Busko-Zdr\u00f3j", "addr:housenumber": "65A", "addr:street": "Bohater\u00f3w Warszawy", "amenity": "pharmacy", "dispensing": "yes", "healthcare": "pharmacy", "ref:csioz": "1000975"}}, {"type": "node", "id": 9558356655, "lat": 50.2993967, "lon": 20.8080613, "tags": {"addr:city": "Nowy Korczyn", "addr:housenumber": "3", "addr:street": "Rynek", "amenity": "pharmacy", "dispensing": "yes", "healthcare": "pharmacy", "ref:csioz": "1002766"}}, {"type": "node", "id": 9561316002, "lat": 50.2881439, "lon": 20.6470044, "tags": {"amenity": "pharmacy", "contact:mobile": "+48 608 204 975", "email": "krzczonow@op.pl", "healthcare": "pharmacy", "name": "Punkt Apteczny", "opening_hours": "Mo-Fr 08:00-15:00", "phone": "+48 41 351 72 36", "ref:csioz": "1004453"}}, {"type": "node", "id": 9561316003, "lat": 50.241663, "lon": 20.602668, "tags": {"addr:housenumber": "236/C", "addr:place": "Bejsce", "addr:postcode": "28-512", "amenity": "pharmacy", "email": "apteka.bejsce@gmail.com", "healthcare": "pharmacy", "name": "Apteka Nowa", "opening_hours": "Mo-Fr 07:30-15:30", "phone": "+48 41 351 11 64", "ref:csioz": "1000635"}}, {"type": "node", "id": 9561316005, "lat": 50.2636957, "lon": 20.4933319, "tags": {"addr:city": "Kazimierza Wielka", "addr:flats": "3", "addr:housenumber": "7", "addr:postcode": "28-500", "addr:street": "Okr\u0119\u017cna", "amenity": "pharmacy", "contact:mobile": "+48 608 204 975", "healthcare": "pharmacy", "name": "Nowa", "opening_hours": "Mo-Fr 07:30-18:00; Sa 08:00-14:00", "phone": "+48 41 370 90 97", "ref:csioz": "1004143"}}, {"type": "node", "id": 9561316007, "lat": 50.268707, "lon": 20.4841831, "tags": {"addr:city": "Kazimierza Wielka", "addr:housenumber": "5", "addr:postcode": "28-500", "addr:street": "Partyzant\u00f3w", "amenity": "pharmacy", "email": "kazimierza.apteka@gmail.com", "healthcare": "pharmacy", "name": "Apteka Pod Anio\u0142ami", "opening_hours": "Mo-Fr 08:00-20:00; Sa 08:00-17:00", "operator": "AM-FARM Sp. z o.o.", "phone": "+48 12 659 28 80", "ref:csioz": "1220510"}}, {"type": "node", "id": 9561316008, "lat": 50.268999, "lon": 20.4832865, "tags": {"addr:city": "Kazimierza Wielka", "addr:housenumber": "11", "addr:postcode": "28-500", "addr:street": "Partyzant\u00f3w", "amenity": "pharmacy", "name": "Apteka Szpitalna", "ref:csioz": "1137880"}}, {"type": "node", "id": 9561316009, "lat": 50.2733061, "lon": 20.483313, "tags": {"addr:city": "Kazimierza Wielka", "addr:housenumber": "27G", "addr:postcode": "28-500", "addr:street": "Kolejowa", "amenity": "pharmacy", "email": "apteka@podcisami.pl", "healthcare": "pharmacy", "name": "Apteka Codzienna", "opening_hours": "Mo-Fr 08:00-20:00; Sa 08:00-15:00", "phone": "+48 41 352 40 54", "ref:csioz": "1003769"}}, {"type": "node", "id": 9561316010, "lat": 50.2661799, "lon": 20.4914349, "tags": {"addr:city": "Kazimierza Wielka", "addr:housenumber": "11", "addr:postcode": "28-500", "addr:street": "1 Maja", "amenity": "pharmacy", "email": "kazimierza.wielka@erodzinna.pl", "healthcare": "pharmacy", "name": "Apteka Rodzinna", "opening_hours": "Mo-Fr 07:30-20:00; Sa 08:00-14:00", "phone": "+48 41 352 26 86", "ref:csioz": "1002382"}}, {"type": "node", "id": 9561316013, "lat": 50.2694484, "lon": 20.483156, "tags": {"addr:city": "Kazimierza Wielka", "addr:housenumber": "13", "addr:postcode": "28-500", "addr:street": "Partyzant\u00f3w", "amenity": "pharmacy", "email": "blajszczak.kazimierza@gmail.com", "healthcare": "pharmacy", "opening_hours": "Mo-Fr 07:30-20:00; Sa 08:00-15:00", "operator": "B\u0142aszczak Sp.J.", "phone": "+48 41 352 11 42", "ref:csioz": "1002005"}}, {"type": "node", "id": 9561316014, "lat": 50.2694462, "lon": 20.4840826, "tags": {"addr:city": "Kazimierza Wielka", "addr:housenumber": "28A", "addr:postcode": "28-500", "addr:street": "Partyzant\u00f3w", "amenity": "pharmacy", "healthcare": "pharmacy", "opening_hours": "Mo-Fr 08:00-20:00; Sa 08:00-15:00", "phone": "+48 41 352 26 81", "ref:csioz": "1000643"}}, {"type": "node", "id": 9566898952, "lat": 50.1673144, "lon": 20.5763458, "tags": {"addr:city": "Koszyce", "addr:housenumber": "29", "addr:postcode": "32-130", "addr:street": "Rynek", "amenity": "pharmacy", "name": "Pod Anio\u0142ami", "ref:csioz": "1225027"}}, {"type": "node", "id": 9566898953, "lat": 50.1668266, "lon": 20.5761802, "tags": {"addr:city": "Koszyce", "addr:housenumber": "5", "addr:postcode": "32-130", "addr:street": "Rynek", "amenity": "pharmacy", "name": "Koszycka Apteka Niskich Cen", "ref:csioz": "1036527"}}, {"type": "node", "id": 9678396627, "lat": 50.4730089, "lon": 20.7167908, "tags": {"addr:city": "Busko-Zdr\u00f3j", "addr:housenumber": "11", "addr:street": "S\u0105dowa", "amenity": "pharmacy", "dispensing": "yes", "name": "Mojej Mamy", "ref:csioz": "1188933"}}, {"type": "node", "id": 9678396628, "lat": 50.3470429, "lon": 20.6766347, "tags": {"addr:city": "Wi\u015blica", "addr:housenumber": "5", "addr:street": "Podgrodzie", "amenity": "pharmacy", "dispensing": "yes", "name": "Centrum Zdrowia", "ref:csioz": "1179632"}}, {"type": "node", "id": 9678396629, "lat": 50.4689917, "lon": 20.7228672, "tags": {"addr:city": "Busko-Zdr\u00f3j", "addr:housenumber": "11A", "addr:street": "Stefana Batorego", "amenity": "pharmacy", "dispensing": "yes", "name": "S\u0142oneczna", "ref:csioz": "1112031"}}, {"type": "node", "id": 9678396630, "lat": 50.3490227, "lon": 20.6729739, "tags": {"addr:city": "Wi\u015blica", "addr:housenumber": "4", "addr:street": "Rynek", "amenity": "pharmacy", "dispensing": "yes", "name": "Wi\u015blicka", "ref:csioz": "1004197"}}, {"type": "node", "id": 9678396631, "lat": 50.3697447, "lon": 20.8889373, "tags": {"addr:city": "Solec-Zdr\u00f3j", "addr:housenumber": "14A", "addr:street": "1 Maja", "amenity": "pharmacy", "dispensing": "yes", "name": "Centrum Zdrowia", "ref:csioz": "1004124"}}, {"type": "node", "id": 9678396632, "lat": 50.4558513, "lon": 20.7213226, "tags": {"addr:city": "Busko-Zdr\u00f3j", "addr:housenumber": "4", "addr:street": "Genera\u0142a Feliksa Rzewuskiego", "amenity": "pharmacy", "dispensing": "yes", "name": "Premium-Lek", "ref:csioz": "1002702"}}, {"type": "node", "id": 9678396633, "lat": 50.4017819, "lon": 21.0385724, "tags": {"amenity": "pharmacy", "dispensing": "yes", "ref:csioz": "1001984"}}, {"type": "node", "id": 9678396634, "lat": 50.3486733, "lon": 20.674776, "tags": {"amenity": "pharmacy", "dispensing": "yes", "name": "Cef@Rm 36,6", "opening_hours": "Mo-Fr 08:00-19:00; Sa 08:00-14:00; Su off", "ref:csioz": "1000934"}}, {"type": "node", "id": 9678396635, "lat": 50.5174837, "lon": 20.9932874, "tags": {"addr:housenumber": "41", "addr:place": "Tucz\u0119py", "amenity": "pharmacy", "dispensing": "yes", "ref:csioz": "1000712"}}, {"type": "node", "id": 9678396636, "lat": 50.3145132, "lon": 20.9137168, "tags": {"addr:housenumber": "133", "addr:place": "Brzostk\u00f3w", "amenity": "pharmacy", "dispensing": "yes", "name": "Punkt Apteczny", "ref:csioz": "1000122"}}, {"type": "node", "id": 9680303672, "lat": 50.264194, "lon": 20.4927468, "tags": {"addr:city": "Kazimierza Wielka", "addr:housenumber": "5B", "addr:postcode": "28-500", "addr:street": "Armii Krajowej", "amenity": "pharmacy", "email": "aptekapodopatrznoscia@op.pl", "healthcare": "pharmacy", "name": "Apteka Pod Opatrzno\u015bci\u0105", "opening_hours": "Mo-Fr 08:00-20:00; Sa 08:00-15:00", "phone": "+48 41 350 15 10", "ref:csioz": "1002039"}}, {"type": "node", "id": 9681295977, "lat": 50.2727411, "lon": 20.4834356, "tags": {"addr:city": "Kazimierza Wielka", "addr:housenumber": "25A", "addr:postcode": "28-500", "addr:street": "Kolejowa", "amenity": "pharmacy", "email": "nowa.molo@onet.pl", "healthcare": "pharmacy", "name": "Nowa", "opening_hours": "Mo-Sa 07:30-21:00; Su 08:00-21:00", "phone": "+48 41 352 11 46", "ref:csioz": "1002522"}}, {"type": "node", "id": 9741786827, "lat": 50.4483742, "lon": 20.5892847, "tags": {"addr:housenumber": "6A", "addr:place": "Leszcze", "amenity": "pharmacy", "dispensing": "yes", "healthcare": "pharmacy", "name": "Punkt Apteczny Pod Anio\u0142ami", "ref:csioz": "1229051"}}, {"type": "node", "id": 9741786829, "lat": 50.3833391, "lon": 20.592673, "tags": {"addr:city": "Z\u0142ota", "addr:housenumber": "2", "addr:street": "S\u0142oneczna", "amenity": "pharmacy", "dispensing": "yes", "fixme": "Lokalizacja do weryfikacji", "name": "Centrum Zdrowia", "ref:csioz": "1178972"}}, {"type": "node", "id": 9786826876, "lat": 50.4504387, "lon": 21.0636074, "tags": {"amenity": "pharmacy", "dispensing": "yes", "name": "S\u0142oneczna", "ref:csioz": "1003986"}}, {"type": "node", "id": 10102927438, "lat": 50.1733424, "lon": 20.9824644}, {"type": "node", "id": 10242127234, "lat": 50.1465494, "lon": 20.6929169, "tags": {"amenity": "pharmacy", "dispensing": "yes", "healthcare": "pharmacy", "name": "Punkt Apteczny Bliski", "ref:csioz": "1210750"}}, {"type": "node", "id": 10242127240, "lat": 50.1198486, "lon": 20.6362387, "tags": {"amenity": "pharmacy", "dispensing": "yes", "healthcare": "pharmacy", "name": "Niskich Cen", "ref:csioz": "1179221"}}, {"type": "node", "id": 10242127267, "lat": 50.0675147, "lon": 20.7096292, "tags": {"amenity": "pharmacy", "dispensing": "yes", "fixme": "Lokalizacja do weryfikacji", "healthcare": "pharmacy", "name": "Bliska I Tania", "ref:csioz": "1118223"}}, {"type": "node", "id": 10300404806, "lat": 50.2413338, "lon": 20.7248025, "tags": {"amenity": "pharmacy", "healthcare": "pharmacy"}}, {"type": "node", "id": 10646872630, "lat": 50.1778483, "lon": 20.9754487, "tags": {"amenity": "pharmacy", "dispensing": "yes", "healthcare": "pharmacy", "name": "S\u0142oneczna", "ref:csioz": "1119278"}}, {"type": "node", "id": 10646872660, "lat": 50.1754238, "lon": 20.9857343, "tags": {"amenity": "pharmacy", "dispensing": "yes", "healthcare": "pharmacy", "ref:csioz": "1120741"}}, {"type": "node", "id": 10646872661, "lat": 50.1743502, "lon": 20.9855082, "tags": {"amenity": "pharmacy", "dispensing": "yes", "healthcare": "pharmacy", "name": "Codzienna", "ref:csioz": "1079297"}}, {"type": "node", "id": 10646872662, "lat": 50.1755082, "lon": 20.9893937, "tags": {"amenity": "pharmacy", "dispensing": "yes", "healthcare": "pharmacy", "ref:csioz": "1216037"}}, {"type": "node", "id": 10646902374, "lat": 50.3096048, "lon": 21.0761304, "tags": {"amenity": "pharmacy", "dispensing": "yes", "fixme": "Lokalizacja do weryfikacji", "healthcare": "pharmacy", "name": "Punkt Apteczny Nagietek", "ref:csioz": "1079677"}}, {"type": "node", "id": 10646902375, "lat": 50.3086829, "lon": 21.0718962, "tags": {"amenity": "pharmacy", "dispensing": "yes", "healthcare": "pharmacy", "name": "Rodzinna", "ref:csioz": "1171119"}}, {"type": "node", "id": 10646902376, "lat": 50.3077078, "lon": 21.0739782, "tags": {"amenity": "pharmacy", "dispensing": "yes", "healthcare": "pharmacy", "name": "Centrum", "ref:csioz": "1079436"}}, {"type": "node", "id": 10646902377, "lat": 50.2060211, "lon": 21.1110151, "tags": {"amenity": "pharmacy", "dispensing": "yes", "healthcare": "pharmacy", "name": "Centrum", "ref:csioz": "1079404"}}, {"type": "node", "id": 10646902378, "lat": 50.2029475, "lon": 20.9281197, "tags": {"amenity": "pharmacy", "dispensing": "yes", "healthcare": "pharmacy", "ref:csioz": "1079398"}}, {"type": "node", "id": 10646902380, "lat": 50.2452098, "lon": 20.7762327, "tags": {"amenity": "pharmacy", "dispensing": "yes", "healthcare": "pharmacy", "name": "Nova", "ref:csioz": "1181705"}}, {"type": "node", "id": 11061426506, "lat": 50.4478324, "lon": 20.5892509}, {"type": "node", "id": 11061426507, "lat": 50.4477328, "lon": 20.5891881}, {"type": "node", "id": 11061426508, "lat": 50.4477037, "lon": 20.5893021}, {"type": "node", "id": 11061426509, "lat": 50.4478033, "lon": 20.5893648}, {"type": "node", "id": 12152134101, "lat": 50.1895153, "lon": 20.7555965, "tags": {"addr:housenumber": "205", "amenity": "pharmacy", "name": "Apteka Bliska", "opening_hours": "Mo-Fr 07:30-17:00; Sa 08:00-13:00", "website": "https://aptekibliskie.pl/"}}, {"type": "node", "id": 12541950053, "lat": 50.2414277, "lon": 20.6028762, "tags": {"amenity": "pharmacy", "name": "\"Nowa\" Apteka"}}, {"type": "way", "id": 240508563, "nodes": [2482354014, 2482353944, 2482354064, 2482354019, 2482353582, 2482353723, 2482354014], "tags": {"addr:city": "\u017babno", "addr:city:simc": "0982641", "addr:housenumber": "4", "addr:postcode": "33-240", "addr:street": "Jana Kili\u0144skiego", "addr:street:sym_ul": "8435", "amenity": "pharmacy", "building": "yes", "name": "Dziekanowska i Sp-ka", "phone": "+48146456029", "source": "http://ump.waw.pl/ retrieved 11:18:52 11/17/09 (UMP-Tarnow/src/POI-szpitale.pnt-converted.txt)", "source:addr": "emuia.gugik.gov.pl"}}, {"type": "way", "id": 240509020, "nodes": [2482352525, 2482352640, 2482352614, 2482352630, 2482352608, 2482352577, 2482352528, 2482352464, 2482352525], "tags": {"addr:city": "\u017babno", "addr:city:simc": "0982641", "addr:housenumber": "1", "addr:postcode": "33-240", "addr:street": "Aleja J\u00f3zefa Pi\u0142sudskiego", "amenity": "pharmacy", "building": "yes", "name": "Omega", "source:addr": "emuia.gugik.gov.pl"}}, {"type": "way", "id": 392047567, "nodes": [3636379846, 10102927438, 3953261764, 3953261765, 3953261766, 3953261767, 3953261768, 3636379846], "tags": {"addr:city": "D\u0105browa Tarnowska", "addr:housenumber": "4", "addr:street": "1 Maja", "amenity": "pharmacy", "building": "yes", "healthcare": "pharmacy", "name": "Dla zdrowia", "phone": "+48146424846", "source": "http://ump.waw.pl/ retrieved 11:18:52 11/17/09 (UMP-Tarnow/src/POI-szpitale.pnt-converted.txt)"}}, {"type": "way", "id": 1191374316, "nodes": [11061426506, 11061426507, 11061426508, 11061426509, 11061426506], "tags": {"addr:housenumber": "2B", "addr:place": "Gacki-Osiedle", "addr:postcode": "28-400", "amenity": "pharmacy", "building": "yes", "dispensing": "yes", "healthcare": "pharmacy", "name": "Punkt Apteczny Centrum Zdrowia", "ref:csioz": "1231216"}}]}