{"version": 0.6, "generator": "Overpass API 0.7.62.8 e802775f", "osm3s": {"timestamp_osm_base": "2025-10-06T08:24:06Z", "copyright": "The data included in this document is from www.openstreetmap.org. The data is made available under ODbL."}, "elements": [{"type": "node", "id": 854718208, "lat": 49.2920107, "lon": 21.2740882, "tags": {"amenity": "pharmacy", "healthcare": "pharmacy", "name": "Lek\u00e1re\u0148 Ambra"}}, {"type": "node", "id": 854718260, "lat": 49.2910151, "lon": 21.2755483, "tags": {"amenity": "pharmacy", "healthcare": "pharmacy", "name": "Lek\u00e1re\u0148 pri ba\u0161te"}}, {"type": "node", "id": 854718410, "lat": 49.2876511, "lon": 21.2716098, "tags": {"amenity": "pharmacy", "name": "Lek\u00e1re\u0148 sv. Jakuba II."}}, {"type": "node", "id": 854718416, "lat": 49.288201, "lon": 21.2722622, "tags": {"amenity": "pharmacy", "name": "Lek\u00e1re\u0148 D\u00faha"}}, {"type": "node", "id": 854718531, "lat": 49.2905762, "lon": 21.2656232, "tags": {"amenity": "pharmacy", "healthcare": "pharmacy"}}, {"type": "node", "id": 855237067, "lat": 49.2929576, "lon": 21.2751433, "tags": {"amenity": "pharmacy", "check_date:opening_hours": "2025-08-28", "healthcare": "pharmacy", "name": "Lek\u00e1re\u0148 u sv. Eg\u00eddia", "opening_hours": "Mo-Fr 07:30-17:00"}}, {"type": "node", "id": 855237090, "lat": 49.2925198, "lon": 21.2700156, "tags": {"amenity": "pharmacy", "healthcare": "pharmacy", "name": "lek\u00e1re\u0148 \u00c1trium", "opening_hours": "Mo-Fr 07:00-20:00; PH,Sa,Su 08:00-20:00"}}, {"type": "node", "id": 856291142, "lat": 49.2875127, "lon": 21.2681958, "tags": {"amenity": "pharmacy"}}, {"type": "node", "id": 1037606500, "lat": 49.42161, "lon": 20.9644444, "tags": {"addr:city": "Krynica-Zdr\u00f3j", "addr:street": "Kazimierza Pu\u0142askiego", "amenity": "pharmacy", "name": "Apteka Cefarm", "phone": "+48184715750", "source": "ump.waw.pl"}}, {"type": "node", "id": 1820826758, "lat": 49.3133919, "lon": 21.1320125, "tags": {"amenity": "pharmacy", "dispensing": "no"}}, {"type": "node", "id": 2325987085, "lat": 49.6243863, "lon": 20.949278, "tags": {"addr:city": "Gryb\u00f3w", "addr:housenumber": "6", "addr:postcode": "33-330", "addr:street": "Grunwaldzka", "amenity": "pharmacy", "brand": "Panaceum", "healthcare": "pharmacy", "name": "Panaceum", "ref:csioz": "1080270"}}, {"type": "node", "id": 3069554034, "lat": 49.6013689, "lon": 21.0428068, "tags": {"amenity": "pharmacy", "dispensing": "yes", "healthcare": "pharmacy", "ref:csioz": "1081217"}}, {"type": "node", "id": 3377108647, "lat": 49.6604664, "lon": 21.1570773, "tags": {"amenity": "pharmacy"}}, {"type": "node", "id": 4308059704, "lat": 49.7301628, "lon": 21.2487088, "tags": {"amenity": "pharmacy", "dispensing": "yes", "healthcare": "pharmacy", "opening_hours": "Mo-Fr 08:00-18:00; Sa 08:00-14:00", "ref:csioz": "1081296"}}, {"type": "node", "id": 4316450967, "lat": 49.655054, "lon": 21.253465, "tags": {"amenity": "pharmacy", "dispensing": "yes", "healthcare": "pharmacy", "name": "Punkt Apteczny", "ref:csioz": "1081154"}}, {"type": "node", "id": 4316451375, "lat": 49.6986272, "lon": 21.1558376, "tags": {"amenity": "pharmacy", "dispensing": "yes", "healthcare": "pharmacy", "name": "Punkt Apteczny", "ref:csioz": "1226213"}}, {"type": "node", "id": 4333425203, "lat": 49.297069, "lon": 21.281127, "tags": {"amenity": "pharmacy", "brand": "Dr. Max", "brand:wikidata": "Q56317371", "brand:wikipedia": "fr:Dr.Max", "healthcare": "pharmacy", "name": "Dr. Max"}}, {"type": "node", "id": 4347982985, "lat": 49.6550716, "lon": 21.1594342, "tags": {"amenity": "pharmacy", "dispensing": "yes", "healthcare": "pharmacy", "name": "S\u0142oneczna", "ref:csioz": "1217304"}}, {"type": "node", "id": 4349122096, "lat": 49.6535117, "lon": 21.1575352, "tags": {"amenity": "pharmacy", "dispensing": "yes", "healthcare": "pharmacy", "name": "Alba", "ref:csioz": "1081031"}}, {"type": "node", "id": 4349122109, "lat": 49.6570179, "lon": 21.1581421, "tags": {"amenity": "pharmacy", "dispensing": "yes", "healthcare": "pharmacy", "name": "Cefarm 36,6", "ref:csioz": "1113312"}}, {"type": "node", "id": 4705549289, "lat": 49.6535893, "lon": 20.9748104, "tags": {"addr:city:simc": "0428778", "addr:housenumber": "585A", "addr:place": "Str\u00f3\u017ce", "addr:postcode": "33-331", "amenity": "pharmacy", "dispensing": "yes", "healthcare": "pharmacy", "opening_hours": "Mo-Fr 07:30-19:00; Sa 07:30-15:00", "ref:csioz": "1080628"}}, {"type": "node", "id": 4750957678, "lat": 49.6633169, "lon": 21.1611816, "tags": {"amenity": "pharmacy", "dispensing": "yes", "healthcare": "pharmacy", "name": "Alba-Bis", "ref:csioz": "1113304"}}, {"type": "node", "id": 4776651596, "lat": 49.605605, "lon": 21.5248265}, {"type": "node", "id": 4776651597, "lat": 49.6054929, "lon": 21.5247899}, {"type": "node", "id": 4776651598, "lat": 49.6055143, "lon": 21.5246351}, {"type": "node", "id": 4776651599, "lat": 49.6056263, "lon": 21.5246716}, {"type": "node", "id": 4893973823, "lat": 49.6030787, "lon": 20.8768172, "tags": {"addr:city": "Ptaszkowa", "addr:postcode": "33-333", "amenity": "pharmacy", "brand": "Dr. Max", "brand:wikidata": "Q56317371", "healthcare": "pharmacy", "name": "Dr. Max", "opening_hours": "Mo-Fr 08:00-16:00", "ref:csioz": "1080322"}}, {"type": "node", "id": 5098038992, "lat": 49.6049049, "lon": 21.5235694, "tags": {"amenity": "pharmacy", "name": "Punk Apteczny Arnika"}}, {"type": "node", "id": 5178070134, "lat": 49.7427263, "lon": 21.4691103, "tags": {"amenity": "pharmacy", "healthcare": "pharmacy", "wheelchair": "yes"}}, {"type": "node", "id": 5224017622, "lat": 49.6590405, "lon": 21.1572867, "tags": {"amenity": "pharmacy", "dispensing": "yes", "healthcare": "pharmacy", "opening_hours": "Mo-Fr 07:30-22:00; Sa 08:00-20:00", "ref:csioz": "1171093"}}, {"type": "node", "id": 5416662426, "lat": 49.7432315, "lon": 21.4636933, "tags": {"amenity": "pharmacy", "healthcare": "pharmacy", "name": "Apteka", "wheelchair": "limited"}}, {"type": "node", "id": 5416662429, "lat": 49.7387555, "lon": 21.4619284, "tags": {"amenity": "pharmacy", "healthcare": "pharmacy"}}, {"type": "node", "id": 5416668239, "lat": 49.7382874, "lon": 21.4623669, "tags": {"amenity": "pharmacy", "healthcare": "pharmacy"}}, {"type": "node", "id": 5416669523, "lat": 49.740986, "lon": 21.4708914, "tags": {"amenity": "pharmacy", "healthcare": "pharmacy", "name": "Elixir"}}, {"type": "node", "id": 6276041233, "lat": 49.6623244, "lon": 21.1625597, "tags": {"amenity": "pharmacy", "dispensing": "yes", "healthcare": "pharmacy", "ref:csioz": "1081106"}}, {"type": "node", "id": 6298973091, "lat": 49.6597243, "lon": 21.1600438, "tags": {"amenity": "pharmacy", "dispensing": "yes", "healthcare": "pharmacy", "name": "Spo\u0142eczna", "ref:csioz": "1207107"}}, {"type": "node", "id": 6440881416, "lat": 49.6578672, "lon": 21.1599639, "tags": {"amenity": "pharmacy"}}, {"type": "node", "id": 7251484588, "lat": 49.6580552, "lon": 21.1570079, "tags": {"amenity": "pharmacy", "dispensing": "yes", "healthcare": "pharmacy", "name": "Cefarm 36,6", "ref:csioz": "1196383"}}, {"type": "node", "id": 7257878551, "lat": 49.6578119, "lon": 21.1576326, "tags": {"amenity": "pharmacy", "dispensing": "yes", "healthcare": "pharmacy", "name": "Alba", "ref:csioz": "1081002"}}, {"type": "node", "id": 7340167506, "lat": 49.6069422, "lon": 21.5255496, "tags": {"amenity": "pharmacy"}}, {"type": "node", "id": 7409997365, "lat": 49.2856483, "lon": 21.2709798, "tags": {"amenity": "pharmacy", "dispensing": "yes", "healthcare": "pharmacy"}}, {"type": "node", "id": 7640296512, "lat": 49.510985, "lon": 21.4999091, "tags": {"amenity": "pharmacy", "name": "Punkt apteczny"}}, {"type": "node", "id": 7677765665, "lat": 49.6619529, "lon": 21.1586118, "tags": {"amenity": "pharmacy", "dispensing": "yes", "healthcare": "pharmacy", "name": "Isofarm", "ref:csioz": "1230775"}}, {"type": "node", "id": 8273859530, "lat": 49.6247995, "lon": 20.945255, "tags": {"amenity": "pharmacy", "name": "Apteka im. mgr. W. Hodboda"}}, {"type": "node", "id": 9357472062, "lat": 49.7456967, "lon": 21.4683546, "tags": {"amenity": "pharmacy", "dispensing": "yes", "healthcare": "pharmacy", "name": "Pod Gwiazd\u0105"}}, {"type": "node", "id": 9545841848, "lat": 49.3970411, "lon": 20.9545512, "tags": {"addr:city": "Krynica-Zdr\u00f3j", "addr:housenumber": "21", "addr:postcode": "33-380", "addr:street": "W\u0142adys\u0142awa Reymonta", "amenity": "pharmacy", "name": "Dzia\u0142 Farmacji Szpitalnej", "ref:csioz": "1228958"}}, {"type": "node", "id": 9545841851, "lat": 49.6017817, "lon": 20.8691586, "tags": {"addr:housenumber": "850", "addr:place": "Ptaszkowa", "addr:postcode": "33-333", "amenity": "pharmacy", "name": "Dzia\u0142 Farmacji Szpitalnej", "ref:csioz": "1217336"}}, {"type": "node", "id": 9545841854, "lat": 49.4231777, "lon": 20.964184, "tags": {"amenity": "pharmacy", "name": "20 Wojskowy Szpital Uzdrowiskowo-Rehabilitacyjny", "ref:csioz": "1206490"}}, {"type": "node", "id": 9545841856, "lat": 49.401641, "lon": 20.9539637, "tags": {"addr:city": "Krynica-Zdr\u00f3j", "addr:housenumber": "139", "addr:postcode": "33-380", "addr:street": "J\u00f3zefa Ignacego Kraszewskiego", "amenity": "pharmacy", "name": "Ms Pharm Apteka Krynicka", "ref:csioz": "1187564"}}, {"type": "node", "id": 9545841857, "lat": 49.4054213, "lon": 20.9533963, "tags": {"addr:city": "Krynica-Zdr\u00f3j", "addr:housenumber": "83", "addr:postcode": "33-380", "addr:street": "J\u00f3zefa Ignacego Kraszewskiego", "amenity": "pharmacy", "brand": "Dr. Max", "brand:wikidata": "Q56317371", "healthcare": "pharmacy", "name": "Dr. Max", "ref:csioz": "1173924"}}, {"type": "node", "id": 9545841860, "lat": 49.4219418, "lon": 20.9604537, "tags": {"addr:city": "Krynica-Zdr\u00f3j", "addr:housenumber": "2", "addr:postcode": "33-380", "addr:street": "Marsza\u0142ka J\u00f3zefa Pi\u0142sudskiego", "amenity": "pharmacy", "name": "Dzia\u0142 Farmacji Szpitalnej", "ref:csioz": "1114506"}}, {"type": "node", "id": 9545841861, "lat": 49.6247589, "lon": 20.9505093, "tags": {"addr:city": "Gryb\u00f3w", "addr:housenumber": "9", "addr:postcode": "33-330", "addr:street": "Grunwaldzka", "amenity": "pharmacy", "name": "Zdrowe Ceny", "ref:csioz": "1113277"}}, {"type": "node", "id": 9545841863, "lat": 49.4188138, "lon": 20.9578779, "tags": {"amenity": "pharmacy", "brand": "Dbam o Zdrowie", "brand:wikidata": "Q62563833", "healthcare": "pharmacy", "name": "Dbam o Zdrowie", "ref:csioz": "1080734", "short_name": "DOZ"}}, {"type": "node", "id": 9545841864, "lat": 49.4143876, "lon": 20.9564194, "tags": {"addr:city": "Krynica-Zdr\u00f3j", "addr:housenumber": "1", "addr:postcode": "33-380", "addr:street": "J\u00f3zefa Ignacego Kraszewskiego", "amenity": "pharmacy", "name": "Apteka Krynicka", "ref:csioz": "1080727"}}, {"type": "node", "id": 9545841865, "lat": 49.4008719, "lon": 20.9504056, "tags": {"addr:city": "Krynica-Zdr\u00f3j", "addr:housenumber": "8A", "addr:postcode": "33-380", "addr:street": "Czarny Potok", "amenity": "pharmacy", "name": "Apteka \u015aw. Jana S.C. D. Jab\u0142o\u0144ska, M.G\u0119bka", "ref:csioz": "1080716"}}, {"type": "node", "id": 9545841866, "lat": 49.6252078, "lon": 20.9529648, "tags": {"addr:city": "Gryb\u00f3w", "addr:housenumber": "36", "addr:postcode": "33-330", "addr:street": "Grunwaldzka", "amenity": "pharmacy", "name": "Prima", "ref:csioz": "1080281"}}, {"type": "node", "id": 9545841868, "lat": 49.5534238, "lon": 20.9846056, "tags": {"addr:housenumber": "254", "addr:place": "Florynka", "addr:postcode": "33-332", "amenity": "pharmacy", "ref:csioz": "1080333"}}, {"type": "node", "id": 9545841869, "lat": 49.6536483, "lon": 20.9759546, "tags": {"addr:city": "Str\u00f3\u017ce", "addr:housenumber": "270", "addr:postcode": "38-330", "amenity": "pharmacy", "name": "Dr. Max", "ref:csioz": "1080311"}}, {"type": "node", "id": 9545841872, "lat": 49.3977912, "lon": 21.0236195, "tags": {"addr:city": "Tylicz", "addr:housenumber": "16", "addr:postcode": "33-383", "addr:street": "Rynek", "amenity": "pharmacy", "dispensing": "yes", "healthcare": "pharmacy", "name": "'Punkt Apteczny w Tyliczu'", "opening_hours": "Mo-Fr 08:00-15:00", "ref:csioz": "1180721"}}, {"type": "node", "id": 9545841873, "lat": 49.4008758, "lon": 20.9544352, "tags": {"addr:city": "Krynica-Zdr\u00f3j", "addr:housenumber": "142", "addr:postcode": "33-380", "addr:street": "J\u00f3zefa Ignacego Kraszewskiego", "amenity": "pharmacy", "name": "Apteka Szpitalna", "ref:csioz": "1149954"}}, {"type": "node", "id": 9545841874, "lat": 49.624721, "lon": 20.9502535, "tags": {"addr:city": "Gryb\u00f3w", "addr:housenumber": "7", "addr:postcode": "33-330", "addr:street": "Grunwaldzka", "amenity": "pharmacy", "brand": "Dr. Max", "brand:wikidata": "Q56317371", "healthcare": "pharmacy", "name": "Dr. Max", "ref:csioz": "1110717"}}, {"type": "node", "id": 9545841878, "lat": 49.4223227, "lon": 20.9581552, "tags": {"addr:city": "Krynica-Zdr\u00f3j", "addr:housenumber": "7", "addr:postcode": "33-380", "addr:street": "Marsza\u0142ka J\u00f3zefa Pi\u0142sudskiego", "amenity": "pharmacy", "name": "Pod Orzechem", "ref:csioz": "1080404"}}, {"type": "node", "id": 9545841880, "lat": 49.6250572, "lon": 20.9459102, "tags": {"addr:city": "Gryb\u00f3w", "addr:housenumber": "10", "addr:postcode": "33-330", "addr:street": "Rynek", "amenity": "pharmacy", "name": "Dzia\u0142 Farmacji Szpitalnej", "ref:csioz": "1227920"}}, {"type": "node", "id": 9545841881, "lat": 49.6505014, "lon": 20.8834118, "tags": {"addr:housenumber": "181", "addr:place": "Kru\u017clowa Wy\u017cna", "addr:postcode": "33-325", "amenity": "pharmacy", "name": "Punkt Apteczny Adma", "ref:csioz": "1227502"}}, {"type": "node", "id": 9545841885, "lat": 49.6273091, "lon": 20.9407301, "tags": {"addr:city": "Gryb\u00f3w", "addr:housenumber": "7", "addr:postcode": "33-330", "addr:street": "Rynek", "amenity": "pharmacy", "name": "Zdrowe Ceny", "ref:csioz": "1176619"}}, {"type": "node", "id": 9545841886, "lat": 49.6532908, "lon": 20.9801477, "tags": {"addr:city": "Str\u00f3\u017ce", "addr:housenumber": "622", "addr:postcode": "33-331", "amenity": "pharmacy", "name": "Dzia\u0142 Farmacji Szpitalnej", "ref:csioz": "1114533"}}, {"type": "node", "id": 9577251568, "lat": 49.302319, "lon": 21.2678424, "tags": {"amenity": "pharmacy", "contact:email": "lekaren.vinbarg@gmail.com", "contact:phone": "+421 54 475 43 37", "contact:website": "https://www.facebook.com/profile.php?id=100057608912927", "name": "Lek\u00e1re\u0148 Vinbarg"}}, {"type": "node", "id": 9577399654, "lat": 49.2944765, "lon": 21.265353, "tags": {"amenity": "pharmacy", "healthcare": "pharmacy", "name": "LeMedic Lek\u00e1re\u0148", "opening_hours": "Mo-Fr 08:00-21:00; Sa-Su 09:00-21:00", "website": "https://lemedic.sk/lekarne/lekaren-hp-tesco-bardejov/"}}, {"type": "node", "id": 9583362377, "lat": 49.2944296, "lon": 21.2672188, "tags": {"amenity": "pharmacy", "healthcare": "pharmacy", "name": "Lek\u00e1re\u0148 Dr. Max", "opening_hours": "Mo-Su 08:00-20:00; PH off", "website": "https://ochypka.sk/sk/shops/shop-drmax"}}, {"type": "node", "id": 9688011620, "lat": 49.4399267, "lon": 21.1727262, "tags": {"amenity": "pharmacy", "dispensing": "yes", "healthcare": "pharmacy", "name": "Punkt Apteczny", "opening_hours": "Mo-Fr 08:00-16:00", "ref:csioz": "1231069"}}, {"type": "node", "id": 9723403056, "lat": 49.6512865, "lon": 21.1624456, "tags": {"amenity": "pharmacy", "dispensing": "yes", "healthcare": "pharmacy", "name": "Twoje Leki", "ref:csioz": "1081140"}}, {"type": "node", "id": 9980435506, "lat": 49.6999525, "lon": 21.4039923, "tags": {"addr:housenumber": "1106A", "addr:place": "Osobnica", "addr:postcode": "38-241", "amenity": "pharmacy", "dispensing": "yes", "healthcare": "pharmacy", "name": "Apteka Lawenda"}}, {"type": "node", "id": 10651502178, "lat": 49.6511622, "lon": 21.1616788, "tags": {"amenity": "pharmacy", "dispensing": "yes", "healthcare": "pharmacy", "name": "Zdrowie", "ref:csioz": "1081122"}}, {"type": "node", "id": 10651502179, "lat": 49.6520768, "lon": 21.1544422, "tags": {"amenity": "pharmacy", "dispensing": "yes", "healthcare": "pharmacy", "name": "Alba III", "ref:csioz": "1186909"}}, {"type": "node", "id": 10651502180, "lat": 49.652774, "lon": 21.1633967, "tags": {"amenity": "pharmacy", "dispensing": "yes", "healthcare": "pharmacy", "name": "Bratek", "ref:csioz": "1081090"}}, {"type": "node", "id": 10651502187, "lat": 49.6606184, "lon": 21.1513508, "tags": {"amenity": "pharmacy", "dispensing": "yes", "healthcare": "pharmacy", "name": "Pod Or\u0142em", "ref:csioz": "1081089"}}, {"type": "node", "id": 10651502188, "lat": 49.6565972, "lon": 21.1464747, "tags": {"amenity": "pharmacy", "dispensing": "yes", "healthcare": "pharmacy", "ref:csioz": "1081066"}}, {"type": "node", "id": 10651502189, "lat": 49.6568644, "lon": 21.2159314, "tags": {"amenity": "pharmacy", "dispensing": "yes", "healthcare": "pharmacy", "name": "Punkt Apteczny Alba", "ref:csioz": "1081015"}}, {"type": "node", "id": 10651550938, "lat": 49.5205266, "lon": 21.1370996, "tags": {"amenity": "pharmacy", "dispensing": "yes", "healthcare": "pharmacy", "ref:csioz": "1081225"}}, {"type": "node", "id": 10651550939, "lat": 49.518896, "lon": 21.0477653, "tags": {"amenity": "pharmacy", "dispensing": "yes", "healthcare": "pharmacy", "name": "Zdrowie", "ref:csioz": "1117189"}}, {"type": "node", "id": 10651550940, "lat": 49.6295343, "lon": 21.1222521, "tags": {"amenity": "pharmacy", "dispensing": "yes", "healthcare": "pharmacy", "name": "Punkt Apteczny", "ref:csioz": "1184081"}}, {"type": "node", "id": 10651550945, "lat": 49.6205435, "lon": 21.19633, "tags": {"amenity": "pharmacy", "dispensing": "yes", "healthcare": "pharmacy", "name": "Punkt Apteczny Herbamed", "ref:csioz": "1114642"}}, {"type": "node", "id": 10651550946, "lat": 49.5999725, "lon": 21.0443228, "tags": {"amenity": "pharmacy", "brand": "Centrum Zdrowia", "dispensing": "yes", "healthcare": "pharmacy", "name": "Centrum Zdrowia", "ref:csioz": "1188069"}}, {"type": "node", "id": 10651550949, "lat": 49.6734394, "lon": 21.2941533, "tags": {"amenity": "pharmacy", "dispensing": "yes", "healthcare": "pharmacy", "name": "Galena", "ref:csioz": "1081179"}}, {"type": "node", "id": 10651550950, "lat": 49.6722346, "lon": 21.2949367, "tags": {"amenity": "pharmacy", "dispensing": "yes", "healthcare": "pharmacy", "name": "Apteka J\u00f3zefa Bia\u0142ek", "ref:csioz": "1081165"}}, {"type": "node", "id": 10651550951, "lat": 49.6894586, "lon": 21.2410086, "tags": {"amenity": "pharmacy", "dispensing": "yes", "healthcare": "pharmacy", "ref:csioz": "1081187"}}, {"type": "node", "id": 11146152107, "lat": 49.4008671, "lon": 20.9553306, "tags": {"amenity": "pharmacy", "name": "ORTO-MED Specjalistyczne zaopatrzenie medyczne"}}, {"type": "node", "id": 11876215741, "lat": 49.7273387, "lon": 21.451058, "tags": {"amenity": "pharmacy", "healthcare": "pharmacy", "name": "Apteka rafineria"}}, {"type": "node", "id": 11883529116, "lat": 49.7427776, "lon": 21.4624384, "tags": {"amenity": "pharmacy", "name": "Apteka Alba"}}, {"type": "node", "id": 12768091088, "lat": 49.3025552, "lon": 21.2834625, "tags": {"amenity": "pharmacy", "healthcare": "pharmacy", "name": "Dr. Max"}}, {"type": "node", "id": 12989943363, "lat": 49.2949806, "lon": 21.2774243, "tags": {"amenity": "pharmacy", "healthcare": "pharmacy", "name": "LeMedic"}}, {"type": "way", "id": 425054305, "nodes": [4776651599, 4776651598, 4776651597, 4776651596, 4776651599], "tags": {"addr:city": "Nowy \u017bmigr\u00f3d", "addr:city:simc": "0357268", "addr:housenumber": "4", "addr:postcode": "38-230", "addr:street": "Basztowa", "addr:street:sym_ul": "00861", "amenity": "pharmacy", "building": "yes", "building:levels": "2", "dispensing": "yes", "healthcare": "pharmacy", "name": "Apteka Prywatna Wyczo\u0142ek", "source:addr": "emuia.gugik.gov.pl", "wheelchair": "yes"}}]}