{"version": 0.6, "generator": "Overpass API 0.7.62.8 e802775f", "osm3s": {"timestamp_osm_base": "2025-10-06T08:11:00Z", "copyright": "The data included in this document is from www.openstreetmap.org. The data is made available under ODbL."}, "elements": [{"type": "node", "id": 477242342, "lat": 49.2569905, "lon": 19.0369072, "tags": {"amenity": "pharmacy", "contact:facebook": "https://www.facebook.com/lekarensynka/", "email": "lekarensynka@gmail.com", "healthcare": "pharmacy", "name": "Synka Lek\u00e1re\u0148", "opening_hours": "Mo-Fr 07:30-12:00, 12:30-15:30; Sa 08:30-11:30", "phone": "+421415695256"}}, {"type": "node", "id": 966308756, "lat": 49.2760954, "lon": 19.1540413, "tags": {"amenity": "pharmacy", "healthcare": "pharmacy", "name": "Lek\u00e1re\u0148 Lucas", "opening_hours": "Mo-Fr 07:45-15:30; Th off"}}, {"type": "node", "id": 970753107, "lat": 49.4038266, "lon": 19.4813741, "tags": {"amenity": "pharmacy", "healthcare": "pharmacy", "layer": "-1", "wheelchair": "yes"}}, {"type": "node", "id": 970777347, "lat": 49.4055726, "lon": 19.4798192, "tags": {"addr:city": "N\u00e1mestovo", "addr:postcode": "02901", "addr:street": "\u0160tefanikov\u00e1", "amenity": "pharmacy", "healthcare": "pharmacy", "name": "Lek\u00e1re\u0148 Matky Terezy", "opening_hours": "Mo-Fr 08:00-16:30; Sa 08:30-12:00"}}, {"type": "node", "id": 971014519, "lat": 49.4811898, "lon": 19.4801043, "tags": {"amenity": "pharmacy"}}, {"type": "node", "id": 1107482435, "lat": 49.3671964, "lon": 19.1837285, "tags": {"amenity": "pharmacy", "dispensing": "yes", "name": "Va\u0161a Lek\u00e1re\u0148"}}, {"type": "node", "id": 1330383322, "lat": 49.5750689, "lon": 18.7633919, "tags": {"amenity": "pharmacy", "contact:email": "1lekarnaupolikliniky@centrum.cz", "contact:phone": "+420 553 034 757", "contact:website": "https://www.lekarnajablunkov.cz/", "dispensing": "yes", "healthcare": "pharmacy", "name": "L\u00e9k\u00e1rna U polikliniky", "opening_hours": "Mo-Fr 07:00-17:00; PH closed", "ref:SUKL": "86380000000"}}, {"type": "node", "id": 1369677751, "lat": 49.5772939, "lon": 18.765678, "tags": {"amenity": "pharmacy", "contact:email": "lekaurum@seznam.cz", "contact:phone": "+420 558 340 177", "dispensing": "no", "healthcare": "pharmacy", "name": "Aurum", "opening_hours": "Mo-Fr 07:30-17:00; Sa 08:00-12:00", "ref:SUKL": "86351000001", "source": "survey"}}, {"type": "node", "id": 1642160407, "lat": 49.4798097, "lon": 19.1434997, "tags": {"amenity": "pharmacy", "dispensing": "yes", "healthcare": "pharmacy", "name": "Apteka"}}, {"type": "node", "id": 1756492750, "lat": 49.5756286, "lon": 18.7634037, "tags": {"amenity": "pharmacy", "contact:email": "lekarna.avena@volny.cz", "contact:phone": "+420 558 357 879", "healthcare": "pharmacy", "name": "Avena", "opening_hours": "Mo-Fr 07:30-17:00; Sa 07:30-12:00", "operator": "Alphega", "ref:SUKL": "86351000000"}}, {"type": "node", "id": 1760621193, "lat": 49.5694279, "lon": 18.8890088, "tags": {"addr:housenumber": "1485", "addr:place": "Istebna", "addr:postcode": "43-470", "amenity": "pharmacy", "dispensing": "yes", "healthcare": "pharmacy", "name": "Na Dzielcu", "phone": "+4833 855 6893", "ref:csioz": "1062629"}}, {"type": "node", "id": 1764239177, "lat": 49.6894497, "lon": 19.2029299, "tags": {"amenity": "pharmacy", "brand": "Dbam o Zdrowie", "brand:wikidata": "Q62563833", "dispensing": "yes", "healthcare": "pharmacy", "name": "Dbam o Zdrowie", "short_name": "DOZ"}}, {"type": "node", "id": 1764242999, "lat": 49.6861451, "lon": 19.2056119, "tags": {"amenity": "pharmacy", "healthcare": "pharmacy", "name": "Przy Skarb\u00f3wce"}}, {"type": "node", "id": 1764243002, "lat": 49.6878411, "lon": 19.2026976, "tags": {"amenity": "pharmacy", "brand": "Dbam o Zdrowie", "brand:wikidata": "Q62563833", "dispensing": "yes", "healthcare": "pharmacy", "name": "Dbam o Zdrowie", "short_name": "DOZ"}}, {"type": "node", "id": 2228699197, "lat": 49.4048627, "lon": 19.4757132, "tags": {"addr:city": "N\u00e1mestovo", "addr:conscriptionnumber": "130", "addr:country": "SK", "addr:housenumber": "130/29", "addr:street": "\u010cerven\u00e9ho kr\u00ed\u017ea", "addr:streetnumber": "29", "amenity": "pharmacy", "dispensing": "yes", "healthcare": "pharmacy", "name": "Zelen\u00e1 lek\u00e1re\u0148", "source": "I am local knowladge", "source:street": "municipality", "source:streetnumber": "municipality", "wheelchair": "yes"}}, {"type": "node", "id": 2298762093, "lat": 49.6315754, "lon": 19.3332345, "tags": {"amenity": "pharmacy", "dispensing": "yes", "healthcare": "pharmacy", "name": "Apteka"}}, {"type": "node", "id": 2299970964, "lat": 49.6511221, "lon": 19.3182844, "tags": {"amenity": "pharmacy", "dispensing": "yes", "healthcare": "pharmacy", "name": "Apteka Pod Pilskiem"}}, {"type": "node", "id": 2425997277, "lat": 49.6076649, "lon": 19.1224142, "tags": {"amenity": "pharmacy", "dispensing": "yes", "healthcare": "pharmacy", "name": "Apteka pod Kopu\u0142\u0105", "opening_hours": "Mo-Fr 08:00-19:00; Sa 08:00-15:30", "phone": "+48 338640753"}}, {"type": "node", "id": 2462635016, "lat": 49.5031405, "lon": 19.100632}, {"type": "node", "id": 2462635020, "lat": 49.5032012, "lon": 19.1007174}, {"type": "node", "id": 2462635023, "lat": 49.5032107, "lon": 19.100508}, {"type": "node", "id": 2462635030, "lat": 49.5032367, "lon": 19.1005916}, {"type": "node", "id": 2462635031, "lat": 49.5032527, "lon": 19.1006134}, {"type": "node", "id": 2462635032, "lat": 49.5032545, "lon": 19.1005574}, {"type": "node", "id": 3225933121, "lat": 49.72953, "lon": 19.2674, "tags": {"addr:city": "\u0141\u0119kawica", "addr:city:simc": "0059312", "addr:housenumber": "58A", "addr:postcode": "34-321", "addr:street": "\u017bywiecka", "addr:street:sym_ul": "26640", "amenity": "pharmacy", "dispensing": "yes", "healthcare": "pharmacy", "name": "Apteka Nostra", "opening_hours": "Mo-Fr 08:00-17:00; Sa 08:00-14:00", "phone": "+48 33 862 25 60", "source:addr": "lekawica.e-mapa.net"}}, {"type": "node", "id": 3820338635, "lat": 49.6032495, "lon": 19.1136938, "tags": {"addr:city": "W\u0119gierska G\u00f3rka", "addr:housenumber": "1/1/2", "addr:postcode": "34-350", "addr:street": "Osiedle XX-lecia II RP", "amenity": "pharmacy", "contact:phone": "+48338641100", "healthcare": "pharmacy", "name": "Apteka \"Pod Barani\u0105\"", "opening_hours": "Mo-Fr 08:00-17:00; Sa 08:00-12:00"}}, {"type": "node", "id": 3820338636, "lat": 49.6096756, "lon": 19.1256117, "tags": {"addr:city": "W\u0119gierska G\u00f3rka", "addr:housenumber": "2", "addr:postcode": "34-350", "addr:street": "Wyzwolenia", "amenity": "pharmacy", "contact:phone": "+48334446049", "healthcare": "pharmacy", "name": "Apteka Vertigo", "opening_hours": "Mo-Fr 08:00-18:00; Sa 08:00-13:00"}}, {"type": "node", "id": 3820338637, "lat": 49.6077022, "lon": 19.1185228, "tags": {"addr:city": "W\u0119gierska G\u00f3rka", "addr:housenumber": "8", "addr:postcode": "34-350", "addr:street": "Stanis\u0142awa Wyspia\u0144skiego", "amenity": "pharmacy", "healthcare": "pharmacy", "name": "Apteka Galenus", "opening_hours": "Mo-Sa 09:00-19:00; Su 11:00-18:00"}}, {"type": "node", "id": 3826374766, "lat": 49.682316, "lon": 19.208696, "tags": {"amenity": "pharmacy", "healthcare": "pharmacy", "name": "Apteka Galena"}}, {"type": "node", "id": 3826845445, "lat": 49.5572714, "lon": 19.0916431, "tags": {"addr:city": "Mil\u00f3wka", "addr:housenumber": "14", "addr:postcode": "34-360", "addr:street": "Nowa", "amenity": "pharmacy", "contact:phone": "+48338637042", "healthcare": "pharmacy", "name": "Za Ko\u015bcio\u0142em", "opening_hours": "Mo-Fr 09:00-17:00; Sa 09:00-13:00"}}, {"type": "node", "id": 3826875557, "lat": 49.5043859, "lon": 19.1024776, "tags": {"addr:city": "Rajcza", "addr:housenumber": "3", "addr:postcode": "34-370", "addr:street": "Rynek", "amenity": "pharmacy", "contact:phone": "+48338611116", "healthcare": "pharmacy", "name": "Apteka \"Pod Jesionem\"", "opening_hours": "Mo-Fr 08:00-18:00; Sa 08:00-13:00"}}, {"type": "node", "id": 3835419613, "lat": 49.5043406, "lon": 19.1024912}, {"type": "node", "id": 3835419614, "lat": 49.5043922, "lon": 19.1024026}, {"type": "node", "id": 3835419615, "lat": 49.5044782, "lon": 19.10268}, {"type": "node", "id": 3835428376, "lat": 49.5045298, "lon": 19.1025912}, {"type": "node", "id": 3839511732, "lat": 49.6468012, "lon": 19.1291166}, {"type": "node", "id": 3839512028, "lat": 49.6468176, "lon": 19.1292826}, {"type": "node", "id": 3839600890, "lat": 49.646624, "lon": 19.1291138}, {"type": "node", "id": 3839602587, "lat": 49.646647, "lon": 19.1293464}, {"type": "node", "id": 3839602595, "lat": 49.6467385, "lon": 19.1290868}, {"type": "node", "id": 3839602599, "lat": 49.6467428, "lon": 19.1291304}, {"type": "node", "id": 3839603067, "lat": 49.6467269, "lon": 19.1293039}, {"type": "node", "id": 3839604165, "lat": 49.6467292, "lon": 19.129327}, {"type": "node", "id": 3839823233, "lat": 49.6261186, "lon": 19.1681708}, {"type": "node", "id": 3839862519, "lat": 49.6260623, "lon": 19.1681117}, {"type": "node", "id": 3839862520, "lat": 49.6261106, "lon": 19.1679482}, {"type": "node", "id": 3839864706, "lat": 49.62609, "lon": 19.1680888}, {"type": "node", "id": 3839971173, "lat": 49.6260289, "lon": 19.1680158}, {"type": "node", "id": 3839971389, "lat": 49.6261726, "lon": 19.1681262}, {"type": "node", "id": 3918435559, "lat": 49.7121074, "lon": 19.308674, "tags": {"amenity": "pharmacy", "dispensing": "yes", "email": "gilowicka_apteka@wp.pl", "healthcare": "pharmacy", "name": "Apteka Gilowicka", "opening_hours": "Mo-Fr 08:00-18:00; Sa 08:00-13:00", "phone": "+48 33 8653889"}}, {"type": "node", "id": 3921695499, "lat": 49.6803295, "lon": 19.1888172}, {"type": "node", "id": 3921695504, "lat": 49.6803424, "lon": 19.1886169}, {"type": "node", "id": 3921695522, "lat": 49.6804609, "lon": 19.1888373}, {"type": "node", "id": 3921695523, "lat": 49.6804624, "lon": 19.1888131}, {"type": "node", "id": 3921695524, "lat": 49.6804656, "lon": 19.1886636}, {"type": "node", "id": 3921695525, "lat": 49.6804674, "lon": 19.188636}, {"type": "node", "id": 3921695526, "lat": 49.680472, "lon": 19.1886646}, {"type": "node", "id": 3927005911, "lat": 49.6782156, "lon": 19.193296, "tags": {"addr:city": "\u017bywiec", "addr:housenumber": "24", "addr:postcode": "34-300", "addr:street": "Ksi\u0119dza Stanis\u0142awa S\u0142onki", "amenity": "pharmacy", "healthcare": "pharmacy", "name": "Apteka \"\u017bywiecka\""}}, {"type": "node", "id": 3927005913, "lat": 49.6841058, "lon": 19.1894409, "tags": {"addr:housenumber": "22", "addr:street": "Dworcowa", "amenity": "pharmacy", "healthcare": "pharmacy", "name": "Apteka \"\u017bywiecka 2\""}}, {"type": "node", "id": 4309274484, "lat": 49.3245811, "lon": 19.3473857, "tags": {"amenity": "pharmacy", "healthcare": "pharmacy"}}, {"type": "node", "id": 4379209019, "lat": 49.5755964, "lon": 18.7632562, "tags": {"amenity": "pharmacy", "brand": "Dr. Max", "brand:wikidata": "Q56317371", "brand:wikipedia": "fr:Dr.Max", "contact:email": "jablunkov@drmax.cz", "contact:phone": "+420 225 574 438", "contact:website": "https://www.drmax.cz/", "healthcare": "pharmacy", "name": "Dr. Max", "opening_hours": "Mo-Fr 07:00-17:00; Sa 07:30-12:00", "ref:SUKL": "86345000000"}}, {"type": "node", "id": 4424957041, "lat": 49.6908094, "lon": 19.2009636, "tags": {"addr:city": "\u017bywiec", "addr:housenumber": "3", "addr:postcode": "34-300", "addr:street": "Zielona", "amenity": "pharmacy", "brand": "Ziko Apteka", "brand:wikidata": "Q63432892", "description": "Ziko Apteka zlokalizowana jest w \u017bywcu przy ul. Ustronie 1-3. Czynna jest przez 6 dni w tygodniu \u2013 od poniedzia\u0142ku do niedzieli.", "dispensing": "yes", "healthcare": "pharmacy", "name": "Ziko Apteka", "opening_hours": "Mo-Fr 08:00-20:00; Sa 08:00-20:00; Su 10:00-19:00", "payment:cash": "yes", "payment:coins": "yes", "payment:mastercard": "yes", "payment:visa": "yes", "phone": "+48 12 687 57 47", "short_name": "Ziko", "website": "https://www.ziko.pl/zywiec-apteki-drogerie-ziko/zielona-3/"}}, {"type": "node", "id": 4692029376, "lat": 49.4607857, "lon": 19.3232897, "tags": {"amenity": "pharmacy", "healthcare": "pharmacy", "name": "Zelen\u00e1 lek\u00e1re\u0148"}}, {"type": "node", "id": 4913043681, "lat": 49.4941311, "lon": 18.8195353, "tags": {"amenity": "pharmacy", "dispensing": "yes", "healthcare": "pharmacy", "name": "Plus - Sv. Vavrinca", "opening_hours": "Mo-Fr 08:00-14:00; PH closed"}}, {"type": "node", "id": 4913043697, "lat": 49.4962181, "lon": 18.8997771, "tags": {"amenity": "pharmacy", "dispensing": "yes", "healthcare": "pharmacy", "name": "Plus - Sv. Vavrinca", "opening_hours": "Mo-Fr 07:30-15:00; PH closed"}}, {"type": "node", "id": 4937303322, "lat": 49.6349873, "lon": 18.8859403, "tags": {"addr:city": "Wis\u0142a", "addr:housenumber": "61c", "addr:postcode": "43-460", "addr:street": "Wyzwolenia", "amenity": "pharmacy", "dispensing": "yes", "healthcare": "pharmacy", "name": "dr Libro", "opening_hours": "Mo-Fr 08:00-20:00; Sa-Su 08:00-18:00", "ref:csioz": "1183519"}}, {"type": "node", "id": 5075019503, "lat": 49.5867622, "lon": 18.7590862, "tags": {"amenity": "pharmacy", "contact:email": "navsi@mojelekarna.cz", "contact:phone": "+420 558 357 073", "dispensing": "yes", "healthcare": "pharmacy", "name": "L\u00e9k\u00e1rna Sima", "opening_hours": "Mo-Fr 07:00-16:00; Tu,Th 07:00-17:00; PH closed", "ref:SUKL": "200633203"}}, {"type": "node", "id": 5311083335, "lat": 49.5596378, "lon": 19.0847191, "tags": {"amenity": "pharmacy", "healthcare": "pharmacy", "name": "Apteka przy Skarb\u00f3wce"}}, {"type": "node", "id": 6022928698, "lat": 49.4051316, "lon": 19.4762696, "tags": {"amenity": "pharmacy", "healthcare": "pharmacy", "wheelchair": "yes"}}, {"type": "node", "id": 6406045705, "lat": 49.6798996, "lon": 19.1877386, "tags": {"addr:city": "\u017bywiec", "addr:housenumber": "2", "addr:postcode": "34-300", "addr:street": "1 Maja", "amenity": "pharmacy", "brand": "Ziko Apteka", "brand:wikidata": "Q63432892", "check_date": "2022-05-22", "description": "Ziko Apteka zlokalizowana jest w \u017bywcu przy ul. 1 Maja 2. Czynna jest przez 6 dni w tygodniu \u2013 od poniedzia\u0142ku do soboty. W niedziele plac\u00f3wka jest nieczynna.", "dispensing": "yes", "healthcare": "pharmacy", "name": "Ziko Apteka", "opening_hours": "Mo-Fr 07:00-20:00; Sa 08:00-15:00", "payment:cash": "yes", "payment:coins": "yes", "payment:mastercard": "yes", "payment:visa": "yes", "phone": "+48 12 687 57 47", "short_name": "Ziko", "website": "https://www.ziko.pl/zywiec-apteki-drogerie-ziko/1-maja-2/"}}, {"type": "node", "id": 6590686985, "lat": 49.6669612, "lon": 19.1029643}, {"type": "node", "id": 6590686986, "lat": 49.6666237, "lon": 19.1030311}, {"type": "node", "id": 6590686987, "lat": 49.6666072, "lon": 19.102832}, {"type": "node", "id": 6590686988, "lat": 49.6669447, "lon": 19.1027652}, {"type": "node", "id": 6688383806, "lat": 49.7137632, "lon": 19.2968607, "tags": {"amenity": "pharmacy", "email": "aptekamichalscy@op.pl", "healthcare": "pharmacy", "name": "Apteka - Michalscy", "opening_hours": "Mo-Fr 08:00-18:00; Sa 08:00-11:00", "phone": "+48 33 8653156"}}, {"type": "node", "id": 6729037942, "lat": 49.5495925, "lon": 18.9367302, "tags": {"addr:housenumber": "783", "addr:place": "Koniak\u00f3w", "addr:postcode": "43-474", "amenity": "pharmacy", "dispensing": "yes", "healthcare": "pharmacy", "name": "Apteka Pod Ochodzit\u0105", "ref:csioz": "1064912"}}, {"type": "node", "id": 7193624378, "lat": 49.6914832, "lon": 19.2023641, "tags": {"amenity": "pharmacy", "brand": "Dbam o Zdrowie", "brand:wikidata": "Q62563833", "dispensing": "yes", "healthcare": "pharmacy", "name": "Dbam o Zdrowie", "short_name": "DOZ"}}, {"type": "node", "id": 7304062544, "lat": 49.6826473, "lon": 19.2072109, "tags": {"amenity": "pharmacy", "dispensing": "yes", "healthcare": "pharmacy", "name": "S\u0142oneczna"}}, {"type": "node", "id": 7448438691, "lat": 49.6481608, "lon": 19.1650891, "tags": {"amenity": "pharmacy", "dispensing": "yes", "healthcare": "pharmacy", "name": "Zdrowie"}}, {"type": "node", "id": 7802054868, "lat": 49.5259012, "lon": 18.8576652, "tags": {"amenity": "pharmacy", "dispensing": "yes", "healthcare": "pharmacy", "name": "Pod Kasztanami", "opening_hours": "Mo-Fr 08:30-15:30"}}, {"type": "node", "id": 8397362318, "lat": 49.6846722, "lon": 19.2090185, "tags": {"amenity": "pharmacy", "dispensing": "yes", "healthcare": "pharmacy", "name": "S\u0142oneczna"}}, {"type": "node", "id": 9044260860, "lat": 49.6634048, "lon": 19.2661561, "tags": {"amenity": "pharmacy", "contact:phone": "+48 33 863 99 10", "dispensing": "yes", "healthcare": "pharmacy", "name": "Alfa", "opening_hours": "Mo-Fr 07:30-19:30; Sa 07:30-15:00; Su,PH off"}}, {"type": "node", "id": 9655429445, "lat": 49.6021327, "lon": 18.8997401, "tags": {"addr:housenumber": "500", "addr:place": "Istebna", "addr:postcode": "43-470", "amenity": "pharmacy", "dispensing": "yes", "healthcare": "pharmacy", "name": "Szpital Kubalonka", "ref:csioz": "1174147"}}, {"type": "node", "id": 9655514866, "lat": 49.5381787, "lon": 18.8679808, "tags": {"addr:housenumber": "641", "addr:place": "Jaworzynka", "addr:postcode": "43-476", "amenity": "pharmacy", "dispensing": "yes", "healthcare": "pharmacy", "ref:csioz": "1063321"}}, {"type": "node", "id": 11046120279, "lat": 49.2600271, "lon": 19.031056, "tags": {"amenity": "pharmacy", "healthcare": "pharmacy", "name": "Salvator", "opening_hours": "Mo-Fr 08:30-17:00"}}, {"type": "node", "id": 11829065755, "lat": 49.4389312, "lon": 18.8874384, "tags": {"amenity": "pharmacy", "wheelchair": "yes"}}, {"type": "node", "id": 12386567587, "lat": 49.6745506, "lon": 19.0949664, "tags": {"amenity": "pharmacy", "healthcare": "pharmacy", "name": "Centrum Dla Zdrowia"}}, {"type": "node", "id": 12603493113, "lat": 49.346498, "lon": 18.9368335, "tags": {"amenity": "pharmacy"}}, {"type": "node", "id": 13096278985, "lat": 49.6804464, "lon": 19.1888351}, {"type": "way", "id": 238422307, "nodes": [2462635016, 2462635020, 2462635031, 2462635030, 2462635032, 2462635023, 2462635016], "tags": {"addr:city": "Rajcza", "addr:housenumber": "6", "addr:postcode": "34-370", "addr:street": "G\u00f3rska", "amenity": "pharmacy", "building": "yes", "contact:phone": "+48338643398", "dispensing": "yes", "healthcare": "pharmacy", "name": "Apteka \"Przy G\u00f3rskiej\"", "opening_hours": "Mo-Fr 07:30-17:30; Sa 07:30-13:00"}}, {"type": "way", "id": 238480156, "nodes": [3835419614, 3835419613, 3835419615, 3835428376, 3835419614], "tags": {"addr:housenumber": "3", "addr:street": "Rynek", "amenity": "pharmacy", "building": "yes", "dispensing": "yes", "healthcare": "pharmacy"}}, {"type": "way", "id": 380637865, "nodes": [3839511732, 3839602599, 3839602595, 3839600890, 3839602587, 3839604165, 3839603067, 3839512028, 3839511732], "tags": {"addr:city": "Radziechowy", "addr:city:simc": "0065726", "addr:housenumber": "1038", "addr:postcode": "34-381", "addr:street": "Kamienna", "addr:street:sym_ul": "07879", "amenity": "pharmacy", "building": "yes", "dispensing": "yes", "healthcare": "pharmacy", "name": "Apteka \u015bw. Marcina", "source:addr": "radziechowywieprz.e-mapa.net"}}, {"type": "way", "id": 380668966, "nodes": [3839862520, 3839971173, 3839862519, 3839864706, 3839823233, 3839971389, 3839862520], "tags": {"addr:city:simc": "0065620", "addr:housenumber": "227", "addr:place": "Brzu\u015bnik", "addr:postcode": "34-382", "amenity": "pharmacy", "building": "yes", "source:addr": "radziechowywieprz.e-mapa.net"}}, {"type": "way", "id": 389004489, "nodes": [3921695523, 3921695522, 13096278985, 3921695499, 3921695504, 3921695525, 3921695524, 3921695526, 3921695523], "tags": {"addr:city": "\u017bywiec", "addr:housenumber": "1", "addr:postcode": "34-300", "addr:street": "1 Maja", "amenity": "pharmacy", "building": "yes", "healthcare": "pharmacy", "name": "Apteka \"\u017bywiecka\"", "source:addr": "EMUiA (emuia.gugik.gov.pl)"}}, {"type": "way", "id": 701785329, "nodes": [6590686988, 6590686987, 6590686986, 6590686985, 6590686988], "tags": {"addr:city": "Lipowa", "addr:city:simc": "0058821", "addr:housenumber": "147", "addr:postcode": "34-324", "addr:street": "Brzeziny", "amenity": "pharmacy", "building": "yes", "dispensing": "yes", "email": "APTEKA.BB.LIPOWA@GMAIL.COM", "name": "Apteka \u015bw. Bart\u0142omieja", "opening_hours": "Mo-Fr 07:30-18:00", "phone": "+48 33 867 17 72", "source": "geoportal.gov.pl:ortofoto", "source:addr": "lipowa.e-mapa.net"}}]}