{"version": 0.6, "generator": "Overpass API 0.7.62.8 e802775f", "osm3s": {"timestamp_osm_base": "2025-10-06T08:02:45Z", "copyright": "The data included in this document is from www.openstreetmap.org. The data is made available under ODbL."}, "elements": [{"type": "node", "id": 9610851889, "lat": 50.4302185, "lon": 18.1880996, "tags": {"addr:city": "Le\u015bnica", "addr:housenumber": "2", "addr:postcode": "47-150", "addr:street": "Plac Narutowicza", "amenity": "pharmacy", "dispensing": "yes", "ref:csioz": "1107891"}}, {"type": "node", "id": 9631288473, "lat": 50.5765907, "lon": 18.1154171, "tags": {"addr:city": "Nak\u0142o", "addr:housenumber": "1", "addr:postcode": "46-050", "addr:street": "Przedszkolna", "amenity": "pharmacy", "dispensing": "yes", "name": "Multifarm", "ref:csioz": "1109941"}}, {"type": "node", "id": 9631367772, "lat": 50.424389, "lon": 18.1245422, "tags": {"addr:city": "Zdzieszowice", "addr:housenumber": "1", "addr:postcode": "47-330", "addr:street": "G\u00f3ry \u015awi\u0119tej Anny", "amenity": "pharmacy", "dispensing": "yes", "name": "Na Dobre I Na Z\u0142e", "ref:csioz": "1109644"}}, {"type": "node", "id": 9631367773, "lat": 50.4237679, "lon": 18.1283913, "tags": {"addr:city": "Zdzieszowice", "addr:housenumber": "15", "addr:postcode": "47-330", "addr:street": "Filarskiego", "amenity": "pharmacy", "dispensing": "yes", "name": "Apteka Prima", "ref:csioz": "1109677"}}, {"type": "node", "id": 9631367776, "lat": 50.4242371, "lon": 18.1255379, "tags": {"addr:city": "Zdzieszowice", "addr:housenumber": "1", "addr:postcode": "47-330", "addr:street": "Filarskiego", "amenity": "pharmacy", "dispensing": "yes", "ref:csioz": "1109653"}}, {"type": "node", "id": 9631367782, "lat": 50.4232802, "lon": 18.1272759, "tags": {"addr:city": "Zdzieszowice", "addr:housenumber": "6", "addr:postcode": "47-330", "addr:street": "Filarskiego", "amenity": "pharmacy", "dispensing": "yes", "name": "Grosik", "ref:csioz": "1109666"}}, {"type": "node", "id": 10741400200, "lat": 50.4239503, "lon": 18.1294302, "tags": {"amenity": "pharmacy", "healthcare": "pharmacy", "name": "Prima"}}, {"type": "node", "id": 10741413308, "lat": 50.4245825, "lon": 18.1289598, "tags": {"amenity": "pharmacy", "healthcare": "pharmacy", "name": "Lek"}}]}