{"version": 0.6, "generator": "Overpass API 0.7.62.8 e802775f", "osm3s": {"timestamp_osm_base": "2025-10-06T08:17:00Z", "copyright": "The data included in this document is from www.openstreetmap.org. The data is made available under ODbL."}, "elements": [{"type": "node", "id": 474998515, "lat": 35.2900145, "lon": 25.4472756, "tags": {"amenity": "pharmacy", "healthcare": "pharmacy"}}, {"type": "node", "id": 669470915, "lat": 35.3293654, "lon": 25.1368801, "tags": {"amenity": "pharmacy", "healthcare": "pharmacy"}}, {"type": "node", "id": 703257171, "lat": 35.3120868, "lon": 25.1729165}, {"type": "node", "id": 703257175, "lat": 35.3120964, "lon": 25.1730946}, {"type": "node", "id": 703257232, "lat": 35.3120099, "lon": 25.173108}, {"type": "node", "id": 703257234, "lat": 35.3120101, "lon": 25.1729336}, {"type": "node", "id": 963257867, "lat": 35.3306473, "lon": 25.3453515, "tags": {"amenity": "pharmacy", "healthcare": "pharmacy"}}, {"type": "node", "id": 1263597805, "lat": 35.3276206, "lon": 25.3069397, "tags": {"amenity": "pharmacy", "dispensing": "yes", "drive_through": "no", "healthcare": "pharmacy", "name": "Sologanis Pharmacy", "name:el": "\u03a6\u03b1\u03c1\u03bc\u03b1\u03ba\u03b5\u03af\u03bf \u03a3\u03bf\u03bb\u03bf\u03b3\u03ac\u03bd\u03b7\u03c2 \u03a0\u03b1\u03c1\u03ac\u03c3\u03c7\u03bf\u03c2", "phone": "+302897041100", "website": "https://sologanispharmacy.business.site/"}}, {"type": "node", "id": 1706011201, "lat": 35.2838122, "lon": 25.4630658, "tags": {"addr:city": "\u039c\u03ac\u03bb\u03b9\u03b1", "addr:housename": "Farmakio Charalampaki", "addr:housenumber": "174", "addr:postcode": "70014", "addr:street": "\u0395\u03bb\u03b5\u03c5\u03b8\u03ad\u03c1\u03b9\u03bf\u03c2 \u0392\u03b5\u03bd\u03b9\u03b6\u03ad\u03bb\u03bf\u03c2", "amenity": "pharmacy", "dispensing": "yes", "healthcare": "pharmacy", "name": "Noula - Charalampaki", "name:el": "\u039d\u03bf\u03c5\u03bb\u03b1 - \u03a7\u03b1\u03c1\u03b1\u03bb\u03b1\u03bc\u03c0\u03b1\u03ba\u03b7"}}, {"type": "node", "id": 1707938953, "lat": 35.3222799, "lon": 25.1385345, "tags": {"amenity": "pharmacy", "healthcare": "pharmacy"}}, {"type": "node", "id": 2522442717, "lat": 35.0018549, "lon": 25.0318602, "tags": {"amenity": "pharmacy", "healthcare": "pharmacy"}}, {"type": "node", "id": 2522455071, "lat": 35.0429795, "lon": 25.0929757}, {"type": "node", "id": 2522455072, "lat": 35.0430761, "lon": 25.0930454}, {"type": "node", "id": 2522455073, "lat": 35.0430256, "lon": 25.0931769}, {"type": "node", "id": 2522455074, "lat": 35.0429246, "lon": 25.093083}, {"type": "node", "id": 2522455553, "lat": 35.0429246, "lon": 25.0926511}, {"type": "node", "id": 2522455555, "lat": 35.0428456, "lon": 25.092678}, {"type": "node", "id": 2522455557, "lat": 35.0428565, "lon": 25.0927745}, {"type": "node", "id": 2522455559, "lat": 35.0429422, "lon": 25.0927504}, {"type": "node", "id": 2819402170, "lat": 35.2348905, "lon": 25.1594499, "tags": {"amenity": "pharmacy", "healthcare": "pharmacy"}}, {"type": "node", "id": 2819402171, "lat": 35.2348507, "lon": 25.1590811, "tags": {"amenity": "pharmacy", "healthcare": "pharmacy"}}, {"type": "node", "id": 2819459630, "lat": 35.3164905, "lon": 25.392289, "tags": {"amenity": "pharmacy", "healthcare": "pharmacy"}}, {"type": "node", "id": 2819459644, "lat": 35.3254425, "lon": 25.2809689, "tags": {"amenity": "pharmacy", "healthcare": "pharmacy"}}, {"type": "node", "id": 2819464143, "lat": 35.330445, "lon": 25.2559023, "tags": {"amenity": "pharmacy", "healthcare": "pharmacy"}}, {"type": "node", "id": 2819464144, "lat": 35.3295828, "lon": 25.2617241, "tags": {"amenity": "pharmacy", "healthcare": "pharmacy"}}, {"type": "node", "id": 3070048976, "lat": 35.3179329, "lon": 25.3896281, "tags": {"addr:city": "Chersonisos", "addr:housenumber": "33", "addr:postcode": "70014", "addr:street": "\u0395\u03bb\u03b5\u03c5\u03b8\u03b5\u03c1\u03af\u03bf\u03c5 \u0392\u03b5\u03bd\u03b9\u03b6\u03ad\u03bb\u03bf\u03c5", "amenity": "pharmacy", "dispensing": "yes", "drive_through": "no", "healthcare": "pharmacy", "name": "Pharmacy Charalampakis", "name:el": "\u03a3\u03c5\u03c3\u03c4\u03b5\u03b3\u03b1\u03c3\u03bc\u03ad\u03bd\u03bf \u03a6\u03b1\u03c1\u03bc\u03b1\u03ba\u03b5\u03af\u03bf \u03a7\u03c1\u03af\u03c3\u03c4\u03bf\u03c2 & \u0398\u03b5\u03cc\u03b4\u03c9\u03c1\u03bf\u03c2 \u03a7\u03b1\u03c1\u03b1\u03bb\u03b1\u03bc\u03c0\u03ac\u03ba\u03b7\u03c2 \u039f.\u0395.", "operator": "Charalampakis Christos & Theodoros", "payment:cash": "yes", "payment:contactless": "yes", "payment:credit_cards": "yes", "payment:debit_cards": "yes", "payment:mastercard": "yes", "payment:visa": "yes", "phone": "+30 28970 22201"}}, {"type": "node", "id": 3070072011, "lat": 35.3173967, "lon": 25.390532, "tags": {"amenity": "pharmacy", "healthcare": "pharmacy"}}, {"type": "node", "id": 3088938298, "lat": 35.3153287, "lon": 25.3937756, "tags": {"amenity": "pharmacy", "healthcare": "pharmacy"}}, {"type": "node", "id": 3088984356, "lat": 35.3144576, "lon": 25.3948619, "tags": {"amenity": "pharmacy", "healthcare": "pharmacy"}}, {"type": "node", "id": 3089046495, "lat": 35.3110695, "lon": 25.3990461, "tags": {"amenity": "pharmacy", "healthcare": "pharmacy"}}, {"type": "node", "id": 3688177072, "lat": 35.3323337, "lon": 25.3446053, "tags": {"amenity": "pharmacy", "healthcare": "pharmacy"}}, {"type": "node", "id": 3763599346, "lat": 35.2348642, "lon": 25.1574309, "tags": {"amenity": "pharmacy", "healthcare": "pharmacy"}}, {"type": "node", "id": 3822251868, "lat": 35.2343211, "lon": 25.1592297, "tags": {"amenity": "pharmacy", "healthcare": "pharmacy"}}, {"type": "node", "id": 4339007351, "lat": 35.3269411, "lon": 25.1283984, "tags": {"addr:housenumber": "8", "addr:street": "\u039b\u03b5\u03c5\u03b8\u03b5\u03c1\u03b1\u03af\u03bf\u03c5", "amenity": "pharmacy", "dispensing": "no", "healthcare": "pharmacy", "wheelchair": "yes"}}, {"type": "node", "id": 4406077858, "lat": 35.3195996, "lon": 25.39134, "tags": {"amenity": "pharmacy", "healthcare": "pharmacy", "operator": "\u039a\u03a9\u039d\u0399\u039d\u039f\u03a3 \u0393. \u0394\u0391\u039d\u0395\u039b\u0391\u039a\u0397\u03a3"}}, {"type": "node", "id": 4748443621, "lat": 35.2339809, "lon": 25.0291121, "tags": {"amenity": "pharmacy", "healthcare": "pharmacy"}}, {"type": "node", "id": 4750844823, "lat": 35.1960872, "lon": 25.0352575, "tags": {"amenity": "pharmacy", "healthcare": "pharmacy"}}, {"type": "node", "id": 4750845622, "lat": 35.2026855, "lon": 24.9981167, "tags": {"amenity": "pharmacy"}}, {"type": "node", "id": 4750845722, "lat": 35.1919121, "lon": 25.0337483, "tags": {"amenity": "pharmacy", "healthcare": "pharmacy"}}, {"type": "node", "id": 4753287021, "lat": 35.3278574, "lon": 25.2003319, "tags": {"amenity": "pharmacy", "healthcare": "pharmacy"}}, {"type": "node", "id": 4844035423, "lat": 35.3256623, "lon": 25.1301406, "tags": {"addr:city": "\u0397\u03a1\u0391\u039a\u039b\u0395\u0399\u039f", "addr:housenumber": "36", "addr:postcode": "71305", "addr:street": "\u0399\u0395\u03a1\u039f\u039b\u039f\u03a7\u0399\u03a4\u03a9\u039d", "amenity": "pharmacy", "healthcare": "pharmacy", "name": "Xenaki-Siti Stella", "phone": "+30 2810212281", "website": "https://www.facebook.com/PharmacyStellaXenakiSiti/", "wheelchair": "yes", "wheelchair:description": "The Pharmacy is accessible through wheelchair. Owner speaks Greek and English."}}, {"type": "node", "id": 5178680421, "lat": 35.3308321, "lon": 25.2517593, "tags": {"addr:street": "\u0397\u03c1\u03ac\u03ba\u03bb\u03b5\u03b9\u03bf - \u0386\u03b3\u03b9\u03bf\u03c2 \u039d\u03b9\u03ba\u03cc\u03bb\u03b1\u03bf\u03c2", "amenity": "pharmacy", "healthcare": "pharmacy", "phone": "2810762325"}}, {"type": "node", "id": 5189058326, "lat": 35.2904972, "lon": 25.4606461, "tags": {"amenity": "pharmacy", "healthcare": "pharmacy", "name": "\u039a\u03b1\u03bb\u03bb\u03b9\u03cc\u03c0\u03b7 \u039c\u03c0\u03b5\u03bb\u03b9\u03b2\u03ac\u03bd\u03b7 \u03ba\u03b1\u03b9 \u03a6\u03c9\u03c4\u03b5\u03b9\u03bd\u03ae \u039c\u03c0\u03b5\u03bb\u03b9\u03b2\u03ac\u03bd\u03b7", "opening_hours": "10:00-22:00", "phone": "+30 2897 031000", "wheelchair": "yes"}}, {"type": "node", "id": 5751535253, "lat": 35.3207287, "lon": 25.1151577}, {"type": "node", "id": 5751535254, "lat": 35.3206133, "lon": 25.1151321}, {"type": "node", "id": 5751535255, "lat": 35.3205945, "lon": 25.1152592}, {"type": "node", "id": 5751535256, "lat": 35.3207099, "lon": 25.1152847}, {"type": "node", "id": 5863226585, "lat": 35.3057902, "lon": 25.1529652, "tags": {"amenity": "pharmacy", "healthcare": "pharmacy"}}, {"type": "node", "id": 5863236185, "lat": 35.3144318, "lon": 25.1483523, "tags": {"addr:city": "\u0397\u03c1\u03ac\u03ba\u03bb\u03b5\u03b9\u03bf", "addr:housenumber": "203", "addr:street": "\u039a\u03bd\u03c9\u03c3\u03c3\u03bf\u03cd \u039b.", "amenity": "pharmacy", "dispensing": "yes", "healthcare": "pharmacy", "name": "\u039a\u03b1\u03bd\u03b9\u03b1\u03b4\u03ac\u03ba\u03b7\u03c2 \u0391\u03bd\u03c4\u03ce\u03bd\u03b9\u03bf\u03c2"}}, {"type": "node", "id": 6049881588, "lat": 35.1868772, "lon": 25.2803815, "tags": {"amenity": "pharmacy", "healthcare": "pharmacy"}}, {"type": "node", "id": 7034493706, "lat": 35.2632244, "lon": 25.4228821, "tags": {"amenity": "pharmacy", "healthcare": "pharmacy"}}, {"type": "node", "id": 7577227747, "lat": 35.0760423, "lon": 25.2478688, "tags": {"amenity": "pharmacy", "dispensing": "yes", "healthcare": "pharmacy", "name": "\u03a6\u03b1\u03c1\u03bc\u03b1\u03ba\u03b5\u03b9\u03bf \u0395\u03bc\u03bc\u03b1\u03bd\u03bf\u03c5\u03b7\u03bb \u039b\u03b1\u03c6\u03bd\u03bf\u03c5\u03bd"}}, {"type": "node", "id": 9957667318, "lat": 35.2927814, "lon": 25.4319277, "tags": {"amenity": "pharmacy", "name:signed": "no"}}, {"type": "node", "id": 10148596531, "lat": 35.2895031, "lon": 25.4610709, "tags": {"addr:city": "\u039c\u03ac\u03bb\u03b9\u03b1", "addr:housenumber": "113", "addr:postcode": "70007", "addr:street": "\u0394\u03b7\u03bc\u03bf\u03ba\u03c1\u03b1\u03c4\u03af\u03b1\u03c2", "amenity": "pharmacy", "dispensing": "yes", "drive_through": "no", "healthcare": "pharmacy", "name": "\u03a6\u03b1\u03c1\u03bc\u03b1\u03ba\u03b5\u03b9\u03bf \u0399. \u039a\u03c1\u03b1\u03c3\u03b1\u03ba\u03b7\u03c3", "name:el": "\u03a6\u03b1\u03c1\u03bc\u03b1\u03ba\u03b5\u03b9\u03bf \u0399. \u039a\u03c1\u03b1\u03c3\u03b1\u03ba\u03b7\u03c3", "name:en": "Pharmacy J. Krasakis", "opening_hours": "10:00-22:00", "phone": "+30 2897 031900", "wheelchair": "yes"}}, {"type": "node", "id": 10151244440, "lat": 35.286523, "lon": 25.4614874, "tags": {"addr:city": "\u039c\u03ac\u03bb\u03b9\u03b1", "addr:postcode": "70007", "addr:street": "\u0394\u03b7\u03bc\u03bf\u03ba\u03c1\u03b1\u03c4\u03af\u03b1\u03c2", "amenity": "pharmacy", "dispensing": "yes", "drive_through": "no", "healthcare": "pharmacy", "name": "\u039c\u03b9\u03c7\u03ac\u03bb\u03b7\u03c2 \u039a\u03bf\u03c3\u03bc\u03ac\u03c2", "opening_hours": "10:00-21:50", "phone": "+30 2897 033923;+30 694 787 8710"}}, {"type": "node", "id": 10221293415, "lat": 35.1475456, "lon": 25.2652149, "tags": {"amenity": "pharmacy", "healthcare": "pharmacy"}}, {"type": "node", "id": 11577174490, "lat": 35.3309396, "lon": 25.3064355, "tags": {"amenity": "pharmacy", "healthcare": "pharmacy"}}, {"type": "node", "id": 12304597299, "lat": 35.2834437, "lon": 25.4619854, "tags": {"addr:city": "\u039c\u03ac\u03bb\u03b9\u03b1", "addr:postcode": "70007", "addr:street": "\u0395\u03bb\u03b5\u03c5\u03b8\u03ad\u03c1\u03b9\u03bf\u03c2 \u0392\u03b5\u03bd\u03b9\u03b6\u03ad\u03bb\u03bf\u03c2", "amenity": "pharmacy", "healthcare": "pharmacy", "name": "\u0395\u03bc\u03bc. \u039c\u03b9\u03c7. \u039c\u03c0\u03b5\u03bb\u03b9\u03b2\u03ac\u03bd\u03b7\u03c2"}}, {"type": "way", "id": 56025654, "nodes": [703257175, 703257171, 703257234, 703257232, 703257175], "tags": {"addr:housenumber": "24", "addr:street": "\u039f\u03b4\u03cc\u03c2 \u0391\u03b3\u03af\u03c9\u03bd \u03a0\u03ac\u03bd\u03c4\u03c9\u03bd", "amenity": "pharmacy", "building": "yes", "contact:mobile": "+30 6975 855485", "contact:phone": "+30 2810 380616", "name": "\u0395\u03bb\u03ad\u03bd\u03b7 \u03a3\u03c4\u03b1\u03b8\u03ac\u03ba\u03b7", "name:el": "\u0395\u03bb\u03ad\u03bd\u03b7 \u03a3\u03c4\u03b1\u03b8\u03ac\u03ba\u03b7", "name:en": "Eleni Stathaki"}}, {"type": "way", "id": 244979872, "nodes": [2522455071, 2522455072, 2522455073, 2522455074, 2522455071], "tags": {"amenity": "pharmacy", "building": "yes", "healthcare": "pharmacy"}}, {"type": "way", "id": 244979893, "nodes": [2522455553, 2522455555, 2522455557, 2522455559, 2522455553], "tags": {"amenity": "pharmacy", "building": "yes", "healthcare": "pharmacy"}}, {"type": "way", "id": 606699022, "nodes": [5751535253, 5751535254, 5751535255, 5751535256, 5751535253], "tags": {"amenity": "pharmacy", "building": "yes", "dispensing": "yes", "healthcare": "pharmacy"}}]}