{"version": 0.6, "generator": "Overpass API 0.7.62.8 e802775f", "osm3s": {"timestamp_osm_base": "2025-10-06T07:57:45Z", "copyright": "The data included in this document is from www.openstreetmap.org. The data is made available under ODbL."}, "elements": [{"type": "node", "id": 477243644, "lat": 44.2241842, "lon": 20.2398339, "tags": {"amenity": "pharmacy", "dispensing": "no", "healthcare": "pharmacy"}}, {"type": "node", "id": 612917972, "lat": 44.2548454, "lon": 20.6786292, "tags": {"amenity": "pharmacy", "brand": "Benu", "brand:wikidata": "Q62562792", "healthcare": "pharmacy", "name": "Benu"}}, {"type": "node", "id": 5810519778, "lat": 44.3080237, "lon": 20.5568796, "tags": {"addr:housenumber": "232", "addr:street": "\u041a\u045a\u0430\u0437\u0430 \u041c\u0438\u043b\u043e\u0448\u0430", "amenity": "pharmacy", "brand": "Lilly", "brand:wikidata": "Q111764460", "healthcare": "pharmacy", "name": "Lilly", "name:en": "Lilly", "name:sr": "\u041b\u0438\u043b\u0438", "ref:RS:kucni_broj": "3990815", "shop": "chemist"}}, {"type": "node", "id": 5810526575, "lat": 44.3081052, "lon": 20.5566447, "tags": {"addr:housenumber": "234", "addr:street": "\u041a\u045a\u0430\u0437\u0430 \u041c\u0438\u043b\u043e\u0448\u0430", "amenity": "pharmacy", "healthcare": "pharmacy", "name": "Melem", "opening_hours": "Mo-Sa 07:30-21:00, 09:00-18:00; Su 07:30-14:00", "ref:RS:kucni_broj": "3990816"}}, {"type": "node", "id": 6924531458, "lat": 44.3817283, "lon": 20.2760216, "tags": {"amenity": "pharmacy", "dispensing": "yes", "healthcare": "pharmacy"}}, {"type": "node", "id": 7064088565, "lat": 44.3876195, "lon": 20.2519489}, {"type": "node", "id": 7064088574, "lat": 44.3867642, "lon": 20.2508102}, {"type": "node", "id": 7064088575, "lat": 44.386905, "lon": 20.2511578}, {"type": "node", "id": 7064088576, "lat": 44.3868341, "lon": 20.2507548}, {"type": "node", "id": 7273559008, "lat": 44.3796353, "lon": 20.261188, "tags": {"addr:city": "\u041b\u0430\u0437\u0430\u0440\u0435\u0432\u0430\u0446", "addr:housenumber": "14", "addr:postcode": "11550", "addr:street": "\u0414\u0443\u043b\u0430 \u041a\u0430\u0440\u0430\u043a\u043b\u0430\u0458\u0438\u045b\u0430", "amenity": "pharmacy", "dispensing": "yes", "drive_through": "no", "healthcare": "pharmacy", "name": "Botenoni", "phone": "+381 11 8123997"}}, {"type": "node", "id": 9056596814, "lat": 44.3813592, "lon": 20.2753895, "tags": {"amenity": "pharmacy", "dispensing": "yes", "healthcare": "pharmacy"}}, {"type": "node", "id": 9056596815, "lat": 44.3815684, "lon": 20.2738351, "tags": {"amenity": "pharmacy", "dispensing": "yes", "healthcare": "pharmacy", "name": "Masla\u010dak"}}, {"type": "node", "id": 9554119606, "lat": 44.3075442, "lon": 20.5575228, "tags": {"addr:city": "\u0410\u0440\u0430\u043d\u0452\u0435\u043b\u043e\u0432\u0430\u0446", "addr:country": "SR", "addr:postcode": "34300", "addr:street": "\u041a\u045a\u0430\u0437\u0430 \u041c\u0438\u043b\u043e\u0448\u0430", "alt_name": "\u0414\u0440\u0443\u0433\u0430", "alt_name:sr": "\u0414\u0440\u0443\u0433\u0430", "alt_name:sr-Latn": "Druga", "amenity": "pharmacy", "dispensing": "yes", "email": "info@apotekasumadija.com", "healthcare": "pharmacy", "int_name": "Sumadija", "medical_supply": "yes", "name": "\u0428\u0443\u043c\u0430\u0434\u0438\u0458\u0430", "name:sr": "\u0428\u0443\u043c\u0430\u0434\u0438\u0458\u0430", "name:sr-Latn": "\u0160umadija", "opening_hours": "Mo-Fr 07:00-20:00; Sa 07:00-20:00", "operator": "\u0410\u043f\u043e\u0442\u0435\u043a\u0430\u0440\u0441\u043a\u0430 \u0443\u0441\u0442\u0430\u043d\u043e\u0432\u0430 \u0428\u0443\u043c\u0430\u0434\u0438\u0458\u0430 \u0410\u0440\u0430\u043d\u0452\u0435\u043b\u043e\u0432\u0430\u0446", "operator:type": "government", "phone": "+38134713059", "website": "https://www.apotekasumadija.com/"}}, {"type": "node", "id": 9554122744, "lat": 44.302422, "lon": 20.5697992, "tags": {"addr:city": "\u0410\u0440\u0430\u043d\u0452\u0435\u043b\u043e\u0432\u0430\u0446", "addr:country": "SR", "addr:postcode": "34300", "addr:street": "\u041a\u045a\u0430\u0437\u0430 \u041c\u0438\u043b\u043e\u0448\u0430", "alt_name": "\u0422\u0440\u0435\u045b\u0430", "alt_name:sr": "\u0422\u0440\u0435\u045b\u0430", "alt_name:sr-Latn": "Tre\u0107a", "amenity": "pharmacy", "dispensing": "yes", "email": "info@apotekasumadija.com", "healthcare": "pharmacy", "int_name": "Sumadija", "medical_supply": "yes", "name": "\u0428\u0443\u043c\u0430\u0434\u0438\u0458\u0430", "name:sr": "\u0428\u0443\u043c\u0430\u0434\u0438\u0458\u0430", "name:sr-Latn": "\u0160umadija", "opening_hours": "Mo-Fr 07:00-20:00; Sa 07:00-20:00", "operator": "\u0410\u043f\u043e\u0442\u0435\u043a\u0430\u0440\u0441\u043a\u0430 \u0443\u0441\u0442\u0430\u043d\u043e\u0432\u0430 \u0428\u0443\u043c\u0430\u0434\u0438\u0458\u0430 \u0410\u0440\u0430\u043d\u0452\u0435\u043b\u043e\u0432\u0430\u0446", "operator:type": "government", "phone": "+38134720722", "website": "https://www.apotekasumadija.com/"}}, {"type": "node", "id": 9605864000, "lat": 44.4575742, "lon": 20.0757715, "tags": {"addr:city": "\u0423\u0431", "addr:country": "RS", "addr:housenumber": "1", "addr:postcode": "14210", "addr:street": "\u0414\u043e\u0431\u0440\u043e\u0441\u0430\u0432\u0430 \u0421\u0438\u043c\u0438\u045b\u0430", "amenity": "pharmacy", "email": "ub@apotekavaljevo.rs", "healthcare": "pharmacy", "int_name": "Apoteka Ub", "name": "\u0410\u043f\u043e\u0442\u0435\u043a\u0430 Ub", "name:en": "Apoteka Ub", "name:sr": "\u0410\u043f\u043e\u0442\u0435\u043a\u0430 \u0423\u0431", "name:sr-Latn": "Apoteka Ub", "opening_hours": "Mo-Fr 07:00-20:00; Sa 08:00-18:00; Su 08:00-13:00", "phone": "+38114416444;+38114416443", "website": "http://www.apotekavaljevo.rs/apoteke/opstina-ub/", "wheelchair": "yes"}}, {"type": "node", "id": 10103709321, "lat": 44.3860089, "lon": 20.2632328, "tags": {"amenity": "pharmacy", "dispensing": "yes", "healthcare": "pharmacy", "name": "Botenoni 2"}}, {"type": "node", "id": 10199162763, "lat": 44.3800522, "lon": 20.2648672, "tags": {"amenity": "pharmacy", "brand": "Dr. Max", "brand:wikidata": "Q56317371", "healthcare": "pharmacy", "name": "Dr. Max"}}, {"type": "node", "id": 10656236895, "lat": 44.2542791, "lon": 20.6807863, "tags": {"addr:city": "Topola", "addr:housenumber": "24", "addr:postcode": "34310", "addr:street": "\u0411\u0443\u043b\u0435\u0432\u0430\u0440 \u043a\u0440\u0430\u0459\u0430 \u0410\u043b\u0435\u043a\u0441\u0430\u043d\u0434\u0440\u0430", "amenity": "pharmacy", "healthcare": "pharmacy", "name": "Gorana", "ref:RS:kucni_broj": "3840238"}}, {"type": "node", "id": 10826977118, "lat": 44.3877196, "lon": 20.2538311}, {"type": "node", "id": 10826977119, "lat": 44.387744, "lon": 20.2540046}, {"type": "node", "id": 10826977120, "lat": 44.3876437, "lon": 20.2540322}, {"type": "node", "id": 10826977121, "lat": 44.3876193, "lon": 20.2538587}, {"type": "node", "id": 11739411172, "lat": 44.3050742, "lon": 20.5625859}, {"type": "node", "id": 11739411173, "lat": 44.3051026, "lon": 20.5624214}, {"type": "node", "id": 11739411174, "lat": 44.3049679, "lon": 20.562376}, {"type": "node", "id": 11739411175, "lat": 44.3049395, "lon": 20.5625405}, {"type": "node", "id": 11991563105, "lat": 44.4761507, "lon": 20.2908362, "tags": {"amenity": "pharmacy", "drive_through": "yes", "healthcare": "pharmacy", "name": "Apoteka Beograd", "name:sr": "\u0410\u043f\u043e\u0442\u0435\u043a\u0430 \u0411\u0435\u043e\u0433\u0440\u0430\u0434", "name:sr-Latn": "Apoteka Beograd", "opening_hours": "Mo-Sa 7:00-15:30"}}, {"type": "node", "id": 11991563106, "lat": 44.4739432, "lon": 20.2904353, "tags": {"amenity": "pharmacy", "drive_through": "no", "healthcare": "pharmacy", "name": "Julija Nova", "name:sr": "\u0408\u0443\u043b\u0438\u0458\u0430 \u041d\u043e\u0432\u0430", "name:sr-Latn": "Julija Nova"}}, {"type": "node", "id": 12554401461, "lat": 44.387554, "lon": 20.2519995}, {"type": "node", "id": 12554401462, "lat": 44.3876715, "lon": 20.2520807}, {"type": "node", "id": 12554401463, "lat": 44.387606, "lon": 20.2521313}, {"type": "node", "id": 12554401472, "lat": 44.3869749, "lon": 20.2511023}, {"type": "node", "id": 12714417677, "lat": 44.4571398, "lon": 20.0741703, "tags": {"amenity": "pharmacy", "healthcare": "pharmacy"}}, {"type": "node", "id": 13138060697, "lat": 44.1939107, "lon": 20.605381, "tags": {"addr:city": "\u0414\u043e\u045a\u0430 \u0428\u0430\u0442\u043e\u0440\u045a\u0430", "addr:housenumber": "67", "addr:postcode": "34314", "addr:street": "\u0412\u0438\u0442\u0435\u0437\u043e\u0432\u0430 \u041a\u0430\u0440\u0430\u0452\u043e\u0440\u0452\u0435\u0432\u0435 \u0437\u0432\u0435\u0437\u0434\u0435", "amenity": "pharmacy", "dispensing": "no", "drive_through": "no", "healthcare": "pharmacy", "name": "Apoteka Neven 3", "opening_hours": "Mo-Sa 07:00-15:00"}}, {"type": "node", "id": 13138067701, "lat": 44.1941, "lon": 20.6060498, "tags": {"addr:city": "\u0414\u043e\u045a\u0430 \u0428\u0430\u0442\u043e\u0440\u045a\u0430", "addr:housenumber": "7", "addr:postcode": "34314", "addr:street": "\u041a\u0440\u0430\u0459\u0430 \u041f\u0435\u0442\u0440\u0430 \u043f\u0440\u0432\u043e\u0433", "amenity": "pharmacy", "dispensing": "no", "drive_through": "no", "healthcare": "pharmacy", "name": "Dr\u017eavna apoteka Kragujevac", "opening_hours": "Mo-Sa 07:00-15:00"}}, {"type": "way", "id": 1164146475, "nodes": [10826977118, 10826977119, 10826977120, 10826977121, 10826977118], "tags": {"addr:city": "\u041b\u0430\u0437\u0430\u0440\u0435\u0432\u0430\u0446", "addr:housenumber": "4a", "addr:postcode": "11550", "addr:street": "\u0408\u0430\u043d\u043a\u0430 \u0421\u0442\u0430\u0458\u0447\u0438\u045b\u0430", "amenity": "pharmacy", "brand": "Dr. Max", "brand:wikidata": "Q56317371", "building": "yes", "healthcare": "pharmacy", "name": "Dr. Max", "ref:RS:kucni_broj": "3470959"}}, {"type": "way", "id": 1263536821, "nodes": [11739411175, 11739411174, 11739411173, 11739411172, 11739411175], "tags": {"addr:city": "\u0410\u0440\u0430\u043d\u0452\u0435\u043b\u043e\u0432\u0430\u0446", "addr:country": "SR", "addr:housenumber": "62", "addr:postcode": "34300", "addr:street": "\u041a\u0440\u0430\u0459\u0430 \u041f\u0435\u0442\u0440\u0430 \u043f\u0440\u0432\u043e\u0433", "alt_name": "\u041f\u0440\u0432\u0430", "alt_name:sr": "\u041f\u0440\u0432\u0430", "alt_name:sr-Latn": "Prva", "amenity": "pharmacy", "building": "yes", "dispensing": "yes", "email": "info@apotekasumadija.com", "healthcare": "pharmacy", "int_name": "Sumadija", "medical_supply": "yes", "name": "\u0428\u0443\u043c\u0430\u0434\u0438\u0458\u0430", "name:sr": "\u0428\u0443\u043c\u0430\u0434\u0438\u0458\u0430", "name:sr-Latn": "\u0160umadija", "opening_hours": "Mo-Fr 07:00-20:00; Sa 07:00-20:00", "operator": "\u0410\u043f\u043e\u0442\u0435\u043a\u0430\u0440\u0441\u043a\u0430 \u0443\u0441\u0442\u0430\u043d\u043e\u0432\u0430 \u0428\u0443\u043c\u0430\u0434\u0438\u0458\u0430 \u0410\u0440\u0430\u043d\u0452\u0435\u043b\u043e\u0432\u0430\u0446", "operator:type": "government", "phone": "+38134711622", "ref:RS:kucni_broj": "4005301", "website": "https://www.apotekasumadija.com/"}}, {"type": "way", "id": 1356466985, "nodes": [12554401461, 7064088565, 12554401462, 12554401463, 12554401461], "tags": {"amenity": "pharmacy", "brand": "Galen pharm", "brand:wikidata": "Q132851975", "healthcare": "pharmacy", "indoor": "room", "level": "0", "name": "Galen pharm", "name:sr": "\u0413\u0430\u043b\u0435\u043d \u0444\u0430\u0440\u043c", "name:sr-Latn": "Galen farm"}}, {"type": "way", "id": 1356466992, "nodes": [7064088574, 7064088576, 12554401472, 7064088575, 7064088574], "tags": {"amenity": "pharmacy", "brand": "Lilly", "brand:wikidata": "Q111764460", "dispensing": "yes", "healthcare": "pharmacy", "indoor": "room", "level": "0", "name": "Lilly", "name:en": "Lilly", "name:sr": "\u041b\u0438\u043b\u0438", "shop": "chemist"}}]}