{"version": 0.6, "generator": "Overpass API 0.7.62.8 e802775f", "osm3s": {"timestamp_osm_base": "2025-10-06T07:39:15Z", "copyright": "The data included in this document is from www.openstreetmap.org. The data is made available under ODbL."}, "elements": [{"type": "node", "id": 2139335543, "lat": 40.0094713, "lon": 18.1585262}, {"type": "node", "id": 2139335557, "lat": 40.0094908, "lon": 18.1585891}, {"type": "node", "id": 2139335566, "lat": 40.0096181, "lon": 18.158445}, {"type": "node", "id": 2139335569, "lat": 40.0096386, "lon": 18.1585087}, {"type": "node", "id": 2139335584, "lat": 40.0099074, "lon": 18.1609698}, {"type": "node", "id": 2139335592, "lat": 40.0099885, "lon": 18.1611654}, {"type": "node", "id": 2139335623, "lat": 40.0100217, "lon": 18.160889}, {"type": "node", "id": 2139335632, "lat": 40.0101028, "lon": 18.1610846}, {"type": "node", "id": 2139335651, "lat": 40.0129652, "lon": 18.167849}, {"type": "node", "id": 2139335656, "lat": 40.0130057, "lon": 18.1677961}, {"type": "node", "id": 2139335659, "lat": 40.0130211, "lon": 18.1679446}, {"type": "node", "id": 2139335662, "lat": 40.0130753, "lon": 18.1679042}, {"type": "node", "id": 2139335664, "lat": 40.0141645, "lon": 18.1599146}, {"type": "node", "id": 2139335669, "lat": 40.0141869, "lon": 18.1597194}, {"type": "node", "id": 2139335671, "lat": 40.0142832, "lon": 18.1599378}, {"type": "node", "id": 2139335676, "lat": 40.0143056, "lon": 18.1597427}, {"type": "node", "id": 2139335679, "lat": 40.0165349, "lon": 18.1617639}, {"type": "node", "id": 2139335683, "lat": 40.0165548, "lon": 18.161573}, {"type": "node", "id": 2139335689, "lat": 40.0166069, "lon": 18.1609657}, {"type": "node", "id": 2139335692, "lat": 40.0166317, "lon": 18.1607566}, {"type": "node", "id": 2139335695, "lat": 40.0166455, "lon": 18.1617836}, {"type": "node", "id": 2139335698, "lat": 40.0166654, "lon": 18.1615927}, {"type": "node", "id": 2139335701, "lat": 40.0167246, "lon": 18.1609895}, {"type": "node", "id": 2139335706, "lat": 40.0167494, "lon": 18.1607804}, {"type": "node", "id": 2363226916, "lat": 40.0100595, "lon": 18.1609836}, {"type": "node", "id": 2431626921, "lat": 39.8451581, "lon": 18.372753, "tags": {"amenity": "pharmacy", "healthcare": "pharmacy"}}, {"type": "node", "id": 3197021044, "lat": 39.927423, "lon": 18.3591652, "tags": {"addr:city": "Tricase", "addr:housenumber": "1", "addr:postcode": "73039", "addr:street": "Via Luigi Pirandello", "amenity": "pharmacy", "dispensing": "yes", "name": "Farmacia Petrelli", "opening_hours": "Mo-Fr 08:30-13:00,16:30-20:00", "operator": "Farmacia Petrelli Terenzio & C. S.n.c.", "phone": "+39 0833 544374", "ref:msal": "13302", "ref:vatin": "IT03965340759"}}, {"type": "node", "id": 3197021045, "lat": 39.9344929, "lon": 18.3197165, "tags": {"addr:city": "Tricase", "addr:hamlet": "Lucugnano", "addr:housenumber": "11", "addr:postcode": "73039", "addr:street": "Corso Giuseppe Garibaldi", "amenity": "pharmacy", "dispensing": "yes", "drive_through": "no", "healthcare": "pharmacy", "name": "Farmacia Petrelli", "operator": "Farmacia Petrelli Terenzio & C. S.n.c.", "phone": "+39 0833 784454", "ref:msal": "13263", "ref:vatin": "IT03965340759"}}, {"type": "node", "id": 3411333510, "lat": 39.9309142, "lon": 18.3573005, "tags": {"addr:city": "Tricase", "addr:postcode": "73039", "addr:street": "Piazza dei Cappuccini", "amenity": "pharmacy", "dispensing": "yes", "name": "Farmacia Scardia", "opening_hours": "Mo-Sa 08:00-13:00,16:30-21:30; Su 8:30-12:30,16:30-20:30", "operator": "Farmacia Scardia delle Dott.sse Maria Gabriella e Daria Metrangolo S.n.c.", "phone": "+39 0833 544198", "ref:msal": "13261", "ref:vatin": "IT03949520757"}}, {"type": "node", "id": 3521865805, "lat": 39.9729631, "lon": 18.3235025, "tags": {"addr:city": "Montesano Salentino", "addr:housenumber": "82", "addr:street": "Via Sant'Angelo", "amenity": "pharmacy", "dispensing": "yes", "name": "Farmacia Luigi Cazzato", "operator": "Dottor Pierluigi Cazzato", "phone": "+39 0833 763376", "ref:vatin": "IT03343180752"}}, {"type": "node", "id": 3596314413, "lat": 39.8902347, "lon": 18.1150753, "tags": {"amenity": "pharmacy", "check_date:opening_hours": "2023-12-02", "dispensing": "yes", "healthcare": "pharmacy", "name": "Farmacia Giammito Dr. Antonio", "opening_hours:signed": "no", "wheelchair": "yes"}}, {"type": "node", "id": 3771503071, "lat": 39.8909901, "lon": 18.3314355, "tags": {"addr:city": "Alessano", "addr:housenumber": "26", "addr:postcode": "73031", "addr:street": "Via Rimembranze", "amenity": "pharmacy", "dispensing": "yes", "name": "Farmacia Venneri", "operator": "Dott. Venneri Massimo", "phone": "+39 0833 781026", "ref:msal": "13344"}}, {"type": "node", "id": 3834239326, "lat": 39.8346029, "lon": 18.2713826}, {"type": "node", "id": 3834239335, "lat": 39.83461, "lon": 18.2713136}, {"type": "node", "id": 3834239463, "lat": 39.8346333, "lon": 18.271424}, {"type": "node", "id": 3834239467, "lat": 39.8346338, "lon": 18.2713437}, {"type": "node", "id": 3834239477, "lat": 39.834642, "lon": 18.2712736}, {"type": "node", "id": 3834239537, "lat": 39.8346962, "lon": 18.2713423}, {"type": "node", "id": 3856258068, "lat": 39.9655927, "lon": 18.3128412}, {"type": "node", "id": 3856258072, "lat": 39.9655934, "lon": 18.3128518}, {"type": "node", "id": 3856258080, "lat": 39.9655951, "lon": 18.3128333}, {"type": "node", "id": 3856258088, "lat": 39.9655982, "lon": 18.3128719}, {"type": "node", "id": 3856258100, "lat": 39.9656023, "lon": 18.3128212}, {"type": "node", "id": 3856258109, "lat": 39.9656057, "lon": 18.3129246}, {"type": "node", "id": 3856258111, "lat": 39.9656065, "lon": 18.3129162}, {"type": "node", "id": 3856258117, "lat": 39.9656077, "lon": 18.312895}, {"type": "node", "id": 3856258118, "lat": 39.9656081, "lon": 18.3129347}, {"type": "node", "id": 3856258121, "lat": 39.965609, "lon": 18.3129077}, {"type": "node", "id": 3856258123, "lat": 39.9656095, "lon": 18.3129801}, {"type": "node", "id": 3856258127, "lat": 39.9656121, "lon": 18.3129453}, {"type": "node", "id": 3856258130, "lat": 39.9656128, "lon": 18.3129585}, {"type": "node", "id": 3856258771, "lat": 39.9657266, "lon": 18.3130117}, {"type": "node", "id": 3856258783, "lat": 39.965734, "lon": 18.3128064}, {"type": "node", "id": 3856258792, "lat": 39.9657388, "lon": 18.3129868}, {"type": "node", "id": 3856258793, "lat": 39.9657394, "lon": 18.3129024}, {"type": "node", "id": 3856258795, "lat": 39.9657404, "lon": 18.3130107}, {"type": "node", "id": 3856258798, "lat": 39.9657418, "lon": 18.3129071}, {"type": "node", "id": 3856258802, "lat": 39.9657458, "lon": 18.3129098}, {"type": "node", "id": 3856258890, "lat": 39.9657999, "lon": 18.3129051}, {"type": "node", "id": 3856258900, "lat": 39.965807, "lon": 18.3129798}, {"type": "node", "id": 3857554817, "lat": 39.8594035, "lon": 18.1636599}, {"type": "node", "id": 3857554826, "lat": 39.8594201, "lon": 18.1637864}, {"type": "node", "id": 3857554848, "lat": 39.8594723, "lon": 18.163777}, {"type": "node", "id": 3857554849, "lat": 39.8594732, "lon": 18.1637927}, {"type": "node", "id": 3857554859, "lat": 39.8594948, "lon": 18.1636447}, {"type": "node", "id": 3857554864, "lat": 39.8595127, "lon": 18.1637858}, {"type": "node", "id": 3907710028, "lat": 39.9329437, "lon": 18.3592557, "tags": {"addr:city": "Tricase", "addr:housenumber": "8", "addr:postcode": "73039", "addr:street": "Via Alessandro Manzoni", "amenity": "pharmacy", "dispensing": "no", "name": "Simbiosi Farmabio", "operator": "Gli 88 Misti S.n.c.", "organic": "only", "phone": "+39 0833 1832001", "phone:mobile": "+39 349 9722656", "ref:msal": "011172", "ref:vatin": "IT04718400759", "shop": "supermarket"}}, {"type": "node", "id": 3994001657, "lat": 39.965614, "lon": 18.3130248}, {"type": "node", "id": 4053690685, "lat": 40.0093495, "lon": 18.1585937}, {"type": "node", "id": 4053691200, "lat": 40.0095063, "lon": 18.1585808}, {"type": "node", "id": 4053691305, "lat": 40.0095489, "lon": 18.1585577}, {"type": "node", "id": 4265860023, "lat": 39.7984875, "lon": 18.3606305, "tags": {"addr:city": "Castrignano del Capo", "addr:hamlet": "Santa Maria di Leuca", "addr:housenumber": "36", "addr:street": "Via Doppia Croce", "amenity": "pharmacy", "dispensing": "yes", "healthcare": "pharmacy", "name": "Farmacia Di Secl\u00ec", "operator": "Farmacia Dott.ssa Di Secl\u00ec", "phone": "+39 0833 758192", "ref:msal": "13348", "ref:vatin": "IT04525930758"}}, {"type": "node", "id": 4427865864, "lat": 40.0054691, "lon": 18.1544091, "tags": {"amenity": "pharmacy", "dispensing": "yes", "healthcare": "pharmacy", "name": "Nuova Farmacia De Paolis De Pascalis"}}, {"type": "node", "id": 4629227198, "lat": 39.9382647, "lon": 18.2992682, "tags": {"addr:city": "Specchia", "addr:housenumber": "1", "addr:postcode": "73040", "addr:street": "Via Alcide De Gasperi", "amenity": "pharmacy", "dispensing": "yes", "name": "Farmacia D'Ettorre", "operator": "Farmacia D'Ettorre S.n.c. Di D'Ettorre Raffaele & C.", "phone": "+39 0833 539120", "ref:msal": "13310", "ref:vatin": "IT04222230759"}}, {"type": "node", "id": 4818145294, "lat": 39.9332572, "lon": 18.3473764, "tags": {"addr:city": "Tricase", "addr:housenumber": "15", "addr:postcode": "73039", "addr:street": "Via Olimpica", "amenity": "pharmacy", "dispensing": "yes", "name": "Farmacia Olimpica", "operator": "Farmacia Olimpica Tricase S.n.c. dei Dottori V. Balena, S. Cocola e E. Pino", "phone": "+39 0833 772226", "phone:mobile": "+39 339 8373923", "ref:msal": "19145", "ref:vatin": "IT04788210757"}}, {"type": "node", "id": 5755499748, "lat": 39.888882, "lon": 18.3689892, "tags": {"addr:city": "Corsano", "addr:street": "Via della Libert\u00e0", "amenity": "pharmacy", "dispensing": "yes", "name": "Farmacia Dottor Notaro", "operator": "Notaro Annamaria", "ref:msal": "13297", "ref:vatin": "IT01957800756"}}, {"type": "node", "id": 5859170401, "lat": 39.8455435, "lon": 18.3655463, "tags": {"amenity": "pharmacy", "dispensing": "no", "name": "Parafarmacia De Blasi"}}, {"type": "node", "id": 5938642986, "lat": 39.7963034, "lon": 18.3531472, "tags": {"amenity": "pharmacy", "healthcare": "pharmacy", "name": "Farmacia Di Secl\u00ec", "opening_hours": "Mo-Su 09:00-13:00, 16:30-20:30", "phone": "+39 0833 758192"}}, {"type": "node", "id": 6758994118, "lat": 39.9625241, "lon": 18.3612211, "tags": {"addr:city": "Tricase", "addr:hamlet": "Depressa", "addr:street": "Via Gaetano Salvemini", "amenity": "pharmacy", "dispensing": "yes", "name": "Farmacia San Francesco", "operator": "Preite Anna Maria", "ref:msal": "13329", "ref:vatin": "IT03388830758"}}, {"type": "node", "id": 6933229577, "lat": 39.8472653, "lon": 18.3378477, "tags": {"addr:city": "Castrignano del Capo", "addr:hamlet": "Giuliano di Lecce", "addr:housenumber": "18", "addr:postcode": "73040", "addr:street": "Via Corsica", "amenity": "pharmacy", "dispensing": "yes", "drive_through": "no", "healthcare": "pharmacy", "name": "Farmacia Maruccia", "operator": "Farmacia Maruccia S.a.s. della Dr.ssa Maruccia Giuseppina & C.", "phone": "+39 0833 752529", "ref:msal": "13304", "ref:vatin": "IT04983130750"}}, {"type": "node", "id": 7102003256, "lat": 40.0098358, "lon": 18.1589324, "tags": {"amenity": "pharmacy", "dispensing": "yes"}}, {"type": "node", "id": 7107673566, "lat": 40.0095462, "lon": 18.1584848}, {"type": "node", "id": 7107673568, "lat": 40.0095669, "lon": 18.1585479}, {"type": "node", "id": 7107673570, "lat": 40.0093925, "lon": 18.1586414}, {"type": "node", "id": 7315194700, "lat": 39.9062338, "lon": 18.2538474, "tags": {"addr:city": "Presicce-Acquarica", "addr:housenumber": "109", "addr:postcode": "73040", "addr:street": "Corso Dante Alighieri", "amenity": "pharmacy", "dispensing": "yes", "name": "Farmacia Sbarro", "operator": "Farmacia Sbarro di Flavia Lubello & C. S.a.s.", "ref:msal": "13316", "ref:vatin": "IT04472660754"}}, {"type": "node", "id": 7316782369, "lat": 39.8756487, "lon": 18.3402534, "tags": {"addr:city": "Alessano", "addr:hamlet": "Montesardo", "addr:housenumber": "87", "addr:postcode": "73031", "addr:street": "Via Nazionale", "amenity": "pharmacy", "healthcare": "pharmacy", "name": "Farmacia Nazionale", "operator": "Farmacia Nazionale S.a.s. della dott.ssa Lucia De Blasi & C.", "ref:msal": "13326", "ref:vatin": "IT04388620751"}}, {"type": "node", "id": 7316848905, "lat": 39.8892429, "lon": 18.3316186, "tags": {"addr:city": "Alessano", "addr:street": "Piazza Don Tonino Bello", "amenity": "pharmacy", "dispensing": "yes", "name": "Farmacia Nicolardi", "operator": "Farmacia Nicolardi della Dott.ssa Amoroso Wanda", "ref:msal": "13295"}}, {"type": "node", "id": 7319317709, "lat": 39.9404428, "lon": 18.1175998, "tags": {"addr:city": "Alliste", "addr:hamlet": "Felline", "addr:postcode": "73040", "addr:street": "Via Melissano", "amenity": "pharmacy", "dispensing": "yes", "name": "Farmacia Trotta", "operator": "Farmacia Trotta Francesca & C. S.a.s.", "ref:msal": "13280", "ref:vatin": "IT04159160755"}}, {"type": "node", "id": 7319369016, "lat": 39.9498453, "lon": 18.0893903, "tags": {"addr:city": "Alliste", "addr:housenumber": "3", "addr:postcode": "73040", "addr:street": "Via Nardini", "amenity": "pharmacy", "dispensing": "yes", "healthcare": "pharmacy", "name": "Farmacia Tundo", "operator": "Tundo Alfredo", "ref:msal": "13296", "ref:vatin": "IT04186320752"}}, {"type": "node", "id": 7319436294, "lat": 39.9822744, "lon": 18.347044, "tags": {"addr:city": "Andrano", "addr:hamlet": "Castiglione d'Otranto", "addr:housenumber": "75", "addr:postcode": "73030", "addr:street": "Via Italia", "amenity": "pharmacy", "dispensing": "yes", "name": "Farmacia Bitonti", "operator": "Bitonti Clementina", "ref:msal": "13332", "ref:vatin": "IT03395870755"}}, {"type": "node", "id": 7319436306, "lat": 39.9870737, "lon": 18.3822407, "tags": {"addr:city": "Andrano", "addr:postcode": "73032", "addr:street": "Via Roma", "amenity": "pharmacy", "dispensing": "yes", "healthcare": "pharmacy", "name": "Farmacia Rao", "operator": "Rao Anna Celestina", "ref:msal": "13312", "ref:vatin": "IT00170020754"}}, {"type": "node", "id": 7323104989, "lat": 40.0625072, "lon": 18.3227604, "tags": {"addr:city": "Botrugno", "addr:housenumber": "67", "addr:postcode": "73020", "addr:street": "Via Trento", "amenity": "pharmacy", "dispensing": "yes", "name": "Farmacia Ragusa", "operator": "Ragusa Antonio", "ref:msal": "13311"}}, {"type": "node", "id": 7368392565, "lat": 39.7966559, "lon": 18.3551208, "tags": {"addr:city": "Castrignano del Capo", "addr:hamlet": "Santa Maria di Leuca", "addr:housenumber": "4-6", "addr:postcode": "73040", "addr:street": "Via Enea", "amenity": "pharmacy", "dispensing": "no", "healthcare": "pharmacy", "name": "Parafarmacia Leucana", "operator": "Farmacia Nicolardi di Amoroso Wanda", "ref:msal": "011928", "ref:vatin": "IT03977850753"}}, {"type": "node", "id": 7368874662, "lat": 39.8328789, "lon": 18.3519339, "tags": {"addr:city": "Castrignano del Capo", "addr:housenumber": "21", "addr:postcode": "73040", "addr:street": "Via Milano", "amenity": "pharmacy", "dispensing": "yes", "healthcare": "pharmacy", "name": "Farmacia Pedone", "operator": "Pedone Caterina", "ref:msal": "13307", "ref:vatin": "IT00127170751"}}, {"type": "node", "id": 7369497435, "lat": 39.893232, "lon": 18.3649208, "tags": {"addr:city": "Corsano", "addr:street": "Via Regina Elena", "amenity": "pharmacy", "dispensing": "no", "healthcare": "pharmacy", "name": "Parafarmacia Fiore", "operator": "L'Altra Farmacia di Fiore Annunziata", "ref:msal": "006353", "ref:vatin": "IT04308030750"}}, {"type": "node", "id": 7369497456, "lat": 39.9024373, "lon": 18.3655127, "tags": {"addr:city": "Tiggiano", "addr:housenumber": "26", "addr:postcode": "73030", "addr:street": "Piazza Castello", "amenity": "pharmacy", "dispensing": "yes", "operator": "Farmacia Perrone delle Dott.sse Silvia e Vera Perrone S.n.c.", "ref:msal": "13352", "ref:vatin": "IT03973400751"}}, {"type": "node", "id": 7369497457, "lat": 39.9355559, "lon": 18.3553037, "tags": {"addr:city": "Tricase", "addr:housenumber": "4", "addr:postcode": "73039", "addr:street": "Via Pio X", "amenity": "pharmacy", "fixme": "position", "name": "Parapharm", "operator": "Parapharm S.r.l.", "ref:msal": "010817", "ref:vatin": "IT04637080757", "website": "https://www.specchiapharm.it/parapharm"}}, {"type": "node", "id": 7369561292, "lat": 39.9403036, "lon": 18.2987644, "tags": {"amenity": "pharmacy", "dispensing": "no", "name": "Parafarmacia del Borgo", "operator": "Farmacia Nicolardi di Amoroso Wanda", "ref:msal": "011076", "ref:vatin": "IT03977850753"}}, {"type": "node", "id": 7369561294, "lat": 39.8870879, "lon": 18.3326905, "tags": {"addr:city": "Alessano", "addr:housenumber": "52", "addr:postcode": "73031", "addr:street": "Via Scipione Sangiovanni", "amenity": "pharmacy", "dispensing": "no", "healthcare": "pharmacy", "name": "Erbofarm", "operator": "Erbofarm del Dr. Mario Corciulo", "ref:msal": "002760", "ref:vatin": "IT03790780757"}}, {"type": "node", "id": 7388795188, "lat": 39.9588042, "lon": 18.0925108, "tags": {"addr:city": "Racale", "addr:housenumber": "5", "addr:postcode": "73055", "addr:street": "Piazza Addolorata", "amenity": "pharmacy", "dispensing": "yes", "healthcare": "pharmacy", "name": "Farmacia Peschiulli Dr. Mario"}}, {"type": "node", "id": 7442563501, "lat": 39.8500467, "lon": 18.3104169, "tags": {"addr:city": "Morciano di Leuca", "addr:housenumber": "27", "addr:postcode": "73040", "addr:street": "Via Alcide De Gasperi", "amenity": "pharmacy", "dispensing": "yes", "healthcare": "pharmacy", "name": "Farmacia Schiattino"}}, {"type": "node", "id": 7442563505, "lat": 39.8459618, "lon": 18.3081529, "tags": {"addr:city": "Morciano di Leuca", "addr:housenumber": "74", "addr:postcode": "73040", "addr:street": "Via San Martino", "amenity": "pharmacy", "dispensing": "no", "healthcare": "pharmacy", "name": "Erboristeria Parafarmacia Dott.ssa Anna Rita Calabrese"}}, {"type": "node", "id": 8330371653, "lat": 39.9710167, "lon": 18.1271048, "tags": {"amenity": "pharmacy", "name": "Farmacia Caputo"}}, {"type": "node", "id": 8330594949, "lat": 39.9714252, "lon": 18.1251237, "tags": {"amenity": "pharmacy", "name": "Farmacia Comunale"}}, {"type": "node", "id": 8942233581, "lat": 39.9859003, "lon": 18.25586, "tags": {"amenity": "pharmacy", "dispensing": "yes", "name": "Farmacia Dottoressa Scarcia"}}, {"type": "node", "id": 8942621429, "lat": 39.8396789, "lon": 18.3431878, "tags": {"amenity": "pharmacy", "dispensing": "yes", "healthcare": "pharmacy", "name": "R Farmacia"}}, {"type": "node", "id": 8947249295, "lat": 40.0074374, "lon": 18.3225651, "tags": {"amenity": "pharmacy", "dispensing": "no", "name": "Parafarmacia Dottoressa Contini"}}, {"type": "node", "id": 8948074496, "lat": 39.9535706, "lon": 18.2172558, "tags": {"amenity": "pharmacy", "dispensing": "yes", "name": "Farmacia Dottor Orlando"}}, {"type": "node", "id": 8948081289, "lat": 40.0158089, "lon": 18.2410048, "tags": {"amenity": "pharmacy", "dispensing": "yes"}}, {"type": "node", "id": 8948703456, "lat": 39.8432385, "lon": 18.2098322, "tags": {"amenity": "pharmacy", "dispensing": "yes", "name": "Dispensario Farmaceutico"}}, {"type": "node", "id": 9156006186, "lat": 39.9307234, "lon": 18.1592183, "tags": {"amenity": "pharmacy", "dispensing": "no", "name": "Parafarmacia erboristeria"}}, {"type": "node", "id": 9207263096, "lat": 39.9560842, "lon": 18.2164321, "tags": {"amenity": "pharmacy", "dispensing": "yes", "name": "Farmacia Dott.ssa Palese"}}, {"type": "node", "id": 9248399178, "lat": 39.8595584, "lon": 18.2931823, "tags": {"addr:city": "Salve", "addr:housenumber": "5", "addr:postcode": "73050", "addr:street": "Via PP. Cardone", "amenity": "pharmacy", "dispensing": "yes", "healthcare": "pharmacy", "name": "Farmacia Villani", "phone": "+390833741007"}}, {"type": "node", "id": 9566468716, "lat": 39.983504, "lon": 18.2479061, "tags": {"amenity": "pharmacy", "dispensing": "yes", "name": "Farmacia Comunale", "opening_hours": "Mo-Fr 08:10-13:00,16:00-20:00; Sa 08:30-12:30; Su,PH off"}}, {"type": "node", "id": 9725404418, "lat": 39.8634244, "lon": 18.3269132, "tags": {"amenity": "pharmacy", "name": "Farmacia San Lorenzo", "name:it": "Farmacia San Lorenzo"}}, {"type": "node", "id": 9765354897, "lat": 39.9280563, "lon": 18.1605341, "tags": {"amenity": "pharmacy", "dispensing": "yes", "healthcare": "pharmacy", "level": "0", "name": "Farmacia Salus", "operator": "Dottori De Notariis M. e Teseo A. Snc", "wheelchair": "yes"}}, {"type": "node", "id": 11387607182, "lat": 39.8334863, "lon": 18.349861, "tags": {"amenity": "pharmacy", "healthcare": "pharmacy"}}, {"type": "node", "id": 11391434638, "lat": 39.9506151, "lon": 18.0326201, "tags": {"amenity": "pharmacy", "healthcare": "pharmacy"}}, {"type": "way", "id": 203931216, "nodes": [2139335623, 2139335584, 2139335592, 2139335632, 2363226916, 2139335623], "tags": {"amenity": "pharmacy", "dispensing": "yes", "healthcare": "pharmacy", "name": "Farmacia Cooperativa"}}, {"type": "way", "id": 203931218, "nodes": [2139335698, 2139335683, 2139335679, 2139335695, 2139335698], "tags": {"amenity": "pharmacy", "dispensing": "yes", "name": "Farmacia Dottor Congedi"}}, {"type": "way", "id": 203931220, "nodes": [2139335566, 7107673566, 2139335543, 4053690685, 7107673570, 2139335557, 4053691200, 4053691305, 7107673568, 2139335569, 2139335566], "tags": {"amenity": "pharmacy", "dispensing": "yes", "level": "0", "name": "Farmacia Tundo", "operator": "Dottoressa Bove Sondra"}}, {"type": "way", "id": 203931225, "nodes": [2139335656, 2139335662, 2139335659, 2139335651, 2139335656], "tags": {"amenity": "pharmacy", "dispensing": "yes", "name": "farmacia D.ssa Petracca"}}, {"type": "way", "id": 203931230, "nodes": [2139335671, 2139335664, 2139335669, 2139335676, 2139335671], "tags": {"amenity": "pharmacy", "dispensing": "yes", "name": "farmacia Dottor Casciaro"}}, {"type": "way", "id": 203931233, "nodes": [2139335706, 2139335692, 2139335689, 2139335701, 2139335706], "tags": {"amenity": "pharmacy", "dispensing": "no", "name": "para-farmacia D.ssa Raone"}}, {"type": "way", "id": 396587091, "nodes": [3856258783, 3856258793, 3856258798, 3856258802, 3856258890, 3856258900, 3856258792, 3856258795, 3856258771, 3994001657, 3856258123, 3856258130, 3856258127, 3856258118, 3856258109, 3856258111, 3856258121, 3856258117, 3856258088, 3856258072, 3856258068, 3856258080, 3856258100, 3856258783], "tags": {"addr:city": "Miggiano", "addr:housenumber": "97", "addr:postcode": "73035", "addr:street": "Via Provinciale", "amenity": "pharmacy", "building": "yes", "dispensing": "yes", "email": "farmaciarao1832@libero.it", "name": "Farmacia Rao 1832", "operator": "Farmacia Rao 1832 della Dott.ssa Bitonti Roberta", "phone": "+39 0833 761061", "ref:msal": "13313", "ref:vatin": "IT04307580755", "website": "https://www.farmaciarao1832.com/"}}, {"type": "way", "id": 431385117, "nodes": [3834239537, 3834239463, 3834239326, 3834239467, 3834239335, 3834239477, 3834239537], "tags": {"amenity": "pharmacy", "building": "yes", "dispensing": "yes", "name": "Dispensario Farmaceutico Schiattino", "phone": "+39 0833 712021"}}, {"type": "way", "id": 699496603, "nodes": [3857554864, 3857554849, 3857554848, 3857554826, 3857554817, 3857554859, 3857554864], "tags": {"amenity": "pharmacy", "building": "yes", "dispensing": "no", "healthcare": "pharmacy", "name": "Dispensario Dott. A. Giammito"}}]}