{"version": 0.6, "generator": "Overpass API 0.7.62.8 e802775f", "osm3s": {"timestamp_osm_base": "2025-10-06T08:12:00Z", "copyright": "The data included in this document is from www.openstreetmap.org. The data is made available under ODbL."}, "elements": [{"type": "node", "id": 1658159055, "lat": 47.7957514, "lon": 20.0009373, "tags": {"amenity": "pharmacy", "healthcare": "pharmacy", "name": "Abas\u00e1r Gy\u00f3gyszert\u00e1r"}}, {"type": "node", "id": 1702577714, "lat": 47.7838942, "lon": 19.9242278, "tags": {"amenity": "pharmacy", "brand": "Kulcs Patik\u00e1k", "check_date": "2025-05-05", "dispensing": "yes", "drive_through": "no", "healthcare": "pharmacy", "name": "Gy\u00f6ngy\u00f6si K\u00edgy\u00f3 Gy\u00f4gyszert\u00e1r", "opening_hours": "Mo-Fr 07:30-18:00; Sa 07:30-13:00; Su off", "payment:cash": "yes", "payment:credit_cards": "yes", "payment:debit_cards": "yes", "wheelchair": "yes", "wikimedia_commons": "Kulcs Patik\u00e1k"}}, {"type": "node", "id": 2062224930, "lat": 47.7822774, "lon": 19.9309893, "tags": {"amenity": "pharmacy", "check_date": "2025-01-22", "healthcare": "pharmacy", "name": "\u00c1llom\u00e1s Gy\u00f3gyszert\u00e1r", "opening_hours": "Mo-Fr 07:00-18:00; Sa 08:00-12:00; Su off", "payment:cash": "yes", "payment:credit_cards": "yes", "payment:debit_cards": "yes", "wheelchair": "yes"}}, {"type": "node", "id": 2462108138, "lat": 47.8307509, "lon": 19.9675629, "tags": {"addr:city": "Gy\u00f6ngy\u00f6s", "addr:housenumber": "6", "addr:postcode": "3232", "addr:street": "B\u00e9ke utca", "addr:suburb": "M\u00e1traf\u00fcred", "amenity": "pharmacy", "dispensing": "yes", "healthcare": "pharmacy", "name": "Bene Gy\u00f3gyszert\u00e1r"}}, {"type": "node", "id": 3405282972, "lat": 47.6938165, "lon": 19.9745962, "tags": {"amenity": "pharmacy", "healthcare": "pharmacy", "name": "Szent Jakab Gy\u00f3gyszert\u00e1r"}}, {"type": "node", "id": 3445507001, "lat": 47.81878, "lon": 19.93431, "tags": {"amenity": "pharmacy", "healthcare": "pharmacy", "name": "S\u00f3lyom patika", "source": "turistautak.hu", "source:date": "2013-08-07", "url": "http://turistautak.hu/poi.php?id=157474"}}, {"type": "node", "id": 3445507042, "lat": 47.7157508, "lon": 19.8941185, "tags": {"amenity": "pharmacy", "healthcare": "pharmacy", "source": "turistautak.hu", "source:date": "2013-07-30", "url": "http://turistautak.hu/poi.php?id=157121"}}, {"type": "node", "id": 3459966328, "lat": 47.932029, "lon": 20.19818, "tags": {"amenity": "pharmacy", "healthcare": "pharmacy", "name": "Zs\u00e1lya patika", "source": "turistautak.hu", "source:date": "2011-07-04", "url": "http://turistautak.hu/poi.php?id=58324"}}, {"type": "node", "id": 3459967170, "lat": 47.9310509, "lon": 20.1040056, "tags": {"addr:city": "Recsk", "addr:housenumber": "2", "addr:postcode": "3245", "addr:street": "V\u00e1rb\u00fckki utca", "amenity": "pharmacy", "healthcare": "pharmacy", "name": "Fontana gy\u00f3gyszert\u00e1r", "opening_hours": "Mo-Th 07:50-16:30; Fr 07:50-13:50", "phone": "+36 36 478 010", "source": "turistautak.hu", "source:date": "2012-09-24", "url": "http://turistautak.hu/poi.php?id=127591"}}, {"type": "node", "id": 3468116067, "lat": 47.77115, "lon": 19.92381, "tags": {"amenity": "pharmacy", "healthcare": "pharmacy", "name": "Mixtura Gy\u00f3gyszert\u00e1r", "source": "turistautak.hu", "source:date": "2013-10-25", "url": "http://turistautak.hu/poi.php?id=161015"}}, {"type": "node", "id": 3479961275, "lat": 47.78895, "lon": 19.74265, "tags": {"addr:city": "R\u00f3zsaszentm\u00e1rton", "addr:housenumber": "5", "addr:postcode": "3033", "addr:street": "Kossuth Lajos utca", "amenity": "pharmacy", "healthcare": "pharmacy", "name": "Rubra Gy\u00f3gyszert\u00e1r", "source": "website", "source:date": "2013-06-22", "url": "http://turistautak.hu/poi.php?id=13911"}}, {"type": "node", "id": 3679371505, "lat": 47.871207, "lon": 20.3250167}, {"type": "node", "id": 3679371508, "lat": 47.871228, "lon": 20.3252151}, {"type": "node", "id": 3679371517, "lat": 47.8712761, "lon": 20.3250004}, {"type": "node", "id": 3679371519, "lat": 47.8712824, "lon": 20.3250595}, {"type": "node", "id": 3679371520, "lat": 47.8712841, "lon": 20.324842}, {"type": "node", "id": 3679371524, "lat": 47.8713065, "lon": 20.3250538}, {"type": "node", "id": 3679435528, "lat": 47.8713412, "lon": 20.3248286}, {"type": "node", "id": 3679435533, "lat": 47.8713784, "lon": 20.3251797}, {"type": "node", "id": 4787886628, "lat": 47.7854137, "lon": 19.923982, "tags": {"amenity": "pharmacy", "check_date": "2025-05-05", "healthcare": "pharmacy", "name": "Richter Gy\u00f3gyszert\u00e1r", "opening_hours": "Mo-Fr 08:00-17:00; Sa 07:30-12:00; Su off", "payment:cash": "yes", "payment:credit_cards": "yes", "payment:debit_cards": "yes", "wheelchair": "yes"}}, {"type": "node", "id": 4787887022, "lat": 47.7844356, "lon": 19.9267096, "tags": {"amenity": "pharmacy", "check_date": "2025-05-30", "healthcare": "pharmacy", "name": "Szimpatika Gy\u00f3gyszert\u00e1r", "opening_hours": "Mo-Fr 07:30-18:00; Sa 07:30-12:00; Su off", "payment:cash": "yes", "payment:credit_cards": "yes", "payment:debit_cards": "yes", "wheelchair": "no"}}, {"type": "node", "id": 5630114797, "lat": 47.9488384, "lon": 20.07897}, {"type": "node", "id": 5630114798, "lat": 47.9487602, "lon": 20.0792127}, {"type": "node", "id": 5630114799, "lat": 47.9488302, "lon": 20.0792629}, {"type": "node", "id": 5630114800, "lat": 47.9489083, "lon": 20.0790202}, {"type": "node", "id": 5961569478, "lat": 47.9200117, "lon": 19.6978822}, {"type": "node", "id": 5961569479, "lat": 47.9198858, "lon": 19.6981865}, {"type": "node", "id": 5961569480, "lat": 47.9197397, "lon": 19.6980588}, {"type": "node", "id": 5961569481, "lat": 47.9198707, "lon": 19.6977545}, {"type": "node", "id": 5961569483, "lat": 47.9197598, "lon": 19.698012}, {"type": "node", "id": 6794012457, "lat": 47.9487758, "lon": 20.0791644, "tags": {"entrance": "main"}}, {"type": "node", "id": 6905475602, "lat": 47.9852814, "lon": 20.0209951, "tags": {"addr:city": "M\u00e1traballa", "addr:housenumber": "5", "addr:postcode": "3247", "addr:street": "Iskola utca", "amenity": "pharmacy", "healthcare": "pharmacy", "name": "Fontana Fi\u00f3kgy\u00f3gyszert\u00e1r", "opening_hours": "Mo-Fr 10:00-12:00; Tu,Th off"}}, {"type": "node", "id": 7212396478, "lat": 47.7817328, "lon": 19.9185979, "tags": {"amenity": "pharmacy", "dispensing": "yes", "healthcare": "pharmacy", "name": "Panacea Gy\u00f3gyszert\u00e1r"}}, {"type": "node", "id": 7670799205, "lat": 47.7348584, "lon": 19.7678761, "tags": {"addr:city": "Ecs\u00e9d", "addr:housenumber": "123", "addr:postcode": "3013", "addr:street": "Ak\u00e1cfa utca", "amenity": "pharmacy", "brand": "Alma Gy\u00f3gyszert\u00e1r", "brand:wikidata": "Q105626221", "dispensing": "yes", "healthcare": "pharmacy", "name": "Alma Gy\u00f3gyszert\u00e1r", "note": "Rubra Patika", "opening_hours": "Mo-Fr 08:00-16:00"}}, {"type": "node", "id": 7670799206, "lat": 47.8058923, "lon": 19.7592517, "tags": {"addr:city": "Sz\u0171csi", "addr:housenumber": "2", "addr:postcode": "3034", "addr:street": "Szabads\u00e1g \u00fat", "amenity": "pharmacy", "dispensing": "yes", "drive_through": "no", "healthcare": "pharmacy", "name": "Rubra Gy\u00f3gyszert\u00e1r", "opening_hours": "Mo 14:00-16:00; Tu 09:00-11:00; We 14:00-16:00; Th 09:00-11:00; Fr 14:00-16:00", "phone": "+36 37 526 021"}}, {"type": "node", "id": 7799496759, "lat": 47.7965458, "lon": 20.3449664, "tags": {"amenity": "pharmacy", "contact:phone": "+36 36 450 092", "name": "Balzsam gy\u00f3gyszert\u00e1r", "opening_hours": "Mo,We,Th 08:00-11:00; Tu 14:00-16:00; Fr 08:30-11:00"}}, {"type": "node", "id": 10180340092, "lat": 48.0052515, "lon": 19.9067666, "tags": {"amenity": "pharmacy", "healthcare": "pharmacy", "name": "Fi\u00f3kgy\u00f3gyszert\u00e1r Nemti", "opening_hours": "We 17:15-19:00"}}, {"type": "node", "id": 10231920348, "lat": 47.9189748, "lon": 19.6928894}, {"type": "node", "id": 10231920349, "lat": 47.9191291, "lon": 19.6929041}, {"type": "node", "id": 10231920350, "lat": 47.9191311, "lon": 19.6928566}, {"type": "node", "id": 10231920351, "lat": 47.9191894, "lon": 19.6928621}, {"type": "node", "id": 10231920352, "lat": 47.9191927, "lon": 19.6927843}, {"type": "node", "id": 10231920353, "lat": 47.9189802, "lon": 19.6927641}, {"type": "node", "id": 10680942572, "lat": 47.7848742, "lon": 19.9307286, "tags": {"addr:city": "Gy\u00f6ngy\u00f6s", "addr:housenumber": "36", "addr:postcode": "3200", "addr:street": "Kossuth Lajos utca", "amenity": "pharmacy", "brand": "Benu", "brand:wikidata": "Q62562792", "check_date": "2025-04-24", "contact:phone": "+36 37 300 707", "healthcare": "pharmacy", "name": "Benu", "opening_hours": "Mo-Fr 08:00-18:00; Sa 08:00-12:00; Su off", "payment:cash": "yes", "payment:credit_cards": "yes", "payment:debit_cards": "yes", "wheelchair": "yes"}}, {"type": "node", "id": 10839143239, "lat": 47.9221859, "lon": 20.0280896, "tags": {"amenity": "pharmacy", "healthcare": "pharmacy", "name": "Plat\u00e1n Gy\u00f3gyszert\u00e1r", "opening_hours": "Mo-Th 07:30-16:00; Fr 07:00-13:00"}}, {"type": "node", "id": 11157765770, "lat": 47.7474434, "lon": 20.0998507, "tags": {"addr:city": "Detk", "addr:housenumber": "1", "addr:postcode": "3275", "addr:street": "Sz\u00e9chenyi Istv\u00e1n utca", "amenity": "pharmacy", "name": "Szent Gy\u00f6rgy Gy\u00f3gyszert\u00e1r", "phone": "+36-37-375-189"}}, {"type": "node", "id": 11489017610, "lat": 47.9499422, "lon": 19.7412472, "tags": {"addr:city": "Tar", "addr:housenumber": "94", "addr:postcode": "3073", "addr:street": "Szondy Gy\u00f6rgy utca", "amenity": "pharmacy", "name": "Gy\u00f3gy\u00edr Gy\u00f3gyszert\u00e1r Fi\u00f3kgy\u00f3gyszert\u00e1r", "opening_hours": "Mo-Fr 12:15-13:45", "wheelchair": "no"}}, {"type": "node", "id": 11655877483, "lat": 47.8113023, "lon": 19.8665822, "tags": {"amenity": "pharmacy", "healthcare": "pharmacy", "name": "Gy\u00f3gyszert\u00e1r"}}, {"type": "node", "id": 12587643338, "lat": 47.7879594, "lon": 19.9308564, "tags": {"amenity": "pharmacy", "brand": "Gy\u00f6ngy Patika", "check_date": "2025-02-14", "contact:phone": "+36 37 310 182", "dispensing": "yes", "drive_through": "no", "healthcare": "pharmacy", "name": "Bug\u00e1t P\u00e1l Gy\u00f3gyszert\u00e1r", "opening_hours": "Mo,Th 08:00-17:00; Tu-We 08:00-16:00; Fr 08:00-15:00", "payment:cash": "yes", "payment:credit_cards": "yes", "payment:debit_cards": "yes", "wheelchair": "yes"}}, {"type": "node", "id": 12828485978, "lat": 47.7690618, "lon": 19.912607, "tags": {"amenity": "pharmacy", "check_date": "2025-05-11", "healthcare": "pharmacy", "name": "PatikaPlus Gy\u00f3gyszert\u00e1r", "opening_hours": "Mo-Sa 08:00-20:00; Su 08:00-19:00", "payment:cash": "yes", "payment:credit_cards": "yes", "payment:debit_cards": "yes", "wheelchair": "yes"}}, {"type": "node", "id": 12857676932, "lat": 47.7826364, "lon": 19.9275403, "tags": {"amenity": "pharmacy", "brand": "Benu", "building:levels": "0", "check_date": "2025-05-23", "dispensing": "yes", "drive_through": "no", "healthcare": "pharmacy", "name": "Benu", "opening_hours": "Mo-Fr 08:00-18:00; Sa 08:00-13:00; Su off", "payment:cash": "yes", "payment:credit_cards": "yes", "payment:debit_cards": "yes", "wheelchair": "yes"}}, {"type": "way", "id": 363814562, "nodes": [3679435533, 3679371508, 3679371505, 3679371517, 3679371519, 3679371524, 3679371520, 3679435528, 3679435533], "tags": {"addr:city": "Egerszal\u00f3k", "addr:housenumber": "18", "addr:postcode": "3394", "addr:street": "Kossuth Lajos utca", "amenity": "pharmacy", "building": "yes", "healthcare": "pharmacy", "name": "Sz\u00e9kf\u0171 Patika Fi\u00f3kgy\u00f3gyszert\u00e1r", "name:hu": "Sz\u00e9kf\u0171 Patika Fi\u00f3kgy\u00f3gyszert\u00e1r", "opening_hours": "Mo,We-Fr 07:30-15:00; Tu 07:30-16:00", "source": "Bing"}}, {"type": "way", "id": 589595668, "nodes": [5630114800, 5630114799, 5630114798, 6794012457, 5630114797, 5630114800], "tags": {"addr:city": "M\u00e1traderecske", "addr:housenumber": "14", "addr:postcode": "3246", "addr:street": "Baross G\u00e1bor utca", "amenity": "pharmacy", "building": "yes", "dispensing": "yes", "healthcare": "pharmacy", "name": "Fontana Fi\u00f3kgy\u00f3gyszert\u00e1r", "opening_hours": "Mo 09:00-11:30; We 13:00-16:00; Fr 08:30-11:00", "phone": "+36 36 476 061"}}, {"type": "way", "id": 631296559, "nodes": [5961569478, 5961569479, 5961569480, 5961569483, 5961569481, 5961569478], "tags": {"addr:city": "P\u00e1szt\u00f3", "addr:housenumber": "56", "addr:postcode": "3060", "addr:street": "F\u0151 utca", "amenity": "pharmacy", "brand": "Kulcs Patik\u00e1k", "building": "retail", "check_date": "2024-12-24", "contact:email": "korona.paszto@gmail.com", "contact:phone": "+36 32 460 842", "dispensing": "yes", "drive_through": "no", "healthcare": "pharmacy", "internet_access": "no", "name": "Korona Gy\u00f3gyszert\u00e1r", "opening_hours": "Mo-Fr 07:30-18:00; Sa 07:30-12:00", "operator": "Korona Gy\u00f3gyszerkereskedelmi \u00e9s Szolg\u00e1ltat\u00f3 Kft", "payment:cash": "yes", "payment:maestro": "yes", "payment:mastercard": "yes", "payment:visa": "yes", "source": "survey", "wheelchair": "no"}}, {"type": "way", "id": 1118763084, "nodes": [10231920350, 10231920349, 10231920348, 10231920353, 10231920352, 10231920351, 10231920350], "tags": {"addr:city": "P\u00e1szt\u00f3", "addr:housenumber": "9", "addr:postcode": "3060", "addr:street": "Semmelweis utca", "amenity": "pharmacy", "building": "retail", "healthcare": "pharmacy", "name": "Gy\u00f3gy\u00edr patika", "opening_hours": "Mo-Fr 07:30-18:00; Sa 07:30-12:00; Su off", "source": "turistautak.hu", "source:date": "2011-08-21", "url": "http://turistautak.hu/poi.php?id=100688", "website": "https://gyogyir-patika3.uzleti.hu/"}}]}