{"version": 0.6, "generator": "Overpass API 0.7.62.8 e802775f", "osm3s": {"timestamp_osm_base": "2025-10-06T08:35:15Z", "copyright": "The data included in this document is from www.openstreetmap.org. The data is made available under ODbL."}, "elements": [{"type": "node", "id": 481917708, "lat": 51.2368264, "lon": 21.9996593, "tags": {"addr:city": "Karczmiska Drugie", "addr:housenumber": "28", "addr:street": "Starowiejska", "amenity": "pharmacy", "dispensing": "yes", "healthcare": "pharmacy", "note": "Wg Rejestru aptek MZ apteka w Karczmiskach Drugich ma adres Karczmiska Drugie 300", "ref:csioz": "1162130", "source": "http://www.aptekaslonik.pl/"}}, {"type": "node", "id": 1795300063, "lat": 51.0912578, "lon": 21.9252026, "tags": {"amenity": "pharmacy", "dispensing": "yes", "healthcare": "pharmacy", "name": "Punkt Apteczny", "ref:csioz": "1106334"}}, {"type": "node", "id": 1953666427, "lat": 50.9039553, "lon": 22.2713628, "tags": {"amenity": "pharmacy", "dispensing": "yes", "healthcare": "pharmacy", "ref:csioz": "1162381"}}, {"type": "node", "id": 2152322025, "lat": 51.1510374, "lon": 21.9708173, "tags": {"addr:city": "Opole Lubelskie", "addr:housenumber": "2", "addr:postcode": "24-300", "addr:street": "Pu\u0142awska", "amenity": "pharmacy", "dispensing": "yes", "healthcare": "pharmacy", "opening_hours": "Mo-Fr 07:30-20:00; Sa 08:00-15:00", "ref:csioz": "1163123", "source:addr": "EMUi@iMPA (opolelubelskie.e-mapa.net)"}}, {"type": "node", "id": 2152322074, "lat": 51.1481638, "lon": 21.9699523, "tags": {"addr:city": "Opole Lubelskie", "addr:housenumber": "1", "addr:postcode": "24-300", "addr:street": "J\u00f3zefa Pi\u0142sudskiego", "amenity": "pharmacy", "dispensing": "yes", "healthcare": "pharmacy", "opening_hours": "Mo-Fr 08:00-19:00; Sa 08:00-15:00", "ref:csioz": "1161931", "source:addr": "EMUi@iMPA (opolelubelskie.e-mapa.net)"}}, {"type": "node", "id": 2152322091, "lat": 51.1457685, "lon": 21.9772898, "tags": {"addr:city": "Opole Lubelskie", "addr:housenumber": "1", "addr:postcode": "24-300", "addr:street": "Przemys\u0142owa", "amenity": "pharmacy", "brand": "Dr. Max", "brand:wikidata": "Q56317371", "dispensing": "yes", "healthcare": "pharmacy", "name": "Dr. Max", "opening_hours": "Mo-Sa 08:00-21:00; Su 09:00-17:00", "ref:csioz": "1163226", "source:addr": "EMUi@iMPA (opolelubelskie.e-mapa.net)"}}, {"type": "node", "id": 2152323075, "lat": 51.1473619, "lon": 21.9723751, "tags": {"addr:city": "Opole Lubelskie", "addr:housenumber": "13", "addr:postcode": "24-300", "addr:street": "Fabryczna", "amenity": "pharmacy", "dispensing": "yes", "healthcare": "pharmacy", "opening_hours": "Mo-Su 07:30-22:00", "ref:csioz": "1157982", "source:addr": "EMUi@iMPA (opolelubelskie.e-mapa.net)"}}, {"type": "node", "id": 2291608338, "lat": 50.9210471, "lon": 22.2181825, "tags": {"addr:city": "Kra\u015bnik", "addr:housenumber": "7", "addr:postcode": "23-200", "addr:street": "Tadeusza Ko\u015bciuszki", "amenity": "pharmacy", "dispensing": "yes", "healthcare": "pharmacy", "name": "Ca\u0142otygodniowa Apteka Familijna", "ref:csioz": "1110383", "source:addr": "EMUiA (emuia.gugik.gov.pl)"}}, {"type": "node", "id": 2291777902, "lat": 50.9318826, "lon": 22.2223117, "tags": {"addr:city": "Kra\u015bnik", "addr:housenumber": "44f", "addr:postcode": "23-200", "addr:street": "Urz\u0119dowska", "amenity": "pharmacy", "dispensing": "yes", "healthcare": "pharmacy", "name": "Natura", "ref:csioz": "1162241"}}, {"type": "node", "id": 2477901391, "lat": 50.9939332, "lon": 22.1439878, "tags": {"amenity": "pharmacy", "dispensing": "yes", "name": "Apteka Rodzinna", "ref:csioz": "1196495"}}, {"type": "node", "id": 3152744770, "lat": 50.9639153, "lon": 22.1686533, "tags": {"amenity": "pharmacy", "dispensing": "yes", "name": "Dr. Optima Hurtowe Czwartki", "ref:csioz": "1110414"}}, {"type": "node", "id": 3415677076, "lat": 50.8875343, "lon": 21.6647724, "tags": {"addr:city": "O\u017car\u00f3w", "addr:city:simc": "0980777", "addr:housenumber": "35", "addr:postcode": "27-530", "addr:street": "Wysoka", "amenity": "pharmacy", "dispensing": "yes", "healthcare": "pharmacy", "name": "S\u0142oneczna", "ref:csioz": "1003537"}}, {"type": "node", "id": 3536522635, "lat": 50.9217965, "lon": 22.221662, "tags": {"amenity": "pharmacy", "dispensing": "yes", "healthcare": "pharmacy", "name": "Apteka W Rynku", "ref:csioz": "1158706"}}, {"type": "node", "id": 3539017413, "lat": 50.9218782, "lon": 22.22489, "tags": {"amenity": "pharmacy", "dispensing": "yes", "healthcare": "pharmacy", "name": "Apteka Rodzinna", "ref:csioz": "1161693"}}, {"type": "node", "id": 3541164156, "lat": 50.9272685, "lon": 22.2256704, "tags": {"amenity": "pharmacy", "dispensing": "yes", "healthcare": "pharmacy", "name": "NOVA", "ref:csioz": "1157883"}}, {"type": "node", "id": 4007921955, "lat": 50.9240753, "lon": 22.2286926, "tags": {"amenity": "pharmacy", "dispensing": "yes", "healthcare": "pharmacy", "name": "Apteka S\u0142oneczna", "opening_hours": "Mo-Sa 08:00-21:00", "ref:csioz": "1194093"}}, {"type": "node", "id": 4015109591, "lat": 50.929453, "lon": 22.2225816, "tags": {"amenity": "pharmacy", "dispensing": "yes", "healthcare": "pharmacy", "name": "DOZ", "ref:csioz": "1163315"}}, {"type": "node", "id": 4159185949, "lat": 50.9592146, "lon": 22.1664384, "tags": {"addr:city": "Kra\u015bnik", "addr:housenumber": "12", "addr:postcode": "23-210", "addr:street": "Miedziana", "amenity": "pharmacy", "dispensing": "yes", "healthcare": "pharmacy", "ref:csioz": "1161607", "source:addr": "EMUiA (emuia.gugik.gov.pl)"}}, {"type": "node", "id": 4160052749, "lat": 50.9629597, "lon": 22.16138, "tags": {"amenity": "pharmacy", "dispensing": "yes", "healthcare": "pharmacy", "name": "Apteka CURATE", "ref:csioz": "1157429"}}, {"type": "node", "id": 4268866762, "lat": 50.8859292, "lon": 21.8545758}, {"type": "node", "id": 4268866766, "lat": 50.8859375, "lon": 21.8545682}, {"type": "node", "id": 4268866768, "lat": 50.885939, "lon": 21.8545717}, {"type": "node", "id": 4268866769, "lat": 50.8859447, "lon": 21.8545613}, {"type": "node", "id": 4268866772, "lat": 50.885946, "lon": 21.8545651}, {"type": "node", "id": 4268866773, "lat": 50.885947, "lon": 21.8546935}, {"type": "node", "id": 4268866781, "lat": 50.8859623, "lon": 21.8546631}, {"type": "node", "id": 4268866783, "lat": 50.8859646, "lon": 21.854661}, {"type": "node", "id": 4268866786, "lat": 50.8859689, "lon": 21.8546725}, {"type": "node", "id": 4268866788, "lat": 50.8859722, "lon": 21.8545353}, {"type": "node", "id": 4268866789, "lat": 50.8859736, "lon": 21.8545389}, {"type": "node", "id": 4268866792, "lat": 50.8859833, "lon": 21.8547897}, {"type": "node", "id": 4268866800, "lat": 50.8859989, "lon": 21.8545095}, {"type": "node", "id": 4268866802, "lat": 50.8860003, "lon": 21.8545133}, {"type": "node", "id": 4268866811, "lat": 50.8860179, "lon": 21.8547405}, {"type": "node", "id": 4268866813, "lat": 50.8860224, "lon": 21.8547527}, {"type": "node", "id": 4268866816, "lat": 50.8860264, "lon": 21.8544834}, {"type": "node", "id": 4268866817, "lat": 50.8860277, "lon": 21.8544869}, {"type": "node", "id": 4268866820, "lat": 50.8860335, "lon": 21.8544765}, {"type": "node", "id": 4268866821, "lat": 50.8860349, "lon": 21.8544802}, {"type": "node", "id": 4268866824, "lat": 50.8860422, "lon": 21.8544682}, {"type": "node", "id": 4268866840, "lat": 50.886071, "lon": 21.8545593}, {"type": "node", "id": 4268866842, "lat": 50.8860752, "lon": 21.8545553}, {"type": "node", "id": 4268866843, "lat": 50.8860752, "lon": 21.8545706}, {"type": "node", "id": 4268866852, "lat": 50.8860921, "lon": 21.8546703}, {"type": "node", "id": 4268866853, "lat": 50.8860947, "lon": 21.8545521}, {"type": "node", "id": 4268866857, "lat": 50.8860959, "lon": 21.8546804}, {"type": "node", "id": 4268866868, "lat": 50.8861307, "lon": 21.8546473}, {"type": "node", "id": 4292417401, "lat": 50.9946713, "lon": 22.1430333, "tags": {"amenity": "pharmacy", "dispensing": "yes", "healthcare": "pharmacy", "name": "Apteka Henryk D\u0105browski", "opening_hours": "Mo-Fr 08:00-18:00; Sa 08:00-22:00", "operator": "Pawe\u0142 D\u0105browski", "phone": "+48818225018", "ref:csioz": "1162084"}}, {"type": "node", "id": 4340986394, "lat": 50.9632853, "lon": 22.1769007, "tags": {"amenity": "pharmacy", "dispensing": "yes", "healthcare": "pharmacy", "name": "Ca\u0142otygodniowa Apteka Familijna", "ref:csioz": "1195707"}}, {"type": "node", "id": 4393463895, "lat": 50.8861842, "lon": 21.6642716}, {"type": "node", "id": 4393463910, "lat": 50.8862085, "lon": 21.6641363}, {"type": "node", "id": 4393463911, "lat": 50.8862299, "lon": 21.6642944}, {"type": "node", "id": 4393463912, "lat": 50.8862185, "lon": 21.6643557}, {"type": "node", "id": 4393463998, "lat": 50.8863669, "lon": 21.6644252}, {"type": "node", "id": 4393464040, "lat": 50.8864031, "lon": 21.6642273}, {"type": "node", "id": 4393465997, "lat": 50.8872291, "lon": 21.6627003}, {"type": "node", "id": 4393466012, "lat": 50.8873113, "lon": 21.6626715}, {"type": "node", "id": 4406952390, "lat": 50.9580206, "lon": 21.7009134}, {"type": "node", "id": 4406952403, "lat": 50.9580479, "lon": 21.7007677}, {"type": "node", "id": 4406952404, "lat": 50.9580587, "lon": 21.7009995}, {"type": "node", "id": 4406952422, "lat": 50.9580704, "lon": 21.7009368}, {"type": "node", "id": 4406952433, "lat": 50.9581206, "lon": 21.7009604}, {"type": "node", "id": 4406952434, "lat": 50.9581086, "lon": 21.7010226}, {"type": "node", "id": 4406952470, "lat": 50.9581935, "lon": 21.7009945}, {"type": "node", "id": 4406952486, "lat": 50.9582208, "lon": 21.7008488}, {"type": "node", "id": 4407101771, "lat": 50.9947271, "lon": 21.715682}, {"type": "node", "id": 4407101772, "lat": 50.9947324, "lon": 21.7158844}, {"type": "node", "id": 4407101780, "lat": 50.9948929, "lon": 21.7156399}, {"type": "node", "id": 4407101781, "lat": 50.9948923, "lon": 21.7156253}, {"type": "node", "id": 4407101782, "lat": 50.9948762, "lon": 21.7156266}, {"type": "node", "id": 4407101783, "lat": 50.9948773, "lon": 21.7156722}, {"type": "node", "id": 4407101784, "lat": 50.9949299, "lon": 21.7158716}, {"type": "node", "id": 4407101785, "lat": 50.9949294, "lon": 21.7158482}, {"type": "node", "id": 4407101788, "lat": 50.9949749, "lon": 21.7156447}, {"type": "node", "id": 4407106189, "lat": 50.9949745, "lon": 21.7156345}, {"type": "node", "id": 4407106190, "lat": 50.9949715, "lon": 21.7158453}, {"type": "node", "id": 4407106191, "lat": 50.9949718, "lon": 21.7158558}, {"type": "node", "id": 4407106202, "lat": 50.9950304, "lon": 21.715641}, {"type": "node", "id": 4407106203, "lat": 50.9950359, "lon": 21.7158515}, {"type": "node", "id": 4407108379, "lat": 51.0028307, "lon": 21.7131651}, {"type": "node", "id": 4407108504, "lat": 51.0028778, "lon": 21.7132952}, {"type": "node", "id": 4407108517, "lat": 51.0029124, "lon": 21.7130852}, {"type": "node", "id": 4407108538, "lat": 51.0029621, "lon": 21.7132126}, {"type": "node", "id": 4729073314, "lat": 51.1476624, "lon": 21.9678728, "tags": {"addr:city": "Opole Lubelskie", "addr:housenumber": "2", "addr:postcode": "24-300", "addr:street": "Stra\u017cacka", "amenity": "pharmacy", "brand": "Dbam o Zdrowie", "brand:wikidata": "Q62563833", "dispensing": "yes", "healthcare": "pharmacy", "name": "Dbam o Zdrowie", "opening_hours": "Mo-Th 07:30-19:00; Fr 07:30-20:15; Sa 08:00-15:00", "ref:csioz": "1192468", "short_name": "DOZ", "source:addr": "EMUi@iMPA (opolelubelskie.e-mapa.net)"}}, {"type": "node", "id": 4971210161, "lat": 50.9282511, "lon": 22.2298513, "tags": {"amenity": "pharmacy", "dispensing": "yes", "healthcare": "pharmacy", "name": "Eskulap", "ref:csioz": "1158466"}}, {"type": "node", "id": 5031112785, "lat": 50.9606879, "lon": 22.1653423, "tags": {"amenity": "pharmacy", "dispensing": "yes", "healthcare": "pharmacy", "name": "EKO Apteka", "ref:csioz": "1172312"}}, {"type": "node", "id": 5290318213, "lat": 50.8070963, "lon": 21.8523818, "tags": {"addr:city": "Zawichost", "addr:housenumber": "5", "addr:street": "Rynek Du\u017cy", "amenity": "pharmacy", "dispensing": "yes", "healthcare": "pharmacy", "name": "S\u0142oneczna", "ref:csioz": "1182267"}}, {"type": "node", "id": 5290318216, "lat": 50.8071736, "lon": 21.8561083, "tags": {"addr:city": "Zawichost", "addr:housenumber": "16", "addr:street": "Stefana \u017beromskiego", "amenity": "pharmacy", "dispensing": "yes", "healthcare": "pharmacy", "name": "Nova", "ref:csioz": "1213073"}}, {"type": "node", "id": 5648155525, "lat": 50.9630734, "lon": 22.1716909, "tags": {"amenity": "pharmacy", "dispensing": "yes", "healthcare": "pharmacy", "name": "Apteka S\u0142oneczna", "ref:csioz": "1201745"}}, {"type": "node", "id": 5939380829, "lat": 51.1346262, "lon": 21.765638, "tags": {"amenity": "pharmacy", "dispensing": "yes", "name": "OSOZ", "ref:csioz": "1094959"}}, {"type": "node", "id": 8188873695, "lat": 51.1917567, "lon": 22.0676928, "tags": {"amenity": "pharmacy", "brand": "Dbam o Zdrowie", "brand:wikidata": "Q62563833", "dispensing": "yes", "healthcare": "pharmacy", "name": "Dbam o Zdrowie", "opening_hours": "Mo-Fr 08:00-20:00; Sa 08:00-19:00", "ref:csioz": "1163456", "short_name": "DOZ"}}, {"type": "node", "id": 8188873697, "lat": 51.1923223, "lon": 22.0690725, "tags": {"amenity": "pharmacy", "dispensing": "yes", "healthcare": "pharmacy", "name": "Witaminka", "phone": "+48 81 820 21 77", "ref:csioz": "1157826"}}, {"type": "node", "id": 8319606611, "lat": 50.8848865, "lon": 21.8565476, "tags": {"amenity": "pharmacy", "dispensing": "yes", "healthcare": "pharmacy", "ref:csioz": "1158055"}}, {"type": "node", "id": 8573145118, "lat": 51.1602816, "lon": 21.6566337, "tags": {"addr:city": "Lipsko", "addr:city:simc": "0973613", "addr:housenumber": "5", "addr:postcode": "27-300", "addr:street": "J\u0119drzeja \u015aniadeckiego", "amenity": "pharmacy", "brand": "Dbam o Zdrowie", "brand:wikidata": "Q62563833", "dispensing": "yes", "healthcare": "pharmacy", "name": "Dbam o Zdrowie", "ref:csioz": "1182558", "short_name": "DOZ"}}, {"type": "node", "id": 8922215327, "lat": 50.8849798, "lon": 21.8556195, "tags": {"amenity": "pharmacy", "dispensing": "yes", "healthcare": "pharmacy", "name": "Nova", "ref:csioz": "1204355"}}, {"type": "node", "id": 9560902910, "lat": 50.8665266, "lon": 21.9973851, "tags": {"amenity": "pharmacy", "brand": "Dbam o Zdrowie", "brand:wikidata": "Q62563833", "dispensing": "yes", "healthcare": "pharmacy", "name": "Dbam o Zdrowie", "ref:csioz": "1158428", "short_name": "DOZ"}}, {"type": "node", "id": 9560902911, "lat": 50.8522353, "lon": 22.1312026, "tags": {"amenity": "pharmacy", "dispensing": "yes", "healthcare": "pharmacy", "name": "Apteka Zawsze Najni\u017csze Ceny", "ref:csioz": "1116585"}}, {"type": "node", "id": 9560902912, "lat": 50.8413924, "lon": 22.1845627, "tags": {"addr:housenumber": "56", "addr:place": "Rzeczyca Ziemia\u0144ska", "addr:postcode": "23-230", "amenity": "pharmacy", "dispensing": "yes", "healthcare": "pharmacy", "name": "Nowa Rzeczycka", "ref:csioz": "1171905"}}, {"type": "node", "id": 9560902914, "lat": 50.8687392, "lon": 22.0074585, "tags": {"amenity": "pharmacy", "dispensing": "yes", "healthcare": "pharmacy", "ref:csioz": "1157852"}}, {"type": "node", "id": 9560902915, "lat": 50.9263931, "lon": 22.226846, "tags": {"amenity": "pharmacy", "dispensing": "yes", "healthcare": "pharmacy", "name": "Apteka Nova", "ref:csioz": "1218754"}}, {"type": "node", "id": 9560919918, "lat": 50.9619737, "lon": 22.1595844, "tags": {"amenity": "pharmacy", "dispensing": "yes", "healthcare": "pharmacy", "name": "Apteka Melisa W Supersamie", "ref:csioz": "1158939"}}, {"type": "node", "id": 9560919919, "lat": 50.959384, "lon": 22.159136, "tags": {"amenity": "pharmacy", "dispensing": "yes", "healthcare": "pharmacy", "name": "Apteka Osiedlowa", "ref:csioz": "1158905"}}, {"type": "node", "id": 9560919920, "lat": 50.9652754, "lon": 22.1767314, "tags": {"amenity": "pharmacy", "dispensing": "yes", "healthcare": "pharmacy", "ref:csioz": "1158453"}}, {"type": "node", "id": 9560919921, "lat": 50.8944224, "lon": 22.122188, "tags": {"amenity": "pharmacy", "dispensing": "yes", "healthcare": "pharmacy", "name": "Punkt Apteczny Olbi\u0119cin", "ref:csioz": "1106342"}}, {"type": "node", "id": 9560919925, "lat": 50.9623817, "lon": 22.1633443, "tags": {"addr:city": "Kra\u015bnik", "addr:housenumber": "1g", "addr:postcode": "23-210", "addr:street": "Adama Mickiewicza", "amenity": "pharmacy", "dispensing": "yes", "name": "Herba", "ref:csioz": "1162488"}}, {"type": "node", "id": 9560919927, "lat": 50.9647396, "lon": 22.1618836, "tags": {"amenity": "pharmacy", "dispensing": "yes", "healthcare": "pharmacy", "name": "Apteka Melisa Pod Pewexem", "ref:csioz": "1153596"}}, {"type": "node", "id": 9560919928, "lat": 50.9597547, "lon": 22.1543372, "tags": {"addr:city": "Kra\u015bnik", "addr:housenumber": "3", "addr:postcode": "23-204", "addr:street": "Ksi\u0119dza Stanis\u0142awa Zieli\u0144skiego", "amenity": "pharmacy", "dispensing": "yes", "healthcare": "pharmacy", "name": "Apteka Melisa Ko\u0142o Ko\u015bcio\u0142a", "ref:csioz": "1153582"}}, {"type": "node", "id": 9560919929, "lat": 50.961977, "lon": 22.156993, "tags": {"amenity": "pharmacy", "dispensing": "yes", "healthcare": "pharmacy", "name": "Doz Apteka Dbam O Zdrowie Alchemia", "ref:csioz": "1112821"}}, {"type": "node", "id": 9560919930, "lat": 50.8856162, "lon": 21.8558836, "tags": {"amenity": "pharmacy", "dispensing": "yes", "healthcare": "pharmacy", "ref:csioz": "1161834"}}, {"type": "node", "id": 9624215415, "lat": 51.1596834, "lon": 21.6526955, "tags": {"addr:city": "Lipsko", "addr:city:simc": "0973613", "addr:housenumber": "21", "addr:postcode": "27-300", "addr:street": "1 Maja", "amenity": "pharmacy", "brand": "Prima", "dispensing": "yes", "healthcare": "pharmacy", "name": "Prima", "ref:csioz": "1216397"}}, {"type": "node", "id": 9624232219, "lat": 51.1600935, "lon": 21.6495148, "tags": {"addr:city": "Lipsko", "addr:city:simc": "0973613", "addr:housenumber": "9", "addr:postcode": "27-300", "addr:street": "Zwole\u0144ska", "amenity": "pharmacy", "dispensing": "yes", "name": "Codzienna", "ref:csioz": "1094937"}}, {"type": "node", "id": 9624232220, "lat": 51.1594306, "lon": 21.6481118, "tags": {"addr:city": "Lipsko", "addr:city:simc": "0973613", "addr:housenumber": "6A", "addr:postcode": "27-300", "addr:street": "I\u0142\u017cecka", "amenity": "pharmacy", "brand": "Cef@Rm 36,6", "dispensing": "yes", "healthcare": "pharmacy", "name": "Cef@Rm 36,6", "ref:csioz": "1094900"}}, {"type": "node", "id": 9686640988, "lat": 50.8872835, "lon": 21.6622988}, {"type": "node", "id": 9686640989, "lat": 50.887263, "lon": 21.6623649}, {"type": "node", "id": 9686640990, "lat": 50.887293, "lon": 21.662432}, {"type": "node", "id": 9686640991, "lat": 50.8872773, "lon": 21.6624556}, {"type": "node", "id": 9686640992, "lat": 50.8873129, "lon": 21.6625136}, {"type": "node", "id": 9686640993, "lat": 50.8873036, "lon": 21.6626979}, {"type": "node", "id": 9686640994, "lat": 50.8872451, "lon": 21.6626936}, {"type": "node", "id": 9686640995, "lat": 50.8872058, "lon": 21.6625258}, {"type": "node", "id": 9686640996, "lat": 50.8872198, "lon": 21.6625219}, {"type": "node", "id": 9686640997, "lat": 50.8872157, "lon": 21.6624826}, {"type": "node", "id": 9686640998, "lat": 50.8872001, "lon": 21.662489}, {"type": "node", "id": 9686640999, "lat": 50.8871782, "lon": 21.662313}, {"type": "node", "id": 9686641000, "lat": 50.8872698, "lon": 21.6622862}, {"type": "node", "id": 9765313593, "lat": 50.8254133, "lon": 21.7846599, "tags": {"addr:housenumber": "124A", "addr:place": "Czy\u017c\u00f3w Szlachecki", "amenity": "pharmacy", "dispensing": "yes", "ref:csioz": "1230684"}}, {"type": "node", "id": 10278156586, "lat": 50.994172, "lon": 21.9667431, "tags": {"addr:city": "Stare Boiska", "addr:housenumber": "30", "addr:postcode": "24-340", "amenity": "pharmacy", "dispensing": "yes", "healthcare": "pharmacy", "opening_hours": "Mo-Fr 08:00-17:00", "phone": "+48 81 8286450", "ref:csioz": "1161678", "wheelchair": "yes"}}, {"type": "node", "id": 10592022917, "lat": 50.9584279, "lon": 22.0862627, "tags": {"amenity": "pharmacy", "brand": "Dbam o Zdrowie", "brand:wikidata": "Q62563833", "dispensing": "yes", "healthcare": "pharmacy", "name": "Dbam o Zdrowie", "ref:csioz": "1157996", "short_name": "DOZ"}}, {"type": "node", "id": 10599729897, "lat": 51.143382, "lon": 21.8791645, "tags": {"amenity": "pharmacy", "dispensing": "yes", "healthcare": "pharmacy", "ref:csioz": "1162442"}}, {"type": "node", "id": 10599729898, "lat": 51.042119, "lon": 21.8304349, "tags": {"amenity": "pharmacy", "dispensing": "yes", "healthcare": "pharmacy", "name": "Melisa Przy Targu", "ref:csioz": "1185775"}}, {"type": "node", "id": 10599729899, "lat": 51.0410176, "lon": 21.828779, "tags": {"amenity": "pharmacy", "dispensing": "yes", "healthcare": "pharmacy", "name": "Capsula", "ref:csioz": "1162879"}}, {"type": "node", "id": 10599729900, "lat": 51.1119089, "lon": 22.1346482, "tags": {"amenity": "pharmacy", "dispensing": "yes", "healthcare": "pharmacy", "ref:csioz": "1162210"}}, {"type": "node", "id": 10599729901, "lat": 51.10911, "lon": 22.1313141, "tags": {"amenity": "pharmacy", "dispensing": "yes", "healthcare": "pharmacy", "name": "Rodzinna", "ref:csioz": "1187681"}}, {"type": "node", "id": 10599828403, "lat": 51.2219763, "lon": 21.8604814, "tags": {"amenity": "pharmacy", "dispensing": "yes", "healthcare": "pharmacy", "ref:csioz": "1162999"}}, {"type": "node", "id": 10599828404, "lat": 51.1911052, "lon": 22.0662769, "tags": {"amenity": "pharmacy", "dispensing": "yes", "healthcare": "pharmacy", "name": "Melisa Na Rogu", "ref:csioz": "1194108"}}, {"type": "node", "id": 10599851505, "lat": 51.1870937, "lon": 22.0703176, "tags": {"amenity": "pharmacy", "dispensing": "yes", "healthcare": "pharmacy", "ref:csioz": "1159129"}}, {"type": "node", "id": 10599851506, "lat": 51.1891636, "lon": 22.0675117, "tags": {"amenity": "pharmacy", "dispensing": "yes", "healthcare": "pharmacy", "ref:csioz": "1162324"}}, {"type": "node", "id": 10599851507, "lat": 51.1916506, "lon": 22.0666086, "tags": {"amenity": "pharmacy", "dispensing": "yes", "healthcare": "pharmacy", "name": "Radosna", "ref:csioz": "1231044"}}, {"type": "node", "id": 10599851508, "lat": 51.1493031, "lon": 21.9701274, "tags": {"amenity": "pharmacy", "dispensing": "yes", "healthcare": "pharmacy", "name": "Rodzinna", "ref:csioz": "1208079"}}, {"type": "way", "id": 290408164, "nodes": [4393464040, 4393463910, 4393463895, 4393463911, 4393463912, 4393463998, 4393464040], "tags": {"addr:city": "O\u017car\u00f3w", "addr:city:simc": "0980777", "addr:housenumber": "13", "addr:street": "Wysoka", "addr:street:sym_ul": "25067", "amenity": "pharmacy", "building": "yes", "dispensing": "yes", "healthcare": "pharmacy", "name": "Esculap", "ref:csioz": "1002856", "source:addr": "emuia.gugik.gov.pl"}}, {"type": "way", "id": 427700327, "nodes": [4268866853, 4268866843, 4268866840, 4268866842, 4268866824, 4268866820, 4268866821, 4268866817, 4268866816, 4268866800, 4268866802, 4268866789, 4268866788, 4268866769, 4268866772, 4268866768, 4268866766, 4268866762, 4268866781, 4268866783, 4268866786, 4268866773, 4268866792, 4268866813, 4268866811, 4268866852, 4268866857, 4268866868, 4268866853], "tags": {"addr:city": "Annopol", "addr:housenumber": "8", "addr:postcode": "23-235", "addr:street": "\u015awieciechowska", "amenity": "pharmacy", "building": "retail", "dispensing": "yes", "healthcare": "pharmacy", "name": "Apteka", "ref:csioz": "1158135", "source:addr": "emuia1.gugik.gov.pl"}}, {"type": "way", "id": 441607149, "nodes": [9686641000, 9686640999, 9686640998, 9686640997, 9686640996, 9686640995, 4393465997, 9686640994, 9686640993, 4393466012, 9686640992, 9686640991, 9686640990, 9686640989, 9686640988, 9686641000], "tags": {"addr:city": "O\u017car\u00f3w", "addr:city:simc": "0980777", "addr:housenumber": "54D", "addr:place": "Osiedle Wzg\u00f3rze", "amenity": "pharmacy", "building": "yes", "dispensing": "yes", "name": "Apteki Polskie", "ref:csioz": "1004227", "source:addr": "emuia.gugik.gov.pl"}}, {"type": "way", "id": 443054449, "nodes": [4406952486, 4406952403, 4406952390, 4406952422, 4406952404, 4406952434, 4406952433, 4406952470, 4406952486], "tags": {"addr:city:simc": "0808630", "addr:housenumber": "2", "addr:place": "W\u00f3lka Lipowa", "addr:postcode": "27-515", "amenity": "pharmacy", "building": "yes", "dispensing": "yes", "name": "Punkt Apteczny", "ref:csioz": "1004873", "source:addr": "tarlow.e-mapa.net"}}, {"type": "way", "id": 443073422, "nodes": [4407106202, 4407101788, 4407106189, 4407101780, 4407101781, 4407101782, 4407101783, 4407101771, 4407101772, 4407101784, 4407101785, 4407106190, 4407106191, 4407106203, 4407106202], "tags": {"addr:city": "Tar\u0142\u00f3w", "addr:city:simc": "0808570", "addr:housenumber": "72", "addr:postcode": "27-515", "addr:street": "Sandomierska", "addr:street:sym_ul": "19491", "amenity": "pharmacy", "building": "yes", "dispensing": "yes", "ref:csioz": "1002083", "source:addr": "tarlow.e-mapa.net"}}, {"type": "way", "id": 443073839, "nodes": [4407108538, 4407108517, 4407108379, 4407108504, 4407108538], "tags": {"addr:city": "Tar\u0142\u00f3w", "addr:city:simc": "0808570", "addr:housenumber": "7", "addr:postcode": "27-515", "addr:street": "Czekarzewska", "addr:street:sym_ul": "03361", "amenity": "pharmacy", "building": "yes", "dispensing": "yes", "ref:csioz": "1001073", "source:addr": "tarlow.e-mapa.net"}}]}