{"version": 0.6, "generator": "Overpass API 0.7.62.8 e802775f", "osm3s": {"timestamp_osm_base": "2025-10-06T08:33:14Z", "copyright": "The data included in this document is from www.openstreetmap.org. The data is made available under ODbL."}, "elements": [{"type": "node", "id": 520286046, "lat": 53.7776129, "lon": 20.4817895, "tags": {"addr:city": "Olsztyn", "addr:housenumber": "16", "addr:postcode": "10-576", "addr:street": "Aleja Marsza\u0142ka J\u00f3zefa Pi\u0142sudskiego", "amenity": "pharmacy", "dispensing": "yes", "healthcare": "pharmacy", "name": "Euro Apteka", "official_name": "Euro-Apteka", "opening_hours": "Mo-Sa 09:00-21:00; Su 10:00-20:00", "ref:csioz": "1037546"}}, {"type": "node", "id": 1579926316, "lat": 53.7659599, "lon": 20.4295318, "tags": {"amenity": "pharmacy", "dispensing": "yes", "healthcare": "pharmacy", "name": "Agameda", "ref:csioz": "1036348"}}, {"type": "node", "id": 1604604336, "lat": 53.7613216, "lon": 20.5066303, "tags": {"amenity": "pharmacy", "dispensing": "yes", "healthcare": "pharmacy", "ref:csioz": "1037658"}}, {"type": "node", "id": 1604799630, "lat": 53.7781386, "lon": 20.4803946, "tags": {"addr:city": "Olsztyn", "addr:housenumber": "2", "addr:postcode": "10-576", "addr:street": "Aleja Marsza\u0142ka J\u00f3zefa Pi\u0142sudskiego", "amenity": "pharmacy", "brand": "Dbam o Zdrowie", "brand:wikidata": "Q62563833", "check_date": "2023-09-15", "dispensing": "yes", "healthcare": "pharmacy", "name": "Dbam o Zdrowie", "official_name": "Doz Apteka. Dbam O Zdrowie", "opening_hours": "Mo-Fr 08:30-17:30; Sa 08:00-15:00; Su off", "payment:blik": "yes", "payment:contactless": "yes", "payment:debit_cards": "yes", "phone": "+48 800 110 110", "ref:csioz": "1183686", "short_name": "DOZ", "website": "https://doz.pl", "wheelchair": "yes"}}, {"type": "node", "id": 1604868208, "lat": 53.7794785, "lon": 20.502598, "tags": {"amenity": "pharmacy", "dispensing": "yes", "healthcare": "pharmacy", "name": "Apteka Sokrates", "opening_hours": "Mo-Fr 08:00-20:00; Sa 08:00-18:00; Su 10:00-18:00", "ref:csioz": "1188621", "wheelchair": "limited"}}, {"type": "node", "id": 1824021259, "lat": 53.6973571, "lon": 19.9681329, "tags": {"addr:city": "Ostr\u00f3da", "addr:housenumber": "16", "addr:street": "Grunwaldzka", "amenity": "pharmacy", "brand": "Dbam o Zdrowie", "brand:wikidata": "Q62563833", "dispensing": "yes", "healthcare": "pharmacy", "name": "Panaceum", "opening_hours": "Mo-Fr 08:00-19:00; Sa 08:00-15:00", "operator": "Dbam o zdrowie", "ref:csioz": "1040943"}}, {"type": "node", "id": 2397020283, "lat": 53.9866963, "lon": 20.395485, "tags": {"addr:city": "Dobre Miasto", "addr:housenumber": "32", "addr:postcode": "11-040", "addr:street": "Jana Paw\u0142a II", "amenity": "pharmacy", "dispensing": "yes", "healthcare": "pharmacy", "name": "Apteka Malinowa", "ref:csioz": "1038941"}}, {"type": "node", "id": 2397020710, "lat": 53.9851701, "lon": 20.4034894, "tags": {"amenity": "pharmacy", "dispensing": "yes", "healthcare": "pharmacy", "name": "Apteka Warmi\u0144ska", "ref:csioz": "1038955"}}, {"type": "node", "id": 2589028794, "lat": 53.768506, "lon": 20.4186921, "tags": {"amenity": "pharmacy", "contact:phone": "+48895215015", "dispensing": "yes", "healthcare": "pharmacy", "name": "Apteka Sielska", "ref:csioz": "1221295"}}, {"type": "node", "id": 2713582498, "lat": 53.7727572, "lon": 20.4999276, "tags": {"amenity": "pharmacy", "brand": "Dr. Max", "brand:wikidata": "Q56317371", "dispensing": "yes", "healthcare": "pharmacy", "name": "Dr. Max", "opening_hours": "Mo-Fr 09:00-20:00; Sa 09:00-18:00; Su 10:00-16:00", "ref:csioz": "1216879"}}, {"type": "node", "id": 2857860860, "lat": 53.7841958, "lon": 20.4946913, "tags": {"amenity": "pharmacy", "dispensing": "yes", "drive_through": "no", "healthcare": "pharmacy", "name": "Apteka Tania", "opening_hours": "Mo-Sa 08:00-21:00; Su 10:00-19:00", "ref:csioz": "1113019", "wheelchair": "yes"}}, {"type": "node", "id": 2866914327, "lat": 53.7409771, "lon": 20.4948015, "tags": {"amenity": "pharmacy", "dispensing": "yes", "healthcare": "pharmacy", "name": "Neo", "opening_hours": "Mo-Su 08:00-22:00", "ref:csioz": "1229254"}}, {"type": "node", "id": 2871087681, "lat": 53.7526155, "lon": 20.4996732, "tags": {"addr:city": "Olsztyn", "addr:housenumber": "3b", "addr:postcode": "10-685", "addr:street": "Franciszka Barcza", "amenity": "pharmacy", "brand": "Dbam o Zdrowie", "brand:wikidata": "Q62563833", "dispensing": "yes", "healthcare": "pharmacy", "name": "Dbam o Zdrowie", "ref:csioz": "1188637", "short_name": "DOZ"}}, {"type": "node", "id": 2883291941, "lat": 53.7906851, "lon": 20.4917186, "tags": {"addr:city": "Olsztyn", "addr:city:simc": "0964465", "addr:street": "Aleja Sybirak\u00f3w", "amenity": "pharmacy", "check_date": "2022-08-29", "check_date:opening_hours": "2023-11-17", "dispensing": "yes", "healthcare": "pharmacy", "name": "Apteka Przyjazna", "opening_hours": "Mo-Fr 08:00-20:00; Sa 08:00-16:00; Su off", "payment:mastercard": "yes", "payment:visa": "yes", "ref:csioz": "1184860", "wheelchair": "yes"}}, {"type": "node", "id": 2897485644, "lat": 53.7733773, "lon": 20.4977426, "tags": {"amenity": "pharmacy", "brand": "Dbam o Zdrowie", "brand:wikidata": "Q62563833", "check_date": "2025-06-17", "dispensing": "yes", "healthcare": "pharmacy", "name": "Dbam o Zdrowie", "opening_hours": "24/7", "ref:csioz": "1183040", "short_name": "DOZ", "wheelchair": "yes"}}, {"type": "node", "id": 2897485665, "lat": 53.7691316, "lon": 20.4966977, "tags": {"addr:city": "Olsztyn", "addr:housenumber": "41A", "addr:postcode": "10-560", "addr:street": "\u017bo\u0142nierska", "amenity": "pharmacy", "dispensing": "yes", "healthcare": "pharmacy", "name": "Pod Lip\u0105", "ref:csioz": "1037722"}}, {"type": "node", "id": 3069835354, "lat": 53.7398313, "lon": 20.4792086, "tags": {"amenity": "pharmacy", "dispensing": "yes", "healthcare": "pharmacy", "name:signed": "no", "opening_hours": "Mo-Fr 08:30-20:00; Sa 09:00-15:00", "ref:csioz": "1037873"}}, {"type": "node", "id": 3832600067, "lat": 53.776945, "lon": 20.5065218, "tags": {"amenity": "pharmacy", "dispensing": "yes", "healthcare": "pharmacy", "name": "Apteka Melisa", "opening_hours": "Mo-Fr 08:00-19:30; Sa 08:00-14:00", "ref:csioz": "1037674"}}, {"type": "node", "id": 3834128357, "lat": 53.7925392, "lon": 20.4965501, "tags": {"addr:city": "Olsztyn", "addr:city:simc": "0964465", "addr:housenumber": "2", "addr:street": "Wroc\u0142awska", "amenity": "pharmacy", "check_date": "2025-01-27", "dispensing": "yes", "healthcare": "pharmacy", "name": "Apteki Polskie", "official_name": "Apteki Polskie", "opening_hours": "Mo-Fr 07:00-21:00; Sa 08:00-15:00", "ref:csioz": "1037939"}}, {"type": "node", "id": 3834147157, "lat": 53.7785508, "lon": 20.4970573, "tags": {"amenity": "pharmacy", "check_date": "2022-11-05", "dispensing": "yes", "healthcare": "pharmacy", "name": "Apteka Prima", "opening_hours": "Mo-Fr 08:00-20:00; Sa 08:00-15:00; Su off", "payment:mastercard": "yes", "payment:visa": "yes", "ref:csioz": "1037376"}}, {"type": "node", "id": 3834212857, "lat": 53.739722, "lon": 20.5134926, "tags": {"amenity": "pharmacy", "healthcare": "pharmacy", "name": "Gemini", "opening_hours": "Mo-Fr 08:00-19:30; Sa 08:00-15:00", "ref:csioz": "1216771"}}, {"type": "node", "id": 3846689598, "lat": 53.7853923, "lon": 20.4908296, "tags": {"amenity": "pharmacy", "brand": "Gemini", "brand:wikidata": "Q130243797", "dispensing": "yes", "healthcare": "pharmacy", "name": "Gemini", "opening_hours": "Mo-Fr 08:00-19:00; Sa 08:00-16:00", "ref:csioz": "1171617", "wheelchair": "yes"}}, {"type": "node", "id": 3965090750, "lat": 53.7784479, "lon": 20.4815163, "tags": {"amenity": "pharmacy", "check_date": "2025-05-21", "check_date:opening_hours": "2025-05-21", "dispensing": "yes", "drive_through": "no", "healthcare": "pharmacy", "level": "0", "name": "NOWA", "opening_hours": "Mo-Su,PH 07:00-22:00", "payment:blik": "yes", "payment:contactless": "yes", "payment:debit_cards": "yes", "ref:csioz": "1110928", "wheelchair": "yes"}}, {"type": "node", "id": 3980836244, "lat": 53.6972439, "lon": 19.9636175, "tags": {"addr:city": "Ostr\u00f3da", "addr:housenumber": "21", "addr:postcode": "14-100", "addr:street": "Stefana Czarnieckiego", "amenity": "pharmacy", "dispensing": "yes", "healthcare": "pharmacy", "name": "Centrum", "ref:csioz": "1040908"}}, {"type": "node", "id": 4113584733, "lat": 53.778538, "lon": 20.4811523, "tags": {"amenity": "pharmacy", "check_date": "2024-02-12", "dispensing": "yes", "drive_through": "no", "healthcare": "pharmacy", "internet_access": "no", "level": "0", "name": "Gemini", "opening_hours": "Mo-Fr 8:00-20:00; Sa 09:00-18:00; Su 09:00-15:00", "operator": "Gemini", "payment:blik": "yes", "payment:contactless": "yes", "payment:debit_cards": "yes", "ref:csioz": "1201206", "website": "https://www.aptekigemini.pl/apteki/warminsko-mazurskie,olsztyn,30", "wheelchair": "yes"}}, {"type": "node", "id": 4227292190, "lat": 53.8002648, "lon": 20.4412384, "tags": {"amenity": "pharmacy", "dispensing": "yes", "healthcare": "pharmacy", "name": "Arnika", "official_name": "Apteki Polskie", "opening_hours": "Mo-Su 09:00-21:00", "ref:csioz": "1213209"}}, {"type": "node", "id": 4230180802, "lat": 53.7397551, "lon": 20.4802462, "tags": {"amenity": "pharmacy", "check_date:opening_hours": "2024-02-24", "dispensing": "yes", "healthcare": "pharmacy", "name": "Apteka Api", "opening_hours": "Mo-Fr 08:30-19:00; Sa 09:00-14:00", "ref:csioz": "1037345", "wheelchair": "yes"}}, {"type": "node", "id": 4237709114, "lat": 53.6917257, "lon": 19.9691806, "tags": {"addr:city": "Ostr\u00f3da", "addr:housenumber": "2", "addr:street": "Boles\u0142awa Chrobrego", "amenity": "pharmacy", "brand": "Dr. Max", "brand:wikidata": "Q56317371", "brand:wikipedia": "fr:Dr.Max", "dispensing": "yes", "healthcare": "pharmacy", "name": "Dr. Max", "ref:csioz": "1040919"}}, {"type": "node", "id": 4240257617, "lat": 53.7417437, "lon": 20.5020563, "tags": {"amenity": "pharmacy", "dispensing": "yes", "healthcare": "pharmacy", "ref:csioz": "1208641"}}, {"type": "node", "id": 4240259377, "lat": 53.7413778, "lon": 20.5011692, "tags": {"amenity": "pharmacy", "dispensing": "yes", "healthcare": "pharmacy", "ref:csioz": "1037952"}}, {"type": "node", "id": 4243187364, "lat": 53.7661284, "lon": 20.4951049, "tags": {"amenity": "pharmacy", "dispensing": "yes", "drive_through": "no", "healthcare": "pharmacy", "name": "Alfa", "opening_hours": "Mo-Fr 08:30-19:00; Sa 08:30-13:00", "ref:csioz": "1037321"}}, {"type": "node", "id": 4362860289, "lat": 53.7484015, "lon": 20.2375675, "tags": {"amenity": "pharmacy", "dispensing": "yes", "healthcare": "pharmacy", "name": "Pod Figurk\u0105", "name:pl": "Pod Figurk\u0105", "opening_hours": "Mo-Fr 09:00-15:30", "ref:csioz": "1039099"}}, {"type": "node", "id": 4425646202, "lat": 53.9070599, "lon": 19.9386631, "tags": {"amenity": "pharmacy", "dispensing": "yes", "name": "Meritum", "opening_hours": "08:00-21:00", "ref:csioz": "1119362"}}, {"type": "node", "id": 4425647694, "lat": 53.9155953, "lon": 19.9323365, "tags": {"amenity": "pharmacy", "dispensing": "yes", "name": "Miejska", "ref:csioz": "1040768"}}, {"type": "node", "id": 4450539914, "lat": 53.7743049, "lon": 20.501558, "tags": {"addr:city": "Olsztyn", "addr:housenumber": "28B", "addr:postcode": "10-437", "addr:street": "Dworcowa", "amenity": "pharmacy", "dispensing": "yes", "healthcare": "pharmacy", "name": "Apteka Hibiskus", "opening_hours": "Mo-Fr 08:00-20:00; Sa 08:00-14:00", "ref:csioz": "1037601", "wheelchair": "yes"}}, {"type": "node", "id": 4450539915, "lat": 53.7746093, "lon": 20.5025799, "tags": {"amenity": "pharmacy", "dispensing": "yes", "healthcare": "pharmacy", "name": "Apteka Gemini Dworcowa", "opening_hours": "Mo-Fr 09:00-20:00; Sa 09:00-18:00; Su 10:00-16:00", "ref:csioz": "1204626", "wheelchair": "yes"}}, {"type": "node", "id": 4578292112, "lat": 53.910884, "lon": 19.935078, "tags": {"addr:city": "Mor\u0105g", "addr:housenumber": "42A", "addr:postcode": "14-300", "addr:street": "Adama Mickiewicza", "amenity": "pharmacy", "dispensing": "yes", "name": "Miejska", "opening_hours": "Mo-Fr 08:00-21:30; Sa 08:00-21:30; Su 08:00-21:30", "operator": "DOZ - Dbam O Zdrowie", "ref:csioz": "1040776"}}, {"type": "node", "id": 4578292134, "lat": 53.9113187, "lon": 19.9334149, "tags": {"addr:city": "Mor\u0105g", "addr:housenumber": "38c", "addr:postcode": "14-300", "addr:street": "Adama Mickiewicza", "amenity": "pharmacy", "dispensing": "yes", "name": "Ania", "ref:csioz": "1192728"}}, {"type": "node", "id": 4861575080, "lat": 53.7746428, "lon": 20.4866526, "tags": {"amenity": "pharmacy", "dispensing": "yes", "healthcare": "pharmacy", "name": "Verbena", "ref:csioz": "1037812"}}, {"type": "node", "id": 5017839442, "lat": 54.0100634, "lon": 20.0723966, "tags": {"addr:city": "Mi\u0142akowo", "addr:housenumber": "5B", "addr:street": "Warszawska", "amenity": "pharmacy", "dispensing": "yes", "name": "Miejska", "opening_hours": "Mo-Fr 08:00-18:00; Sa 08:00-13:00", "ref:csioz": "1040699"}}, {"type": "node", "id": 5136092529, "lat": 53.7328556, "lon": 20.4928955, "tags": {"amenity": "pharmacy", "brand": "Dbam o Zdrowie", "brand:wikidata": "Q62563833", "dispensing": "yes", "healthcare": "pharmacy", "name": "Dbam o Zdrowie", "ref:csioz": "1220198", "short_name": "DOZ"}}, {"type": "node", "id": 5387637521, "lat": 53.7701849, "lon": 20.4720798, "tags": {"amenity": "pharmacy", "check_date": "2024-02-20", "dispensing": "yes", "healthcare": "pharmacy", "level": "0", "name": "Apteka Alfa", "opening_hours": "Mo-Fr 08:00-21:00; Sa 09:00-17:00", "ref:csioz": "1181680", "wheelchair": "yes"}}, {"type": "node", "id": 5856489541, "lat": 53.7858123, "lon": 20.4826977, "tags": {"addr:city": "Olsztyn", "addr:city:simc": "0964465", "addr:housenumber": "70", "addr:postcode": "10-291", "addr:street": "Aleja Wojska Polskiego", "amenity": "pharmacy", "check_date": "2022-10-11", "contact:phone": "+48895265747", "dispensing": "yes", "healthcare": "pharmacy", "name": "Apteka \"Pod Gryfem\"", "opening_hours": "Mo-Fr 09:00-19:00; Sa 09:00-14:00; Su off", "ref:csioz": "1178675"}}, {"type": "node", "id": 6547436401, "lat": 53.7649769, "lon": 20.4690617, "tags": {"amenity": "pharmacy", "dispensing": "yes", "healthcare": "pharmacy", "name": "Apteka DOZ", "official_name": "\"Doz Apteka. Dbam O Zdrowie. \"\"Centrum\"\"\"", "ref:csioz": "1037477"}}, {"type": "node", "id": 8151426050, "lat": 53.7406963, "lon": 20.5018319, "tags": {"amenity": "pharmacy", "dispensing": "yes", "healthcare": "pharmacy", "name": "Farmakon Domin", "official_name": "Apteka Farmakon Domin Sp.J.", "opening_hours": "Mo-Fr 08:00-18:45; Sa 08:00-14:00", "ref:csioz": "1037572"}}, {"type": "node", "id": 9162227076, "lat": 53.7807568, "lon": 20.4578778, "tags": {"addr:city": "Olsztyn", "addr:housenumber": "22", "addr:street": "R\u00f3\u017cowa", "amenity": "pharmacy", "dispensing": "yes", "healthcare": "pharmacy", "ref:csioz": "1037926"}}, {"type": "node", "id": 9594208474, "lat": 54.0612512, "lon": 20.2430038, "tags": {"addr:city": "Lubomino", "addr:housenumber": "51", "addr:postcode": "11-135", "addr:street": "Miko\u0142aja Kopernika", "amenity": "pharmacy", "dispensing": "yes", "name": "Punkt Apteczny", "ref:csioz": "1016555"}}, {"type": "node", "id": 9601765907, "lat": 53.8051558, "lon": 20.0845761, "tags": {"addr:city": "\u0141ukta", "addr:housenumber": "1", "addr:street": "Mazurska", "amenity": "pharmacy", "dispensing": "yes", "name": "Miejska", "ref:csioz": "1206947"}}, {"type": "node", "id": 9601769837, "lat": 53.6935384, "lon": 19.964428, "tags": {"addr:city": "Ostr\u00f3da", "addr:housenumber": "12", "addr:street": "Wojska Polskiego", "amenity": "pharmacy", "brand": "Dbam o Zdrowie", "brand:wikidata": "Q62563833", "dispensing": "yes", "healthcare": "pharmacy", "name": "Dbam o Zdrowie", "ref:csioz": "1223322"}}, {"type": "node", "id": 9601769839, "lat": 53.6938674, "lon": 19.9634286, "tags": {"addr:city": "Ostr\u00f3da", "addr:housenumber": "5", "addr:street": "Wojska Polskiego", "amenity": "pharmacy", "dispensing": "yes", "name": "Gemini", "opening_hours": "Mo-Fr 08:00-20:00; Sa 08:00-16:00", "ref:csioz": "1219261"}}, {"type": "node", "id": 9601769840, "lat": 53.6984597, "lon": 19.9580813, "tags": {"addr:city": "Ostr\u00f3da", "addr:housenumber": "9", "addr:street": "Jana Paw\u0142a II", "amenity": "pharmacy", "brand": "Dr. Max", "brand:wikidata": "Q56317371", "brand:wikipedia": "fr:Dr.Max", "dispensing": "yes", "healthcare": "pharmacy", "name": "Dr. Max", "ref:csioz": "1216695"}}, {"type": "node", "id": 9601769842, "lat": 53.9114878, "lon": 19.927781, "tags": {"addr:city": "Mor\u0105g", "addr:housenumber": "3", "addr:street": "Plac Jana Paw\u0142a II", "amenity": "pharmacy", "dispensing": "yes", "name": "No.1", "opening_hours": "Mo-Sa 08:00-20:00; Su 09:00-15:00", "ref:csioz": "1207808"}}, {"type": "node", "id": 9601769843, "lat": 53.8035341, "lon": 20.088965, "tags": {"addr:city": "\u0141ukta", "addr:housenumber": "17A", "addr:street": "Warszawska", "amenity": "pharmacy", "dispensing": "yes", "name": "Meritum", "ref:csioz": "1204735"}}, {"type": "node", "id": 9601769844, "lat": 53.6933514, "lon": 19.965988, "tags": {"addr:city": "Ostr\u00f3da", "addr:housenumber": "32", "addr:street": "Stefana Czarnieckiego", "amenity": "pharmacy", "dispensing": "yes", "name": "Spo\u0142eczna", "operator": "Grupa Nowa Farmacja", "ref:csioz": "1192824"}}, {"type": "node", "id": 9601769846, "lat": 53.6920175, "lon": 19.9775864, "tags": {"addr:city": "Ostr\u00f3da", "addr:housenumber": "5", "addr:street": "Piastowska", "amenity": "pharmacy", "brand": "Dr. Max", "brand:wikidata": "Q56317371", "brand:wikipedia": "fr:Dr.Max", "dispensing": "yes", "healthcare": "pharmacy", "name": "Dr. Max", "ref:csioz": "1180956"}}, {"type": "node", "id": 9601769847, "lat": 53.6945091, "lon": 19.9651761, "tags": {"addr:city": "Ostr\u00f3da", "addr:housenumber": "3B", "addr:street": "Jana III Sobieskiego", "amenity": "pharmacy", "dispensing": "yes", "name": "Pharmaland", "ref:csioz": "1174058"}}, {"type": "node", "id": 9601769848, "lat": 53.7025732, "lon": 19.9627512, "tags": {"addr:city": "Ostr\u00f3da", "addr:housenumber": "6", "addr:street": "Plac Tysi\u0105clecia Pa\u0144stwa Polskiego", "amenity": "pharmacy", "dispensing": "yes", "ref:csioz": "1041000"}}, {"type": "node", "id": 9601769849, "lat": 53.6967549, "lon": 19.9632089, "tags": {"addr:city": "Ostr\u00f3da", "addr:housenumber": "2", "addr:street": "Tadeusza Ko\u015bciuszki", "amenity": "pharmacy", "dispensing": "yes", "ref:csioz": "1040997"}}, {"type": "node", "id": 9601769850, "lat": 53.7029617, "lon": 19.9612196, "tags": {"addr:city": "Ostr\u00f3da", "addr:housenumber": "2", "addr:street": "Zamkowa", "amenity": "pharmacy", "dispensing": "yes", "name": "Zamkowa", "ref:csioz": "1040970"}}, {"type": "node", "id": 9601769852, "lat": 53.6988555, "lon": 19.9620799, "tags": {"addr:city": "Ostr\u00f3da", "addr:housenumber": "15", "addr:street": "Stefana Czarnieckiego", "amenity": "pharmacy", "dispensing": "yes", "name": "B\u0142\u0119kitna", "ref:csioz": "1040893"}}, {"type": "node", "id": 9601769853, "lat": 53.9132035, "lon": 19.9245751, "tags": {"amenity": "pharmacy", "dispensing": "yes", "name": "W Centrum", "ref:csioz": "1040807"}}, {"type": "node", "id": 9601769854, "lat": 53.913598, "lon": 19.9286607, "tags": {"amenity": "pharmacy", "dispensing": "yes", "name": "Pod D\u0119bem", "ref:csioz": "1040792"}}, {"type": "node", "id": 9601769855, "lat": 53.9150273, "lon": 19.9252088, "tags": {"amenity": "pharmacy", "dispensing": "yes", "fixme": "Lokalizacja do weryfikacji", "name": "Med", "ref:csioz": "1040759"}}, {"type": "node", "id": 9653742113, "lat": 53.7366556, "lon": 20.577031, "tags": {"addr:housenumber": "15", "addr:place": "Klewki", "addr:postcode": "10-687", "amenity": "pharmacy", "dispensing": "yes", "healthcare": "pharmacy", "name": "Punkt Apteczny Klewki 15", "ref:csioz": "1230637"}}, {"type": "node", "id": 9666935044, "lat": 53.7863464, "lon": 20.485743, "tags": {"amenity": "pharmacy", "check_date": "2023-05-07", "healthcare": "pharmacy", "name": "Apteki Polskie", "opening_hours": "Mo-Fr 07:00-21:00; Sa 08:00-15:00; Su off", "ref:csioz": "1037625"}}, {"type": "node", "id": 9666935045, "lat": 53.7674073, "lon": 20.5040033, "tags": {"amenity": "pharmacy", "branch": "Ewa", "brand": "Dbam o Zdrowie", "brand:wikidata": "Q62563833", "dispensing": "yes", "healthcare": "pharmacy", "name": "Dbam o Zdrowie", "opening_hours": "Mo-Fr 08:00-19:00; Sa 08:00-13:00", "ref:csioz": "1037551", "short_name": "DOZ"}}, {"type": "node", "id": 9666935046, "lat": 53.7804067, "lon": 20.4861756, "tags": {"amenity": "pharmacy", "brand": "Dbam o Zdrowie", "brand:wikidata": "Q62563833", "check_date": "2023-07-01", "dispensing": "yes", "healthcare": "pharmacy", "name": "Dbam o Zdrowie", "opening_hours": "Mo-Fr 09:00-17:00; Sa-Su off", "payment:mastercard": "yes", "payment:visa": "yes", "ref:csioz": "1037509", "short_name": "DOZ"}}, {"type": "node", "id": 9666935047, "lat": 53.7834618, "lon": 20.4918044, "tags": {"amenity": "pharmacy", "brand": "Dbam o Zdrowie", "brand:wikidata": "Q62563833", "check_date": "2022-08-31", "dispensing": "yes", "healthcare": "pharmacy", "name": "Dbam o Zdrowie", "opening_hours": "Mo-Fr 07:00-19:00; Sa 08:00-15:00; Su off", "payment:credit_cards": "yes", "ref:csioz": "1037490", "short_name": "DOZ", "wheelchair": "yes"}}, {"type": "node", "id": 9666935049, "lat": 53.7536062, "lon": 20.4928776, "tags": {"amenity": "pharmacy", "brand": "Dbam o Zdrowie", "brand:wikidata": "Q62563833", "dispensing": "yes", "healthcare": "pharmacy", "name": "Dbam o Zdrowie", "opening_hours": "Mo-Fr 07:30-19:00; Sa 08:00-15:00", "ref:csioz": "1037514", "short_name": "DOZ"}}, {"type": "node", "id": 9666979134, "lat": 53.7888112, "lon": 20.4880202, "tags": {"amenity": "pharmacy", "check_date": "2025-03-08", "dispensing": "yes", "healthcare": "pharmacy", "name": "Apteka Hibiskus", "opening_hours": "Mo-Fr 08:00-20:00; Sa 08:00-14:00; Su off", "payment:mastercard": "yes", "payment:visa": "yes", "ref:csioz": "1180594", "wheelchair": "yes"}}, {"type": "node", "id": 9666979135, "lat": 53.7369232, "lon": 20.4905983, "tags": {"amenity": "pharmacy", "dispensing": "yes", "healthcare": "pharmacy", "name": "Apteka Mi\u0119towa", "official_name": "Apteka Mi\u0119towa S.C.", "ref:csioz": "1113925"}}, {"type": "node", "id": 9666979136, "lat": 53.7500207, "lon": 20.5053444, "tags": {"amenity": "pharmacy", "dispensing": "yes", "healthcare": "pharmacy", "name": "Apteka Centrum", "ref:csioz": "1037899"}}, {"type": "node", "id": 9666979137, "lat": 53.7400865, "lon": 20.5135938, "tags": {"addr:city": "Olsztyn", "addr:housenumber": "10", "addr:postcode": "10-691", "addr:street": "W\u0142adys\u0142awa G\u0119bika", "amenity": "pharmacy", "check_date:opening_hours": "2025-07-29", "dispensing": "yes", "healthcare": "pharmacy", "name": "Zdrowie", "opening_hours": "Mo-Fr 08:00-19:30; Sa 08:00-14:00", "ref:csioz": "1037857"}}, {"type": "node", "id": 9666979138, "lat": 53.769284, "lon": 20.4748045, "tags": {"addr:city": "Olsztyn", "addr:housenumber": "14", "addr:postcode": "10-061", "addr:street": "Walentego Barczewskiego", "amenity": "pharmacy", "check_date": "2024-02-20", "dispensing": "yes", "healthcare": "pharmacy", "name": "Na Podgrodziu", "opening_hours": "Mo-Fr 08:00-20:00; Sa 09:00-14:00; Su off", "ref:csioz": "1037696", "wheelchair": "yes"}}, {"type": "node", "id": 9666979139, "lat": 53.7759758, "lon": 20.4700197, "tags": {"addr:floor": "0", "amenity": "pharmacy", "check_date": "2023-09-24", "dispensing": "yes", "healthcare": "pharmacy", "name": "Apteka Lawendowa", "official_name": "Apteka Lawendowa", "opening_hours": "Mo-Fr 08:00-19:00; Sa 09:00-14:00", "ref:csioz": "1037630", "wheelchair": "yes"}}, {"type": "node", "id": 9667936064, "lat": 53.7635017, "lon": 20.4950007, "tags": {"addr:city": "Olsztyn", "addr:housenumber": "2", "addr:postcode": "10-603", "addr:street": "Metalowa", "amenity": "pharmacy", "brand": "Dr. Max", "brand:wikidata": "Q56317371", "dispensing": "yes", "healthcare": "pharmacy", "name": "Dr. Max", "ref:csioz": "1123181"}}, {"type": "node", "id": 9667936065, "lat": 53.7534023, "lon": 20.4979316, "tags": {"amenity": "pharmacy", "dispensing": "yes", "healthcare": "pharmacy", "name": "Vita Plus", "ref:csioz": "1122763"}}, {"type": "node", "id": 9667936067, "lat": 53.7413081, "lon": 20.4969813, "tags": {"addr:city": "Olsztyn", "addr:housenumber": "3", "addr:postcode": "10-692", "addr:street": "Jana Janowicza", "amenity": "pharmacy", "dispensing": "yes", "healthcare": "pharmacy", "name": "Apteki Polskie", "ref:csioz": "1037368"}}, {"type": "node", "id": 9667936069, "lat": 53.7891604, "lon": 20.4818566, "tags": {"amenity": "pharmacy", "check_date": "2022-10-11", "dispensing": "yes", "healthcare": "pharmacy", "name": "Apteka Savita", "opening_hours": "Mo-Fr 08:00-19:00; Sa 09:00-14:00; Su off", "payment:mastercard": "yes", "payment:visa": "yes", "ref:csioz": "1213191"}}, {"type": "node", "id": 9668054888, "lat": 53.7922926, "lon": 20.495753, "tags": {"amenity": "pharmacy", "brand": "Dbam o Zdrowie", "brand:wikidata": "Q62563833", "check_date": "2025-01-02", "dispensing": "yes", "healthcare": "pharmacy", "name": "Dbam o Zdrowie", "opening_hours": "Mo-Sa 08:00-20:00; Su 09:00-19:00 \"tylko handlowe\"", "ref:csioz": "1221012", "short_name": "DOZ", "wheelchair": "yes"}}, {"type": "node", "id": 9668054889, "lat": 53.7501883, "lon": 20.4836627, "tags": {"amenity": "pharmacy", "dispensing": "yes", "healthcare": "pharmacy", "name": "Dr Zdrowie", "ref:csioz": "1216667"}}, {"type": "node", "id": 9668054890, "lat": 53.7825034, "lon": 20.4942825, "tags": {"amenity": "pharmacy", "check_date": "2022-09-26", "dispensing": "yes", "healthcare": "pharmacy", "name": "Apteka Spo\u0142eczna Na Ko\u015bciuszki", "official_name": "Apteka Spo\u0142eczna Na Ko\u015bciuszki Grupa Nowa Farmacja", "opening_hours": "Mo-Fr 07:30-20:00; Sa 08:00-16:00; Su off", "payment:mastercard": "yes", "payment:visa": "yes", "ref:csioz": "1200622"}}, {"type": "node", "id": 9668054893, "lat": 53.7417054, "lon": 20.5044136, "tags": {"addr:city": "Olsztyn", "addr:housenumber": "1", "addr:street": "Jerzego Burskiego", "amenity": "pharmacy", "dispensing": "yes", "healthcare": "pharmacy", "name": "Apteka Nowa", "official_name": "Apteka Nowa - Aptegro24.Pl", "ref:csioz": "1187643"}}, {"type": "node", "id": 9668054894, "lat": 53.8007287, "lon": 20.4119299, "tags": {"addr:city": "Olsztyn", "addr:housenumber": "130", "addr:postcode": "11-041", "addr:street": "Ba\u0142tycka", "amenity": "pharmacy", "dispensing": "yes", "healthcare": "pharmacy", "name": "Apteka Feniks", "ref:csioz": "1184958"}}, {"type": "node", "id": 9668054896, "lat": 53.7880693, "lon": 20.4880081, "tags": {"amenity": "pharmacy", "check_date": "2022-09-02", "dispensing": "yes", "healthcare": "pharmacy", "name": "Apteka Dom Lek\u00f3w", "opening_hours": "Mo-Fr 08:00-20:00; Sa 09:00-16:00; Su off", "payment:mastercard": "yes", "payment:visa": "yes", "ref:csioz": "1184852", "wheelchair": "yes"}}, {"type": "node", "id": 9668525527, "lat": 53.9829987, "lon": 20.3907112, "tags": {"addr:city": "Dobre Miasto", "addr:housenumber": "7A", "addr:postcode": "11-040", "addr:street": "Grudzi\u0105dzka", "amenity": "pharmacy", "dispensing": "yes", "name": "Apteka Witaminka", "ref:csioz": "1186923"}}, {"type": "node", "id": 9668525529, "lat": 53.724443, "lon": 20.4746756, "tags": {"addr:city": "Jaroty", "addr:housenumber": "7A", "addr:postcode": "10-687", "addr:street": "Stawigudzka", "amenity": "pharmacy", "dispensing": "yes", "healthcare": "pharmacy", "name": "Sana", "ref:csioz": "1037754"}}, {"type": "node", "id": 9668525530, "lat": 53.9262754, "lon": 20.2405715, "tags": {"amenity": "pharmacy", "dispensing": "yes", "healthcare": "pharmacy", "name": "Punkt apteczny", "ref:csioz": "1014262"}}, {"type": "node", "id": 9668978427, "lat": 53.7200072, "lon": 20.1975294, "tags": {"amenity": "pharmacy", "dispensing": "yes", "healthcare": "pharmacy", "ref:csioz": "1014986"}}, {"type": "node", "id": 9668978428, "lat": 53.8183891, "lon": 20.5205794, "tags": {"amenity": "pharmacy", "branch": "Punkt Apteczny Dbam O Zdrowie", "brand": "Dbam o Zdrowie", "brand:wikidata": "Q62563833", "dispensing": "yes", "healthcare": "pharmacy", "name": "Dbam o Zdrowie", "ref:csioz": "1230668", "short_name": "DOZ"}}, {"type": "node", "id": 9668978429, "lat": 53.8288055, "lon": 20.310119, "tags": {"addr:city": "Jonkowo", "addr:housenumber": "9", "addr:postcode": "11-042", "addr:street": "Plac 650-lecia Jonkowa", "amenity": "pharmacy", "dispensing": "yes", "healthcare": "pharmacy", "name": "Apteka Prima", "ref:csioz": "1215054"}}, {"type": "node", "id": 9668978431, "lat": 53.984955, "lon": 20.3932368, "tags": {"amenity": "pharmacy", "dispensing": "yes", "healthcare": "pharmacy", "name": "Apteka Witaminka", "ref:csioz": "1193049"}}, {"type": "node", "id": 9668978433, "lat": 53.9883268, "lon": 20.3944482, "tags": {"amenity": "pharmacy", "dispensing": "yes", "healthcare": "pharmacy", "name": "Apteka Witaminka", "ref:csioz": "1121575"}}, {"type": "node", "id": 9668978435, "lat": 53.8354772, "lon": 20.4763353, "tags": {"addr:city": "Dywity", "addr:housenumber": "2a", "addr:postcode": "11-001", "addr:street": "Sp\u00f3\u0142dzielcza", "amenity": "pharmacy", "dispensing": "yes", "healthcare": "pharmacy", "name": "Warmi\u0144ska", "ref:csioz": "1231346"}}, {"type": "node", "id": 9668978439, "lat": 53.7302395, "lon": 20.4950034, "tags": {"amenity": "pharmacy", "dispensing": "yes", "healthcare": "pharmacy", "name": "Apteka Sana", "ref:csioz": "1215944"}}, {"type": "node", "id": 9668978440, "lat": 53.9870337, "lon": 20.3967476, "tags": {"amenity": "pharmacy", "brand": "Dr. Max", "brand:wikidata": "Q56317371", "dispensing": "yes", "healthcare": "pharmacy", "name": "Dr. Max", "ref:csioz": "1211028"}}, {"type": "node", "id": 9678308938, "lat": 53.7417015, "lon": 20.5023983, "tags": {"addr:city": "Olsztyn", "addr:housenumber": "6", "addr:street": "Biskupa Tomasza Wilczy\u0144skiego", "amenity": "pharmacy", "dispensing": "yes", "healthcare": "pharmacy", "name": "Apteki Polskie", "ref:csioz": "1190593"}}, {"type": "node", "id": 10226191743, "lat": 53.7534748, "lon": 20.4853347, "tags": {"amenity": "pharmacy", "healthcare": "pharmacy", "name": "Cosmedica", "ref:csioz": "1202677"}}, {"type": "node", "id": 11216107056, "lat": 53.7749914, "lon": 20.474408, "tags": {"amenity": "pharmacy", "check_date": "2023-09-24", "dispensing": "yes", "healthcare": "pharmacy", "name": "S\u0142oneczna", "opening_hours": "Mo-Fr 07:00-21:00; Sa 08:00-15:00", "ref:csioz": "1192897", "wheelchair": "no"}}, {"type": "node", "id": 12288405181, "lat": 53.6836241, "lon": 20.0007933}, {"type": "node", "id": 12288405182, "lat": 53.6840395, "lon": 20.0011529}, {"type": "node", "id": 12288405183, "lat": 53.6836674, "lon": 20.0006497}, {"type": "node", "id": 12288405184, "lat": 53.6840845, "lon": 20.0010049}, {"type": "node", "id": 12662819217, "lat": 53.7908545, "lon": 20.509958, "tags": {"amenity": "pharmacy", "check_date": "2025-03-14", "dispensing": "yes", "email": "amica.olsztyn.poprzeczna@farmia.pl", "healthcare": "pharmacy", "name": "Amica", "opening_hours": "Mo-Fr 08:00-20:00; Sa 08:00-15:00; Su off", "phone": "+48 665 671 005", "ref:csioz": "1231914", "wheelchair": "yes"}}, {"type": "way", "id": 1328186142, "nodes": [12288405184, 12288405182, 12288405181, 12288405183, 12288405184], "tags": {"amenity": "pharmacy", "brand": "Super-Pharm", "brand:en": "Super-Pharm", "brand:he": "\u05e1\u05d5\u05e4\u05e8-\u05e4\u05d0\u05e8\u05dd", "brand:wikidata": "Q13220217", "healthcare": "pharmacy", "indoor": "room", "level": "0", "name": "Super-Pharm", "name:ar": "\u0633\u0648\u0628\u064a\u0631 \u0641\u0627\u0631\u0645", "name:en": "Super-Pharm", "name:he": "\u05e1\u05d5\u05e4\u05e8-\u05e4\u05d0\u05e8\u05dd", "name:ru": "\u0421\u0443\u043f\u0435\u0440-\u0424\u0430\u0440\u043c"}}]}