{"version": 0.6, "generator": "Overpass API 0.7.62.8 e802775f", "osm3s": {"timestamp_osm_base": "2025-10-06T07:48:26Z", "copyright": "The data included in this document is from www.openstreetmap.org. The data is made available under ODbL."}, "elements": [{"type": "node", "id": 2405792111, "lat": 40.5047642, "lon": 20.2234837, "tags": {"amenity": "pharmacy"}}, {"type": "node", "id": 2423106431, "lat": 40.2324798, "lon": 20.3521487, "tags": {"amenity": "pharmacy", "healthcare": "pharmacy", "name": "Farmaci Bujqesore"}}, {"type": "node", "id": 2423106576, "lat": 40.2332353, "lon": 20.3525657, "tags": {"amenity": "pharmacy", "healthcare": "pharmacy", "name": "Randi", "opening_hours": "Mo-Su 10:00-00:00"}}, {"type": "node", "id": 2423106586, "lat": 40.2334139, "lon": 20.3522674, "tags": {"amenity": "pharmacy", "healthcare": "pharmacy"}}, {"type": "node", "id": 4347535790, "lat": 40.0741539, "lon": 20.1380751, "tags": {"amenity": "pharmacy", "name": "Bujar Shehu"}}, {"type": "node", "id": 4349445291, "lat": 40.0800104, "lon": 20.1381077, "tags": {"amenity": "pharmacy", "healthcare": "pharmacy", "name": "Sopoti"}}, {"type": "node", "id": 5591907425, "lat": 40.0848785, "lon": 20.143571, "tags": {"amenity": "pharmacy"}}, {"type": "node", "id": 6875038191, "lat": 40.0828591, "lon": 20.1431493, "tags": {"amenity": "pharmacy"}}, {"type": "node", "id": 6877456187, "lat": 40.0822797, "lon": 20.1418372, "tags": {"amenity": "pharmacy", "healthcare": "pharmacy", "name": "\u00c7abeli", "wheelchair": "limited"}}, {"type": "node", "id": 6877457186, "lat": 40.081375, "lon": 20.1403202, "tags": {"amenity": "pharmacy", "healthcare": "pharmacy"}}, {"type": "node", "id": 6882312087, "lat": 40.081059, "lon": 20.1424714, "tags": {"amenity": "pharmacy", "healthcare": "pharmacy"}}, {"type": "node", "id": 8892314246, "lat": 40.0831332, "lon": 20.1424064, "tags": {"amenity": "pharmacy", "healthcare": "pharmacy", "name": "Iren"}}, {"type": "node", "id": 8892368037, "lat": 40.0832498, "lon": 20.1424368, "tags": {"amenity": "pharmacy", "healthcare": "pharmacy", "name": "Shehu"}}, {"type": "node", "id": 9944902088, "lat": 40.0817142, "lon": 20.1411983, "tags": {"amenity": "pharmacy", "healthcare": "pharmacy", "phone": "084268408"}}, {"type": "node", "id": 9945148783, "lat": 40.0799619, "lon": 20.1381573, "tags": {"amenity": "pharmacy", "healthcare": "pharmacy", "name": "G.S.V"}}]}