{"version": 0.6, "generator": "Overpass API 0.7.62.8 e802775f", "osm3s": {"timestamp_osm_base": "2025-10-06T07:57:45Z", "copyright": "The data included in this document is from www.openstreetmap.org. The data is made available under ODbL."}, "elements": [{"type": "node", "id": 1617866412, "lat": 49.0624437, "lon": 18.3252205, "tags": {"amenity": "pharmacy", "name": "Lek\u00e1re\u0148 Belmedica", "opening_hours": "Mo-Fr 07:15-16:00"}}, {"type": "node", "id": 2644076979, "lat": 49.0276667, "lon": 18.2100089, "tags": {"amenity": "pharmacy", "healthcare": "pharmacy"}}, {"type": "node", "id": 2753654848, "lat": 49.0639577, "lon": 18.3254468, "tags": {"amenity": "pharmacy", "name": "Bella Vita"}}, {"type": "node", "id": 6148121048, "lat": 49.3159065, "lon": 18.1457093, "tags": {"amenity": "pharmacy", "contact:email": "cordisapotheke@gmail.com", "contact:phone": "+420 776 876 794", "dispensing": "yes", "healthcare": "pharmacy", "name": "V\u00fddejna U And\u011bla Str\u00e1\u017ece", "opening_hours": "Mo-Fr 07:00-15:30", "ref:SUKL": "00210491322"}}]}