{"version": 0.6, "generator": "Overpass API 0.7.62.8 e802775f", "osm3s": {"timestamp_osm_base": "2025-10-06T07:51:29Z", "copyright": "The data included in this document is from www.openstreetmap.org. The data is made available under ODbL."}, "elements": [{"type": "node", "id": 676046499, "lat": 45.2905882, "lon": 18.8178797, "tags": {"amenity": "pharmacy", "name": "Ljekarna \u0160ibali\u0107", "opening_hours": "24/7"}}, {"type": "node", "id": 706164315, "lat": 45.3083757, "lon": 18.4110465, "tags": {"amenity": "pharmacy", "healthcare": "pharmacy"}}, {"type": "node", "id": 797916653, "lat": 45.3058618, "lon": 18.4141649, "tags": {"addr:housenumber": "24", "addr:postcode": "31400", "addr:street": "Pavi\u0107eva", "amenity": "pharmacy"}}, {"type": "node", "id": 1318770103, "lat": 45.4511929, "lon": 18.6575999, "tags": {"amenity": "pharmacy", "healthcare": "pharmacy"}}, {"type": "node", "id": 2754609363, "lat": 45.3038171, "lon": 18.4097086}, {"type": "node", "id": 2754609366, "lat": 45.3038319, "lon": 18.4096018}, {"type": "node", "id": 2754609380, "lat": 45.3039619, "lon": 18.4097492}, {"type": "node", "id": 2754609382, "lat": 45.3039768, "lon": 18.4096423}, {"type": "node", "id": 2979268513, "lat": 45.3754813, "lon": 18.9539638, "tags": {"amenity": "pharmacy", "healthcare": "pharmacy", "name": "Ljekarne Joukhadar"}}, {"type": "node", "id": 3111851200, "lat": 45.3755753, "lon": 18.9638323, "tags": {"amenity": "pharmacy", "dispensing": "no"}}, {"type": "node", "id": 3139898000, "lat": 45.225319, "lon": 18.7404449, "tags": {"addr:city": "Andrija\u0161evci", "addr:housenumber": "19", "addr:postcode": "32271", "addr:street": "Ulica Matije Gupca", "amenity": "pharmacy", "healthcare": "pharmacy", "name": "Tripolski"}}, {"type": "node", "id": 3220288380, "lat": 45.2560558, "lon": 18.9113541, "tags": {"amenity": "pharmacy", "healthcare": "pharmacy"}}, {"type": "node", "id": 5764507906, "lat": 45.2937816, "lon": 18.8077086, "tags": {"amenity": "pharmacy", "name": "Kaleni\u0107"}}, {"type": "node", "id": 6378172772, "lat": 45.3332563, "lon": 18.8442188}, {"type": "node", "id": 6378172773, "lat": 45.3332659, "lon": 18.8443235}, {"type": "node", "id": 6378172774, "lat": 45.3332907, "lon": 18.8443189}, {"type": "node", "id": 6378172775, "lat": 45.3332938, "lon": 18.844353}, {"type": "node", "id": 6378172776, "lat": 45.3333407, "lon": 18.8443442}, {"type": "node", "id": 6378172777, "lat": 45.3333376, "lon": 18.8443104}, {"type": "node", "id": 6378172778, "lat": 45.3333678, "lon": 18.8443048}, {"type": "node", "id": 6378172779, "lat": 45.3333571, "lon": 18.8441881}, {"type": "node", "id": 6378172780, "lat": 45.3333363, "lon": 18.8441919}, {"type": "node", "id": 6378172781, "lat": 45.3333338, "lon": 18.8441644}, {"type": "node", "id": 6378172782, "lat": 45.3332747, "lon": 18.8441754}, {"type": "node", "id": 6378172783, "lat": 45.3332783, "lon": 18.8442147}, {"type": "node", "id": 6418946900, "lat": 45.4876387, "lon": 18.6731192, "tags": {"amenity": "pharmacy", "dispensing": "yes", "email": "antunovac@ljekarne-srce.hr", "healthcare": "pharmacy", "name": "Ljekarna Antunovac", "operator": "Ljekarne Srce", "phone": "+385 (0)31 278 471"}}, {"type": "node", "id": 7917437917, "lat": 45.0586219, "lon": 18.5859294, "tags": {"amenity": "pharmacy", "healthcare": "pharmacy", "name": "Ljekarna Vuki\u0107"}}, {"type": "node", "id": 10858010793, "lat": 45.287093, "lon": 18.753873, "tags": {"amenity": "pharmacy", "healthcare": "pharmacy", "name": "Mandis Pharm"}}, {"type": "node", "id": 11753717934, "lat": 45.2962534, "lon": 18.8158633, "tags": {"amenity": "pharmacy", "healthcare": "pharmacy"}}, {"type": "node", "id": 11753918635, "lat": 45.1463016, "lon": 18.8841757, "tags": {"addr:city": "Otok", "addr:postcode": "32252", "addr:street": "Ulica kralja Petra Kre\u0161imira IV.", "amenity": "pharmacy", "healthcare": "pharmacy"}}, {"type": "node", "id": 13031880893, "lat": 45.1496913, "lon": 18.7065538}, {"type": "node", "id": 13031880894, "lat": 45.1496939, "lon": 18.7064753}, {"type": "node", "id": 13031880895, "lat": 45.1496355, "lon": 18.7064696}, {"type": "node", "id": 13031880896, "lat": 45.1496234, "lon": 18.7064442}, {"type": "node", "id": 13031880897, "lat": 45.1495662, "lon": 18.7064448}, {"type": "node", "id": 13031880898, "lat": 45.1496355, "lon": 18.7065481}, {"type": "node", "id": 13031880899, "lat": 45.149587, "lon": 18.7066135}, {"type": "node", "id": 13031880900, "lat": 45.1495177, "lon": 18.7065102}, {"type": "way", "id": 270443036, "nodes": [2754609382, 2754609366, 2754609363, 2754609380, 2754609382], "tags": {"amenity": "pharmacy", "building": "yes"}}, {"type": "way", "id": 681113682, "nodes": [6378172772, 6378172773, 6378172774, 6378172775, 6378172776, 6378172777, 6378172778, 6378172779, 6378172780, 6378172781, 6378172782, 6378172783, 6378172772], "tags": {"amenity": "pharmacy", "building": "yes", "healthcare": "pharmacy"}}, {"type": "way", "id": 1418121873, "nodes": [13031880900, 13031880897, 13031880896, 13031880895, 13031880894, 13031880893, 13031880898, 13031880899, 13031880900], "tags": {"amenity": "pharmacy", "building": "yes"}}]}