{"version": 0.6, "generator": "Overpass API 0.7.62.8 e802775f", "osm3s": {"timestamp_osm_base": "2025-10-06T08:35:15Z", "copyright": "The data included in this document is from www.openstreetmap.org. The data is made available under ODbL."}, "elements": [{"type": "node", "id": 476218122, "lat": 52.8818849, "lon": 20.6025793, "tags": {"addr:city": "Ciechan\u00f3w", "addr:housenumber": "1A", "addr:postcode": "06-400", "addr:street": "Stefana Okrzei", "amenity": "pharmacy", "dispensing": "yes", "healthcare": "pharmacy", "name": "Arnica", "phone": "+48236737950", "ref:csioz": "1200455", "source": "http://ump.waw.pl/ retrieved 12:40:28 08/23/09 (UMP-Ciechanow/src/POI-Ciechanow.szpitale.pnt-converted.txt)"}}, {"type": "node", "id": 476218995, "lat": 52.8811263, "lon": 20.6252859, "tags": {"addr:city": "Ciechan\u00f3w", "addr:housenumber": "20A", "addr:postcode": "06-400", "addr:street": "Pu\u0142tuska", "amenity": "pharmacy", "brand": "Dbam o Zdrowie", "brand:wikidata": "Q62563833", "dispensing": "yes", "healthcare": "pharmacy", "name": "Dbam o Zdrowie", "phone": "+48236732844", "ref:csioz": "1092160", "short_name": "DOZ", "source": "http://ump.waw.pl/ retrieved 12:40:28 08/23/09 (UMP-Ciechanow/src/POI-Ciechanow.szpitale.pnt-converted.txt)"}}, {"type": "node", "id": 476219067, "lat": 52.87691, "lon": 20.61504, "tags": {"addr:city": "Ciechan\u00f3w", "addr:housenumber": "10", "addr:postcode": "06-400", "addr:street": "Ksi\u0119dza Piotra \u015aciegiennego", "amenity": "pharmacy", "brand": "Dbam o Zdrowie", "brand:wikidata": "Q62563833", "dispensing": "yes", "healthcare": "pharmacy", "name": "Dbam O Zdrowie", "phone": "+48236729688", "ref:csioz": "1092208", "short_name": "DOZ", "source": "http://ump.waw.pl/ retrieved 12:40:28 08/23/09 (UMP-Ciechanow/src/POI-Ciechanow.szpitale.pnt-converted.txt)"}}, {"type": "node", "id": 476219236, "lat": 52.8812644, "lon": 20.6215338, "tags": {"addr:city": "Ciechan\u00f3w", "addr:housenumber": "12", "addr:postcode": "06-400", "addr:street": "Pu\u0142tuska", "amenity": "pharmacy", "dispensing": "yes", "healthcare": "pharmacy", "name": "Przyjazna", "opening_hours": "24/7", "phone": "+48236724510", "ref:csioz": "1092152", "source": "http://ump.waw.pl/ retrieved 12:40:28 08/23/09 (UMP-Ciechanow/src/POI-Ciechanow.szpitale.pnt-converted.txt)"}}, {"type": "node", "id": 476219250, "lat": 52.8868616, "lon": 20.611282, "tags": {"addr:city": "Ciechan\u00f3w", "addr:housenumber": "17", "addr:postcode": "06-400", "addr:street": "Bony", "amenity": "pharmacy", "dispensing": "yes", "name": "Przyjazna", "phone": "+48236725050", "ref:csioz": "1092105", "source": "http://ump.waw.pl/ retrieved 12:40:28 08/23/09 (UMP-Ciechanow/src/POI-Ciechanow.szpitale.pnt-converted.txt)"}}, {"type": "node", "id": 476219264, "lat": 52.8813075, "lon": 20.5986074, "tags": {"addr:city": "Ciechan\u00f3w", "addr:housenumber": "2", "addr:postcode": "06-400", "addr:street": "Sp\u00f3\u0142dzielcza", "amenity": "pharmacy", "dispensing": "yes", "healthcare": "pharmacy", "name": "Przyjazna", "phone": "+48236723468", "ref:csioz": "1092183", "source": "http://ump.waw.pl/ retrieved 12:40:28 08/23/09 (UMP-Ciechanow/src/POI-Ciechanow.szpitale.pnt-converted.txt)"}}, {"type": "node", "id": 1866596683, "lat": 53.0218883, "lon": 20.8865832, "tags": {"amenity": "pharmacy", "dispensing": "yes", "healthcare": "pharmacy", "name": "Arnica", "ref:csioz": "1116366"}}, {"type": "node", "id": 2347020847, "lat": 52.8768285, "lon": 20.6275956, "tags": {"addr:city": "Ciechan\u00f3w", "addr:housenumber": "18A", "addr:postcode": "06-400", "addr:street": "Armii Krajowej", "amenity": "pharmacy", "dispensing": "yes", "healthcare": "pharmacy", "name": "Arnica", "ref:csioz": "1092788"}}, {"type": "node", "id": 3049651984, "lat": 53.1136794, "lon": 20.3752576, "tags": {"amenity": "pharmacy", "dispensing": "yes", "healthcare": "pharmacy", "name": "Apteka Pigu\u0142ka", "ref:csioz": "1092306"}}, {"type": "node", "id": 3050375767, "lat": 53.1116517, "lon": 20.3838192, "tags": {"addr:city": "M\u0142awa", "addr:city:simc": "0930696", "addr:housenumber": "9", "addr:postcode": "06-500", "addr:street": "Stary Rynek", "addr:street:sym_ul": "21032", "amenity": "pharmacy", "dispensing": "yes", "healthcare": "pharmacy", "name": "Apteka M\u0142awska", "ref:csioz": "1092716"}}, {"type": "node", "id": 4138324252, "lat": 52.9986625, "lon": 20.4610909, "tags": {"addr:city": "Konopki", "addr:city:simc": "0127350", "addr:housenumber": "15", "addr:postcode": "06-560", "addr:street": "Handlowa", "amenity": "pharmacy", "dispensing": "yes", "healthcare": "pharmacy", "name": "Punkt apteczny", "opening_hours": "Mo,We,Fr 8:00-18:00; Tu,Th 8:00-16:00; Sa 7:00-11:00", "operator": "Urszula Czaplicka", "ref:csioz": "1091855", "source:addr": "stupsk.e-mapa.net"}}, {"type": "node", "id": 5179959732, "lat": 53.1514274, "lon": 20.66222, "tags": {"addr:street": "Tadeusza Ko\u015bciuszki", "amenity": "pharmacy", "dispensing": "yes", "healthcare": "pharmacy", "name": "Punkt apteczny", "ref:csioz": "1091841"}}, {"type": "node", "id": 5624006921, "lat": 53.1114202, "lon": 20.380172, "tags": {"amenity": "pharmacy", "brand": "Dbam o Zdrowie", "brand:wikidata": "Q62563833", "dispensing": "yes", "healthcare": "pharmacy", "name": "Dbam o Zdrowie", "opening_hours": "Mo-Fr 08:00-18:00; Sa 09:00-16:00", "ref:csioz": "1092727", "short_name": "DOZ"}}, {"type": "node", "id": 5908081010, "lat": 53.1102314, "lon": 20.3710775, "tags": {"addr:city": "M\u0142awa", "addr:city:simc": "0930696", "addr:housenumber": "7", "addr:postcode": "06-500", "addr:street": "Osiedle Ksi\u0105\u017c\u0105t Mazowieckich", "addr:street:sym_ul": "10213", "amenity": "pharmacy", "dispensing": "yes", "healthcare": "pharmacy", "name": "Panaceum. Apteka. Tatera Z."}}, {"type": "node", "id": 6547570482, "lat": 53.0211321, "lon": 20.8820725, "tags": {"amenity": "pharmacy", "dispensing": "yes", "healthcare": "pharmacy", "name": "Adonidis", "ref:csioz": "1197623"}}, {"type": "node", "id": 6547639249, "lat": 53.0185703, "lon": 20.8852418, "tags": {"amenity": "pharmacy", "dispensing": "yes", "healthcare": "pharmacy", "name": "Sokrates", "ref:csioz": "1183915"}}, {"type": "node", "id": 6547645891, "lat": 53.0177151, "lon": 20.8844219, "tags": {"amenity": "pharmacy", "dispensing": "yes", "healthcare": "pharmacy", "name": "Adonidis", "ref:csioz": "1116389"}}, {"type": "node", "id": 6895318791, "lat": 52.8783823, "lon": 20.6191626, "tags": {"addr:city": "Ciechan\u00f3w", "addr:housenumber": "14", "addr:postcode": "06-400", "addr:street": "11 Pu\u0142ku U\u0142an\u00f3w Legionowych", "amenity": "pharmacy", "brand": "Dbam o Zdrowie", "brand:wikidata": "Q62563833", "dispensing": "yes", "healthcare": "pharmacy", "name": "Dbam O Zdrowie", "ref:csioz": "1092096", "short_name": "DOZ"}}, {"type": "node", "id": 7154302868, "lat": 53.1260135, "lon": 20.353091, "tags": {"amenity": "pharmacy", "dispensing": "yes", "healthcare": "pharmacy", "name": "Apteka na Rynkowa", "opening_hours": "Mo-Fr 07:30-18:00; Sa 08:00-15:00", "ref:csioz": "1092734"}}, {"type": "node", "id": 7154302880, "lat": 53.1211285, "lon": 20.364998, "tags": {"amenity": "pharmacy", "dispensing": "yes", "healthcare": "pharmacy", "name": "Przy Szpitalu", "ref:csioz": "1209443"}}, {"type": "node", "id": 7154302881, "lat": 53.1203555, "lon": 20.3688642, "tags": {"amenity": "pharmacy", "dispensing": "yes", "healthcare": "pharmacy", "ref:csioz": "1116520"}}, {"type": "node", "id": 9181666915, "lat": 53.1526281, "lon": 20.6666129, "tags": {"amenity": "pharmacy", "dispensing": "yes", "healthcare": "pharmacy", "name": "Punkt apteczny", "ref:csioz": "1179875"}}, {"type": "node", "id": 9181667682, "lat": 53.1940139, "lon": 20.4772897, "tags": {"amenity": "pharmacy", "dispensing": "yes", "healthcare": "pharmacy", "name": "Punkt apteczny", "ref:csioz": "1230810"}}, {"type": "node", "id": 9181686063, "lat": 53.0760945, "lon": 20.5225202, "tags": {"amenity": "pharmacy", "dispensing": "yes", "healthcare": "pharmacy", "name": "Punkt apteczny"}}, {"type": "node", "id": 9587414491, "lat": 52.9802616, "lon": 21.0566813, "tags": {"addr:city": "P\u0142oniawy-Bramura", "addr:housenumber": "84a", "addr:postcode": "06-210", "addr:street": "P\u0142oniawy-Bramura", "amenity": "pharmacy", "name": "Makofarm", "ref:csioz": "1230797"}}, {"type": "node", "id": 9588590403, "lat": 53.167836, "lon": 20.2933645, "tags": {"addr:city": "I\u0142owo-Osada", "addr:housenumber": "4", "addr:street": "Wyzwolenia", "amenity": "pharmacy", "dispensing": "yes", "name": "Solaris", "ref:csioz": "1215966"}}, {"type": "node", "id": 9588590412, "lat": 53.1652173, "lon": 20.2915672, "tags": {"addr:city": "I\u0142owo-Osada", "addr:housenumber": "2", "addr:street": "Jagiello\u0144ska", "amenity": "pharmacy", "dispensing": "yes", "ref:csioz": "1039127"}}, {"type": "node", "id": 9607495481, "lat": 52.9414826, "lon": 20.5532995, "tags": {"addr:city": "Regimin", "addr:housenumber": "3", "addr:postcode": "06-461", "addr:street": "Micha\u0142a Bojanowskiego", "amenity": "pharmacy", "dispensing": "yes", "name": "Punkt Apteczny", "ref:csioz": "1091832"}}, {"type": "node", "id": 9607504263, "lat": 52.8703958, "lon": 20.6018691, "tags": {"addr:city": "Ciechan\u00f3w", "addr:housenumber": "24/3", "addr:postcode": "06-400", "addr:street": "P\u0142ocka", "amenity": "pharmacy", "dispensing": "yes", "name": "Doz Apteka. Dbam O Zdrowie", "ref:csioz": "1092139"}}, {"type": "node", "id": 9607504264, "lat": 52.8833491, "lon": 20.5933243, "tags": {"addr:city": "Ciechan\u00f3w", "addr:housenumber": "71B", "addr:postcode": "06-400", "addr:street": "Henryka Sienkiewicza", "amenity": "pharmacy", "dispensing": "yes", "healthcare": "pharmacy", "name": "Przyjazna", "ref:csioz": "1092171"}}, {"type": "node", "id": 9607570483, "lat": 53.058631, "lon": 20.6261162, "tags": {"addr:city": "Grudusk", "addr:housenumber": "1", "addr:postcode": "06-460", "addr:street": "Stefana \u017beromskiego", "amenity": "pharmacy", "dispensing": "yes", "name": "Apteka", "ref:csioz": "1092262"}}, {"type": "node", "id": 9607571116, "lat": 52.8767064, "lon": 20.6293979, "tags": {"addr:city": "Ciechan\u00f3w", "addr:housenumber": "15", "addr:postcode": "06-400", "addr:street": "Armii Krajowej", "amenity": "pharmacy", "brand": "Dr. Max", "brand:wikidata": "Q56317371", "dispensing": "yes", "healthcare": "pharmacy", "name": "Dr. Max", "ref:csioz": "1220916"}}, {"type": "node", "id": 9607598801, "lat": 52.8808584, "lon": 20.601519, "tags": {"addr:city": "Ciechan\u00f3w", "addr:housenumber": "2", "addr:postcode": "06-400", "addr:street": "Wyzwolenia", "amenity": "pharmacy", "dispensing": "yes", "healthcare": "pharmacy", "name": "Przyjazna przy Eskulapie", "ref:csioz": "1230850"}}, {"type": "node", "id": 9607624417, "lat": 52.8887769, "lon": 20.6035455, "tags": {"addr:city": "Ciechan\u00f3w", "addr:housenumber": "14", "addr:postcode": "06-400", "addr:street": "W\u0142adys\u0142awa Broniewskiego", "amenity": "pharmacy", "dispensing": "yes", "healthcare": "pharmacy", "name": "Arnica", "ref:csioz": "1216370"}}, {"type": "node", "id": 9607624418, "lat": 52.8766886, "lon": 20.6184518, "tags": {"addr:city": "Ciechan\u00f3w", "addr:housenumber": "1/2", "addr:postcode": "06-400", "addr:street": "Adama Mickiewicza", "amenity": "pharmacy", "dispensing": "yes", "name": "Spo\u0142eczna Na Mickiewicza Grupa Nowa Farmacja", "ref:csioz": "1196570"}}, {"type": "node", "id": 9607624419, "lat": 52.8764797, "lon": 20.6184639, "tags": {"addr:city": "Ciechan\u00f3w", "addr:housenumber": "3", "addr:postcode": "06-400", "addr:street": "Adama Mickiewicza", "amenity": "pharmacy", "dispensing": "yes", "name": "Dr. Optima Ceny Hurtowe", "ref:csioz": "1092872"}}, {"type": "node", "id": 9607624420, "lat": 52.8839661, "lon": 20.6347972, "tags": {"addr:city": "Ciechan\u00f3w", "addr:housenumber": "2", "addr:postcode": "06-400", "addr:street": "Powsta\u0144c\u00f3w Wielkopolskich", "amenity": "pharmacy", "dispensing": "yes", "name": "Arnica", "ref:csioz": "1092791"}}, {"type": "node", "id": 9607624421, "lat": 52.8673859, "lon": 20.605085, "tags": {"addr:city": "Ciechan\u00f3w", "addr:housenumber": "5", "addr:postcode": "06-400", "addr:street": "Niechodzka", "amenity": "pharmacy", "dispensing": "yes", "name": "Przyjazna", "ref:csioz": "1092750"}}, {"type": "node", "id": 9642746499, "lat": 53.1141286, "lon": 20.378413, "tags": {"addr:city": "M\u0142awa", "addr:city:simc": "0930696", "addr:housenumber": "21B", "addr:postcode": "06-500", "addr:street": "Franciszka \u017bwirki", "amenity": "pharmacy", "dispensing": "yes", "healthcare": "pharmacy", "name": "Apteki Dar Zdrowia", "ref:csioz": "1219835"}}, {"type": "node", "id": 9642806145, "lat": 53.109812, "lon": 20.3732587, "tags": {"addr:city": "M\u0142awa", "addr:city:simc": "0930696", "addr:housenumber": "32", "addr:postcode": "06-500", "addr:street": "Henryka Sienkiewicza", "amenity": "pharmacy", "dispensing": "yes", "healthcare": "pharmacy", "name": "Pharma-Land", "ref:csioz": "1188668"}}, {"type": "node", "id": 9642823058, "lat": 53.1071174, "lon": 20.3771484, "tags": {"addr:city": "M\u0142awa", "addr:city:simc": "0930696", "addr:housenumber": "58", "addr:postcode": "06-500", "addr:street": "P\u0142ocka", "amenity": "pharmacy", "dispensing": "yes", "healthcare": "pharmacy", "ref:csioz": "1092322"}}, {"type": "node", "id": 9642833653, "lat": 53.1122805, "lon": 20.3827377, "tags": {"addr:city": "M\u0142awa", "addr:city:simc": "0930696", "addr:housenumber": "2", "addr:postcode": "06-500", "addr:street": "Stary Rynek", "amenity": "pharmacy", "brand": "Dbam o Zdrowie", "brand:wikidata": "Q62563833", "dispensing": "yes", "healthcare": "pharmacy", "name": "Dbam o Zdrowie", "ref:csioz": "1218197", "short_name": "DOZ"}}, {"type": "node", "id": 9642833682, "lat": 53.1135399, "lon": 20.3872782, "tags": {"addr:city": "M\u0142awa", "addr:city:simc": "0930696", "addr:housenumber": "13A", "addr:postcode": "06-500", "addr:street": "Targowa", "amenity": "pharmacy", "brand": "Dbam o Zdrowie", "brand:wikidata": "Q62563833", "dispensing": "yes", "healthcare": "pharmacy", "name": "Dbam o Zdrowie", "ref:csioz": "1092814", "short_name": "DOZ"}}, {"type": "node", "id": 9642836679, "lat": 53.113579, "lon": 20.3801773, "tags": {"addr:city": "M\u0142awa", "addr:city:simc": "0930696", "addr:housenumber": "11A", "addr:postcode": "06-500", "addr:street": "Franciszka \u017bwirki", "amenity": "pharmacy", "brand": "Gemini", "dispensing": "yes", "healthcare": "pharmacy", "name": "Gemini", "ref:csioz": "1206216"}}, {"type": "node", "id": 9642842197, "lat": 53.1208315, "lon": 20.3640001, "tags": {"addr:city": "M\u0142awa", "addr:city:simc": "0930696", "addr:housenumber": "39A", "addr:postcode": "06-500", "addr:street": "Aleja J\u00f3zefa Pi\u0142sudskiego", "amenity": "pharmacy", "brand": "Dr. Max", "brand:wikidata": "Q56317371", "brand:wikipedia": "fr:Dr.Max", "dispensing": "yes", "healthcare": "pharmacy", "name": "Dr. Max", "ref:csioz": "1207753"}}, {"type": "node", "id": 9642851536, "lat": 53.1239319, "lon": 20.372009, "tags": {"addr:city": "M\u0142awa", "addr:city:simc": "0930696", "addr:housenumber": "12", "addr:postcode": "06-500", "addr:street": "Anny Dobrskiej", "amenity": "pharmacy", "dispensing": "yes", "name": "Medyk", "ref:csioz": "1092742"}}, {"type": "node", "id": 9642873696, "lat": 53.1097219, "lon": 20.3718338, "tags": {"addr:city": "M\u0142awa", "addr:city:simc": "0930696", "addr:housenumber": "7A", "addr:postcode": "06-500", "addr:street": "Osiedle Ksi\u0105\u017c\u0105t Mazowieckich", "amenity": "pharmacy", "brand": "Panaceum", "dispensing": "yes", "healthcare": "pharmacy", "name": "Panaceum", "ref:csioz": "1092311"}}, {"type": "node", "id": 9642885399, "lat": 53.1139712, "lon": 20.3807791, "tags": {"addr:city": "M\u0142awa", "addr:city:simc": "0930696", "addr:housenumber": "1", "addr:postcode": "06-500", "addr:street": "W\u00f3jtostwo", "amenity": "pharmacy", "dispensing": "yes", "healthcare": "pharmacy", "name": "Arnica", "ref:csioz": "1188863"}}, {"type": "node", "id": 9653685583, "lat": 53.0204861, "lon": 20.8956392, "tags": {"addr:city": "Przasnysz", "addr:city:simc": "0966398", "addr:housenumber": "5", "addr:postcode": "06-300", "addr:street": "\u017bwirki i Wigury", "amenity": "pharmacy", "brand": "Panaceum", "dispensing": "yes", "healthcare": "pharmacy", "name": "Panaceum", "ref:csioz": "1091190"}}, {"type": "node", "id": 9653698061, "lat": 53.2603309, "lon": 20.899225, "tags": {"addr:city": "Chorzele", "addr:city:simc": "0966270", "addr:housenumber": "7", "addr:postcode": "06-330", "addr:street": "Wincentego Witosa", "amenity": "pharmacy", "dispensing": "yes", "ref:csioz": "1091131"}}, {"type": "node", "id": 9653715659, "lat": 52.9202415, "lon": 20.967717, "tags": {"addr:city": "Krasne", "addr:housenumber": "3", "addr:postcode": "06-408", "addr:street": "Miko\u0142aja Kopernika", "amenity": "pharmacy", "dispensing": "yes", "healthcare": "pharmacy", "ref:csioz": "1091153"}}, {"type": "node", "id": 9653728608, "lat": 53.2584519, "lon": 20.8965089, "tags": {"amenity": "pharmacy", "dispensing": "yes", "healthcare": "pharmacy", "name": "Centrum", "opening_hours": "Mo-Fr 08:00-18:00; Sa 08:00-14:00; PH off", "ref:csioz": "1091128"}}, {"type": "node", "id": 9653740706, "lat": 53.1530344, "lon": 20.7882983, "tags": {"addr:city": "Krzynow\u0142oga Ma\u0142a", "addr:housenumber": "1", "addr:postcode": "06-316", "addr:street": "Przasnyska", "amenity": "pharmacy", "dispensing": "yes", "ref:csioz": "1091810"}}, {"type": "node", "id": 9653740930, "lat": 53.0246031, "lon": 20.883877, "tags": {"addr:city": "Przasnysz", "addr:city:simc": "0966398", "addr:housenumber": "18", "addr:postcode": "06-300", "addr:street": "Orlika", "amenity": "pharmacy", "dispensing": "yes", "name": "Doz Apteka. Dbam O Zdrowie. Elixir", "ref:csioz": "1091342"}}, {"type": "node", "id": 9653751197, "lat": 53.0208945, "lon": 20.8838141, "tags": {"addr:city": "Przasnysz", "addr:city:simc": "0966398", "addr:housenumber": "19", "addr:postcode": "06-300", "addr:street": "Rynek", "amenity": "pharmacy", "branch": "Elixir", "brand": "Dbam o Zdrowie", "brand:wikidata": "Q62563833", "dispensing": "yes", "healthcare": "pharmacy", "name": "Dbam o Zdrowie", "ref:csioz": "1091166", "short_name": "DOZ"}}, {"type": "node", "id": 9653751215, "lat": 53.1399545, "lon": 21.0466413, "tags": {"addr:city": "Jednoro\u017cec", "addr:housenumber": "1", "addr:postcode": "06-323", "addr:street": "Jasna", "amenity": "pharmacy", "dispensing": "yes", "name": "Doz Apteka. Dbam O Zdrowie. Elixir", "ref:csioz": "1091144"}}, {"type": "node", "id": 9653774379, "lat": 53.2626251, "lon": 20.8978702, "tags": {"amenity": "pharmacy", "dispensing": "yes", "drive_through": "no", "healthcare": "pharmacy", "name": "Apteka \"Centrum\"", "opening_hours": "Mo-Fr 07:00-18:00; Sa,PH off"}}, {"type": "node", "id": 9653788129, "lat": 53.0239216, "lon": 20.888256, "tags": {"addr:city": "Przasnysz", "addr:city:simc": "0966398", "addr:housenumber": "42", "addr:postcode": "06-300", "addr:street": "Orlika", "amenity": "pharmacy", "dispensing": "yes", "name": "Doz Apteka. Dbam O Zdrowie. Elixir", "ref:csioz": "1091189"}}, {"type": "node", "id": 9653823939, "lat": 53.0244321, "lon": 20.8875181, "tags": {"addr:city": "Przasnysz", "addr:city:simc": "0966398", "addr:housenumber": "15", "addr:postcode": "06-300", "addr:street": "Orlika", "amenity": "pharmacy", "dispensing": "yes", "ref:csioz": "1091583"}}]}