{"version": 0.6, "generator": "Overpass API 0.7.62.8 e802775f", "osm3s": {"timestamp_osm_base": "2025-10-06T07:54:35Z", "copyright": "The data included in this document is from www.openstreetmap.org. The data is made available under ODbL."}, "elements": [{"type": "node", "id": 774775223, "lat": 41.0882083, "lon": 21.0118522, "tags": {"amenity": "pharmacy", "healthcare": "pharmacy", "name": "\u0424\u0430\u0440\u043c\u0430 \u041b\u0435\u043a 2005", "name:en": "Farma Lek 2005", "name:mk": "\u0424\u0430\u0440\u043c\u0430 \u041b\u0435\u043a 2005"}}, {"type": "node", "id": 774777038, "lat": 41.0910636, "lon": 21.0131144, "tags": {"amenity": "pharmacy", "name": "Epoha"}}, {"type": "node", "id": 774779901, "lat": 41.0923193, "lon": 21.0121543, "tags": {"amenity": "pharmacy", "healthcare": "pharmacy", "name": "\u0410\u043d\u0430\u0444\u0430\u0440\u043c", "name:en": "Anafarm", "name:mk": "\u0410\u043d\u0430\u0444\u0430\u0440\u043c"}}, {"type": "node", "id": 1706355220, "lat": 40.7847995, "lon": 21.4086267, "tags": {"amenity": "pharmacy", "dispensing": "no", "healthcare": "pharmacy"}}, {"type": "node", "id": 6183255348, "lat": 40.7832385, "lon": 21.4119681, "tags": {"amenity": "pharmacy", "dispensing": "yes", "healthcare": "pharmacy"}}, {"type": "node", "id": 8857692189, "lat": 41.0309417, "lon": 21.3327987}, {"type": "node", "id": 8857692190, "lat": 41.0308395, "lon": 21.3328629}, {"type": "node", "id": 8857692191, "lat": 41.0308655, "lon": 21.3329357}, {"type": "node", "id": 8857692192, "lat": 41.0309678, "lon": 21.3328716}, {"type": "node", "id": 8865894460, "lat": 41.0309548, "lon": 21.3328352, "tags": {"entrance": "main"}}, {"type": "node", "id": 8909816033, "lat": 41.0269, "lon": 21.3367291, "tags": {"amenity": "pharmacy", "dispensing": "yes", "healthcare": "pharmacy", "name": "\u0415\u0443\u0440\u043e\u0444\u0430\u0440\u043c - \u0426\u0435\u043d\u0442\u0430\u0440", "name:en": "Eurofarm - Centar"}}, {"type": "node", "id": 9915881970, "lat": 41.0326754, "lon": 21.3373482, "tags": {"amenity": "pharmacy", "name": "\u0417\u0434\u0440\u0430\u0432\u0458\u0435"}}, {"type": "node", "id": 11868639078, "lat": 40.7905637, "lon": 21.1384811}, {"type": "node", "id": 11868639079, "lat": 40.7904976, "lon": 21.1384923}, {"type": "node", "id": 11868639080, "lat": 40.7905228, "lon": 21.1387502}, {"type": "node", "id": 11868639081, "lat": 40.7905888, "lon": 21.138739}, {"type": "node", "id": 12556790771, "lat": 41.0852756, "lon": 21.0138765, "tags": {"amenity": "pharmacy", "healthcare": "pharmacy", "int_name": "Eurofarm", "name": "\u0415\u0443\u0440\u043e\u0444\u0430\u0440\u043c", "name:en": "Eurofarm"}}, {"type": "node", "id": 12568595771, "lat": 41.0390709, "lon": 21.3460641, "tags": {"amenity": "pharmacy", "healthcare": "pharmacy", "name": "\u0417\u0435\u0433\u0438\u043d", "name:en": "Zegin", "name:mk": "\u0417\u0435\u0433\u0438\u043d"}}, {"type": "way", "id": 957222508, "nodes": [8857692189, 8857692190, 8857692191, 8857692192, 8865894460, 8857692189], "tags": {"addr:city": "Bitola", "addr:housenumber": "9", "addr:postcode": "7000", "addr:street": "Tsar Samuil", "amenity": "pharmacy", "building": "yes", "dispensing": "yes", "healthcare": "pharmacy", "name": "\u0415\u0443\u0440\u043e\u0444\u0430\u0440\u043c - \u0421\u0430\u0430\u0442 \u041a\u0443\u043b\u0430", "name:en": "Eurofarm - Saat Kula", "opening_hours": "Mo-Sa 08:00-20:00", "phone": "+38947230300"}}, {"type": "way", "id": 1278448174, "nodes": [11868639078, 11868639079, 11868639080, 11868639081, 11868639078], "tags": {"addr:city": "\u039b\u03b5\u03c5\u03ba\u03ce\u03bd\u03b1\u03c2", "amenity": "pharmacy", "building": "yes", "healthcare": "pharmacy", "operator": "\u039c\u03b1\u03c1\u03b9\u03ac\u03bd\u03b8\u03b7 \u0394\u03b1\u03c4\u03c3\u03b9\u03ac\u03b4\u03bf\u03c5"}}]}