{"version": 0.6, "generator": "Overpass API 0.7.62.8 e802775f", "osm3s": {"timestamp_osm_base": "2025-10-06T07:51:29Z", "copyright": "The data included in this document is from www.openstreetmap.org. The data is made available under ODbL."}, "elements": [{"type": "node", "id": 4394721601, "lat": 40.9012616, "lon": 20.6548279, "tags": {"amenity": "pharmacy", "name": "Gj. Ma\u00e7olli"}}, {"type": "node", "id": 5601885726, "lat": 41.022951, "lon": 20.8083857, "tags": {"amenity": "pharmacy"}}, {"type": "node", "id": 6389258606, "lat": 40.7091001, "lon": 20.6988184, "tags": {"amenity": "pharmacy", "name": "Farmaci Maliq", "opening_hours": "Mo-Fr 08:00-16:30; Sa 08:00-15:00; Su off"}}, {"type": "node", "id": 9161308034, "lat": 40.8996357, "lon": 20.6595862, "tags": {"amenity": "pharmacy"}}, {"type": "node", "id": 9161308240, "lat": 40.9006165, "lon": 20.6556218, "tags": {"amenity": "pharmacy"}}, {"type": "node", "id": 9161308542, "lat": 40.899717, "lon": 20.6562191, "tags": {"amenity": "pharmacy"}}]}