{"version": 0.6, "generator": "Overpass API 0.7.62.8 e802775f", "osm3s": {"timestamp_osm_base": "2025-10-06T08:20:01Z", "copyright": "The data included in this document is from www.openstreetmap.org. The data is made available under ODbL."}, "elements": [{"type": "node", "id": 1488960744, "lat": 47.4693886, "lon": 21.4896725, "tags": {"amenity": "pharmacy", "healthcare": "pharmacy", "name": "Zs\u00e1lya gy\u00f3gyszert\u00e1r", "wheelchair": "yes"}}, {"type": "node", "id": 2275461909, "lat": 47.3500947, "lon": 21.5650346, "tags": {"addr:city": "Derecske", "addr:housenumber": "1", "addr:postcode": "4130", "addr:street": "R\u00e1k\u00f3czi \u00fat", "amenity": "pharmacy", "healthcare": "pharmacy", "name": "Than K\u00e1roly Gy\u00f3gyszert\u00e1r"}}, {"type": "node", "id": 2289351220, "lat": 47.3520707, "lon": 21.5697454}, {"type": "node", "id": 2289351231, "lat": 47.352129, "lon": 21.5698239}, {"type": "node", "id": 2289351234, "lat": 47.3521329, "lon": 21.5695813}, {"type": "node", "id": 2289351241, "lat": 47.3521543, "lon": 21.56961}, {"type": "node", "id": 2289351250, "lat": 47.352184, "lon": 21.5694985}, {"type": "node", "id": 2289351264, "lat": 47.3522637, "lon": 21.5696058}, {"type": "node", "id": 2460058511, "lat": 47.4484983, "lon": 21.3943034, "tags": {"addr:city": "Hajd\u00faszoboszl\u00f3", "addr:housenumber": "26", "addr:postcode": "4200", "addr:street": "Major utca", "amenity": "pharmacy", "survey:date": "2013-09-03"}}, {"type": "node", "id": 2710833462, "lat": 47.4445303, "lon": 21.3926967, "tags": {"amenity": "pharmacy", "name": "K\u00edgy\u00f3 Patika"}}, {"type": "node", "id": 2814610303, "lat": 47.407193, "lon": 21.6292392}, {"type": "node", "id": 2905221760, "lat": 47.5348836, "lon": 21.6193457, "tags": {"addr:city": "Debrecen", "addr:housenumber": "7", "addr:postcode": "4026", "addr:street": "Mester utca", "amenity": "pharmacy", "brand": "Pingvin Patika", "brand:wikidata": "Q105626461", "contact:phone": "+36 52 531 453", "contact:website": "https://pingvinpatika.hu/", "dispensing": "yes", "healthcare": "pharmacy", "name": "Pingvin Patika", "name:en": "Penguin Pharmacy", "opening_hours": "Mo-Fr 08:00-19:00; Sa 08:00-13:00; PH off"}}, {"type": "node", "id": 2910768731, "lat": 47.5289922, "lon": 21.6268667, "tags": {"amenity": "pharmacy", "healthcare": "pharmacy", "name": "Belv\u00e1rosi Gy\u00f3gyszert\u00e1r"}}, {"type": "node", "id": 2910768734, "lat": 47.5245819, "lon": 21.5988813, "tags": {"addr:city": "Debrecen", "addr:housenumber": "46", "addr:postcode": "4031", "addr:street": "Der\u00e9k utca", "amenity": "pharmacy", "brand": "Benu", "contact:phone": "+36 52 326 666", "name": "Kigy\u00f3 Gy\u00f3gyszert\u00e1r", "opening_hours": "Mo-Fr 08:00-18:00; Sa 08:00-13:00", "operator": "K\u00edgy\u00f3 Patika Bt."}}, {"type": "node", "id": 2910768738, "lat": 47.5260063, "lon": 21.6167316, "tags": {"addr:city": "Debrecen", "addr:housenumber": "5-7", "addr:postcode": "4025", "addr:street": "Nyugati utca", "amenity": "pharmacy", "description": "Kedves elad\u00f3k, j\u00f3 v\u00e1laszt\u00e9k, kedden \u00e9s p\u00e9nteken 10% kedvezm\u00e9ny sok term\u00e9kre", "healthcare": "pharmacy", "name": "Nyugati utcai Gy\u00f3gyszert\u00e1r", "opening_hours": "Mo-Fr 08:00-19:00; Sa 08:00-13:00", "phone": "+36 52 417 777"}}, {"type": "node", "id": 2939669631, "lat": 47.5184888, "lon": 21.6627331, "tags": {"amenity": "pharmacy", "dispensing": "yes", "healthcare": "pharmacy", "name": "H\u00e1rs Gy\u00f3gyszert\u00e1r", "opening_hours": "Mo-Fr 08:00-12:00,14:00-18:30"}}, {"type": "node", "id": 3000594587, "lat": 47.2230259, "lon": 21.5367862, "tags": {"amenity": "pharmacy", "healthcare": "pharmacy", "name": "Elix\u00edr Gy\u00f3gyszert\u00e1r", "wheelchair": "no"}}, {"type": "node", "id": 3000594589, "lat": 47.2238782, "lon": 21.5350241, "tags": {"amenity": "pharmacy", "healthcare": "pharmacy", "name": "Ibolya Gy\u00f3gyszert\u00e1r", "wheelchair": "yes"}}, {"type": "node", "id": 3000594591, "lat": 47.2262037, "lon": 21.5427144}, {"type": "node", "id": 3000594592, "lat": 47.2263569, "lon": 21.5434249, "tags": {"amenity": "pharmacy", "healthcare": "pharmacy"}}, {"type": "node", "id": 3000594599, "lat": 47.2011538, "lon": 21.5372896, "tags": {"amenity": "pharmacy", "name": "Szentm\u00e1rton Patika"}}, {"type": "node", "id": 3088235365, "lat": 47.5346211, "lon": 21.6332163, "tags": {"amenity": "pharmacy", "healthcare": "pharmacy", "name": "Arany Oroszl\u00e1n Gy\u00f3gyszert\u00e1r", "opening_hours": "Mo-Sa 07:30-20:00", "wheelchair": "yes"}}, {"type": "node", "id": 3184399762, "lat": 47.5307564, "lon": 21.6256003, "tags": {"addr:city": "Debrecen", "addr:housenumber": "1", "addr:postcode": "4024", "addr:street": "Csap\u00f3 utca", "amenity": "pharmacy", "brand": "Benu", "contact:facebook": "https://www.facebook.com/profile.php?id=100057440109943", "email": "fenyes.patika@gmail.com", "name": "F\u00e9nyes Patika", "opening_hours": "Mo-Su 07:00-22:00", "phone": "+36 52 52 532 839", "wheelchair": "no"}}, {"type": "node", "id": 3184435262, "lat": 47.5317986, "lon": 21.6232953, "tags": {"addr:city": "Debrecen", "addr:housenumber": "1", "addr:postcode": "4025", "addr:street": "Hatvan utca", "amenity": "pharmacy", "healthcare": "pharmacy", "name": "Nap patika", "wheelchair": "yes"}}, {"type": "node", "id": 3411854661, "lat": 47.4472824, "lon": 21.3888817, "tags": {"addr:city": "Hajd\u00faszoboszl\u00f3", "addr:housenumber": "30", "addr:postcode": "4200", "addr:street": "Bethlen utca", "amenity": "pharmacy", "healthcare": "pharmacy", "name": "Kamilla Patika", "website": "http://www.kamilla-patika.hu/"}}, {"type": "node", "id": 3437026959, "lat": 47.5410439, "lon": 21.6213727, "tags": {"addr:city": "Debrecen", "addr:housenumber": "4", "addr:postcode": "4027", "addr:street": "\u0170rhaj\u00f3sok tere", "amenity": "pharmacy", "branch": "Angyal Patika", "brand": "Gy\u00f6ngy Patik\u00e1k", "contact:email": "iroda@angyalpatika.t-online.hu", "contact:fax": "+36 52 530 185", "contact:phone": "+36 52 530 185", "contact:website": "http://www.angyaldebrecen.novodata.hu/", "dispensing": "yes", "healthcare": "pharmacy", "name": "Angyal Patika", "opening_hours": "Mo-Fr 08:00-18:00", "operator": "Angyal Patika Bt.", "payment:cash": "yes", "payment:maestro": "yes", "payment:mastercard": "yes", "payment:visa": "yes", "payment:visa_electron": "yes", "source": "turistautak.hu", "source:date": "2014-08-15", "url": "http://turistautak.hu/poi.php?id=35044"}}, {"type": "node", "id": 3437027320, "lat": 47.521791, "lon": 21.623583, "tags": {"amenity": "pharmacy", "healthcare": "pharmacy", "name": "Erzs\u00e9bet patika", "source": "turistautak.hu", "source:date": "2010-05-10", "url": "http://turistautak.hu/poi.php?id=80814"}}, {"type": "node", "id": 3437027379, "lat": 47.5303452, "lon": 21.656389}, {"type": "node", "id": 3437027388, "lat": 47.5318641, "lon": 21.6279834, "tags": {"addr:city": "Debrecen", "addr:housenumber": "22", "addr:postcode": "4029", "addr:street": "Csap\u00f3 utca", "amenity": "pharmacy", "healthcare": "pharmacy", "name": "Levendula Patika", "source": "turistautak.hu", "source:date": "2009-04-01", "url": "http://turistautak.hu/poi.php?id=68414", "wheelchair": "yes"}}, {"type": "node", "id": 3437027469, "lat": 47.5419407, "lon": 21.6553308, "tags": {"addr:city": "Debrecen", "addr:housenumber": "5", "addr:postcode": "4033", "addr:street": "S\u00fcveg utca", "amenity": "pharmacy", "contact:fax": "+36 52 417 884", "email": "csapokertipatika4033@gmail.com", "healthcare": "pharmacy", "name": "Csap\u00f3kerti Patika", "opening_hours": "Mo-Fr 08:00-19:00", "operator": "Csap\u00f3kerti Gy\u00f3gyszer\u00e9sz Bt.", "phone": "+36 52 417 884", "website": "http://www.csapokertidebrecen.novodata.hu/"}}, {"type": "node", "id": 3437027506, "lat": 47.514617, "lon": 21.628583, "tags": {"amenity": "pharmacy", "healthcare": "pharmacy", "name": "Menta gy\u00f3gyszert\u00e1r", "source": "turistautak.hu", "source:date": "2014-05-23", "url": "http://turistautak.hu/poi.php?id=168819"}}, {"type": "node", "id": 3437027507, "lat": 47.5292156, "lon": 21.6585232, "tags": {"amenity": "pharmacy", "contact:phone": "+36 52 416 627", "description": "4034 Debrecen, Farakt\u00e1r \u00fat 86. Tel.: (52) 416 627 Nyitvatart\u00e1s: H\u00e9tf\u0151-P\u00e9ntek: 8:00-19:00 Szombat-Vas\u00e1rnap: Z\u00e1rva", "healthcare": "pharmacy", "name": "M\u00e1ty\u00e1s Kir\u00e1ly Gy\u00f3gyszert\u00e1r", "source": "turistautak.hu", "source:date": "2011-10-25", "url": "http://turistautak.hu/poi.php?id=126797"}}, {"type": "node", "id": 3437027553, "lat": 47.529517, "lon": 21.615267, "tags": {"amenity": "pharmacy", "description": "Nyitva tart\u00e1s: H-P: 7:00-21:00 Szo: 8:00-19:00 V: 9:00-13:00", "healthcare": "pharmacy", "name": "Sas patika \u00e9s reformh\u00e1z", "source": "turistautak.hu", "source:date": "2014-09-29", "url": "http://turistautak.hu/poi.php?id=172500"}}, {"type": "node", "id": 3437027561, "lat": 47.518083, "lon": 21.6365, "tags": {"amenity": "pharmacy", "name": "Szenth\u00e1roms\u00e1g gy\u00f3gyszert\u00e1r", "source": "turistautak.hu", "source:date": "2011-05-03", "url": "http://turistautak.hu/poi.php?id=84630"}}, {"type": "node", "id": 3437027562, "lat": 47.548177, "lon": 21.6441419, "tags": {"amenity": "pharmacy", "drive_through": "no", "healthcare": "pharmacy", "name": "Szigligeti Gy\u00f3gyszert\u00e1r", "source": "turistautak.hu", "source:date": "2011-05-03", "url": "http://turistautak.hu/poi.php?id=61245"}}, {"type": "node", "id": 3437028450, "lat": 47.5240789, "lon": 21.6272452, "tags": {"addr:city": "Debrecen", "amenity": "pharmacy", "healthcare": "pharmacy", "source": "turistautak.hu", "source:date": "2013-12-01", "url": "http://turistautak.hu/poi.php?id=163443"}}, {"type": "node", "id": 3445367458, "lat": 47.2087244, "lon": 21.6396369, "tags": {"addr:city": "V\u00e1ncsod", "addr:housenumber": "13", "addr:postcode": "4119", "addr:street": "Kossuth Lajos utca", "amenity": "pharmacy", "healthcare": "pharmacy", "name": "Gy\u00f6ngy Patika", "source": "turistautak.hu", "source:date": "2010-10-06", "url": "http://turistautak.hu/poi.php?id=102646"}}, {"type": "node", "id": 3445367459, "lat": 47.246532, "lon": 21.701131, "tags": {"amenity": "pharmacy", "healthcare": "pharmacy", "name": "Patika", "source": "turistautak.hu", "source:date": "2010-05-16", "url": "http://turistautak.hu/poi.php?id=82707"}}, {"type": "node", "id": 3445368182, "lat": 47.128513, "lon": 21.456768, "tags": {"amenity": "pharmacy", "healthcare": "pharmacy", "source": "turistautak.hu", "source:date": "2011-02-22", "url": "http://turistautak.hu/poi.php?id=111290"}}, {"type": "node", "id": 3445368189, "lat": 47.1301127, "lon": 21.7168379, "tags": {"amenity": "pharmacy", "drive_through": "no", "healthcare": "pharmacy", "name": "Gy\u00f3gyszert\u00e1r, Patika", "operator": "REMEDIUM 2000. GY\u00d3GYSZERT\u00c1R", "source": "turistautak.hu", "source:date": "2010-05-16", "url": "http://turistautak.hu/poi.php?id=67793"}}, {"type": "node", "id": 3445368203, "lat": 47.133601, "lon": 21.430292, "tags": {"amenity": "pharmacy", "healthcare": "pharmacy", "source": "turistautak.hu", "source:date": "2010-05-16", "url": "http://turistautak.hu/poi.php?id=87385"}}, {"type": "node", "id": 3456352637, "lat": 47.252665, "lon": 21.354982, "tags": {"amenity": "pharmacy", "healthcare": "pharmacy", "name": "Orvos \u00e9s Gy\u00f3gyszert\u00e1r", "source": "turistautak.hu", "source:date": "2010-05-16", "url": "http://turistautak.hu/poi.php?id=80581"}}, {"type": "node", "id": 3462321066, "lat": 47.3966908, "lon": 21.7715972, "tags": {"addr:city": "Monostorp\u00e1lyi", "addr:housenumber": "4", "addr:postcode": "4275", "addr:street": "Landler t\u00e9r", "amenity": "pharmacy", "dispensing": "yes", "healthcare": "pharmacy", "name": "Arany Sas Gy\u00f3gyszert\u00e1r Fi\u00f3kgy\u00f3gyszert\u00e1ra", "opening_hours": "Mo-Fr 09:15-12:30; Sa-Su off", "phone": "+36 52 375 110", "source": "turistautak.hu", "source:date": "2014-08-15", "url": "http://turistautak.hu/poi.php?id=97682"}}, {"type": "node", "id": 3462323064, "lat": 47.316484, "lon": 21.671025, "tags": {"amenity": "pharmacy", "source": "turistautak.hu", "source:date": "2011-09-23", "url": "http://turistautak.hu/poi.php?id=62043"}}, {"type": "node", "id": 3479922423, "lat": 47.4473, "lon": 21.396283, "tags": {"addr:city": "Hajd\u00faszoboszl\u00f3", "addr:housenumber": "26", "addr:postcode": "4200", "addr:street": "Szilf\u00e1kalja", "amenity": "pharmacy", "brand": "Gy\u00f6ngy Patik\u00e1k", "check_date": "2023-08-03", "contact:phone": "+36 52 557 946", "dispensing": "yes", "name": "F\u00fcrd\u0151 gy\u00f3gyszert\u00e1r", "opening_hours": "Mo-Fr 08:00-19:00; Sa 08:00-13:00; Su off", "payment:mastercard": "yes", "payment:visa": "yes", "source": "turistautak.hu", "source:date": "2011-05-03", "toilets:wheelchair": "no", "url": "http://turistautak.hu/poi.php?id=10946", "wheelchair": "yes"}}, {"type": "node", "id": 3520336469, "lat": 47.5350125, "lon": 21.6073179, "tags": {"amenity": "pharmacy", "healthcare": "pharmacy"}}, {"type": "node", "id": 3520336470, "lat": 47.5339749, "lon": 21.6066253, "tags": {"amenity": "pharmacy", "healthcare": "pharmacy"}}, {"type": "node", "id": 3818854300, "lat": 47.5389507, "lon": 21.6144888, "tags": {"amenity": "pharmacy", "brand": "Benu", "brand:wikidata": "Q62562792", "healthcare": "pharmacy", "name": "BENU Gy\u00f3gyszert\u00e1r", "opening_hours": "Mo-Fr 08:00-19:00"}}, {"type": "node", "id": 3856599996, "lat": 47.5421694, "lon": 21.6200146, "tags": {"addr:city": "Debrecen", "addr:housenumber": "27", "addr:postcode": "4027", "addr:street": "F\u00fcredi \u00fat", "amenity": "pharmacy", "brand": "Benu", "brand:wikidata": "Q62562792", "email": "civismalom@gmail.com;civispharma@gmail.com", "healthcare": "pharmacy", "name": "Malom Patika", "opening_hours": "Mo-Fr 08:00-20:00; Sa 08:00-18:00", "phone": "+36 52 541 880"}}, {"type": "node", "id": 3902316432, "lat": 47.5327168, "lon": 21.6210809, "tags": {"amenity": "pharmacy", "healthcare": "pharmacy"}}, {"type": "node", "id": 4053742829, "lat": 47.5320625, "lon": 21.6434316, "tags": {"addr:city": "Debrecen", "addr:housenumber": "11", "addr:postcode": "4029", "addr:street": "V\u00edztorony utca", "amenity": "pharmacy", "contact:facebook": "https://www.facebook.com/PharmagitaGyogyszertar/", "contact:fax": "+36 52 412 584", "email": "gyogyszertar@pharmagita.hu", "healthcare": "pharmacy", "name": "Pharmagita", "opening_hours": "Mo-Fr 08:00-19:00; Sa 08:00-13:00", "operator": "Pharmagita Bt.", "phone": "+36 52 412 584", "website": "http://www.pharmagitadebrecen.novodata.hu/"}}, {"type": "node", "id": 4053742837, "lat": 47.5314655, "lon": 21.6381877, "tags": {"addr:city": "Debrecen", "addr:housenumber": "22", "addr:postcode": "4029", "addr:street": "Cegl\u00e9d utca", "amenity": "pharmacy", "drive_through": "no", "healthcare": "pharmacy", "name": "K\u00e9t Arany Gy\u00f3gyszert\u00e1r", "operator": "Pharmagita Bt.", "phone": "+36 52 417 281"}}, {"type": "node", "id": 4673993089, "lat": 47.5165664, "lon": 21.6035282, "tags": {"addr:city": "Debrecen", "addr:housenumber": "1-3", "addr:postcode": "4031", "addr:street": "T\u00f3c\u00f3skert t\u00e9r", "amenity": "pharmacy", "brand": "Szimpatika", "contact:facebook": "https://www.facebook.com/tocospatika/", "dispensing": "yes", "email": "info@tocospatika.hu", "name": "T\u00f3c\u00f3s Patika", "opening_hours": "Mo-Fr 07:30-19:00; Sa 08:00-12:00", "operator": "T\u00f3c\u00f3skert T\u00e9ri Patika Kft.", "phone": "+36 52 782 028", "website": "https://tocospatika.hu/"}}, {"type": "node", "id": 4758185654, "lat": 47.522444, "lon": 21.6016284}, {"type": "node", "id": 4758185656, "lat": 47.5224442, "lon": 21.6014136}, {"type": "node", "id": 4758185657, "lat": 47.5224587, "lon": 21.6013787}, {"type": "node", "id": 4758185658, "lat": 47.5226036, "lon": 21.6013814}, {"type": "node", "id": 4758185659, "lat": 47.5226688, "lon": 21.6014243}, {"type": "node", "id": 4758185661, "lat": 47.5226723, "lon": 21.6016211}, {"type": "node", "id": 4761475960, "lat": 47.5225814, "lon": 21.6016247}, {"type": "node", "id": 4967727741, "lat": 47.5348582, "lon": 21.6249668, "tags": {"addr:city": "Debrecen", "amenity": "pharmacy", "brand": "Benu", "brand:wikidata": "Q62562792", "healthcare": "pharmacy", "name": "Benu"}}, {"type": "node", "id": 6261217842, "lat": 47.2262688, "lon": 21.5440465}, {"type": "node", "id": 6261217843, "lat": 47.2262887, "lon": 21.5441376}, {"type": "node", "id": 6261217844, "lat": 47.226307, "lon": 21.5441289}, {"type": "node", "id": 6261217845, "lat": 47.2263342, "lon": 21.5442532}, {"type": "node", "id": 6261217846, "lat": 47.2263182, "lon": 21.5442608}, {"type": "node", "id": 6261217847, "lat": 47.2263408, "lon": 21.5443645}, {"type": "node", "id": 6261217848, "lat": 47.2262252, "lon": 21.5444192}, {"type": "node", "id": 6261217849, "lat": 47.2261755, "lon": 21.5441916}, {"type": "node", "id": 6261217850, "lat": 47.2261458, "lon": 21.5442056}, {"type": "node", "id": 6261217851, "lat": 47.2261259, "lon": 21.5441142}, {"type": "node", "id": 6285167662, "lat": 47.4431718, "lon": 21.3896751, "tags": {"addr:city": "Hajd\u00faszoboszl\u00f3", "amenity": "pharmacy", "name": "Gy\u00f3gyforr\u00e1s", "opening_hours": "Mo-Sa 07:30-18:00"}}, {"type": "node", "id": 7369708016, "lat": 47.5371908, "lon": 21.6231417, "tags": {"addr:city": "Debrecen", "addr:door": "1", "addr:housenumber": "13", "addr:postcode": "4026", "addr:street": "Thaly K\u00e1lm\u00e1n utca", "amenity": "pharmacy", "contact:email": "thaly.gyogyszertar@pagus.hu", "contact:facebook": "https://www.facebook.com/ThalyPatika/", "contact:fax": "+36 52 530 084", "contact:mobile": "+36 30 894 1197", "contact:phone": "+36 52 348 497", "contact:website": "http://www.pagus.hu", "dispensing": "yes", "healthcare": "pharmacy", "level": "0", "name": "Thaly Patika", "official_name": "Thaly K\u00e1lm\u00e1n Utcai Gy\u00f3gyszert\u00e1r", "opening_hours": "Mo-Fr 08:00-18:00", "operator": "PAGUS Gy\u00f3gyszert\u00e1r Kft.", "payment:cash": "yes", "payment:maestro": "yes", "payment:mastercard": "yes", "payment:visa": "yes", "payment:visa_electron": "yes", "wheelchair": "limited"}}, {"type": "node", "id": 7373322483, "lat": 47.5411086, "lon": 21.6249072, "tags": {"addr:city": "Debrecen", "addr:door": "1", "addr:housenumber": "10", "addr:postcode": "4026", "addr:street": "Bem t\u00e9r", "addr:unit": "A", "amenity": "pharmacy", "contact:facebook": "https://www.facebook.com/pilulapatika/", "contact:fax": "+36 52 530 020", "dispensing": "yes", "email": "info@pilulapatika.com", "level": "0", "name": "Pilula Patika", "official_name": "Pilula Patika Gy\u00f3gyszert\u00e1r", "opening_hours": "Apr 01-Sep 30 Mo-Fr 08:00-17:00; Oct 01-Mar 30 Mo-Fr 08:00-18:00", "operator": "PILULA PATIKA Bt.", "payment:cash": "yes", "payment:maestro": "yes", "payment:mastercard": "yes", "payment:visa": "yes", "payment:visa_electron": "yes", "phone": "+36 52 417 102;+36 52 530 020", "website": "http://www.pilulapatika.com/", "wheelchair": "no"}}, {"type": "node", "id": 9177724485, "lat": 47.3908647, "lon": 21.7357938}, {"type": "node", "id": 9177724486, "lat": 47.3907738, "lon": 21.7357925}, {"type": "node", "id": 9177724487, "lat": 47.3907757, "lon": 21.7359729}, {"type": "node", "id": 9177724488, "lat": 47.3907526, "lon": 21.7359735}, {"type": "node", "id": 9177724489, "lat": 47.3907534, "lon": 21.7360467}, {"type": "node", "id": 9177724490, "lat": 47.3908674, "lon": 21.736044}, {"type": "node", "id": 9321662236, "lat": 47.2011888, "lon": 21.5371151}, {"type": "node", "id": 9321662237, "lat": 47.2011183, "lon": 21.5372543}, {"type": "node", "id": 9321662238, "lat": 47.2012126, "lon": 21.5373577}, {"type": "node", "id": 9321662239, "lat": 47.201283, "lon": 21.5372185}, {"type": "node", "id": 9418218733, "lat": 47.390834, "lon": 21.7357936}, {"type": "node", "id": 9809148214, "lat": 47.3930694, "lon": 21.6646482}, {"type": "node", "id": 9809148215, "lat": 47.3929904, "lon": 21.664663}, {"type": "node", "id": 9809148216, "lat": 47.3929766, "lon": 21.6645013}, {"type": "node", "id": 9809148217, "lat": 47.3930556, "lon": 21.6644865}, {"type": "node", "id": 9833437051, "lat": 47.4402791, "lon": 21.6355446}, {"type": "node", "id": 9833437052, "lat": 47.4401803, "lon": 21.6356304}, {"type": "node", "id": 9833437053, "lat": 47.4401449, "lon": 21.6355412}, {"type": "node", "id": 9833437054, "lat": 47.4402437, "lon": 21.6354554}, {"type": "node", "id": 10908403101, "lat": 47.2831465, "lon": 21.7760361, "tags": {"amenity": "pharmacy", "healthcare": "pharmacy"}}, {"type": "node", "id": 11088749363, "lat": 47.2261291, "lon": 21.5421764}, {"type": "node", "id": 11088749364, "lat": 47.2261062, "lon": 21.5427053}, {"type": "node", "id": 11088749365, "lat": 47.2262266, "lon": 21.5421855}, {"type": "node", "id": 11681874938, "lat": 47.5303668, "lon": 21.6561622}, {"type": "node", "id": 11681874939, "lat": 47.5304471, "lon": 21.6563749}, {"type": "node", "id": 11681874940, "lat": 47.5304332, "lon": 21.6561531}, {"type": "node", "id": 11868491886, "lat": 47.4071647, "lon": 21.6290603}, {"type": "node", "id": 11868491887, "lat": 47.4071567, "lon": 21.6292355}, {"type": "node", "id": 11868491888, "lat": 47.4071881, "lon": 21.6293469}, {"type": "node", "id": 11868491889, "lat": 47.4072776, "lon": 21.6293558}, {"type": "node", "id": 11868491890, "lat": 47.4072905, "lon": 21.6290728}, {"type": "node", "id": 12167718126, "lat": 47.3893078, "lon": 21.4724644, "tags": {"amenity": "pharmacy", "brand": "Benu", "brand:wikidata": "Q62562792", "healthcare": "pharmacy", "name": "Benu"}}, {"type": "node", "id": 12208751680, "lat": 47.3861445, "lon": 21.8673351, "tags": {"amenity": "pharmacy", "brand": "Benu", "brand:wikidata": "Q62562792", "healthcare": "pharmacy", "name": "Benu", "opening_hours": "Mo-Fr 08:30-11:30"}}, {"type": "node", "id": 12208768507, "lat": 47.3823691, "lon": 21.8920845, "tags": {"addr:city": "L\u00e9tav\u00e9rtes", "addr:housenumber": "2", "addr:postcode": "4281", "addr:street": "\u00c1rp\u00e1d t\u00e9r", "amenity": "pharmacy", "brand": "Benu", "brand:wikidata": "Q62562792", "contact:email": "irinyigyt@gmail.com", "contact:phone": "+36 52 376 144", "healthcare": "pharmacy", "name": "Benu", "opening_hours": "Mo-Fr 08:00-17:00; Sa 08:00-12:00", "operator": "Irinyi J\u00e1nos Gy\u00f3gyszert\u00e1r"}}, {"type": "node", "id": 12384674463, "lat": 47.5277076, "lon": 21.5848678, "tags": {"alt_name": "Rem\u00e9nys\u00e9g Patika", "amenity": "pharmacy", "brand": "Alma Gy\u00f3gyszert\u00e1r", "brand:website": "https://almapatika.hu", "brand:wikidata": "Q105626221", "contact:facebook": "https://www.facebook.com/profile.php?id=100038285506699", "contact:phone": "+36 52 532 833", "healthcare": "pharmacy", "name": "Alma Gy\u00f3gyszert\u00e1r", "opening_hours": "Mo-Fr 08:00-17:15"}}, {"type": "node", "id": 12544095344, "lat": 47.5338958, "lon": 21.6284003, "tags": {"amenity": "pharmacy", "brand": "Benu", "brand:wikidata": "Q62562792", "healthcare": "pharmacy", "name": "Benu"}}, {"type": "node", "id": 12862449639, "lat": 47.5276107, "lon": 21.6353886, "tags": {"amenity": "pharmacy", "healthcare": "pharmacy", "name": "Szent Anna Gy\u00f3gyszert\u00e1r"}}, {"type": "node", "id": 12993962944, "lat": 47.5390765, "lon": 21.6387278, "tags": {"amenity": "pharmacy", "healthcare": "pharmacy", "name": "Kassai \u00fati Patika"}}, {"type": "node", "id": 13068898675, "lat": 47.5303681, "lon": 21.656184}, {"type": "node", "id": 13068898676, "lat": 47.5303415, "lon": 21.6561969}, {"type": "node", "id": 13068898677, "lat": 47.5303356, "lon": 21.6562366}, {"type": "node", "id": 13068898678, "lat": 47.530358, "lon": 21.6561854}, {"type": "node", "id": 13068898679, "lat": 47.530335, "lon": 21.6562216}, {"type": "node", "id": 13068898680, "lat": 47.5303489, "lon": 21.6561886}, {"type": "node", "id": 13068898681, "lat": 47.5303371, "lon": 21.6562074}, {"type": "node", "id": 13068898684, "lat": 47.5303834, "lon": 21.6563838}, {"type": "node", "id": 13068898701, "lat": 47.530392, "lon": 21.6561587}, {"type": "node", "id": 13068898702, "lat": 47.5303449, "lon": 21.6561916}, {"type": "node", "id": 13068898703, "lat": 47.5303534, "lon": 21.6561864}, {"type": "node", "id": 13068898704, "lat": 47.5303393, "lon": 21.6562018}, {"type": "way", "id": 219803368, "nodes": [2289351250, 2289351264, 2289351231, 2289351220, 2289351241, 2289351234, 2289351250], "tags": {"addr:city": "Derecske", "addr:housenumber": "89", "addr:postcode": "4130", "addr:street": "K\u00f6zt\u00e1rsas\u00e1g \u00fat", "amenity": "pharmacy", "building": "yes", "healthcare": "pharmacy", "name": "Ranunculus Gy\u00f3gyszert\u00e1r"}}, {"type": "way", "id": 483064422, "nodes": [4758185654, 4758185656, 4758185657, 4758185658, 4758185659, 4758185661, 4761475960, 4758185654], "tags": {"amenity": "pharmacy", "building": "yes", "name": "F\u0151nix patika"}}, {"type": "way", "id": 668603831, "nodes": [6261217842, 6261217843, 6261217844, 6261217845, 6261217846, 6261217847, 6261217848, 6261217849, 6261217850, 6261217851, 6261217842], "tags": {"amenity": "pharmacy", "building": "yes", "healthcare": "pharmacy", "name": "Int\u00e9zeti gy\u00f3gyszert\u00e1r"}}, {"type": "way", "id": 993399859, "nodes": [9177724485, 9418218733, 9177724486, 9177724487, 9177724488, 9177724489, 9177724490, 9177724485], "tags": {"addr:city": "Hossz\u00fap\u00e1lyi", "addr:housenumber": "1", "addr:postcode": "4274", "addr:street": "Kossuth Lajos utca", "amenity": "pharmacy", "building": "yes", "dispensing": "yes", "healthcare": "pharmacy", "name": "Arany Sas Gy\u00f3gyszert\u00e1r"}}, {"type": "way", "id": 1010286084, "nodes": [9321662236, 9321662237, 9321662238, 9321662239, 9321662236], "tags": {"amenity": "pharmacy", "building": "yes", "dispensing": "yes", "healthcare": "pharmacy", "name": "Szentm\u00e1rton patika"}}, {"type": "way", "id": 1068571256, "nodes": [9809148217, 9809148214, 9809148215, 9809148216, 9809148217], "tags": {"addr:city": "Hajd\u00fabagos", "addr:housenumber": "85", "addr:postcode": "4273", "addr:street": "Nagy utca", "amenity": "pharmacy", "building": "yes", "contact:phone": "+36 52 374 151", "name": "Fekete G\u00f3lya gy\u00f3gyszert\u00e1r"}}, {"type": "way", "id": 1071604095, "nodes": [9833437054, 9833437051, 9833437052, 9833437053, 9833437054], "tags": {"addr:city": "Mikep\u00e9rcs", "addr:housenumber": "12", "addr:postcode": "4271", "addr:street": "Orosz Istv\u00e1n utca", "amenity": "pharmacy", "brand": "Benu", "brand:wikidata": "Q62562792", "building": "yes", "dispensing": "yes", "healthcare": "pharmacy", "name": "Benu", "opening_hours": "Mo-Fr 08:00-18:00; Sa 08:00-13:00; Su off; PH off", "payment:cards": "yes", "payment:cash": "yes", "wheelchair": "yes"}}, {"type": "way", "id": 1194687472, "nodes": [11088749365, 3000594591, 11088749364, 11088749363, 11088749365], "tags": {"addr:city": "Beretty\u00f3\u00fajfalu", "addr:housenumber": "5", "addr:postcode": "4100", "addr:street": "Orb\u00e1n Bal\u00e1zs t\u00e9r", "amenity": "pharmacy", "building": "yes", "contact:phone": "+36 54 500 201", "healthcare": "pharmacy", "name": "Beretty\u00f3 Patika - Kulcs Patik\u00e1k", "opening_hours": "Mo-Fr 08:00-17:00; Sa-Su off; PH off"}}, {"type": "way", "id": 1256599373, "nodes": [11681874940, 11681874939, 13068898684, 3437027379, 13068898677, 13068898679, 13068898681, 13068898704, 13068898676, 13068898702, 13068898680, 13068898703, 13068898678, 13068898675, 11681874938, 13068898701, 11681874940], "tags": {"addr:city": "Debrecen", "addr:housenumber": "2", "addr:postcode": "4034", "addr:street": "Thury Andr\u00e1s utca", "amenity": "pharmacy", "building": "yes", "contact:phone": "+36 52 530 410", "dispensing": "yes", "drive_through": "no", "healthcare": "pharmacy", "name": "Krist\u00e1ly Gy\u00f3gyszert\u00e1r", "opening_hours": "Mo-Fr 08:00-19:00; Sa 08:00-13:00; Su off; PH off"}}, {"type": "way", "id": 1278430485, "nodes": [11868491890, 11868491889, 11868491888, 2814610303, 11868491887, 11868491886, 11868491890], "tags": {"addr:city": "S\u00e1r\u00e1nd", "addr:housenumber": "40", "addr:postcode": "4272", "addr:street": "Nagy utca", "amenity": "pharmacy", "building": "yes", "name": "S\u00e1r\u00e1ndi Patika Gy\u00f3gyszert\u00e1r", "opening_hours": "Mo-Fr 08:00-18:00; Sa 08:00-12:00; Su off; PH off"}}]}