{"version": 0.6, "generator": "Overpass API 0.7.62.8 e802775f", "osm3s": {"timestamp_osm_base": "2025-10-06T07:57:45Z", "copyright": "The data included in this document is from www.openstreetmap.org. The data is made available under ODbL."}, "elements": [{"type": "node", "id": 366255658, "lat": 45.2566198, "lon": 19.8137797, "tags": {"amenity": "pharmacy", "dispensing": "no", "healthcare": "pharmacy", "name": "Jankovi\u0107", "name:en": "Jankovic", "name:sr": "\u0408\u0430\u043d\u043a\u043e\u0432\u0438\u045b", "name:sr-Latn": "Jankovi\u0107", "opening_hours": "Mo-Fr 07:00-24:00"}}, {"type": "node", "id": 432829056, "lat": 45.2540271, "lon": 19.8484023, "tags": {"amenity": "pharmacy", "branch": "\u0410\u043f\u043e\u0442\u0435\u043a\u0430 \u201e\u0411\u0443\u043b\u0435\u0432\u0430\u0440\u201c", "brand": "Benu", "brand:wikidata": "Q62562792", "check_date": "2024-04-20", "dispensing": "yes", "healthcare": "pharmacy", "name": "Benu", "name:sr": "\u0410\u043f\u043e\u0442\u0435\u043a\u0430 \u201e\u0411\u0443\u043b\u0435\u0432\u0430\u0440\u201c", "name:sr-Latn": "Apoteka \u201eBulevar\u201c", "opening_hours": "24/7"}}, {"type": "node", "id": 432887687, "lat": 45.256701, "lon": 19.8436885, "tags": {"addr:housenumber": "16", "addr:postcode": "21000", "addr:street": "\u040a\u0435\u0433\u043e\u0448\u0435\u0432\u0430", "amenity": "pharmacy", "check_date:opening_hours": "2023-08-10", "dispensing": "yes", "healthcare": "pharmacy", "name": "Jankovi\u0107", "opening_hours": "Mo-Su 07:00-22:00", "toilets:wheelchair": "no", "wheelchair": "no"}}, {"type": "node", "id": 442093070, "lat": 45.2438199, "lon": 19.8476131, "tags": {"amenity": "pharmacy", "check_date": "2025-02-06", "check_date:opening_hours": "2025-02-06", "healthcare": "pharmacy", "int_name": "Jankovic", "name": "\u0408\u0430\u043d\u043a\u043e\u0432\u0438\u045b", "name:sr": "\u0408\u0430\u043d\u043a\u043e\u0432\u0438\u045b", "name:sr-Latn": "Jankovi\u0107", "opening_hours": "Mo-Su 07:30-21:30", "wheelchair": "no"}}, {"type": "node", "id": 447586540, "lat": 45.2581559, "lon": 19.8490422, "tags": {"amenity": "pharmacy", "healthcare": "pharmacy", "int_name": "Dunav", "name": "\u0414\u0443\u043d\u0430\u0432", "name:sr": "\u0414\u0443\u043d\u0430\u0432", "name:sr-Latn": "Dunav"}}, {"type": "node", "id": 599731661, "lat": 44.9854, "lon": 20.1601363, "tags": {"amenity": "pharmacy", "int_name": "Zuska", "name": "\u0417\u0443\u0441\u043a\u0430", "name:sr": "\u0417\u0443\u0441\u043a\u0430", "name:sr-Latn": "Zuska"}}, {"type": "node", "id": 599731665, "lat": 44.9845718, "lon": 20.1606282, "tags": {"amenity": "pharmacy", "brand": "Lilly", "brand:wikidata": "Q111764460", "healthcare": "pharmacy", "int_name": "Lili", "name": "Lilly", "name:en": "Lilly", "name:sr": "\u041b\u0438\u043b\u0438", "name:sr-Latn": "Lili", "opening_hours": "Mo-Fr 08:00-21:00; Sa 08:00-18:00; Su 08:00-14:00", "shop": "chemist"}}, {"type": "node", "id": 873841336, "lat": 45.0197935, "lon": 20.3344346, "tags": {"amenity": "pharmacy", "healthcare": "pharmacy"}}, {"type": "node", "id": 1234236130, "lat": 45.2640505, "lon": 19.8309045, "tags": {"amenity": "pharmacy", "healthcare": "pharmacy", "int_name": "Tilija", "name": "\u0422\u0438\u043b\u0438\u0458\u0430", "name:sr": "\u0422\u0438\u043b\u0438\u0458\u0430", "name:sr-Latn": "Tilija", "wheelchair": "no"}}, {"type": "node", "id": 1533383870, "lat": 45.2377737, "lon": 19.8282376, "tags": {"addr:housenumber": "72", "addr:street": "\u041d\u0430\u0440\u043e\u0434\u043d\u043e\u0433 \u0444\u0440\u043e\u043d\u0442\u0430", "amenity": "pharmacy", "brand": "Benu", "brand:wikidata": "Q62562792", "check_date": "2025-09-11", "dispensing": "no", "email": "nsdrmilojedanilovic407@benu.rs", "healthcare": "pharmacy", "name": "Benu", "opening_hours": "Mo-Fr 07:30-20:30; Sa 07:30-14:30; Su off", "phone": "+381648441856", "wheelchair": "no"}}, {"type": "node", "id": 1533954515, "lat": 45.2373804, "lon": 19.8328639}, {"type": "node", "id": 1533954590, "lat": 45.2373936, "lon": 19.8329105}, {"type": "node", "id": 1533954673, "lat": 45.2374062, "lon": 19.8329668}, {"type": "node", "id": 1533954687, "lat": 45.2374068, "lon": 19.832903}, {"type": "node", "id": 1533954747, "lat": 45.2374223, "lon": 19.8329577}, {"type": "node", "id": 1533954770, "lat": 45.2374233, "lon": 19.8330272}, {"type": "node", "id": 1541601257, "lat": 45.2398319, "lon": 19.8370934}, {"type": "node", "id": 1594773133, "lat": 45.2414184, "lon": 19.8433989}, {"type": "node", "id": 1594773231, "lat": 45.2414479, "lon": 19.843382}, {"type": "node", "id": 1594773514, "lat": 45.2414646, "lon": 19.843562}, {"type": "node", "id": 1594773604, "lat": 45.2414941, "lon": 19.8435451}, {"type": "node", "id": 1596092607, "lat": 45.2419212, "lon": 19.8430669}, {"type": "node", "id": 1596092627, "lat": 45.2419769, "lon": 19.8432696}, {"type": "node", "id": 1596092628, "lat": 45.2420328, "lon": 19.8430049}, {"type": "node", "id": 1596092638, "lat": 45.2420886, "lon": 19.8432077}, {"type": "node", "id": 1596097758, "lat": 45.2437225, "lon": 19.8422872, "tags": {"addr:housenumber": "127", "addr:street": "\u0411\u0443\u043b\u0435\u0432\u0430\u0440 \u043e\u0441\u043b\u043e\u0431\u043e\u0452\u0435\u045a\u0430", "amenity": "pharmacy", "dispensing": "yes", "healthcare": "pharmacy", "name": "\u0408\u0430\u043d\u043a\u043e\u0432\u0438\u045b", "name:en": "Jankovic", "name:sr": "\u0408\u0430\u043d\u043a\u043e\u0432\u0438\u045b", "name:sr-Latn": "Jankovi\u0107", "ref:RS:kucni_broj": "5515705", "survey:date": "2020-05-24", "wheelchair": "no"}}, {"type": "node", "id": 1602854712, "lat": 45.237325, "lon": 19.8328955}, {"type": "node", "id": 1602854715, "lat": 45.2373708, "lon": 19.8330572}, {"type": "node", "id": 1603517406, "lat": 45.2397039, "lon": 19.8371647}, {"type": "node", "id": 1603517515, "lat": 45.2397501, "lon": 19.8373316}, {"type": "node", "id": 1656854577, "lat": 45.1541605, "lon": 20.0211428, "tags": {"amenity": "pharmacy", "dispensing": "no", "int_name": "Cortanovci", "name": "\u0427\u043e\u0440\u0442\u0430\u043d\u043e\u0432\u0446\u0438", "name:sr": "\u0427\u043e\u0440\u0442\u0430\u043d\u043e\u0432\u0446\u0438", "name:sr-Latn": "\u010cortanovci"}}, {"type": "node", "id": 1789117674, "lat": 45.2440325, "lon": 19.8346867, "tags": {"addr:housenumber": "24", "addr:postcode": "21000", "addr:street": "\u0410\u043b\u0435\u043a\u0441\u0435 \u0428\u0430\u043d\u0442\u0438\u045b\u0430", "amenity": "pharmacy", "healthcare": "pharmacy", "int_name": "Sveti Sava", "name": "\u0421\u0432\u0435\u0442\u0438 \u0421\u0430\u0432\u0430", "name:sr": "\u0421\u0432\u0435\u0442\u0438 \u0421\u0430\u0432\u0430", "name:sr-Latn": "Sveti Sava"}}, {"type": "node", "id": 1985538027, "lat": 45.274224, "lon": 19.826945}, {"type": "node", "id": 2103558312, "lat": 45.2514591, "lon": 19.7587777, "tags": {"amenity": "pharmacy", "dispensing": "yes", "healthcare": "pharmacy", "name": "Viva", "source": "survey"}}, {"type": "node", "id": 2288852371, "lat": 45.2499616, "lon": 19.8481224}, {"type": "node", "id": 2288852373, "lat": 45.2499978, "lon": 19.8482394}, {"type": "node", "id": 2288852374, "lat": 45.2500031, "lon": 19.8480964}, {"type": "node", "id": 2288852375, "lat": 45.2500102, "lon": 19.8481194}, {"type": "node", "id": 2288852376, "lat": 45.2500136, "lon": 19.8482903}, {"type": "node", "id": 2288852378, "lat": 45.2500579, "lon": 19.8482627}, {"type": "node", "id": 2288852380, "lat": 45.2500622, "lon": 19.8480869}, {"type": "node", "id": 2288852385, "lat": 45.2500791, "lon": 19.8481416}, {"type": "node", "id": 2288852388, "lat": 45.2501018, "lon": 19.8481274}, {"type": "node", "id": 2288852393, "lat": 45.2501298, "lon": 19.8482177}, {"type": "node", "id": 2298184036, "lat": 45.2593481, "lon": 19.8324514, "tags": {"amenity": "pharmacy", "healthcare": "pharmacy", "name": "Fenix", "opening_hours": "Mo-Sa 07:30-22:00; Su 08:00-22:00", "wheelchair": "no"}}, {"type": "node", "id": 2320159132, "lat": 45.2513087, "lon": 19.8369293}, {"type": "node", "id": 2320162730, "lat": 45.2512877, "lon": 19.8368396}, {"type": "node", "id": 2320162732, "lat": 45.2513734, "lon": 19.8369134}, {"type": "node", "id": 2406287281, "lat": 45.2466208, "lon": 19.7993623, "tags": {"amenity": "pharmacy", "healthcare": "pharmacy"}}, {"type": "node", "id": 2500620858, "lat": 45.2402814, "lon": 19.8470459, "tags": {"amenity": "pharmacy", "healthcare": "pharmacy", "int_name": "Jankovic", "name": "\u0408\u0430\u043d\u043a\u043e\u0432\u0438\u045b", "name:sr": "\u0408\u0430\u043d\u043a\u043e\u0432\u0438\u045b", "name:sr-Latn": "Jankovi\u0107"}}, {"type": "node", "id": 2778402478, "lat": 45.262162, "lon": 19.8437579, "tags": {"amenity": "pharmacy", "dispensing": "yes", "healthcare": "pharmacy", "name": "Mr Tamara"}}, {"type": "node", "id": 2940336104, "lat": 45.2542572, "lon": 19.8081215, "tags": {"addr:housenumber": "20", "addr:street": "\u0420\u0430\u0434\u043e\u043c\u0438\u0440\u0430 \u0420\u0430\u0448\u0435 \u0420\u0430\u0434\u0443\u0458\u043a\u043e\u0432\u0430", "amenity": "pharmacy", "healthcare": "pharmacy", "name": "Jankovi\u0107", "name:en": "Jankovic", "ref:RS:kucni_broj": "5469196"}}, {"type": "node", "id": 3200599750, "lat": 45.2493334, "lon": 19.8741602}, {"type": "node", "id": 3200599752, "lat": 45.2494321, "lon": 19.8740209}, {"type": "node", "id": 3200599753, "lat": 45.2495232, "lon": 19.8741511}, {"type": "node", "id": 3516964023, "lat": 45.2070343, "lon": 19.7239696}, {"type": "node", "id": 3516964024, "lat": 45.2070343, "lon": 19.7240976}, {"type": "node", "id": 3516964025, "lat": 45.20707, "lon": 19.7239696}, {"type": "node", "id": 3516964026, "lat": 45.2070714, "lon": 19.7240976}, {"type": "node", "id": 4029731493, "lat": 45.2513347, "lon": 19.8368184}, {"type": "node", "id": 4029762697, "lat": 45.257129, "lon": 19.833707, "tags": {"amenity": "pharmacy", "brand": "Galen pharm", "brand:wikidata": "Q132851975", "healthcare": "pharmacy", "name": "Galen pharm", "name:sr": "\u0413\u0430\u043b\u0435\u043d \u0444\u0430\u0440\u043c", "name:sr-Latn": "Galen farm"}}, {"type": "node", "id": 4029771489, "lat": 45.254743, "lon": 19.835, "tags": {"amenity": "pharmacy", "healthcare": "pharmacy", "name": "Tilia", "opening_hours": "Mo-Su 00:00-24:00", "wheelchair": "no"}}, {"type": "node", "id": 4029775695, "lat": 45.261166, "lon": 19.831405, "tags": {"amenity": "pharmacy", "brand": "Galen pharm", "brand:wikidata": "Q132851975", "healthcare": "pharmacy", "name": "Galen pharm", "name:en": "Galen Pharm", "name:sr": "\u0413\u0430\u043b\u0435\u043d \u0444\u0430\u0440\u043c", "name:sr-Latn": "Galen farm", "wheelchair": "limited"}}, {"type": "node", "id": 4029799689, "lat": 45.2631101, "lon": 19.8304023, "tags": {"amenity": "pharmacy", "healthcare": "pharmacy", "int_name": "Ibis", "name": "\u0418\u0431\u0438\u0441", "name:sr": "\u0418\u0431\u0438\u0441", "name:sr-Latn": "Ibis", "opening_hours": "Mo-Sa 07:30-21:00; Su 08:00-14:00", "wheelchair": "limited"}}, {"type": "node", "id": 4030947991, "lat": 45.241282, "lon": 19.829986, "tags": {"amenity": "pharmacy", "healthcare": "pharmacy", "name": "Una", "wheelchair": "limited"}}, {"type": "node", "id": 4031121593, "lat": 45.241842, "lon": 19.832044, "tags": {"addr:housenumber": "70", "addr:street": "\u0410\u043b\u0435\u043a\u0441\u0435 \u0428\u0430\u043d\u0442\u0438\u045b\u0430", "amenity": "pharmacy", "healthcare": "pharmacy", "name": "Biljna apoteka", "wheelchair": "yes"}}, {"type": "node", "id": 4031147696, "lat": 45.241488, "lon": 19.830716, "tags": {"amenity": "pharmacy", "healthcare": "pharmacy", "name": "Centar", "wheelchair": "no"}}, {"type": "node", "id": 4031147772, "lat": 45.24129, "lon": 19.829871, "tags": {"amenity": "pharmacy", "healthcare": "pharmacy", "name": "Biljana&Luka", "wheelchair": "limited"}}, {"type": "node", "id": 4031148290, "lat": 45.241475, "lon": 19.830735, "tags": {"amenity": "pharmacy", "healthcare": "pharmacy", "name": "Cebtar", "wheelchair": "no"}}, {"type": "node", "id": 4031216292, "lat": 45.238145, "lon": 19.831167, "tags": {"amenity": "pharmacy", "healthcare": "pharmacy", "name": "\u0408\u0430\u043d\u043a\u043e\u0432\u0438\u045b", "name:en": "Jankovi\u0107", "name:sr": "\u0408\u0430\u043d\u043a\u043e\u0432\u0438\u045b", "name:sr-Latn": "Jankovi\u0107", "opening_hours": "Mo-Su 07:00-22:00", "wheelchair": "limited"}}, {"type": "node", "id": 4031266089, "lat": 45.2398781, "lon": 19.8372603}, {"type": "node", "id": 4031335089, "lat": 45.2419062, "lon": 19.8348364, "tags": {"addr:housenumber": "57", "addr:street": "\u0411\u0443\u043b\u0435\u0432\u0430\u0440 \u0426\u0430\u0440\u0430 \u041b\u0430\u0437\u0430\u0440\u0430", "amenity": "pharmacy", "brand": "Benu", "brand:wikidata": "Q62562792", "check_date": "2025-09-11", "email": "nsliman3@benu.rs", "healthcare": "pharmacy", "name": "Benu", "opening_hours": "Mo-Fr 07:30-20:00; Sa 07:30-15:00; Su 07:30-14:00", "phone": "+381216360729", "source:email": "website", "source:phone": "website", "website": "https://benu.rs", "wheelchair": "no"}}, {"type": "node", "id": 4034893489, "lat": 45.2580891, "lon": 19.8340774, "tags": {"addr:housenumber": "57", "addr:street": "\u0411\u0443\u043b\u0435\u0432\u0430\u0440 \u043e\u0441\u043b\u043e\u0431\u043e\u0452\u0435\u045a\u0430", "amenity": "pharmacy", "healthcare": "pharmacy", "name": "Viva", "opening_hours": "Mo-Fr 07:30-21:30; Sa 07:30-21:00; Su 08:00-15:00", "ref:RS:kucni_broj": "5476674", "toilets:wheelchair": "no", "wheelchair": "no"}}, {"type": "node", "id": 4034895190, "lat": 45.2570846, "lon": 19.8346111, "tags": {"addr:housenumber": "65", "addr:street": "\u0411\u0443\u043b\u0435\u0432\u0430\u0440 \u043e\u0441\u043b\u043e\u0431\u043e\u0452\u0435\u045a\u0430", "amenity": "pharmacy", "healthcare": "pharmacy", "name": "Biljana&Luka", "toilets:wheelchair": "no", "wheelchair": "no"}}, {"type": "node", "id": 4034914789, "lat": 45.2598525, "lon": 19.8321837, "tags": {"addr:housenumber": "30", "addr:street": "\u0411\u0443\u043b\u0435\u0432\u0430\u0440 \u043e\u0441\u043b\u043e\u0431\u043e\u0452\u0435\u045a\u0430", "amenity": "pharmacy", "brand": "dm", "brand:wikidata": "Q266572", "healthcare": "pharmacy", "name": "dm", "opening_hours": "Mo-Fr 08:00-21:00; Sa 09:00-18:00; Su 09:00-15:00", "shop": "chemist", "toilets:wheelchair": "no", "wheelchair": "limited"}}, {"type": "node", "id": 4036940190, "lat": 45.2505855, "lon": 19.838165, "tags": {"addr:housenumber": "18", "addr:street": "\u0410\u0443\u0433\u0443\u0441\u0442\u0430 \u0426\u0435\u0441\u0430\u0440\u0446\u0430", "amenity": "pharmacy", "healthcare": "pharmacy", "name": "Tilia", "name:sr": "\u0422\u0438\u043b\u0438\u0430", "name:sr-Latn": "Tilia", "opening_hours": "Mo-Su 07:00-22:00", "toilets:wheelchair": "no", "wheelchair": "no"}}, {"type": "node", "id": 4036940192, "lat": 45.2486002, "lon": 19.8392652, "tags": {"addr:housenumber": "107", "addr:street": "\u0411\u0443\u043b\u0435\u0432\u0430\u0440 \u043e\u0441\u043b\u043e\u0431\u043e\u0452\u0435\u045a\u0430", "amenity": "pharmacy", "brand": "Dr. Max", "brand:wikidata": "Q56317371", "check_date": "2024-12-07", "healthcare": "pharmacy", "level": "0", "name": "Dr. Max", "toilets:wheelchair": "no", "wheelchair": "no"}}, {"type": "node", "id": 4036946889, "lat": 45.252638, "lon": 19.8370814, "tags": {"addr:street": "\u0411\u0443\u043b\u0435\u0432\u0430\u0440 \u043e\u0441\u043b\u043e\u0431\u043e\u0452\u0435\u045a\u0430", "amenity": "pharmacy", "healthcare": "pharmacy", "name": "Phillypharm", "toilets:wheelchair": "no", "wheelchair": "no"}}, {"type": "node", "id": 4036982589, "lat": 45.2601685, "lon": 19.832926, "tags": {"addr:floor": "G", "addr:housenumber": "41", "addr:street": "\u0411\u0443\u043b\u0435\u0432\u0430\u0440 \u043e\u0441\u043b\u043e\u0431\u043e\u0452\u0435\u045a\u0430", "amenity": "pharmacy", "check_date": "2024-07-10", "healthcare": "pharmacy", "level": "0", "name": "Benu", "opening_hours": "Mo-Sa 07:30-21:00; Su 08:00-15:00", "toilets:wheelchair": "no", "wheelchair": "yes"}}, {"type": "node", "id": 4189362680, "lat": 45.2385947, "lon": 19.8330993}, {"type": "node", "id": 4189362682, "lat": 45.2386711, "lon": 19.8333744}, {"type": "node", "id": 4189362683, "lat": 45.2386952, "lon": 19.8330419}, {"type": "node", "id": 4189362685, "lat": 45.2387722, "lon": 19.833316}, {"type": "node", "id": 4370770736, "lat": 45.2507197, "lon": 19.8055224, "tags": {"addr:housenumber": "7", "addr:postcode": "21000", "addr:street": "\u0411\u0443\u043b\u0435\u0432\u0430\u0440 \u0421\u043b\u043e\u0431\u043e\u0434\u0430\u043d\u0430 \u0408\u043e\u0432\u0430\u043d\u043e\u0432\u0438\u045b\u0430", "amenity": "pharmacy", "email": "spomenka19@yahoo.com", "healthcare": "pharmacy", "name": "Prof-Farm", "name:en": "Prof-Farm", "name:sr-Latn": "Prof-Farm", "opening_hours": "Mo-Fr 08:00-21:00; Sa 08:00-16:00", "phone": "+381216396185"}}, {"type": "node", "id": 4538217421, "lat": 45.2574879, "lon": 19.8175623, "tags": {"amenity": "pharmacy", "healthcare": "pharmacy", "name": "Jankovic", "opening_hours": "Mo-Su 07:00-22:00"}}, {"type": "node", "id": 4548437678, "lat": 45.2510713, "lon": 19.8369746, "tags": {"amenity": "pharmacy", "check_date:opening_hours": "2023-03-02", "email": "laurus3@apotekalaurus.rs", "healthcare": "pharmacy", "name": "Laurus 3", "opening_hours": "Mo-Su 07:00-24:00", "phone": "+381 21 426 721", "website": "https://apotekalaurus.rs/"}}, {"type": "node", "id": 4732673440, "lat": 45.2540944, "lon": 19.8039529, "tags": {"addr:housenumber": "20", "addr:postcode": "21000", "addr:street": "\u0411\u0443\u043b\u0435\u0432\u0430\u0440 \u0421\u043b\u043e\u0431\u043e\u0434\u0430\u043d\u0430 \u0408\u043e\u0432\u0430\u043d\u043e\u0432\u0438\u045b\u0430", "amenity": "pharmacy", "healthcare": "pharmacy", "name": "Memphis"}}, {"type": "node", "id": 4737072162, "lat": 45.2536842, "lon": 19.8050432, "tags": {"amenity": "pharmacy", "healthcare": "pharmacy"}}, {"type": "node", "id": 5079082066, "lat": 45.2498324, "lon": 19.8515905, "tags": {"amenity": "pharmacy", "healthcare": "pharmacy", "name": "Centar", "name:sr-Latn": "Centar", "opening_hours": "Mo-Fr 07:00-21:00; Sa 08:00-15:00"}}, {"type": "node", "id": 6210508987, "lat": 45.0714954, "lon": 20.3251029, "tags": {"addr:city": "Surduk", "addr:housenumber": "2", "addr:postcode": "22307", "addr:street": "\u0426\u0430\u0440\u0430 \u041b\u0430\u0437\u0430\u0440\u0430", "amenity": "pharmacy", "healthcare": "pharmacy", "name": "DZ \u201eJovan Jovanovic Zmaj\u201d Ambulanta Surduk"}}, {"type": "node", "id": 6726915246, "lat": 45.2486306, "lon": 19.7991423, "tags": {"addr:housenumber": "8", "addr:street": "\u0411\u0430\u0442\u0435 \u0411\u0440\u043a\u0438\u045b\u0430", "amenity": "pharmacy", "dispensing": "yes", "healthcare": "pharmacy", "name": "Cveji\u0107", "ref:RS:kucni_broj": "5495674"}}, {"type": "node", "id": 6987221804, "lat": 44.9851854, "lon": 20.1621457, "tags": {"amenity": "pharmacy", "healthcare": "pharmacy", "name": "Filly Farm"}}, {"type": "node", "id": 7288750729, "lat": 45.240353, "lon": 19.8262283, "tags": {"amenity": "pharmacy", "dispensing": "yes", "healthcare": "pharmacy", "name": "\u0408\u0430\u043d\u043a\u043e\u0432\u0438\u045b", "name:en": "Jankovi\u0107", "name:sr": "\u0408\u0430\u043d\u043a\u043e\u0432\u0438\u045b", "name:sr-Latn": "Jankovi\u0107"}}, {"type": "node", "id": 7291710042, "lat": 45.2231888, "lon": 19.8440449, "tags": {"amenity": "pharmacy", "brand": "Benu", "brand:wikidata": "Q62562792", "dispensing": "yes", "healthcare": "pharmacy", "name": "Benu"}}, {"type": "node", "id": 8461358556, "lat": 45.2480783, "lon": 19.8344182, "tags": {"amenity": "pharmacy", "check_date": "2023-06-07", "healthcare": "pharmacy", "int_name": "Jankovic", "name": "\u0408\u0430\u043d\u043a\u043e\u0432\u0438\u045b", "name:sr": "\u0408\u0430\u043d\u043a\u043e\u0432\u0438\u045b", "name:sr-Latn": "Jankovi\u0107", "opening_hours": "Mo-Su 07:00-24:00", "wheelchair": "no"}}, {"type": "node", "id": 9455383093, "lat": 44.9824967, "lon": 20.1578517, "tags": {"amenity": "pharmacy", "int_name": "Jovan Jovanovic Zmaj", "loc_name": "Dr\u017eavna Apoteka", "name": "\u0408\u043e\u0432\u0430\u043d \u0408\u043e\u0432\u0430\u043d\u043e\u0432\u0438\u045b \u0417\u043c\u0430\u0458"}}, {"type": "node", "id": 9455452868, "lat": 45.0991736, "lon": 19.8613896, "tags": {"amenity": "pharmacy", "healthcare": "pharmacy"}}, {"type": "node", "id": 9503250219, "lat": 45.2602208, "lon": 19.8219508, "tags": {"addr:housenumber": "106", "addr:postcode": "21000", "addr:street": "\u0420\u0443\u043c\u0435\u043d\u0430\u0447\u043a\u0430", "amenity": "pharmacy", "brand": "Benu", "brand:wikidata": "Q62562792", "healthcare": "pharmacy", "name": "Benu", "name:en": "Benu", "opening_hours": "Mo-Su 07:00-00:00", "phone": "+381216444017", "wheelchair": "no"}}, {"type": "node", "id": 9623977860, "lat": 45.245026, "lon": 19.8088207, "tags": {"addr:housenumber": "28a", "addr:postcode": "21000", "addr:street": "\u0412\u0440\u0448\u0430\u0447\u043a\u0430", "amenity": "pharmacy", "brand": "Benu", "brand:wikidata": "Q62562792", "check_date": "2025-09-15", "dispensing": "yes", "email": "nstelep387@benu.rs", "healthcare": "pharmacy", "name": "Benu", "name:sr": "\u0411\u0435\u043d\u0443", "name:sr-Latn": "Benu", "opening_hours": "Mo-Fr 07:30-14:30; Sa-Su off", "phone": "+381 064 8441883", "source:email": "website", "source:opening_hours": "website", "survey:date": "2022-03-20", "website": "https://benu.rs/apoteke/apoteka/apoteka-novi-sad-telep", "wheelchair": "limited"}}, {"type": "node", "id": 9642619776, "lat": 44.9846833, "lon": 20.1568123, "tags": {"addr:city": "\u0421\u0442\u0430\u0440\u0430 \u041f\u0430\u0437\u043e\u0432\u0430", "addr:housenumber": "16", "addr:postcode": "22300", "addr:street": "\u040b\u0438\u0440\u0438\u043b\u0430 \u0438 \u041c\u0435\u0442\u043e\u0434\u0438\u0458\u0430", "amenity": "pharmacy", "drive_through": "no", "healthcare": "pharmacy", "name": "Lara Farm", "opening_hours": "Mo-Sa 06:00-23:00; Su 08:00-22:00", "phone": "+381 22 363056", "website": "http://www.lara-farm.com/"}}, {"type": "node", "id": 10196888001, "lat": 45.2721343, "lon": 20.0884169, "tags": {"amenity": "pharmacy", "healthcare": "pharmacy", "name": "Jankovi\u0107", "payment:cash": "yes"}}, {"type": "node", "id": 10196899629, "lat": 45.272137, "lon": 20.0882566, "tags": {"amenity": "pharmacy", "healthcare": "pharmacy", "name": "Irisfarm", "payment:cash": "yes"}}, {"type": "node", "id": 10250686836, "lat": 45.2494245, "lon": 19.8742904}, {"type": "node", "id": 10270150382, "lat": 45.2573779, "lon": 19.8545307, "tags": {"amenity": "pharmacy", "dispensing": "no", "healthcare": "pharmacy", "int_name": "Jankovic", "name": "\u0408\u0430\u043d\u043a\u043e\u0432\u0438\u045b", "name:sr": "\u0408\u0430\u043d\u043a\u043e\u0432\u0438\u045b", "name:sr-Latn": "Jankovi\u0107"}}, {"type": "node", "id": 10298285709, "lat": 45.2545926, "lon": 19.8309563, "tags": {"addr:housenumber": "29", "addr:street": "\u041d\u043e\u0432\u043e\u0441\u0430\u0434\u0441\u043a\u043e\u0433 \u0441\u0430\u0458\u043c\u0430", "amenity": "pharmacy", "healthcare": "pharmacy", "opening_hours": "Mo-Sa 07:30-21:30", "survey:date": "2023-01-01"}}, {"type": "node", "id": 10542740711, "lat": 45.2594738, "lon": 19.8297352, "tags": {"amenity": "pharmacy", "healthcare": "pharmacy", "survey:date": "2023-01-12"}}, {"type": "node", "id": 10557104508, "lat": 45.2615821, "lon": 19.8501742, "tags": {"amenity": "pharmacy", "brand": "Lilly", "brand:wikidata": "Q111764460", "check_date": "2025-09-21", "healthcare": "pharmacy", "mapillary": "1119087636750908", "name": "Lilly", "name:en": "Lilly", "name:sr": "\u041b\u0438\u043b\u0438", "operator": "Lilly", "shop": "chemist"}}, {"type": "node", "id": 10852974915, "lat": 45.2550952, "lon": 19.8267244, "tags": {"addr:housenumber": "34", "addr:street": "\u041c\u0438\u0447\u0443\u0440\u0438\u043d\u043e\u0432\u0430", "amenity": "pharmacy", "healthcare": "pharmacy", "name": "Jankovi\u010d", "survey:date": "2024-12-14", "website": "https://www.apotekajankovic.rs/"}}, {"type": "node", "id": 10880724705, "lat": 45.2634005, "lon": 19.817521, "tags": {"amenity": "pharmacy", "check_date": "2025-04-16", "check_date:opening_hours": "2025-04-16", "healthcare": "pharmacy", "name": "Cveji\u0107", "opening_hours": "Mo-Fr 08:00-20:30; Sa 08:00-17:00"}}, {"type": "node", "id": 10880955608, "lat": 45.2604555, "lon": 19.8208583, "tags": {"amenity": "pharmacy", "check_date": "2024-10-05", "check_date:opening_hours": "2024-10-05", "healthcare": "pharmacy", "name": "Jankovi\u0107", "opening_hours": "Mo-Su 07:00-22:00"}}, {"type": "node", "id": 10880955609, "lat": 45.2601295, "lon": 19.82111, "tags": {"amenity": "pharmacy", "healthcare": "pharmacy", "name": "Irisfarm", "survey:date": "2023-05-09"}}, {"type": "node", "id": 10880973705, "lat": 45.2618329, "lon": 19.8192908, "tags": {"amenity": "pharmacy", "brand": "Galen pharm", "brand:wikidata": "Q132851975", "check_date": "2024-10-02", "check_date:opening_hours": "2024-10-02", "healthcare": "pharmacy", "name": "Galen pharm", "name:sr": "\u0413\u0430\u043b\u0435\u043d \u0444\u0430\u0440\u043c", "name:sr-Latn": "Galen farm", "opening_hours": "Mo-Fr 07:30-22:00; Sa 08:00-20:00; Su off"}}, {"type": "node", "id": 10893078605, "lat": 45.2591187, "lon": 19.8220782, "tags": {"amenity": "pharmacy", "healthcare": "pharmacy", "name": "Jankovi\u0107", "survey:date": "2023-05-13"}}, {"type": "node", "id": 10969557723, "lat": 45.274642, "lon": 19.8266473}, {"type": "node", "id": 10969557724, "lat": 45.2741992, "lon": 19.8268013}, {"type": "node", "id": 10969557725, "lat": 45.2743287, "lon": 19.8267563}, {"type": "node", "id": 10969557728, "lat": 45.2746668, "lon": 19.826791}, {"type": "node", "id": 10978642227, "lat": 45.2546323, "lon": 19.817342, "tags": {"amenity": "pharmacy", "healthcare": "pharmacy", "survey:date": "2023-06-15"}}, {"type": "node", "id": 11097182934, "lat": 45.2455032, "lon": 19.8804704, "tags": {"amenity": "pharmacy", "healthcare": "pharmacy"}}, {"type": "node", "id": 11097196450, "lat": 45.2406746, "lon": 19.8846405, "tags": {"amenity": "pharmacy", "healthcare": "pharmacy"}}, {"type": "node", "id": 11097964836, "lat": 45.269785, "lon": 19.8355229, "tags": {"amenity": "pharmacy", "healthcare": "pharmacy"}}, {"type": "node", "id": 11100241595, "lat": 45.1260075, "lon": 20.2390829, "tags": {"amenity": "pharmacy", "healthcare": "pharmacy", "int_name": "Arafarm", "name": "\u0410\u0440\u0430\u0444\u0430\u0440\u043c", "name:sr": "\u0410\u0440\u0430\u0444\u0430\u0440\u043c", "name:sr-Latn": "Arafarm"}}, {"type": "node", "id": 11101810035, "lat": 45.2912374, "lon": 19.8245009, "tags": {"amenity": "pharmacy"}}, {"type": "node", "id": 11104558746, "lat": 45.2451757, "lon": 19.8317761, "tags": {"amenity": "pharmacy", "healthcare": "pharmacy"}}, {"type": "node", "id": 11104586614, "lat": 45.2447772, "lon": 19.8314051, "tags": {"amenity": "pharmacy", "healthcare": "pharmacy"}}, {"type": "node", "id": 11151285350, "lat": 45.0489954, "lon": 20.0797592, "tags": {"amenity": "pharmacy", "healthcare": "pharmacy", "name": "Julija Pharm"}}, {"type": "node", "id": 11151285351, "lat": 45.0488492, "lon": 20.0799384, "tags": {"amenity": "pharmacy", "healthcare": "pharmacy", "name": "Vegafarma"}}, {"type": "node", "id": 11189731027, "lat": 45.2612799, "lon": 19.849246, "tags": {"amenity": "pharmacy", "healthcare": "pharmacy"}}, {"type": "node", "id": 11231051657, "lat": 45.2499564, "lon": 19.8326821, "tags": {"amenity": "pharmacy", "brand": "Dr. Max", "brand:wikidata": "Q56317371", "healthcare": "pharmacy", "name": "Dr. Max", "survey:date": "2023-10-01"}}, {"type": "node", "id": 11233186516, "lat": 45.0474804, "lon": 20.0813237, "tags": {"amenity": "pharmacy", "brand": "Lilly", "brand:wikidata": "Q111764460", "healthcare": "pharmacy", "name": "Lilly", "name:en": "Lilly", "name:sr": "\u041b\u0438\u043b\u0438", "ref": "129", "shop": "chemist"}}, {"type": "node", "id": 11233186517, "lat": 45.0498572, "lon": 20.0826036, "tags": {"amenity": "pharmacy", "brand": "Benu", "brand:wikidata": "Q62562792", "healthcare": "pharmacy", "name": "Benu"}}, {"type": "node", "id": 11336552327, "lat": 45.245818, "lon": 19.835356, "tags": {"addr:housenumber": "13", "addr:street": "\u0413\u043e\u0433\u043e\u0459\u0435\u0432\u0430", "amenity": "pharmacy", "check_date": "2023-11-09", "healthcare": "pharmacy", "level": "0", "name": "Biofarm", "opening_hours": "Mo-Sa 07:30-21:30; Su 08:00-14:00"}}, {"type": "node", "id": 11371285659, "lat": 44.9850155, "lon": 20.1604074, "tags": {"addr:city": "Stara Pazova", "addr:housenumber": "9", "addr:postcode": "22300", "addr:street": "\u0421\u0432\u0435\u0442\u043e\u0441\u0430\u0432\u0441\u043a\u0430", "amenity": "pharmacy", "dispensing": "yes", "drive_through": "no", "healthcare": "pharmacy", "name": "Alfa pharm 3", "opening_hours": "Mo-Fr 07:30-21:00; Sa 08:00-18:00; Su 08:00-13:00", "operator": "Alfa pharm", "payment:cash": "yes", "payment:contactless": "yes", "payment:debit_cards": "yes", "phone": "022/ 316-488"}}, {"type": "node", "id": 11371368852, "lat": 44.982228, "lon": 20.1580332, "tags": {"addr:city": "\u0421\u0442\u0430\u0440\u0430 \u041f\u0430\u0437\u043e\u0432\u0430", "addr:housenumber": "7", "addr:postcode": "22300", "addr:street": "\u0412\u043b\u0430\u0434\u0438\u043c\u0438\u0440\u0430 \u0425\u0443\u0440\u0431\u0430\u043d\u0430", "amenity": "pharmacy", "dispensing": "yes", "drive_through": "no", "healthcare": "pharmacy", "name": "Larafarm+", "operator": "Larafarm"}}, {"type": "node", "id": 11382477597, "lat": 45.2564545, "lon": 19.8492288, "tags": {"amenity": "pharmacy", "dog": "yes", "healthcare": "pharmacy", "name": "Laurus", "opening_hours": "Mo-Su 08:00-22:00", "website": "https://apotekalaurus.rs/"}}, {"type": "node", "id": 11420181391, "lat": 45.2767192, "lon": 19.8263916}, {"type": "node", "id": 11420181392, "lat": 45.2766897, "lon": 19.8263601}, {"type": "node", "id": 11420181393, "lat": 45.2767347, "lon": 19.8262751}, {"type": "node", "id": 11420181394, "lat": 45.2767642, "lon": 19.8263065}, {"type": "node", "id": 11652333707, "lat": 45.255816, "lon": 19.8491936, "tags": {"amenity": "pharmacy", "check_date": "2025-07-12", "check_date:opening_hours": "2025-07-12", "healthcare": "pharmacy", "int_name": "Jankovic", "level": "0", "name": "\u0408\u0430\u043d\u043a\u043e\u0432\u0438\u045b", "opening_hours": "Mo-Fr 08:00-22:00; Sa,Su 08:00-14:00"}}, {"type": "node", "id": 11766525653, "lat": 45.2549637, "lon": 19.8316303, "tags": {"amenity": "pharmacy", "healthcare": "pharmacy", "name": "Jankovi\u0107", "survey:date": "2024-03-27"}}, {"type": "node", "id": 11841189852, "lat": 45.2525155, "lon": 19.837824, "tags": {"amenity": "pharmacy", "check_date": "2024-04-24", "healthcare": "pharmacy", "level": "0"}}, {"type": "node", "id": 11841204483, "lat": 45.250135, "lon": 19.8384308, "tags": {"addr:housenumber": "95", "addr:street": "\u0411\u0443\u043b\u0435\u0432\u0430\u0440 \u043e\u0441\u043b\u043e\u0431\u043e\u0452\u0435\u045a\u0430", "amenity": "pharmacy", "brand": "Benu", "brand:wikidata": "Q62562792", "dispensing": "yes", "email": "nsdalton445@benu.rs", "healthcare": "pharmacy", "name": "Benu", "name:sr": "\u0411\u0435\u043d\u0443", "name:sr-Latn": "Ben", "opening_hours": "Mo-Fr 07:30-20:30; Sa 07:30-14:00; Su off", "payment:apple_pay": "yes", "payment:cash": "yes", "payment:credit_cards": "yes", "payment:debit_cards": "yes", "payment:google_pay": "yes", "phone": "+381 64 8312 465"}}, {"type": "node", "id": 11849684670, "lat": 45.2551272, "lon": 19.8441823, "tags": {"amenity": "pharmacy", "check_date": "2024-08-13", "healthcare": "pharmacy", "level": "0", "name": "Laurus"}}, {"type": "node", "id": 11888503860, "lat": 45.2528361, "lon": 19.8384803, "tags": {"amenity": "pharmacy", "check_date": "2024-07-26", "healthcare": "pharmacy", "level": "0"}}, {"type": "node", "id": 11888548090, "lat": 45.2487214, "lon": 19.8392411, "tags": {"amenity": "pharmacy", "healthcare": "pharmacy", "name": "Galen Pharm"}}, {"type": "node", "id": 11951692426, "lat": 45.2579274, "lon": 19.8332881, "tags": {"amenity": "pharmacy", "healthcare": "pharmacy", "name": "Maelina", "survey:date": "2024-06-02"}}, {"type": "node", "id": 11964212021, "lat": 45.2493968, "lon": 19.8409398, "tags": {"amenity": "pharmacy", "check_date": "2024-06-08", "healthcare": "pharmacy", "name": "Zelena apoteka"}}, {"type": "node", "id": 11964312556, "lat": 45.2587475, "lon": 19.8063174, "tags": {"amenity": "pharmacy", "healthcare": "pharmacy", "name": "Lillly", "survey:date": "2024-06-08"}}, {"type": "node", "id": 11970911196, "lat": 45.2577135, "lon": 19.851544, "tags": {"amenity": "pharmacy", "healthcare": "pharmacy", "opening_hours": "Mo-Fr 08:00-21:00; Sa 08:00-20:00; Su 08:00-13:00"}}, {"type": "node", "id": 11986010894, "lat": 45.3034601, "lon": 19.9297144, "tags": {"amenity": "pharmacy", "healthcare": "pharmacy"}}, {"type": "node", "id": 12086018169, "lat": 45.2617362, "lon": 19.8353194, "tags": {"addr:housenumber": "33", "addr:street": "\u041a\u0440\u0430\u0459\u0435\u0432\u0438\u045b\u0430 \u041c\u0430\u0440\u043a\u0430", "amenity": "pharmacy", "healthcare": "pharmacy", "name": "Centar"}}, {"type": "node", "id": 12091405269, "lat": 45.2626898, "lon": 19.8355939, "tags": {"amenity": "pharmacy", "healthcare": "pharmacy", "name": "Galen Pharm"}}, {"type": "node", "id": 12091405369, "lat": 45.2618332, "lon": 19.8358211, "tags": {"addr:housenumber": "20", "addr:street": "\u041a\u0440\u0430\u0459\u0435\u0432\u0438\u045b\u0430 \u041c\u0430\u0440\u043a\u0430", "amenity": "pharmacy", "healthcare": "pharmacy", "name": "Cer"}}, {"type": "node", "id": 12161082599, "lat": 45.2517935, "lon": 19.8553687, "tags": {"amenity": "pharmacy", "healthcare": "pharmacy", "int_name": "Jankovic", "name": "\u0408\u0430\u043d\u043a\u043e\u0432\u0438\u045b", "name:sr": "\u0408\u0430\u043d\u043a\u043e\u0432\u0438\u045b", "name:sr-Latn": "Jankovi\u0107", "opening_hours": "Mo-Sa 07:30-21:30; Su 08:00-16:00"}}, {"type": "node", "id": 12199479252, "lat": 45.2589399, "lon": 19.8450637, "tags": {"amenity": "pharmacy", "healthcare": "pharmacy"}}, {"type": "node", "id": 12216860395, "lat": 45.2627776, "lon": 19.8182445, "tags": {"addr:city": "Novi Sad", "addr:housenumber": "2", "addr:postcode": "21000", "addr:street": "\u0408\u0430\u043d\u043a\u0430 \u0412\u0435\u0441\u0435\u043b\u0438\u043d\u043e\u0432\u0438\u045b\u0430", "amenity": "pharmacy", "healthcare": "pharmacy", "name": "Maelia", "name:sr": "\u041c\u0430\u0435\u043b\u0438\u0430", "opening_hours": "Mo-Su 08:00-22:00"}}, {"type": "node", "id": 12405021844, "lat": 45.2544695, "lon": 19.8529, "tags": {"amenity": "pharmacy", "healthcare": "pharmacy", "name": "Nova apoteka"}}, {"type": "node", "id": 12409819802, "lat": 45.2476642, "lon": 19.8459846, "tags": {"amenity": "pharmacy", "brand": "Benu", "brand:wikidata": "Q62562792", "healthcare": "pharmacy", "name": "Benu"}}, {"type": "node", "id": 12409820102, "lat": 45.2479236, "lon": 19.8455395, "tags": {"amenity": "pharmacy", "brand": "dm", "brand:wikidata": "Q266572", "brand:wikipedia": "en:Dm-drogerie markt", "contact:email": "info@dm.rs", "contact:website": "https://www.dm.rs/", "name": "dm", "opening_hours": "Mo-Sa 08:00-20:00", "shop": "chemist"}}, {"type": "node", "id": 12409952542, "lat": 45.1290502, "lon": 19.7873599, "tags": {"addr:floor": "G", "amenity": "pharmacy", "check_date": "2024-12-07", "healthcare": "pharmacy", "level": "0", "name": "Dr. Max"}}, {"type": "node", "id": 12549791415, "lat": 44.9930648, "lon": 19.9706604, "tags": {"amenity": "pharmacy", "healthcare": "pharmacy"}}, {"type": "node", "id": 12585143058, "lat": 45.2330711, "lon": 19.7865134, "tags": {"amenity": "pharmacy", "healthcare": "pharmacy", "name": "Ibis"}}, {"type": "node", "id": 12585143097, "lat": 45.2337915, "lon": 19.792192, "tags": {"amenity": "pharmacy", "healthcare": "pharmacy"}}, {"type": "node", "id": 12585143104, "lat": 45.2365993, "lon": 19.7981205, "tags": {"amenity": "pharmacy", "healthcare": "pharmacy"}}, {"type": "node", "id": 12610283254, "lat": 45.2443999, "lon": 19.8096933, "tags": {"amenity": "pharmacy", "brand": "Dr. Max", "brand:wikidata": "Q56317371", "healthcare": "pharmacy", "name": "Dr. Max"}}, {"type": "node", "id": 12617823548, "lat": 45.2740602, "lon": 19.8420646, "tags": {"amenity": "pharmacy", "email": "office.ns@farmalogist.rs", "healthcare": "pharmacy", "name": "Farmalogist", "opening_hours": "Mo-Fr 08:00-16:00", "phone": "+381 21 310-00-50", "website": "https://www.farmalogist.rs/"}}, {"type": "node", "id": 12770094301, "lat": 45.2543189, "lon": 19.8161813, "tags": {"amenity": "pharmacy", "healthcare": "pharmacy"}}, {"type": "node", "id": 12954953326, "lat": 45.1957614, "lon": 19.892012, "tags": {"amenity": "pharmacy", "healthcare": "pharmacy", "name": "Apoteke Biofarm", "opening_hours": "Mo-Sa 07:00-20:30, Su 08:00-13:00", "website": "https://biofarm.rs/"}}, {"type": "node", "id": 13045866527, "lat": 45.0809861, "lon": 20.1768156, "tags": {"amenity": "pharmacy", "brand": "Benu", "brand:wikidata": "Q62562792", "healthcare": "pharmacy", "name": "Benu"}}, {"type": "node", "id": 13045866561, "lat": 45.0796555, "lon": 20.1778729, "tags": {"amenity": "pharmacy", "healthcare": "pharmacy"}}, {"type": "node", "id": 13131546089, "lat": 45.2377095, "lon": 19.8227282, "tags": {"addr:housenumber": "7", "addr:street": "\u0425\u0435\u0440\u043e\u0458\u0430 \u041f\u0438\u043d\u043a\u0438\u0458\u0430", "amenity": "pharmacy", "healthcare": "pharmacy", "name": "Jankovi\u0107", "opening_hours": "Mo-Sa 07:00-21:30; Su off"}}, {"type": "node", "id": 13135336731, "lat": 45.2423951, "lon": 19.8204677, "tags": {"addr:housenumber": "1", "addr:street": "\u0422\u0438\u0445\u043e\u043c\u0438\u0440\u0430 \u041e\u0441\u0442\u043e\u0458\u0438\u045b\u0430", "amenity": "pharmacy", "healthcare": "pharmacy", "name": "Apoteka Evropa", "opening_hours": "Mo-Fr 07:30-21:00; Sa 07:30-20:00; Su off", "payment:apple_pay": "yes", "payment:cards": "yes", "payment:cash": "yes", "payment:google_pay": "yes"}}, {"type": "node", "id": 13137161025, "lat": 45.2417127, "lon": 19.8250337, "tags": {"addr:housenumber": "70", "addr:street": "\u0426\u0430\u0440\u0430 \u0414\u0443\u0448\u0430\u043d\u0430", "amenity": "pharmacy", "brand": "Benu", "brand:wikidata": "Q62562792", "email": "nscaradusana223@benu.rs", "healthcare": "pharmacy", "name": "Benu", "name:en": "Benu", "name:sr": "\u0411\u0435\u043d\u0443", "opening_hours": "Mo-Fr 07:30-20:30; Sa 08:00-20:00; Su off", "phone": "+38121467009", "source": "website", "source:email": "website", "source:opening_hours": "website", "source:phone": "website", "website": "https://benu.rs/"}}, {"type": "node", "id": 13137161026, "lat": 45.2431667, "lon": 19.8401396, "tags": {"addr:housenumber": "102", "addr:street": "\u0411\u0443\u043b\u0435\u0432\u0430\u0440 \u043e\u0441\u043b\u043e\u0431\u043e\u0452\u0435\u045a\u0430", "amenity": "pharmacy", "brand": "Benu", "brand:wikidata": "Q62562792", "email": "novisadmercator@benu.rs", "healthcare": "pharmacy", "name": "Benu", "name:en": "Benu", "name:sr": "\u0411\u0435\u043d\u0443", "opening_hours": "08:00-21:00", "phone": "+381216372106", "source": "website", "source:email": "website", "source:opening_hours": "website", "source:phone": "website", "website": "https://benu.rs/"}}, {"type": "node", "id": 13143496436, "lat": 45.241701, "lon": 19.8033986, "tags": {"addr:housenumber": "26a", "addr:postcode": "21000", "addr:street": "\u0411\u0443\u043b\u0435\u0432\u0430\u0440 \u043f\u0430\u0442\u0440\u0438\u0458\u0430\u0440\u0445\u0430 \u041f\u0430\u0432\u043b\u0430", "amenity": "pharmacy", "brand": "Benu", "brand:wikidata": "Q62562792", "dispensing": "yes", "email": "nshitnapomoc395@benu.rs", "healthcare": "pharmacy", "name": "Benu", "name:sr": "\u0411\u0435\u043d\u0443", "name:sr-Latn": "Benu", "opening_hours": "Mo-Fr 07:30-20:30; Sa 07:30-14:30; Su off", "phone": "+381648441873", "source:email": "website", "source:opening_hours": "website", "source:phone": "website", "website": "https://benu.rs/"}}, {"type": "node", "id": 13143496437, "lat": 45.2481494, "lon": 19.8096091, "tags": {"addr:housenumber": "10", "addr:postcode": "21000", "addr:street": "\u0424\u0443\u0442\u043e\u0448\u043a\u0438 \u043f\u0443\u0442", "amenity": "pharmacy", "brand": "Benu", "brand:wikidata": "Q62562792", "dispensing": "yes", "email": "disnovisad@benu.rs", "healthcare": "pharmacy", "name": "Benu", "name:sr": "\u0411\u0435\u043d\u0443", "name:sr-Latn": "Benu", "opening_hours": "Mo-Fr 07:30-20:30; Sa 08:00-20:00; Su off", "phone": "+381216390088", "source:email": "website", "source:opening_hours": "website", "source:phone": "webwite", "survey:date": "2025-09-15", "website": "https://benu.rs/dis-novi-sad-1614356760"}}, {"type": "node", "id": 13164169910, "lat": 45.2413852, "lon": 19.8062122, "tags": {"amenity": "pharmacy", "healthcare": "pharmacy", "name": "Dunja", "opening_hours": "Mo-Su 08:00-22:00", "payment:cash": "yes", "payment:credit_cards": "yes", "payment:debit_cards": "yes"}}, {"type": "node", "id": 13166008933, "lat": 45.2490233, "lon": 19.8211893, "tags": {"amenity": "pharmacy", "healthcare": "pharmacy", "name": "Zelena Apoteka Davidovac", "opening_hours": "Mo-Fr 07:30-21:00; Sa 08:00-18:00; Su 09:00-15:00"}}, {"type": "node", "id": 13166008998, "lat": 45.2441855, "lon": 19.8199784, "tags": {"amenity": "pharmacy", "healthcare": "pharmacy", "name": "Dr. Max"}}, {"type": "node", "id": 13166009029, "lat": 45.2450241, "lon": 19.8194357, "tags": {"amenity": "pharmacy", "healthcare": "pharmacy", "opening_hours": "Mo-Sa 07:00-24:00; Su 08:00-24:00"}}, {"type": "node", "id": 13171779400, "lat": 45.247625, "lon": 19.8463016, "tags": {"addr:city": "Novi Sad", "addr:housenumber": "2", "addr:postcode": "21000", "addr:street": "\u0421\u0443\u0442\u0458\u0435\u0441\u043a\u0430", "amenity": "pharmacy", "dispensing": "yes", "email": "laurus5@apotekalaurus.rs", "healthcare": "pharmacy", "mapillary": "1724549701448503", "mobile": "+381631136975", "name": "Apoteka Laurus 5", "opening_hours": "Mo-Fr 07:30-22:00; Sa 09:00-16:30; Su off", "operator": "Laurus", "phone": "+381216616960", "website": "https://apotekalaurus.rs/"}}, {"type": "node", "id": 13183413801, "lat": 45.2433406, "lon": 19.8405296, "tags": {"addr:postcode": "21000", "addr:street": "\u0411\u0443\u043b\u0435\u0432\u0430\u0440 \u0426\u0430\u0440\u0430 \u041b\u0430\u0437\u0430\u0440\u0430", "amenity": "pharmacy", "level": "0", "name": "BENU", "name:en": "BENU", "name:sr": "\u0411\u0415\u041d\u0423", "opening_hours": "Mo-Su 09:00-22:00"}}, {"type": "way", "id": 146346439, "nodes": [1596092628, 1596092638, 1596092627, 1596092607, 1596092628], "tags": {"addr:housenumber": "10", "addr:street": "\u041d\u0430\u0440\u043e\u0434\u043d\u043e\u0433 \u0444\u0440\u043e\u043d\u0442\u0430", "amenity": "pharmacy", "brand": "Benu", "brand:wikidata": "Q62562792", "check_date": "2025-09-12", "dispensing": "yes", "email": "nsliman385@benu.rs", "healthcare": "pharmacy", "indoor": "room", "name": "Benu", "name:sr": "\u0411\u0435\u043d\u0443", "name:sr-Latn": "Benu", "opening_hours": "Mo-Fr 07:00-21:00; Sa 08:00-21:00; Su 08:00-15:00", "phone": "+381648441833", "source:email": "website", "source:opening_hours": "website", "source:phone": "website", "survey:date": "2020-06-05", "website": "https://benu.rs/", "wheelchair": "no"}}, {"type": "way", "id": 147096741, "nodes": [1533954515, 1533954590, 1533954687, 1533954747, 1533954673, 1533954770, 1602854715, 1602854712, 1533954515], "tags": {"amenity": "pharmacy", "atm": "no", "building": "yes", "healthcare": "pharmacy", "name": "\u0410\u0432\u0435\u043d\u0438\u0458\u0430", "name:en": "Avenija", "name:sr": "\u0410\u0432\u0435\u043d\u0438\u0458\u0430", "name:sr-Latn": "Avenija"}}, {"type": "way", "id": 147146331, "nodes": [1541601257, 4031266089, 1603517515, 1603517406, 1541601257], "tags": {"amenity": "pharmacy", "dispensing": "no", "healthcare": "pharmacy", "indoor": "room", "level": "0", "name": "Tilia", "name:en": "Tilia", "name:sr": "\u0422\u0438\u043b\u0438\u0458\u0430", "name:sr-Latn": "Tilia", "survey:date": "2020-06-05", "wheelchair": "limited"}}, {"type": "way", "id": 202780424, "nodes": [1594773231, 1594773604, 1594773514, 1594773133, 1594773231], "tags": {"amenity": "pharmacy", "dispensing": "no", "healthcare": "pharmacy", "int_name": "Jankovic", "name": "\u0408\u0430\u043d\u043a\u043e\u0432\u0438\u045b", "name:sr": "\u0408\u0430\u043d\u043a\u043e\u0432\u0438\u045b", "name:sr-Latn": "Jankovi\u0107", "wheelchair": "yes"}}, {"type": "way", "id": 219747772, "nodes": [2288852393, 2288852388, 2288852385, 2288852380, 2288852375, 2288852374, 2288852371, 2288852373, 2288852376, 2288852378, 2288852393], "tags": {"addr:housenumber": "19a", "addr:street": "\u0421\u0442\u0440\u0430\u0436\u0438\u043b\u043e\u0432\u0441\u043a\u0430", "amenity": "pharmacy", "building": "apartments", "healthcare": "pharmacy", "name": "Livsane", "ref:RS:kucni_broj": "5490356", "survey:date": "2014-08-04"}}, {"type": "way", "id": 223074697, "nodes": [2320159132, 2320162732, 4029731493, 2320162730, 2320159132], "tags": {"amenity": "pharmacy", "check_date:opening_hours": "2023-03-02", "dispensing": "no", "email": "tilia.zu@gmail.com", "healthcare": "pharmacy", "name": "Tilia", "opening_hours": "Mo-Su 07:00-22:00", "phone": "+381 21 443857", "wheelchair": "limited"}}, {"type": "way", "id": 314023937, "nodes": [10250686836, 3200599753, 3200599752, 3200599750, 10250686836], "tags": {"addr:housenumber": "8a", "addr:postcode": "21000", "addr:street": "\u0408\u043e\u0436\u0435 \u0412\u043b\u0430\u0445\u043e\u0432\u0438\u045b\u0430", "amenity": "pharmacy", "building": "commercial", "survey:date": "2014-11-22"}}, {"type": "way", "id": 344986802, "nodes": [3516964025, 3516964026, 3516964024, 3516964023, 3516964025], "tags": {"amenity": "pharmacy"}}, {"type": "way", "id": 418550646, "nodes": [4189362683, 4189362680, 4189362682, 4189362685, 4189362683], "tags": {"amenity": "pharmacy", "brand": "Benu", "brand:wikidata": "Q62562792", "healthcare": "pharmacy", "indoor": "room", "level": "0", "name": "Benu", "name:sr": "\u0411\u0435\u043d\u0443", "name:sr-Latn": "Benu", "opening_hours": "closed"}}, {"type": "way", "id": 1181175816, "nodes": [10969557723, 10969557728, 1985538027, 10969557724, 10969557725, 10969557723], "tags": {"amenity": "pharmacy", "brand": "Dr. Max", "brand:wikidata": "Q56317371", "healthcare": "pharmacy", "indoor": "room", "level": "0", "name": "Dr. Max", "shop": "chemist"}}, {"type": "way", "id": 1231360497, "nodes": [11420181393, 11420181394, 11420181391, 11420181392, 11420181393], "tags": {"amenity": "pharmacy", "healthcare": "pharmacy", "indoor": "room", "level": "0", "name": "Cveji\u0107"}}]}