{"version": 0.6, "generator": "Overpass API 0.7.62.8 e802775f", "osm3s": {"timestamp_osm_base": "2025-10-06T07:39:15Z", "copyright": "The data included in this document is from www.openstreetmap.org. The data is made available under ODbL."}, "elements": [{"type": "node", "id": 533635669, "lat": 40.2064752, "lon": 18.2499293, "tags": {"amenity": "pharmacy", "dispensing": "yes", "name": "Farmacia Pascali"}}, {"type": "node", "id": 868480562, "lat": 40.1263422, "lon": 18.2008757, "tags": {"addr:city": "Cutrofiano", "addr:housenumber": "2", "addr:postcode": "73020", "addr:street": "Via G.Bovio", "amenity": "pharmacy", "name": "Farmacia Dott. Antonio Gorgoni", "phone": "+39 0836 515154"}}, {"type": "node", "id": 966256920, "lat": 40.176508, "lon": 18.0268515, "tags": {"amenity": "pharmacy", "name": "Farmacia di Orlando Salvatore"}}, {"type": "node", "id": 966256924, "lat": 40.1769343, "lon": 18.0281819, "tags": {"amenity": "pharmacy", "name": "Farmacia Manieri -Elia Dottor Sigismondo"}}, {"type": "node", "id": 966256927, "lat": 40.1765572, "lon": 18.0285681, "tags": {"amenity": "pharmacy", "name": "Farmacia Manieri Elia - De Cupertinis S.N.C."}}, {"type": "node", "id": 966256930, "lat": 40.1805985, "lon": 18.032409, "tags": {"amenity": "pharmacy", "dispensing": "yes", "name": "Farmacia Colangelo Onorato Della Dott.ssa Boccarella Emma & Co. S.N.C."}}, {"type": "node", "id": 966256938, "lat": 40.1749833, "lon": 18.0366254, "tags": {"amenity": "pharmacy", "name": "Farmacia De Benedittis Eredi"}}, {"type": "node", "id": 966256940, "lat": 40.1776967, "lon": 18.0304671, "tags": {"amenity": "pharmacy", "name": "farmacia Benegiamo Pagliula"}}, {"type": "node", "id": 1112277070, "lat": 40.3348885, "lon": 18.1674297, "tags": {"addr:city": "Lecce", "addr:housenumber": "102", "addr:postcode": "73100", "addr:street": "Via San Cesario", "amenity": "pharmacy", "dispensing": "yes", "name": "Farmacia Alemanno De Notariis", "operator": "Farmacia dell'ospedale dei dottori Marianna Alemanno e Marcello Portaluri", "ref:msal": "13166", "ref:vatin": "IT02666760752"}}, {"type": "node", "id": 1112463792, "lat": 40.3482004, "lon": 17.7277679, "tags": {"amenity": "pharmacy"}}, {"type": "node", "id": 1350268054, "lat": 40.0625995, "lon": 18.0571499, "tags": {"addr:street": "Via Matteotti", "amenity": "pharmacy", "name": "Farmacia Comunale"}}, {"type": "node", "id": 1389887219, "lat": 40.2615482, "lon": 17.8939542, "tags": {"amenity": "pharmacy", "dispensing": "yes", "healthcare": "pharmacy"}}, {"type": "node", "id": 1777882966, "lat": 40.3521277, "lon": 18.172827, "tags": {"addr:city": "Lecce", "addr:housenumber": "18", "addr:postcode": "73100", "addr:street": "Piazza Sant'Oronzo", "amenity": "pharmacy", "dispensing": "yes", "healthcare": "pharmacy", "name": "Farmacia Giordano", "operator": "Farmacia Giordano dei Dr. E.C. S.n.c.", "phone": "+39 0832 307469", "ref:msal": "13243", "wheelchair": "limited"}}, {"type": "node", "id": 1777882967, "lat": 40.3528812, "lon": 18.1731361, "tags": {"addr:city": "Lecce", "addr:housenumber": "31", "addr:postcode": "73100", "addr:street": "Piazza Sant'Oronzo", "amenity": "pharmacy", "dispensing": "yes", "healthcare": "pharmacy", "name": "Farmacia Ferocino", "operator": "Ferocino Claudia", "phone": "+39 0832 309181", "ref:msal": "13158", "wheelchair": "no"}}, {"type": "node", "id": 2133488115, "lat": 40.1721589, "lon": 18.1595295, "tags": {"amenity": "pharmacy", "dispensing": "yes", "name": "Farmacia Vergine"}}, {"type": "node", "id": 2147927520, "lat": 40.1753829, "lon": 18.1688972, "tags": {"amenity": "pharmacy", "dispensing": "yes", "name": "Farmacia Sabato", "source": "Bing"}}, {"type": "node", "id": 2147981587, "lat": 40.1771456, "lon": 18.1636961, "tags": {"addr:city": "Galatina", "addr:housenumber": "3", "addr:postcode": "73013", "addr:street": "Viale Kennedy", "amenity": "pharmacy", "dispensing": "yes", "drive_through": "no", "healthcare": "pharmacy", "name": "Farmacia Buffelli Gioffreda"}}, {"type": "node", "id": 2169094326, "lat": 40.1713834, "lon": 18.1649553, "tags": {"addr:city": "Galatina", "addr:country": "IT", "addr:housenumber": "109", "addr:postcode": "73013", "addr:street": "Via Gallipoli", "amenity": "pharmacy", "dispensing": "no", "healthcare": "pharmacy", "name": "Farmacia Bucci"}}, {"type": "node", "id": 2423267294, "lat": 40.3526875, "lon": 18.1684952, "tags": {"addr:city": "Lecce", "addr:country": "IT", "addr:housenumber": "6", "addr:postcode": "73100", "addr:street": "Via Giuseppe Palmieri", "amenity": "pharmacy", "dispensing": "yes", "healthcare": "pharmacy", "name": "Farmacia del Duomo", "opening_hours": "PH,Mo-Su 08:30-13:00,16:30-20:00", "operator": "Farmacia del Duomo del Dr. Greco Francesco", "phone": "+39 0832 307882", "ref:msal": "13174", "ref:vatin": "IT03669410759", "wheelchair": "limited"}}, {"type": "node", "id": 2447747753, "lat": 40.2871728, "lon": 17.8502045, "tags": {"addr:city": "Porto Cesareo", "addr:country": "IT", "addr:housenumber": "28", "addr:street": "Via Sforza", "amenity": "pharmacy", "dispensing": "yes", "fixme": "Non trovato sul posto il 19.9.2022, probabilmente solo aperto di estate. Qualcuno pu\u00f2 verificare ed aggiungere l'orario anche con stagioni/mesi?", "healthcare": "pharmacy"}}, {"type": "node", "id": 2889609817, "lat": 40.3461107, "lon": 18.1707322, "tags": {"addr:city": "Lecce", "addr:housenumber": "4", "addr:postcode": "73100", "addr:street": "Piazza Nicodemo Argento", "amenity": "pharmacy", "dispensing": "yes", "healthcare": "pharmacy", "name": "Farmacia Bianco-Curto", "operator": "Farmacia Bianco-Curto delle dottoresse Anna Maria Bianco e Maria Costanza", "phone": "+39 0832 307950", "ref:msal": "13235", "ref:vatin": "IT04060890755", "wheelchair": "limited"}}, {"type": "node", "id": 2995603117, "lat": 40.3360914, "lon": 18.0914275}, {"type": "node", "id": 3037522208, "lat": 40.354132, "lon": 18.1519237}, {"type": "node", "id": 3037522272, "lat": 40.3541442, "lon": 18.1518733}, {"type": "node", "id": 3037522311, "lat": 40.3541545, "lon": 18.1518852}, {"type": "node", "id": 3037522416, "lat": 40.3541821, "lon": 18.1519768}, {"type": "node", "id": 3037522509, "lat": 40.3542126, "lon": 18.151758}, {"type": "node", "id": 3037522680, "lat": 40.3542607, "lon": 18.1519656}, {"type": "node", "id": 3037522927, "lat": 40.3543192, "lon": 18.1518637}, {"type": "node", "id": 3177188761, "lat": 40.273079, "lon": 18.262619, "tags": {"addr:city": "Castri di Lecce", "addr:postcode": "73020", "addr:street": "Via Giuseppe Grassi", "amenity": "pharmacy", "name": "Farmacia Dott. Bellisario", "wheelchair": "limited", "wheelchair:description": "Luogo parzialmente accessibile. Con parcheggio dedicato, ma con gradino d'ingresso"}}, {"type": "node", "id": 3221565473, "lat": 40.3508936, "lon": 18.1861836, "tags": {"addr:city": "Lecce", "addr:housenumber": "20", "addr:postcode": "73100", "addr:street": "Via Giovanni Gentile", "amenity": "pharmacy", "dispensing": "yes", "healthcare": "pharmacy", "name": "Farmacia Casciaro", "operator": "Farmacia Casciaro dei Dr. Paolo e Marcella Casciaro S.n.c.", "ref:msal": "13144", "ref:vatin": "IT03271940755", "wheelchair": "yes"}}, {"type": "node", "id": 3373321009, "lat": 40.1472099, "lon": 18.3123746, "tags": {"addr:city": "Cursi", "addr:housenumber": "78", "addr:postcode": "73020", "addr:street": "Via Maglie", "amenity": "pharmacy", "contact:phone": "+39 0836 332472", "name": "Farmacia Portaluri", "operator": "Dottoressa Anna Michela Portaluri", "wheelchair": "yes"}}, {"type": "node", "id": 3453911696, "lat": 40.3608553, "lon": 18.1807415, "tags": {"addr:city": "Lecce", "addr:housenumber": "76", "addr:postcode": "73100", "addr:street": "Viale Giacomo Leopardi", "amenity": "pharmacy", "dispensing": "yes", "name": "Farmacia Migali", "operator": "Farmacia Alfonso Migali", "ref:msal": "13247", "ref:vatin": "IT04549840751"}}, {"type": "node", "id": 3568076199, "lat": 40.1258758, "lon": 18.2979434, "tags": {"addr:city": "Maglie", "addr:housenumber": "54", "addr:postcode": "73024", "addr:street": "Via Piave", "amenity": "pharmacy", "dispensing": "yes", "entrance": "yes", "name": "Farmacia Palma", "operator": "Farmacia Palma s.n.c.", "phone": "+39 0836 484056", "ref:vatin": "IT03841180759"}}, {"type": "node", "id": 3759068124, "lat": 40.3518212, "lon": 18.1619245, "tags": {"addr:city": "Lecce", "addr:housenumber": "11", "addr:postcode": "73100", "addr:street": "Via Dalmazio Birago", "amenity": "pharmacy", "dispensing": "yes", "healthcare": "pharmacy", "name": "Farmacia De Pascalis", "operator": "Farmacia De Pascalis dei Dottori Rosario e Mauro Lombardi S.n.c.", "ref:msal": "13208", "ref:vatin": "IT02090320751"}}, {"type": "node", "id": 3759068125, "lat": 40.3594524, "lon": 18.2028324, "tags": {"addr:city": "Lecce", "addr:housenumber": "8", "addr:postcode": "73100", "addr:street": "Piazza Napoli", "amenity": "pharmacy", "dispensing": "yes", "name": "Farmacia Giubba", "operator": "Farmacia Giubba del dottor Amedeo Giubba & C. S.a.s.", "ref:msal": "13173", "ref:vatin": "IT04010230755"}}, {"type": "node", "id": 3759068126, "lat": 40.3574276, "lon": 18.1661924, "tags": {"addr:city": "Lecce", "addr:housenumber": "29", "addr:postcode": "73100", "addr:street": "Via Taranto", "amenity": "pharmacy", "dispensing": "yes", "healthcare": "pharmacy", "name": "Farmacia dell'Obelisco", "operator": "Farmacia dell'Obelisco dei Dottori Luigi e Anna Maria Galizia S.n.c.", "ref:msal": "13234", "ref:vatin": "IT02558330755"}}, {"type": "node", "id": 3769748373, "lat": 40.3591988, "lon": 18.1928806, "tags": {"addr:city": "Lecce", "addr:housenumber": "170", "addr:postcode": "73100", "addr:street": "Viale della Libert\u00e0", "amenity": "pharmacy", "dispensing": "yes", "healthcare": "pharmacy", "name": "Farmacia Messa", "operator": "Farmacia Messa S.n.c. dei Dr.ri Carla Messa e Domenico Di Tolla", "ref:msal": "13224", "ref:vatin": "IT04835680754", "wheelchair": "yes"}}, {"type": "node", "id": 3769749404, "lat": 40.3569082, "lon": 18.1857215, "tags": {"addr:city": "Lecce", "addr:housenumber": "61", "addr:postcode": "73100", "addr:street": "Viale della Libert\u00e0", "amenity": "pharmacy", "dispensing": "yes", "healthcare": "pharmacy", "name": "Farmacia Moschettini", "ref:msal": "13189", "ref:vatin": "IT03819660758"}}, {"type": "node", "id": 3770433189, "lat": 40.3588142, "lon": 18.1805085, "tags": {"addr:city": "Lecce", "addr:housenumber": "45", "addr:postcode": "73100", "addr:street": "Via Ludovico Ariosto", "amenity": "pharmacy", "dispensing": "yes", "healthcare": "pharmacy", "name": "Farmacia Chiga", "opening_hours": "Mo-Su,PH 00:00-00:00", "operator": "Farmacia Chiga S.n.c. di Chiga Mirella", "ref:msal": "13201", "ref:vatin": "IT04588540759", "toilets:wheelchair": "no", "wheelchair": "yes"}}, {"type": "node", "id": 3777082650, "lat": 40.3656237, "lon": 18.1874168, "tags": {"addr:city": "Lecce", "addr:housenumber": "17", "addr:postcode": "73100", "addr:street": "Via Attilio Biasco", "amenity": "pharmacy", "dispensing": "yes", "healthcare": "pharmacy", "name": "Farmacia Martina", "operator": "Margiotta Maria", "ref:msal": "13181", "ref:vatin": "IT04726820758"}}, {"type": "node", "id": 3908959024, "lat": 40.3653649, "lon": 18.1765303, "tags": {"addr:city": "Lecce", "addr:housenumber": "29", "addr:postcode": "73100", "addr:street": "Via Mincio", "amenity": "pharmacy", "dispensing": "yes", "healthcare": "pharmacy", "name": "Farmacia Petrelli", "operator": "Farmacia Petrelli S.a.s. del Dr. Raffaele Petrelli & C.", "phone": "+39 0832 394952", "ref:msal": "13205", "ref:vatin": "IT04835400757"}}, {"type": "node", "id": 3913136306, "lat": 40.3472213, "lon": 18.1534251, "tags": {"addr:city": "Lecce", "addr:housenumber": "23", "addr:postcode": "73100", "addr:street": "Via Monteroni", "amenity": "pharmacy", "dispensing": "yes", "name": "Farmacia Minerva Dr.Paolino", "operator": "Minerva Paolino", "phone": "+39 0832 351575", "ref:msal": "13249", "ref:vatin": "IT01163180753", "wheelchair": "yes"}}, {"type": "node", "id": 3921587981, "lat": 40.3640777, "lon": 18.1986463, "tags": {"addr:city": "Lecce", "addr:housenumber": "13", "addr:postcode": "73100", "addr:street": "Via Ragusa", "amenity": "pharmacy", "dispensing": "yes", "name": "Farmacia Grasso", "operator": "Grasso Francesca", "ref:msal": "13188", "ref:vatin": "IT03088900752"}}, {"type": "node", "id": 3921587982, "lat": 40.3565414, "lon": 18.1537259, "tags": {"addr:city": "Lecce", "addr:housenumber": "84", "addr:postcode": "73100", "addr:street": "Viale della Repubblica", "amenity": "pharmacy", "dispensing": "yes", "healthcare": "pharmacy", "name": "Farmacia Lolli", "operator": "Lolli Ciriaca Tiziana", "ref:msal": "13209", "ref:vatin": "IT04644380752"}}, {"type": "node", "id": 3921587983, "lat": 40.3558448, "lon": 18.1810657, "tags": {"addr:city": "Lecce", "addr:housenumber": "6a", "addr:postcode": "73100", "addr:street": "Via del Mare", "amenity": "pharmacy", "dispensing": "yes", "healthcare": "pharmacy", "name": "Farmacia Marzano", "operator": "Marzano Umberto", "ref:msal": "13182", "toilets:wheelchair": "no", "wheelchair": "no"}}, {"type": "node", "id": 3921587984, "lat": 40.346824, "lon": 18.1740116, "tags": {"addr:city": "Lecce", "addr:housenumber": "6", "addr:postcode": "73100", "addr:street": "Via di Leuca", "amenity": "pharmacy", "dispensing": "yes", "healthcare": "pharmacy", "name": "Farmacia Montagna", "operator": "Montagna Paola", "ref:msal": "13187", "wheelchair": "no"}}, {"type": "node", "id": 3940506266, "lat": 40.3437513, "lon": 18.1750416, "tags": {"addr:city": "Lecce", "addr:housenumber": "115", "addr:postcode": "73100", "addr:street": "Via di Leuca", "amenity": "pharmacy", "healthcare": "pharmacy", "name": "Farmacia Elia", "operator": "Farmacia Elia dei Dottori Elia Leonardantonio e Elia Francesca Snc", "ref:msal": "13175", "ref:vatin": "IT03581110750"}}, {"type": "node", "id": 4036934505, "lat": 40.3362352, "lon": 18.1784436, "tags": {"addr:city": "Cavallino", "addr:hamlet": "Castromediano", "addr:housenumber": "11", "addr:postcode": "73020", "addr:street": "Via Leuca", "amenity": "pharmacy", "healthcare": "pharmacy", "name": "Farmacia Degli Atti", "phone": "+39 0832 340614"}}, {"type": "node", "id": 4043500804, "lat": 40.4055779, "lon": 18.0723133, "tags": {"addr:city": "Trepuzzi", "addr:postcode": "73019", "addr:street": "Corso Umberto", "amenity": "pharmacy", "name": "Farmacia Rampino"}}, {"type": "node", "id": 4082632810, "lat": 40.2204078, "lon": 17.9279939, "tags": {"amenity": "pharmacy", "dispensing": "no", "healthcare": "pharmacy", "name": "Dispensario Farmaceutico Portaluri"}}, {"type": "node", "id": 4092307535, "lat": 40.405928, "lon": 18.0820571, "tags": {"amenity": "pharmacy", "dispensing": "yes", "healthcare": "pharmacy", "name": "Farmacia Comunale"}}, {"type": "node", "id": 4163018090, "lat": 40.347258, "lon": 18.1595008, "tags": {"addr:city": "Lecce", "addr:housenumber": "25", "addr:postcode": "73100", "addr:street": "Via Rudiae", "amenity": "pharmacy", "diet:gluten_free": "yes", "dispensing": "no", "healthcare": "pharmacy", "name": "Parafarmacia Dr. Ido Alessandro"}}, {"type": "node", "id": 4249677852, "lat": 40.1570014, "lon": 18.2951085, "tags": {"addr:city": "Melpignano", "addr:housenumber": "64", "addr:street": "Via Risorgimento", "amenity": "pharmacy", "name": "Farmacia Vergine Verardi Piero Antonio", "phone": "+39 0836 332181"}}, {"type": "node", "id": 4249767767, "lat": 40.1579232, "lon": 18.2567916, "tags": {"addr:city": "Corigliano d'Otranto", "addr:housenumber": "6", "addr:postcode": "73022", "addr:street": "Piazza Vittoria", "amenity": "pharmacy", "healthcare": "pharmacy", "name": "Del Castello", "phone": "+39 0836 1921683"}}, {"type": "node", "id": 4251262291, "lat": 40.1016536, "lon": 18.3365275}, {"type": "node", "id": 4251262312, "lat": 40.1016698, "lon": 18.3367115}, {"type": "node", "id": 4251262366, "lat": 40.1017021, "lon": 18.3366942}, {"type": "node", "id": 4251262367, "lat": 40.1017027, "lon": 18.3367061}, {"type": "node", "id": 4251262392, "lat": 40.1017164, "lon": 18.3366923}, {"type": "node", "id": 4251262398, "lat": 40.1017242, "lon": 18.3367893}, {"type": "node", "id": 4251262460, "lat": 40.1017731, "lon": 18.3367187}, {"type": "node", "id": 4251262465, "lat": 40.1017774, "lon": 18.3367847}, {"type": "node", "id": 4251271829, "lat": 40.1054072, "lon": 18.3329262}, {"type": "node", "id": 4251271838, "lat": 40.1054105, "lon": 18.3329284}, {"type": "node", "id": 4251271887, "lat": 40.1054366, "lon": 18.332847}, {"type": "node", "id": 4251272058, "lat": 40.1055204, "lon": 18.33292}, {"type": "node", "id": 4251272066, "lat": 40.1055254, "lon": 18.3329046}, {"type": "node", "id": 4279734149, "lat": 40.1767485, "lon": 18.1750843, "tags": {"addr:city": "Galatina", "addr:housenumber": "48", "addr:street": "Via Soleto", "amenity": "pharmacy", "emergency": "defibrillator", "name": "Farmacia Mengoli"}}, {"type": "node", "id": 4281754871, "lat": 40.1213482, "lon": 18.3007025, "tags": {"addr:city": "Maglie", "addr:postcode": "73024", "addr:street": "Piazza Francesca Capece", "amenity": "pharmacy", "contact:city": "Maglie", "contact:housenumber": "2", "contact:postcode": "73024", "contact:street": "Piazza Francesca Capece", "dispensing": "yes", "healthcare": "pharmacy", "name": "Farmacia Tronci", "operator": "Provenzano - Tronci S.n.c.", "phone": "+39 0836 484124", "ref:msal": "13320", "ref:vatin": "IT02670500756"}}, {"type": "node", "id": 4281795775, "lat": 40.1183956, "lon": 18.2987449, "tags": {"addr:city": "Maglie", "addr:housenumber": "19", "addr:postcode": "73024", "addr:street": "Piazza Antonio Tamborino", "amenity": "pharmacy", "name": "Farmacia De Donno", "operator": "Francesco De Donno & C. S.n.c.", "phone": "+39 0836 423135", "ref:vatin": "IT03971380757"}}, {"type": "node", "id": 4281807713, "lat": 40.116252, "lon": 18.3041195, "tags": {"addr:city": "Maglie", "addr:housenumber": "76", "addr:postcode": "73024", "addr:street": "Via Salvatore Fitto", "amenity": "pharmacy", "entrance": "yes", "name": "Farmacia Pranzo", "phone": "+39 0836 483226"}}, {"type": "node", "id": 4440894008, "lat": 40.0867808, "lon": 18.3007243, "tags": {"addr:city": "Scorrano", "addr:housenumber": "8", "addr:postcode": "73020", "addr:street": "Via Supersano", "amenity": "pharmacy", "name": "Farmacia Artemisia"}}, {"type": "node", "id": 4451773246, "lat": 40.1578771, "lon": 18.2536281, "tags": {"addr:city": "Corigliano d'Otranto", "addr:housenumber": "66", "addr:postcode": "73022", "addr:street": "Via Atene", "amenity": "pharmacy", "name": "Farmacia De Palma", "opening_hours": "Mo-Su 08:30-12:45,16:30-20:00", "phone": "+39 0836 329474"}}, {"type": "node", "id": 4486640962, "lat": 40.0910215, "lon": 18.2997505, "tags": {"addr:city": "Scorrano", "addr:housenumber": "21", "addr:postcode": "73020", "addr:street": "Piazza Vittorio Emanuele II", "amenity": "pharmacy", "name": "Farmacia Chimica Spagnolo", "phone": "+39 0836 702277"}}, {"type": "node", "id": 4675623561, "lat": 40.3541958, "lon": 17.727638, "tags": {"amenity": "pharmacy", "name": "Farmacia Santa Lucia", "operator": "Dott.ssa Irene Leccese"}}, {"type": "node", "id": 5084217750, "lat": 40.3520852, "lon": 18.1809995, "tags": {"addr:city": "Lecce", "addr:housenumber": "53", "addr:postcode": "73100", "addr:street": "Via Novantacinquesimo Reggimento Fanteria", "amenity": "pharmacy", "dispensing": "yes", "healthcare": "pharmacy", "name": "Farmacia De Pace Licignano", "operator": "Farmacia De Pace Licignano dei Dottori De Pace Vito Francesco e Licignano Raffaella S.n.c.", "ref:msal": "13231", "ref:vatin": "IT02658310756", "wheelchair": "yes"}}, {"type": "node", "id": 5157189467, "lat": 40.1731959, "lon": 18.2938926, "tags": {"addr:city": "Castrignano de' Greci", "addr:housenumber": "15", "addr:postcode": "73020", "addr:street": "Via Arciprete De Mitri", "amenity": "pharmacy", "healthcare": "pharmacy", "name": "Farmacia Greco"}}, {"type": "node", "id": 5393875989, "lat": 40.3651488, "lon": 18.0702747, "tags": {"addr:city": "Lecce", "addr:hamlet": "Villa Convento", "addr:housenumber": "205", "addr:street": "Viale Luciano Pavarotti", "amenity": "pharmacy", "dispensing": "yes", "name": "Farmacia Villa Convento", "operator": "Farmacia Villa Convento S.n.c.", "ref:msal": "13233", "ref:vatin": "IT04528100755"}}, {"type": "node", "id": 5742098427, "lat": 40.0558356, "lon": 17.9921169, "tags": {"addr:housenumber": "13o", "addr:street": "Corso Roma", "amenity": "pharmacy", "dispensing": "yes", "name": "Farmacia Merenda"}}, {"type": "node", "id": 5779036497, "lat": 40.0559532, "lon": 17.9871089, "tags": {"addr:city": "Gallipoli", "addr:housenumber": "101", "addr:postcode": "73014", "addr:street": "Corso Roma", "amenity": "pharmacy", "dispensing": "no", "entrance": "yes", "name": "Parafarmacia"}}, {"type": "node", "id": 5998766455, "lat": 40.4044622, "lon": 18.0775131, "tags": {"amenity": "pharmacy", "dispensing": "yes", "healthcare": "pharmacy", "name": "Farmacia Perrone"}}, {"type": "node", "id": 5998766456, "lat": 40.4070779, "lon": 18.0738908, "tags": {"amenity": "pharmacy", "dispensing": "yes", "healthcare": "pharmacy", "name": "Farmacia Mignone"}}, {"type": "node", "id": 6063852459, "lat": 40.3521555, "lon": 18.1785037, "tags": {"addr:city": "Lecce", "addr:housenumber": "34", "addr:postcode": "73100", "addr:street": "Via Nazario Sauro", "amenity": "pharmacy", "dispensing": "yes", "entrance": "yes", "name": "Farmacia Errico"}}, {"type": "node", "id": 6533869061, "lat": 40.2629937, "lon": 17.8885275, "tags": {"amenity": "pharmacy", "dispensing": "no", "healthcare": "pharmacy", "name": "Farmacista Dottor Nestola"}}, {"type": "node", "id": 6657098398, "lat": 40.2728689, "lon": 18.0486834, "tags": {"amenity": "pharmacy", "dispensing": "yes", "name": "Farmacia Fasano"}}, {"type": "node", "id": 6657107809, "lat": 40.2725221, "lon": 18.0482747, "tags": {"amenity": "pharmacy", "name": "Farmacia Nestola"}}, {"type": "node", "id": 6697605004, "lat": 40.0558852, "lon": 17.9903372, "tags": {"addr:city": "Gallipoli", "addr:street": "Corso Roma", "amenity": "pharmacy", "entrance": "yes", "name": "Farmacia De Belvis"}}, {"type": "node", "id": 6779647925, "lat": 40.0587181, "lon": 17.9935705, "tags": {"addr:housenumber": "68", "addr:street": "Via Lecce", "amenity": "pharmacy", "dispensing": "yes", "entrance": "yes", "name": "Farmacia Manni", "wheelchair": "yes"}}, {"type": "node", "id": 6913370697, "lat": 40.3518564, "lon": 18.1797803, "tags": {"addr:city": "Lecce", "addr:housenumber": "30", "addr:postcode": "73100", "addr:street": "Via Novantacinquesimo Reggimento Fanteria", "amenity": "pharmacy", "dispensing": "no", "entrance": "yes", "name": "Parafarmacia De Lorenzo"}}, {"type": "node", "id": 6959463357, "lat": 40.0938764, "lon": 18.0632659, "tags": {"amenity": "pharmacy", "dispensing": "yes", "name": "Farmacia del Popolo"}}, {"type": "node", "id": 6991022901, "lat": 40.4009962, "lon": 17.9498852, "tags": {"amenity": "pharmacy", "dispensing": "yes", "name": "Farmacia Murrone"}}, {"type": "node", "id": 7100149201, "lat": 40.0550195, "lon": 17.9781169, "tags": {"addr:city": "Gallipoli", "addr:housenumber": "9", "addr:postcode": "73014", "addr:street": "Via Antonietta De Pace", "amenity": "pharmacy", "dispensing": "yes", "drive_through": "no", "healthcare": "pharmacy", "name": "Farmacia dal 1814", "operator": "Giovanni Serino & C. s.n.c.", "phone": "+39 0833 261567"}}, {"type": "node", "id": 7131966510, "lat": 40.3997823, "lon": 18.0219495, "tags": {"amenity": "pharmacy", "dispensing": "yes", "name": "Farmacia Conchiglia"}}, {"type": "node", "id": 7160481557, "lat": 40.3121389, "lon": 18.2016305, "tags": {"amenity": "pharmacy", "dispensing": "yes", "healthcare": "pharmacy", "name": "Farmacia Messapia"}}, {"type": "node", "id": 7160761908, "lat": 40.312504, "lon": 18.2001263, "tags": {"amenity": "pharmacy", "dispensing": "no", "name": "ParaFarmacia Dottor Sandro Cimino"}}, {"type": "node", "id": 7316885603, "lat": 40.0617646, "lon": 18.0613397, "tags": {"addr:city": "Alezio", "addr:housenumber": "61", "addr:postcode": "73011", "addr:street": "Via Salvatore Anaclerio", "amenity": "pharmacy", "dispensing": "yes", "name": "Farmacia Casal d'Alezio", "operator": "Farmacia Casal d'Alezio S.r.l.", "ref:msal": "19894", "ref:vatin": "IT04903640755"}}, {"type": "node", "id": 7316885619, "lat": 40.0657416, "lon": 18.0571132, "tags": {"addr:city": "Alezio", "addr:postcode": "73011", "addr:street": "Via Mariana Albina", "amenity": "pharmacy", "dispensing": "yes", "name": "Farmacia Raheli", "operator": "Farmacia Raheli Lannocca S.n.c. dei Dr. Antonio Lannocca e Paola Raheli", "ref:msal": "13289", "ref:vatin": "IT03600020758"}}, {"type": "node", "id": 7321835268, "lat": 40.133359, "lon": 18.1252527, "tags": {"addr:city": "Aradeo", "addr:housenumber": "31", "addr:street": "Via Torino", "amenity": "pharmacy", "dispensing": "yes", "healthcare": "pharmacy", "name": "Farmacia San Nicola", "operator": "Farmacia San Nicola Dr. Arturo Conte", "ref:msal": "19244", "ref:vatin": "IT04792060750"}}, {"type": "node", "id": 7321835272, "lat": 40.1302386, "lon": 18.1346899, "tags": {"addr:city": "Aradeo", "addr:street": "Via R. Grieco", "amenity": "pharmacy", "dispensing": "yes", "name": "Farmacia Dott.ssa Frigino Emilia", "operator": "Frigino Emilia", "ref:msal": "13200", "ref:vatin": "IT02027020755"}}, {"type": "node", "id": 7321835275, "lat": 40.1299729, "lon": 18.1300361, "tags": {"addr:housenumber": "57", "addr:street": "Via Martiri della Libert\u00e0", "amenity": "pharmacy", "dispensing": "yes", "name": "Farmacia Frigino", "operator": "Farmacia Frigino del Dott. Cesare Frigino & C. S.n.c.", "ref:msal": "13167", "ref:vatin": "IT02605670757"}}, {"type": "node", "id": 7322895441, "lat": 40.3360749, "lon": 18.0914475, "tags": {"addr:housenumber": "9", "addr:street": "Via Marchese Bernardini", "entrance": "yes"}}, {"type": "node", "id": 7322895442, "lat": 40.3360486, "lon": 18.0914795, "tags": {"addr:housenumber": "7", "addr:street": "Via Marchese Bernardini", "entrance": "yes"}}, {"type": "node", "id": 7322895445, "lat": 40.3360064, "lon": 18.0915308}, {"type": "node", "id": 7322895446, "lat": 40.3360678, "lon": 18.091387}, {"type": "node", "id": 7322895447, "lat": 40.3359779, "lon": 18.0914851}, {"type": "node", "id": 7328939519, "lat": 40.3991518, "lon": 18.018129, "tags": {"addr:city": "Campi Salentina", "addr:housenumber": "52", "addr:postcode": "73012", "addr:street": "Via San Giovanni", "amenity": "pharmacy", "dispensing": "yes", "name": "Farmacia Picerno", "operator": "Farmacia Picerno del Dott. Antonio Picerno & C. S.a.s.", "ref:msal": "13147", "ref:vatin": "IT05057020751"}}, {"type": "node", "id": 7334797414, "lat": 40.3658745, "lon": 18.1691021, "tags": {"addr:city": "Lecce", "addr:housenumber": "135", "addr:postcode": "73100", "addr:street": "Via Adriatica", "amenity": "pharmacy", "dispensing": "yes", "healthcare": "pharmacy", "level": "0", "name": "Farmacia Santa Rosa", "operator": "Farmacia Santa Rosa S.n.c. delle Dottoresse Allegretti S., Greco L., Nuccio M.G. & C.", "ref:msal": "19240", "ref:vatin": "IT04789970755"}}, {"type": "node", "id": 7334797438, "lat": 40.3460312, "lon": 18.1896302, "tags": {"addr:city": "Lecce", "addr:housenumber": "45", "addr:postcode": "73100", "addr:street": "Via Merine", "amenity": "pharmacy", "dispensing": "yes", "healthcare": "pharmacy", "name": "Farmacia del Salento", "operator": "Farmacia Del Salento della Dott.ssa Lenti Maria Carmela & C. S.n.c.", "ref:msal": "19259", "ref:vatin": "IT04788610758"}}, {"type": "node", "id": 7334797463, "lat": 40.3420306, "lon": 18.1597009, "tags": {"addr:city": "Lecce", "addr:housenumber": "21-23", "addr:postcode": "73100", "addr:street": "Via Daniela e Paola Bastianutti", "amenity": "pharmacy", "dispensing": "yes", "healthcare": "pharmacy", "name": "Farmacia Lupiae", "operator": "Farmacia Lupiae S.n.c. dei Dottori Matino Edvige, Tommasi Mario Etrevisi Claudio", "phone": "+39 0832 354007", "ref:msal": "19584", "ref:vatin": "IT04859970750"}}, {"type": "node", "id": 7334803795, "lat": 40.3445171, "lon": 18.1445515, "tags": {"addr:city": "Lecce", "addr:housenumber": "107", "addr:postcode": "73100", "addr:street": "Via Monteroni", "amenity": "pharmacy", "dispensing": "yes", "name": "Farmacia Ventresca", "operator": "Farmacia Ventresca S.n.c. dei Dottori Maria Rosaria Clotilde Benedetta e Giovanni Gennaro Ventresca", "ref:msal": "20359", "ref:vatin": "IT04935680753"}}, {"type": "node", "id": 7505642383, "lat": 40.2933259, "lon": 18.1976235, "tags": {"addr:city": "Cavallino", "addr:postcode": "73020", "addr:street": "Strada Statale 16 Adriatica", "amenity": "pharmacy", "dispensing": "no", "healthcare": "pharmacy", "name": "Parafarmacia Conad", "opening_hours": "Mo-Sa 09:00-21:00; Su 10:00-21:00", "operator": "Conad", "wheelchair": "yes"}}, {"type": "node", "id": 8443341046, "lat": 40.3407383, "lon": 17.9670453, "tags": {"amenity": "pharmacy", "dispensing": "yes", "name": "Farmacia San Giovanni"}}, {"type": "node", "id": 8493001144, "lat": 40.3267362, "lon": 18.1819385, "tags": {"amenity": "pharmacy", "dispensing": "yes"}}, {"type": "node", "id": 8494647910, "lat": 40.3756282, "lon": 18.0499256, "tags": {"amenity": "pharmacy", "dispensing": "yes", "name": "Farmacia Greco"}}, {"type": "node", "id": 8494647913, "lat": 40.3770391, "lon": 18.0506068, "tags": {"amenity": "pharmacy", "dispensing": "yes", "name": "Farmacia Marzo"}}, {"type": "node", "id": 8582103695, "lat": 40.3473506, "lon": 18.1870122, "tags": {"addr:city": "Lecce", "addr:housenumber": "10", "addr:postcode": "73100", "addr:street": "Via Merine", "amenity": "pharmacy", "dispensing": "no", "email": "parafarmacibenessere@gmail.com", "healthcare": "pharmacy", "name": "Parafarmacia Farmaci & Benessere", "opening_hours": "Mo-Sa 08:30-13:30, 16:30-20:30", "payment:cash": "yes", "phone": "+39 0832 1690019"}}, {"type": "node", "id": 8931362702, "lat": 40.332651, "lon": 17.9673081, "tags": {"amenity": "pharmacy", "dispensing": "yes", "name": "Farmacia Dottor Catalano"}}, {"type": "node", "id": 9029167581, "lat": 40.3989319, "lon": 18.0182082, "tags": {"amenity": "pharmacy", "dispensing": "no", "name": "Parafarmacia San Giovanni"}}, {"type": "node", "id": 9049242486, "lat": 40.3394871, "lon": 18.0597894, "tags": {"amenity": "pharmacy", "dispensing": "yes", "healthcare": "pharmacy", "name": "Farmacia Barbagallo"}}, {"type": "node", "id": 9049242492, "lat": 40.3449425, "lon": 18.0511138, "tags": {"amenity": "pharmacy", "dispensing": "yes"}}, {"type": "node", "id": 9143070218, "lat": 40.3373803, "lon": 17.9624524, "tags": {"amenity": "pharmacy", "dispensing": "yes", "name": "Farmacia De Matteis"}}, {"type": "node", "id": 9161312373, "lat": 40.3459927, "lon": 18.0423014, "tags": {"amenity": "pharmacy", "dispensing": "yes"}}, {"type": "node", "id": 9162305891, "lat": 40.3852156, "lon": 17.9610811, "tags": {"FIXME": "verificare se dispensing=yes o no", "amenity": "pharmacy"}}, {"type": "node", "id": 9162887169, "lat": 40.3945947, "lon": 18.1355919, "tags": {"amenity": "pharmacy", "dispensing": "yes", "name": "Farmacia"}}, {"type": "node", "id": 9212659154, "lat": 40.3529484, "lon": 18.1842828, "tags": {"amenity": "pharmacy", "dispensing": "no", "healthcare": "pharmacy", "name": "Parafarmacia San Pietro"}}, {"type": "node", "id": 9216297208, "lat": 40.2902216, "lon": 17.9956249, "tags": {"amenity": "pharmacy", "dispensing": "yes", "name": "Farmacia Margapoti", "website": "http://www.farmaciamargapoti.it/"}}, {"type": "node", "id": 9217084908, "lat": 40.3347816, "lon": 17.9694191, "tags": {"amenity": "pharmacy", "dispensing": "yes"}}, {"type": "node", "id": 9291129625, "lat": 40.3485203, "lon": 18.0424107, "tags": {"amenity": "pharmacy", "dispensing": "no", "name": "Parafarmacia Epifani"}}, {"type": "node", "id": 9682143387, "lat": 40.3900471, "lon": 18.1318489, "tags": {"amenity": "pharmacy", "dispensing": "yes"}}, {"type": "node", "id": 9715959311, "lat": 40.321038, "lon": 18.0997859, "tags": {"addr:housenumber": "11", "addr:street": "Via Medaglie d'Argento Monteronesi", "amenity": "pharmacy", "healthcare": "pharmacy", "name": "Farmacia San Pio", "opening_hours": "Mo-Fr 08:00-13:00,16:30-20:00; Su 08:30-13:00,16:00-20:00", "phone": "+39 0832 159 0616", "website": "https://farmaciasanpio-monteroni.business.site/#details"}}, {"type": "node", "id": 9715977427, "lat": 40.3268412, "lon": 18.0979456, "tags": {"addr:housenumber": "15", "addr:street": "Via Alcide De Gasperi", "amenity": "pharmacy", "healthcare": "pharmacy", "name": "Farmacie Palmieri", "phone": "+39 0832 327026"}}, {"type": "node", "id": 9718135972, "lat": 40.3045146, "lon": 18.2279593, "tags": {"amenity": "pharmacy", "healthcare": "pharmacy", "name": "Farmacia Del Corso"}}, {"type": "node", "id": 9721015963, "lat": 40.2748375, "lon": 18.0441349, "tags": {"amenity": "pharmacy", "healthcare": "pharmacy", "name": "Parafarmacia Dott. Paola Pettossa"}}, {"type": "node", "id": 10068540364, "lat": 40.3948247, "lon": 18.1296475, "tags": {"amenity": "pharmacy", "dispensing": "yes", "name": "Farmacia Casciaro"}}, {"type": "node", "id": 10084987929, "lat": 40.3857763, "lon": 17.964967, "tags": {"amenity": "pharmacy", "dispensing": "yes"}}, {"type": "node", "id": 10085720825, "lat": 40.4132203, "lon": 17.9610955, "tags": {"amenity": "pharmacy", "dispensing": "yes"}}, {"type": "node", "id": 10301938821, "lat": 40.1808746, "lon": 18.0283244, "tags": {"amenity": "pharmacy", "dispensing": "yes", "healthcare": "pharmacy", "name": "Farmacia Orlando"}}, {"type": "node", "id": 10301938835, "lat": 40.1795024, "lon": 18.0345725, "tags": {"amenity": "pharmacy", "dispensing": "yes", "name": "Farmacia De Pace"}}, {"type": "node", "id": 10302397187, "lat": 40.2713289, "lon": 18.0486042, "tags": {"amenity": "pharmacy", "dispensing": "no", "name": "Parafarmacia Marcucci"}}, {"type": "node", "id": 10302397188, "lat": 40.2740986, "lon": 18.0459085, "tags": {"amenity": "pharmacy", "dispensing": "yes", "name": "Farmacia Portaluri"}}, {"type": "node", "id": 10724181171, "lat": 40.1473675, "lon": 18.197432, "tags": {"amenity": "pharmacy", "dispensing": "yes", "wheelchair": "yes"}}, {"type": "node", "id": 10882884690, "lat": 40.3485984, "lon": 18.1956325, "tags": {"amenity": "pharmacy", "dispensing": "no", "name": "Parafarmacia Le Querce", "operator": "Dott.ssa De Luca e Dott.ssa Tondo"}}, {"type": "node", "id": 10913830727, "lat": 40.101761, "lon": 18.3365157}, {"type": "node", "id": 10913950943, "lat": 40.1054875, "lon": 18.3329796}, {"type": "node", "id": 11117297388, "lat": 40.2876871, "lon": 17.9900346, "tags": {"amenity": "pharmacy", "dispensing": "yes"}}, {"type": "node", "id": 11207256237, "lat": 40.0555601, "lon": 17.9925984, "tags": {"amenity": "pharmacy"}}, {"type": "node", "id": 11329854320, "lat": 40.236353, "lon": 18.2559776, "tags": {"amenity": "pharmacy", "dispensing": "yes", "healthcare": "pharmacy"}}, {"type": "node", "id": 11391613996, "lat": 40.0578868, "lon": 17.9933575, "tags": {"amenity": "pharmacy", "healthcare": "pharmacy"}}, {"type": "node", "id": 11391867452, "lat": 40.1318947, "lon": 17.9965415, "tags": {"amenity": "pharmacy", "healthcare": "pharmacy"}}, {"type": "node", "id": 11391882674, "lat": 40.1735069, "lon": 18.1735385, "tags": {"amenity": "pharmacy", "check_date": "2023-12-03", "healthcare": "pharmacy", "name": "Dr. G. Licignano"}}, {"type": "node", "id": 11394042338, "lat": 40.3068611, "lon": 17.6746149, "tags": {"amenity": "pharmacy", "healthcare": "pharmacy"}}, {"type": "node", "id": 11402806171, "lat": 40.0729972, "lon": 18.0967539, "tags": {"amenity": "pharmacy", "dispensing": "yes", "name": "Farmacia dottor Leonardo Gabellone"}}, {"type": "node", "id": 11904863120, "lat": 40.0651174, "lon": 18.0564688, "tags": {"amenity": "pharmacy", "dispensing": "no", "name": "Parafarmacia l'erbamedica"}}, {"type": "node", "id": 11905149618, "lat": 40.073518, "lon": 18.1625611, "tags": {"amenity": "pharmacy", "dispensing": "yes", "name": "Farmacia Giannelli"}}, {"type": "node", "id": 11917461863, "lat": 40.4347586, "lon": 18.0429632, "tags": {"amenity": "pharmacy", "dispensing": "yes", "name": "Farmacia Baltini"}}, {"type": "node", "id": 11930618631, "lat": 40.0713056, "lon": 18.1636807, "tags": {"amenity": "pharmacy", "dispensing": "yes"}}, {"type": "node", "id": 11945430043, "lat": 40.3551298, "lon": 18.1867263, "tags": {"amenity": "pharmacy", "dispensing": "no", "healthcare": "pharmacy"}}, {"type": "node", "id": 11945546251, "lat": 40.3038731, "lon": 18.1599278, "tags": {"amenity": "pharmacy", "dispensing": "yes", "name": "Farmacia Terragno"}}, {"type": "node", "id": 11945546254, "lat": 40.3053823, "lon": 18.1602442, "tags": {"amenity": "pharmacy", "dispensing": "no", "website": "https://sanitarias.it/"}}, {"type": "node", "id": 12040414687, "lat": 40.0733026, "lon": 18.0952455, "tags": {"amenity": "pharmacy", "dispensing": "yes", "name": "Farmacia San Giuseppe"}}, {"type": "node", "id": 12345890520, "lat": 40.1765766, "lon": 18.1616339, "tags": {"amenity": "pharmacy", "dispensing": "no", "name": "Parafarmacia Armmes"}}, {"type": "node", "id": 12604983856, "lat": 40.3453513, "lon": 18.0453743, "tags": {"amenity": "pharmacy", "dispensing": "yes", "healthcare": "pharmacy", "level": "0"}}, {"type": "node", "id": 12737327666, "lat": 40.2908382, "lon": 18.0001004, "tags": {"addr:city": "Leverano", "addr:postcode": "73045", "addr:street": "Via Giuseppe Garibaldi", "amenity": "pharmacy", "healthcare": "pharmacy", "name": "Farmacia Negro"}}, {"type": "way", "id": 299730109, "nodes": [3037522927, 3037522680, 3037522416, 3037522208, 3037522311, 3037522272, 3037522509, 3037522927], "tags": {"addr:city": "Lecce", "addr:housenumber": "66", "addr:postcode": "73100", "addr:street": "Via Dalmazio Birago", "amenity": "pharmacy", "building": "yes", "dispensing": "no", "name": "Medic's Biomedica"}}, {"type": "way", "id": 783948408, "nodes": [7322895446, 2995603117, 7322895441, 7322895442, 7322895445, 7322895447, 7322895446], "tags": {"addr:city": "Arnesano", "addr:housenumber": "9", "addr:postcode": "73010", "addr:street": "Via Marchese Bernardini", "amenity": "pharmacy", "building": "yes", "building:levels": "1", "name": "Farmacia Dr.ssa Maria Stefanizzo", "operator": "Farmacia Dr.ssa Maria Stefanizzo & Co. s.n.c.", "ref:msal": "13161", "ref:vatin": "IT04928730755"}}, {"type": "way", "id": 1174515007, "nodes": [4251262291, 4251262312, 4251262367, 4251262366, 4251262392, 4251262398, 4251262465, 4251262460, 10913830727, 4251262291], "tags": {"amenity": "pharmacy", "building": "yes", "healthcare": "pharmacy", "name": "Farmacia Culiersi"}}, {"type": "way", "id": 1174533145, "nodes": [4251271829, 4251271838, 10913950943, 4251272058, 4251272066, 4251271887, 4251271829], "tags": {"amenity": "pharmacy", "building": "yes", "healthcare": "pharmacy", "name": "Farmacia Nuova"}}]}