{"version": 0.6, "generator": "Overpass API 0.7.62.8 e802775f", "osm3s": {"timestamp_osm_base": "2025-10-06T07:54:35Z", "copyright": "The data included in this document is from www.openstreetmap.org. The data is made available under ODbL."}, "elements": [{"type": "node", "id": 1344618310, "lat": 42.6551749, "lon": 20.2929283, "tags": {"amenity": "pharmacy", "name": "Barnatore \"REMEDIA\" Driton Berisha"}}, {"type": "node", "id": 2310393137, "lat": 42.3695469, "lon": 20.4310036, "tags": {"addr:floor": "G", "amenity": "pharmacy", "check_date": "2023-09-24", "level": "0", "name": "Rizvanolli", "opening_hours": "Mo-Sa 08:00-20:00", "operator": "Labeat Rizvanolli", "wheelchair": "yes"}}, {"type": "node", "id": 2310393139, "lat": 42.3697808, "lon": 20.4308651, "tags": {"addr:floor": "G", "amenity": "pharmacy", "check_date": "2023-07-02", "drive_through": "no", "level": "0", "name": "Bima Bli", "payment:cards": "no", "payment:cash": "yes", "payment:credit_cards": "no", "payment:debit_cards": "no", "wheelchair": "yes"}}, {"type": "node", "id": 2440877084, "lat": 42.3695857, "lon": 20.4311955, "tags": {"amenity": "pharmacy"}}, {"type": "node", "id": 3731111167, "lat": 42.3902628, "lon": 20.4261838, "tags": {"amenity": "pharmacy", "healthcare": "pharmacy", "name": "Edi Farm", "opening_hours": "07:00-20:00", "shop": "chemist"}}, {"type": "node", "id": 3747375658, "lat": 42.369829, "lon": 20.4308265, "tags": {"addr:city": "Gjakova", "addr:floor": "G", "addr:postcode": "50000", "addr:street": "D\u00ebshmor\u00ebt e Liris\u00eb", "amenity": "pharmacy", "atm": "yes", "check_date": "2023-09-24", "internet_access": "wlan", "level": "0", "name": "Mena-Med", "opening_hours": "07:00-23:00", "operator": "Armend F. Lamaxhema", "wheelchair": "yes"}}, {"type": "node", "id": 3751733685, "lat": 42.3697441, "lon": 20.4312346, "tags": {"addr:floor": "G", "amenity": "pharmacy", "check_date": "2023-09-24", "level": "0", "name": "Gega Farm", "opening_hours": "Mo-Sa 08:00-21:00", "operator": "Gjon Gega", "wheelchair": "yes"}}, {"type": "node", "id": 3751733686, "lat": 42.3698875, "lon": 20.4308025, "tags": {"addr:floor": "G", "amenity": "pharmacy", "check_date": "2023-09-24", "healthcare": "pharmacy", "level": "0", "name": "Hygia", "wheelchair": "no"}}, {"type": "node", "id": 3751737043, "lat": 42.3801813, "lon": 20.4277115, "tags": {"amenity": "pharmacy", "healthcare": "pharmacy"}}, {"type": "node", "id": 3751737573, "lat": 42.3722318, "lon": 20.4362087, "tags": {"amenity": "pharmacy", "name": "Dr. Agimi"}}, {"type": "node", "id": 3762046437, "lat": 42.3882023, "lon": 20.4316469, "tags": {"amenity": "pharmacy", "healthcare": "pharmacy", "name": "Diellza pharm"}}, {"type": "node", "id": 4418034793, "lat": 42.5700298, "lon": 20.7172601, "tags": {"addr:street": "R-119", "amenity": "pharmacy", "name": "melisa apothecary", "name:en": "Melissa pharmacy", "name:sq": "Melissa pharmacy", "name:sr": "melisa apothecary", "opening_hours": "Mo-Su 08:00-06:00", "operator": "Bajram Seferaj", "phone": "+38344229460"}}, {"type": "node", "id": 4424333389, "lat": 42.5697835, "lon": 20.7176595, "tags": {"addr:street": "rruga kijeve malishev", "amenity": "pharmacy", "name": "MELISSA KIJEVE", "name:sq": "MELISSA KIJEVE", "name:sr": "Melissa Kijevo", "opening_hours": "Mo-Su 08:00-16:00", "operator": "Bajram Seferaj", "phone": "+38344229460"}}, {"type": "node", "id": 4491319724, "lat": 42.3820529, "lon": 20.4305674, "tags": {"amenity": "pharmacy", "healthcare": "pharmacy", "name": "Leka pharm"}}, {"type": "node", "id": 4561853889, "lat": 42.3902705, "lon": 20.6448212, "tags": {"addr:housenumber": "387", "addr:postcode": "21000", "addr:street": "Gezim Hamza - Piktori", "amenity": "pharmacy", "contact:email": "dpt.kamberi@gmail.com", "contact:phone": "+38349367116", "name": "Barnatore Bujqesore KAMBERI", "name:sq": "Barnatore Bujqesore KAMBERI", "opening_hours": "Mo-Su 07:00-07:00, 20:00-20:00"}}, {"type": "node", "id": 4561853989, "lat": 42.4007252, "lon": 20.6563282, "tags": {"addr:postcode": "21000", "addr:street": "Xhelal Hajda - TONI", "amenity": "pharmacy", "email": "dpt.kamberi@gmail.com", "name": "Barnatore Bujqesore KAMBERI", "name:sq": "Barnatore Bujqesore KAMBERI", "opening_hours": "Mo-Su 07:00-20:00", "phone": "+38349367116"}}, {"type": "node", "id": 4585934907, "lat": 42.6597384, "lon": 20.3043902, "tags": {"amenity": "pharmacy"}}, {"type": "node", "id": 4585935301, "lat": 42.6564933, "lon": 20.3061569, "tags": {"amenity": "pharmacy", "name": "Kastrati", "name:sq": "Kastrati"}}, {"type": "node", "id": 5659692027, "lat": 42.6593718, "lon": 20.2907738, "tags": {"addr:city": "Pej\u00eb", "addr:postcode": "39000", "addr:street": "Mbret\u00ebresha Teut\u00eb", "amenity": "pharmacy", "healthcare": "pharmacy", "name": "LIKA", "opening_hours": "Su 10:00-17:00"}}, {"type": "node", "id": 5989033485, "lat": 42.570455, "lon": 20.7177715, "tags": {"addr:street": "R-119", "amenity": "pharmacy", "name": "Melissa Kijev\u00eb", "opening_hours": "Mo-Sa 08:00-18:00; Su 00:00-24:00", "operator": "Bajram Seferaj", "phone": "+38344229460"}}, {"type": "node", "id": 6436650321, "lat": 42.6580615, "lon": 20.2927466, "tags": {"amenity": "pharmacy", "name": "Family Pharm"}}, {"type": "node", "id": 6721252986, "lat": 42.3770576, "lon": 20.4336662, "tags": {"addr:housenumber": "44", "addr:postcode": "50000", "addr:street": "Skenderbeu", "amenity": "pharmacy", "email": "aquapharm@live.com", "healthcare": "pharmacy", "name": "Barnatore AQUAPHARM", "name:en": "AQUAPHARM", "opening_hours": "Mo-Sa 08:00-22:00", "operator": "Rrezarta Batalli", "phone": "+38344118317;0038344118317", "website": "https://www.facebook.com/aquapharm"}}, {"type": "node", "id": 7138617185, "lat": 42.6551757, "lon": 20.2929179, "tags": {"addr:street": "Eliot L. Engel", "amenity": "pharmacy", "name": "\"REMEDIA\" TE Dritoni"}}, {"type": "node", "id": 7340319518, "lat": 42.7816024, "lon": 20.4885758, "tags": {"addr:city": "Istog", "addr:housenumber": "8", "addr:postcode": "31000", "addr:street": "Fehmi Agani", "amenity": "pharmacy", "dispensing": "yes", "healthcare": "pharmacy", "name": "ES-Pharm", "opening_hours": "Mo-Su 08:00-23:00", "operator": "Sefedin Fekaj"}}, {"type": "node", "id": 7340485542, "lat": 42.7806343, "lon": 20.4863844, "tags": {"addr:city": "Istog", "addr:housenumber": "38", "addr:postcode": "31000", "addr:street": "Ibrahim Rugova", "amenity": "pharmacy", "dispensing": "yes", "drive_through": "yes", "healthcare": "pharmacy", "name": "Healthcare Pharmacy", "opening_hours": "Mo-Su 07:00-23:00", "phone": "+38349250834"}}, {"type": "node", "id": 7343756769, "lat": 42.3830078, "lon": 20.4305559, "tags": {"addr:housenumber": "57", "addr:street": "N\u00ebna Terez\u00eb", "amenity": "pharmacy", "healthcare": "pharmacy", "name": "Hana"}}, {"type": "node", "id": 7370366685, "lat": 42.6631527, "lon": 20.2979385, "tags": {"amenity": "pharmacy", "healthcare": "pharmacy", "name": "Index Pharm 2"}}, {"type": "node", "id": 7397549185, "lat": 42.3776133, "lon": 20.4344767, "tags": {"amenity": "pharmacy", "check_date": "2023-10-01", "healthcare": "pharmacy", "level": "0", "name": "Kea Pharmacy", "wheelchair": "yes"}}, {"type": "node", "id": 7429360486, "lat": 42.6174262, "lon": 20.5762912, "tags": {"amenity": "pharmacy", "name": "Doni"}}, {"type": "node", "id": 7429360487, "lat": 42.6192201, "lon": 20.5724507, "tags": {"amenity": "pharmacy", "name": "Besi"}}, {"type": "node", "id": 7429360586, "lat": 42.6198751, "lon": 20.575063, "tags": {"amenity": "pharmacy", "name": "Ariana"}}, {"type": "node", "id": 7429360587, "lat": 42.6194741, "lon": 20.571939, "tags": {"addr:city": "Kline", "addr:postcode": "32000", "addr:street": "Muhamet Haxhaj", "amenity": "pharmacy", "dispensing": "yes", "drive_through": "yes", "healthcare": "pharmacy", "name": "Biolab ZAFI", "name:en": "Biolab ZAFI", "name:sq": "Biolab ZAFI", "operator": "Laboratory", "phone": "+38349405055", "website": "https://www.biolabzafi.com/"}}, {"type": "node", "id": 7429381085, "lat": 42.5964284, "lon": 20.5786997, "tags": {"amenity": "pharmacy", "name": "KekaMed"}}, {"type": "node", "id": 7429381285, "lat": 42.6193942, "lon": 20.5729541, "tags": {"amenity": "pharmacy", "name": "Ndue Prenaj"}}, {"type": "node", "id": 7429437885, "lat": 42.6653208, "lon": 20.3009052, "tags": {"amenity": "pharmacy", "name": "LeoMed"}}, {"type": "node", "id": 7429439485, "lat": 42.6654859, "lon": 20.3008754, "tags": {"amenity": "pharmacy", "name": "Arsa"}}, {"type": "node", "id": 7429439585, "lat": 42.6656668, "lon": 20.3010899, "tags": {"amenity": "pharmacy", "name": "Edona"}}, {"type": "node", "id": 7429750685, "lat": 42.6453137, "lon": 20.2922777, "tags": {"amenity": "pharmacy", "name": "Bio pharm"}}, {"type": "node", "id": 7429844485, "lat": 42.5427619, "lon": 20.2898915, "tags": {"amenity": "pharmacy", "name": "Palin"}}, {"type": "node", "id": 7429844585, "lat": 42.5407536, "lon": 20.2886775, "tags": {"amenity": "pharmacy", "name": "Alea"}}, {"type": "node", "id": 7429854885, "lat": 42.5340928, "lon": 20.2932605, "tags": {"amenity": "pharmacy", "name": "Melissa"}}, {"type": "node", "id": 7429869485, "lat": 42.5321713, "lon": 20.29416, "tags": {"amenity": "pharmacy", "name": "Jetoni"}}, {"type": "node", "id": 7429869486, "lat": 42.5325135, "lon": 20.2938975, "tags": {"amenity": "pharmacy", "name": "Fati"}}, {"type": "node", "id": 7452227385, "lat": 42.7815914, "lon": 20.4886512, "tags": {"amenity": "pharmacy", "name": "ES Pharm"}}, {"type": "node", "id": 7452227386, "lat": 42.661005, "lon": 20.275208, "tags": {"amenity": "pharmacy", "name": "Fati 1"}}, {"type": "node", "id": 7452227585, "lat": 42.7820075, "lon": 20.4823349, "tags": {"amenity": "pharmacy", "name": "Bio Pharm"}}, {"type": "node", "id": 7452227685, "lat": 42.6627881, "lon": 20.297134, "tags": {"amenity": "pharmacy", "healthcare": "pharmacy", "name": "Lika"}}, {"type": "node", "id": 7452227686, "lat": 42.6593913, "lon": 20.2915875, "tags": {"amenity": "pharmacy", "name": "Edona"}}, {"type": "node", "id": 7452227785, "lat": 42.662736, "lon": 20.2977441, "tags": {"amenity": "pharmacy", "healthcare": "pharmacy", "name": "Roli"}}, {"type": "node", "id": 7452227885, "lat": 42.6602385, "lon": 20.2907852, "tags": {"amenity": "pharmacy", "healthcare": "pharmacy", "name": "Begolli", "opening_hours": "Mo-Sa 07:00-22:00"}}, {"type": "node", "id": 7695441486, "lat": 42.3756618, "lon": 20.4401025, "tags": {"addr:floor": "G", "amenity": "pharmacy", "check_date": "2025-01-20", "drive_through": "no", "healthcare": "pharmacy", "level": "0", "name": "Kujdesi", "wheelchair": "no"}}, {"type": "node", "id": 7695441585, "lat": 42.3808315, "lon": 20.4307714, "tags": {"amenity": "pharmacy", "healthcare": "pharmacy", "name": "Roka"}}, {"type": "node", "id": 7695441586, "lat": 42.3782381, "lon": 20.4310973, "tags": {"amenity": "pharmacy", "healthcare": "pharmacy", "name": "Aloe pharm"}}, {"type": "node", "id": 7695441587, "lat": 42.3759369, "lon": 20.4395536, "tags": {"amenity": "pharmacy", "check_date": "2023-09-30", "healthcare": "pharmacy", "level": "0", "name": "Aloe Vera", "opening_hours": "Mo-Sa 08:00-21:00"}}, {"type": "node", "id": 7695441685, "lat": 42.3721707, "lon": 20.4358786, "tags": {"amenity": "pharmacy", "name": "Super pharm"}}, {"type": "node", "id": 7773282185, "lat": 42.6541326, "lon": 20.2940627, "tags": {"addr:postcode": "30000", "addr:street": "Beteja e Koshar\u00ebs", "amenity": "pharmacy", "email": "medicalpharmks@gmail.com", "name": "Medicalpharm", "opening_hours": "Mo-Sa 08:00-22:00; Su 11:00-20:00"}}, {"type": "node", "id": 8256247299, "lat": 42.7806857, "lon": 20.4862739}, {"type": "node", "id": 8256247300, "lat": 42.7807188, "lon": 20.4863598}, {"type": "node", "id": 8256253091, "lat": 42.780632, "lon": 20.4864294}, {"type": "node", "id": 8256253092, "lat": 42.7805949, "lon": 20.4863457}, {"type": "node", "id": 8262686082, "lat": 42.7760315, "lon": 20.4878617}, {"type": "node", "id": 8262686083, "lat": 42.7760512, "lon": 20.4880655}, {"type": "node", "id": 8262686084, "lat": 42.7760049, "lon": 20.4880777}, {"type": "node", "id": 8262686085, "lat": 42.7759862, "lon": 20.487871}, {"type": "node", "id": 8272444041, "lat": 42.7821692, "lon": 20.4824781, "tags": {"addr:city": "Istog", "addr:postcode": "31000", "addr:street": "Mullinjt\u00eb e Istogut", "amenity": "pharmacy", "dispensing": "yes", "healthcare": "pharmacy"}}, {"type": "node", "id": 8622186796, "lat": 42.4121797, "lon": 20.5393311, "tags": {"amenity": "pharmacy", "dispensing": "yes", "healthcare": "pharmacy", "name": "Gen Pharm"}}, {"type": "node", "id": 9009830984, "lat": 42.682362, "lon": 20.3171806, "tags": {"amenity": "pharmacy", "healthcare": "pharmacy", "name": "B"}}, {"type": "node", "id": 9009992657, "lat": 42.6657664, "lon": 20.3012592, "tags": {"amenity": "pharmacy", "healthcare": "pharmacy", "name": "Leo Med"}}, {"type": "node", "id": 9009992664, "lat": 42.6654684, "lon": 20.3003735, "tags": {"amenity": "pharmacy", "healthcare": "pharmacy", "name": "Siar"}}, {"type": "node", "id": 9011052138, "lat": 42.6582755, "lon": 20.2862273, "tags": {"amenity": "pharmacy", "healthcare": "pharmacy", "name": "Salihaj"}}, {"type": "node", "id": 9011052160, "lat": 42.6580676, "lon": 20.2863907, "tags": {"amenity": "pharmacy", "healthcare": "pharmacy", "name": "Rea Pharm"}}, {"type": "node", "id": 9011052166, "lat": 42.6608497, "lon": 20.2866956, "tags": {"amenity": "pharmacy", "healthcare": "pharmacy"}}, {"type": "node", "id": 9011052172, "lat": 42.6612547, "lon": 20.2838466, "tags": {"amenity": "pharmacy", "healthcare": "pharmacy", "name": "Kushtrim"}}, {"type": "node", "id": 9091313026, "lat": 42.6612061, "lon": 20.2768092, "tags": {"amenity": "pharmacy"}}, {"type": "node", "id": 9091313132, "lat": 42.6613101, "lon": 20.2838312, "tags": {"amenity": "pharmacy"}}, {"type": "node", "id": 9091313136, "lat": 42.6614327, "lon": 20.2997857, "tags": {"amenity": "pharmacy"}}, {"type": "node", "id": 9091313320, "lat": 42.6607658, "lon": 20.2745368, "tags": {"amenity": "pharmacy"}}, {"type": "node", "id": 9091313324, "lat": 42.6611083, "lon": 20.3021961, "tags": {"amenity": "pharmacy"}}, {"type": "node", "id": 9091313432, "lat": 42.6608507, "lon": 20.2748063, "tags": {"amenity": "pharmacy"}}, {"type": "node", "id": 9091313433, "lat": 42.6613062, "lon": 20.2783009, "tags": {"amenity": "pharmacy"}}, {"type": "node", "id": 9091313618, "lat": 42.660814, "lon": 20.2746624, "tags": {"amenity": "pharmacy"}}, {"type": "node", "id": 9091314020, "lat": 42.6581121, "lon": 20.2863155, "tags": {"amenity": "pharmacy"}}, {"type": "node", "id": 9094371018, "lat": 42.6556381, "lon": 20.2927534, "tags": {"amenity": "pharmacy"}}, {"type": "node", "id": 9094371019, "lat": 42.6558181, "lon": 20.292515, "tags": {"amenity": "pharmacy"}}, {"type": "node", "id": 9094371027, "lat": 42.6615917, "lon": 20.2989524, "tags": {"amenity": "pharmacy"}}, {"type": "node", "id": 9103438726, "lat": 42.3803495, "lon": 20.4277854, "tags": {"amenity": "pharmacy"}}, {"type": "node", "id": 9103438742, "lat": 42.3755915, "lon": 20.4263105, "tags": {"amenity": "pharmacy"}}, {"type": "node", "id": 9103438854, "lat": 42.3703432, "lon": 20.4196686, "tags": {"amenity": "pharmacy"}}, {"type": "node", "id": 9103438858, "lat": 42.3824002, "lon": 20.4349236, "tags": {"amenity": "pharmacy", "healthcare": "pharmacy"}}, {"type": "node", "id": 9103438930, "lat": 42.3826726, "lon": 20.4343172, "tags": {"amenity": "pharmacy", "healthcare": "pharmacy"}}, {"type": "node", "id": 9103439117, "lat": 42.386595, "lon": 20.4284611, "tags": {"amenity": "pharmacy", "healthcare": "pharmacy"}}, {"type": "node", "id": 9103439119, "lat": 42.3754765, "lon": 20.4265875, "tags": {"amenity": "pharmacy"}}, {"type": "node", "id": 9688315717, "lat": 42.6194422, "lon": 20.578471, "tags": {"amenity": "pharmacy", "name": "GrandePharm"}}, {"type": "node", "id": 10765603389, "lat": 42.3922305, "lon": 20.4291672, "tags": {"amenity": "pharmacy", "healthcare": "pharmacy"}}, {"type": "node", "id": 10765638088, "lat": 42.3924457, "lon": 20.4241394, "tags": {"amenity": "pharmacy", "dispensing": "yes", "healthcare": "pharmacy"}}, {"type": "node", "id": 10765638089, "lat": 42.3919071, "lon": 20.4246444, "tags": {"amenity": "pharmacy", "dispensing": "yes", "healthcare": "pharmacy"}}, {"type": "node", "id": 11215379867, "lat": 42.3699134, "lon": 20.4336679, "tags": {"addr:floor": "G", "amenity": "pharmacy", "check_date": "2023-09-24", "healthcare": "pharmacy", "level": "0", "name": "Ideal", "opening_hours": "08:00-22:00", "operator": "Lirika Zhubi", "wheelchair": "yes"}}, {"type": "node", "id": 11215379874, "lat": 42.3697379, "lon": 20.4323246, "tags": {"addr:floor": "G", "amenity": "pharmacy", "check_date": "2023-09-24", "healthcare": "pharmacy", "level": "0", "name": "Elda Pharmacy", "opening_hours": "08:00-22:00", "operator": "Elda Mati", "wheelchair": "yes"}}, {"type": "node", "id": 11215379882, "lat": 42.3701291, "lon": 20.4340231, "tags": {"addr:floor": "G", "amenity": "pharmacy", "check_date": "2023-09-24", "healthcare": "pharmacy", "level": "0", "name": "Shehu Pharm", "wheelchair": "limited"}}, {"type": "node", "id": 11215379892, "lat": 42.3699386, "lon": 20.4306838, "tags": {"addr:floor": "G", "amenity": "pharmacy", "check_date": "2023-09-24", "healthcare": "pharmacy", "level": "0", "name": "Tilia-2", "opening_hours": "08:00-22:00", "wheelchair": "yes"}}, {"type": "node", "id": 11228830979, "lat": 42.3767521, "lon": 20.4365527, "tags": {"amenity": "pharmacy", "check_date": "2023-09-30", "healthcare": "pharmacy", "level": "0", "name": "Blendi Farm", "opening_hours": "Mo-Sa 08:00-21:00", "operator": "R. Cena"}}, {"type": "node", "id": 12937676524, "lat": 42.3706394, "lon": 20.4383783, "tags": {"addr:floor": "G", "amenity": "pharmacy", "check_date": "2025-06-20", "drive_through": "no", "healthcare": "pharmacy", "level": "0", "name": "Blue Pharm", "source": "local knowledge", "wheelchair": "no"}}, {"type": "way", "id": 888022486, "nodes": [8256247299, 8256247300, 8256253091, 8256253092, 8256247299], "tags": {"amenity": "pharmacy", "building": "yes", "dispensing": "yes", "healthcare": "pharmacy", "name": "Kastrati", "phone": "+38349851241"}}, {"type": "way", "id": 888737574, "nodes": [8262686082, 8262686083, 8262686084, 8262686085, 8262686082], "tags": {"addr:city": "Istog", "addr:housenumber": "22", "addr:postcode": "31000", "addr:street": "D\u00ebshmor\u00ebt D\u00ebrvishaj", "amenity": "pharmacy", "building": "yes", "dispensing": "yes", "healthcare": "pharmacy", "name": "Biohit"}}]}