{"version": 0.6, "generator": "Overpass API 0.7.62.8 e802775f", "osm3s": {"timestamp_osm_base": "2025-10-06T07:45:26Z", "copyright": "The data included in this document is from www.openstreetmap.org. The data is made available under ODbL."}, "elements": [{"type": "node", "id": 6455260887, "lat": 32.7609782, "lon": 22.2397718, "tags": {"amenity": "pharmacy", "name": "\u0635\u064a\u062f\u0644\u064a\u0629 \u0646\u0647\u0627\u0648\u0646\u062f", "name:ar": "\u0635\u064a\u062f\u0644\u064a\u0629 \u0646\u0647\u0627\u0648\u0646\u062f", "name:en": "Pharmacy"}}, {"type": "node", "id": 6814316787, "lat": 32.8981652, "lon": 21.9707471, "tags": {"amenity": "pharmacy", "healthcare": "pharmacy", "name": "\u0635\u064a\u062f\u0644\u064a\u0629 \u0627\u0644\u0645\u0646\u0627\u0631\u0629", "name:ar": "\u0635\u064a\u062f\u0644\u064a\u0629 \u0627\u0644\u0645\u0646\u0627\u0631\u0629"}}, {"type": "node", "id": 6814330886, "lat": 32.8954508, "lon": 21.9635468, "tags": {"amenity": "pharmacy", "healthcare": "pharmacy", "name": "\u0635\u064a\u062f\u0644\u064a\u0629 \u0627\u0644\u062a\u0631\u064a\u0627\u0642", "name:ar": "\u0635\u064a\u062f\u0644\u064a\u0629 \u0627\u0644\u062a\u0631\u064a\u0627\u0642"}}, {"type": "node", "id": 6888580685, "lat": 32.7629502, "lon": 22.237342, "tags": {"amenity": "pharmacy", "name": "\u0635\u064a\u062f\u0644\u064a\u0629 \u0627\u0645 \u0627\u0644\u0642\u0631\u064a", "name:ar": "\u0635\u064a\u062f\u0644\u064a\u0629 \u0627\u0645 \u0627\u0644\u0642\u0631\u064a", "name:en": "Pharmacy"}}, {"type": "node", "id": 7610667892, "lat": 32.762421, "lon": 22.2427119, "tags": {"amenity": "pharmacy", "dispensing": "yes", "healthcare": "pharmacy"}}, {"type": "node", "id": 7610667893, "lat": 32.762324, "lon": 22.2433748, "tags": {"amenity": "pharmacy", "dispensing": "yes", "healthcare": "pharmacy"}}, {"type": "node", "id": 7610667898, "lat": 32.7572747, "lon": 22.2387857, "tags": {"amenity": "pharmacy", "dispensing": "yes", "healthcare": "pharmacy"}}, {"type": "node", "id": 7711458140, "lat": 32.769513, "lon": 22.2411502, "tags": {"amenity": "pharmacy", "dispensing": "yes", "healthcare": "pharmacy"}}, {"type": "node", "id": 8058770685, "lat": 32.7641622, "lon": 22.2393466, "tags": {"addr:street": "\u0634\u0627\u0631\u0639 \u0627\u0644\u0645\u0631\u062d\u0648\u0645 \u0627\u0628\u0631\u0627\u0647\u064a\u0645 \u0628\u0643\u0627\u0631", "amenity": "pharmacy", "name": "\u0635\u064a\u062f\u0644\u064a\u0629 \u062f\u0627\u0631 \u0627\u0644\u062f\u0648\u0627\u0621", "name:ar": "\u0635\u064a\u062f\u0644\u064a\u0629 \u062f\u0627\u0631 \u0627\u0644\u062f\u0648\u0627\u0621", "name:en": "Pharmacy Dar aldawaa", "opening_hours": "Sa-Th 09:00-01:00; Fr 16:00-01:00", "phone": "0924352328"}}, {"type": "node", "id": 8071892917, "lat": 32.7611622, "lon": 22.2362153, "tags": {"addr:street": "\u0627\u0644\u0645\u0631\u062d\u0648\u0645 \u0627\u0628\u0631\u0627\u0647\u064a\u0645 \u0628\u0643\u0627\u0631", "amenity": "pharmacy", "name": "\u0635\u064a\u062f\u0644\u064a\u0629 \u0627\u0644\u0648\u062a\u064a\u0646", "name:ar": "\u0635\u064a\u062f\u0644\u064a\u0629 \u0627\u0644\u0648\u062a\u064a\u0646", "name:en": "Pharmacy El watin", "opening_hours": "24/7"}}, {"type": "node", "id": 8846096499, "lat": 32.7605322, "lon": 22.24079, "tags": {"amenity": "pharmacy", "healthcare": "pharmacy"}}, {"type": "node", "id": 13027282077, "lat": 32.7683225, "lon": 22.2421459, "tags": {"amenity": "pharmacy", "healthcare": "pharmacy"}}]}