{"version": 0.6, "generator": "Overpass API 0.7.62.8 e802775f", "osm3s": {"timestamp_osm_base": "2025-10-06T08:23:05Z", "copyright": "The data included in this document is from www.openstreetmap.org. The data is made available under ODbL."}, "elements": [{"type": "node", "id": 701889136, "lat": 52.5334938, "lon": 19.7543398, "tags": {"addr:city": "P\u0142ock", "addr:housenumber": "16D", "addr:postcode": "09-410", "addr:street": "Czwartak\u00f3w", "amenity": "pharmacy", "dispensing": "yes", "name": "Avena 2", "ref:csioz": "1093752"}}, {"type": "node", "id": 1215389668, "lat": 52.2686408, "lon": 19.869343, "tags": {"amenity": "pharmacy", "dispensing": "yes", "healthcare": "pharmacy", "name": "Zdrowie", "ref:csioz": "1011275"}}, {"type": "node", "id": 2289283414, "lat": 52.5475738, "lon": 19.6919782, "tags": {"amenity": "pharmacy", "healthcare": "pharmacy"}}, {"type": "node", "id": 2289302980, "lat": 52.5427828, "lon": 19.7541766, "tags": {"addr:city": "P\u0142ock", "addr:housenumber": "11", "addr:postcode": "09-410", "addr:street": "Hubalczyk\u00f3w", "amenity": "pharmacy", "dispensing": "yes", "healthcare": "pharmacy", "name": "Apteka ( G. i I. Lewiccy)", "opening_hours": "Mo-Fr 08:00-20:00; Sa 09:00-14:00", "ref:csioz": "1093076"}}, {"type": "node", "id": 2289302981, "lat": 52.5372906, "lon": 19.7516857, "tags": {"addr:city": "P\u0142ock", "addr:housename": "M-A-R-020", "addr:housenumber": "127", "addr:postcode": "09-410", "addr:street": "Wyszogrodzka", "amenity": "pharmacy", "dispensing": "yes", "healthcare": "pharmacy", "name": "Dr Zdrowie", "ref:csioz": "1191085"}}, {"type": "node", "id": 2397753954, "lat": 52.5545714, "lon": 19.6922675, "tags": {"addr:city": "P\u0142ock", "addr:housenumber": "1", "addr:postcode": "09-400", "addr:street": "Przemys\u0142owa", "amenity": "pharmacy", "brand": "Eskulap", "dispensing": "yes", "healthcare": "pharmacy", "name": "Eskulap", "ref:csioz": "1093163"}}, {"type": "node", "id": 2405223758, "lat": 52.5494618, "lon": 19.6939227, "tags": {"amenity": "pharmacy", "dispensing": "yes", "healthcare": "pharmacy", "name": "Mediq"}}, {"type": "node", "id": 2458613294, "lat": 52.5405769, "lon": 19.7076342, "tags": {"addr:city": "P\u0142ock", "addr:housenumber": "2", "addr:postcode": "09-402", "addr:street": "8 Pu\u0142ku Artylerii Lekkiej", "amenity": "pharmacy", "contact:phone": "+48 24 386-21-20", "dispensing": "yes", "name": "Zdrowoteka", "opening_hours": "Mo-Fr 08:00-20:00; Sa 09:00-19:00", "ref:csioz": "1191877"}}, {"type": "node", "id": 2587296855, "lat": 52.543488, "lon": 19.7204152, "tags": {"amenity": "pharmacy", "healthcare": "pharmacy", "name": "Lawenda"}}, {"type": "node", "id": 2871520224, "lat": 52.2377284, "lon": 19.6260193, "tags": {"addr:city": "\u017bychlin", "addr:housenumber": "72", "addr:postcode": "99-320", "addr:street": "Gabriela Narutowicza", "amenity": "pharmacy", "dispensing": "yes", "drive_through": "no", "healthcare": "pharmacy", "name": "Pod Z\u0142ot\u0105 Wag\u0105", "ref:csioz": "1016643"}}, {"type": "node", "id": 3027248286, "lat": 52.528936, "lon": 19.6804393}, {"type": "node", "id": 3027248288, "lat": 52.5290573, "lon": 19.6799882}, {"type": "node", "id": 3027248289, "lat": 52.5290024, "lon": 19.6805232}, {"type": "node", "id": 3027248291, "lat": 52.5290991, "lon": 19.6801063}, {"type": "node", "id": 3027248293, "lat": 52.5291602, "lon": 19.6801857}, {"type": "node", "id": 3210429576, "lat": 52.4258786, "lon": 19.4648441, "tags": {"addr:city": "Gostynin", "addr:housenumber": "37A", "addr:postcode": "09-500", "addr:street": "Wojska Polskiego", "amenity": "pharmacy", "brand": "Panaceum", "dispensing": "yes", "healthcare": "pharmacy", "name": "Panaceum", "ref:csioz": "1093920"}}, {"type": "node", "id": 3241793973, "lat": 52.370565, "lon": 19.9346922, "tags": {"addr:city": "S\u0142ubice", "addr:city:simc": "0575568", "addr:housenumber": "50", "addr:street": "P\u0142ocka", "addr:street:sym_ul": "16511", "amenity": "pharmacy", "dispensing": "yes", "healthcare": "pharmacy", "name": "Apteka Vademecum", "opening_hours": "Mo-Fr 08:00-18:00; Sa 08:00-13:00", "ref:csioz": "1093229", "source:addr": "slubiceplockie.e-mapa.net"}}, {"type": "node", "id": 3876121451, "lat": 52.4268337, "lon": 19.4651565, "tags": {"addr:city": "Gostynin", "addr:housenumber": "31A", "addr:postcode": "09-500", "addr:street": "Wojska Polskiego", "amenity": "pharmacy", "dispensing": "yes", "healthcare": "pharmacy", "name": "Apteka", "ref:csioz": "1092929"}}, {"type": "node", "id": 4184054125, "lat": 52.2315689, "lon": 19.3617698, "tags": {"amenity": "pharmacy", "dispensing": "yes", "email": "apteka_kutno@o2.pl", "healthcare": "pharmacy", "name": "S\u0142oneczna", "opening_hours": "Mo-Sa 07:00-21:00; Su 08:00-19:00", "payment:bancomat": "yes", "payment:cash": "yes", "payment:maestro": "yes", "payment:mastercard": "yes", "payment:visa": "yes", "payment:visa_debit": "yes", "payment:visa_electron": "yes", "phone": "+48 242542016", "ref:csioz": "1202941", "website": "https://www.aptekisloneczne.pl/"}}, {"type": "node", "id": 4291061899, "lat": 52.5165574, "lon": 19.7658123, "tags": {"addr:city": "P\u0142ock", "addr:housenumber": "89", "addr:postcode": "09-408", "addr:street": "Harcerska", "amenity": "pharmacy", "contact:phone": "+48 24 264-80-89", "dispensing": "yes", "name": "Apteka (HAAL)", "ref:csioz": "1093068", "wheelchair": "yes"}}, {"type": "node", "id": 4317123721, "lat": 52.5479735, "lon": 19.7153401, "tags": {"amenity": "pharmacy", "healthcare": "pharmacy", "name": "Apteka Vera"}}, {"type": "node", "id": 4408318589, "lat": 52.2421604, "lon": 19.6296105, "tags": {"addr:city": "\u017bychlin", "addr:housenumber": "3A", "addr:postcode": "99-320", "addr:street": "Romualda Traugutta", "amenity": "pharmacy", "brand": "Dr. Max", "brand:wikidata": "Q56317371", "dispensing": "yes", "drive_through": "yes", "healthcare": "pharmacy", "name": "Dr. Max", "ref:csioz": "1017858"}}, {"type": "node", "id": 5583008244, "lat": 52.5549151, "lon": 19.680648, "tags": {"addr:city": "P\u0142ock", "addr:housenumber": "4", "addr:postcode": "09-400", "addr:street": "Miodowa", "amenity": "pharmacy", "dispensing": "yes", "healthcare": "pharmacy", "name": "Avena 3", "opening_hours": "Mo-Sa 08:00-21:00", "operator": "Avena", "ref:csioz": "1093822"}}, {"type": "node", "id": 6220866783, "lat": 52.5551826, "lon": 19.667528, "tags": {"addr:city": "P\u0142ock", "addr:housenumber": "13", "addr:postcode": "09-400", "addr:street": "Jasna", "amenity": "pharmacy", "dispensing": "yes", "healthcare": "pharmacy", "name": "Dbam O Zdrowie (Doz)", "ref:csioz": "1179725"}}, {"type": "node", "id": 6567623610, "lat": 52.4218357, "lon": 19.4590278}, {"type": "node", "id": 6567623611, "lat": 52.421822, "lon": 19.4591917}, {"type": "node", "id": 6567623612, "lat": 52.4217976, "lon": 19.4591856}, {"type": "node", "id": 6567623613, "lat": 52.421787, "lon": 19.4592911}, {"type": "node", "id": 6567623614, "lat": 52.4218595, "lon": 19.4593086}, {"type": "node", "id": 6567623615, "lat": 52.4218582, "lon": 19.4593291}, {"type": "node", "id": 6567623616, "lat": 52.4219076, "lon": 19.4593362}, {"type": "node", "id": 6567623617, "lat": 52.4219339, "lon": 19.4590513}, {"type": "node", "id": 7023606146, "lat": 52.534968, "lon": 19.7247264, "tags": {"addr:city": "P\u0142ock", "addr:housenumber": "32", "addr:postcode": "09-402", "addr:street": "G\u00f3rna", "amenity": "pharmacy", "dispensing": "yes", "healthcare": "pharmacy", "name": "Lawenda", "ref:csioz": "1229784"}}, {"type": "node", "id": 7611758063, "lat": 52.428683, "lon": 19.4686103, "tags": {"addr:city": "Gostynin", "addr:housenumber": "4", "addr:postcode": "09-500", "addr:street": "Andrzeja Czapskiego", "amenity": "pharmacy", "dispensing": "yes", "healthcare": "pharmacy", "name": "Apteka Afarm", "ref:csioz": "1092880"}}, {"type": "node", "id": 7679905792, "lat": 52.5291175, "lon": 19.6800651}, {"type": "node", "id": 7679905793, "lat": 52.5290597, "lon": 19.6801925}, {"type": "node", "id": 7679905794, "lat": 52.5289937, "lon": 19.6801094}, {"type": "node", "id": 7679905795, "lat": 52.529, "lon": 19.6803213}, {"type": "node", "id": 7679905796, "lat": 52.5289944, "lon": 19.6803148}, {"type": "node", "id": 8190972491, "lat": 52.3705088, "lon": 19.9347339}, {"type": "node", "id": 8190972492, "lat": 52.3705544, "lon": 19.9347786}, {"type": "node", "id": 8190972493, "lat": 52.3705365, "lon": 19.9348298}, {"type": "node", "id": 8190972494, "lat": 52.370618, "lon": 19.9349059}, {"type": "node", "id": 8190972495, "lat": 52.3706516, "lon": 19.9348098}, {"type": "node", "id": 8190972496, "lat": 52.3706211, "lon": 19.9347809}, {"type": "node", "id": 8190972497, "lat": 52.3706597, "lon": 19.9346725}, {"type": "node", "id": 8190972498, "lat": 52.3705632, "lon": 19.9345809}, {"type": "node", "id": 8500416783, "lat": 52.3011708, "lon": 20.0380727}, {"type": "node", "id": 8500416784, "lat": 52.3012101, "lon": 20.0380503}, {"type": "node", "id": 8500416785, "lat": 52.3012072, "lon": 20.0380366}, {"type": "node", "id": 8500416786, "lat": 52.3012522, "lon": 20.0380112}, {"type": "node", "id": 8500416787, "lat": 52.3012211, "lon": 20.0378637}, {"type": "node", "id": 8500416788, "lat": 52.3011377, "lon": 20.0379113}, {"type": "node", "id": 9065815570, "lat": 52.4874237, "lon": 19.9308336, "tags": {"addr:city": "Nowe Miszewo", "addr:housenumber": "9A", "addr:postcode": "09-471", "addr:street": "Po\u0142udniowa", "amenity": "pharmacy", "dispensing": "yes", "healthcare": "pharmacy", "name": "Jerzy Bujnowski", "ref:csioz": "1094378"}}, {"type": "node", "id": 9067762979, "lat": 52.5518914, "lon": 19.7101506, "tags": {"addr:city": "P\u0142ock", "addr:housenumber": "56", "addr:postcode": "09-402", "addr:street": "Fryderyka Chopina", "amenity": "pharmacy", "dispensing": "yes", "healthcare": "pharmacy", "name": "Avena 8", "ref:csioz": "1212536"}}, {"type": "node", "id": 9067768575, "lat": 52.5475973, "lon": 19.701482, "tags": {"addr:city": "P\u0142ock", "addr:housenumber": "17", "addr:postcode": "09-402", "addr:street": "Aleja Stanis\u0142awa Jachowicza", "amenity": "pharmacy", "dispensing": "yes", "healthcare": "pharmacy", "name": "Farmika", "ref:csioz": "1093021"}}, {"type": "node", "id": 9277618444, "lat": 52.5326673, "lon": 19.7485229, "tags": {"amenity": "pharmacy", "name": "Narcisus", "phone": "+48242635190"}}, {"type": "node", "id": 9442275236, "lat": 52.5470974, "lon": 19.6892651, "tags": {"amenity": "pharmacy", "dispensing": "yes", "healthcare": "pharmacy"}}, {"type": "node", "id": 9586063510, "lat": 52.2409602, "lon": 19.3533326, "tags": {"addr:city": "Kutno", "addr:housenumber": "46", "addr:postcode": "99-300", "addr:street": "Marii Sk\u0142odowskiej-Curie", "amenity": "pharmacy", "dispensing": "yes", "name": "Medest Ii", "ref:csioz": "1014082"}}, {"type": "node", "id": 9586104402, "lat": 52.2446239, "lon": 19.6282277, "tags": {"addr:city": "\u017bychlin", "addr:housenumber": "2", "addr:postcode": "99-320", "addr:street": "Konwaliowa", "amenity": "pharmacy", "dispensing": "yes", "name": "Apteka Szlachetna", "ref:csioz": "1188328"}}, {"type": "node", "id": 9586106752, "lat": 52.2301241, "lon": 19.3642798, "tags": {"amenity": "pharmacy", "dispensing": "yes", "name": "Na Jana Paw\u0142a II", "name:prefix": "Apteka Spo\u0142eczna", "operator": "Grupa Nowa Farmacja", "ref:csioz": "1221719"}}, {"type": "node", "id": 9586128944, "lat": 52.230793, "lon": 19.3667053, "tags": {"addr:city": "Kutno", "addr:housenumber": "5", "addr:postcode": "99-300", "addr:street": "Kardyna\u0142a Stefana Wyszy\u0144skiego", "amenity": "pharmacy", "dispensing": "yes", "name": "Dr. Max", "ref:csioz": "1019597"}}, {"type": "node", "id": 9586143976, "lat": 52.2277702, "lon": 19.3749238, "tags": {"addr:city": "Kutno", "addr:housenumber": "2", "addr:postcode": "99-300", "addr:street": "W\u0142adys\u0142awa Jagie\u0142\u0142y", "amenity": "pharmacy", "dispensing": "yes", "name": "Medest Iii", "ref:csioz": "1118329"}}, {"type": "node", "id": 9586146304, "lat": 52.2327981, "lon": 19.3519384, "tags": {"amenity": "pharmacy", "dispensing": "yes", "healthcare": "pharmacy", "name": "Medest I", "ref:csioz": "1012826"}}, {"type": "node", "id": 9586146669, "lat": 52.2438872, "lon": 19.6246722, "tags": {"addr:city": "\u017bychlin", "addr:housenumber": "3", "addr:postcode": "99-320", "addr:street": "1 Maja", "amenity": "pharmacy", "dispensing": "yes", "name": "Apteka Bellis", "ref:csioz": "1010577"}}, {"type": "node", "id": 9586149018, "lat": 52.2320852, "lon": 19.3628997, "tags": {"addr:city": "Kutno", "addr:housenumber": "2", "addr:postcode": "99-300", "addr:street": "Norberta Barlickiego", "amenity": "pharmacy", "dispensing": "yes", "name": "Medest Bis Iii", "ref:csioz": "1186642"}}, {"type": "node", "id": 9586149709, "lat": 52.3607297, "lon": 19.2808991, "tags": {"addr:housenumber": "9a", "addr:place": "\u0141ani\u0119ta", "addr:postcode": "99-306", "amenity": "pharmacy", "dispensing": "yes", "ref:csioz": "1211483"}}, {"type": "node", "id": 9586190497, "lat": 52.2286184, "lon": 19.3685132, "tags": {"addr:city": "Kutno", "addr:housenumber": "1", "addr:postcode": "99-300", "addr:street": "Wilcza", "amenity": "pharmacy", "dispensing": "yes", "name": "Apteka Dbam O Zdrowie", "ref:csioz": "1013759"}}, {"type": "node", "id": 9586202643, "lat": 52.2290454, "lon": 19.3704508, "tags": {"addr:city": "Kutno", "addr:housenumber": "1", "addr:postcode": "99-300", "addr:street": "Grunwaldzka", "amenity": "pharmacy", "dispensing": "yes", "name": "Calendula", "ref:csioz": "1012266"}}, {"type": "node", "id": 9586204421, "lat": 52.2320771, "lon": 19.3557637, "tags": {"addr:city": "Kutno", "addr:housenumber": "6", "addr:postcode": "99-300", "addr:street": "Henryka Sienkiewicza", "amenity": "pharmacy", "dispensing": "yes", "name": "Apteka Dbam O Zdrowie", "ref:csioz": "1012176"}}, {"type": "node", "id": 9586206224, "lat": 52.2290227, "lon": 19.3706479, "tags": {"addr:city": "Kutno", "addr:housenumber": "1", "addr:postcode": "99-300", "addr:street": "Grunwaldzka", "amenity": "pharmacy", "dispensing": "yes", "name": "Apteka Panaceum", "ref:csioz": "1024731"}}, {"type": "node", "id": 9586210707, "lat": 52.2076677, "lon": 19.5770817, "tags": {"addr:housenumber": "30A", "addr:place": "Bedlno", "addr:postcode": "99-320", "amenity": "pharmacy", "dispensing": "yes", "ref:csioz": "1229685"}}, {"type": "node", "id": 9586211879, "lat": 52.2409134, "lon": 19.3585632, "tags": {"addr:city": "Kutno", "addr:housenumber": "4", "addr:postcode": "99-300", "addr:street": "Kanclerza Andrzeja Zamoyskiego", "amenity": "pharmacy", "dispensing": "yes", "name": "Apteka Dbam O Zdrowie", "ref:csioz": "1012958"}}, {"type": "node", "id": 9586213316, "lat": 52.2619342, "lon": 19.556849, "tags": {"addr:housenumber": "25/1", "addr:place": "Opor\u00f3w", "addr:postcode": "99-322", "amenity": "pharmacy", "dispensing": "yes", "ref:csioz": "1013745"}}, {"type": "node", "id": 9586232637, "lat": 52.2323794, "lon": 19.3665143, "tags": {"addr:city": "Kutno", "addr:housenumber": "6A", "addr:postcode": "99-300", "addr:street": "Oporowska", "amenity": "pharmacy", "dispensing": "yes", "name": "Apteka Dbam O Zdrowie", "ref:csioz": "1015188"}}, {"type": "node", "id": 9586232642, "lat": 52.318319, "lon": 19.4084236, "tags": {"addr:city": "Strzelce", "addr:housenumber": "1/2", "addr:postcode": "99-037", "addr:street": "Le\u015bna", "amenity": "pharmacy", "dispensing": "yes", "ref:csioz": "1010210"}}, {"type": "node", "id": 9586238795, "lat": 52.230987, "lon": 19.3586764, "tags": {"addr:city": "Kutno", "addr:housenumber": "9", "addr:postcode": "99-300", "addr:street": "Podrzeczna", "amenity": "pharmacy", "dispensing": "yes", "name": "Zielona Apteka", "ref:csioz": "1016608"}}, {"type": "node", "id": 9586240563, "lat": 52.2365202, "lon": 19.6262737, "tags": {"addr:city": "\u017bychlin", "addr:housenumber": "71", "addr:postcode": "99-320", "addr:street": "Gabriela Narutowicza", "amenity": "pharmacy", "dispensing": "yes", "name": "Apteka H2O", "ref:csioz": "1009956"}}, {"type": "node", "id": 9586240564, "lat": 52.2349048, "lon": 19.3525802, "tags": {"addr:city": "Kutno", "addr:housenumber": "32", "addr:postcode": "99-300", "addr:street": "29 Listopada", "amenity": "pharmacy", "dispensing": "yes", "name": "Kwiaty Polskie", "ref:csioz": "1026016"}}, {"type": "node", "id": 9586319200, "lat": 52.2316427, "lon": 19.3554659, "tags": {"addr:city": "Kutno", "addr:housenumber": "12", "addr:postcode": "99-300", "addr:street": "Henryka Sienkiewicza", "amenity": "pharmacy", "dispensing": "yes", "name": "Apteka Panaceum", "ref:csioz": "1171740"}}, {"type": "node", "id": 9586361968, "lat": 52.2290458, "lon": 19.3718292, "tags": {"addr:city": "Kutno", "addr:housenumber": "3", "addr:postcode": "99-300", "addr:street": "Grunwaldzka", "amenity": "pharmacy", "dispensing": "yes", "name": "Apteka Gemini", "ref:csioz": "1211471"}}, {"type": "node", "id": 9586368133, "lat": 52.2428371, "lon": 19.6259083, "tags": {"addr:city": "\u017bychlin", "addr:housenumber": "20", "addr:postcode": "99-320", "addr:street": "Gabriela Narutowicza", "amenity": "pharmacy", "dispensing": "yes", "name": "Apteka H2O", "ref:csioz": "1203680"}}, {"type": "node", "id": 9586382359, "lat": 52.2675468, "lon": 19.8711301, "tags": {"addr:city": "Kiernozia", "addr:housenumber": "12A", "addr:postcode": "99-412", "addr:street": "\u0141owicka", "amenity": "pharmacy", "dispensing": "yes", "healthcare": "pharmacy", "name": "Przy \u0141owickiej", "ref:csioz": "1024261"}}, {"type": "node", "id": 9586487617, "lat": 52.1875437, "lon": 19.9171883, "tags": {"addr:housenumber": "53A", "addr:place": "Ch\u0105\u015bno", "addr:postcode": "99-413", "amenity": "pharmacy", "name": "Cito", "ref:csioz": "1210058"}}, {"type": "node", "id": 9599669682, "lat": 52.5571376, "lon": 19.6525389, "tags": {"addr:city": "P\u0142ock", "addr:housenumber": "19", "addr:postcode": "09-400", "addr:street": "Medyczna", "amenity": "pharmacy", "dispensing": "yes", "name": "Wsp\u00f3lna", "ref:csioz": "1229620"}}, {"type": "node", "id": 9599669683, "lat": 52.5497867, "lon": 19.6920884, "tags": {"addr:city": "P\u0142ock", "addr:housenumber": "44", "addr:postcode": "09-400", "addr:street": "Aleja Stanis\u0142awa Jachowicza", "amenity": "pharmacy", "brand": "Gemini", "brand:wikidata": "Q130243797", "dispensing": "yes", "healthcare": "pharmacy", "name": "Gemini", "ref:csioz": "1222967"}}, {"type": "node", "id": 9599669684, "lat": 52.5351476, "lon": 19.7574669, "tags": {"addr:city": "P\u0142ock", "addr:housenumber": "144", "addr:postcode": "09-410", "addr:street": "Wyszogrodzka", "amenity": "pharmacy", "dispensing": "yes", "name": "Lawenda", "ref:csioz": "1222437"}}, {"type": "node", "id": 9599669685, "lat": 52.5436708, "lon": 19.719408, "tags": {"addr:city": "P\u0142ock", "addr:housenumber": "17", "addr:postcode": "09-402", "addr:street": "Tadeusza Gierzy\u0144skiego", "amenity": "pharmacy", "dispensing": "yes", "name": "Lawenda", "ref:csioz": "1190426"}}, {"type": "node", "id": 9599669686, "lat": 52.5426839, "lon": 19.7622203, "tags": {"addr:city": "P\u0142ock", "addr:housenumber": "4", "addr:postcode": "09-409", "addr:street": "Patriot\u00f3w", "amenity": "pharmacy", "dispensing": "yes", "name": "Avena 6", "opening_hours": "Mo-Fr 08:00-21:00; Sa 08:00-16:00", "ref:csioz": "1114669"}}, {"type": "node", "id": 9599669688, "lat": 52.5476585, "lon": 19.7171597, "tags": {"addr:city": "P\u0142ock", "addr:housenumber": "8", "addr:postcode": "09-407", "addr:street": "Otoli\u0144ska", "amenity": "pharmacy", "brand": "Vita", "dispensing": "yes", "healthcare": "pharmacy", "name": "Vita", "ref:csioz": "1093936"}}, {"type": "node", "id": 9599669689, "lat": 52.5590362, "lon": 19.6796922, "tags": {"addr:city": "P\u0142ock", "addr:housenumber": "11", "addr:postcode": "09-400", "addr:street": "Konstantego Ildefonsa Ga\u0142czy\u0144skiego", "amenity": "pharmacy", "dispensing": "yes", "healthcare": "pharmacy", "name": "Z U\u015bmiechem", "ref:csioz": "1093806"}}, {"type": "node", "id": 9599669690, "lat": 52.5367158, "lon": 19.7499985, "tags": {"addr:city": "P\u0142ock", "addr:housenumber": "140", "addr:postcode": "09-400", "addr:street": "Wyszogrodzka", "amenity": "pharmacy", "dispensing": "yes", "name": "Elixir", "ref:csioz": "1093210"}}, {"type": "node", "id": 9599669691, "lat": 52.5352979, "lon": 19.7612267, "tags": {"addr:city": "P\u0142ock", "addr:housenumber": "163", "addr:postcode": "09-409", "addr:street": "Wyszogrodzka", "amenity": "pharmacy", "dispensing": "yes", "name": "Dbam O Zdrowie (Doz)", "ref:csioz": "1093207"}}, {"type": "node", "id": 9599669692, "lat": 52.5556451, "lon": 19.6863253, "tags": {"addr:city": "P\u0142ock", "addr:housenumber": "6/1", "addr:postcode": "09-400", "addr:street": "Stanis\u0142awa Zgliczy\u0144skiego", "amenity": "pharmacy", "dispensing": "yes", "healthcare": "pharmacy", "name": "Dbam O Zdrowie (Doz)", "ref:csioz": "1093196"}}, {"type": "node", "id": 9599669693, "lat": 52.5468069, "lon": 19.6933422, "tags": {"addr:city": "P\u0142ock", "addr:housenumber": "2", "addr:postcode": "09-400", "addr:street": "Plac Nowy Rynek", "amenity": "pharmacy", "dispensing": "yes", "name": "Apteka (D. Ol\u017cy\u0144ska-Ho\u0142owiak)", "ref:csioz": "1093158"}}, {"type": "node", "id": 9599669695, "lat": 52.5539841, "lon": 19.6978264, "tags": {"addr:city": "P\u0142ock", "addr:housenumber": "32", "addr:postcode": "09-400", "addr:street": "Bielska", "amenity": "pharmacy", "dispensing": "yes", "name": "Diabetyka", "ref:csioz": "1093045"}}, {"type": "node", "id": 9599669696, "lat": 52.5464501, "lon": 19.7094241, "tags": {"addr:city": "P\u0142ock", "addr:housenumber": "2", "addr:postcode": "09-402", "addr:street": "Dworcowa", "amenity": "pharmacy", "dispensing": "yes", "name": "Farmin 3", "ref:csioz": "1194754"}}, {"type": "node", "id": 9599669697, "lat": 52.5502544, "lon": 19.689406, "tags": {"addr:city": "P\u0142ock", "addr:housenumber": "6", "addr:postcode": "09-400", "addr:street": "Aleja Floriana Kobyli\u0144skiego", "amenity": "pharmacy", "dispensing": "yes", "name": "Super", "opening_hours": "Mo-Fr 07:00-21:00; Sa 08:00-15:00", "ref:csioz": "1187106"}}, {"type": "node", "id": 9599669698, "lat": 52.5538711, "lon": 19.670802, "tags": {"addr:city": "P\u0142ock", "addr:housenumber": "18", "addr:postcode": "09-400", "addr:street": "Ma\u0142a", "amenity": "pharmacy", "dispensing": "yes", "name": "Avena 7", "ref:csioz": "1179292"}}, {"type": "node", "id": 9599669699, "lat": 52.5465188, "lon": 19.6875707, "tags": {"addr:city": "P\u0142ock", "addr:housenumber": "67", "addr:postcode": "09-400", "addr:street": "Henryka Sienkiewicza", "amenity": "pharmacy", "dispensing": "yes", "healthcare": "pharmacy", "name": "Avena 5", "ref:csioz": "1117051"}}, {"type": "node", "id": 9599669700, "lat": 52.5397555, "lon": 19.7026142, "tags": {"addr:city": "P\u0142ock", "addr:housenumber": "38", "addr:postcode": "09-402", "addr:street": "Kolegialna", "amenity": "pharmacy", "dispensing": "yes", "name": "Apteka Na Rogatkach", "ref:csioz": "1116764"}}, {"type": "node", "id": 9599669701, "lat": 52.5539564, "lon": 19.6910756, "tags": {"addr:city": "P\u0142ock", "addr:housenumber": "6", "addr:postcode": "09-400", "addr:street": "Rajmunda Rembieli\u0144skiego", "amenity": "pharmacy", "dispensing": "yes", "healthcare": "pharmacy", "name": "Spokojna", "ref:csioz": "1094061"}}, {"type": "node", "id": 9599669702, "lat": 52.5248724, "lon": 19.6759682, "tags": {"addr:city": "P\u0142ock", "addr:housenumber": "41", "addr:postcode": "09-402", "addr:street": "Kolejowa", "amenity": "pharmacy", "brand": "Dr. Max", "brand:wikidata": "Q56317371", "dispensing": "yes", "healthcare": "pharmacy", "name": "Dr. Max", "ref:csioz": "1094004"}}, {"type": "node", "id": 9599669703, "lat": 52.5429207, "lon": 19.6893949, "tags": {"addr:city": "P\u0142ock", "addr:housenumber": "5", "addr:postcode": "09-400", "addr:street": "Plac Gabriela Narutowicza", "amenity": "pharmacy", "check_date": "2025-04-18", "dispensing": "yes", "noname": "yes", "ref:csioz": "1093149"}}, {"type": "node", "id": 9599669704, "lat": 52.5463185, "lon": 19.690834, "tags": {"addr:city": "P\u0142ock", "addr:housenumber": "12C", "addr:postcode": "09-400", "addr:street": "Kr\u00f3lewiecka", "amenity": "pharmacy", "dispensing": "yes", "name": "Avena 1", "ref:csioz": "1093125"}}, {"type": "node", "id": 9599669705, "lat": 52.5403343, "lon": 19.7011919, "tags": {"addr:city": "P\u0142ock", "addr:housenumber": "30", "addr:postcode": "09-402", "addr:street": "Kolegialna", "amenity": "pharmacy", "dispensing": "yes", "name": "Medicor", "ref:csioz": "1093117"}}, {"type": "node", "id": 9599669706, "lat": 52.5503477, "lon": 19.688829, "tags": {"addr:city": "P\u0142ock", "addr:housenumber": "6", "addr:postcode": "09-400", "addr:street": "Aleja Floriana Kobyli\u0144skiego", "amenity": "pharmacy", "dispensing": "yes", "name": "Dbam O Zdrowie (Doz)", "opening_hours": "Mo-Fr 09:30-18:30; Sa 10:00-14:00", "ref:csioz": "1093101"}}, {"type": "node", "id": 9610677648, "lat": 52.4286973, "lon": 19.4620375, "tags": {"addr:city": "Gostynin", "addr:housenumber": "8", "addr:postcode": "09-500", "addr:street": "Rynek", "amenity": "pharmacy", "brand": "Dbam o Zdrowie", "brand:wikidata": "Q62563833", "dispensing": "yes", "healthcare": "pharmacy", "name": "Dbam O Zdrowie", "ref:csioz": "1092910", "short_name": "DOZ"}}, {"type": "node", "id": 9610677649, "lat": 52.423865, "lon": 19.4636106, "tags": {"addr:city": "Gostynin", "addr:housenumber": "3", "addr:postcode": "09-500", "addr:street": "Legion\u00f3w Polskich", "amenity": "pharmacy", "dispensing": "yes", "name": "Apteka", "ref:csioz": "1092907"}}, {"type": "node", "id": 9610677650, "lat": 52.4299447, "lon": 19.4619504, "tags": {"addr:city": "Gostynin", "addr:housenumber": "5A", "addr:postcode": "09-500", "addr:street": "Jana Paw\u0142a II", "amenity": "pharmacy", "dispensing": "yes", "name": "Cef@Rm 36,6", "ref:csioz": "1092895"}}, {"type": "node", "id": 9610765318, "lat": 52.4284593, "lon": 19.4619779, "tags": {"addr:city": "Gostynin", "addr:housenumber": "6", "addr:postcode": "09-500", "addr:street": "Rynek", "amenity": "pharmacy", "brand": "Panaceum", "dispensing": "yes", "healthcare": "pharmacy", "name": "Panaceum", "ref:csioz": "1093912"}}, {"type": "node", "id": 9610765319, "lat": 52.4286041, "lon": 19.460561, "tags": {"addr:city": "Gostynin", "addr:housenumber": "25", "addr:postcode": "09-500", "addr:street": "Rynek", "amenity": "pharmacy", "dispensing": "yes", "name": "Medest IX", "ref:csioz": "1093854"}}, {"type": "node", "id": 9610765320, "lat": 52.4284283, "lon": 19.4649866, "tags": {"addr:city": "Gostynin", "addr:housenumber": "22", "addr:postcode": "09-500", "addr:street": "Wojska Polskiego", "amenity": "pharmacy", "dispensing": "yes", "name": "Dr Max", "ref:csioz": "1093811"}}, {"type": "node", "id": 9610765321, "lat": 52.3318644, "lon": 19.861051, "tags": {"addr:city": "Sanniki", "addr:housenumber": "169", "addr:postcode": "09-540", "addr:street": "Warszawska", "amenity": "pharmacy", "dispensing": "yes", "name": "Apteka Marek Kococik", "ref:csioz": "1092932"}}, {"type": "node", "id": 9610775121, "lat": 52.3677666, "lon": 19.6121313, "tags": {"addr:city": "Szczawin Ko\u015bcielny", "addr:housenumber": "7", "addr:postcode": "09-550", "addr:street": "Jana Paw\u0142a II", "amenity": "pharmacy", "dispensing": "yes", "name": "Apteka Nasza", "ref:csioz": "1116668"}}, {"type": "node", "id": 9610775122, "lat": 52.3321373, "lon": 19.8603496, "tags": {"addr:city": "Sanniki", "addr:housenumber": "171", "addr:postcode": "09-540", "addr:street": "Warszawska", "amenity": "pharmacy", "dispensing": "yes", "name": "Wsp\u00f3lna", "ref:csioz": "1187460"}}, {"type": "node", "id": 9610775123, "lat": 52.3005054, "lon": 19.7122206, "tags": {"addr:city": "Pacyna", "addr:housenumber": "29/1", "addr:postcode": "09-541", "addr:street": "\u0141ukasiewicza", "amenity": "pharmacy", "dispensing": "yes", "name": "Punkt Apteczny", "ref:csioz": "1094116"}}, {"type": "node", "id": 9610775124, "lat": 52.3327585, "lon": 19.8620689, "tags": {"addr:city": "Sanniki", "addr:housenumber": "136", "addr:postcode": "09-540", "addr:street": "Warszawska", "amenity": "pharmacy", "dispensing": "yes", "name": "Apteka Nowa", "ref:csioz": "1093999"}}, {"type": "node", "id": 9652384539, "lat": 52.4651793, "lon": 19.6077135, "tags": {"addr:city": "\u0141\u0105ck", "addr:housenumber": "4", "addr:postcode": "09-520", "addr:street": "Gostyni\u0144ska", "amenity": "pharmacy", "dispensing": "yes", "name": "Medest Bis Ii", "ref:csioz": "1182719"}}, {"type": "node", "id": 9652552534, "lat": 52.5717231, "lon": 19.6456875, "tags": {"addr:city": "Maszewo Du\u017ce", "addr:housenumber": "2", "addr:postcode": "09-400", "addr:street": "Lipnowska", "amenity": "pharmacy", "dispensing": "yes", "name": "Doz Apteka Dbam O Zdrowie Aspirynka", "ref:csioz": "1186164"}}, {"type": "node", "id": 9652572812, "lat": 52.4690447, "lon": 19.7458292, "tags": {"addr:city": "Dobrzyk\u00f3w", "addr:housenumber": "5A", "addr:postcode": "09-522", "addr:street": "S\u0142oneczna", "amenity": "pharmacy", "brand": "Apteka Rodzinna", "dispensing": "yes", "healthcare": "pharmacy", "name": "Apteka Rodzinna", "ref:csioz": "1092986"}}, {"type": "node", "id": 9652608281, "lat": 52.4031231, "lon": 19.731907, "tags": {"addr:city": "G\u0105bin", "addr:housenumber": "20D", "addr:postcode": "09-530", "addr:street": "P\u0142ocka", "amenity": "pharmacy", "dispensing": "yes", "name": "Apteka Avena", "ref:csioz": "1116684"}}, {"type": "node", "id": 9652621473, "lat": 52.3645948, "lon": 19.7231141, "tags": {"addr:housenumber": "20", "addr:place": "Nowy Kamie\u0144", "addr:postcode": "36-053", "amenity": "pharmacy", "brand": "Zdrowie", "dispensing": "yes", "healthcare": "pharmacy", "name": "Zdrowie", "ref:csioz": "1164541"}}, {"type": "node", "id": 9652630953, "lat": 52.3986618, "lon": 19.731208, "tags": {"addr:city": "G\u0105bin", "addr:housenumber": "2", "addr:postcode": "09-530", "addr:street": "Kutnowska", "amenity": "pharmacy", "dispensing": "yes", "name": "Wsp\u00f3lna", "ref:csioz": "1207744"}}, {"type": "node", "id": 9652631099, "lat": 52.506262, "lon": 19.8393197, "tags": {"addr:city": "S\u0142upno", "addr:housenumber": "8A", "addr:postcode": "09-472", "addr:street": "Miszewska", "amenity": "pharmacy", "dispensing": "yes", "name": "Doz Apteka Dbam O Zdrowie Mgr Farm. Ernest Niewiadomski", "ref:csioz": "1093232"}}, {"type": "node", "id": 9652632914, "lat": 52.3993872, "lon": 19.7347457, "tags": {"addr:city": "G\u0105bin", "addr:housenumber": "3", "addr:postcode": "09-530", "addr:street": "Kili\u0144skiego", "amenity": "pharmacy", "dispensing": "yes", "name": "Wracam Do Zdrowia", "ref:csioz": "1093651"}}, {"type": "node", "id": 10064186440, "lat": 52.5680602, "lon": 19.8125036, "tags": {"amenity": "pharmacy", "brand": "Dbam o Zdrowie", "brand:wikidata": "Q62563833", "dispensing": "yes", "healthcare": "pharmacy", "name": "Dbam o Zdrowie", "opening_hours": "Mo-Fr 08:00-16:00", "short_name": "DOZ"}}, {"type": "node", "id": 10226106944, "lat": 52.5535341, "lon": 19.6937908, "tags": {"amenity": "pharmacy", "healthcare": "pharmacy", "name": "Lawenda"}}, {"type": "node", "id": 10281889123, "lat": 52.2364297, "lon": 19.3654817, "tags": {"amenity": "pharmacy", "dispensing": "yes", "healthcare": "pharmacy", "name": "Hipokrates", "ref:csioz": "1013287"}}, {"type": "node", "id": 10281959928, "lat": 52.2389447, "lon": 19.3716234, "tags": {"amenity": "pharmacy", "dispensing": "yes", "healthcare": "pharmacy", "name": "Polska", "ref:csioz": "1013924"}}, {"type": "node", "id": 10832084625, "lat": 52.2273342, "lon": 20.0188143, "tags": {"amenity": "pharmacy", "name": "S\u0142oneczna", "opening_hours": "Mo-Fr 08:00-16:00; Sa 08:00-14:00", "phone": "+48 794228579", "ref:csioz": "1021993"}}, {"type": "node", "id": 11872598005, "lat": 52.2309053, "lon": 19.3588664, "tags": {"amenity": "pharmacy", "healthcare": "pharmacy", "name": "Cosmedica"}}, {"type": "way", "id": 298788798, "nodes": [3027248293, 3027248291, 7679905792, 3027248288, 7679905794, 7679905793, 7679905795, 7679905796, 3027248286, 3027248289, 3027248293], "tags": {"addr:city": "P\u0142ock", "addr:housenumber": "16", "addr:postcode": "09-401", "addr:street": "Kolejowa", "amenity": "pharmacy", "building": "yes", "source:addr": "EMUiA (emuia.gugik.gov.pl)"}}, {"type": "way", "id": 699390984, "nodes": [6567623617, 6567623616, 6567623615, 6567623614, 6567623613, 6567623612, 6567623611, 6567623610, 6567623617], "tags": {"addr:city": "Gostynin", "addr:housenumber": "52", "addr:postcode": "09-500", "addr:street": "3 Maja", "amenity": "pharmacy", "building": "yes", "dispensing": "yes", "healthcare": "pharmacy", "name": "Apteka Panaceum"}}, {"type": "way", "id": 880642676, "nodes": [8190972498, 8190972497, 8190972496, 8190972495, 8190972494, 8190972493, 8190972492, 8190972491, 8190972498], "tags": {"amenity": "pharmacy", "building": "yes", "healthcare": "pharmacy", "source": "www.geoportal.gov.pl"}}, {"type": "way", "id": 915088316, "nodes": [8500416788, 8500416787, 8500416786, 8500416785, 8500416784, 8500416783, 8500416788], "tags": {"addr:city:simc": "0566575", "addr:housenumber": "49", "addr:place": "Brzoz\u00f3w Stary", "addr:postcode": "96-521", "amenity": "pharmacy", "building": "yes", "building:levels": "2", "dispensing": "yes", "name": "Centralny Punkt Apteczny", "opening_hours": "Mo-Fr 08:00-18:00; Sa 08:00-14:00", "phone": "24 277 30 16", "ref:csioz": "1117807", "source": "www.geoportal.gov.pl", "source:addr": "ilow.e-mapa.net"}}]}