{"version": 0.6, "generator": "Overpass API 0.7.62.8 e802775f", "osm3s": {"timestamp_osm_base": "2025-10-06T08:46:29Z", "copyright": "The data included in this document is from www.openstreetmap.org. The data is made available under ODbL."}, "elements": [{"type": "node", "id": 1858360122, "lat": 50.4534527, "lon": 23.4181374, "tags": {"addr:city": "Tomasz\u00f3w Lubelski", "addr:housenumber": "6", "addr:postcode": "22-600", "addr:street": "Rynek", "amenity": "pharmacy", "dispensing": "yes", "healthcare": "pharmacy", "name": "Apteka Pod Handlowcem", "opening_hours": "Mo-Fr 07:30-19:30; Sa,Su 08:00-18:00", "operator": "Alicja Mo\u0142doch, Miros\u0142awa Kudlicka", "phone": "+48 84 664 68 73", "ref:csioz": "1153877"}}, {"type": "node", "id": 1858361763, "lat": 50.4508164, "lon": 23.4177389, "tags": {"amenity": "pharmacy", "dispensing": "yes", "healthcare": "pharmacy", "name": "Apteka Prywatna", "opening_hours": "Mo-Sa 07:30-22:00", "operator": "Bogumi\u0142a, Krzystof Wierzchowscy", "ref:csioz": "1153921"}}, {"type": "node", "id": 1858361764, "lat": 50.4454047, "lon": 23.4169779, "tags": {"addr:city": "Tomasz\u00f3w Lubelski", "addr:housenumber": "69", "addr:postcode": "22-600", "addr:street": "Lwowska", "amenity": "pharmacy", "dispensing": "yes", "healthcare": "pharmacy", "name": "W Starym Kinie", "opening_hours": "24/7", "operator": "Ewa \u0141ukasiewicz", "ref:csioz": "1154038"}}, {"type": "node", "id": 1858361765, "lat": 50.4517748, "lon": 23.4167487, "tags": {"amenity": "pharmacy", "brand": "Dbam o Zdrowie", "brand:wikidata": "Q62563833", "dispensing": "yes", "healthcare": "pharmacy", "name": "Dbam o Zdrowie", "opening_hours": "Mo-Fr 7:30-20:30,Sa 8:00-20:30,Su 10:00 - 18:30", "ref:csioz": "1154051", "short_name": "DOZ", "website": "https://www.doz.pl/"}}, {"type": "node", "id": 1863677754, "lat": 50.4413152, "lon": 23.4143119, "tags": {"addr:city": "Tomasz\u00f3w Lubelski", "addr:housenumber": "12/3", "addr:postcode": "22-600", "addr:street": "Henryka Sienkiewicza", "amenity": "pharmacy", "dispensing": "yes", "email": "apteka.hs@wp.pl", "healthcare": "pharmacy", "name": "Apteka Specjalistyczna Prima", "note": "To nie b\u0142\u0105d, w tym budynku s\u0105 dwie apteki", "opening_hours": "Mo-Fr 08:00-19:00; Sa 08:00-14:00", "phone": "+48 84 542 16 40", "ref:csioz": "1204815", "website": "https://aptekaprima24.pl"}}, {"type": "node", "id": 1863677797, "lat": 50.4426728, "lon": 23.4180403, "tags": {"addr:city": "Tomasz\u00f3w Lubelski", "addr:housenumber": "85", "addr:postcode": "22-600", "addr:street": "Lwowska", "amenity": "pharmacy", "check_date": "2023-07-05", "dispensing": "yes", "drive_through": "no", "healthcare": "pharmacy", "internet_access": "no", "name": "Apteka Prywatna", "opening_hours": "Mo-Fr 08:00-20:00; Sa 08:00-15:00", "operator": "Danuta Bucior", "payment:mastercard": "yes", "payment:visa": "yes", "ref:csioz": "1154287", "wheelchair": "yes"}}, {"type": "node", "id": 1889502002, "lat": 50.4509006, "lon": 23.4141925, "tags": {"addr:city": "Tomasz\u00f3w Lubelski", "addr:housenumber": "21", "addr:postcode": "22-600", "addr:street": "Tadeusza Ko\u015bciuszki", "amenity": "pharmacy", "check_date": "2025-01-14", "dispensing": "yes", "healthcare": "pharmacy", "internet_access": "no", "name": "Apteka Vita", "opening_hours": "Mo-Fr 07:30-20:00; Sa 08:00-16:00; Su 08:00-20:00", "payment:cash": "yes", "payment:credit_cards": "yes", "payment:debit_cards": "yes", "ref:csioz": "1155394", "wheelchair": "limited"}}, {"type": "node", "id": 1889502009, "lat": 50.4515373, "lon": 23.4126588, "tags": {"addr:city": "Tomasz\u00f3w Lubelski", "addr:housenumber": "26", "addr:postcode": "22-600", "addr:street": "Tadeusza Ko\u015bciuszki", "amenity": "pharmacy", "dispensing": "yes", "healthcare": "pharmacy", "name": "Apteka Prywatna", "opening_hours": "Mo-Fr 08:00-19:00; Sa 08:00-14:00", "operator": "Barbara Kudlicka", "ref:csioz": "1154417"}}, {"type": "node", "id": 1936697746, "lat": 50.3407829, "lon": 23.5189932, "tags": {"amenity": "pharmacy", "dispensing": "yes", "healthcare": "pharmacy", "opening_hours": "Mo-Fr 08:00-17:00; Sa 08:00-13:00", "ref:csioz": "1154560"}}, {"type": "node", "id": 2490348511, "lat": 50.4445111, "lon": 23.4173228, "tags": {"amenity": "pharmacy", "brand": "Dbam o Zdrowie", "brand:wikidata": "Q62563833", "dispensing": "yes", "email": "apt42788@dbamozdrowie.pl", "healthcare": "pharmacy", "name": "Dbam o Zdrowie", "opening_hours": "Mo-Fr 08:00-17:00; Sa 08:00-15:00", "ref:csioz": "1155221", "short_name": "DOZ"}}, {"type": "node", "id": 2930017308, "lat": 50.5459688, "lon": 23.2121078, "tags": {"amenity": "pharmacy", "dispensing": "yes", "healthcare": "pharmacy", "opening_hours": "Mo-Fr 08:00-18:30,Sa 08:00-14:00", "ref:csioz": "1154832"}}, {"type": "node", "id": 2983235679, "lat": 50.5442173, "lon": 23.2183465, "tags": {"amenity": "pharmacy", "dispensing": "yes", "healthcare": "pharmacy", "name": "Apteka Prima dla Zdrowia", "opening_hours": "Mo-Fr 08:00-20:00; Sa 08:00-15:00", "ref:csioz": "1116599"}}, {"type": "node", "id": 2983256696, "lat": 50.5444695, "lon": 23.2157693, "tags": {"amenity": "pharmacy", "dispensing": "yes", "healthcare": "pharmacy", "opening_hours": "Mo-Fr 08:00-18:00", "phone": "+48 605059907", "ref:csioz": "1106038"}}, {"type": "node", "id": 2983294409, "lat": 50.5463051, "lon": 23.2107193, "tags": {"amenity": "pharmacy", "dispensing": "yes", "healthcare": "pharmacy", "opening_hours": "Mo-Fr 08:00-18:00; Sa 08:00-14:00", "ref:csioz": "1154886"}}, {"type": "node", "id": 3721045448, "lat": 50.2326161, "lon": 23.6220381, "tags": {"amenity": "pharmacy", "healthcare": "pharmacy"}}, {"type": "node", "id": 4275367405, "lat": 50.3483308, "lon": 23.3283586, "tags": {"amenity": "pharmacy", "dispensing": "yes", "healthcare": "pharmacy", "opening_hours": "Mo-Tu 08:00-18:00; We 07:30-18:00; Th-Fr 08:00-18:00; Sa 08:00-14:00", "phone": "16 631 70 11", "ref:csioz": "1143427"}}, {"type": "node", "id": 4286657615, "lat": 50.532368, "lon": 23.7267233, "tags": {"amenity": "pharmacy", "dispensing": "yes", "healthcare": "pharmacy", "opening_hours": "Mo-Fr 08:00-18:00; Sa 08:00-13:00", "ref:csioz": "1154211"}}, {"type": "node", "id": 4334111741, "lat": 50.2325022, "lon": 23.6225604, "tags": {"addr:street": "\u041b\u044c\u0432\u0456\u0432\u0441\u044c\u043a\u0430 \u0432\u0443\u043b\u0438\u0446\u044f", "amenity": "pharmacy", "healthcare": "pharmacy", "shop": "clothes"}}, {"type": "node", "id": 4334116506, "lat": 50.2333087, "lon": 23.6217926, "tags": {"amenity": "pharmacy", "healthcare": "pharmacy"}}, {"type": "node", "id": 4334176399, "lat": 50.2328378, "lon": 23.6214538, "tags": {"addr:city": "\u0420\u0430\u0432\u0430-\u0420\u0443\u0441\u044c\u043a\u0430", "addr:postcode": "80316", "addr:street": "\u0432\u0443\u043b\u0438\u0446\u044f \u0413\u0440\u0443\u0448\u0435\u0432\u0441\u044c\u043a\u043e\u0433\u043e", "amenity": "pharmacy", "contact:phone": "+380800303111", "description": "\u041f\u043e\u0434\u043e\u0440\u043e\u0436\u043d\u0438\u043a \u2013 \u043d\u0430\u0439\u0431\u0456\u043b\u044c\u0448\u0430 \u043c\u0435\u0440\u0435\u0436\u0430 \u0430\u043f\u0442\u0435\u043a \u0423\u043a\u0440\u0430\u0457\u043d\u0438. \u0410\u0441\u043e\u0440\u0442\u0438\u043c\u0435\u043d\u0442 \u043d\u0430\u043b\u0456\u0447\u0443\u0454 \u043f\u043e\u043d\u0430\u0434 20 000 \u0442\u043e\u0432\u0430\u0440\u0456\u0432. \u0423 \u0430\u043f\u0442\u0435\u0446\u0456 \u0432\u0438 \u043c\u043e\u0436\u0435\u0442\u0435 \u043f\u0440\u0438\u0434\u0431\u0430\u0442\u0438 \u043f\u043e\u0442\u0440\u0456\u0431\u043d\u0456 \u043b\u0456\u043a\u0438, \u043a\u043e\u0441\u043c\u0435\u0442\u0438\u043a\u0443 \u0442\u0430 \u0456\u043d\u0448\u0456 \u043c\u0435\u0434\u0437\u0430\u0441\u043e\u0431\u0438.", "name": "\u0410\u043f\u0442\u0435\u043a\u0430 \u041f\u043e\u0434\u043e\u0440\u043e\u0436\u043d\u0438\u043a", "name:uk": "\u0410\u043f\u0442\u0435\u043a\u0430 \u041f\u043e\u0434\u043e\u0440\u043e\u0436\u043d\u0438\u043a", "opening_hours": "Mo-Fr 10:00-18:00; Sa 10:00-15:00", "website": "https://podorozhnyk.com"}}, {"type": "node", "id": 8017789935, "lat": 50.3774794, "lon": 23.4467459, "tags": {"amenity": "pharmacy", "dispensing": "yes", "healthcare": "pharmacy", "opening_hours": "Mo-Fr 08:00-15:00", "ref:csioz": "1155054"}}, {"type": "node", "id": 9549721535, "lat": 50.5264198, "lon": 23.8426307, "tags": {"amenity": "pharmacy", "dispensing": "yes", "healthcare": "pharmacy", "name": "Apteka", "opening_hours": "Mo-Fr 08:00-16:00; Sa 08:00-12:00", "ref:csioz": "1154425"}}, {"type": "node", "id": 9550773394, "lat": 50.6154976, "lon": 23.7018006, "tags": {"amenity": "pharmacy", "dispensing": "yes", "healthcare": "pharmacy", "name": "Apteka Prima", "opening_hours": "24/7", "ref:csioz": "1221877"}}, {"type": "node", "id": 9550773395, "lat": 50.4437298, "lon": 23.4149269, "tags": {"addr:city": "Tomasz\u00f3w Lubelski", "addr:housenumber": "6a", "addr:postcode": "22-600", "addr:street": "Adama Mickiewicza", "amenity": "pharmacy", "brand": "Dbam o Zdrowie", "brand:wikidata": "Q62563833", "dispensing": "yes", "healthcare": "pharmacy", "name": "Dbam o Zdrowie", "opening_hours": "Mo-Sa 08:00-20:00", "ref:csioz": "1208157", "short_name": "DOZ"}}, {"type": "node", "id": 9550773397, "lat": 50.4480507, "lon": 23.4152564, "tags": {"addr:city": "Tomasz\u00f3w Lubelski", "addr:floor": "G", "addr:housenumber": "5", "addr:postcode": "22-600", "addr:street": "Jana Matejki", "amenity": "pharmacy", "check_date": "2025-01-11", "dispensing": "yes", "drive_through": "no", "healthcare": "pharmacy", "internet_access": "no", "level": "0", "name": "Apteka Kresowa", "opening_hours": "Mo-Fr 07:30-19:30; Sa 08:00-15:00", "payment:cash": "yes", "payment:credit_cards": "yes", "payment:debit_cards": "yes", "phone": "+48 84 543 24 20", "ref:csioz": "1191175", "wheelchair": "yes"}}, {"type": "node", "id": 9550773400, "lat": 50.5328922, "lon": 23.7216412, "tags": {"amenity": "pharmacy", "dispensing": "yes", "healthcare": "pharmacy", "opening_hours": "Mo-Fr 08:00-19:00; Sa 08:00-15:00", "ref:csioz": "1182191"}}, {"type": "node", "id": 9550773401, "lat": 50.5863081, "lon": 23.3808265, "tags": {"amenity": "pharmacy", "dispensing": "yes", "healthcare": "pharmacy", "opening_hours": "Mo-Fr 08:00-16:00", "ref:csioz": "1154841"}}, {"type": "node", "id": 9550773402, "lat": 50.341537, "lon": 23.5200711, "tags": {"amenity": "pharmacy", "dispensing": "yes", "healthcare": "pharmacy", "name": "Apteka Mgr Farm. Iwona Ferenc", "opening_hours": "Mo-Fr 08:00-18:00; Sa 08:00-12:00", "ref:csioz": "1154829"}}, {"type": "node", "id": 9550773403, "lat": 50.6180647, "lon": 23.6971808, "tags": {"amenity": "pharmacy", "dispensing": "yes", "healthcare": "pharmacy", "opening_hours": "Mo-Fr 08:00-17:00; Sa 08:00-13:00", "ref:csioz": "1154594"}}, {"type": "node", "id": 9550773404, "lat": 50.4235233, "lon": 23.5880692, "tags": {"amenity": "pharmacy", "dispensing": "yes", "healthcare": "pharmacy", "opening_hours": "Mo-Fr 08:00-13:30", "ref:csioz": "1154496"}}, {"type": "node", "id": 9550773405, "lat": 50.4511312, "lon": 23.4131786, "tags": {"addr:city": "Tomasz\u00f3w Lubelski", "addr:housenumber": "21", "addr:postcode": "22-600", "addr:street": "Tadeusza Ko\u015bciuszki", "amenity": "pharmacy", "dispensing": "yes", "healthcare": "pharmacy", "name": "Apteka Prywatna", "opening_hours": "Mo-Fr 08:00-18:00; Sa 08:00-13:00", "operator": "Maria Piasecka", "phone": "+48 503 714 950", "ref:csioz": "1115156"}}, {"type": "node", "id": 9550773406, "lat": 50.4538975, "lon": 23.4175095, "tags": {"amenity": "pharmacy", "check_date": "2025-01-01", "dispensing": "yes", "drive_through": "no", "healthcare": "pharmacy", "name": "Kresowa", "opening_hours": "Mo-Fr 08:00-19:00; Sa 08:00-15:00", "phone": "+48 84 542 11 88", "ref:csioz": "1112845"}}, {"type": "node", "id": 9550773407, "lat": 50.612934, "lon": 23.7042345, "tags": {"amenity": "pharmacy", "dispensing": "yes", "healthcare": "pharmacy", "opening_hours": "Mo-Fr 08:00-18:00; Sa 08:00-14:00", "ref:csioz": "1106014"}}, {"type": "node", "id": 9550773408, "lat": 50.5652117, "lon": 23.571716, "tags": {"amenity": "pharmacy", "dispensing": "yes", "healthcare": "pharmacy", "name": "Punkt Apteczny", "ref:csioz": "1223955"}}, {"type": "node", "id": 9550773409, "lat": 50.4441649, "lon": 23.4177944, "tags": {"addr:city": "Tomasz\u00f3w Lubelski", "addr:housenumber": "2A", "addr:postcode": "22-600", "addr:street": "Janusza Petera", "amenity": "pharmacy", "dispensing": "yes", "drive_through": "no", "healthcare": "pharmacy", "name": "Vita Pharma Centrum Farmaceutyczne", "opening_hours": "Mo-Fr 08:00-19:00; Sa 08:00-16:00", "ref:csioz": "1174461"}}, {"type": "node", "id": 9550773410, "lat": 50.5375825, "lon": 23.5384107, "tags": {"amenity": "pharmacy", "dispensing": "yes", "healthcare": "pharmacy", "opening_hours": "Mo-Fr 08:00-16:00; Sa 08:00-13:00", "ref:csioz": "1155161"}}, {"type": "node", "id": 9550773411, "lat": 50.4491481, "lon": 23.7743549, "tags": {"amenity": "pharmacy", "dispensing": "yes", "healthcare": "pharmacy", "opening_hours": "Mo-Fr 08:00-16:00; Sa 09:00-12:00", "ref:csioz": "1155148"}}, {"type": "node", "id": 9550773412, "lat": 50.4486877, "lon": 23.4165658, "tags": {"addr:city": "Tomasz\u00f3w Lubelski", "addr:housenumber": "56", "addr:postcode": "22-600", "addr:street": "Lwowska", "amenity": "pharmacy", "dispensing": "yes", "healthcare": "pharmacy", "name": "Apteka Bratek", "opening_hours": "Mo-Fr 08:00-20:00; Sa 08:00-15:00", "ref:csioz": "1154206"}}, {"type": "node", "id": 9550773413, "lat": 50.4398994, "lon": 23.4133692, "tags": {"amenity": "pharmacy", "dispensing": "yes", "healthcare": "pharmacy", "opening_hours": "Mo-Fr 08:00-20:00; Sa 08:00-15:00", "ref:csioz": "1154014"}}, {"type": "node", "id": 9550773414, "lat": 50.5294308, "lon": 23.3963108, "tags": {"amenity": "pharmacy", "dispensing": "yes", "healthcare": "pharmacy", "opening_hours": "Mo-Fr 08:00-17:00", "ref:csioz": "1153844"}}, {"type": "node", "id": 9568828661, "lat": 50.5923256, "lon": 23.2538748, "tags": {"amenity": "pharmacy", "dispensing": "yes", "ref:csioz": "1154699"}}, {"type": "node", "id": 9568828665, "lat": 50.628069, "lon": 23.474607, "tags": {"amenity": "pharmacy", "dispensing": "yes", "ref:csioz": "1154878"}}, {"type": "node", "id": 9568828666, "lat": 50.628793, "lon": 23.475042, "tags": {"amenity": "pharmacy", "dispensing": "yes", "ref:csioz": "1154620"}}, {"type": "node", "id": 9583996787, "lat": 50.4413318, "lon": 23.4149233, "tags": {"addr:city": "Tomasz\u00f3w Lubelski", "addr:housenumber": "12/1", "addr:postcode": "22-600", "addr:street": "Henryka Sienkiewicza", "amenity": "pharmacy", "dispensing": "yes", "healthcare": "pharmacy", "name": "Apteka Og\u00f3lnodost\u0119pna", "note": "To nie b\u0142\u0105d, w tym budynku s\u0105 dwie apteki", "opening_hours": "Mo-Fr 08:00-19:00; Sa 08:00-14:00", "operator": "Anna Ostasz", "phone": "+48 504 263 746;+48 84 664 41 64", "ref:csioz": "1202703"}}, {"type": "node", "id": 9674153608, "lat": 50.3481339, "lon": 23.3268334, "tags": {"amenity": "pharmacy", "healthcare": "pharmacy", "opening_hours": "Mo-Fr 08:00-18:00; Sa 08:00-13:00"}}, {"type": "node", "id": 10602201149, "lat": 50.4538242, "lon": 23.4178111, "tags": {"amenity": "pharmacy", "check_date": "2023-06-30", "dispensing": "yes", "drive_through": "no", "healthcare": "pharmacy", "internet_access": "no", "payment:contactless": "yes", "payment:mastercard": "yes", "payment:mastercard_contactless": "yes", "payment:visa": "yes", "payment:visa_contactless": "yes", "phone": "+48 84 664 67 27", "ref:csioz": "1154153", "wheelchair": "yes"}}, {"type": "node", "id": 11467266787, "lat": 50.5505148, "lon": 23.5856164, "tags": {"amenity": "pharmacy", "healthcare": "pharmacy", "name": "Punkt apteczny"}}]}