{"version": 0.6, "generator": "Overpass API 0.7.62.8 e802775f", "osm3s": {"timestamp_osm_base": "2025-10-06T08:23:05Z", "copyright": "The data included in this document is from www.openstreetmap.org. The data is made available under ODbL."}, "elements": [{"type": "node", "id": 1234094435, "lat": 53.7983177, "lon": 18.5293022, "tags": {"addr:city": "Sk\u00f3rcz", "addr:housenumber": "22", "addr:postcode": "83-220", "addr:street": "Jana III Sobieskiego", "amenity": "pharmacy", "dispensing": "yes", "name": "Pod Or\u0142em", "ref:csioz": "1026315"}}, {"type": "node", "id": 1744311955, "lat": 53.9700161, "lon": 18.5289104, "tags": {"addr:city": "Starogard Gda\u0144ski", "addr:housenumber": "21b", "addr:postcode": "83-200", "addr:street": "Genera\u0142a J\u00f3zefa Hallera", "amenity": "pharmacy", "dispensing": "yes", "email": "starogard_ha@wracamdozdrowia.pl", "name": "Wracam Do Zdrowia", "opening_hours": "Mo-Fr 08:00-18:30; Sa 09:00 - 13:30; Su off", "phone": "58 775 53 13", "ref:csioz": "1028992", "website": "https://wdoz.pl/szczegoly-apteki/73", "wheelchair": "yes"}}, {"type": "node", "id": 1833105927, "lat": 54.0977756, "lon": 18.769483, "tags": {"addr:city": "Tczew", "addr:housenumber": "13A", "addr:postcode": "83-110", "addr:street": "Jod\u0142owa", "amenity": "pharmacy", "brand": "Dbam o Zdrowie", "brand:wikidata": "Q62563833", "dispensing": "yes", "healthcare": "pharmacy", "name": "Dbam o Zdrowie", "opening_hours": "Mo-Fr 08:00-20:00; Sa 08:00-14:00", "operator": "doz.pl", "phone": "585 316 755", "ref:csioz": "1028743", "short_name": "DOZ"}}, {"type": "node", "id": 1857946762, "lat": 54.2057591, "lon": 18.7682018, "tags": {"addr:city": "Suchy D\u0105b", "addr:housenumber": "32", "addr:postcode": "83-022", "addr:street": "Gda\u0144ska", "amenity": "pharmacy", "dispensing": "yes", "drive_through": "no", "healthcare": "pharmacy", "name": "Punkt Apteczny Medical", "ref:csioz": "1225353"}}, {"type": "node", "id": 2473164340, "lat": 54.0868867, "lon": 18.7914959, "tags": {"addr:city": "Tczew", "addr:housenumber": "1", "addr:postcode": "83-110", "addr:street": "Miko\u0142aja Kopernika", "amenity": "pharmacy", "brand": "Dbam o Zdrowie", "brand:wikidata": "Q62563833", "check_date": "2022-07-24", "dispensing": "yes", "healthcare": "pharmacy", "name": "Dbam o Zdrowie", "opening_hours": "Mo-Fr 08:00-19:00; Su 08:00-13:00", "operator": "doz.pl", "payment:cash": "yes", "payment:credit_cards": "yes", "ref:csioz": "1031888", "short_name": "DOZ"}}, {"type": "node", "id": 2488546040, "lat": 53.9653363, "lon": 18.5072166, "tags": {"addr:city": "Starogard Gda\u0144ski", "addr:housenumber": "26c", "addr:postcode": "83-200", "addr:street": "Droga Nowowiejska", "amenity": "pharmacy", "dispensing": "yes", "name": "Pharmacon", "phone": "58 561 75 63", "ref:csioz": "1029695", "source:addr": "SIP Staarogardu Gda\u0144skiego, stg.procad.pl", "wheelchair": "no"}}, {"type": "node", "id": 2604078134, "lat": 53.9637335, "lon": 18.4959134, "tags": {"addr:city": "Starogard Gda\u0144ski", "addr:housenumber": "93", "addr:postcode": "83-200", "addr:street": "Nad Jarem", "amenity": "pharmacy", "dispensing": "yes", "name": "Nad Jarem", "phone": "+48 585 617 410", "ref:csioz": "1029013", "wheelchair": "yes"}}, {"type": "node", "id": 3692354461, "lat": 53.7222087, "lon": 18.4985798, "tags": {"addr:city": "Osiek", "addr:housenumber": "23", "addr:postcode": "83-221", "addr:street": "Wyzwolenia", "amenity": "pharmacy", "dispensing": "yes", "ref:csioz": "1029045"}}, {"type": "node", "id": 3830036253, "lat": 53.9651614, "lon": 18.527022, "tags": {"addr:city": "Starogard Gda\u0144ski", "addr:housenumber": "14", "addr:postcode": "83-200", "addr:street": "Lubichowska", "amenity": "pharmacy", "dispensing": "yes", "fax": "+48 58 562 74 16", "name": "Gemini", "opening_hours": "Mo-Fr 08:00-20:00; Sa 09:00-20:00; Su 10:00-18:00", "operator": "\"Gemini\" Hutter So.j.", "phone": "+48 58 562 71 09", "ref:csioz": "1032335", "website": "https://www.aptekigemini.pl/apteki/pomorskie,starogard-gdanski,16", "wheelchair": "yes"}}, {"type": "node", "id": 3830130773, "lat": 53.9616721, "lon": 18.5252159, "tags": {"addr:city": "Starogard Gda\u0144ski", "addr:housenumber": "21", "addr:postcode": "83-200", "addr:street": "Miko\u0142aja Kopernika", "amenity": "pharmacy", "brand": "Dbam o Zdrowie", "brand:wikidata": "Q62563833", "dispensing": "yes", "email": "apt92134@dbamozdrowie.pl", "healthcare": "pharmacy", "name": "Dbam o Zdrowie", "opening_hours": "Mo-Fr 08:00-20:00; Sa 08:00-16:00; Su off", "operator": "HECS Sp. z o.o.", "phone": "+48 58 5633631", "ref:csioz": "1031774", "website": "https://www.doz.pl/apteki/a92134-DOZ_Apteka_Dbam_o_Zdrowie", "wheelchair": "yes"}}, {"type": "node", "id": 3830130774, "lat": 53.9614187, "lon": 18.530283, "tags": {"addr:city": "Starogard Gda\u0144ski", "addr:housenumber": "5", "addr:postcode": "83-200", "addr:street": "Aleja Jana Paw\u0142a II", "amenity": "pharmacy", "dispensing": "yes", "email": "apteka@medpharma.pl", "fax": "+48 58 563 36 28", "name": "Medpharma", "opening_hours": "Mo-Fr 08:00-20:00; Sa 09:00-13:00; Su off", "phone": "+48 58 560 05 03", "ref:csioz": "1031033", "website": "http://medpharma.pl/kadra-medyczna/przychodnie/", "wheelchair": "yes"}}, {"type": "node", "id": 3830130776, "lat": 53.9653842, "lon": 18.5242624, "tags": {"addr:city": "Starogard Gda\u0144ski", "addr:housenumber": "2A", "addr:postcode": "83-200", "addr:street": "Aleja Niepodleg\u0142o\u015bci", "amenity": "pharmacy", "dispensing": "yes", "healthcare": "pharmacy", "name": "Ponik", "opening_hours": "Mo-Sa 08:00-21:00; Su 10:00 - 20:00", "phone": "+48 58 561 48 48", "ref:csioz": "1029999"}}, {"type": "node", "id": 3830697698, "lat": 53.9667386, "lon": 18.5264969, "tags": {"addr:city": "Starogard Gda\u0144ski", "addr:housenumber": "44", "addr:postcode": "83-200", "addr:street": "Chojnicka", "amenity": "pharmacy", "dispensing": "yes", "name": "Przy Rondzie", "opening_hours": "Mo-Fr 08:00-20:00;Sa 09:00 - 13:00; Su off", "phone": "+48 58 562 25 25", "ref:csioz": "1027878", "wheelchair": "yes"}}, {"type": "node", "id": 3830697699, "lat": 53.962681, "lon": 18.5074906, "tags": {"addr:city": "Starogard Gda\u0144ski", "addr:housenumber": "2", "addr:postcode": "83-200", "addr:street": "Juranda ze Spychowa", "amenity": "pharmacy", "dispensing": "yes", "email": "starogard_ju@wdoz.pl", "healthcare": "pharmacy", "name": "Wracam Do Zdrowia", "phone": "+48 58 560 07 55", "ref:csioz": "1029840", "website": "http://www.wracamdozdrowia.pl/", "wheelchair": "yes"}}, {"type": "node", "id": 3830697700, "lat": 53.9772993, "lon": 18.5360365, "tags": {"addr:city": "Starogard Gda\u0144ski", "addr:housenumber": "30", "addr:postcode": "83-200", "addr:street": "Romualda Traugutta", "amenity": "pharmacy", "dispensing": "yes", "email": "starogard_tr@wdoz.pl", "healthcare": "pharmacy", "name": "Wracam Do Zdrowia", "opening_hours": "Mo-Fr 08:00-19:00; Sa 09:00-15:00", "phone": "+48 58 560 03 35", "ref:csioz": "1030824", "website": "http://www.wracamdozdrowia.pl/", "wheelchair": "yes"}}, {"type": "node", "id": 3830697701, "lat": 53.9645916, "lon": 18.5291208, "tags": {"addr:city": "Starogard Gda\u0144ski", "addr:housenumber": "7", "addr:postcode": "83-200", "addr:street": "Pomorska", "amenity": "pharmacy", "brand": "Dbam o Zdrowie", "brand:wikidata": "Q62563833", "dispensing": "yes", "healthcare": "pharmacy", "name": "Dbam o Zdrowie", "ref:csioz": "1196610", "short_name": "DOZ", "source": "Rejestr Aptek MZ"}}, {"type": "node", "id": 3830941078, "lat": 54.0771583, "lon": 18.7998879, "tags": {"addr:city": "Tczew", "addr:floor": "0", "addr:housenumber": "37", "addr:postcode": "83-110", "addr:street": "Czy\u017cykowska", "addr:unit": "3", "amenity": "pharmacy", "brand": "Dbam o Zdrowie", "brand:wikidata": "Q62563833", "check_date": "2023-06-03", "dispensing": "yes", "healthcare": "pharmacy", "level": "0", "name": "Dbam o Zdrowie", "opening_hours": "Mo-Fr 08:00 - 20:00, Sa 08:00 - 14:00", "operator": "doz.pl", "phone": "585 301 023", "ref:csioz": "1030642", "short_name": "DOZ"}}, {"type": "node", "id": 3854062777, "lat": 53.9265651, "lon": 18.7003298, "tags": {"addr:city": "Pelplin", "addr:housenumber": "21a", "addr:postcode": "83-130", "addr:street": "Adama Mickiewicza", "amenity": "pharmacy", "dispensing": "yes", "healthcare": "pharmacy", "name": "Wracam Do Zdrowia", "ref:csioz": "1032182"}}, {"type": "node", "id": 3865324304, "lat": 54.1032487, "lon": 18.7763919, "tags": {"addr:city": "Tczew", "addr:housenumber": "11", "addr:postcode": "83-110", "addr:street": "Aleja Solidarno\u015bci", "addr:unit": "25", "amenity": "pharmacy", "brand": "Dbam o Zdrowie", "brand:wikidata": "Q62563833", "description": "apteka w Kaufland", "dispensing": "yes", "healthcare": "pharmacy", "name": "Dbam o Zdrowie", "opening_hours": "Mo-Fr 08:00-21:00; Sa 07:00-22:00; Su 07:00-22:00", "operator": "doz.pl", "ref:csioz": "1030777", "short_name": "DOZ"}}, {"type": "node", "id": 3879021091, "lat": 54.0869163, "lon": 18.7939701, "tags": {"addr:city": "Tczew", "addr:housenumber": "10", "addr:postcode": "83-110", "addr:street": "Genera\u0142a Jaros\u0142awa D\u0105browskiego", "amenity": "pharmacy", "brand": "Dr. Max", "brand:wikidata": "Q56317371", "dispensing": "yes", "healthcare": "pharmacy", "name": "Dr. Max", "ref:csioz": "1194820"}}, {"type": "node", "id": 3886621180, "lat": 54.0870963, "lon": 18.79947, "tags": {"addr:city": "Tczew", "addr:housenumber": "24", "addr:postcode": "83-110", "addr:street": "Plac Genera\u0142a J\u00f3zefa Hallera", "amenity": "pharmacy", "brand": "Dbam o Zdrowie", "brand:wikidata": "Q62563833", "description": "Apteka czynna r\u00f3wnie\u017c w niedziele niehandlowe", "dispensing": "yes", "drive_through": "no", "healthcare": "pharmacy", "name": "Dbam o Zdrowie", "opening_hours": "Mo-Sa 08:00-20:00, Su 09:00-19:00", "operator": "doz.pl", "ref:csioz": "1027560", "short_name": "DOZ"}}, {"type": "node", "id": 3942549035, "lat": 54.0953589, "lon": 18.7873249, "tags": {"addr:city": "Tczew", "addr:housenumber": "8C", "addr:postcode": "83-110", "addr:street": "Gda\u0144ska", "amenity": "pharmacy", "brand": "Dbam o Zdrowie", "brand:wikidata": "Q62563833", "dispensing": "yes", "healthcare": "pharmacy", "name": "Dbam o Zdrowie", "opening_hours": "Mo-Su 08:00-22:00", "operator": "doz.pl", "ref:csioz": "1175945", "short_name": "DOZ"}}, {"type": "node", "id": 4417354719, "lat": 54.1351546, "lon": 18.7215881, "tags": {"addr:city": "Mi\u0142ob\u0105dz", "addr:housenumber": "10", "addr:postcode": "83-111", "addr:street": "Pami\u0119ci Narodowej", "amenity": "pharmacy", "dispensing": "yes", "healthcare": "pharmacy", "name": "Punkt Apteczny", "ref:csioz": "1033940"}}, {"type": "node", "id": 4466937369, "lat": 54.0987424, "lon": 18.7640349, "tags": {"addr:city": "Tczew", "addr:housenumber": "74", "addr:postcode": "83-110", "addr:street": "Armii Krajowej", "amenity": "pharmacy", "healthcare": "pharmacy", "name": "Gemini", "ref:csioz": "1031524"}}, {"type": "node", "id": 5280256478, "lat": 53.9995849, "lon": 18.7693864, "tags": {"addr:city": "Subkowy", "addr:housenumber": "17", "addr:postcode": "83-120", "addr:street": "J\u00f3zefa Wybickiego", "amenity": "pharmacy", "dispensing": "yes", "healthcare": "pharmacy", "name": "Punkt Apteczny Czy\u017cykowska", "ref:csioz": "1033965"}}, {"type": "node", "id": 5867157134, "lat": 54.0890449, "lon": 18.7854654, "tags": {"addr:city": "Tczew", "addr:housenumber": "16A", "addr:postcode": "83-110", "addr:street": "Wojska Polskiego", "amenity": "pharmacy", "brand": "Dbam o Zdrowie", "brand:wikidata": "Q62563833", "dispensing": "yes", "healthcare": "pharmacy", "name": "Dbam o Zdrowie", "opening_hours": "Mo-Fr 08:00-18:00, Sa 08:00-14:00", "operator": "doz.pl", "payment:cash": "yes", "payment:credit_cards": "yes", "ref:csioz": "1031543", "short_name": "DOZ"}}, {"type": "node", "id": 5867189265, "lat": 54.1003527, "lon": 18.7670707, "tags": {"addr:city": "Tczew", "addr:housenumber": "19E", "addr:postcode": "83-110", "addr:street": "Armii Krajowej", "amenity": "pharmacy", "brand": "Dbam o Zdrowie", "brand:wikidata": "Q62563833", "check_date:opening_hours": "2021-04-24", "dispensing": "yes", "healthcare": "pharmacy", "name": "Dbam o Zdrowie", "opening_hours": "Mo-Fr 08:00-18:00; Sa 08:00-14:00", "operator": "doz.pl", "phone": "+48 585 316 531", "ref:csioz": "1031519", "short_name": "DOZ", "wheelchair": "yes"}}, {"type": "node", "id": 5867235626, "lat": 54.0960625, "lon": 18.7672577, "tags": {"addr:city": "Tczew", "addr:housenumber": "49", "addr:postcode": "83-110", "addr:street": "Franciszka \u017bwirki", "amenity": "pharmacy", "brand": "Dbam o Zdrowie", "brand:wikidata": "Q62563833", "dispensing": "yes", "healthcare": "pharmacy", "name": "Dbam o Zdrowie", "opening_hours": "Mo-Fr 08:00-20:00; Sa 08:00-14:00", "operator": "doz.pl", "phone": "585 315 456", "ref:csioz": "1031763", "short_name": "DOZ"}}, {"type": "node", "id": 5867244092, "lat": 54.0970947, "lon": 18.7811093, "tags": {"addr:city": "Tczew", "addr:housenumber": "16", "addr:postcode": "83-110", "addr:street": "Jedno\u015bci Narodu", "addr:unit": "2", "amenity": "pharmacy", "brand": "Dbam o Zdrowie", "brand:wikidata": "Q62563833", "dispensing": "yes", "healthcare": "pharmacy", "name": "Dbam o Zdrowie", "opening_hours": "Mo-Fr 08:00-20:00; Sa 08:00-14:00", "operator": "doz.pl", "phone": "585 314 461", "ref:csioz": "1030881", "short_name": "DOZ"}}, {"type": "node", "id": 5867263587, "lat": 54.0920944, "lon": 18.7876078, "tags": {"addr:city": "Tczew", "addr:housenumber": "38A", "addr:postcode": "83-110", "addr:street": "Kr\u00f3la Jana III Sobieskiego", "amenity": "pharmacy", "brand": "Dbam o Zdrowie", "brand:wikidata": "Q62563833", "dispensing": "yes", "healthcare": "pharmacy", "name": "Dbam o Zdrowie", "opening_hours": "Mo-Fr 08:00-20:00; Sa 08:00-14:00", "operator": "doz.pl", "phone": "587 770 196", "ref:csioz": "1116965", "short_name": "DOZ"}}, {"type": "node", "id": 6353163804, "lat": 54.1728753, "lon": 18.6995046}, {"type": "node", "id": 6353163805, "lat": 54.1727884, "lon": 18.6994903}, {"type": "node", "id": 6353163806, "lat": 54.1727974, "lon": 18.6993318}, {"type": "node", "id": 6353163807, "lat": 54.1728842, "lon": 18.6993461}, {"type": "node", "id": 6453106917, "lat": 53.8513171, "lon": 18.4025953, "tags": {"addr:city": "Lubichowo", "addr:housenumber": "29", "addr:postcode": "83-240", "addr:street": "Starogardzka", "amenity": "pharmacy", "dispensing": "yes", "healthcare": "pharmacy", "name": "Aspirynka", "ref:csioz": "1032278"}}, {"type": "node", "id": 7194006896, "lat": 54.0248221, "lon": 18.3173018, "tags": {"addr:city": "Pog\u00f3dki", "addr:housenumber": "4", "addr:postcode": "83-236", "addr:street": "Cysters\u00f3w", "amenity": "pharmacy", "dispensing": "yes", "name": "S\u0142oneczna", "ref:csioz": "1029381"}}, {"type": "node", "id": 9180997788, "lat": 54.0140608, "lon": 18.9181426, "tags": {"addr:city": "Mi\u0142oradz", "addr:housenumber": "14", "addr:postcode": "82-213", "addr:street": "\u017bu\u0142awska", "amenity": "pharmacy", "dispensing": "yes", "healthcare": "pharmacy", "name": "Verbena", "opening_hours": "Mo-Fr 08:00-19:00; Sa 08:00-14:00; Su off", "ref:csioz": "1196112", "start_date": "2015-10-15"}}, {"type": "node", "id": 9184548510, "lat": 53.8456223, "lon": 18.9615378, "tags": {"addr:city": "Ryjewo", "addr:housenumber": "76", "addr:postcode": "82-420", "addr:street": "Grunwaldzka", "amenity": "pharmacy", "dispensing": "yes", "healthcare": "pharmacy", "name": "Medfarm", "ref:csioz": "1033504", "start_date": "2012-03-30"}}, {"type": "node", "id": 9543572493, "lat": 54.1729872, "lon": 18.6901525, "tags": {"addr:city": "Pszcz\u00f3\u0142ki", "addr:housenumber": "1B", "addr:postcode": "83-032", "addr:street": "Sportowa", "amenity": "pharmacy", "healthcare": "pharmacy", "name": "Medical", "ref:csioz": "1032092"}}, {"type": "node", "id": 9543572498, "lat": 54.1431806, "lon": 18.6040849, "tags": {"addr:city": "Sobowidz", "addr:housenumber": "3", "addr:postcode": "83-033", "addr:street": "Dworcowa", "amenity": "pharmacy", "name": "Na Zdrowie", "ref:csioz": "1178881"}}, {"type": "node", "id": 9558919004, "lat": 53.93195, "lon": 18.3363936, "tags": {"amenity": "pharmacy", "dispensing": "yes", "name": "T\u0119czowa", "ref:csioz": "1228894"}}, {"type": "node", "id": 9558919006, "lat": 53.9368147, "lon": 18.5063486, "tags": {"addr:city": "Starogard Gda\u0144ski", "addr:housenumber": "5", "addr:postcode": "83-200", "addr:street": "Grabowa", "amenity": "pharmacy", "dispensing": "yes", "name": "Naturalnie Zdrowi", "ref:csioz": "1220662"}}, {"type": "node", "id": 9558919007, "lat": 53.9668381, "lon": 18.5314756, "tags": {"addr:city": "Starogard Gda\u0144ski", "addr:housenumber": "18", "addr:postcode": "83-200", "addr:street": "Rynek", "amenity": "pharmacy", "check_date": "2024-05-31", "dispensing": "yes", "healthcare": "pharmacy", "name": "Spo\u0142eczna", "operator": "Grupa Nowa Farmacja", "ref:csioz": "1207317"}}, {"type": "node", "id": 9558919008, "lat": 53.9697794, "lon": 18.5275923, "tags": {"addr:city": "Starogard Gda\u0144ski", "addr:housenumber": "19c", "addr:postcode": "83-200", "addr:street": "Genera\u0142a J\u00f3zefa Hallera", "amenity": "pharmacy", "dispensing": "yes", "healthcare": "pharmacy", "name": "Gemini", "ref:csioz": "1206696"}}, {"type": "node", "id": 9558919009, "lat": 53.9768388, "lon": 18.5206848, "tags": {"addr:city": "Starogard Gda\u0144ski", "addr:housenumber": "4B", "addr:postcode": "83-200", "addr:street": "Skarszewska", "amenity": "pharmacy", "dispensing": "yes", "healthcare": "pharmacy", "name": "Ponik", "opening_hours": "Mo-Fr 07:00-20:00; Sa 07:00-16:00", "ref:csioz": "1179360"}}, {"type": "node", "id": 9558919010, "lat": 53.9750889, "lon": 18.5271719, "tags": {"addr:city": "Starogard Gda\u0144ski", "addr:housenumber": "25A", "addr:postcode": "83-200", "addr:street": "Aleja Wojska Polskiego", "amenity": "pharmacy", "brand": "Dbam o Zdrowie", "brand:wikidata": "Q62563833", "check_date": "2024-05-31", "dispensing": "yes", "healthcare": "pharmacy", "name": "Dbam o Zdrowie", "ref:csioz": "1033637"}}, {"type": "node", "id": 9558919011, "lat": 53.9551377, "lon": 18.5175066, "tags": {"addr:city": "Starogard Gda\u0144ski", "addr:housenumber": "92A", "addr:postcode": "83-200", "addr:street": "Lubichowska", "amenity": "pharmacy", "dispensing": "yes", "name": "Rodzinna", "opening_hours": "Mo-Fr 08:00-18:00; Sa 09:00 - 13:00; Su off", "phone": "+48 58 562 87 28", "ref:csioz": "1028647", "wheelchair": "yes"}}, {"type": "node", "id": 9558919012, "lat": 54.0721328, "lon": 18.439459, "tags": {"addr:city": "Skarszewy", "addr:housenumber": "22A", "addr:postcode": "83-250", "addr:street": "Dworcowa", "amenity": "pharmacy", "brand": "Dbam o Zdrowie", "brand:wikidata": "Q62563833", "dispensing": "yes", "healthcare": "pharmacy", "name": "Dbam o Zdrowie", "opening_hours": "Mo-Fr 07:30-17:30; Sa 08:00-14:00", "ref:csioz": "1027571", "short_name": "DOZ", "website": "https://www.doz.pl/"}}, {"type": "node", "id": 9558919013, "lat": 53.8867461, "lon": 18.5565231, "tags": {"addr:city": "Bobowo", "addr:housenumber": "1B", "addr:postcode": "83-212", "addr:street": "Zachodnia", "amenity": "pharmacy", "dispensing": "yes", "name": "Punkt Apteczny Aptekus", "ref:csioz": "1034015"}}, {"type": "node", "id": 9558919014, "lat": 53.9628172, "lon": 18.3487656, "tags": {"addr:city": "Pinczyn", "addr:housenumber": "1C", "addr:postcode": "83-251", "addr:street": "Semli\u0144ska", "amenity": "pharmacy", "dispensing": "yes", "name": "Punkt Apteczny Aptekus", "ref:csioz": "1033755"}}, {"type": "node", "id": 9558919015, "lat": 53.7375494, "lon": 18.6496514, "tags": {"addr:housenumber": "23A", "addr:place": "Kopytkowo", "addr:postcode": "83-230", "amenity": "pharmacy", "dispensing": "yes", "name": "Medical", "ref:csioz": "1033497"}}, {"type": "node", "id": 9558919016, "lat": 54.0693657, "lon": 18.4451, "tags": {"addr:city": "Skarszewy", "addr:housenumber": "25", "addr:postcode": "83-250", "addr:street": "J\u00f3zefa Wybickiego", "amenity": "pharmacy", "dispensing": "yes", "healthcare": "pharmacy", "name": "Wracam Do Zdrowia", "opening_hours": "Mo-Fr 08:00-19:00; Sa 08:00-14:00", "ref:csioz": "1032196", "website": "www.wracamydozdrowia.pl"}}, {"type": "node", "id": 9558921317, "lat": 53.9363861, "lon": 18.3289639, "tags": {"addr:city": "Zblewo", "addr:housenumber": "37A", "addr:postcode": "83-210", "addr:street": "Ko\u015bcierska", "amenity": "pharmacy", "dispensing": "yes", "name": "Przy Medyku", "ref:csioz": "1030445"}}, {"type": "node", "id": 9558921318, "lat": 53.7470169, "lon": 18.6882092, "tags": {"addr:city": "Sm\u0119towo Graniczne", "addr:housenumber": "5", "addr:postcode": "83-230", "addr:street": "Kociewska", "amenity": "pharmacy", "dispensing": "yes", "name": "Zdrowie", "ref:csioz": "1030248"}}, {"type": "node", "id": 9558921319, "lat": 53.7952086, "lon": 18.5258236, "tags": {"addr:city": "Sk\u00f3rcz", "addr:housenumber": "15", "addr:postcode": "83-220", "addr:street": "G\u0142\u00f3wna", "amenity": "pharmacy", "dispensing": "yes", "name": "Panaceum", "ref:csioz": "1027458"}}, {"type": "node", "id": 9558921320, "lat": 53.9850118, "lon": 18.5063351, "tags": {"addr:city": "Starogard Gda\u0144ski", "addr:housenumber": "2A", "addr:postcode": "83-200", "addr:street": "Doktora Stanis\u0142awa Kryzana", "amenity": "pharmacy", "dispensing": "yes", "name": "Pod Borem", "opening_hours": "Mo-Fr 09:00-18:00; Sa 09:00-13:00", "phone": "58 562 04 93", "ref:csioz": "1026741", "wheelchair": "yes"}}, {"type": "node", "id": 10211937950, "lat": 53.8380806, "lon": 18.8286078, "tags": {"addr:city": "Gniew", "addr:housenumber": "10", "addr:postcode": "83-140", "addr:street": "Osiedle Wincentego Witosa", "amenity": "pharmacy", "dispensing": "yes", "healthcare": "pharmacy", "ref:csioz": "1032084"}}, {"type": "node", "id": 10211937956, "lat": 53.8355687, "lon": 18.8230036, "tags": {"addr:city": "Gniew", "addr:housenumber": "14", "addr:postcode": "83-140", "addr:street": "Marsza\u0142ka J\u00f3zefa Pi\u0142sudskiego", "amenity": "pharmacy", "brand": "Dr. Max", "brand:wikidata": "Q56317371", "dispensing": "yes", "healthcare": "pharmacy", "name": "Dr. Max", "opening_hours": "Mo-Fr 08:00-20:00; Sa 08:00-15:00", "ref:csioz": "1199023"}}, {"type": "node", "id": 10211937957, "lat": 53.8368031, "lon": 18.8232428, "tags": {"addr:city": "Gniew", "addr:housenumber": "8a", "addr:postcode": "83-140", "addr:street": "Miko\u0142aja Kopernika", "amenity": "pharmacy", "dispensing": "yes", "healthcare": "pharmacy", "name": "Kociewska", "ref:csioz": "1031148"}}, {"type": "node", "id": 10212039383, "lat": 53.9282761, "lon": 18.7047119, "tags": {"addr:city": "Pelplin", "addr:housenumber": "16", "addr:postcode": "83-130", "addr:street": "J\u00f3zefa Wybickiego", "amenity": "pharmacy", "brand": "Dr. Max", "brand:wikidata": "Q56317371", "dispensing": "yes", "healthcare": "pharmacy", "name": "Dr. Max", "ref:csioz": "1027369"}}, {"type": "node", "id": 10212039384, "lat": 53.9267992, "lon": 18.7065391, "tags": {"addr:city": "Pelplin", "addr:housenumber": "7", "addr:postcode": "83-130", "addr:street": "Dworcowa", "amenity": "pharmacy", "dispensing": "yes", "healthcare": "pharmacy", "name": "Medical", "ref:csioz": "1196451"}}, {"type": "node", "id": 10212039386, "lat": 53.840362, "lon": 18.6932972, "tags": {"addr:city": "Morzeszczyn", "addr:housenumber": "5", "addr:street": "Kociewska", "amenity": "pharmacy", "dispensing": "yes", "healthcare": "pharmacy", "name": "Punkt Apteczny Aspirynka", "ref:csioz": "1180211"}}, {"type": "node", "id": 10212148060, "lat": 54.0946163, "lon": 18.624768, "tags": {"addr:city": "Turze", "addr:housenumber": "12", "addr:street": "Parkowa", "amenity": "pharmacy", "dispensing": "yes", "healthcare": "pharmacy", "name": "Punkt Apteczny", "ref:csioz": "1033933"}}, {"type": "node", "id": 10212148061, "lat": 54.093402, "lon": 18.7859557, "tags": {"addr:city": "Tczew", "addr:housenumber": "16", "addr:postcode": "83-110", "addr:street": "Aleja Zwyci\u0119stwa", "amenity": "pharmacy", "dispensing": "yes", "healthcare": "pharmacy", "name": "Gemini", "ref:csioz": "1215213"}}, {"type": "node", "id": 10212148062, "lat": 54.0866338, "lon": 18.790293, "tags": {"addr:city": "Tczew", "addr:housenumber": "5A", "addr:postcode": "83-110", "addr:street": "Wojska Polskiego", "amenity": "pharmacy", "dispensing": "yes", "healthcare": "pharmacy", "name": "Medical", "ref:csioz": "1218812"}}, {"type": "node", "id": 10212148063, "lat": 54.0860475, "lon": 18.7900006, "tags": {"addr:city": "Tczew", "addr:housenumber": "5", "addr:postcode": "83-110", "addr:street": "Wojska Polskiego", "amenity": "pharmacy", "dispensing": "yes", "healthcare": "pharmacy", "name": "Twoja", "ref:csioz": "1033561"}}, {"type": "node", "id": 10212148064, "lat": 54.0901845, "lon": 18.7854781, "tags": {"addr:city": "Tczew", "addr:housenumber": "22", "addr:postcode": "83-110", "addr:street": "Wojska Polskiego", "amenity": "pharmacy", "dispensing": "yes", "healthcare": "pharmacy", "name": "Wracam Do Zdrowia", "ref:csioz": "1230859"}}, {"type": "node", "id": 10212148065, "lat": 54.086832, "lon": 18.7717616, "tags": {"addr:city": "Tczew", "addr:housenumber": "8", "addr:postcode": "83-110", "addr:street": "Jasia i Ma\u0142gosi", "amenity": "pharmacy", "dispensing": "yes", "healthcare": "pharmacy", "name": "Bajkowa", "ref:csioz": "1033146"}}, {"type": "node", "id": 10212148066, "lat": 54.0975465, "lon": 18.7652847, "tags": {"addr:city": "Tczew", "addr:housenumber": "38", "addr:postcode": "83-110", "addr:street": "Franciszka \u017bwirki", "amenity": "pharmacy", "brand": "Dr. Max", "brand:wikidata": "Q56317371", "dispensing": "yes", "healthcare": "pharmacy", "name": "Dr. Max", "ref:csioz": "1211950"}}, {"type": "node", "id": 10212148067, "lat": 54.0769153, "lon": 18.8003637, "tags": {"addr:city": "Tczew", "addr:housenumber": "68", "addr:postcode": "83-110", "addr:street": "Czy\u017cykowska", "amenity": "pharmacy", "dispensing": "yes", "healthcare": "pharmacy", "ref:csioz": "1026470"}}, {"type": "node", "id": 10212148068, "lat": 54.0902018, "lon": 18.7754006, "tags": {"addr:city": "Tczew", "addr:housenumber": "4", "addr:postcode": "83-110", "addr:street": "Braci Grimm", "amenity": "pharmacy", "dispensing": "yes", "healthcare": "pharmacy", "ref:csioz": "1030951"}}, {"type": "node", "id": 10212148069, "lat": 54.0677161, "lon": 18.7669917, "tags": {"addr:city": "Tczew", "addr:housenumber": "57", "addr:postcode": "83-110", "addr:street": "Bartosza G\u0142owackiego", "amenity": "pharmacy", "dispensing": "yes", "healthcare": "pharmacy", "name": "Nova", "ref:csioz": "1231075"}}, {"type": "node", "id": 10212148080, "lat": 54.0985424, "lon": 18.7646163, "tags": {"addr:city": "Tczew", "addr:housenumber": "35", "addr:postcode": "83-110", "addr:street": "Armii Krajowej", "amenity": "pharmacy", "dispensing": "yes", "healthcare": "pharmacy", "name": "Wracam Do Zdrowia", "ref:csioz": "1212353"}}, {"type": "way", "id": 177797751, "nodes": [6353163807, 6353163806, 6353163805, 6353163804, 6353163807], "tags": {"addr:city": "Pszcz\u00f3\u0142ki", "addr:housenumber": "27", "addr:postcode": "83-032", "addr:street": "Pomorska", "amenity": "pharmacy", "brand": "Dbam o Zdrowie", "brand:wikidata": "Q62563833", "building": "yes", "building:levels": "2", "healthcare": "pharmacy", "name": "Dbam o Zdrowie", "ref:csioz": "1027583", "short_name": "DOZ", "source:addr": "pszczolki.e-mapa.net"}}]}