{"version": 0.6, "generator": "Overpass API 0.7.62.8 e802775f", "osm3s": {"timestamp_osm_base": "2025-10-06T07:51:29Z", "copyright": "The data included in this document is from www.openstreetmap.org. The data is made available under ODbL."}, "elements": [{"type": "node", "id": 411374616, "lat": 46.0704041, "lon": 18.3164789, "tags": {"addr:city": "Nagykoz\u00e1r", "addr:housenumber": "37", "addr:postcode": "7741", "addr:street": "Kossuth Lajos utca", "amenity": "pharmacy", "name": "Hunyor gy\u00f3gyszert\u00e1r"}}, {"type": "node", "id": 840188822, "lat": 46.1859919, "lon": 18.2567233, "tags": {"addr:city": "Koml\u00f3", "addr:housenumber": "2", "addr:postcode": "7300", "addr:street": "Pet\u0151fi t\u00e9r", "amenity": "pharmacy", "contact:email": "kokonyospatika@gmail.com", "contact:facebook": "kokonyospatika", "contact:phone": "+36 72 482 906", "healthcare": "pharmacy", "name": "K\u00f6k\u00f6ny\u00f6s Gy\u00f3gyszert\u00e1r", "opening_hours": "Mo-Fr 07:30-12:00,12:30-16:00", "wheelchair": "no"}}, {"type": "node", "id": 840188831, "lat": 46.195338, "lon": 18.2718, "tags": {"amenity": "pharmacy", "healthcare": "pharmacy", "name": "Szilv\u00e1si gy\u00f3gyszert\u00e1r", "wheelchair": "limited"}}, {"type": "node", "id": 975391529, "lat": 45.9704396, "lon": 18.1365149}, {"type": "node", "id": 975391609, "lat": 45.9703515, "lon": 18.1364721}, {"type": "node", "id": 975391707, "lat": 45.9703358, "lon": 18.1365391}, {"type": "node", "id": 975391713, "lat": 45.9703358, "lon": 18.1364114}, {"type": "node", "id": 975391780, "lat": 45.9702396, "lon": 18.1364924}, {"type": "node", "id": 975391797, "lat": 45.9703579, "lon": 18.136317}, {"type": "node", "id": 975391833, "lat": 45.9702664, "lon": 18.1363777}, {"type": "node", "id": 975391878, "lat": 45.9704729, "lon": 18.1363728}, {"type": "node", "id": 1119860429, "lat": 46.0754047, "lon": 18.2431981, "tags": {"addr:city": "P\u00e9cs", "addr:housenumber": "8", "addr:postcode": "7630", "addr:street": "Zsolnay Vilmos utca", "amenity": "pharmacy", "drive_through": "no", "healthcare": "pharmacy", "name": "SIPO Patika", "opening_hours": "Mo-Sa 07:00-20:00; Su 08:00-13:00"}}, {"type": "node", "id": 1579708747, "lat": 46.080757, "lon": 18.2421353}, {"type": "node", "id": 1670536493, "lat": 46.030438, "lon": 18.2214775, "tags": {"amenity": "pharmacy", "healthcare": "pharmacy"}}, {"type": "node", "id": 1754152885, "lat": 46.0840703, "lon": 18.2237649, "tags": {"amenity": "pharmacy", "healthcare": "pharmacy", "name": "Gy\u00f6ngyszem patika"}}, {"type": "node", "id": 1754153390, "lat": 46.079187, "lon": 18.2208136, "tags": {"amenity": "pharmacy", "healthcare": "pharmacy", "name": "Patika"}}, {"type": "node", "id": 1757062906, "lat": 46.0749283, "lon": 18.2306014, "tags": {"amenity": "pharmacy", "healthcare": "pharmacy"}}, {"type": "node", "id": 1757062909, "lat": 46.0754722, "lon": 18.228681, "tags": {"addr:city": "P\u00e9cs", "addr:housenumber": "2", "addr:postcode": "7621", "addr:street": "Sz\u00e9chenyi t\u00e9r", "amenity": "pharmacy", "brand": "Gy\u00f6ngy Patika", "ele": "152", "healthcare": "pharmacy", "level": "0", "name": "Arany Sas Gy\u00f3gyszert\u00e1r", "website": "http://arany-sas-pecs.gyongypatikak.hu/", "wheelchair": "no", "wikidata": "Q4363289", "wikipedia": "hu:Arany Sas Gy\u00f3gyszert\u00e1r (P\u00e9cs)"}}, {"type": "node", "id": 1760143074, "lat": 46.0763665, "lon": 18.2098267, "tags": {"amenity": "pharmacy", "name": "Pannon patika"}}, {"type": "node", "id": 2342204406, "lat": 46.0736232, "lon": 18.2312848, "tags": {"amenity": "pharmacy", "healthcare": "pharmacy", "name": "Belv\u00e1rosi gy\u00f3gyszert\u00e1r"}}, {"type": "node", "id": 2424559454, "lat": 46.1905819, "lon": 18.264421}, {"type": "node", "id": 2424559456, "lat": 46.1905508, "lon": 18.2645226}, {"type": "node", "id": 2424559459, "lat": 46.1904431, "lon": 18.2644539}, {"type": "node", "id": 2424559461, "lat": 46.1904742, "lon": 18.2643523}, {"type": "node", "id": 2525226056, "lat": 46.0636778, "lon": 18.1852408, "tags": {"amenity": "pharmacy", "name": "SIPO Patika", "opening_hours": "Mo-Sa 08:00-20:00; Su 09:00-14:00", "toilets:wheelchair": "yes", "wheelchair": "yes"}}, {"type": "node", "id": 2608057212, "lat": 46.050821, "lon": 18.2830496, "tags": {"addr:city": "Koz\u00e1rmisleny", "addr:postcode": "7761", "addr:street": "Orgona utca", "amenity": "pharmacy", "healthcare": "pharmacy", "name": "Spartacus Gy\u00f3gyszert\u00e1r", "opening_hours": "Mo-Fr 09:00-17:00"}}, {"type": "node", "id": 2888086221, "lat": 46.0805818, "lon": 18.2422361}, {"type": "node", "id": 2888086228, "lat": 46.0806198, "lon": 18.2420961}, {"type": "node", "id": 2888086229, "lat": 46.0806202, "lon": 18.2423008}, {"type": "node", "id": 2888086231, "lat": 46.0806246, "lon": 18.2420573}, {"type": "node", "id": 2888086233, "lat": 46.0806357, "lon": 18.2420793}, {"type": "node", "id": 2888086234, "lat": 46.0806366, "lon": 18.2421484}, {"type": "node", "id": 2888086235, "lat": 46.0806439, "lon": 18.2421397}, {"type": "node", "id": 2888086236, "lat": 46.0806452, "lon": 18.2421608}, {"type": "node", "id": 2888086240, "lat": 46.0806773, "lon": 18.2420026}, {"type": "node", "id": 3206343451, "lat": 46.0670983, "lon": 18.1879492, "tags": {"addr:city": "P\u00e9cs", "addr:housenumber": "2", "addr:postcode": "7634", "addr:street": "P\u00e1fr\u00e1ny utca", "amenity": "pharmacy", "dispensing": "yes", "drive_through": "no", "name": "Mecsekalja patika", "opening_hours": "Mo-Fr 07:30-17:00", "payment:cash": "yes", "payment:mastercard": "yes"}}, {"type": "node", "id": 3311674293, "lat": 46.0679793, "lon": 18.1993897, "tags": {"amenity": "pharmacy", "dispensing": "yes", "drive_through": "no", "healthcare": "pharmacy", "name": "Fortuna gy\u00f3gyszert\u00e1r", "wheelchair": "yes"}}, {"type": "node", "id": 3311674294, "lat": 46.0643769, "lon": 18.1994171, "tags": {"amenity": "pharmacy", "name": "Primula patika", "opening_hours": "Mo-Fr 07:30-18:30; Sa 08:00-13:00"}}, {"type": "node", "id": 3311674295, "lat": 46.0641911, "lon": 18.1975124, "tags": {"amenity": "pharmacy", "name": "Sipo patika"}}, {"type": "node", "id": 3311674296, "lat": 46.0643819, "lon": 18.1999955, "tags": {"addr:city": "P\u00e9cs", "addr:housenumber": "2", "addr:postcode": "7633", "addr:street": "Dr. Veress Endre utca", "amenity": "pharmacy", "dispensing": "yes", "healthcare": "pharmacy", "name": "Sipo Patika", "operator": "Sipo"}}, {"type": "node", "id": 3348021150, "lat": 46.0746697, "lon": 18.2207727, "tags": {"amenity": "pharmacy", "healthcare": "pharmacy", "name": "Barbak\u00e1n patika"}}, {"type": "node", "id": 3423840529, "lat": 46.0443677, "lon": 18.214878, "tags": {"amenity": "pharmacy", "name": "Melinda Gy\u00f3gyszert\u00e1r", "opening_hours": "Mo-Fr 08:00-17:00, 09:00-18:00; Sa 08:00-12:00", "toilets:wheelchair": "no", "wheelchair": "yes"}}, {"type": "node", "id": 3423855098, "lat": 46.0451788, "lon": 18.2183195, "tags": {"amenity": "pharmacy", "healthcare": "pharmacy", "name": "M\u00e9rleg Patika", "wheelchair": "yes"}}, {"type": "node", "id": 3440813856, "lat": 46.0421765, "lon": 18.2847889, "tags": {"amenity": "pharmacy", "source": "turistautak.hu", "source:date": "2011-09-08", "url": "http://turistautak.hu/poi.php?id=34159"}}, {"type": "node", "id": 3440813889, "lat": 46.0777176, "lon": 18.1167689, "tags": {"amenity": "pharmacy", "healthcare": "pharmacy", "opening_hours": "Mo,We-Fr 08:00-11:00; Tu 15:00-17:00; PH off", "source": "turistautak.hu", "source:date": "2008-05-21", "url": "http://turistautak.hu/poi.php?id=25620"}}, {"type": "node", "id": 3440854368, "lat": 46.0742828, "lon": 18.2159575, "tags": {"amenity": "pharmacy", "description": "A takar\u00e9ksz\u00f6vetkezet mellett, a Hung\u00e1ria \u00fat elej\u00e9n tal\u00e1lhat\u00f3 ez a patika.", "healthcare": "pharmacy", "name": "Hung\u00e1ria gy\u00f3gyszert\u00e1r", "wheelchair": "yes"}}, {"type": "node", "id": 3440855670, "lat": 46.0464963, "lon": 18.2231403, "tags": {"amenity": "pharmacy", "healthcare": "pharmacy", "name": "Rozsnyay", "website": "https://rozsnyaygyogyszertar.hu/index.php", "wheelchair": "limited"}}, {"type": "node", "id": 3440859495, "lat": 46.0404111, "lon": 18.2154731, "tags": {"amenity": "pharmacy", "healthcare": "pharmacy", "name": "Ametiszt patika"}}, {"type": "node", "id": 3440859499, "lat": 46.07358, "lon": 18.22782, "tags": {"amenity": "pharmacy", "description": "Gy\u00f3gyszert\u00e1r a Citrom utc\u00e1ban.", "healthcare": "pharmacy", "name": "Arany Kehely patika", "source": "turistautak.hu", "source:date": "2011-09-08", "url": "http://turistautak.hu/poi.php?id=35391"}}, {"type": "node", "id": 3440859583, "lat": 46.0695762, "lon": 18.220712, "tags": {"amenity": "pharmacy", "description": "Gy\u00f3gyszert\u00e1r a K\u00f6zt\u00e1rsas\u00e1g t\u00e9ren.", "name": "F\u0151nix gy\u00f3gyszert\u00e1r", "source": "turistautak.hu", "source:date": "2011-09-08", "url": "http://turistautak.hu/poi.php?id=15862", "wheelchair": "yes"}}, {"type": "node", "id": 3440859595, "lat": 46.06842, "lon": 18.22498, "tags": {"amenity": "pharmacy", "description": "Koron\u00e1s K\u00edgy\u00f3 Gy\u00f3gyszert\u00e1r a Szabads\u00e1g \u00faton, nem messze a vas\u00fat\u00e1llom\u00e1st\u00f3l, k\u00f6zel a reform\u00e1tus templomhoz.", "name": "Koron\u00e1s K\u00edgy\u00f3 gy\u00f3gyszert\u00e1r", "source": "turistautak.hu", "source:date": "2011-09-08", "url": "http://turistautak.hu/poi.php?id=18507"}}, {"type": "node", "id": 3440859621, "lat": 46.039431, "lon": 18.2231954, "tags": {"amenity": "pharmacy", "description": "Gy\u00f3gyszert\u00e1r a Nevel\u00e9si K\u00f6zpont mellett. Nyitva tart\u00e1s: H-P 7.30-17.30 (2006. augusztusi adat)", "name": "Magyar Korona patika", "source": "turistautak.hu", "source:date": "2011-09-08", "url": "http://turistautak.hu/poi.php?id=10300"}}, {"type": "node", "id": 3440860495, "lat": 46.0704839, "lon": 18.229937, "tags": {"amenity": "pharmacy", "healthcare": "pharmacy", "opening_hours": "Mo-Th 07:00-19:00; Fr-Sa 07:00-14:00; PH off", "source": "turistautak.hu", "source:date": "2011-04-23", "url": "http://turistautak.hu/poi.php?id=6212"}}, {"type": "node", "id": 3440860512, "lat": 46.0747098, "lon": 18.2111524, "tags": {"amenity": "pharmacy", "source": "turistautak.hu", "source:date": "2011-09-08", "url": "http://turistautak.hu/poi.php?id=6059"}}, {"type": "node", "id": 3464278674, "lat": 46.1584269, "lon": 18.4219949, "tags": {"addr:city": "P\u00e9csv\u00e1rad", "addr:housenumber": "8", "addr:postcode": "7720", "addr:street": "Kossuth Lajos utca", "amenity": "pharmacy", "description": "Gy\u00f3gyszert\u00e1r az egyik panelh\u00e1z t\u00f6v\u00e9ben.", "name": "Szent Istv\u00e1n patika", "source": "turistautak.hu", "source:date": "2013-09-17", "url": "http://turistautak.hu/poi.php?id=11807"}}, {"type": "node", "id": 3471869650, "lat": 45.9969228, "lon": 18.4543947, "tags": {"addr:city": "Szederk\u00e9ny", "addr:housenumber": "40", "addr:postcode": "7751", "addr:street": "P\u00e9csi \u00fat", "amenity": "pharmacy", "brand": "Gy\u00f6ngy", "contact:phone": "+36 69 354 170", "healthcare": "pharmacy", "name": "Rem\u00e9nys\u00e9g Gy\u00f3gyszert\u00e1r", "source": "turistautak.hu", "source:date": "2011-09-08", "toilets:wheelchair": "no", "url": "http://turistautak.hu/poi.php?id=49536", "wheelchair": "no"}}, {"type": "node", "id": 3718495779, "lat": 45.8493859, "lon": 18.2322222, "tags": {"addr:city": "Hark\u00e1ny", "amenity": "pharmacy", "name": "Thermal Gy\u00f3gyszert\u00e1r", "opening_hours": "Mo-Fr 08:00-17:00", "wheelchair": "yes"}}, {"type": "node", "id": 3817306567, "lat": 46.077768, "lon": 18.2377747, "tags": {"amenity": "pharmacy", "healthcare": "pharmacy", "name": "\u0150rangyal patika", "wheelchair": "no"}}, {"type": "node", "id": 3856310422, "lat": 46.0737087, "lon": 18.2306374, "tags": {"amenity": "pharmacy", "healthcare": "pharmacy", "name": "Patika"}}, {"type": "node", "id": 3902239490, "lat": 46.0714065, "lon": 18.23019, "tags": {"amenity": "pharmacy", "drive_through": "no", "healthcare": "pharmacy", "name": "\u00c1rk\u00e1d Patika"}}, {"type": "node", "id": 3914014564, "lat": 45.9520986, "lon": 18.2368958}, {"type": "node", "id": 3914014565, "lat": 45.9521206, "lon": 18.237025}, {"type": "node", "id": 3914014567, "lat": 45.9521925, "lon": 18.2368628}, {"type": "node", "id": 3914014568, "lat": 45.9522144, "lon": 18.236992}, {"type": "node", "id": 4163942109, "lat": 46.0825642, "lon": 18.2106203, "tags": {"addr:city": "P\u00e9cs", "addr:housenumber": "17", "addr:postcode": "7624", "addr:street": "Jurisics Mikl\u00f3s utca", "amenity": "pharmacy", "healthcare": "pharmacy", "name": "Csontv\u00e1ry gy\u00f3gyszert\u00e1r", "phone": "+36 72 310 064", "website": "http://csontvary-pecs.gyongypatikak.hu/", "wheelchair": "yes"}}, {"type": "node", "id": 4312797492, "lat": 46.1479188, "lon": 18.1470712, "tags": {"amenity": "pharmacy", "brand": "Benu", "contact:phone": "+36 72 378 482", "opening_hours": "Mo,Tu,Th,Fr 08:00-12:00; We 13:30-17:30"}}, {"type": "node", "id": 4382777338, "lat": 46.051331, "lon": 18.2288208, "tags": {"addr:city": "P\u00e9cs", "addr:housenumber": "2", "addr:postcode": "7632", "addr:street": "\u00c1rnyas liget", "amenity": "pharmacy", "healthcare": "pharmacy", "name": "\u00c1rnyas Gy\u00f3gyszert\u00e1r", "opening_hours": "Mo-Fr 07:30-18:30; Sa 08:00-13:00"}}, {"type": "node", "id": 5033706621, "lat": 46.039041, "lon": 18.2193855, "tags": {"addr:city": "P\u00e9cs", "addr:housenumber": "39-41", "addr:postcode": "7632", "addr:street": "Nagy Imre \u00fat", "amenity": "pharmacy", "name": "Sipo patika", "name:en": "Sipo", "opening_hours": "Mo-Fr 07:30-22:00; Sa 07:30-12:30", "phone": "+36 72 526 592", "website": "https://www.sipo.hu/", "wheelchair": "yes"}}, {"type": "node", "id": 5108141139, "lat": 46.0783519, "lon": 18.2206586, "tags": {"amenity": "pharmacy", "name": "SIPO patika"}}, {"type": "node", "id": 5218035277, "lat": 46.0421431, "lon": 17.985375, "tags": {"amenity": "pharmacy", "healthcare": "pharmacy", "name": "Feh\u00e9r Kereszt Patika"}}, {"type": "node", "id": 5218035278, "lat": 46.0386209, "lon": 17.992305, "tags": {"amenity": "pharmacy", "healthcare": "pharmacy", "name": "Harm\u00f3nia"}}, {"type": "node", "id": 5725078507, "lat": 46.0057948, "lon": 18.0448941, "tags": {"addr:city": "Szabadszentkir\u00e1ly", "addr:housenumber": "33", "addr:postcode": "7951", "addr:street": "Pet\u0151fi S\u00e1ndor utca", "amenity": "pharmacy", "dispensing": "yes", "healthcare": "pharmacy"}}, {"type": "node", "id": 5727541422, "lat": 45.9668982, "lon": 18.5175983, "tags": {"addr:city": "B\u00f3ly", "addr:housenumber": "8", "addr:postcode": "7754", "addr:street": "Ady Endre utca", "amenity": "pharmacy", "name": "Panacea Gy\u00f3gyszert\u00e1r"}}, {"type": "node", "id": 5727541425, "lat": 45.987439, "lon": 18.5348217, "tags": {"addr:city": "Szajk", "addr:housenumber": "3", "addr:postcode": "7753", "addr:street": "Kossuth Lajos utca", "amenity": "pharmacy", "healthcare": "pharmacy"}}, {"type": "node", "id": 5922061957, "lat": 46.1350135, "lon": 18.3258288}, {"type": "node", "id": 5922061958, "lat": 46.1350053, "lon": 18.3259714}, {"type": "node", "id": 5922061960, "lat": 46.1352435, "lon": 18.3259997}, {"type": "node", "id": 5922061961, "lat": 46.1352516, "lon": 18.3258571}, {"type": "node", "id": 6307425717, "lat": 46.2521961, "lon": 18.1091456}, {"type": "node", "id": 6307425727, "lat": 46.2521988, "lon": 18.1095439}, {"type": "node", "id": 6307425728, "lat": 46.2521299, "lon": 18.1095183}, {"type": "node", "id": 6307425730, "lat": 46.2522649, "lon": 18.1091712}, {"type": "node", "id": 6458163858, "lat": 46.0734279, "lon": 18.2078741, "tags": {"amenity": "pharmacy", "healthcare": "pharmacy", "name": "Egyetemi Gy\u00f3gyszert\u00e1r"}}, {"type": "node", "id": 6773151430, "lat": 46.053975, "lon": 18.2270295, "tags": {"addr:city": "P\u00e9cs", "addr:housenumber": "1", "addr:postcode": "7632", "addr:street": "Egressy utca", "amenity": "pharmacy", "dispensing": "yes", "healthcare": "pharmacy", "name": "BENU Gy\u00f3gyszert\u00e1r", "opening_hours": "Mo-Fr 07:30-19:00; Sa 08:00-12:00", "phone": "+36 72 438 915"}}, {"type": "node", "id": 6805081130, "lat": 46.0752947, "lon": 18.2073626, "tags": {"amenity": "pharmacy", "dispensing": "yes", "healthcare": "pharmacy", "name": "UNIV gy\u00f3gyszert\u00e1r", "opening_hours": "Mo-Fr 07:30-16:30", "wheelchair": "yes"}}, {"type": "node", "id": 7025550766, "lat": 46.1585607, "lon": 18.4179648, "tags": {"amenity": "pharmacy"}}, {"type": "node", "id": 7772896948, "lat": 46.2819616, "lon": 18.4616981, "tags": {"addr:city": "Nagym\u00e1nyok", "addr:housenumber": "82/a", "addr:postcode": "7355", "addr:street": "Pet\u0151fi S\u00e1ndor utca", "amenity": "pharmacy", "dispensing": "yes", "drive_through": "no", "healthcare": "pharmacy", "name": "F\u0151nix Gy\u00f3gyszert\u00e1r", "opening_hours": "Mo 07:30-11:00,13:00-16:00; Tu 07:30-11:00,13:00-17:00; We 07:30-11:00,13:00-16:00; Th 07:30-11:00,13:00-17:00", "operator": "(06 74) 458 236"}}, {"type": "node", "id": 8613674199, "lat": 45.9521726, "lon": 18.2368366, "tags": {"amenity": "pharmacy"}}, {"type": "node", "id": 9630272017, "lat": 46.0773828, "lon": 18.2843713, "tags": {"addr:city": "P\u00e9cs", "addr:housenumber": "22", "addr:postcode": "7630", "addr:street": "Bor utca", "amenity": "pharmacy", "brand": "Benu", "brand:wikidata": "Q62562792", "healthcare": "pharmacy", "name": "Benu", "name:en": "Benu Pharmacy", "name:hu": "Hunyor gy\u00f3gyszert\u00e1r - Benu", "opening_hours": "Mo-Fr 09:00-17:00; Sa 08:00-12:00"}}, {"type": "node", "id": 9711663353, "lat": 46.0403865, "lon": 18.2176864, "tags": {"amenity": "pharmacy", "brand": "Benu", "brand:wikidata": "Q62562792", "dispensing": "yes", "healthcare": "pharmacy", "name": "Benu"}}, {"type": "node", "id": 9966185578, "lat": 46.2267993, "lon": 18.4699012}, {"type": "node", "id": 9966185579, "lat": 46.2268789, "lon": 18.4698468}, {"type": "node", "id": 9966185580, "lat": 46.2267821, "lon": 18.4698486}, {"type": "node", "id": 9966185581, "lat": 46.2268617, "lon": 18.4697943}, {"type": "node", "id": 9966185582, "lat": 46.2269473, "lon": 18.4697358}, {"type": "node", "id": 9966185583, "lat": 46.2267627, "lon": 18.4698619}, {"type": "node", "id": 9966185584, "lat": 46.2267332, "lon": 18.4697717}, {"type": "node", "id": 9966185585, "lat": 46.2269179, "lon": 18.4696457}, {"type": "node", "id": 10725788128, "lat": 46.2736726, "lon": 18.3771748, "tags": {"amenity": "pharmacy", "healthcare": "pharmacy"}}, {"type": "node", "id": 10919429334, "lat": 46.0704909, "lon": 18.2056072, "tags": {"amenity": "pharmacy", "contact:phone": "+36 72 900 002", "healthcare": "pharmacy", "name": "Sipo Patika", "opening_hours": "Mo-Fr 08:00-18:00; Sa 08:00-13:00"}}, {"type": "node", "id": 11327590209, "lat": 46.0836108, "lon": 18.2644636, "tags": {"addr:city": "P\u00e9cs", "addr:housenumber": "94", "addr:postcode": "7630", "addr:street": "Zsolnay Vilmos utca", "amenity": "pharmacy", "name": "Eozin patika", "opening_hours": "Mo-Fr 07:30-18:00; Sa 08:00-12:00", "website": "https://kulcspatikak.hu/"}}, {"type": "node", "id": 12112081401, "lat": 46.0654996, "lon": 18.3198741, "tags": {"addr:street": "Kossuth Lajos utca", "amenity": "pharmacy", "name": "Benu gy\u00f3gyszert\u00e1r"}}, {"type": "node", "id": 12330632201, "lat": 46.0864497, "lon": 18.2706941, "tags": {"addr:city": "P\u00e9cs", "addr:housenumber": "2", "addr:postcode": "7629", "addr:street": "Koml\u00f3i \u00fat", "amenity": "pharmacy", "name": "Sipo patika", "opening_hours": "Mo-Fr 08:00-17:30; Sa 07:30-13:30"}}, {"type": "node", "id": 12607106877, "lat": 46.1898275, "lon": 18.2594624, "tags": {"addr:city": "Koml\u00f3", "addr:housenumber": "1", "addr:postcode": "7300", "addr:street": "P\u00e9csi \u00fat", "amenity": "pharmacy", "contact:phone": "+36 72 485 000", "name": "Z\u00f6ldkereszt Gy\u00f3gyszert\u00e1r", "opening_hours": "Mo-Fr 07:30-17:00; Sa 07:00-12:00", "wheelchair": "no"}}, {"type": "way", "id": 83745106, "nodes": [975391833, 975391780, 975391707, 975391609, 975391529, 975391878, 975391797, 975391713, 975391833], "tags": {"addr:city": "G\u00f6rcs\u00f6ny", "addr:housenumber": "5", "addr:postcode": "7833", "addr:street": "R\u00e1k\u00f3czi utca", "amenity": "pharmacy", "building": "yes", "contact:phone": "+36 72 372 525", "dispensing": "no", "healthcare": "pharmacy", "name": "Napvir\u00e1g Gy\u00f3gyszert\u00e1r", "opening_hours": "Mo,We,Th 07:30-16:30; Tu,Fr 07:30-14:00; PH off"}}, {"type": "way", "id": 234156509, "nodes": [2424559454, 2424559456, 2424559459, 2424559461, 2424559454], "tags": {"amenity": "pharmacy", "brand": "Kulcs Patik\u00e1k", "building": "yes", "healthcare": "pharmacy", "name": "Vit\u00e1l Plusz Patika", "wheelchair": "limited"}}, {"type": "way", "id": 285132274, "nodes": [2888086240, 1579708747, 2888086229, 2888086221, 2888086236, 2888086234, 2888086235, 2888086228, 2888086233, 2888086231, 2888086240], "tags": {"addr:city": "P\u00e9cs", "addr:housenumber": "62", "addr:postcode": "7626", "addr:street": "Ady Endre utca", "amenity": "pharmacy", "building": "yes", "contact:phone": "+36 72 333 193", "dispensing": "no", "name": "Ez\u00fcst H\u00e1rs Gy\u00f3gyszert\u00e1r", "opening_hours": "Mo-Fr 08:00-17:00", "wheelchair": "limited"}}, {"type": "way", "id": 388182335, "nodes": [3914014565, 3914014564, 3914014567, 3914014568, 3914014565], "tags": {"addr:city": "Szal\u00e1nta", "addr:housenumber": "99", "addr:postcode": "7811", "addr:street": "Hunyadi J\u00e1nos utca", "amenity": "pharmacy", "building": "yes", "wheelchair": "yes"}}, {"type": "way", "id": 627330434, "nodes": [5922061958, 5922061960, 5922061961, 5922061957, 5922061958], "tags": {"addr:city": "P\u00e9cs", "addr:housenumber": "43", "addr:postcode": "7691", "addr:street": "Bethlen G\u00e1bor utca", "addr:suburb": "Vasas", "amenity": "pharmacy", "building": "yes"}}, {"type": "way", "id": 673529120, "nodes": [6307425727, 6307425730, 6307425717, 6307425728, 6307425727], "tags": {"addr:city": "S\u00e1sd", "addr:housenumber": "21", "addr:postcode": "7370", "addr:street": "Szent Imre \u00fat", "amenity": "pharmacy", "building": "yes", "description": "Gy\u00f3gyszert\u00e1r S\u00e1sdon, a 66-os f\u0151\u00fat ment\u00e9n.", "healthcare": "pharmacy", "roof:shape": "gabled"}}, {"type": "way", "id": 1087725958, "nodes": [9966185585, 9966185582, 9966185581, 9966185579, 9966185578, 9966185580, 9966185583, 9966185584, 9966185585], "tags": {"addr:city": "Mecsekn\u00e1dasd", "addr:housenumber": "39", "addr:postcode": "7695", "addr:street": "R\u00e1k\u00f3czi Ferenc utca", "amenity": "pharmacy", "building": "yes", "contact:phone": "+36 72 463 011", "name": "Sk\u00f3ciai Szent Margit gy\u00f3gyszert\u00e1r"}}]}