{"version": 0.6, "generator": "Overpass API 0.7.62.8 e802775f", "osm3s": {"timestamp_osm_base": "2025-10-06T08:59:45Z", "copyright": "The data included in this document is from www.openstreetmap.org. The data is made available under ODbL."}, "elements": [{"type": "node", "id": 1811472709, "lat": 55.2534124, "lon": 22.2958218, "tags": {"addr:city": "Taurag\u0117", "addr:contact": "yes", "addr:housenumber": "72", "addr:postcode": "72238", "addr:street": "Prezidento g.", "amenity": "pharmacy", "brand": "Eurovaistin\u0117", "brand:wikidata": "Q267205", "healthcare": "pharmacy", "name": "Eurovaistin\u0117"}}, {"type": "node", "id": 1812759490, "lat": 55.2517747, "lon": 22.2887222, "tags": {"addr:city": "Taurag\u0117", "addr:contact": "yes", "addr:housenumber": "17", "addr:postcode": "72254", "addr:street": "Ba\u017eny\u010di\u0173 g.", "amenity": "pharmacy", "brand": "Eurovaistin\u0117", "brand:wikidata": "Q267205", "healthcare": "pharmacy", "name": "Eurovaistin\u0117"}}, {"type": "node", "id": 1814058160, "lat": 55.2543074, "lon": 22.2858164, "tags": {"addr:city": "Taurag\u0117", "addr:contact": "yes", "addr:housenumber": "76", "addr:postcode": "72216", "addr:street": "Vytauto g.", "amenity": "pharmacy", "healthcare": "pharmacy", "name": "Migdul\u0117"}}, {"type": "node", "id": 1814546059, "lat": 55.2516934, "lon": 22.2872818, "tags": {"addr:city": "Taurag\u0117", "addr:contact": "yes", "addr:housenumber": "6", "addr:postcode": "72255", "addr:street": "Respublikos g.", "amenity": "pharmacy", "healthcare": "pharmacy", "name": "J\u016brat\u0117s vaistin\u0117"}}, {"type": "node", "id": 1814568126, "lat": 55.2522845, "lon": 22.2834484, "tags": {"addr:city": "Taurag\u0117", "addr:contact": "yes", "addr:housenumber": "3", "addr:postcode": "72212", "addr:street": "J\u016bros g.", "amenity": "pharmacy", "brand": "Camelia", "brand:wikidata": "Q15867413", "healthcare": "pharmacy", "name": "Camelia"}}, {"type": "node", "id": 1825046932, "lat": 55.2545528, "lon": 22.2896248, "tags": {"addr:city": "Taurag\u0117", "addr:contact": "yes", "addr:housenumber": "28A", "addr:postcode": "72250", "addr:street": "Dariaus ir Gir\u0117no g.", "amenity": "pharmacy", "brand": "Gintarin\u0117 vaistin\u0117", "brand:wikidata": "Q15857801", "healthcare": "pharmacy", "name": "Gintarin\u0117 vaistin\u0117"}}, {"type": "node", "id": 2559768946, "lat": 55.4075648, "lon": 22.5806352, "tags": {"addr:city": "Skaudvil\u0117", "addr:contact": "yes", "addr:housenumber": "5", "addr:street": "Upynos g.", "amenity": "pharmacy", "healthcare": "pharmacy", "name": "Skaudvil\u0117s vaistin\u0117, UAB"}}, {"type": "node", "id": 2569403414, "lat": 55.4072884, "lon": 22.5825756, "tags": {"addr:city": "Skaudvil\u0117", "addr:contact": "yes", "addr:housenumber": "16", "addr:street": "Turgaus a.", "amenity": "pharmacy", "brand": "Eurovaistin\u0117", "brand:wikidata": "Q267205", "healthcare": "pharmacy", "name": "Eurovaistin\u0117"}}, {"type": "node", "id": 2569403418, "lat": 55.4067889, "lon": 22.5838138, "tags": {"addr:city": "Skaudvil\u0117", "addr:contact": "yes", "addr:housenumber": "5", "addr:street": "Turgaus a.", "amenity": "pharmacy", "brand": "Camelia", "brand:wikidata": "Q15867413", "healthcare": "pharmacy", "name": "Camelia"}}, {"type": "node", "id": 3451681890, "lat": 55.2509432, "lon": 22.2992242, "tags": {"addr:city": "Taurag\u0117", "addr:contact": "yes", "addr:housenumber": "28", "addr:street": "Gedimino g.", "amenity": "pharmacy", "healthcare": "pharmacy", "name": "Norfos vaistin\u0117"}}, {"type": "node", "id": 3451681891, "lat": 55.2527763, "lon": 22.2984065, "tags": {"addr:city": "Taurag\u0117", "addr:contact": "yes", "addr:housenumber": "21A", "addr:postcode": "72282", "addr:street": "Gedimino g.", "amenity": "pharmacy", "brand": "Camelia", "brand:wikidata": "Q15867413", "healthcare": "pharmacy", "name": "Camelia"}}, {"type": "node", "id": 3485242749, "lat": 55.2552171, "lon": 22.288394, "tags": {"addr:city": "Taurag\u0117", "addr:contact": "yes", "addr:housenumber": "4", "addr:postcode": "72217", "addr:street": "Spaustuv\u0117s g.", "amenity": "pharmacy", "brand": "Gintarin\u0117 vaistin\u0117", "brand:wikidata": "Q15857801", "healthcare": "pharmacy", "name": "Gintarin\u0117 vaistin\u0117"}}, {"type": "node", "id": 4094285904, "lat": 55.0735189, "lon": 22.5847426, "tags": {"addr:city": "Smalininkai", "addr:contact": "yes", "addr:housenumber": "23", "addr:street": "Nemuno g.", "amenity": "pharmacy", "name": "Apotheca Vaistin\u0117"}}, {"type": "node", "id": 4102670069, "lat": 55.0776132, "lon": 22.764825, "tags": {"amenity": "pharmacy", "name": "Camelia"}}, {"type": "node", "id": 4102670070, "lat": 55.0769591, "lon": 22.7673517, "tags": {"amenity": "pharmacy", "name": "Camelia"}}, {"type": "node", "id": 4102670071, "lat": 55.0761299, "lon": 22.7685479, "tags": {"amenity": "pharmacy", "name": "Gintarin\u0117 vaistin\u0117"}}, {"type": "node", "id": 4102695384, "lat": 55.0784854, "lon": 22.7763746, "tags": {"amenity": "pharmacy", "name": "Camelia"}}, {"type": "node", "id": 4102695385, "lat": 55.0790581, "lon": 22.7745561, "tags": {"amenity": "pharmacy", "name": "Norfos vaistin\u0117"}}, {"type": "node", "id": 4102700328, "lat": 55.0855109, "lon": 22.7697093, "tags": {"amenity": "pharmacy", "name": "Eurovaistin\u0117"}}, {"type": "node", "id": 5596442661, "lat": 55.0770348, "lon": 22.76483, "tags": {"amenity": "pharmacy", "dispensing": "yes", "email": "daugvst@gmail.com", "healthcare": "pharmacy", "name": "V. Daug\u0117los vaistin\u0117", "opening_hours": "Mo-Fr 09:00-18:00; Sa 09:00-13:00", "phone": "+370 447 52802"}}, {"type": "node", "id": 6716946075, "lat": 55.2572312, "lon": 22.2928963, "tags": {"addr:city": "Taurag\u0117", "addr:contact": "yes", "addr:housenumber": "41", "addr:postcode": "72221", "addr:street": "Dariaus ir Gir\u0117no g.", "amenity": "pharmacy", "brand": "Benu", "brand:wikidata": "Q62562792", "contact:facebook": "https://www.facebook.com/BENUvaistine", "contact:instagram": "https://www.instagram.com/benu_vaistine/", "email": "benu.7282@benu.lt", "healthcare": "pharmacy", "name": "Benu", "opening_hours": "Mo-Th 09:00-13:00", "operator": "BENU Vaistin\u0117 UAB", "phone": "+370 614 09214", "website": "https://www.benu.lt/"}}, {"type": "node", "id": 9196019240, "lat": 55.261412, "lon": 22.3003505, "tags": {"addr:city": "Taurag\u0117", "addr:contact": "yes", "addr:housenumber": "63", "addr:postcode": "72201", "addr:street": "Dariaus ir Gir\u0117no g.", "amenity": "pharmacy", "brand": "Eurovaistin\u0117", "brand:wikidata": "Q267205", "brand:wikipedia": "en:Euroapotheca", "healthcare": "pharmacy", "name": "Eurovaistin\u0117"}}, {"type": "node", "id": 13072810733, "lat": 55.0839175, "lon": 22.7509528, "tags": {"amenity": "pharmacy", "name": "Apotheka"}}]}