{"version": 0.6, "generator": "Overpass API 0.7.62.8 e802775f", "osm3s": {"timestamp_osm_base": "2025-10-06T08:35:15Z", "copyright": "The data included in this document is from www.openstreetmap.org. The data is made available under ODbL."}, "elements": [{"type": "node", "id": 669511761, "lat": 50.5220117, "lon": 22.450753, "tags": {"addr:city": "Huta Krzeszowska", "amenity": "pharmacy", "email": "punkt.huta@gmail.com", "healthcare": "pharmacy", "name": "Punkt apteczny", "opening_hours": "Mo-Fr 08:00-15:00", "phone": "+48 15 87 92 116", "ref:csioz": "1231110"}}, {"type": "node", "id": 678890917, "lat": 50.3726675, "lon": 22.1259867, "tags": {"amenity": "pharmacy", "email": "aptekazdrowiejezowe@wp.pl", "healthcare": "pharmacy", "name": "Apteka Zdrowie", "opening_hours": "Mo-Sa 08:00-18:00; Sa 08:00-14:00", "phone": "+48 17 777 61 91", "ref:csioz": "1227324"}}, {"type": "node", "id": 756952108, "lat": 50.4427576, "lon": 22.247596, "tags": {"amenity": "pharmacy", "email": "rynek@apteka-arnica.pl", "healthcare": "pharmacy", "name": "Apteka Arnica", "opening_hours": "Mo-Fr 08:00-18:00; Sa 08:00-14:00", "phone": "+48 15 876 29 60", "ref:csioz": "1141612"}}, {"type": "node", "id": 768427148, "lat": 50.5226825, "lon": 22.2060072, "tags": {"amenity": "pharmacy", "email": "zarzecze@apteka-arnica.pl", "healthcare": "pharmacy", "name": "Arnica", "phone": "+48 15 856 66 70", "ref:csioz": "1183701"}}, {"type": "node", "id": 946037353, "lat": 50.7891098, "lon": 22.1121892, "tags": {"amenity": "pharmacy"}}, {"type": "node", "id": 1358134624, "lat": 50.6502381, "lon": 21.8953035, "tags": {"amenity": "pharmacy", "name": "Apteka"}}, {"type": "node", "id": 1783154009, "lat": 50.4894594, "lon": 22.2656875, "tags": {"amenity": "pharmacy", "email": "apteka-ulanow@o2.pl", "healthcare": "pharmacy", "name": "Echinacea", "opening_hours": "Mo-Fr 08:00-19:00; Sa 08:00-14:00", "phone": "+48 15 876 37 17", "ref:csioz": "1141648"}}, {"type": "node", "id": 1824863108, "lat": 50.5710281, "lon": 22.1273032, "tags": {"amenity": "pharmacy"}}, {"type": "node", "id": 1915819241, "lat": 50.6846329, "lon": 21.729156, "tags": {"addr:city": "Sandomierz", "addr:housenumber": "17", "addr:postcode": "27-600", "addr:street": "Ignacego Maciejowskiego", "amenity": "pharmacy", "dispensing": "yes", "drive_through": "no", "healthcare": "pharmacy", "level": "0", "name": "S\u0142oneczna", "opening_hours": "Mo-Fr 07:00-21:00; Sa 08:00-15:00", "payment:cash": "yes", "payment:credit_cards": "yes", "ref:csioz": "1002616", "wheelchair": "yes"}}, {"type": "node", "id": 1915819269, "lat": 50.6978097, "lon": 21.7501646, "tags": {"addr:city": "Sandomierz", "addr:housenumber": "24", "addr:street": "Doktora Zygmunta Schinzla", "amenity": "pharmacy", "dispensing": "yes", "ref:csioz": "1001364"}}, {"type": "node", "id": 2218583069, "lat": 50.6549831, "lon": 21.7825245}, {"type": "node", "id": 2218583070, "lat": 50.6550345, "lon": 21.7826957}, {"type": "node", "id": 2218583072, "lat": 50.6550622, "lon": 21.7824654}, {"type": "node", "id": 2218583074, "lat": 50.6551136, "lon": 21.7826365}, {"type": "node", "id": 2673500388, "lat": 50.620009, "lon": 21.9903806, "tags": {"addr:housenumber": "320", "addr:place": "Turbia", "addr:postcode": "37-416", "amenity": "pharmacy", "name": "Punkt Apteczny w Turbi"}}, {"type": "node", "id": 2948700884, "lat": 50.6200205, "lon": 21.9904615}, {"type": "node", "id": 2948700885, "lat": 50.6200869, "lon": 21.9903819}, {"type": "node", "id": 2948702577, "lat": 50.6394093, "lon": 22.0678591}, {"type": "node", "id": 2948706547, "lat": 50.6393143, "lon": 22.0678165}, {"type": "node", "id": 2948706548, "lat": 50.6393449, "lon": 22.0679099}, {"type": "node", "id": 2948706549, "lat": 50.6393799, "lon": 22.067763}, {"type": "node", "id": 2948712371, "lat": 50.6199686, "lon": 21.9903539}, {"type": "node", "id": 2948712372, "lat": 50.620035, "lon": 21.9902744}, {"type": "node", "id": 3091517787, "lat": 50.7525822, "lon": 22.3303374, "tags": {"amenity": "pharmacy", "dispensing": "yes", "opening_hours": "Mo-Fr 08:00-19:00; Sa 08:00-13:00", "operator": "mgr E. Belniak", "phone": "+48 15 8715010", "ref": "1161562", "ref:csioz": "1161562", "source:addr": "modliborzyce.e-mapa.net", "wheelchair": "no"}}, {"type": "node", "id": 3281200613, "lat": 50.6362445, "lon": 21.7543928, "tags": {"amenity": "pharmacy", "name": "Apteka NOVA"}}, {"type": "node", "id": 4223763041, "lat": 50.4374617, "lon": 22.2535676}, {"type": "node", "id": 4223763069, "lat": 50.4375339, "lon": 22.2534374}, {"type": "node", "id": 4223763071, "lat": 50.4375356, "lon": 22.2536685}, {"type": "node", "id": 4223763099, "lat": 50.4376078, "lon": 22.2535383}, {"type": "node", "id": 4372068667, "lat": 50.6911013, "lon": 22.0670929}, {"type": "node", "id": 4372068668, "lat": 50.6911475, "lon": 22.0669967}, {"type": "node", "id": 4372068669, "lat": 50.6911552, "lon": 22.0670059}, {"type": "node", "id": 4372068671, "lat": 50.6911815, "lon": 22.0669511}, {"type": "node", "id": 4372068672, "lat": 50.6911865, "lon": 22.0671948}, {"type": "node", "id": 4372068674, "lat": 50.6912146, "lon": 22.0670828}, {"type": "node", "id": 4372068675, "lat": 50.6912309, "lon": 22.0671023}, {"type": "node", "id": 4372068677, "lat": 50.6912427, "lon": 22.0670243}, {"type": "node", "id": 4715538540, "lat": 50.7829363, "lon": 22.2280295, "tags": {"amenity": "pharmacy", "dispensing": "yes", "name": "Apteka", "opening_hours": "Mo-Fr 08:00-16:00; Sa 08:00-13:00", "phone": "+48 15 8740220", "ref:csioz": "1153683"}}, {"type": "node", "id": 4797030824, "lat": 50.4427503, "lon": 22.2499378, "tags": {"amenity": "pharmacy", "check_date": "2025-04-12", "email": "aptekarudnicka@o2.pl", "healthcare": "pharmacy", "name": "Apteka im. A. Ma\u0144kowskiego", "opening_hours": "Mo-Fr 08:00-18:00; Sa 08:00-14:00", "payment:cash": "yes", "payment:credit_cards": "yes", "payment:debit_cards": "yes", "phone": "+48 15 876 20 44", "ref:csioz": "1141636"}}, {"type": "node", "id": 5047560622, "lat": 50.6849491, "lon": 21.7414764, "tags": {"addr:city": "Sandomierz", "addr:housenumber": "11", "addr:postcode": "27-600", "addr:street": "Adama Mickiewicza", "amenity": "pharmacy", "dispensing": "yes", "email": "aptekanova.sand2@wp.pl", "name": "Nova", "opening_hours": "Mo-Fr 07:00-20:00; Sa 07:30-14:00", "operator": "Dorota Adamczyk", "phone": "15 831 00 76", "ref:csioz": "1180768", "website": "http://www.nova-apteka.pl/"}}, {"type": "node", "id": 5047580522, "lat": 50.6858612, "lon": 21.7414875, "tags": {"addr:city": "Sandomierz", "addr:housenumber": "32", "addr:postcode": "27-600", "addr:street": "Adama Mickiewicza", "amenity": "pharmacy", "dispensing": "yes", "email": "aptekanova.sand@wp.pl", "name": "Nova", "opening_hours": "Mo-Fr 07:00-21:00; Sa 07:30-20:00; Su 09:00-19:00", "operator": "Bo\u017cena R\u0119dziak-Ko\u0142buc", "phone": "15 832 07 88", "ref:csioz": "1003485", "website": "http://www.nova-apteka.pl/"}}, {"type": "node", "id": 5056617649, "lat": 50.5715078, "lon": 22.0647739, "tags": {"addr:city": "Stalowa Wola", "addr:housenumber": "10", "addr:postcode": "37-450", "addr:street": "Aleje Jana Paw\u0142a II", "amenity": "pharmacy", "healthcare": "pharmacy", "name": "Apteka Gemini"}}, {"type": "node", "id": 5069561666, "lat": 50.5711182, "lon": 22.0690423, "tags": {"addr:city": "Stalowa Wola", "addr:housenumber": "19G", "addr:postcode": "37-450", "addr:street": "J\u00f3zefa Poniatowskiego", "amenity": "pharmacy", "healthcare": "pharmacy", "name": "Panax"}}, {"type": "node", "id": 5231245622, "lat": 50.5649968, "lon": 21.8761713, "tags": {"addr:city": "Gr\u0119b\u00f3w", "addr:housenumber": "31", "addr:postcode": "39-410", "addr:street": "Rynek", "amenity": "pharmacy", "name": "Rodzinna", "ref:csioz": "1143936"}}, {"type": "node", "id": 5231245647, "lat": 50.5651345, "lon": 21.8749313, "tags": {"addr:city": "Gr\u0119b\u00f3w", "addr:housenumber": "1E", "addr:postcode": "39-410", "addr:street": "Rynek", "amenity": "pharmacy", "name": "Izabela", "opening_hours": "Mo-Fr 8:00-16:00; Sa 8:00-13:00", "ref:csioz": "1143920"}}, {"type": "node", "id": 5436330483, "lat": 50.6854749, "lon": 21.7366286, "tags": {"addr:city": "Sandomierz", "addr:housenumber": "18", "addr:street": "Juliusza S\u0142owackiego", "amenity": "pharmacy", "dispensing": "yes", "name": "W Centrum", "opening_hours": "24/7", "ref:csioz": "1185727"}}, {"type": "node", "id": 5578049133, "lat": 50.5733377, "lon": 22.0665277, "tags": {"addr:city": "Stalowa Wola", "addr:housenumber": "31", "addr:postcode": "37-450", "addr:street": "J\u00f3zefa Poniatowskiego", "amenity": "pharmacy", "dispensing": "yes", "healthcare": "pharmacy", "name": "Panax"}}, {"type": "node", "id": 5924886640, "lat": 50.8244226, "lon": 22.3157175}, {"type": "node", "id": 5924888528, "lat": 50.8244683, "lon": 22.3156297}, {"type": "node", "id": 5924888529, "lat": 50.8243271, "lon": 22.3155987}, {"type": "node", "id": 5924889327, "lat": 50.8244888, "lon": 22.3155902}, {"type": "node", "id": 5924889328, "lat": 50.8243917, "lon": 22.3154693}, {"type": "node", "id": 6431474903, "lat": 50.5632595, "lon": 22.0679251, "tags": {"amenity": "pharmacy", "healthcare": "pharmacy", "name": "Apteka DOZ"}}, {"type": "node", "id": 7116861191, "lat": 50.6962968, "lon": 21.7518182, "tags": {"addr:city": "Sandomierz", "addr:housenumber": "12", "addr:street": "Doktora Aleksandra Dobkiewicza", "amenity": "pharmacy", "dispensing": "yes", "ref:csioz": "1001422"}}, {"type": "node", "id": 7620497994, "lat": 50.3624467, "lon": 21.9106721, "tags": {"amenity": "pharmacy"}}, {"type": "node", "id": 7622422603, "lat": 50.4229185, "lon": 21.9513141, "tags": {"amenity": "pharmacy", "check_date": "2024-09-07", "name": "Medica"}}, {"type": "node", "id": 9547800824, "lat": 50.6450492, "lon": 21.7596239, "tags": {"addr:city": "Tarnobrzeg", "addr:housenumber": "378", "addr:postcode": "39-400", "addr:street": "Aleja Warszawska", "amenity": "pharmacy", "name": "Nova", "ref:csioz": "1144191"}}, {"type": "node", "id": 9547901925, "lat": 50.6582953, "lon": 21.8449326, "tags": {"addr:city": "Gorzyce", "addr:housenumber": "8", "addr:postcode": "39-432", "addr:street": "3 Maja", "amenity": "pharmacy", "name": "Apteka Etiuda", "ref:csioz": "1175530"}}, {"type": "node", "id": 9547924201, "lat": 50.6591478, "lon": 21.8431055, "tags": {"amenity": "pharmacy", "ref:csioz": "1143912"}}, {"type": "node", "id": 9547937233, "lat": 50.6592698, "lon": 21.8444222, "tags": {"amenity": "pharmacy", "name": "Apteka Nova", "ref:csioz": "1200304"}}, {"type": "node", "id": 9560479248, "lat": 50.7583193, "lon": 22.2227355, "tags": {"amenity": "pharmacy", "name": "Punkt Apteczny Mgr Farm. Bo\u017cena Tuszy\u0144ska", "ref:csioz": "1106211"}}, {"type": "node", "id": 9575021000, "lat": 50.5196271, "lon": 22.143709, "tags": {"amenity": "pharmacy", "fixme": "do uzupe\u0142nienia", "healthcare": "pharmacy", "name": "Zdrowie", "opening_hours": "Mo-Sa 08:00-20:00", "ref:csioz": "1141482", "wheelchair": "yes"}}, {"type": "node", "id": 9575021001, "lat": 50.5165292, "lon": 22.1517639, "tags": {"amenity": "pharmacy", "check_date": "2025-09-09", "contact:phone": "+48 690 515 069", "healthcare": "pharmacy", "name:signed": "no", "opening_hours": "PH,Mo-Su 00:00-24:00", "ref:csioz": "1141547"}}, {"type": "node", "id": 9575021002, "lat": 50.5230238, "lon": 22.1305397, "tags": {"amenity": "pharmacy", "fixme": "do uzupe\u0142nienia", "healthcare": "pharmacy", "name": "Apteka Pod Gwiazd\u0105", "ref:csioz": "1195987"}}, {"type": "node", "id": 9575021003, "lat": 50.5215969, "lon": 22.1336443, "tags": {"amenity": "pharmacy", "check_date": "2025-08-05", "healthcare": "pharmacy", "name": "Apteka Nova", "opening_hours": "Mo-Fr 08:00-20:00; Sa 08:00-19:00; Su 09:00-17:00", "ref:csioz": "1181590"}}, {"type": "node", "id": 9575021004, "lat": 50.5197436, "lon": 22.1430529, "tags": {"amenity": "pharmacy", "fixme": "do uzupe\u0142nienia", "healthcare": "pharmacy", "name": "Apteka Szpitalna", "ref:csioz": "1138351"}}, {"type": "node", "id": 9575021005, "lat": 50.5178861, "lon": 22.1467655, "tags": {"amenity": "pharmacy", "check_date": "2025-08-11", "contact:phone": "+48 15 841 38 11", "healthcare": "pharmacy", "name": "Apteka Centeum", "opening_hours": "Mo-Fr 07:30-20:00; Sa 07:30-15:00", "ref:csioz": "1141539"}}, {"type": "node", "id": 9575021007, "lat": 50.5212923, "lon": 22.1345364, "tags": {"amenity": "pharmacy", "check_date": "2025-08-05", "healthcare": "pharmacy", "name": "Apteka S\u0142oneczna", "opening_hours": "Mo-Fr 07:00-21:00; Sa 08:00-15:00", "ref:csioz": "1192766"}}, {"type": "node", "id": 9575021008, "lat": 50.5174245, "lon": 22.1463378, "tags": {"amenity": "pharmacy", "check_date": "2025-08-11", "healthcare": "pharmacy", "name": "Apteka Cef@Rm 36,6", "opening_hours": "Mo-Fr 07:30-19:00; Sa 08:00-15:00", "ref:csioz": "1141505"}}, {"type": "node", "id": 9575021011, "lat": 50.4892878, "lon": 22.2633104, "tags": {"amenity": "pharmacy", "email": "aptekaru2015@interia.pl", "healthcare": "pharmacy", "name": "Rodzinna", "opening_hours": "Mo-Fr 08:00-16:00; Sa 08:30-13:00", "phone": "+48 15 845 81 22", "ref:csioz": "1195180", "wheelchair": "yes"}}, {"type": "node", "id": 9765287189, "lat": 50.7379514, "lon": 21.7904008, "tags": {"addr:city": "Dwikozy", "addr:housenumber": "4", "addr:street": "Sp\u00f3\u0142dzielcza", "amenity": "pharmacy", "dispensing": "yes", "healthcare": "pharmacy", "name": "S\u0142oneczna", "ref:csioz": "1199539"}}, {"type": "node", "id": 9765313573, "lat": 50.6816903, "lon": 21.7579195, "tags": {"addr:city": "Sandomierz", "addr:housenumber": "2", "addr:street": "B\u0142onie", "amenity": "pharmacy", "dispensing": "yes", "name": "W Galerii", "ref:csioz": "1196749"}}, {"type": "node", "id": 9765313576, "lat": 50.6847689, "lon": 21.7361991, "tags": {"addr:city": "Sandomierz", "addr:housenumber": "1", "addr:street": "Porucznika Tadeusza Kr\u00f3la", "amenity": "pharmacy", "dispensing": "yes", "fixme": "Lokalizacja do weryfikacji", "name": "S\u0142oneczna", "ref:csioz": "1184357"}}, {"type": "node", "id": 9765313596, "lat": 50.6860604, "lon": 21.7324052, "tags": {"addr:city": "Sandomierz", "addr:housenumber": "10", "addr:street": "Armii Krajowej", "amenity": "pharmacy", "brand": "Dbam o Zdrowie", "brand:wikidata": "Q62563833", "dispensing": "yes", "healthcare": "pharmacy", "name": "Dbam o Zdrowie", "ref:csioz": "1215467", "short_name": "DOZ"}}, {"type": "node", "id": 9765313599, "lat": 50.6974239, "lon": 21.7360675, "tags": {"addr:city": "Sandomierz", "addr:housenumber": "63A", "addr:street": "Eugeniusza Kwiatkowskiego", "amenity": "pharmacy", "dispensing": "yes", "name": "Sandomierska", "ref:csioz": "1212849"}}, {"type": "node", "id": 9765313600, "lat": 50.6627082, "lon": 21.7524188, "tags": {"addr:city": "Sandomierz", "addr:housenumber": "30", "addr:street": "Portowa", "amenity": "pharmacy", "dispensing": "yes", "name": "Nova", "ref:csioz": "1203590"}}, {"type": "node", "id": 9765313604, "lat": 50.68818, "lon": 21.7320448, "tags": {"addr:city": "Sandomierz", "addr:housenumber": "44C", "addr:street": "Adama Mickiewicza", "amenity": "pharmacy", "dispensing": "yes", "name": "Mi\u0119towa", "ref:csioz": "1003727"}}, {"type": "node", "id": 9765313605, "lat": 50.6883806, "lon": 21.7302184, "tags": {"addr:city": "Sandomierz", "addr:housenumber": "51A", "addr:street": "Adama Mickiewicza", "amenity": "pharmacy", "dispensing": "yes", "name": "Arnika", "ref:csioz": "1003333"}}, {"type": "node", "id": 9765313607, "lat": 50.683559, "lon": 21.7330318, "tags": {"addr:city": "Sandomierz", "addr:housenumber": "2", "addr:street": "Armii Krajowej", "amenity": "pharmacy", "dispensing": "yes", "name": "Cef@Rm 36,6", "ref:csioz": "1001465"}}, {"type": "node", "id": 9765313609, "lat": 50.7355496, "lon": 21.788268, "tags": {"addr:city": "Dwikozy", "addr:housenumber": "8", "addr:street": "Starowiejska", "amenity": "pharmacy", "dispensing": "yes", "healthcare": "pharmacy", "ref:csioz": "1001209"}}, {"type": "node", "id": 9773584355, "lat": 50.7339172, "lon": 21.8939307, "tags": {"amenity": "pharmacy", "name": "Punkt apteczny \"S\u0142oneczny\"", "opening_hours": "Mo-Fr 08:00-18:00; Sa 08:00-12:00"}}, {"type": "node", "id": 9862818238, "lat": 50.6808791, "lon": 21.9461363, "tags": {"amenity": "pharmacy"}}, {"type": "node", "id": 10536343182, "lat": 50.6425213, "lon": 21.804909, "tags": {"amenity": "pharmacy", "dispensing": "yes", "healthcare": "pharmacy", "name": "Punkt Apteczny Rodzinny", "ref:csioz": "1231459"}}, {"type": "node", "id": 10562302612, "lat": 50.4755593, "lon": 22.4763851, "tags": {"amenity": "pharmacy", "dispensing": "yes", "email": "apteka_harasiuki@wp.pl", "healthcare": "pharmacy", "name": "Apteka \"Nad Tanwi\u0105\"", "opening_hours": "Mo-Fr 08:00-16:00; Sa 08:00-12:00", "phone": "+48 15 879 11 21", "ref:csioz": "1165482"}}, {"type": "node", "id": 10632588481, "lat": 50.5170569, "lon": 22.1513033, "tags": {"amenity": "pharmacy", "name": "Apteka", "opening_hours": "24/7"}}, {"type": "node", "id": 11563408172, "lat": 50.6350586, "lon": 21.9276757, "tags": {"addr:city": "Zbydni\u00f3w", "addr:housenumber": "8", "addr:postcode": "37-415", "addr:street": "Parkowa", "amenity": "pharmacy", "dispensing": "yes", "healthcare": "pharmacy", "healthcare:speciality": "general", "name": "Zyskaj Zdrowie", "opening_hours": "Mo-Fr 08:00-18:00"}}, {"type": "node", "id": 12081607274, "lat": 50.4437163, "lon": 22.2471246, "tags": {"amenity": "pharmacy", "dispensing": "yes", "drive_through": "no", "email": "aptekazdrowierudnik@gmail.com", "healthcare": "pharmacy", "level": "0", "name": "Apteka Zdrowie", "opening_hours": "Mo-Sa 08:00-20:00", "phone": "+48 15 844 70 08"}}, {"type": "node", "id": 12089563575, "lat": 50.4375804, "lon": 22.2535009, "tags": {"access": "yes", "door": "hinged", "entrance": "main", "wheelchair": "yes"}}, {"type": "node", "id": 12160712570, "lat": 50.7558268, "lon": 22.0999043, "tags": {"amenity": "pharmacy", "name": "Arnica", "ref:csioz": "1143822"}}, {"type": "node", "id": 12196732255, "lat": 50.5700242, "lon": 22.065488, "tags": {"addr:city": "Stalowa Wola", "addr:housenumber": "2C", "addr:postcode": "37-450", "addr:street": "Aleje Jana Paw\u0142a II", "amenity": "pharmacy", "healthcare": "pharmacy", "name": "S\u0142oneczna", "opening_hours": "Mo-Fr 07:00-21:00; Sa 08:00-15:00"}}, {"type": "node", "id": 12201817501, "lat": 50.5847193, "lon": 22.0641413, "tags": {"amenity": "pharmacy", "brand": "Dr. Max", "brand:wikidata": "Q56317371", "dispensing": "yes", "email": "stalowawola.chopina@drmax.com.pl", "healthcare": "pharmacy", "name": "Dr. Max", "opening_hours": "Mo-Fr 08:00-21:00; Sa 09:00-21:00; Su 10:00-20:00", "operator": "Pluspharma Sp. z o. o.", "operator:type": "private", "phone": "+48 15 306 22 66", "ref:csioz": "1196717", "website": "https://vivo-shopping.com/pl/stalowa-wola/zdrowie-i-uroda/dr-max;https://www.drmax.pl/apteki/stalowa-wola-chopina-42"}}, {"type": "node", "id": 12644382057, "lat": 50.5894584, "lon": 22.0457715, "tags": {"amenity": "pharmacy", "healthcare": "pharmacy", "name": "Nova"}}, {"type": "node", "id": 12775764296, "lat": 50.5731624, "lon": 22.058547, "tags": {"amenity": "pharmacy", "check_date": "2025-04-22", "healthcare": "pharmacy", "name": "Cef@rm 36,6", "opening_hours": "Mo-Fr 07:00-20:00; Sa 07:00-14:30"}}, {"type": "node", "id": 13130635668, "lat": 50.5719748, "lon": 22.0563409, "tags": {"amenity": "pharmacy", "check_date": "2025-09-09", "healthcare": "pharmacy", "level": "0", "name": "Gemini", "opening_hours": "Mo-Fr 07:00-20:00; Sa 07:00-16:00"}}, {"type": "node", "id": 13130650554, "lat": 50.5730064, "lon": 22.0555684, "tags": {"amenity": "pharmacy", "check_date": "2025-09-09", "healthcare": "pharmacy", "level": "0", "name": "Nova"}}, {"type": "node", "id": 13130650573, "lat": 50.5726302, "lon": 22.0558222, "tags": {"amenity": "pharmacy", "check_date": "2025-09-09", "healthcare": "pharmacy", "level": "0", "name": "Premium-Lek", "opening_hours": "Mo-Fr 08:00-19:00; Sa 08:00-14:00"}}, {"type": "node", "id": 13130650574, "lat": 50.5727732, "lon": 22.0557169, "tags": {"amenity": "pharmacy", "brand": "Apteka S\u0142oneczna", "check_date": "2025-09-09", "healthcare": "pharmacy", "level": "0", "name": "Apteka S\u0142oneczna", "opening_hours": "Mo-Sa 07:00-21:00; Su 08:00-21:00"}}, {"type": "way", "id": 153482723, "nodes": [4223763069, 4223763041, 4223763071, 4223763099, 12089563575, 4223763069], "tags": {"addr:city": "Rudnik nad Sanem", "addr:housenumber": "14", "addr:postcode": "37-420", "addr:street": "Fryderyka Chopina", "amenity": "pharmacy", "building": "yes", "email": "biuro@apteka-arnica.pl", "healthcare": "pharmacy", "name": "Arnica", "opening_hours": "Mo-Fr 08:00-18:00; Sa 08:00-14:00", "phone": "+48 15 876 62 57", "ref:csioz": "1141620", "website": "http://apteka-arnica.pl"}}, {"type": "way", "id": 211932387, "nodes": [2218583069, 2218583070, 2218583074, 2218583072, 2218583069], "tags": {"addr:city": "Trze\u015b\u0144", "addr:city:simc": "0791711", "addr:housenumber": "2", "addr:postcode": "39-434", "addr:street": "Ksi\u0119dza Juliana Michalca", "addr:street:sym_ul": "39300", "amenity": "pharmacy", "building": "yes", "dispensing": "yes", "name": "Apteka", "ref:csioz": "1165334", "source:addr": "gorzycetarnobrzeskie.e-mapa.net"}}, {"type": "way", "id": 291406246, "nodes": [2948706547, 2948706549, 2948702577, 2948706548, 2948706547], "tags": {"addr:housenumber": "223", "addr:place": "Rzeczyca D\u0142uga", "addr:postcode": "37-455", "amenity": "pharmacy", "building": "yes", "name": "Punkt Apteczny \"Panax\""}}, {"type": "way", "id": 291406756, "nodes": [2948712372, 2948700885, 2948700884, 2948712371, 2948712372], "tags": {"addr:city": "Turbia", "addr:housenumber": "2", "addr:postcode": "37-416", "addr:street": "Magnoliowa", "amenity": "pharmacy", "building": "yes"}}, {"type": "way", "id": 439564049, "nodes": [4372068677, 4372068674, 4372068675, 4372068672, 4372068667, 4372068668, 4372068669, 4372068671, 4372068677], "tags": {"amenity": "pharmacy", "building": "yes", "name": "Punkt Apteczny - Apteki S\u0142oneczne"}}, {"type": "way", "id": 627634718, "nodes": [5924889328, 5924888529, 5924886640, 5924888528, 5924889327, 5924889328], "tags": {"addr:city": "Polichna Druga", "addr:housenumber": "115", "addr:postcode": "23-225", "amenity": "pharmacy", "building": "yes", "dispensing": "yes", "healthcare": "pharmacy", "ref:csioz": "1162515"}}]}