{"version": 0.6, "generator": "Overpass API 0.7.62.8 e802775f", "osm3s": {"timestamp_osm_base": "2025-10-06T07:54:35Z", "copyright": "The data included in this document is from www.openstreetmap.org. The data is made available under ODbL."}, "elements": [{"type": "node", "id": 599175955, "lat": 48.3032803, "lon": 18.0654415, "tags": {"amenity": "pharmacy", "dispensing": "yes", "healthcare": "pharmacy", "name": "Lek\u00e1re\u0148 Kloko\u010dina"}}, {"type": "node", "id": 609081778, "lat": 48.3029717, "lon": 18.0652288, "tags": {"amenity": "pharmacy", "dispensing": "yes", "healthcare": "pharmacy", "name": "Lek\u00e1re\u0148 pod borinou"}}, {"type": "node", "id": 647784474, "lat": 48.2986142, "lon": 18.0830153, "tags": {"amenity": "pharmacy", "dispensing": "yes", "healthcare": "pharmacy", "name": "Lek\u00e1re\u0148 Hypericum"}}, {"type": "node", "id": 698523380, "lat": 48.3097319, "lon": 18.0769836, "tags": {"amenity": "pharmacy", "drive_through": "no", "healthcare": "pharmacy", "name": "Lek\u00e1re\u0148 \u0160t\u00farova", "opening_hours": "Mo-Fr 08:00-16:30"}}, {"type": "node", "id": 847893439, "lat": 48.3024895, "lon": 18.0644788, "tags": {"amenity": "pharmacy", "brand": "Dr. Max", "brand:wikidata": "Q56317371", "brand:wikipedia": "fr:Dr.Max", "healthcare": "pharmacy", "name": "Dr. Max"}}, {"type": "node", "id": 1225141896, "lat": 48.3018892, "lon": 18.0597097, "tags": {"amenity": "pharmacy", "healthcare": "pharmacy", "name": "Lek\u00e1re\u0148 \u010cajka"}}, {"type": "node", "id": 1307956467, "lat": 48.3009416, "lon": 18.0618868, "tags": {"amenity": "pharmacy", "brand": "Dr. Max", "brand:wikidata": "Q56317371", "dispensing": "yes", "healthcare": "pharmacy", "name": "Dr. Max", "opening_hours": "Mo-Su 08:00-20:00", "operator": "Dr.Max"}}, {"type": "node", "id": 3688566991, "lat": 48.2988403, "lon": 18.0827277, "tags": {"amenity": "pharmacy", "brand": "Va\u0161a Lek\u00e1re\u0148", "brand:wikidata": "Q108368884", "dispensing": "yes", "healthcare": "pharmacy", "name": "Va\u0161a lek\u00e1re\u0148", "source": "survey"}}, {"type": "node", "id": 3688567021, "lat": 48.3006919, "lon": 18.0810577, "tags": {"amenity": "pharmacy", "healthcare": "pharmacy", "name": "Anemapharm", "source": "survey"}}, {"type": "node", "id": 3688591649, "lat": 48.3015703, "lon": 18.0601366, "tags": {"amenity": "pharmacy", "healthcare": "pharmacy", "source": "survey"}}, {"type": "node", "id": 6169131576, "lat": 48.0947311, "lon": 18.0621912, "tags": {"amenity": "pharmacy", "dispensing": "yes", "healthcare": "pharmacy", "name": "Lek\u00e1re\u0148 Viola"}}, {"type": "node", "id": 7431153076, "lat": 48.2914339, "lon": 18.0769676, "tags": {"amenity": "pharmacy", "name": "Homeo Nitra"}}, {"type": "node", "id": 7773626113, "lat": 48.2870273, "lon": 18.070075, "tags": {"amenity": "pharmacy", "name": "Zdenka"}}, {"type": "node", "id": 11301600724, "lat": 48.3101537, "lon": 18.0639205, "tags": {"amenity": "pharmacy", "name": "BENU", "operator": "BENU"}}, {"type": "node", "id": 12013223562, "lat": 48.2069246, "lon": 18.0631965, "tags": {"amenity": "pharmacy"}}, {"type": "node", "id": 12688179492, "lat": 48.3113055, "lon": 18.0689593, "tags": {"amenity": "pharmacy", "brand": "Benu", "brand:wikidata": "Q62562792", "drive_through": "no", "healthcare": "pharmacy", "name": "Benu", "opening_hours": "Mo-Su 09:00-21:00"}}]}