{"version": 0.6, "generator": "Overpass API 0.7.62.8 e802775f", "osm3s": {"timestamp_osm_base": "2025-10-06T08:30:13Z", "copyright": "The data included in this document is from www.openstreetmap.org. The data is made available under ODbL."}, "elements": [{"type": "node", "id": 339511262, "lat": 52.2528454, "lon": 20.7392784, "tags": {"addr:street": "Warszawska", "amenity": "pharmacy", "dispensing": "yes", "name": "Punkt Apteczny", "ref:csioz": "1119324"}}, {"type": "node", "id": 344531726, "lat": 52.1797845, "lon": 20.8409174, "tags": {"addr:city": "Piast\u00f3w", "addr:city:simc": "0921496", "addr:housenumber": "2A", "addr:postcode": "05-820", "addr:street": "Aleja Tysi\u0105clecia", "amenity": "pharmacy", "brand": "Panaceum", "dispensing": "yes", "email": "apteka2a@gmail.com", "healthcare": "pharmacy", "name": "Panaceum", "opening_hours": "Mo-Fr 08:00-20:00; Sa 08:00-14:00", "operator": "\u201ePANACEUM JASZCZUK\u201d Sp. J.", "phone": "+48227236404", "ref:csioz": "1090100"}}, {"type": "node", "id": 369995434, "lat": 52.1405379, "lon": 20.7226039, "tags": {"addr:city": "Brwin\u00f3w", "addr:city:simc": "0920284", "addr:housenumber": "2", "addr:postcode": "05-840", "addr:street": "Peronowa", "amenity": "pharmacy", "healthcare": "pharmacy", "name": "Apteka S. C. Irena Brzozowska Krzysztof Muszy\u0144ski", "opening_hours": "Mo-Fr 08:00-20:00, Sa 08:00-14:00", "ref:csioz": "1121611"}}, {"type": "node", "id": 369995438, "lat": 52.1444682, "lon": 20.7198124, "tags": {"addr:city": "Brwin\u00f3w", "addr:city:simc": "0920284", "addr:housenumber": "8A", "addr:postcode": "05-840", "addr:street": "Powsta\u0144c\u00f3w Warszawy", "addr:unit": "1", "amenity": "pharmacy", "dispensing": "yes", "drive_through": "no", "healthcare": "pharmacy", "name": "Apteka Przy Alfie", "ref:csioz": "1217121"}}, {"type": "node", "id": 393809296, "lat": 52.163011, "lon": 20.8007368, "tags": {"amenity": "pharmacy", "dispensing": "yes", "healthcare": "pharmacy", "name": "Apteka Centralna", "opening_hours": "Mo-Fr 08:00-21:00; Sa 08:00-16:00", "ref:csioz": "1189029", "wheelchair": "yes"}}, {"type": "node", "id": 415875716, "lat": 52.1483082, "lon": 20.8106092, "tags": {"amenity": "pharmacy", "check_date": "2025-01-02", "dispensing": "yes", "healthcare": "pharmacy", "name": "Apteka \"Le\u015bna\"", "phone": "+48 22 758 02 21", "ref:csioz": "1088836"}}, {"type": "node", "id": 499900800, "lat": 52.2342112, "lon": 20.2482457, "tags": {"addr:city": "Sochaczew", "addr:postcode": "96-500", "addr:street": "Aleja 600-lecia", "addr:unit": "44/46", "amenity": "pharmacy", "dispensing": "yes", "healthcare": "pharmacy", "name": "Apteka Victoria", "phone": "+48 46 862 45 47", "ref:csioz": "1093370", "source": "http://ump.waw.pl/ retrieved 23:56:29 09/12/09 (UMP-Plock/src/PLOCK.szpitale.pnt-converted.txt)"}}, {"type": "node", "id": 499902797, "lat": 52.2326447, "lon": 20.243689, "tags": {"amenity": "pharmacy", "check_date": "2025-07-12", "dispensing": "yes", "name": "Alina Zalewska", "opening_hours": "Mo-Fr 08:00-20:00; Sa 08:00-15:00; Su off", "phone": "+48 46 861 18 24", "ref:csioz": "1093840", "source": "http://ump.waw.pl/ retrieved 23:56:29 09/12/09 (UMP-Plock/src/PLOCK.szpitale.pnt-converted.txt)"}}, {"type": "node", "id": 513145465, "lat": 52.1077301, "lon": 20.6241334, "tags": {"addr:city": "Grodzisk Mazowiecki", "addr:housenumber": "3", "addr:street": "Lecha Zondka", "amenity": "pharmacy", "dispensing": "yes", "name": "Farmacja 24", "opening_hours": "24/7", "ref:csioz": "1087767"}}, {"type": "node", "id": 513152532, "lat": 52.1098009, "lon": 20.6239255, "tags": {"addr:city": "Grodzisk Mazowiecki", "addr:housenumber": "11", "addr:street": "1 Maja", "amenity": "pharmacy", "brand": "Dbam o Zdrowie", "brand:wikidata": "Q62563833", "dispensing": "yes", "healthcare": "pharmacy", "name": "Dbam o Zdrowie", "opening_hours": "Mo-Fr 08:00-20:00; Sa 08:00-15:00", "ref:csioz": "1089675"}}, {"type": "node", "id": 569442519, "lat": 52.2578579, "lon": 20.5815165, "tags": {"amenity": "pharmacy", "name": "Arnica"}}, {"type": "node", "id": 569442576, "lat": 52.2568459, "lon": 20.5880639, "tags": {"amenity": "pharmacy"}}, {"type": "node", "id": 654498949, "lat": 52.144613, "lon": 20.7200293, "tags": {"addr:city": "Brwin\u00f3w", "addr:city:simc": "0920284", "addr:housenumber": "10", "addr:postcode": "05-840", "addr:street": "Powsta\u0144c\u00f3w Warszawy", "amenity": "pharmacy", "dispensing": "yes", "drive_through": "no", "healthcare": "pharmacy", "name": "Apteka Zdrowie", "ref:csioz": "1088798"}}, {"type": "node", "id": 913342533, "lat": 52.2008563, "lon": 20.4184174, "tags": {"amenity": "pharmacy", "dispensing": "yes", "drive_through": "no", "healthcare": "pharmacy", "name": "Apteka Calendula", "opening_hours": "Mo-Fr 08:00-19:00; Sa 08:00-14:00; Su off", "ref:csioz": "1093491"}}, {"type": "node", "id": 913342535, "lat": 52.1988388, "lon": 20.4172978, "tags": {"amenity": "pharmacy", "brand": "Dbam o Zdrowie", "brand:wikidata": "Q62563833", "dispensing": "yes", "healthcare": "pharmacy", "name": "Dbam O Zdrowie", "ref:csioz": "1093488", "short_name": "DOZ"}}, {"type": "node", "id": 1137307525, "lat": 52.1918895, "lon": 20.8317274, "tags": {"addr:city": "Piast\u00f3w", "addr:city:simc": "0921496", "addr:housenumber": "25", "addr:postcode": "05-820", "addr:street": "Waleriana \u0141ukasi\u0144skiego", "amenity": "pharmacy", "dispensing": "yes", "healthcare": "pharmacy", "name": "Apteka", "opening_hours": "Mo-Fr 08:00-20:00; Sa 09:00-14:00; Su 10:00-14:00", "phone": "+48227534010", "ref:csioz": "1115376"}}, {"type": "node", "id": 1137307534, "lat": 52.1901464, "lon": 20.8359478, "tags": {"addr:city": "Piast\u00f3w", "addr:city:simc": "0921496", "addr:housenumber": "32", "addr:postcode": "05-820", "addr:street": "Aleja J\u00f3zefa Pi\u0142sudskiego", "amenity": "pharmacy", "dispensing": "yes", "email": "apteka_piastow@wp.pl", "healthcare": "pharmacy", "name": "Apteka", "opening_hours": "Mo-Fr 09:00-20:00; Sa 09:00-14:00", "phone": "+48227232510", "ref:csioz": "1088885"}}, {"type": "node", "id": 1362127721, "lat": 52.2523115, "lon": 20.8149076, "tags": {"amenity": "pharmacy"}}, {"type": "node", "id": 1516914948, "lat": 52.1772208, "lon": 20.8428689}, {"type": "node", "id": 1516914993, "lat": 52.1770369, "lon": 20.8429417}, {"type": "node", "id": 1516915004, "lat": 52.1771692, "lon": 20.8430152}, {"type": "node", "id": 1543473838, "lat": 51.9857507, "lon": 20.8367247, "tags": {"addr:city": "Tarczyn", "addr:housenumber": "42", "addr:postcode": "05-555", "addr:street": "Warszawska", "amenity": "pharmacy", "dispensing": "yes", "ref:csioz": "1094984"}}, {"type": "node", "id": 1543473935, "lat": 51.9793145, "lon": 20.8336736, "tags": {"addr:city": "Tarczyn", "addr:housenumber": "37", "addr:postcode": "05-555", "addr:street": "Rynek", "amenity": "pharmacy", "dispensing": "yes", "name": "Nasza", "ref:csioz": "1094694"}}, {"type": "node", "id": 1647149049, "lat": 52.1552824, "lon": 20.7948275}, {"type": "node", "id": 1647149124, "lat": 52.1554036, "lon": 20.794774}, {"type": "node", "id": 1647149138, "lat": 52.1553188, "lon": 20.7948948}, {"type": "node", "id": 1647149174, "lat": 52.1553675, "lon": 20.7947071}, {"type": "node", "id": 1647149225, "lat": 52.15532, "lon": 20.7948933}, {"type": "node", "id": 1754928612, "lat": 52.1227802, "lon": 20.7246223, "tags": {"amenity": "pharmacy", "dispensing": "yes", "drive_through": "no", "healthcare": "pharmacy", "name": "Apteka G\u0142\u00f3wna", "opening_hours": "Mo-Fr 07:30-21:00; Sa 08:00-16:00", "phone": "+48 227 589 166", "ref:csioz": "1115135", "website": "https://www.aptekaglowna.pl/"}}, {"type": "node", "id": 1769007014, "lat": 52.2103028, "lon": 20.8206803, "tags": {"amenity": "pharmacy"}}, {"type": "node", "id": 1798777109, "lat": 52.1977823, "lon": 20.6231196, "tags": {"amenity": "pharmacy", "dispensing": "yes"}}, {"type": "node", "id": 1822055261, "lat": 52.0604827, "lon": 20.4419573, "tags": {"amenity": "pharmacy", "healthcare": "pharmacy"}}, {"type": "node", "id": 1859966185, "lat": 52.1220453, "lon": 20.6673339, "tags": {"addr:city": "Milan\u00f3wek", "addr:city:simc": "0921020", "addr:housenumber": "19", "addr:postcode": "05-822", "addr:street": "J\u00f3zefa Pi\u0142sudskiego", "amenity": "pharmacy", "dispensing": "yes", "healthcare": "pharmacy", "name": "Centralna", "ref:csioz": "1087805"}}, {"type": "node", "id": 1867741512, "lat": 52.1671764, "lon": 20.7979122, "tags": {"addr:city": "Pruszk\u00f3w", "addr:city:simc": "0921510", "addr:housenumber": "1D", "addr:postcode": "05-800", "addr:street": "O\u0142\u00f3wkowa", "amenity": "pharmacy", "healthcare": "pharmacy", "name": "Apteka Grafitowa"}}, {"type": "node", "id": 1879044565, "lat": 52.1639876, "lon": 20.8042396, "tags": {"amenity": "pharmacy", "brand": "Dbam o Zdrowie", "brand:wikidata": "Q62563833", "healthcare": "pharmacy", "level": "0", "name": "Dbam o Zdrowie", "ref:csioz": "1088939", "short_name": "DOZ"}}, {"type": "node", "id": 1912529843, "lat": 52.1151111, "lon": 20.6209547, "tags": {"addr:city": "Grodzisk Mazowiecki", "addr:housenumber": "30", "addr:street": "Romualda Traugutta", "amenity": "pharmacy", "dispensing": "yes", "name": "Farma", "ref:csioz": "1115093"}}, {"type": "node", "id": 1920267943, "lat": 52.1825932, "lon": 20.8416126, "tags": {"addr:city": "Piast\u00f3w", "addr:city:simc": "0921496", "addr:housenumber": "1B", "addr:postcode": "05-820", "addr:street": "Lwowska", "amenity": "pharmacy", "check_date:opening_hours": "2024-11-10", "dispensing": "yes", "healthcare": "pharmacy", "name": "Apteka na Lwowskiej", "opening_hours": "Mo-Fr 08:00-20:00; Sa 07:30-15:00; PH off", "source:addr": "piastow.e-mapa.net"}}, {"type": "node", "id": 1960111469, "lat": 52.1074851, "lon": 20.6357977, "tags": {"addr:city": "Grodzisk Mazowiecki", "addr:housenumber": "10A", "addr:postcode": "05-827", "addr:street": "Miko\u0142aja Kopernika", "amenity": "pharmacy", "dispensing": "yes", "ref:csioz": "1087714"}}, {"type": "node", "id": 2037449960, "lat": 51.9781224, "lon": 20.8351073, "tags": {"addr:city": "Tarczyn", "addr:housenumber": "4", "addr:postcode": "05-555", "addr:street": "Komornicka", "amenity": "pharmacy", "dispensing": "yes", "name": "Apteka Pod Lip\u0105", "ref:csioz": "1094976"}}, {"type": "node", "id": 2046327271, "lat": 52.1240804, "lon": 20.7234097, "tags": {"addr:city": "Podkowa Le\u015bna", "addr:city:simc": "0921504", "addr:housenumber": "9", "addr:postcode": "05-807", "addr:street": "Brwinowska", "amenity": "pharmacy", "dispensing": "yes", "healthcare": "pharmacy", "name": "Podkowia\u0144ska", "ref:csioz": "1087826"}}, {"type": "node", "id": 2062466333, "lat": 52.058956, "lon": 20.439925}, {"type": "node", "id": 2062466337, "lat": 52.059067, "lon": 20.440011}, {"type": "node", "id": 2062466340, "lat": 52.058908, "lon": 20.439806}, {"type": "node", "id": 2062466342, "lat": 52.0590248, "lon": 20.4396782, "tags": {"entrance": "main"}}, {"type": "node", "id": 2062466343, "lat": 52.059003, "lon": 20.439702}, {"type": "node", "id": 2062466344, "lat": 52.05901, "lon": 20.439866}, {"type": "node", "id": 2062466345, "lat": 52.059165, "lon": 20.439522}, {"type": "node", "id": 2062466349, "lat": 52.059046, "lon": 20.439655}, {"type": "node", "id": 2062466353, "lat": 52.059128, "lon": 20.439748}, {"type": "node", "id": 2062466355, "lat": 52.059196, "lon": 20.440578}, {"type": "node", "id": 2062466356, "lat": 52.059241, "lon": 20.440685}, {"type": "node", "id": 2062466357, "lat": 52.0592766, "lon": 20.4400323, "tags": {"entrance": "service"}}, {"type": "node", "id": 2062466358, "lat": 52.059269, "lon": 20.440487}, {"type": "node", "id": 2062466359, "lat": 52.059272, "lon": 20.439407}, {"type": "node", "id": 2062466361, "lat": 52.059289, "lon": 20.439449}, {"type": "node", "id": 2062466363, "lat": 52.059314, "lon": 20.439421}, {"type": "node", "id": 2062466367, "lat": 52.059382, "lon": 20.440363}, {"type": "node", "id": 2062466379, "lat": 52.059612, "lon": 20.440227}, {"type": "node", "id": 2062466380, "lat": 52.0596174, "lon": 20.4401534}, {"type": "node", "id": 2062466384, "lat": 52.059628, "lon": 20.440265}, {"type": "node", "id": 2062466385, "lat": 52.059637, "lon": 20.4402}, {"type": "node", "id": 2103028171, "lat": 52.0868158, "lon": 20.5536658, "tags": {"addr:city": "Jaktor\u00f3w", "addr:housenumber": "27B", "addr:postcode": "96-313", "addr:street": "Warszawska", "amenity": "pharmacy", "dispensing": "yes", "healthcare": "pharmacy", "name": "Omega", "phone": "+48 501 516 009", "ref:csioz": "1090410"}}, {"type": "node", "id": 2157046328, "lat": 52.038865, "lon": 20.85863, "tags": {"addr:city": "Mrok\u00f3w", "addr:housenumber": "4a", "addr:postcode": "05-552", "addr:street": "J\u00f3zefa G\u00f3rskiego", "amenity": "pharmacy", "dispensing": "yes", "healthcare": "pharmacy", "name": "Salus", "ref:csioz": "1088765"}}, {"type": "node", "id": 2182646426, "lat": 52.0955121, "lon": 20.8092497, "tags": {"addr:city": "Nadarzyn", "addr:city:simc": "0005374", "addr:housenumber": "1", "addr:postcode": "05-830", "addr:street": "Sitarskich", "amenity": "pharmacy", "brand": "Cef@Rm 36,6", "healthcare": "pharmacy", "name": "Cef@Rm 36,6", "ref:csioz": "1088873", "source": "UG Nadarzyn"}}, {"type": "node", "id": 2187966433, "lat": 52.1225601, "lon": 20.4715552, "tags": {"addr:city": "Baran\u00f3w", "addr:housenumber": "53", "addr:postcode": "96-314", "addr:street": "Armii Krajowej", "amenity": "pharmacy", "dispensing": "yes", "drive_through": "no", "healthcare": "pharmacy", "name": "Punkt Apteczny", "ref:csioz": "1090550"}}, {"type": "node", "id": 2323033114, "lat": 52.2393391, "lon": 20.2267804, "tags": {"amenity": "pharmacy", "healthcare": "pharmacy", "name": "Serduszko", "opening_hours": "Mo-Fr 08:00-19:00; Sa 08:00-14:00", "phone": "+48 46 863 55 46", "ref:csioz": "1093646"}}, {"type": "node", "id": 2460346924, "lat": 52.1614282, "lon": 20.8140316, "tags": {"addr:city": "Pruszk\u00f3w", "addr:city:simc": "0921510", "addr:housenumber": "7", "addr:postcode": "05-800", "addr:street": "J\u00f3zefa Ignacego Kraszewskiego", "amenity": "pharmacy", "check_date": "2025-01-30", "contact:phone": "+48 22 758 67 13", "healthcare": "pharmacy", "name": "Apteka Pod Lipami", "ref:csioz": "1215040"}}, {"type": "node", "id": 2465763500, "lat": 52.1037449, "lon": 20.6207177, "tags": {"addr:city": "Grodzisk Mazowiecki", "addr:housenumber": "9A", "addr:street": "Plac Kr\u00f3la Zygmunta Starego", "amenity": "pharmacy", "brand": "Dr. Max", "brand:wikidata": "Q56317371", "brand:wikipedia": "fr:Dr.Max", "dispensing": "yes", "healthcare": "pharmacy", "name": "Dr. Max", "ref:csioz": "1087687"}}, {"type": "node", "id": 2465763501, "lat": 52.1090754, "lon": 20.6214517, "tags": {"addr:city": "Grodzisk Mazowiecki", "addr:housenumber": "43", "addr:street": "11 Listopada", "amenity": "pharmacy", "dispensing": "yes", "healthcare": "pharmacy", "name": "Centralna", "opening_hours": "Mo-Fr 07:00-21:00; Sa 08:00-16:00", "ref:csioz": "1087698"}}, {"type": "node", "id": 2491563548, "lat": 52.0996872, "lon": 20.617319, "tags": {"addr:city": "Grodzisk Mazowiecki", "addr:housenumber": "23", "addr:postcode": "05-825", "addr:street": "Daleka", "amenity": "pharmacy", "dispensing": "yes", "healthcare": "pharmacy", "name": "Zachodnia", "ref:csioz": "1087709"}}, {"type": "node", "id": 2661610595, "lat": 52.1294384, "lon": 20.7098631, "tags": {"addr:city": "Podkowa Le\u015bna", "addr:city:simc": "0921504", "addr:housenumber": "26", "addr:postcode": "05-807", "addr:street": "Go\u0142\u0119bia", "amenity": "pharmacy", "dispensing": "yes", "drive_through": "no", "healthcare": "pharmacy", "level": "0", "name": "Latoszek", "ref:csioz": "1081483"}}, {"type": "node", "id": 2940208976, "lat": 52.1951877, "lon": 20.6147219, "tags": {"amenity": "pharmacy"}}, {"type": "node", "id": 3006354563, "lat": 52.1023136, "lon": 20.6508727, "tags": {"addr:city": "Grodzisk Mazowiecki", "addr:housename": "Apteka", "addr:housenumber": "17A/17", "addr:postcode": "05-825", "addr:street": "Piaskowa", "amenity": "pharmacy", "brand": "Nova", "dispensing": "yes", "healthcare": "pharmacy", "name": "Nova", "ref:csioz": "1087723"}}, {"type": "node", "id": 3027149473, "lat": 51.9091419, "lon": 20.7396818, "tags": {"addr:housenumber": "1", "addr:place": "Jeziora", "amenity": "pharmacy", "dispensing": "yes", "name": "E-50", "opening_hours": "07:00-18:00", "ref:csioz": "1094683"}}, {"type": "node", "id": 3156269266, "lat": 52.1595446, "lon": 20.7940138, "tags": {"addr:street": "Powsta\u0144c\u00f3w", "amenity": "pharmacy", "healthcare": "pharmacy", "ref:csioz": "1089005"}}, {"type": "node", "id": 3172171934, "lat": 52.1548469, "lon": 20.7902874}, {"type": "node", "id": 3200259163, "lat": 52.2313851, "lon": 20.2253746, "tags": {"amenity": "pharmacy", "brand": "Vita", "dispensing": "yes", "healthcare": "pharmacy", "name": "Vita", "opening_hours": "Mo-Fr 8:00-20:00; Sa 9:00-15:00; Su off", "phone": "+48 46 863 55 62", "ref:csioz": "1093416"}}, {"type": "node", "id": 3216637342, "lat": 52.05424, "lon": 20.4404423, "tags": {"addr:city": "\u017byrard\u00f3w", "addr:city:simc": "0977210", "addr:housenumber": "40", "addr:postcode": "96-300", "addr:street": "1 Maja", "amenity": "pharmacy", "brand": "Ziko Apteka", "brand:wikidata": "Q63432892", "description": "Ziko Apteka zlokalizowana jest w \u017byrardowie przy ul. 1 Maja 40. Czynna jest przez 7 dni w tygodniu.", "dispensing": "yes", "healthcare": "pharmacy", "name": "Ziko Apteka", "opening_hours": "Mo-Fr 08:00-20:00; Sa 08:00-20:00; Su 10:00-19:00", "payment:cash": "yes", "payment:coins": "yes", "payment:mastercard": "yes", "payment:visa": "yes", "phone": "+48 12 687 57 47", "ref": "1198982", "ref:source": "http://www.rejestrymedyczne.csioz.gov.pl/ra.html", "short_name": "Ziko", "website": "https://www.ziko.pl/zyrardow-apteki-drogerie-ziko/1-go-maja-40/"}}, {"type": "node", "id": 3216637456, "lat": 52.0509968, "lon": 20.4285346, "tags": {"addr:city": "\u017byrard\u00f3w", "addr:housenumber": "14", "addr:postcode": "96-300", "addr:street": "Marii Sk\u0142odowskiej-Curie", "amenity": "pharmacy", "dispensing": "yes", "healthcare": "pharmacy", "opening_hours": "Mo-Fr 08:00-20:00; Sa 08:00-15:00", "phone": "+48 46 855 33 92", "ref:csioz": "1116940", "ref:source": "http://www.rejestrymedyczne.csioz.gov.pl/ra.html", "wheelchair": "yes"}}, {"type": "node", "id": 3216637804, "lat": 52.05482, "lon": 20.44303, "tags": {"addr:city": "\u017byrard\u00f3w", "addr:housenumber": "16", "addr:postcode": "96-300", "addr:street": "Stefana Okrzei", "amenity": "pharmacy", "dispensing": "yes", "healthcare": "pharmacy", "name": "Ania Zalewska mgr. farmacji", "phone": "+48 46 855 44 67", "ref": "1093589", "ref:csioz": "1093589", "ref:source": "http://www.rejestrymedyczne.csioz.gov.pl/ra.html"}}, {"type": "node", "id": 3216640836, "lat": 52.0528357, "lon": 20.4473352, "tags": {"addr:city": "\u017byrard\u00f3w", "addr:city:simc": "0977210", "addr:housenumber": "2d/11", "addr:postcode": "96-300", "addr:street": "Polskiej Organizacji Wojskowej", "amenity": "pharmacy", "dispensing": "yes", "healthcare": "pharmacy", "name": "Przy Dworcu", "opening_hours": "Mo-Fr 06:00-21:00; Sa 07:00-14:00", "phone": "+48 46 855 78 08", "ref:csioz": "1186220", "ref:source": "http://www.rejestrymedyczne.csioz.gov.pl/ra.html", "wheelchair": "yes"}}, {"type": "node", "id": 3254630940, "lat": 51.9975639, "lon": 20.925135, "tags": {"addr:city": "Henryk\u00f3w-Urocze", "addr:housenumber": "52", "addr:postcode": "05-504", "addr:street": "Spo\u0142eczna", "amenity": "pharmacy", "dispensing": "yes", "healthcare": "pharmacy", "name": "Pod D\u0119bem", "opening_hours": "Mo-Fr 09:00-20:00; Sa 09:00-14:00", "ref:csioz": "1121723"}}, {"type": "node", "id": 3270682064, "lat": 52.1477854, "lon": 20.8129282, "tags": {"amenity": "pharmacy", "check_date": "2025-01-24", "dispensing": "yes", "healthcare": "pharmacy", "name": "Apteka \"Ostoja\"", "phone": "+48 22 758 00 82", "ref:csioz": "1090202", "source": "survey", "wheelchair": "yes"}}, {"type": "node", "id": 3324105714, "lat": 51.9763794, "lon": 20.5241132}, {"type": "node", "id": 3324105715, "lat": 51.9762512, "lon": 20.5240669}, {"type": "node", "id": 3324105716, "lat": 51.9762466, "lon": 20.5242487}, {"type": "node", "id": 3324105717, "lat": 51.9764094, "lon": 20.5242516}, {"type": "node", "id": 3324105718, "lat": 51.9764027, "lon": 20.5245168}, {"type": "node", "id": 3324105719, "lat": 51.9765076, "lon": 20.5245238}, {"type": "node", "id": 3448320390, "lat": 52.1247521, "lon": 20.6702773, "tags": {"addr:city": "Milan\u00f3wek", "addr:city:simc": "0921020", "addr:housenumber": "3", "addr:postcode": "05-822", "addr:street": "Grudowska", "amenity": "pharmacy", "dispensing": "yes", "ref:csioz": "1087772", "source:addr": "milanowek.e-mapa.net"}}, {"type": "node", "id": 3594746169, "lat": 52.0518889, "lon": 20.4444014}, {"type": "node", "id": 3594746170, "lat": 52.0517985, "lon": 20.4444833}, {"type": "node", "id": 3594746171, "lat": 52.0516674, "lon": 20.4440519}, {"type": "node", "id": 3594746172, "lat": 52.0517535, "lon": 20.4439738}, {"type": "node", "id": 3791026211, "lat": 51.9795444, "lon": 20.8365042, "tags": {"addr:city": "Tarczyn", "addr:housenumber": "8/10", "addr:postcode": "05-555", "addr:street": "Majora Edwarda Zi\u00f3\u0142kowskiego", "amenity": "pharmacy", "dispensing": "yes", "name": "Papaya 6", "ref:csioz": "1188922"}}, {"type": "node", "id": 3880683995, "lat": 52.0566401, "lon": 20.4368426, "tags": {"addr:city": "\u017byrard\u00f3w", "addr:postcode": "96-300", "amenity": "pharmacy", "dispensing": "yes", "healthcare": "pharmacy", "name": "Novum", "phone": "+48 46 854 27 92"}}, {"type": "node", "id": 3880684009, "lat": 52.0672774, "lon": 20.4420976}, {"type": "node", "id": 3880684010, "lat": 52.067336, "lon": 20.4422675}, {"type": "node", "id": 3880684011, "lat": 52.0674353, "lon": 20.4421768}, {"type": "node", "id": 3880684012, "lat": 52.0674271, "lon": 20.4421528}, {"type": "node", "id": 3880684013, "lat": 52.0675032, "lon": 20.4418915}, {"type": "node", "id": 3880684014, "lat": 52.0675535, "lon": 20.4420374}, {"type": "node", "id": 3880718489, "lat": 52.0525224, "lon": 20.4389318}, {"type": "node", "id": 3880718490, "lat": 52.0525719, "lon": 20.4387516}, {"type": "node", "id": 3880718491, "lat": 52.0526105, "lon": 20.4392089}, {"type": "node", "id": 3880788781, "lat": 52.0661695, "lon": 20.4434025}, {"type": "node", "id": 3880788782, "lat": 52.0661806, "lon": 20.4434368}, {"type": "node", "id": 3880788783, "lat": 52.0662, "lon": 20.4433764}, {"type": "node", "id": 3880788784, "lat": 52.0662111, "lon": 20.4434107}, {"type": "node", "id": 3909703854, "lat": 52.0811277, "lon": 20.8784667, "tags": {"addr:city": "\u0141azy", "addr:housenumber": "35", "addr:postcode": "05-552", "addr:street": "\u0141\u0105czno\u015bci", "amenity": "pharmacy", "dispensing": "yes", "name": "Doz Apteka. Dbam O Zdrowie", "ref:csioz": "1195260"}}, {"type": "node", "id": 3915065621, "lat": 52.0723971, "lon": 20.6960813, "tags": {"addr:city": "Ksi\u0105\u017cenice", "addr:housenumber": "2A", "addr:street": "M\u0142odo\u015bci", "amenity": "pharmacy", "dispensing": "yes", "name": "Herbarium", "ref:csioz": "1110966"}}, {"type": "node", "id": 3954436991, "lat": 52.1617029, "lon": 20.8070621, "tags": {"addr:city": "Pruszk\u00f3w", "addr:city:simc": "0921510", "addr:housenumber": "44", "addr:postcode": "05-800", "addr:street": "Aleja Armii Krajowej", "amenity": "pharmacy", "dispensing": "yes", "drive_through": "no", "healthcare": "pharmacy", "name": "Apteka Pruszkowska", "phone": "+48 22 759 53 84", "ref:csioz": "1089946"}}, {"type": "node", "id": 3958777744, "lat": 52.1646484, "lon": 20.803588, "tags": {"amenity": "pharmacy", "healthcare": "pharmacy"}}, {"type": "node", "id": 3959747718, "lat": 52.1599195, "lon": 20.8179881, "tags": {"amenity": "pharmacy", "healthcare": "pharmacy", "level": "0", "name": "Apteka Andrzeja", "ref:csioz": "1113839"}}, {"type": "node", "id": 3960094194, "lat": 52.159941, "lon": 20.8042857, "tags": {"amenity": "pharmacy", "check_date": "2024-04-25", "drive_through": "no", "healthcare": "pharmacy", "level": "0", "name": "Apteka Ceramiczna", "opening_hours": "Mo-Fr 08:00-21:00;Sa 08:00-15:00", "ref:csioz": "1113901"}}, {"type": "node", "id": 4029830880, "lat": 52.1277093, "lon": 20.7551101, "tags": {"addr:city": "Otr\u0119busy", "addr:city:simc": "0000715", "addr:housenumber": "21", "addr:postcode": "05-805", "addr:street": "Wiejska", "amenity": "pharmacy", "drive_through": "no", "name": "Apteka Otr\u0119buska", "phone": "+48 22 739 95 39", "ref:csioz": "1090304", "wheelchair": "yes"}}, {"type": "node", "id": 4057984625, "lat": 52.142477, "lon": 20.7163688, "tags": {"amenity": "pharmacy", "dispensing": "yes", "drive_through": "no", "healthcare": "pharmacy", "name": "Trio", "ref:csioz": "1204558"}}, {"type": "node", "id": 4228172190, "lat": 52.0556953, "lon": 20.4454991, "tags": {"amenity": "pharmacy", "dispensing": "yes", "healthcare": "pharmacy", "name": "Anna Zalewska mgr. farmacji", "opening_hours": "Mo-Fr 08:00-20:00;Sa 08:00-16:00", "operator": "mgr Alina Zalewska", "wheelchair": "yes"}}, {"type": "node", "id": 4228172193, "lat": 52.0557683, "lon": 20.4379555, "tags": {"amenity": "pharmacy", "brand": "Cef@Rm 36,6", "dispensing": "yes", "healthcare": "pharmacy", "name": "cef@rm 36,6", "opening_hours": "Mo-Fr 09:00-19:00; Sa,Su 09:00-15:00; PH off", "ref:csioz": "1093544", "wheelchair": "yes"}}, {"type": "node", "id": 4268465764, "lat": 52.0802634, "lon": 20.6939425, "tags": {"addr:city": "Ksi\u0105\u017cenice", "addr:housenumber": "136A", "addr:street": "Mazowiecka", "amenity": "pharmacy", "dispensing": "yes", "name": "W Ksi\u0105\u017cenicach", "ref:csioz": "1089897"}}, {"type": "node", "id": 4348508289, "lat": 52.256266, "lon": 20.2734782, "tags": {"amenity": "pharmacy", "dispensing": "yes", "healthcare": "pharmacy", "name": "Centralna", "ref:csioz": "1120965"}}, {"type": "node", "id": 4348508294, "lat": 52.2559077, "lon": 20.2737074, "tags": {"amenity": "pharmacy", "dispensing": "yes", "healthcare": "pharmacy", "name": "Remedium", "opening_hours": "Mo-Fr 07:30-20:00; Sa 08:00-16:00; Su 09:00-14:00", "ref:csioz": "1093381"}}, {"type": "node", "id": 4350092182, "lat": 52.2251156, "lon": 20.2424884, "tags": {"amenity": "pharmacy", "dispensing": "yes", "healthcare": "pharmacy", "name": "Centralna", "opening_hours": "Mo-Fr 08:00-20:00; Sa 08:00-16:00", "ref:csioz": "1093362"}}, {"type": "node", "id": 4350119110, "lat": 52.2291951, "lon": 20.2407137, "tags": {"amenity": "pharmacy", "dispensing": "yes", "name": "Dar zdrowia", "opening_hours": "Mo-Fr 07:30-21:00; Sa 08:00-16:00", "phone": "468622429", "ref:csioz": "1196508"}}, {"type": "node", "id": 4375968619, "lat": 52.2324482, "lon": 20.2464002, "tags": {"amenity": "pharmacy", "check_date": "2025-07-10", "dispensing": "yes", "healthcare": "pharmacy", "level": "0", "opening_hours": "Mo-Fr 07:00-21:00; Sa 07:00-15:00; Su off", "phone": "+48 46 862 10 96", "ref:csioz": "1116801", "wheelchair": "yes"}}, {"type": "node", "id": 4417225909, "lat": 52.140012, "lon": 20.7162784}, {"type": "node", "id": 4417225910, "lat": 52.1399266, "lon": 20.7161362}, {"type": "node", "id": 4417225911, "lat": 52.1398507, "lon": 20.7162491}, {"type": "node", "id": 4417225912, "lat": 52.1399203, "lon": 20.7164148}, {"type": "node", "id": 4467350795, "lat": 52.2175945, "lon": 20.2342122, "tags": {"amenity": "pharmacy", "dispensing": "yes", "healthcare": "pharmacy", "name": "Centralna", "opening_hours": "Mo-Fr 08:00-20:00; Sa 08:00-16:00", "phone": "+48 46 862 50 01", "ref:csioz": "1182454"}}, {"type": "node", "id": 4513881203, "lat": 52.2285875, "lon": 20.2382685, "tags": {"amenity": "pharmacy", "dispensing": "yes", "name": "Na Podzamczu", "opening_hours": "Mo-Fr 08:00-21:00; Sa 08:00-18:00; Su 09:00-18:00", "ref:csioz": "1093450"}}, {"type": "node", "id": 4776689391, "lat": 52.1995788, "lon": 20.2118618, "tags": {"amenity": "pharmacy", "brand": "Vita", "healthcare": "pharmacy", "name": "Vita", "opening_hours": "Mo-Fr 08:00-20:00; Sa 08:00-15:00", "ref:csioz": "1199620"}}, {"type": "node", "id": 4896390823, "lat": 52.2369345, "lon": 20.2476823, "tags": {"addr:city": "Sochaczew", "addr:postcode": "96-500", "addr:street": "Aleja 600-lecia", "addr:unit": "39/41", "amenity": "pharmacy", "brand": "Dbam o Zdrowie", "brand:wikidata": "Q62563833", "dispensing": "yes", "healthcare": "pharmacy", "name": "Dbam o Zdrowie", "opening_hours": "Mo-Sa 09:00-21:00; Su 09:00-20:00", "ref:csioz": "1093667", "short_name": "DOZ"}}, {"type": "node", "id": 5181894987, "lat": 52.0526442, "lon": 20.4391805}, {"type": "node", "id": 5181894993, "lat": 52.0525287, "lon": 20.4384278}, {"type": "node", "id": 5181894998, "lat": 52.0524613, "lon": 20.4383146}, {"type": "node", "id": 5181894999, "lat": 52.052503, "lon": 20.4384494}, {"type": "node", "id": 5181895000, "lat": 52.0525716, "lon": 20.4385627}, {"type": "node", "id": 5181895001, "lat": 52.0525926, "lon": 20.4385445}, {"type": "node", "id": 5181895002, "lat": 52.0525735, "lon": 20.4384844}, {"type": "node", "id": 5181895003, "lat": 52.0526478, "lon": 20.4384222}, {"type": "node", "id": 5181895004, "lat": 52.0526187, "lon": 20.4383302}, {"type": "node", "id": 5181895005, "lat": 52.0525781, "lon": 20.4383641}, {"type": "node", "id": 5181895006, "lat": 52.0525396, "lon": 20.4382425}, {"type": "node", "id": 5288227376, "lat": 52.1271736, "lon": 20.6906672, "tags": {"addr:city": "Milan\u00f3wek", "addr:city:simc": "0921020", "addr:housenumber": "39", "addr:postcode": "05-822", "addr:street": "Podwiejska", "amenity": "pharmacy", "dispensing": "yes", "name": "Drive-Thru", "ref:csioz": "1187111"}}, {"type": "node", "id": 5316319931, "lat": 52.1249573, "lon": 20.6661396, "tags": {"addr:city": "Milan\u00f3wek", "addr:city:simc": "0921020", "addr:housenumber": "11B", "addr:postcode": "05-822", "addr:street": "Krakowska", "amenity": "pharmacy", "dispensing": "yes", "healthcare": "pharmacy", "name": "Goldenfarm", "ref:csioz": "1120294"}}, {"type": "node", "id": 5331153389, "lat": 52.1253126, "lon": 20.6674124, "tags": {"addr:city": "Milan\u00f3wek", "addr:city:simc": "0921020", "addr:housenumber": "10/1", "addr:postcode": "05-822", "addr:street": "Krakowska", "amenity": "pharmacy", "dispensing": "yes", "healthcare": "pharmacy", "name": "Centralna", "ref:csioz": "1208347"}}, {"type": "node", "id": 5395378262, "lat": 52.1953169, "lon": 20.616147, "tags": {"amenity": "pharmacy", "brand": "Dr. Max", "brand:wikidata": "Q56317371", "dispensing": "yes", "healthcare": "pharmacy", "name": "Dr. Max", "ref:csioz": "1089071"}}, {"type": "node", "id": 5395378263, "lat": 52.1940794, "lon": 20.6179031, "tags": {"amenity": "pharmacy", "dispensing": "yes", "healthcare": "pharmacy", "name": "Na Rynku", "ref:csioz": "1222980"}}, {"type": "node", "id": 5395378264, "lat": 52.1957605, "lon": 20.6195002, "tags": {"addr:city": "B\u0142onie", "addr:housenumber": "2/4", "addr:postcode": "05-870", "addr:street": "Pi\u0142sudskiego", "amenity": "pharmacy", "dispensing": "yes", "healthcare": "pharmacy", "name": "Apteka 2000", "ref:csioz": "1089047"}}, {"type": "node", "id": 5683882121, "lat": 52.231106, "lon": 20.2417334, "tags": {"amenity": "pharmacy", "dispensing": "yes", "healthcare": "pharmacy", "name": "Centralna", "opening_hours": "24/7", "phone": "+48468111811", "ref:csioz": "1218804"}}, {"type": "node", "id": 5730433248, "lat": 52.1173172, "lon": 20.6718717, "tags": {"addr:city": "Milan\u00f3wek", "addr:city:simc": "0921020", "addr:housenumber": "2A", "addr:postcode": "05-822", "addr:street": "Nowowiejska", "amenity": "pharmacy", "brand": "Cosmedica", "dispensing": "yes", "healthcare": "pharmacy", "name": "Cosmedica", "ref:csioz": "1174118"}}, {"type": "node", "id": 5814554716, "lat": 52.1991396, "lon": 20.6225242, "tags": {"amenity": "pharmacy", "dispensing": "yes", "name": "Apteka", "ref:csioz": "1226199"}}, {"type": "node", "id": 6393621470, "lat": 52.1837956, "lon": 20.8394124}, {"type": "node", "id": 6603203638, "lat": 52.1861361, "lon": 20.8353909, "tags": {"addr:city": "Piast\u00f3w", "addr:city:simc": "0921496", "addr:housenumber": "12A", "addr:postcode": "05-820", "addr:street": "Aleja J\u00f3zefa Pi\u0142sudskiego", "amenity": "pharmacy", "check_date:opening_hours": "2025-08-29", "name": "Apteka", "opening_hours": "Mo-Fr 08:00-20:00, Sa 08:00-15:00", "phone": "+48 22 730 18 16", "ref:csioz": "1213020"}}, {"type": "node", "id": 6755863053, "lat": 52.0549249, "lon": 20.4319041}, {"type": "node", "id": 6755863054, "lat": 52.0549332, "lon": 20.4318971}, {"type": "node", "id": 6755863055, "lat": 52.0549016, "lon": 20.4318358}, {"type": "node", "id": 6755863056, "lat": 52.0548572, "lon": 20.432032}, {"type": "node", "id": 6755863057, "lat": 52.0548439, "lon": 20.4319933}, {"type": "node", "id": 6755863058, "lat": 52.0548316, "lon": 20.4319898}, {"type": "node", "id": 6755863059, "lat": 52.0548096, "lon": 20.4319254}, {"type": "node", "id": 6755863060, "lat": 52.0548126, "lon": 20.4319066}, {"type": "node", "id": 6755863061, "lat": 52.0547836, "lon": 20.4318235}, {"type": "node", "id": 6755863062, "lat": 52.0548675, "lon": 20.4317436}, {"type": "node", "id": 6933060824, "lat": 52.1336962, "lon": 20.8014029, "tags": {"amenity": "pharmacy", "name": "Bliska", "ref:csioz": "1221889"}}, {"type": "node", "id": 7292909456, "lat": 52.0320355, "lon": 20.6883664}, {"type": "node", "id": 7292909457, "lat": 52.0320535, "lon": 20.6882286}, {"type": "node", "id": 7292909458, "lat": 52.0318911, "lon": 20.6881691}, {"type": "node", "id": 7292909459, "lat": 52.0318723, "lon": 20.6883049}, {"type": "node", "id": 7326989034, "lat": 52.0525573, "lon": 20.4387056}, {"type": "node", "id": 7326989035, "lat": 52.052473, "lon": 20.4387765}, {"type": "node", "id": 7326989042, "lat": 52.0526948, "lon": 20.439138}, {"type": "node", "id": 7590550171, "lat": 51.9765091, "lon": 20.5241484}, {"type": "node", "id": 7590550172, "lat": 51.9765052, "lon": 20.5243145}, {"type": "node", "id": 7590550173, "lat": 51.9765129, "lon": 20.524315}, {"type": "node", "id": 7590550174, "lat": 51.9764947, "lon": 20.5241172}, {"type": "node", "id": 7590550175, "lat": 51.9763804, "lon": 20.5240755}, {"type": "node", "id": 7590550176, "lat": 51.976382, "lon": 20.5242578}, {"type": "node", "id": 7590550177, "lat": 51.9763822, "lon": 20.5242498}, {"type": "node", "id": 8014184569, "lat": 52.108224, "lon": 20.6332067, "tags": {"addr:city": "Grodzisk Mazowiecki", "addr:housenumber": "15", "addr:street": "Armii Krajowej", "amenity": "pharmacy", "dispensing": "yes", "healthcare": "pharmacy", "name": "Centralna", "ref:csioz": "1219492"}}, {"type": "node", "id": 8631545104, "lat": 52.0635658, "lon": 20.4448988, "tags": {"amenity": "pharmacy", "dispensing": "yes", "healthcare": "pharmacy", "name": "mgr farm. Alina Zalewska", "phone": "+48 46 856 30 30", "ref:csioz": "1117784", "ref:source": "http://www.rejestrymedyczne.csioz.gov.pl/ra.html"}}, {"type": "node", "id": 8631545105, "lat": 52.0560026, "lon": 20.4446718, "tags": {"amenity": "pharmacy", "dispensing": "yes", "healthcare": "pharmacy", "name": "Apteka prywatna mgr. farm. Dorota i Jacek Tokarscy s.c.", "phone": "+48 46 855 64 04", "ref:csioz": "1116922", "ref:source": "http://www.rejestrymedyczne.csioz.gov.pl/ra.html"}}, {"type": "node", "id": 8786490602, "lat": 52.1447985, "lon": 20.8487594, "tags": {"amenity": "pharmacy", "brand": "Dr. Max", "brand:wikidata": "Q56317371", "healthcare": "pharmacy", "name": "Dr. Max"}}, {"type": "node", "id": 9105365531, "lat": 52.1645007, "lon": 20.8067986, "tags": {"addr:city": "Pruszk\u00f3w", "addr:city:simc": "0921510", "addr:housenumber": "2", "addr:postcode": "05-800", "addr:street": "Nieca\u0142a", "amenity": "pharmacy", "dispensing": "yes", "healthcare": "pharmacy", "name": "Apteka Centralna", "phone": "+48 22 758 69 24", "ref:csioz": "1118073"}}, {"type": "node", "id": 9301360652, "lat": 52.0861151, "lon": 20.3819676, "tags": {"amenity": "pharmacy", "dispensing": "yes", "healthcare": "pharmacy", "name": "Przy Ogrodowej", "ref:csioz": "1117014"}}, {"type": "node", "id": 9346306572, "lat": 52.1759192, "lon": 20.8018249, "tags": {"addr:city": "Pruszk\u00f3w", "addr:city:simc": "0921510", "addr:housenumber": "57", "addr:postcode": "05-800", "addr:street": "3 Maja", "amenity": "pharmacy", "dispensing": "yes", "healthcare": "pharmacy", "name": "Apteka im. Ojca Pio", "opening_hours": "Mo-Fr 08:00-20:00; Sa 07:30-15:00; PH off", "phone": "+48 22 758 87 96"}}, {"type": "node", "id": 9346306576, "lat": 52.1733901, "lon": 20.8061417, "tags": {"addr:city": "Pruszk\u00f3w", "addr:city:simc": "0921510", "addr:housenumber": "27", "addr:postcode": "05-800", "addr:street": "3 Maja", "amenity": "pharmacy", "dispensing": "yes", "healthcare": "pharmacy", "name": "Apteka \u017bbikowska", "opening_hours": "Mo-Fr 08:00-20:00; Sa 08:00-15:00; PH off", "phone": "+48 22 728 16 34"}}, {"type": "node", "id": 9346306589, "lat": 52.1751587, "lon": 20.8071237, "tags": {"addr:city": "Pruszk\u00f3w", "addr:city:simc": "0921510", "addr:housenumber": "1", "addr:postcode": "05-800", "addr:street": "Warsztatowa", "amenity": "pharmacy", "dispensing": "yes", "healthcare": "pharmacy", "name": "Maxfarm"}}, {"type": "node", "id": 9367161274, "lat": 52.202799, "lon": 20.4211136, "tags": {"amenity": "pharmacy", "dispensing": "yes", "healthcare": "pharmacy", "name": "O. Kolbego 10", "opening_hours": "Mo-Fr 08:00-19:00; Sa 08:00-14:00; Su 09:00-14:00", "ref:csioz": "1230783"}}, {"type": "node", "id": 9426559317, "lat": 52.1770396, "lon": 20.842926}, {"type": "node", "id": 9426559318, "lat": 52.1771682, "lon": 20.8430195}, {"type": "node", "id": 9426559319, "lat": 52.1771907, "lon": 20.8430307}, {"type": "node", "id": 9426559320, "lat": 52.177064, "lon": 20.842788}, {"type": "node", "id": 9455535437, "lat": 52.170916, "lon": 20.8613716, "tags": {"amenity": "pharmacy", "brand": "Apteka Z U\u015bmiechem", "dispensing": "yes", "healthcare": "pharmacy", "name": "Apteka Z U\u015bmiechem", "opening_hours": "Mo-Sa 08:00-20:00; PH off", "phone": "+48 728 311 378", "ref:csioz": "1231373", "website": "https://www.aptekazusmiechem.pl/"}}, {"type": "node", "id": 9455624089, "lat": 52.1350118, "lon": 20.705638, "tags": {"amenity": "pharmacy", "brand": "Cosmedica", "check_date": "2025-03-03", "dispensing": "yes", "healthcare": "pharmacy", "name": "Cosmedica", "opening_hours": "Mo-Sa 09:00-21:00; Su 10:00-19:00", "ref:csioz": "1090516"}}, {"type": "node", "id": 9457892148, "lat": 52.0551769, "lon": 20.4391503, "tags": {"addr:city": "\u017byrard\u00f3w", "addr:housenumber": "50", "addr:street": "1 Maja", "amenity": "pharmacy", "dispensing": "yes", "healthcare": "pharmacy", "opening_hours": "Mo-Fr 08:00-21:00; Sa 08:00-15:00", "phone": "+48 46 855 35 47", "ref:csioz": "1093553", "ref:source": "http://www.rejestrymedyczne.csioz.gov.pl/ra.html"}}, {"type": "node", "id": 9546684418, "lat": 52.1445416, "lon": 20.7151615, "tags": {"addr:city": "Brwin\u00f3w", "addr:city:simc": "0920284", "addr:flats": "10", "addr:housenumber": "3", "addr:postcode": "05-840", "addr:street": "Armii Krajowej", "amenity": "pharmacy", "dispensing": "yes", "drive_through": "no", "healthcare": "pharmacy", "name": "Chc No 1", "ref:csioz": "1183148"}}, {"type": "node", "id": 9546684517, "lat": 52.1081751, "lon": 20.8345189, "tags": {"addr:city": "Wolica", "addr:city:simc": "0005546", "addr:housenumber": "62B", "addr:postcode": "05-830", "addr:street": "Aleja Katowicka", "addr:unit": "10", "amenity": "pharmacy", "ref:csioz": "1114382"}}, {"type": "node", "id": 9546684518, "lat": 52.0975732, "lon": 20.8207677, "tags": {"addr:city": "Kajetany", "addr:city:simc": "0005339", "addr:housenumber": "1", "addr:postcode": "05-830", "addr:street": "Mokra", "amenity": "pharmacy", "name": "Medincus", "ref:csioz": "1089650"}}, {"type": "node", "id": 9546684519, "lat": 52.0917905, "lon": 20.8039846, "tags": {"addr:city": "Nadarzyn", "addr:city:simc": "0005374", "addr:housenumber": "19", "addr:postcode": "05-830", "addr:street": "Mszczonowska", "amenity": "pharmacy", "ref:csioz": "1215148"}}, {"type": "node", "id": 9546684617, "lat": 52.0941161, "lon": 20.8050532, "tags": {"addr:city": "Nadarzyn", "addr:city:simc": "0005374", "addr:housenumber": "6B", "addr:postcode": "05-830", "addr:street": "B\u0142o\u0144ska", "amenity": "pharmacy", "ref:csioz": "1088861"}}, {"type": "node", "id": 9546684618, "lat": 52.0483067, "lon": 20.7802586, "tags": {"addr:city": "M\u0142och\u00f3w", "addr:city:simc": "0005351", "addr:housenumber": "5", "addr:postcode": "05-831", "addr:street": "Mazowiecka", "amenity": "pharmacy", "name": "Punkt Apteczny Krzysztof Kowalski", "ref:csioz": "1206939"}}, {"type": "node", "id": 9546684817, "lat": 52.0848659, "lon": 20.7938354, "tags": {"addr:city": "Nadarzyn", "addr:city:simc": "0005374", "addr:housenumber": "58A", "addr:postcode": "05-830", "addr:street": "Mszczonowska", "amenity": "pharmacy", "name": "Apteka Pod D\u0119bami", "ref:csioz": "1114980"}}, {"type": "node", "id": 9546684917, "lat": 52.1136361, "lon": 20.7111919, "tags": {"addr:city": "Owczarnia", "addr:city:simc": "0000738", "addr:housenumber": "27B", "addr:postcode": "05-807", "addr:street": "\u017b\u00f3\u0142wi\u0144ska", "amenity": "pharmacy", "name": "Goldenfarm", "ref:csioz": "1229505"}}, {"type": "node", "id": 9546684918, "lat": 52.1346918, "lon": 20.8967175, "tags": {"addr:city": "Janki", "addr:city:simc": "0007976", "addr:housenumber": "3", "addr:postcode": "05-090", "addr:street": "Plac Szwedzki", "addr:unit": "33", "amenity": "pharmacy", "check_date": "2022-10-22", "healthcare": "pharmacy", "name": "Tonika", "opening_hours": "Mo-Sa 09:00-20:00; Su 10:00-18:00", "ref:csioz": "1119726", "wheelchair": "yes"}}, {"type": "node", "id": 9546685017, "lat": 52.1281211, "lon": 20.7644781, "tags": {"addr:city": "Otr\u0119busy", "addr:city:simc": "0000715", "addr:housenumber": "16", "addr:postcode": "05-805", "addr:street": "Polna", "amenity": "pharmacy", "name": "U Nas", "ref:csioz": "1211532"}}, {"type": "node", "id": 9546685117, "lat": 52.1705274, "lon": 20.7888952, "tags": {"addr:city": "Pruszk\u00f3w", "addr:city:simc": "0921510", "addr:housenumber": "41A", "addr:postcode": "05-800", "addr:street": "Promyka", "amenity": "pharmacy", "ref:csioz": "1115392"}}, {"type": "node", "id": 9556200416, "lat": 51.89051, "lon": 20.424047, "tags": {"amenity": "pharmacy", "dispensing": "yes", "healthcare": "pharmacy", "name": "Punkt Apteczny w Kowiesach", "ref:csioz": "1231208"}}, {"type": "node", "id": 9577114895, "lat": 52.183754, "lon": 20.8377678, "tags": {"addr:city": "Piast\u00f3w", "addr:city:simc": "0921496", "addr:housenumber": "3", "addr:postcode": "05-820", "addr:street": "J\u00f3zefa Wybickiego", "amenity": "pharmacy", "dispensing": "yes", "healthcare": "pharmacy", "name": "Apteka Centralna", "opening_hours": "Mo-Fr 08:00-21:00; Sa 08:00-16:00; Su 10:00-15:00; PH off", "phone": "+48 22 115 20 47"}}, {"type": "node", "id": 9611589963, "lat": 52.0630957, "lon": 20.4822349, "tags": {"addr:city": "Mi\u0119dzybor\u00f3w", "addr:housenumber": "2", "addr:postcode": "96-316", "addr:street": "Partyzant\u00f3w", "amenity": "pharmacy", "dispensing": "yes", "drive_through": "no", "healthcare": "pharmacy", "name": "Punkt Apteczny", "operator": "Mgr Farm. Alina Zalewska", "ref:csioz": "1217575"}}, {"type": "node", "id": 9611589964, "lat": 52.0373073, "lon": 20.7278572, "tags": {"addr:city": "\u017belech\u00f3w", "addr:housenumber": "1", "addr:street": "Spe\u0142nionych Marze\u0144", "amenity": "pharmacy", "dispensing": "yes", "name": "Punkt Apteczny Pod Kopu\u0142\u0105", "ref:csioz": "1217361"}}, {"type": "node", "id": 9611589965, "lat": 52.1040716, "lon": 20.6240828, "tags": {"addr:city": "Grodzisk Mazowiecki", "addr:housenumber": "46/50", "addr:postcode": "05-825", "addr:street": "Henryka Sienkiewicza", "amenity": "pharmacy", "brand": "Cosmedica", "dispensing": "yes", "healthcare": "pharmacy", "name": "Cosmedica", "ref:csioz": "1212205"}}, {"type": "node", "id": 9611589966, "lat": 52.1041407, "lon": 20.6224818, "tags": {"addr:city": "Grodzisk Mazowiecki", "addr:housenumber": "54", "addr:street": "Henryka Sienkiewicza", "amenity": "pharmacy", "dispensing": "yes", "healthcare": "pharmacy", "name": "Centralna", "opening_hours": "Mo-Su 08:00-21:00", "ref:csioz": "1190179"}}, {"type": "node", "id": 9611589967, "lat": 52.1083582, "lon": 20.6221197, "tags": {"addr:city": "Grodzisk Mazowiecki", "addr:housenumber": "38", "addr:street": "11 Listopada", "amenity": "pharmacy", "dispensing": "yes", "healthcare": "pharmacy", "name": "Na Deptaku", "operator": "Wanda I Tadeusz D\u0119bowscy", "ref:csioz": "1115119"}}, {"type": "node", "id": 9611589969, "lat": 52.0625309, "lon": 20.4835319, "tags": {"addr:city": "Mi\u0119dzybor\u00f3w", "addr:housenumber": "7", "addr:street": "Partyzant\u00f3w", "amenity": "pharmacy", "dispensing": "yes", "drive_through": "no", "name": "Punkt Apteczny", "operator": "Ko\u017abia\u0142 \u0141ukasz", "phone": "+48 46 855-54-69", "ref:csioz": "1090569"}}, {"type": "node", "id": 9611589970, "lat": 52.0861429, "lon": 20.5538791, "tags": {"addr:city": "Chylice-Kolonia", "addr:housenumber": "20", "addr:street": "Warszawska", "amenity": "pharmacy", "dispensing": "yes", "name": "Jaktorowska", "ref:csioz": "1090534"}}, {"type": "node", "id": 9611589971, "lat": 52.0948971, "lon": 20.6162628, "tags": {"addr:city": "Grodzisk Mazowiecki", "addr:housenumber": "11", "addr:street": "Daleka", "amenity": "pharmacy", "brand": "Dr. Max", "brand:wikidata": "Q56317371", "brand:wikipedia": "fr:Dr.Max", "dispensing": "yes", "healthcare": "pharmacy", "name": "Dr. Max", "ref:csioz": "1089728"}}, {"type": "node", "id": 9646723589, "lat": 52.0980969, "lon": 20.9091825, "tags": {"addr:city": "Magdalenka", "addr:housenumber": "275", "addr:postcode": "05-506", "addr:street": "S\u0142oneczna", "amenity": "pharmacy", "dispensing": "yes", "ref:csioz": "1088546"}}, {"type": "node", "id": 9646806449, "lat": 52.0575954, "lon": 20.8622121, "tags": {"addr:city": "Jab\u0142onowo", "addr:housenumber": "3F", "addr:postcode": "05-552", "addr:street": "Nadrzeczna", "amenity": "pharmacy", "dispensing": "yes", "healthcare": "pharmacy", "ref:csioz": "1114766"}}, {"type": "node", "id": 9646881465, "lat": 52.080312, "lon": 20.8850001, "tags": {"addr:city": "\u0141azy", "addr:housenumber": "6", "addr:postcode": "05-552", "addr:street": "\u0141\u0105czno\u015bci", "amenity": "pharmacy", "dispensing": "yes", "name": "Domowa", "ref:csioz": "1088754"}}, {"type": "node", "id": 9646896401, "lat": 52.0579684, "lon": 20.8532756, "tags": {"addr:city": "W\u00f3lka Kosowska", "addr:housenumber": "1", "addr:postcode": "05-552", "addr:street": "Polna", "amenity": "pharmacy", "dispensing": "yes", "healthcare": "pharmacy", "name": "Polna", "ref:csioz": "1211187"}}, {"type": "node", "id": 9646896531, "lat": 52.0973478, "lon": 20.9056618, "tags": {"addr:city": "Magdalenka", "addr:housenumber": "30", "addr:postcode": "05-506", "addr:street": "Le\u015bna", "amenity": "pharmacy", "dispensing": "yes", "name": "Detox Vip", "ref:csioz": "1229571"}}, {"type": "node", "id": 9656216225, "lat": 52.2596258, "lon": 20.5927226, "tags": {"amenity": "pharmacy", "dispensing": "yes", "healthcare": "pharmacy", "name": "Apteki Centrum - Mazowieckie Centrum Lek\u00f3w", "ref:csioz": "1120585"}}, {"type": "node", "id": 9670732621, "lat": 52.1996618, "lon": 20.4183163, "tags": {"amenity": "pharmacy", "brand": "Dr. Max", "brand:wikidata": "Q56317371", "dispensing": "yes", "healthcare": "pharmacy", "name": "Dr. Max", "opening_hours": "Mo-Fr 08:00-20:00; Sa 08:00-15:00; Su off", "ref:csioz": "1175433"}}, {"type": "node", "id": 9670749458, "lat": 52.159837, "lon": 20.1758311, "tags": {"amenity": "pharmacy", "dispensing": "yes", "healthcare": "pharmacy", "name": "Punkt Apteczny", "ref:csioz": "1094223"}}, {"type": "node", "id": 9670765680, "lat": 52.2276301, "lon": 20.2679209, "tags": {"amenity": "pharmacy", "dispensing": "yes", "healthcare": "pharmacy", "name": "Inter Apteka", "ref:csioz": "1182781"}}, {"type": "node", "id": 9680388977, "lat": 52.2138768, "lon": 20.7896633, "tags": {"addr:city": "O\u017car\u00f3w Mazowiecki", "addr:housenumber": "62", "addr:postcode": "05-850", "addr:street": "Romana Dmowskiego", "amenity": "pharmacy", "dispensing": "yes", "ref:csioz": "1216381"}}, {"type": "node", "id": 9680409316, "lat": 52.1951111, "lon": 20.6186841, "tags": {"addr:city": "B\u0142onie", "addr:housenumber": "3", "addr:postcode": "05-870", "addr:street": "Sienkiewicza", "amenity": "pharmacy", "dispensing": "yes", "name": "Miro", "opening_hours": "Mo-Fr 08:00-20:00; Sa 08:00-15:00", "ref:csioz": "1208562"}}, {"type": "node", "id": 9680476217, "lat": 52.197102, "lon": 20.6975868, "tags": {"addr:city": "P\u0142ochocin", "addr:housenumber": "5C", "addr:postcode": "05-860", "addr:street": "Lipowa", "amenity": "pharmacy", "dispensing": "yes", "ref:csioz": "1089178"}}, {"type": "node", "id": 9680478674, "lat": 52.2676851, "lon": 20.465325, "tags": {"addr:city": "Kampinos", "addr:city:simc": "0003197", "addr:housenumber": "9A", "addr:postcode": "05-085", "addr:street": "Fryderyka Chopina", "amenity": "pharmacy", "dispensing": "yes", "ref:csioz": "1115567"}}, {"type": "node", "id": 9680480298, "lat": 52.2603803, "lon": 20.686795, "tags": {"addr:city": "Feliks\u00f3w", "addr:housenumber": "145", "addr:postcode": "05-083", "addr:street": "Sto\u0142eczna", "amenity": "pharmacy", "dispensing": "yes", "ref:csioz": "1089186"}}, {"type": "node", "id": 9680492833, "lat": 52.2520484, "lon": 20.815194, "tags": {"addr:city": "Zielonki-Parcela", "addr:housenumber": "291", "addr:postcode": "05-082", "addr:street": "Warszawska", "amenity": "pharmacy", "dispensing": "yes", "ref:csioz": "1090231"}}, {"type": "node", "id": 9680494170, "lat": 52.2109562, "lon": 20.8015236, "tags": {"addr:city": "O\u017car\u00f3w Mazowiecki", "addr:housenumber": "2", "addr:postcode": "05-850", "addr:street": "Floriana", "amenity": "pharmacy", "dispensing": "yes", "name": "Miro", "ref:csioz": "1089862"}}, {"type": "node", "id": 9680501225, "lat": 52.2093483, "lon": 20.7962851, "tags": {"addr:city": "O\u017car\u00f3w Mazowiecki", "addr:housenumber": "7", "addr:postcode": "05-850", "addr:street": "Marii Konopnickiej", "amenity": "pharmacy", "dispensing": "yes", "name:signed": "no", "opening_hours": "Mo-Fr 08:00-20:00; Sa 08:00-15:00; Su 10:00-14:00", "ref:csioz": "1089554", "wheelchair": "yes"}}, {"type": "node", "id": 9680509795, "lat": 52.2107957, "lon": 20.797772, "tags": {"amenity": "pharmacy", "healthcare": "pharmacy", "name": "Doz"}}, {"type": "node", "id": 9680510844, "lat": 52.2575652, "lon": 20.5914165, "tags": {"addr:city": "Leszno", "addr:housenumber": "1A", "addr:postcode": "05-084", "addr:street": "B\u0142o\u0144ska", "amenity": "pharmacy", "dispensing": "yes", "name": "Centralna", "ref:csioz": "1089110"}}, {"type": "node", "id": 9683412800, "lat": 52.1152307, "lon": 20.3381563, "tags": {"addr:city": "Guz\u00f3w", "addr:housenumber": "2", "addr:postcode": "96-317", "addr:street": "Micha\u0142a Ogi\u0144skiego", "amenity": "pharmacy", "dispensing": "yes", "name": "Punkt Apteczny Cerera", "opening_hours": "Mo-Fr 09:00-17:00", "phone": "+48 468563333", "ref:csioz": "1223457"}}, {"type": "node", "id": 9683425361, "lat": 51.978448, "lon": 20.3508181, "tags": {"addr:city": "Puszcza Maria\u0144ska", "addr:housenumber": "3", "addr:postcode": "96-330", "addr:street": "Kr\u00f3la Jana Sobieskiego", "amenity": "pharmacy", "dispensing": "yes", "name": "Apteka Maria\u0144ska", "ref:csioz": "1093528"}}, {"type": "node", "id": 9683427687, "lat": 52.0539036, "lon": 20.4266362, "tags": {"addr:city": "\u017byrard\u00f3w", "addr:housenumber": "3", "addr:postcode": "96-300", "addr:street": "ks. Ottona Wittenberga", "amenity": "pharmacy", "dispensing": "yes", "healthcare": "pharmacy", "opening_hours": "Mo-Fr 08:00-18:00; Sa 08:00-14:00", "phone": "+48 46 856 18 36", "ref:csioz": "1093577"}}, {"type": "node", "id": 9683430056, "lat": 52.0564139, "lon": 20.4443369, "tags": {"addr:city": "\u017byrard\u00f3w", "addr:housenumber": "15", "addr:postcode": "96-300", "addr:street": "Aleje Partyzant\u00f3w", "amenity": "pharmacy", "dispensing": "yes", "healthcare": "pharmacy", "name": "Centralna", "ref:csioz": "1209331"}}, {"type": "node", "id": 9683431341, "lat": 52.0477359, "lon": 20.4325667, "tags": {"addr:city": "\u017byrard\u00f3w", "addr:housenumber": "40", "addr:postcode": "96-300", "addr:street": "1 Maja", "amenity": "pharmacy", "brand": "Ziko Apteka", "brand:wikidata": "Q63432892", "dispensing": "yes", "healthcare": "pharmacy", "name": "Ziko Apteka", "ref:csioz": "1198982", "short_name": "Ziko"}}, {"type": "node", "id": 9683444295, "lat": 52.0544683, "lon": 20.4266721, "tags": {"addr:city": "\u017byrard\u00f3w", "addr:housenumber": "5", "addr:postcode": "96-300", "addr:street": "Filipa de Girarda", "amenity": "pharmacy", "dispensing": "yes", "healthcare": "pharmacy", "name": "Vitaminka", "ref:csioz": "1179305"}}, {"type": "node", "id": 9683445418, "lat": 52.0558419, "lon": 20.4457448, "tags": {"addr:city": "\u017byrard\u00f3w", "addr:housenumber": "6", "addr:postcode": "96-300", "addr:street": "Stefana Okrzei", "amenity": "pharmacy", "dispensing": "yes", "healthcare": "pharmacy", "name": "Mgr Farm. Alina Zalewska", "ref:csioz": "1202404"}}, {"type": "node", "id": 9683447795, "lat": 51.997019, "lon": 20.2869197, "tags": {"addr:city": "Radziwi\u0142\u0142\u00f3w", "addr:housenumber": "15C", "addr:postcode": "96-330", "addr:street": "Warszawska", "amenity": "pharmacy", "dispensing": "yes", "ref:csioz": "1094246"}}, {"type": "node", "id": 9683450056, "lat": 52.0518024, "lon": 20.4441164}, {"type": "node", "id": 9683450057, "lat": 52.0517939, "lon": 20.4441241}, {"type": "node", "id": 9683450058, "lat": 52.0517162, "lon": 20.4441942}, {"type": "node", "id": 9683450059, "lat": 52.0517101, "lon": 20.4441998}, {"type": "node", "id": 9683450060, "lat": 52.0517579, "lon": 20.4443392}, {"type": "node", "id": 9683450061, "lat": 52.0517512, "lon": 20.4443452}, {"type": "node", "id": 9683450920, "lat": 51.9733122, "lon": 20.5146045, "tags": {"addr:city": "Mszczon\u00f3w", "addr:city:simc": "0977054", "addr:housenumber": "9", "addr:postcode": "96-320", "addr:street": "Henryka Sienkiewicza", "amenity": "pharmacy", "dispensing": "yes", "healthcare": "pharmacy", "name": "\u015aw. Stanis\u0142awa Mszczon\u00f3w", "ref:csioz": "1094020"}}, {"type": "node", "id": 9683453268, "lat": 52.0204108, "lon": 20.3661259, "tags": {"addr:city": "Mrozy", "addr:housenumber": "74", "addr:postcode": "96-330", "addr:street": "Wsp\u00f3lna", "amenity": "pharmacy", "dispensing": "yes", "name": "Jesionka", "ref:csioz": "1117095"}}, {"type": "node", "id": 9683454348, "lat": 51.9736779, "lon": 20.5210882, "tags": {"addr:city": "Mszczon\u00f3w", "addr:city:simc": "0977054", "addr:housenumber": "1", "addr:postcode": "96-320", "addr:street": "Dworcowa", "amenity": "pharmacy", "dispensing": "yes", "name": "Apteka Zdrowie", "ref:csioz": "1093502"}}, {"type": "node", "id": 9683466282, "lat": 52.003058, "lon": 20.5567292, "tags": {"addr:city": "Radziejowice", "addr:housenumber": "2A", "addr:postcode": "96-325", "addr:street": "S\u0142oneczna", "amenity": "pharmacy", "dispensing": "yes", "name": "Remedium", "ref:csioz": "1093695"}}, {"type": "node", "id": 9683467552, "lat": 51.9723307, "lon": 20.5170502, "tags": {"addr:city": "Mszczon\u00f3w", "addr:city:simc": "0977054", "addr:housenumber": "30", "addr:postcode": "96-320", "addr:street": "Henryka Sienkiewicza", "amenity": "pharmacy", "dispensing": "yes", "healthcare": "pharmacy", "name": "Apteka Codzienna", "ref:csioz": "1200159"}}, {"type": "node", "id": 9683472155, "lat": 52.0602959, "lon": 20.4367928, "tags": {"addr:city": "\u017byrard\u00f3w", "addr:housenumber": "19/21", "addr:postcode": "96-300", "addr:street": "Wiejska", "amenity": "pharmacy", "dispensing": "yes", "healthcare": "pharmacy", "name": "Centrum Medycyny I Rehabilitacji Artkinezis Szpital", "ref:csioz": "1205263"}}, {"type": "node", "id": 9843422852, "lat": 52.1547509, "lon": 20.7904705}, {"type": "node", "id": 9843422856, "lat": 52.1547504, "lon": 20.7902881}, {"type": "node", "id": 9846380786, "lat": 52.1548474, "lon": 20.7904698}, {"type": "node", "id": 9874991579, "lat": 52.1078813, "lon": 20.6419687, "tags": {"amenity": "pharmacy", "dispensing": "yes", "healthcare": "pharmacy", "name": "Apteka Centralna", "opening_hours": "24/7"}}, {"type": "node", "id": 9925547582, "lat": 52.1399771, "lon": 20.7162164}, {"type": "node", "id": 9925547583, "lat": 52.1399742, "lon": 20.7162205}, {"type": "node", "id": 9925547584, "lat": 52.1398651, "lon": 20.7162746}, {"type": "node", "id": 9925547585, "lat": 52.1398601, "lon": 20.7162819}, {"type": "node", "id": 9925547586, "lat": 52.1399011, "lon": 20.7163545}, {"type": "node", "id": 9925547587, "lat": 52.139893, "lon": 20.7163665}, {"type": "node", "id": 10215249242, "lat": 52.1837478, "lon": 20.8393039}, {"type": "node", "id": 10314660061, "lat": 52.10356, "lon": 20.62455, "tags": {"addr:city": "Grodzisk Mazowiecki", "addr:housenumber": "45", "addr:postcode": "05-825", "addr:street": "Henryka Sienkiewicza", "amenity": "pharmacy", "brand": "Cef@Rm 36,6", "healthcare": "pharmacy", "name": "Cef@rm 36,6"}}, {"type": "node", "id": 11170504325, "lat": 52.1837629, "lon": 20.8394359, "tags": {"door": "yes", "level": "0"}}, {"type": "node", "id": 11170600204, "lat": 52.1838333, "lon": 20.8393713}, {"type": "node", "id": 11170600205, "lat": 52.1837582, "lon": 20.8393947}, {"type": "node", "id": 11170600217, "lat": 52.1837531, "lon": 20.8393497, "tags": {"door": "yes", "level": "0"}}, {"type": "node", "id": 11170601354, "lat": 52.1838362, "lon": 20.8393995}, {"type": "node", "id": 11170601356, "lat": 52.183765, "lon": 20.8394535}, {"type": "node", "id": 11170601357, "lat": 52.1837992, "lon": 20.8394425}, {"type": "node", "id": 11170601358, "lat": 52.1838613, "lon": 20.8393884}, {"type": "node", "id": 11170601359, "lat": 52.1839758, "lon": 20.8392531}, {"type": "node", "id": 11170601360, "lat": 52.1839324, "lon": 20.8391569}, {"type": "node", "id": 11170601362, "lat": 52.1838497, "lon": 20.8392558}, {"type": "node", "id": 11170601363, "lat": 52.1838178, "lon": 20.839298}, {"type": "node", "id": 11170601364, "lat": 52.1838117, "lon": 20.8392857}, {"type": "node", "id": 11891225985, "lat": 52.0549085, "lon": 20.4318299}, {"type": "node", "id": 11891225986, "lat": 52.0549063, "lon": 20.4318233}, {"type": "node", "id": 11891225987, "lat": 52.0548993, "lon": 20.4318295}, {"type": "node", "id": 11891225988, "lat": 52.0548853, "lon": 20.4317924}, {"type": "node", "id": 11891225989, "lat": 52.054893, "lon": 20.4317852}, {"type": "node", "id": 11891225990, "lat": 52.0548905, "lon": 20.4317787}, {"type": "node", "id": 11891225991, "lat": 52.0548829, "lon": 20.4317843}, {"type": "node", "id": 11891226001, "lat": 52.0549498, "lon": 20.4319453}, {"type": "node", "id": 12034857231, "lat": 52.0048487, "lon": 20.9052376, "tags": {"amenity": "pharmacy", "healthcare": "pharmacy", "name": "Papaya"}}, {"type": "node", "id": 12646304867, "lat": 52.091272, "lon": 20.7994197, "tags": {"amenity": "pharmacy", "healthcare": "pharmacy", "level": "0"}}, {"type": "node", "id": 12675989989, "lat": 52.1344447, "lon": 20.8894169}, {"type": "node", "id": 12675989990, "lat": 52.1345551, "lon": 20.8892411}, {"type": "node", "id": 12675989991, "lat": 52.1345169, "lon": 20.889178}, {"type": "node", "id": 12675989992, "lat": 52.1344825, "lon": 20.8892316}, {"type": "node", "id": 12675989993, "lat": 52.134441, "lon": 20.8891628}, {"type": "node", "id": 12675990006, "lat": 52.134353, "lon": 20.8892974}, {"type": "node", "id": 12675990007, "lat": 52.1344114, "lon": 20.8893964}, {"type": "node", "id": 12675990017, "lat": 52.1344216, "lon": 20.8893803}, {"type": "node", "id": 12996110161, "lat": 52.2326333, "lon": 20.2438896, "tags": {"amenity": "pharmacy", "check_date": "2025-07-12", "healthcare": "pharmacy", "name": "Gemini", "opening_hours": "Mo-Fr 07:00-20:00; Sa 07:00-16:00; Su off", "wheelchair": "no"}}, {"type": "node", "id": 12996306783, "lat": 52.059325, "lon": 20.440227}, {"type": "node", "id": 12996306784, "lat": 52.05933, "lon": 20.440221}, {"type": "node", "id": 12996306785, "lat": 52.05929, "lon": 20.440065}, {"type": "node", "id": 12996306786, "lat": 52.059263, "lon": 20.439999}, {"type": "node", "id": 12996306787, "lat": 52.059246, "lon": 20.440018}, {"type": "node", "id": 12996306788, "lat": 52.059188, "lon": 20.43988}, {"type": "node", "id": 12996306789, "lat": 52.059185, "lon": 20.439883}, {"type": "node", "id": 12996306790, "lat": 52.059324, "lon": 20.439531}, {"type": "node", "id": 12996306791, "lat": 52.059309, "lon": 20.439495}, {"type": "node", "id": 12996306792, "lat": 52.059334, "lon": 20.439467}, {"type": "node", "id": 12996306793, "lat": 52.059069, "lon": 20.440008}, {"type": "node", "id": 12996306794, "lat": 52.059117, "lon": 20.440136}, {"type": "node", "id": 12996306795, "lat": 52.05911, "lon": 20.440144}, {"type": "node", "id": 12996306796, "lat": 52.059148, "lon": 20.440239}, {"type": "node", "id": 12996306797, "lat": 52.059156, "lon": 20.44023}, {"type": "node", "id": 12996306798, "lat": 52.059207, "lon": 20.440356}, {"type": "node", "id": 12996306799, "lat": 52.059211, "lon": 20.440351}, {"type": "node", "id": 12996306800, "lat": 52.059214, "lon": 20.440547}, {"type": "node", "id": 12996306801, "lat": 52.059217, "lon": 20.440554}, {"type": "node", "id": 12996306802, "lat": 52.059262, "lon": 20.440661}, {"type": "node", "id": 12996306803, "lat": 52.059265, "lon": 20.440669}, {"type": "node", "id": 12996306804, "lat": 52.059357, "lon": 20.440566}, {"type": "node", "id": 12996306805, "lat": 52.059426, "lon": 20.44049}, {"type": "node", "id": 12996306806, "lat": 52.059594, "lon": 20.440179}, {"type": "node", "id": 12996306807, "lat": 52.059579, "lon": 20.440144}, {"type": "node", "id": 12996306808, "lat": 52.059112, "lon": 20.439581}, {"type": "node", "id": 12996306833, "lat": 52.059273, "lon": 20.440084}, {"type": "node", "id": 13129415995, "lat": 52.0775049, "lon": 20.6282634, "tags": {"amenity": "pharmacy", "healthcare": "pharmacy"}}, {"type": "way", "id": 138353330, "nodes": [9426559320, 1516914948, 9426559319, 9426559318, 1516915004, 1516914993, 9426559317, 9426559320], "tags": {"addr:city": "Piast\u00f3w", "addr:city:simc": "0921496", "addr:housenumber": "16", "addr:postcode": "05-820", "addr:street": "Harcerska", "amenity": "pharmacy", "building": "yes", "building:levels": "1", "dispensing": "yes", "email": "dm.apteka@op.pl", "healthcare": "pharmacy", "name": "Apteka", "opening_hours": "Mo-Fr 08:00-20:00; Sa 09:00-14:00", "operator": "MI\u0141OSZ D.\u201d Sp. J.", "phone": "+48227234921", "source": "www.geoportal.gov.pl", "wheelchair": "no"}}, {"type": "way", "id": 151875197, "nodes": [1647149174, 1647149049, 1647149138, 1647149225, 1647149124, 1647149174], "tags": {"amenity": "pharmacy", "building": "retail", "check_date": "2023-02-15", "healthcare": "pharmacy", "opening_hours": "08:00-22:00", "ref:csioz": "1178301", "toilets:wheelchair": "no", "wheelchair": "yes"}}, {"type": "way", "id": 195829414, "nodes": [12996306807, 12996306806, 2062466380, 2062466385, 2062466379, 2062466384, 12996306805, 12996306804, 12996306803, 12996306802, 2062466356, 2062466355, 12996306801, 12996306800, 2062466358, 12996306799, 12996306798, 12996306797, 12996306796, 12996306795, 12996306794, 2062466337, 12996306793, 2062466344, 2062466333, 2062466340, 2062466343, 2062466342, 2062466349, 12996306808, 2062466345, 2062466359, 2062466361, 2062466363, 12996306792, 12996306791, 12996306790, 2062466353, 12996306789, 12996306788, 12996306787, 12996306786, 2062466357, 12996306785, 12996306833, 12996306784, 12996306783, 2062466367, 12996306807], "tags": {"addr:city": "\u017byrard\u00f3w", "addr:city:simc": "0977210", "addr:housenumber": "30", "addr:postcode": "96-300", "addr:street": "Boles\u0142awa Limanowskiego", "amenity": "pharmacy", "building": "hospital", "building:levels": "3", "dispensing": "yes", "healthcare": "pharmacy", "heritage": "2", "heritage:operator": "nid", "historic": "building", "name": "Farmacja 24", "phone": "+48 46 855 02 28", "ref:nid": "A - 684", "source:addr": "zyrardow.e-mapa.net", "source:building": "BDOT", "source:geometry": "EGiB"}}, {"type": "way", "id": 325801476, "nodes": [3324105714, 7590550175, 3324105715, 3324105716, 7590550176, 7590550177, 3324105717, 3324105718, 3324105719, 7590550173, 7590550172, 7590550171, 7590550174, 3324105714], "tags": {"addr:city": "Mszczon\u00f3w", "addr:city:simc": "0977054", "addr:housenumber": "8A", "addr:postcode": "96-320", "addr:street": "P\u00f3\u0142nocna", "addr:street:sym_ul": "17421", "amenity": "pharmacy", "building": "apartments", "building:levels": "3", "name": "Apteka \"Na P\u00f3\u0142nocnej\"", "phone": "+48 46 857 14 56", "ref:csioz": "1116825", "source:addr": "mszczonow.e-mapa.net"}}, {"type": "way", "id": 353658113, "nodes": [3594746171, 9683450058, 9683450059, 9683450060, 9683450061, 3594746170, 3594746169, 9683450057, 9683450056, 3594746172, 3594746171], "tags": {"addr:city": "\u017byrard\u00f3w", "addr:city:simc": "0977210", "addr:housenumber": "20-24", "addr:postcode": "96-300", "addr:street": "Polskiej Organizacji Wojskowej", "amenity": "pharmacy", "building": "yes", "dispensing": "yes", "healthcare": "pharmacy", "name": "Apteka Viola", "opening_hours": "Mo-Fr 08:30-18:00, Sa 08:30-14:00", "phone": "+48 46 855 67 22", "ref:csioz": "1116933", "ref:source": "http://www.rejestrymedyczne.csioz.gov.pl/ra.html", "source:addr": "zyrardow.e-mapa.net", "wheelchair": "yes"}}, {"type": "way", "id": 384712054, "nodes": [3880684009, 3880684010, 3880684011, 3880684012, 3880684014, 3880684013, 3880684009], "tags": {"addr:city": "\u017byrard\u00f3w", "addr:city:simc": "0977210", "addr:housenumber": "17", "addr:postcode": "96-300", "addr:street": "Filipa de Girarda", "amenity": "pharmacy", "brand": "Eskulap", "building": "yes", "dispensing": "yes", "healthcare": "pharmacy", "name": "Eskulap", "opening_hours": "Mo-Su 06:00-22:00", "phone": "+48 46 855 71 35", "ref:csioz": "1093566", "ref:source": "http://www.rejestrymedyczne.csioz.gov.pl/ra.html", "source:addr": "zyrardow.e-mapa.net"}}, {"type": "way", "id": 384721171, "nodes": [3880788783, 3880788781, 3880788782, 3880788784, 3880788783], "tags": {"addr:city": "\u017byrard\u00f3w", "addr:city:simc": "0977210", "addr:housenumber": "5", "addr:postcode": "96-300", "addr:street": "Filipa de Girarda", "amenity": "pharmacy", "dispensing": "yes", "healthcare": "pharmacy", "name": "Vitaminka", "phone": "+48 601 310 288", "ref": "1179305", "ref:source": "http://www.rejestrymedyczne.csioz.gov.pl/ra.html"}}, {"type": "way", "id": 444232938, "nodes": [4417225912, 9925547587, 9925547586, 9925547585, 9925547584, 4417225911, 4417225910, 9925547583, 9925547582, 4417225909, 4417225912], "tags": {"addr:city": "Brwin\u00f3w", "addr:city:simc": "0920284", "addr:housenumber": "7", "addr:postcode": "05-840", "addr:street": "Grodziska", "amenity": "pharmacy", "building": "yes", "building:levels": "3", "dispensing": "yes", "healthcare": "pharmacy", "ref:csioz": "1115250", "source": "www.geoportal.gov.pl", "source:addr": "brwinow.e-mapa.net"}}, {"type": "way", "id": 534277559, "nodes": [5181894998, 5181894999, 5181894993, 5181895000, 5181895001, 5181895002, 5181895003, 5181895004, 5181895005, 5181895006, 5181894998], "tags": {"addr:city": "\u017byrard\u00f3w", "addr:housenumber": "51C", "addr:postcode": "96-300", "addr:street": "Stefana Okrzei", "amenity": "pharmacy", "building": "yes", "dispensing": "yes", "healthcare": "pharmacy", "name": "Cerera", "opening_hours": "Mo-Fr 08:00-19:00; Sa 09:00-14:00", "phone": "+48 46 895 53 19", "ref:csioz": "1093898", "ref:source": "http://www.rejestrymedyczne.csioz.gov.pl/ra.html", "wheelchair": "yes"}}, {"type": "way", "id": 719685822, "nodes": [11891226001, 6755863056, 6755863057, 6755863058, 6755863059, 6755863060, 6755863061, 6755863062, 11891225991, 11891225990, 11891225989, 11891225988, 11891225987, 11891225986, 11891225985, 6755863055, 6755863053, 6755863054, 11891226001], "tags": {"addr:city": "\u017byrard\u00f3w", "addr:city:simc": "0977210", "addr:housenumber": "51g", "addr:postcode": "96-300", "addr:street": "Boles\u0142awa Limanowskiego", "amenity": "pharmacy", "building": "yes", "building:levels": "3", "dispensing": "yes", "healthcare": "pharmacy", "name": "AZ Apteka", "opening_hours": "Mo-Fr 08:00-20:00;Sa 08:00-15:00", "operator": "MGR FARM. ALINA ZALEWSKA", "phone": "+48 46 855 44 26", "ref:csioz": "1093794", "ref:source": "http://www.rejestrymedyczne.csioz.gov.pl/ra.html", "source:building": "BDOT"}}, {"type": "way", "id": 781087274, "nodes": [7292909459, 7292909458, 7292909457, 7292909456, 7292909459], "tags": {"addr:city": "\u017babia Wola", "addr:housenumber": "15", "addr:street": "Warszawska", "amenity": "pharmacy", "building": "yes", "dispensing": "yes", "fixme": "Lokalizacja do weryfikacji", "ref:csioz": "1092955", "source": "www.geoportal.gov.pl"}}, {"type": "way", "id": 784347584, "nodes": [7326989042, 3880718490, 7326989034, 7326989035, 3880718489, 3880718491, 5181894987, 7326989042], "tags": {"addr:city": "\u017byrard\u00f3w", "addr:city:simc": "0977210", "addr:housenumber": "51B", "addr:postcode": "96-300", "addr:street": "Stefana Okrzei", "amenity": "pharmacy", "building": "yes", "dispensing": "yes", "healthcare": "pharmacy", "name": "Vitaminka", "opening_hours": "Mo-Fr 08:30-19:00, Sa 08:30-14:00", "operator": "mgr farm. Maciej Stali\u0144ski", "phone": "+48 46 855 17 38", "ref:csioz": "1093705", "ref:source": "http://www.rejestrymedyczne.csioz.gov.pl/ra.html", "source:addr": "zyrardow.e-mapa.net", "wheelchair": "yes"}}, {"type": "way", "id": 1073336858, "nodes": [9846380786, 9843422852, 9843422856, 3172171934, 9846380786], "tags": {"addr:city": "Pruszk\u00f3w", "addr:city:simc": "0921510", "addr:housenumber": "20B", "addr:postcode": "05-800", "addr:street": "Helenowska", "amenity": "pharmacy", "building": "retail", "building:levels": "1", "healthcare": "pharmacy", "name": "Apteka \"Helenowska\"", "ref:csioz": "1114972", "source": "www.geoportal.gov.pl", "source:addr": "gugik.gov.pl"}}, {"type": "way", "id": 1205328491, "nodes": [11170600205, 11170600204, 11170601354, 6393621470, 11170601357, 11170601356, 11170504325, 11170600205], "tags": {"addr:city": "Piast\u00f3w", "addr:city:simc": "0921496", "addr:housenumber": "43", "addr:postcode": "05-820", "addr:street": "Warszawska", "amenity": "pharmacy", "description": "Ziko Dermo zlokalizowana jest w Piastowie przy ul. Warszawskiej 43. Czynna jest przez 7 dni w tygodniu \u2013 od poniedzia\u0142ku do niedzieli.", "dispensing": "yes", "indoor": "room", "level": "0", "name": "Ziko Dermo", "opening_hours": "Mo-Fr 08:00-21:00; Sa 09:00-19:00; Su 09:00-16:00", "payment:cash": "yes", "payment:coins": "yes", "payment:mastercard": "yes", "payment:visa": "yes", "phone": "+48 12 687 57 47", "ref": "D5", "website": "https://www.ziko.pl/piastow-drogerie-ziko/warszawska-43/", "wheelchair": "yes"}}, {"type": "way", "id": 1205328504, "nodes": [11170601360, 11170601359, 11170601358, 11170601354, 11170600204, 11170600205, 11170600217, 10215249242, 11170601364, 11170601363, 11170601362, 11170601360], "tags": {"addr:city": "Piast\u00f3w", "addr:city:simc": "0921496", "addr:housenumber": "43", "addr:postcode": "05-820", "addr:street": "Warszawska", "amenity": "pharmacy", "brand": "Ziko Apteka", "brand:wikidata": "Q63432892", "description": "Ziko Apteka zlokalizowana jest w Piastowie przy ul. Warszawskiej 43. Czynna jest przez 7 dni w tygodniu \u2013 od poniedzia\u0142ku do niedzieli.", "dispensing": "yes", "healthcare": "pharmacy", "indoor": "room", "level": "0", "name": "Ziko Apteka", "opening_hours": "Mo-Fr 08:00-21:00, Sa 09:00-19:00, Su 09:00-16:00", "payment:cash": "yes", "payment:coins": "yes", "payment:mastercard": "yes", "payment:visa": "yes", "phone": "+48 12 687 57 47", "ref": "D5", "ref:csioz": "1212645", "short_name": "Ziko", "website": "https://www.ziko.pl/piastow-apteki-drogerie-ziko/warszawska-43/"}}, {"type": "way", "id": 1368679488, "nodes": [12675990007, 12675990006, 12675989993, 12675989992, 12675989991, 12675989990, 12675989989, 12675990017, 12675990007], "tags": {"amenity": "pharmacy", "dispensing": "yes", "healthcare": "pharmacy", "indoor": "room", "level": "0", "name": "Apteka Dr. Max", "ref:csioz": "1088820"}}]}