{"version": 0.6, "generator": "Overpass API 0.7.62.8 e802775f", "osm3s": {"timestamp_osm_base": "2025-10-06T09:01:48Z", "copyright": "The data included in this document is from www.openstreetmap.org. The data is made available under ODbL."}, "elements": [{"type": "node", "id": 3709730362, "lat": 37.7432551, "lon": 29.1072259, "tags": {"addr:city": "Denizli", "addr:housenumber": "10/A", "addr:postcode": "20070", "amenity": "pharmacy", "check_date": "2023-01-28", "drive_through": "no", "healthcare": "pharmacy", "name": "Pamukkale Eczanesi", "opening_hours": "Mo-Fr 8:30-18:30", "operator": "Fatma G\u00fcnd\u00fcz", "phone": "+90258 213 0084", "wheelchair": "yes"}}, {"type": "node", "id": 3765244388, "lat": 37.7820548, "lon": 29.0776469, "tags": {"amenity": "pharmacy", "healthcare": "pharmacy", "name": "Duygu Eczanesi"}}, {"type": "node", "id": 3765244395, "lat": 37.7825162, "lon": 29.0785552, "tags": {"amenity": "pharmacy", "healthcare": "pharmacy", "name": "Denizli Eczanesi"}}, {"type": "node", "id": 3765244399, "lat": 37.7826158, "lon": 29.0787887, "tags": {"amenity": "pharmacy", "healthcare": "pharmacy", "name": "Deva Eczanesi"}}, {"type": "node", "id": 3765244400, "lat": 37.7827856, "lon": 29.0793397, "tags": {"amenity": "pharmacy", "healthcare": "pharmacy", "name": "Erdem Eczanesi"}}, {"type": "node", "id": 3765244401, "lat": 37.7827856, "lon": 29.0794355, "tags": {"amenity": "pharmacy", "healthcare": "pharmacy", "name": "Kundak\u00e7\u0131 Eczanesi"}}, {"type": "node", "id": 3765244408, "lat": 37.7827782, "lon": 29.0795919, "tags": {"amenity": "pharmacy", "healthcare": "pharmacy", "name": "G\u00fcng\u00f6r Eczanesi"}}, {"type": "node", "id": 3765244409, "lat": 37.782817, "lon": 29.0798931, "tags": {"amenity": "pharmacy", "healthcare": "pharmacy", "name": "G\u00f6ksu Eczanesi", "phone": "+90 258 242 5187"}}, {"type": "node", "id": 3765244410, "lat": 37.7828004, "lon": 29.0801033, "tags": {"amenity": "pharmacy", "healthcare": "pharmacy", "name": "S\u0131hhat Eczanesi"}}, {"type": "node", "id": 3765244411, "lat": 37.7827948, "lon": 29.080185, "tags": {"amenity": "pharmacy", "healthcare": "pharmacy", "name": "I\u015f\u0131l Eczanesi", "phone": "+90 258 265 8002"}}, {"type": "node", "id": 3765244421, "lat": 37.7828171, "lon": 29.0805947, "tags": {"amenity": "pharmacy", "healthcare": "pharmacy", "name": "Melek Eczanesi", "phone": "+90 258 265 3466"}}, {"type": "node", "id": 3765244423, "lat": 37.7828074, "lon": 29.0807085, "tags": {"amenity": "pharmacy", "healthcare": "pharmacy", "name": "B\u00fcke Eczanesi", "phone": "+90 258 261 5050"}}, {"type": "node", "id": 3765265681, "lat": 37.7819519, "lon": 29.0830614, "tags": {"amenity": "pharmacy", "healthcare": "pharmacy", "name": "\u015eifa Eczanesi", "phone": "+90 258 263 8580"}}, {"type": "node", "id": 3767902283, "lat": 37.7499586, "lon": 29.0990858, "tags": {"amenity": "pharmacy", "healthcare": "pharmacy", "name": "\u015e\u00fck\u00fcn Eczanesi"}}, {"type": "node", "id": 3767902314, "lat": 37.7501699, "lon": 29.0887806, "tags": {"amenity": "pharmacy", "healthcare": "pharmacy", "name": "Ceylan Eczanesi"}}, {"type": "node", "id": 3767902315, "lat": 37.7502544, "lon": 29.0891628, "tags": {"amenity": "pharmacy", "healthcare": "pharmacy", "name": "\u015eirin Eczanesi"}}, {"type": "node", "id": 3768888233, "lat": 37.7746328, "lon": 29.0351554, "tags": {"addr:city": "Merkezefendi/Denizli", "amenity": "pharmacy", "healthcare": "pharmacy", "name": "Bah\u00e7elievler Eczanesi", "phone": "+90 258 377 6762"}}, {"type": "node", "id": 3768888234, "lat": 37.7746296, "lon": 29.0350598, "tags": {"addr:city": "Merkezefendi/Denizli", "amenity": "pharmacy", "healthcare": "pharmacy", "name": "Ada Eczanesi", "phone": "+90 258 377 6762"}}, {"type": "node", "id": 3773413531, "lat": 37.7602532, "lon": 29.1002508, "tags": {"amenity": "pharmacy", "healthcare": "pharmacy", "name": "\u0130ncilip\u0131nar Mesire Eczanesi"}}, {"type": "node", "id": 3773416331, "lat": 37.7588178, "lon": 29.1007501, "tags": {"amenity": "pharmacy", "healthcare": "pharmacy", "name": "\u00c7elik Eczanesi"}}, {"type": "node", "id": 3773416332, "lat": 37.758423, "lon": 29.1014207, "tags": {"amenity": "pharmacy", "healthcare": "pharmacy", "name": "Arma\u011fan Eczanesi"}}, {"type": "node", "id": 3774516674, "lat": 37.7388173, "lon": 29.1137969, "tags": {"addr:city": "Pamukkale/Denizli", "amenity": "pharmacy", "healthcare": "pharmacy", "name": "Eczane"}}, {"type": "node", "id": 3787612683, "lat": 37.7596148, "lon": 29.0837459, "tags": {"amenity": "pharmacy", "healthcare": "pharmacy", "name": "\u00d6zge Eczanesi"}}, {"type": "node", "id": 3787612684, "lat": 37.7596093, "lon": 29.0843222, "tags": {"amenity": "pharmacy", "healthcare": "pharmacy", "name": "Alpler Eczanesi"}}, {"type": "node", "id": 3787612688, "lat": 37.7590302, "lon": 29.0836719, "tags": {"amenity": "pharmacy", "healthcare": "pharmacy", "name": "Elvan Eczanesi"}}, {"type": "node", "id": 3787684195, "lat": 37.7818177, "lon": 29.0829117, "tags": {"amenity": "pharmacy", "healthcare": "pharmacy", "name": "Numune Eczanesi", "phone": "+90 258 261 1772"}}, {"type": "node", "id": 3791238469, "lat": 37.7630657, "lon": 29.0901158, "tags": {"amenity": "pharmacy", "healthcare": "pharmacy", "name": "\u00c7etin Eczanesi"}}, {"type": "node", "id": 3791238475, "lat": 37.7625377, "lon": 29.0895552, "tags": {"amenity": "pharmacy", "healthcare": "pharmacy", "name": "Evren Eczanesi"}}, {"type": "node", "id": 3791771326, "lat": 37.7644218, "lon": 29.081457, "tags": {"amenity": "pharmacy", "healthcare": "pharmacy", "name": "Tugay Eczanesi", "phone": "+90 258 265 3463"}}, {"type": "node", "id": 3791877412, "lat": 37.7692332, "lon": 29.0759035, "tags": {"addr:city": "Denizli", "amenity": "pharmacy", "healthcare": "pharmacy"}}, {"type": "node", "id": 3793067504, "lat": 37.8072324, "lon": 29.0580036, "tags": {"addr:city": "Merkezefendi/Denizli", "amenity": "pharmacy", "healthcare": "pharmacy", "name": "Alt\u0131nova Eczanesi", "phone": "+90 258 371 7140"}}, {"type": "node", "id": 3793067505, "lat": 37.807899, "lon": 29.0576622, "tags": {"addr:city": "Merkezefendi/Denizli", "addr:housenumber": "24", "addr:street": "Cinkaya Bulvar\u0131", "amenity": "pharmacy", "healthcare": "pharmacy", "name": "T\u00fcfek\u00e7io\u011flu Eczanesi", "phone": "+90 258 371 4245"}}, {"type": "node", "id": 3793067507, "lat": 37.807935, "lon": 29.0577936, "tags": {"addr:city": "Merkezefendi/Denizli", "addr:housenumber": "70", "addr:street": "Ne\u015fet \u00c7ak\u0131r Caddesi", "amenity": "pharmacy", "healthcare": "pharmacy", "name": "\u00d6zg\u00fcn K\u0131yat Eczanesi", "phone": "+90 258 371 3292"}}, {"type": "node", "id": 3794135948, "lat": 37.7665203, "lon": 29.0962937, "tags": {"amenity": "pharmacy", "healthcare": "pharmacy", "name": "Aylin Eczanesi"}}, {"type": "node", "id": 3794156624, "lat": 37.7660694, "lon": 29.09677, "tags": {"amenity": "pharmacy", "healthcare": "pharmacy", "name": "\u0130stiklal Eczanesi"}}, {"type": "node", "id": 3794156626, "lat": 37.7656069, "lon": 29.0974348, "tags": {"amenity": "pharmacy", "check_date": "2023-04-24", "healthcare": "pharmacy", "name": "H\u00fcrriyet Eczanesi"}}, {"type": "node", "id": 3794156627, "lat": 37.7654127, "lon": 29.0983207, "tags": {"amenity": "pharmacy", "check_date": "2023-04-02", "healthcare": "pharmacy", "name": "Yaren Eczanesi"}}, {"type": "node", "id": 3799064283, "lat": 37.7771525, "lon": 29.0173967, "tags": {"addr:city": "Merkezefendi/Denizli", "addr:street": "Bereket Caddesi", "amenity": "pharmacy", "healthcare": "pharmacy", "name": "Ekiz Eczanesi", "phone": "+90 258 361 3510"}}, {"type": "node", "id": 3799064284, "lat": 37.7772743, "lon": 29.0174615, "tags": {"addr:city": "Merkezefendi/Denizli", "addr:street": "Bereket Caddesi", "amenity": "pharmacy", "healthcare": "pharmacy", "name": "Pamukkale Akt\u00fcrk Eczanesi", "phone": "+90 258 361 3375"}}, {"type": "node", "id": 3799200311, "lat": 37.7790016, "lon": 29.0194414, "tags": {"addr:city": "Merkezefendi/Denizli", "addr:street": "Hasan G\u00f6n\u00fcll\u00fc Bulvar\u0131", "amenity": "pharmacy", "healthcare": "pharmacy", "name": "Da\u011f Eczanesi", "phone": "+90 258 371 1207"}}, {"type": "node", "id": 3799229933, "lat": 37.7784117, "lon": 29.0218284, "tags": {"addr:city": "Merkezefendi/Denizli", "amenity": "pharmacy", "healthcare": "pharmacy", "name": "K\u00f6knar Eczanesi", "phone": "+90 258 361 3393"}}, {"type": "node", "id": 3799229948, "lat": 37.7783795, "lon": 29.0224067, "tags": {"addr:city": "Merkezefendi/Denizli", "addr:street": "Hasan G\u00f6n\u00fcll\u00fc Bulvar\u0131", "amenity": "pharmacy", "healthcare": "pharmacy", "name": "Derya Eczanesi"}}, {"type": "node", "id": 3799229949, "lat": 37.7784051, "lon": 29.0227463, "tags": {"addr:city": "Merkezefendi/Denizli", "addr:street": "Hasan G\u00f6n\u00fcll\u00fc Bulvar\u0131", "amenity": "pharmacy", "healthcare": "pharmacy", "name": "Turan Eczanesi", "phone": "+90 258 361 2400"}}, {"type": "node", "id": 3809769827, "lat": 37.7737422, "lon": 29.0439343, "tags": {"addr:city": "Merkezefendi/Denizli", "amenity": "pharmacy", "healthcare": "pharmacy", "name": "\u00d6zer Eczanesi", "phone": "+90 258 241 8556"}}, {"type": "node", "id": 3809769828, "lat": 37.7739857, "lon": 29.0436878, "tags": {"addr:city": "Merkezefendi/Denizli", "amenity": "pharmacy", "healthcare": "pharmacy", "name": "Uzman Eczanesi", "phone": "+90 258 262 0293"}}, {"type": "node", "id": 3809769829, "lat": 37.7741416, "lon": 29.0435523, "tags": {"addr:city": "Merkezefendi/Denizli", "amenity": "pharmacy", "healthcare": "pharmacy", "name": "Denizim Eczanesi", "phone": "+90 258 377 7090"}}, {"type": "node", "id": 3809835949, "lat": 37.7316067, "lon": 29.1320344, "tags": {"addr:city": "Pamukkale/Denizli", "amenity": "pharmacy", "healthcare": "pharmacy", "name": "\u00d6zdemir Eczanesi"}}, {"type": "node", "id": 3809839158, "lat": 37.7316333, "lon": 29.1321648, "tags": {"addr:city": "Pamukkale/Denizli", "amenity": "pharmacy", "healthcare": "pharmacy", "name": "G\u00f6n\u00fcl Eczanesi", "phone": "+90 258 266 1444"}}, {"type": "node", "id": 4331526339, "lat": 37.7763989, "lon": 29.0820423, "tags": {"amenity": "pharmacy", "healthcare": "pharmacy", "name": "Saltak Eczanesi", "phone": "+90 258 264 1650"}}, {"type": "node", "id": 4375668863, "lat": 37.7539893, "lon": 29.0894969, "tags": {"amenity": "pharmacy", "healthcare": "pharmacy", "name": "G\u00f6k\u00e7e Eczanesi"}}, {"type": "node", "id": 6164935627, "lat": 37.7722887, "lon": 29.084365, "tags": {"amenity": "pharmacy", "dispensing": "yes", "healthcare": "pharmacy", "name": "Ezgi Eczanesi", "phone": "+90 258 265 4646"}}, {"type": "node", "id": 7969547186, "lat": 37.9133198, "lon": 29.1191458, "tags": {"amenity": "pharmacy", "healthcare": "pharmacy"}}, {"type": "node", "id": 8342456773, "lat": 37.7787471, "lon": 29.0247034, "tags": {"amenity": "pharmacy", "dispensing": "yes", "healthcare": "pharmacy", "name": "Hazar Eczanesi", "opening_hours": "Mo-Fr 08:30-18:00+; Sa,Su off", "phone": "+90 258 377 9985"}}, {"type": "node", "id": 8342465509, "lat": 37.7786348, "lon": 29.0242262, "tags": {"amenity": "pharmacy", "dispensing": "yes", "healthcare": "pharmacy", "name": "G\u00fclriz Eczanesi", "phone": "+90 258 361 3435"}}, {"type": "node", "id": 10033820161, "lat": 37.9137063, "lon": 29.1191409, "tags": {"amenity": "pharmacy", "healthcare": "pharmacy", "name": "Mihrican"}}, {"type": "node", "id": 10574313303, "lat": 37.7429821, "lon": 29.1089433, "tags": {"amenity": "pharmacy", "check_date": "2023-01-22", "healthcare": "pharmacy", "name": "Eczane \u00dcniversite"}}, {"type": "node", "id": 10588944627, "lat": 37.7432165, "lon": 29.107444, "tags": {"amenity": "pharmacy", "check_date": "2023-04-28", "healthcare": "pharmacy", "name": "Demiro\u011flu"}}, {"type": "node", "id": 10588944628, "lat": 37.7432269, "lon": 29.1073675, "tags": {"amenity": "pharmacy", "check_date": "2023-04-28", "healthcare": "pharmacy", "name": "Sayg\u0131n"}}, {"type": "node", "id": 10614421059, "lat": 37.7432419, "lon": 29.1077647, "tags": {"amenity": "pharmacy", "check_date": "2023-04-28", "healthcare": "pharmacy", "name": "Eczane \u0130nan\u00f6z", "payment:mastercard": "yes", "payment:visa": "yes"}}, {"type": "node", "id": 10614421061, "lat": 37.7432297, "lon": 29.1072996, "tags": {"amenity": "pharmacy", "check_date": "2023-02-07", "healthcare": "pharmacy", "name": "K\u0131z\u0131lta\u015f"}}, {"type": "node", "id": 10614421062, "lat": 37.7432799, "lon": 29.107127, "tags": {"amenity": "pharmacy", "check_date": "2023-02-07", "healthcare": "pharmacy", "name": "Candan"}}, {"type": "node", "id": 10614432922, "lat": 37.7429641, "lon": 29.1087222, "tags": {"amenity": "pharmacy", "check_date": "2023-02-07", "healthcare": "pharmacy", "name": "Eczane Soylu"}}, {"type": "node", "id": 10614456671, "lat": 37.7434146, "lon": 29.1057228, "tags": {"amenity": "pharmacy", "check_date": "2023-02-07", "healthcare": "pharmacy", "name": "Merve Yamu\u00e7"}}, {"type": "node", "id": 10615207053, "lat": 37.7483867, "lon": 29.0998704, "tags": {"amenity": "pharmacy", "check_date": "2023-02-07", "healthcare": "pharmacy", "name": "Neslihan"}}, {"type": "node", "id": 10721153835, "lat": 37.7688641, "lon": 29.0940118, "tags": {"amenity": "pharmacy", "check_date": "2023-03-08", "healthcare": "pharmacy"}}, {"type": "node", "id": 10745036729, "lat": 37.7418663, "lon": 29.1214074, "tags": {"amenity": "pharmacy", "check_date": "2023-03-19", "healthcare": "pharmacy"}}, {"type": "node", "id": 10779857538, "lat": 37.7698377, "lon": 29.0930606, "tags": {"amenity": "pharmacy", "check_date": "2023-04-24", "healthcare": "pharmacy", "name": "Merve"}}, {"type": "node", "id": 10792657312, "lat": 37.7503123, "lon": 29.0970175, "tags": {"amenity": "pharmacy", "check_date": "2023-04-07", "healthcare": "pharmacy", "name": "Mutlu g\u00fcnler"}}, {"type": "node", "id": 11611095570, "lat": 38.0442371, "lon": 28.8395656, "tags": {"amenity": "pharmacy", "healthcare": "pharmacy", "name": "Seda Eczanesi", "phone": "+90 258 431 8958"}}, {"type": "node", "id": 11611095571, "lat": 37.9635316, "lon": 28.7427816, "tags": {"amenity": "pharmacy", "healthcare": "pharmacy", "name": "Ak\u015fit Eczanesi", "phone": "+90 256 391 2770"}}, {"type": "node", "id": 11611095572, "lat": 37.9694076, "lon": 28.7418122, "tags": {"amenity": "pharmacy", "healthcare": "pharmacy", "name": "Hakan Eczanesi", "phone": "+90 505 745 0551"}}, {"type": "node", "id": 11611095670, "lat": 38.0458852, "lon": 28.8317549, "tags": {"amenity": "pharmacy", "healthcare": "pharmacy", "name": "\u00d6zyurt Eczanesi", "phone": "+90 258 431 3030"}}, {"type": "node", "id": 11611095671, "lat": 38.0455517, "lon": 28.8310623, "tags": {"amenity": "pharmacy", "healthcare": "pharmacy", "name": "D\u00f6nmez Eczanesi", "phone": "+90 258 431 3292"}}, {"type": "node", "id": 11611095672, "lat": 37.9638428, "lon": 28.7421645, "tags": {"amenity": "pharmacy", "healthcare": "pharmacy", "name": "\u00c7atalkaya Eczanesi", "phone": "+90 256 391 4408"}}, {"type": "node", "id": 11611095673, "lat": 37.9694496, "lon": 28.7414687, "tags": {"amenity": "pharmacy", "healthcare": "pharmacy", "name": "Aytun Eczanesi", "phone": "+90 256 391 2413"}}, {"type": "node", "id": 11611095769, "lat": 38.0413708, "lon": 28.9380534, "tags": {"amenity": "pharmacy", "name": "Yenicekent Eczanesi", "phone": "+90 258 434 6688"}}, {"type": "node", "id": 11611095770, "lat": 38.0443722, "lon": 28.8395945, "tags": {"amenity": "pharmacy", "healthcare": "pharmacy", "name": "Eklio\u011flu Eczanesi", "phone": "+90 258 431 2442"}}, {"type": "node", "id": 11611095771, "lat": 37.9692878, "lon": 28.7421994, "tags": {"amenity": "pharmacy", "healthcare": "pharmacy", "name": "Kevser Eczanesi", "phone": "+90 256 391 3223"}}, {"type": "node", "id": 11611095869, "lat": 38.0434744, "lon": 28.8405754, "tags": {"amenity": "pharmacy", "healthcare": "pharmacy", "name": "Buldan Eczanesi", "phone": "+90 258 431 8684"}}, {"type": "node", "id": 11611095870, "lat": 38.0458596, "lon": 28.8273766, "tags": {"amenity": "pharmacy", "healthcare": "pharmacy", "name": "Yak\u0131n Eczanesi", "phone": "+90 258 431 3305"}}, {"type": "node", "id": 11611095871, "lat": 38.044431, "lon": 28.8247647, "tags": {"amenity": "pharmacy", "healthcare": "pharmacy", "name": "Kaya Eczanesi", "phone": "+90 258 431 8524"}}, {"type": "node", "id": 11611095872, "lat": 37.9647957, "lon": 28.7430329, "tags": {"amenity": "pharmacy", "healthcare": "pharmacy", "name": "Burhaniye Eczanesi", "phone": "+90 256 391 3064"}}, {"type": "node", "id": 11611285169, "lat": 37.9276056, "lon": 28.9279303, "tags": {"amenity": "pharmacy", "name": "Serim Eczanesi", "phone": "+90 258 415 1248"}}, {"type": "node", "id": 11611285170, "lat": 37.9240558, "lon": 28.9266694, "tags": {"amenity": "pharmacy", "name": "Yasin Eczanesi", "phone": "+90 258 415 1880"}}, {"type": "node", "id": 11611285171, "lat": 37.924133, "lon": 28.9261285, "tags": {"amenity": "pharmacy", "name": "Do\u011fan \u00d6zsoy Eczanesi", "phone": "+90 258 415 2010"}}, {"type": "node", "id": 11611285269, "lat": 37.9276156, "lon": 28.92754, "tags": {"amenity": "pharmacy", "name": "Sarayk\u00f6y Eczanesi", "phone": "+90 258 415 3070"}}, {"type": "node", "id": 11611285270, "lat": 37.9234881, "lon": 28.9244264, "tags": {"amenity": "pharmacy", "name": "O\u011fuzlar Eczanesi", "phone": "+90 258 415 3552"}}, {"type": "node", "id": 11611285271, "lat": 37.9227951, "lon": 28.9235715, "tags": {"amenity": "pharmacy", "name": "Gezgin Eczanesi", "phone": "+90 258 415 5252"}}, {"type": "node", "id": 11611285272, "lat": 37.9245399, "lon": 28.9228658, "tags": {"amenity": "pharmacy", "name": "Akman Eczanesi", "phone": "+90 258 415 1999"}}, {"type": "node", "id": 11611286769, "lat": 37.9244316, "lon": 28.9260003, "tags": {"amenity": "pharmacy", "name": "K\u0131rl\u0131 Eczanesi", "phone": "+90 258 415 5619"}}, {"type": "node", "id": 11611287569, "lat": 37.923429, "lon": 28.9252441, "tags": {"amenity": "pharmacy", "name": "Ak\u015fit Eczanesi", "phone": "+90 258 415 2007"}}, {"type": "node", "id": 11611287570, "lat": 37.9238883, "lon": 28.9246102, "tags": {"amenity": "pharmacy", "name": "Yaman Eczanesi", "phone": "+90 258 415 2377"}}, {"type": "node", "id": 11611287669, "lat": 37.9237298, "lon": 28.9246054, "tags": {"amenity": "pharmacy", "name": "Yal\u00e7\u0131n Eczanesi", "phone": "+90 258 415 2800"}}, {"type": "node", "id": 11611287670, "lat": 37.9227242, "lon": 28.9233192, "tags": {"amenity": "pharmacy", "name": "\u00d6z Ak\u0131n Eczanesi", "phone": "+90 258 415 5161"}}, {"type": "node", "id": 11611586570, "lat": 37.7922857, "lon": 28.9655981, "tags": {"amenity": "pharmacy", "name": "G\u00f6ve\u00e7lik Eczanesi", "phone": "+90 258 385 7657"}}, {"type": "node", "id": 11611592269, "lat": 37.8090462, "lon": 28.8572864, "tags": {"amenity": "pharmacy", "healthcare": "pharmacy", "name": "Babada\u011f Eczanesi", "phone": "+90 258 481 3030"}}, {"type": "node", "id": 11619305969, "lat": 37.7612406, "lon": 29.2687636, "tags": {"amenity": "pharmacy", "name": "Honaz Eczanesi", "phone": "+90 258 811 1115"}}, {"type": "node", "id": 11619314969, "lat": 37.7602106, "lon": 29.2683071, "tags": {"amenity": "pharmacy", "name": "Berkeren Eczanesi", "phone": "+90 258 811 2531"}}, {"type": "node", "id": 11619314970, "lat": 37.796988, "lon": 29.2213529, "tags": {"amenity": "pharmacy", "name": "Ya\u011f\u0131z Eczanesi", "phone": "+90 258 286 5799"}}, {"type": "node", "id": 11619316869, "lat": 37.7600112, "lon": 29.267927, "tags": {"amenity": "pharmacy", "name": "Yeni Kaftan Eczanesi", "phone": "+90 258 811 3161"}}, {"type": "node", "id": 11619317969, "lat": 37.7602814, "lon": 29.2676559, "tags": {"amenity": "pharmacy", "name": "Deva Eczanesi", "phone": "+90 258 811 3155"}}, {"type": "node", "id": 11619328971, "lat": 37.8808821, "lon": 29.180872, "tags": {"amenity": "pharmacy", "name": "Cansever Eczanesi", "phone": "+90 258 261 4144"}}, {"type": "node", "id": 11619328972, "lat": 37.8824756, "lon": 29.1823186, "tags": {"amenity": "pharmacy", "name": "Ceyda Eczanesi", "phone": "+90 258 285 3398"}}, {"type": "node", "id": 11619328973, "lat": 37.8828797, "lon": 29.1795148, "tags": {"amenity": "pharmacy", "name": "Kahraman Eczanesi", "phone": "+90 258 285 3388"}}, {"type": "node", "id": 11619328974, "lat": 37.9118169, "lon": 29.1209069, "tags": {"amenity": "pharmacy", "name": "Mihrican Eczanesi", "phone": "+90 258 272 2530"}}, {"type": "node", "id": 11619328976, "lat": 38.0313878, "lon": 29.1787295, "tags": {"amenity": "pharmacy", "name": "Demet Eczanesi", "phone": "+90 258 278 6035"}}, {"type": "node", "id": 11619331370, "lat": 37.8071051, "lon": 29.246221, "tags": {"amenity": "pharmacy", "name": "Ya\u015fam Eczanesi", "phone": "+90 258 269 2697"}}, {"type": "node", "id": 11619331371, "lat": 37.8160514, "lon": 29.165416, "tags": {"amenity": "pharmacy", "name": "G\u00fczelk\u00f6y Eczanesi", "phone": "+90 258 267 2082"}}, {"type": "node", "id": 11619333170, "lat": 37.9494997, "lon": 29.0798605, "tags": {"amenity": "pharmacy", "name": "Anadolu Eczanesi", "phone": "+90 258 461 2466"}}, {"type": "node", "id": 11619356769, "lat": 37.9101696, "lon": 29.0300877, "tags": {"amenity": "pharmacy", "name": "Mehmet Akif Ersoy Eczanesi", "phone": "+90 258 265 3319"}}, {"type": "node", "id": 11619356869, "lat": 37.9525942, "lon": 29.0791754, "tags": {"amenity": "pharmacy", "name": "Zeybek Eczanesi", "phone": "+90 258 461 2013"}}, {"type": "node", "id": 11619498980, "lat": 37.7964736, "lon": 29.069418, "tags": {"amenity": "pharmacy", "healthcare": "pharmacy", "name": "T\u00fcrkiyem Eczanesi i", "name:tr": "T\u00fcrkiyem Eczanesi", "phone": "+90 258 372 0463"}}, {"type": "node", "id": 11619499379, "lat": 37.7971916, "lon": 29.0701685, "tags": {"amenity": "pharmacy", "healthcare": "pharmacy", "name": "Gazio\u011flu Eczanesi", "phone": "+90 258 371 3336"}}, {"type": "node", "id": 11619499680, "lat": 37.7946575, "lon": 29.0771308, "tags": {"amenity": "pharmacy", "name": "Poyraz Eczanesi", "phone": "+90 258 371 0050"}}, {"type": "node", "id": 11619499681, "lat": 37.7968807, "lon": 29.0698127, "tags": {"amenity": "pharmacy", "healthcare": "pharmacy", "name": "\u00c7ift\u00e7i Eczanesi", "phone": "+90 258 371 2160"}}, {"type": "node", "id": 11619499874, "lat": 37.7969394, "lon": 29.0700006, "tags": {"amenity": "pharmacy", "healthcare": "pharmacy", "name": "Erdem Eczanesi", "phone": "+90 258 261 4560"}}, {"type": "node", "id": 11619501969, "lat": 37.8220324, "lon": 29.0477296, "tags": {"amenity": "pharmacy", "healthcare": "pharmacy", "name": "\u0130zmirli Eczanesi", "phone": "+90 544 114 5700"}}, {"type": "node", "id": 11619502069, "lat": 37.8190485, "lon": 29.0573796, "tags": {"amenity": "pharmacy", "name": "Arda Kantarc\u0131 Eczanesi", "phone": "+90 258 502 0104"}}, {"type": "node", "id": 11619502169, "lat": 37.7972069, "lon": 29.0781406, "tags": {"amenity": "pharmacy", "name": "Yeni Kayhan Eczanesi", "phone": "+90 258 371 8314"}}, {"type": "node", "id": 11619502170, "lat": 37.7950822, "lon": 29.0765115, "tags": {"amenity": "pharmacy", "name": "Mehmet\u00e7ik Eczanesi", "phone": "+90 258 371 2459"}}, {"type": "node", "id": 11659647171, "lat": 37.7913552, "lon": 29.1034641, "tags": {"amenity": "pharmacy", "healthcare": "pharmacy", "name": "Gamze Eczanesi", "phone": "+90 258 251 5162"}}, {"type": "node", "id": 11659647172, "lat": 37.7914062, "lon": 29.1035292, "tags": {"amenity": "pharmacy", "healthcare": "pharmacy", "name": "Mavi Eczanesi", "phone": "+90 258 251 2519"}}, {"type": "node", "id": 11659647173, "lat": 37.7879407, "lon": 29.1051168, "tags": {"amenity": "pharmacy", "name": "Seyfun Eczanesi", "phone": "+90 258 251 5149"}}, {"type": "node", "id": 11659647174, "lat": 37.7853616, "lon": 29.0926709, "tags": {"amenity": "pharmacy", "name": "Ocak Eczanesi", "phone": "+90 258 242 5522"}}, {"type": "node", "id": 11659647175, "lat": 37.7844582, "lon": 29.0875251, "tags": {"amenity": "pharmacy", "healthcare": "pharmacy", "name": "Sevil Eczanesi", "phone": "+90 258 261 5090"}}, {"type": "node", "id": 11659647176, "lat": 37.7723106, "lon": 29.0823909, "tags": {"amenity": "pharmacy", "name": "Nefes Eczanesi", "phone": "+90 258 211 6276"}}, {"type": "node", "id": 11659647177, "lat": 37.7755446, "lon": 29.0822485, "tags": {"amenity": "pharmacy", "name": "Din\u00e7 Eczanesi", "phone": "+90 258 241 9059"}}, {"type": "node", "id": 11659647178, "lat": 37.7794479, "lon": 29.0797861, "tags": {"amenity": "pharmacy", "name": "G\u00f6khan Eczanesi", "phone": "+90 258 242 6970"}}, {"type": "node", "id": 11659647179, "lat": 37.7864783, "lon": 29.0746708, "tags": {"amenity": "pharmacy", "name": "Ye\u015filyurt Eczanesi", "phone": "+90 258 371 8742"}}, {"type": "node", "id": 11659647180, "lat": 37.7864591, "lon": 29.0743061, "tags": {"amenity": "pharmacy", "name": "G\u00fcler Eczanesi", "phone": "+90 258 371 3375"}}, {"type": "node", "id": 11659647181, "lat": 37.7864357, "lon": 29.0595788, "tags": {"amenity": "pharmacy", "name": "\u0130lkay Eczanesi", "phone": "+90 258 377 1196"}}, {"type": "node", "id": 11659647182, "lat": 37.7856281, "lon": 29.0582226, "tags": {"amenity": "pharmacy", "name": "\u00dcmit Eczanesi", "phone": "+90 258 377 8601"}}, {"type": "node", "id": 11659651170, "lat": 37.8035707, "lon": 29.10604, "tags": {"amenity": "pharmacy", "name": "H\u00fcseyin Ayd\u0131no\u011flu Eczanesi", "phone": "+90 258 268 6872"}}, {"type": "node", "id": 11659651171, "lat": 37.8031697, "lon": 29.1100931, "tags": {"amenity": "pharmacy", "name": "O\u011fuz Eczanesi", "phone": "+90 258 251 0107"}}, {"type": "node", "id": 11659651172, "lat": 37.7918879, "lon": 29.1022964, "tags": {"amenity": "pharmacy", "healthcare": "pharmacy", "name": "Ko\u00e7ak Eczanesi", "phone": "+90 258 502 5544"}}, {"type": "node", "id": 11659651173, "lat": 37.7910314, "lon": 29.1030744, "tags": {"amenity": "pharmacy", "healthcare": "pharmacy", "name": "B\u00fc\u015fra Boyac\u0131 Eczanesi", "phone": "+90 258 268 4050"}}, {"type": "node", "id": 11659651174, "lat": 37.7877736, "lon": 29.0846445, "tags": {"amenity": "pharmacy", "name": "Sergen Eczanesi", "phone": "+90 551 885 3870"}}, {"type": "node", "id": 11659651175, "lat": 37.7833577, "lon": 29.0897472, "tags": {"amenity": "pharmacy", "healthcare": "pharmacy", "name": "\u0130nceo\u011flu Eczanesi", "phone": "+90 258 265 4774"}}, {"type": "node", "id": 11659651176, "lat": 37.7804166, "lon": 29.0944479, "tags": {"amenity": "pharmacy", "name": "Se\u00e7kin Eczanesi", "phone": "+90 258 264 3524"}}, {"type": "node", "id": 11659651177, "lat": 37.7787371, "lon": 29.0899113, "tags": {"amenity": "pharmacy", "name": "Do\u011fal Eczanesi", "phone": "+90 258 241 1454"}}, {"type": "node", "id": 11659651178, "lat": 37.7752854, "lon": 29.0856511, "tags": {"amenity": "pharmacy", "name": "Nizamo\u011flu Eczanesi", "phone": "+90 258 262 0728"}}, {"type": "node", "id": 11659651179, "lat": 37.7800444, "lon": 29.0796279, "tags": {"amenity": "pharmacy", "name": "S\u00fcleyman Tort Eczanesi", "phone": "+90 258 265 5565"}}, {"type": "node", "id": 11659651180, "lat": 37.7863429, "lon": 29.0744556, "tags": {"amenity": "pharmacy", "name": "Vural Eczanesi", "phone": "+90 258 371 2196"}}, {"type": "node", "id": 11659651181, "lat": 37.7884549, "lon": 29.062784, "tags": {"amenity": "pharmacy", "name": "Hasibe Karto\u011flan Eczanesi", "phone": "+90 258 377 7374"}}, {"type": "node", "id": 11659652169, "lat": 37.7921507, "lon": 29.1230351, "tags": {"amenity": "pharmacy", "name": "Aydemir Eczanesi", "phone": "+90 258 251 1812"}}, {"type": "node", "id": 11659652170, "lat": 37.7773449, "lon": 29.0775045, "tags": {"amenity": "pharmacy", "name": "Yasemin Eczanesi", "phone": "+90 258 262 0065"}}, {"type": "node", "id": 11659652269, "lat": 37.7908774, "lon": 29.119636, "tags": {"amenity": "pharmacy", "name": "Yenitepe Eczanesi", "phone": "+90 258 251 2034"}}, {"type": "node", "id": 11659652270, "lat": 37.8216574, "lon": 29.106332, "tags": {"amenity": "pharmacy", "healthcare": "pharmacy", "name": "Eskihisar Eczanesi", "phone": "+90 258 251 2820"}}, {"type": "node", "id": 11659652271, "lat": 37.8040079, "lon": 29.106252, "tags": {"amenity": "pharmacy", "name": "G\u00fcl Eczanesi", "phone": "+90 258 422 1019"}}, {"type": "node", "id": 11659652272, "lat": 37.8042836, "lon": 29.1063428, "tags": {"amenity": "pharmacy", "name": "\u015eifabul Eczanesi", "phone": "+90 258 251 6163"}}, {"type": "node", "id": 11659652273, "lat": 37.8039055, "lon": 29.1097482, "tags": {"amenity": "pharmacy", "name": "Selin Eczanesi", "phone": "+90 258 268 7693"}}, {"type": "node", "id": 11659652274, "lat": 37.7878352, "lon": 29.1046415, "tags": {"amenity": "pharmacy", "name": "Neva Eczanesi", "phone": "+90 258 251 6650"}}, {"type": "node", "id": 11659652275, "lat": 37.7843, "lon": 29.0942832, "tags": {"amenity": "pharmacy", "name": "\u00d6zg\u00fcl Eczanesi", "phone": "+90 258 261 5450"}}, {"type": "node", "id": 11659652276, "lat": 37.7847399, "lon": 29.0898963, "tags": {"amenity": "pharmacy", "name": "Vatan Eczanesi", "phone": "+90 258 262 2288"}}, {"type": "node", "id": 11659652277, "lat": 37.7806091, "lon": 29.0943404, "tags": {"amenity": "pharmacy", "name": "Ne\u015fe Eczanesi", "phone": "+90 258 264 2274"}}, {"type": "node", "id": 11659652278, "lat": 37.7855009, "lon": 29.0582231, "tags": {"amenity": "pharmacy", "name": "Ertu\u011frul Eczanesi", "phone": "+90 258 377 8175"}}, {"type": "node", "id": 11659652369, "lat": 37.7910035, "lon": 29.1185884, "tags": {"amenity": "pharmacy", "name": "Korkmaz Eczanesi", "phone": "+90 258 251 5077"}}, {"type": "node", "id": 11659652370, "lat": 37.804382, "lon": 29.1064312, "tags": {"amenity": "pharmacy", "name": "\u00d6zaltun Eczanesi", "phone": "+90 258 268 6968"}}, {"type": "node", "id": 11659652371, "lat": 37.803669, "lon": 29.1101951, "tags": {"amenity": "pharmacy", "name": "Kar\u015f\u0131yaka Eczanesi", "phone": "+90 258 251 7133"}}, {"type": "node", "id": 11659652372, "lat": 37.7911062, "lon": 29.1031559, "tags": {"amenity": "pharmacy", "healthcare": "pharmacy", "name": "Mira Eczanesi", "phone": "+90 258 268 3347"}}, {"type": "node", "id": 11659652373, "lat": 37.7912877, "lon": 29.1033828, "tags": {"amenity": "pharmacy", "healthcare": "pharmacy", "name": "Semt Eczanesi", "phone": "+90 258 502 5344"}}, {"type": "node", "id": 11659652374, "lat": 37.7878922, "lon": 29.1048279, "tags": {"amenity": "pharmacy", "name": "Dilek Eczanesi", "phone": "+90 258 268 1231"}}, {"type": "node", "id": 11659652375, "lat": 37.7803085, "lon": 29.0925289, "tags": {"amenity": "pharmacy", "name": "An\u0131l Eczanesi", "phone": "+90 258 264 0544"}}, {"type": "node", "id": 11659652376, "lat": 37.7805085, "lon": 29.0942282, "tags": {"amenity": "pharmacy", "name": "Elif Eczanesi", "phone": "+90 258 263 5196"}}, {"type": "node", "id": 11659652378, "lat": 37.7772988, "lon": 29.0877196, "tags": {"amenity": "pharmacy", "name": "Yi\u011fit Eczanesi", "phone": "+90 258 265 4850"}}, {"type": "node", "id": 11659652379, "lat": 37.7758177, "lon": 29.0934427, "tags": {"amenity": "pharmacy", "name": "Bilgehan Eczanesi", "phone": "+90 258 264 3319"}}, {"type": "node", "id": 11659652380, "lat": 37.7744211, "lon": 29.088432, "tags": {"amenity": "pharmacy", "name": "Ayduran Eczanesi", "phone": "+90 258 265 3471"}}, {"type": "node", "id": 11659652381, "lat": 37.7738782, "lon": 29.0876352, "tags": {"amenity": "pharmacy", "name": "Ba\u015fak Eczanesi", "phone": "+90 258 265 3150"}}, {"type": "node", "id": 11659652382, "lat": 37.7736486, "lon": 29.0839395, "tags": {"amenity": "pharmacy", "name": "Bahar Eczanesi", "phone": "+90 258 263 9199"}}, {"type": "node", "id": 11659652383, "lat": 37.7755372, "lon": 29.0825447, "tags": {"amenity": "pharmacy", "name": "Mimar Sinan Eczanesi", "phone": "+90 258 263 6858"}}, {"type": "node", "id": 11659652469, "lat": 37.7911673, "lon": 29.1032179, "tags": {"amenity": "pharmacy", "healthcare": "pharmacy", "name": "Demirta\u015f Eczanesi", "phone": "+90 258 268 0178"}}, {"type": "node", "id": 11659652470, "lat": 37.787822, "lon": 29.1052538, "tags": {"amenity": "pharmacy", "name": "Dokuzkavaklar Eczanesi", "phone": "+90 258 251 8191"}}, {"type": "node", "id": 11659652569, "lat": 37.7912314, "lon": 29.1033094, "tags": {"amenity": "pharmacy", "healthcare": "pharmacy", "name": "Ba\u015fdil Eczanesi", "phone": "+90 258 251 3533"}}, {"type": "node", "id": 11659652570, "lat": 37.784362, "lon": 29.0982128, "tags": {"amenity": "pharmacy", "name": "\u00dc\u00e7gen Eczanesi", "phone": "+90 258 268 0023"}}, {"type": "node", "id": 11660296269, "lat": 37.7697457, "lon": 28.9905904, "tags": {"amenity": "pharmacy", "name": "Ba\u015fkarc\u0131 Eczanesi", "phone": "+90 258 384 2658"}}, {"type": "node", "id": 11660296270, "lat": 37.7818591, "lon": 29.0057329, "tags": {"amenity": "pharmacy", "name": "Cansu Eczanesi", "phone": "+90 258 361 1545"}}, {"type": "node", "id": 11660296271, "lat": 37.7837143, "lon": 29.0047121, "tags": {"amenity": "pharmacy", "name": "Papatya Eczanesi", "phone": "+90 258 361 1323"}}, {"type": "node", "id": 11660296272, "lat": 37.7792626, "lon": 29.0287198, "tags": {"amenity": "pharmacy", "name": "\u00d6zgen Eczanesi", "opening_hours": "Mo-Fr 08:30-19:00+; Sa,Su off", "phone": "+90 258 377 3363"}}, {"type": "node", "id": 11660296273, "lat": 37.7823211, "lon": 29.0240598, "tags": {"amenity": "pharmacy", "name": "Kaplan Eczanesi", "opening_hours": "Mo-Sa 08:30-18:00+", "phone": "+90 258 691 6509"}}, {"type": "node", "id": 11660296274, "lat": 37.7821534, "lon": 29.0252809, "tags": {"amenity": "pharmacy", "name": "Adalet Eczanesi", "opening_hours": "Mo-Fr 08:30-18:00+; Sa,Su off", "phone": "+90 258 257 1707"}}, {"type": "node", "id": 11660296275, "lat": 37.7886059, "lon": 29.037289, "tags": {"amenity": "pharmacy", "name": "Albayrak Eczanesi", "phone": "+90 258 377 5005"}}, {"type": "node", "id": 11660296276, "lat": 37.799648, "lon": 29.0395593, "tags": {"amenity": "pharmacy", "name": "Ard\u0131\u00e7 Eczanesi", "phone": "+90 258 371 7757"}}, {"type": "node", "id": 11660296369, "lat": 37.782914, "lon": 29.0051595, "tags": {"amenity": "pharmacy", "name": "Nilg\u00fcn Eczanesi", "phone": "+90 258 361 3761"}}, {"type": "node", "id": 11660296370, "lat": 37.7866821, "lon": 29.0249069, "tags": {"amenity": "pharmacy", "name": "Derya Eczanesi", "phone": "+90 258 408 3342"}}, {"type": "node", "id": 11660296371, "lat": 37.7828747, "lon": 29.0297946, "tags": {"amenity": "pharmacy", "name": "Florya Eczanesi", "opening_hours": "Mo-Fr 08:30-18:30+", "phone": "+90 258 410 9191"}}, {"type": "node", "id": 11660296372, "lat": 37.7788758, "lon": 29.034408, "tags": {"amenity": "pharmacy", "name": "Ozan Eczanesi", "phone": "+90 258 377 0162"}}, {"type": "node", "id": 11660296373, "lat": 37.7746316, "lon": 29.0342874, "tags": {"amenity": "pharmacy", "healthcare": "pharmacy", "name": "Se\u00e7il Eczanesi", "phone": "+90 258 377 4241"}}, {"type": "node", "id": 11660296569, "lat": 37.7819738, "lon": 29.0255722, "tags": {"amenity": "pharmacy", "name": "Cadde Sa\u011fl\u0131k Eczanesi", "opening_hours": "Mo-Fr 08:30-18:00+; Sa,Su off", "phone": "+90 258 257 6880"}}, {"type": "node", "id": 11660296570, "lat": 37.7835295, "lon": 29.0331509, "tags": {"amenity": "pharmacy", "name": "U\u011fur Eczanesi", "phone": "+90 258 251 0876"}}, {"type": "node", "id": 11660296571, "lat": 37.7836614, "lon": 29.0331258, "tags": {"amenity": "pharmacy", "name": "Semih Eczanesi", "phone": "+90 258 377 9902"}}, {"type": "node", "id": 11660296572, "lat": 37.7789439, "lon": 29.0345762, "tags": {"amenity": "pharmacy", "name": "Emir Eczanesi", "opening_hours": "Mo-Sa 08:30-18:00+; Su off", "phone": "+90 258 377 7110"}}, {"type": "node", "id": 11660296669, "lat": 37.7823298, "lon": 29.0252786, "tags": {"amenity": "pharmacy", "name": "N\u00fckhet Eczanesi", "opening_hours": "Mo-Fr 08:30-18:00+; Sa,Su off", "phone": "+90 258 377 0038"}}, {"type": "node", "id": 11660296670, "lat": 37.7983547, "lon": 29.03968, "tags": {"amenity": "pharmacy", "name": "\u00d6zg\u00fc Eczanesi", "phone": "+90 258 410 3223"}}, {"type": "node", "id": 11662271570, "lat": 37.7442201, "lon": 29.055751, "tags": {"amenity": "pharmacy", "name": "Sar\u0131o\u011flu Eczanesi", "phone": "+90 258 373 6910"}}, {"type": "node", "id": 11662271571, "lat": 37.7446237, "lon": 29.055981, "tags": {"amenity": "pharmacy", "name": "Selma Eczanesi", "phone": "+90 258 502 0210"}}, {"type": "node", "id": 11662271572, "lat": 37.7505999, "lon": 29.0559659, "tags": {"amenity": "pharmacy", "name": "Konca Eczanesi", "phone": "+90 258 374 0602"}}, {"type": "node", "id": 11662271573, "lat": 37.77433, "lon": 29.043373, "tags": {"amenity": "pharmacy", "name": "Hacettepe Eczanesi", "phone": "+90 258 377 7767"}}, {"type": "node", "id": 11662271574, "lat": 37.7780411, "lon": 29.0574745, "tags": {"amenity": "pharmacy", "name": "Kiraz Eczanesi", "phone": "+90 258 377 2919"}}, {"type": "node", "id": 11662271575, "lat": 37.7784551, "lon": 29.057205, "tags": {"amenity": "pharmacy", "name": "Ayfer Ceylan Eczanesi", "phone": "+90 258 502 2949"}}, {"type": "node", "id": 11662271576, "lat": 37.7783771, "lon": 29.056434, "tags": {"amenity": "pharmacy", "name": "Turun\u00e7 Eczanesi", "phone": "+90 258 377 8578"}}, {"type": "node", "id": 11662271577, "lat": 37.7806822, "lon": 29.0838163, "tags": {"addr:housenumber": "2/5", "addr:street": "493 Sokak", "amenity": "pharmacy", "healthcare": "pharmacy", "name": "Nur Eczanesi", "phone": "+90 258 263 5209"}}, {"type": "node", "id": 11662271578, "lat": 37.7804183, "lon": 29.0825977, "tags": {"amenity": "pharmacy", "healthcare": "pharmacy", "name": "K\u0131v\u0131lc\u0131m Eczanesi", "phone": "+90 258 410 1707"}}, {"type": "node", "id": 11662271579, "lat": 37.7805871, "lon": 29.0826258, "tags": {"amenity": "pharmacy", "healthcare": "pharmacy", "name": "Yap\u0131c\u0131 Eczanesi", "phone": "+90 258 264 6823"}}, {"type": "node", "id": 11662271580, "lat": 37.7801171, "lon": 29.081684, "tags": {"amenity": "pharmacy", "name": "Ayg\u00f6ren Eczanesi", "phone": "+90 258 242 1895"}}, {"type": "node", "id": 11662271581, "lat": 37.7817075, "lon": 29.0832873, "tags": {"amenity": "pharmacy", "name": "Esin Eczanesi", "phone": "+90 258 261 4502"}}, {"type": "node", "id": 11662271582, "lat": 37.7815958, "lon": 29.082378, "tags": {"amenity": "pharmacy", "healthcare": "pharmacy", "name": "Z\u0131nc\u0131rc\u0131 Eczanesi", "phone": "+90 258 242 8484"}}, {"type": "node", "id": 11662271583, "lat": 37.7813235, "lon": 29.0817186, "tags": {"amenity": "pharmacy", "name": "Toker Eczanesi", "phone": "+90 258 241 7216"}}, {"type": "node", "id": 11662271584, "lat": 37.7815885, "lon": 29.0815487, "tags": {"amenity": "pharmacy", "name": "Moralio\u011flu Eczanesi", "phone": "+90 258 264 5522"}}, {"type": "node", "id": 11662271585, "lat": 37.7814887, "lon": 29.0809047, "tags": {"amenity": "pharmacy", "name": "Nisan Eczanesi", "phone": "+90 258 373 6768"}}, {"type": "node", "id": 11662271586, "lat": 37.782093, "lon": 29.0806704, "tags": {"amenity": "pharmacy", "name": "Sude Eczanesi", "phone": "+90 258 251 0052"}}, {"type": "node", "id": 11662278369, "lat": 37.7444236, "lon": 29.0552194, "tags": {"amenity": "pharmacy", "name": "Servergazi Eczanesi", "phone": "+90 258 373 0440"}}, {"type": "node", "id": 11662278370, "lat": 37.7446502, "lon": 29.054978, "tags": {"amenity": "pharmacy", "name": "Tokay Eczanesi", "phone": "+90 258 373 3737"}}, {"type": "node", "id": 11662278371, "lat": 37.759067, "lon": 29.0485447, "tags": {"amenity": "pharmacy", "name": "\u0130brahim Sa\u011flam Eczanesi", "phone": "+90 554 149 2020"}}, {"type": "node", "id": 11662278372, "lat": 37.7592835, "lon": 29.0377584, "tags": {"amenity": "pharmacy", "name": "Yeni\u015fehir Eczanesi", "phone": "+90 258 373 4897"}}, {"type": "node", "id": 11662278373, "lat": 37.7614327, "lon": 29.0353438, "tags": {"amenity": "pharmacy", "name": "Ya\u011fmur Eczanesi", "phone": "+90 258 373 6951"}}, {"type": "node", "id": 11662278374, "lat": 37.7779905, "lon": 29.0571773, "tags": {"amenity": "pharmacy", "name": "Asl\u0131 Eczanesi", "phone": "+90 258 251 1010"}}, {"type": "node", "id": 11662278375, "lat": 37.778409, "lon": 29.0570118, "tags": {"amenity": "pharmacy", "name": "G\u00fclery\u00fcz Eczanesi", "phone": "+90 258 502 1015"}}, {"type": "node", "id": 11662278376, "lat": 37.7782295, "lon": 29.056357, "tags": {"amenity": "pharmacy", "name": "Nergis Eczanesi", "phone": "+90 258 226 4005"}}, {"type": "node", "id": 11662278377, "lat": 37.7810137, "lon": 29.0840184, "tags": {"amenity": "pharmacy", "name": "Aykut Eczanesi", "phone": "+90 258 263 4780"}}, {"type": "node", "id": 11662278378, "lat": 37.7815147, "lon": 29.0832193, "tags": {"amenity": "pharmacy", "healthcare": "pharmacy", "name": "\u00c7omut Eczanesi", "phone": "+90 258 262 2369"}}, {"type": "node", "id": 11662278379, "lat": 37.7828376, "lon": 29.0818718, "tags": {"amenity": "pharmacy", "name": "Limoncu Eczanesi", "phone": "+90 258 262 2380"}}, {"type": "node", "id": 11662278380, "lat": 37.7829657, "lon": 29.0817909, "tags": {"amenity": "pharmacy", "name": "G\u00fcn\u015fah Eczanesi", "phone": "+90 258 262 2393"}}, {"type": "node", "id": 11662278381, "lat": 37.7841404, "lon": 29.0826932, "tags": {"amenity": "pharmacy", "healthcare": "pharmacy", "name": "Yeni \u00dcmit Eczanesi", "phone": "+90 258 264 0946"}}, {"type": "node", "id": 11662278382, "lat": 37.7840204, "lon": 29.0839629, "tags": {"amenity": "pharmacy", "name": "Ege Eczanesi", "phone": "+90 258 242 6390"}}, {"type": "node", "id": 11662278383, "lat": 37.7823647, "lon": 29.0832361, "tags": {"amenity": "pharmacy", "healthcare": "pharmacy", "name": "\u015eule Eczanesi", "phone": "+90 258 261 1278"}}, {"type": "node", "id": 11662278384, "lat": 37.78225, "lon": 29.0831276, "tags": {"amenity": "pharmacy", "healthcare": "pharmacy", "name": "Bertan Eczanesi", "phone": "+90 258 264 8009"}}, {"type": "node", "id": 11662278469, "lat": 37.744569, "lon": 29.0550639, "tags": {"amenity": "pharmacy", "name": "Ak\u00f6zcan Eczanesi", "phone": "+90 258 373 2213"}}, {"type": "node", "id": 11662278470, "lat": 37.7550719, "lon": 29.0510463, "tags": {"amenity": "pharmacy", "name": "Bayraktar Eczanesi", "phone": "+90 258 373 2019"}}, {"type": "node", "id": 11662278471, "lat": 37.7605853, "lon": 29.0347941, "tags": {"amenity": "pharmacy", "name": "Nehir Eczanesi", "phone": "+90 258 373 3334"}}, {"type": "node", "id": 11662278472, "lat": 37.7811202, "lon": 29.0839013, "tags": {"amenity": "pharmacy", "name": "\u00d6m\u00fcr Eczanesi", "phone": "+90 258 241 7585"}}, {"type": "node", "id": 11662278473, "lat": 37.782412, "lon": 29.0809125, "tags": {"amenity": "pharmacy", "name": "Bayramo\u011flu Eczanesi", "phone": "+90 258 241 2233"}}, {"type": "node", "id": 11662278474, "lat": 37.7824262, "lon": 29.0804945, "tags": {"amenity": "pharmacy", "name": "Kundak\u00e7\u0131 Eczanesi", "phone": "+90 258 262 0036"}}, {"type": "node", "id": 11662278475, "lat": 37.7832538, "lon": 29.082017, "tags": {"amenity": "pharmacy", "name": "\u00d6zderman Eczanesi", "phone": "+90 258 241 1488"}}, {"type": "node", "id": 11662278476, "lat": 37.783443, "lon": 29.0847533, "tags": {"amenity": "pharmacy", "name": "Bayramyeri Eczanesi", "phone": "+90 258 262 0057"}}, {"type": "node", "id": 11662278569, "lat": 37.7597936, "lon": 29.0342093, "tags": {"amenity": "pharmacy", "name": "Ar\u0131 Eczanesi", "phone": "+90 258 373 3159"}}, {"type": "node", "id": 11662278570, "lat": 37.7819927, "lon": 29.0830887, "tags": {"amenity": "pharmacy", "name": "Umut Eczanesi", "phone": "+90 258 242 2838"}}, {"type": "node", "id": 11662278571, "lat": 37.7817541, "lon": 29.0823371, "tags": {"amenity": "pharmacy", "healthcare": "pharmacy", "name": "Lokman Eczanesi", "phone": "+90 258 261 6991"}}, {"type": "node", "id": 11662278572, "lat": 37.7812485, "lon": 29.0814378, "tags": {"amenity": "pharmacy", "name": "Arca Eczanesi", "phone": "+90 258 265 1463"}}, {"type": "node", "id": 11662278573, "lat": 37.7824701, "lon": 29.0833612, "tags": {"amenity": "pharmacy", "healthcare": "pharmacy", "name": "Da\u011fdeviren Eczanesi", "phone": "+90 258 261 4564"}}, {"type": "node", "id": 11662278669, "lat": 37.7609844, "lon": 29.0350739, "tags": {"amenity": "pharmacy", "name": "Sevgi Eczanesi", "phone": "+90 258 373 3275"}}, {"type": "node", "id": 11662278769, "lat": 37.7811509, "lon": 29.0813605, "tags": {"amenity": "pharmacy", "name": "G\u00fclay Eczanesi", "phone": "+90 258 264 7700"}}, {"type": "node", "id": 11662601770, "lat": 37.7828149, "lon": 29.0807886, "tags": {"amenity": "pharmacy", "name": "Canan Eczanesi", "phone": "+90 258 241 3074"}}, {"type": "node", "id": 11663150471, "lat": 37.7828163, "lon": 29.079779, "tags": {"amenity": "pharmacy", "name": "Adal\u0131 Eczanesi", "phone": "+90 258 268 7777"}}, {"type": "node", "id": 11663158069, "lat": 37.7828023, "lon": 29.0797026, "tags": {"amenity": "pharmacy", "name": "G\u00fcle\u00e7 Eczanesi", "phone": "+90 258 265 5567"}}, {"type": "node", "id": 11663158070, "lat": 37.7801222, "lon": 29.1050006, "tags": {"amenity": "pharmacy", "name": "Ay\u015fen Eczanesi", "phone": "+90 258 241 2699"}}, {"type": "node", "id": 11663158071, "lat": 37.7810239, "lon": 29.1045481, "tags": {"amenity": "pharmacy", "name": "Emel Eczanesi", "phone": "+90 258 268 1112"}}, {"type": "node", "id": 11663158072, "lat": 37.780685, "lon": 29.1042736, "tags": {"amenity": "pharmacy", "name": "\u00c7all\u0131o\u011flu Eczanesi", "phone": "+90 258 265 2786"}}, {"type": "node", "id": 11663165469, "lat": 37.7804072, "lon": 29.1042892, "tags": {"amenity": "pharmacy", "name": "Zeynep Eczanesi", "phone": "+90 258 242 2252"}}, {"type": "node", "id": 11663165569, "lat": 37.7807144, "lon": 29.1045257, "tags": {"amenity": "pharmacy", "name": "Bakalan Eczanesi", "phone": "+90 258 241 1633"}}, {"type": "node", "id": 11663165570, "lat": 37.7807345, "lon": 29.1041621, "tags": {"amenity": "pharmacy", "name": "Delikta\u015f Eczanesi", "phone": "+90 258 264 4067"}}, {"type": "node", "id": 11663165669, "lat": 37.7661108, "lon": 29.0857319, "tags": {"amenity": "pharmacy", "name": "Emek Eczanesi", "phone": "+90 258 242 4098"}}]}