{"version": 0.6, "generator": "Overpass API 0.7.62.8 e802775f", "osm3s": {"timestamp_osm_base": "2025-10-06T08:41:25Z", "copyright": "The data included in this document is from www.openstreetmap.org. The data is made available under ODbL."}, "elements": [{"type": "node", "id": 526427331, "lat": 46.5327419, "lon": 24.5592731, "tags": {"addr:city": "T\u00e2rgu Mure\u0219", "addr:housenumber": "15", "addr:postcode": "540374", "addr:street": "Bulevardul 1848", "amenity": "pharmacy", "dispensing": "yes", "drive_through": "no", "healthcare": "pharmacy", "name": "Farma Dan", "opening_hours": "Mo-Fr 08:00-21:00; Sa 08:00-14:00", "phone": "0265231233"}}, {"type": "node", "id": 526427406, "lat": 46.5351309, "lon": 24.5838806, "tags": {"addr:city": "T\u00e2rgu Mure\u0219", "addr:housenumber": "219", "addr:postcode": "540545", "addr:street": "Bulevardul 1 Decembrie 1918", "amenity": "pharmacy", "brand": "Dr. Max", "brand:wikidata": "Q56317371", "brand:wikipedia": "fr:Dr.Max", "dispensing": "yes", "drive_through": "no", "healthcare": "pharmacy", "name": "Dr. Max", "opening_hours": "Mo-Fr 08:00-20:00; Sa 08:00-15:00", "phone": "+40726301369", "website": "https://www.drmax.ro/"}}, {"type": "node", "id": 526427424, "lat": 46.5345899, "lon": 24.583925, "tags": {"amenity": "pharmacy", "dispensing": "yes", "healthcare": "pharmacy", "name": "Richter"}}, {"type": "node", "id": 526427427, "lat": 46.5346967, "lon": 24.5836706, "tags": {"amenity": "pharmacy", "dispensing": "yes", "healthcare": "pharmacy", "name": "Ropharma"}}, {"type": "node", "id": 526427436, "lat": 46.5347323, "lon": 24.5835858, "tags": {"addr:city": "T\u00e2rgu Mure\u0219", "addr:housenumber": "180", "addr:postcode": "540545", "addr:street": "Bulevardul 1 Decembrie 1918", "amenity": "pharmacy", "brand": "Farmacia Dona", "brand:wikidata": "Q12726919", "dispensing": "yes", "healthcare": "pharmacy", "is_in:city": "T\u00e2rgu Mure\u0219", "name": "Farmacia Dona", "opening_hours": "Mo-Fr 07:00-22:00; Sa-Su 09:00-22:00", "phone": "+40372401253", "shop": "convenience", "website": "https://farmaciiledona.ro"}}, {"type": "node", "id": 526427446, "lat": 46.5386937, "lon": 24.5747973, "tags": {"amenity": "pharmacy", "dispensing": "yes", "healthcare": "pharmacy", "name": "Sanvita"}}, {"type": "node", "id": 526427449, "lat": 46.5385696, "lon": 24.5704194, "tags": {"amenity": "pharmacy", "dispensing": "yes", "healthcare": "pharmacy", "name": "Salvia"}}, {"type": "node", "id": 526427457, "lat": 46.5391318, "lon": 24.5601256, "tags": {"amenity": "pharmacy", "dispensing": "yes", "healthcare": "pharmacy", "name": "Ropharma"}}, {"type": "node", "id": 530099107, "lat": 46.5448339, "lon": 24.5609621, "tags": {"addr:city": "T\u00e2rgu Mure\u0219", "addr:housenumber": "16", "addr:postcode": "540049", "addr:street": "Pia\u021ba Trandafirilor", "amenity": "pharmacy", "dispensing": "yes", "drive_through": "no", "healthcare": "pharmacy", "name": "B&B", "opening_hours": "Mo-Sa 08:00-22:00", "payment:cash": "yes", "payment:credit_cards": "yes", "payment:debit_cards": "yes"}}, {"type": "node", "id": 530099124, "lat": 46.5570213, "lon": 24.57592, "tags": {"amenity": "pharmacy", "healthcare": "pharmacy"}}, {"type": "node", "id": 537996880, "lat": 46.5361026, "lon": 24.5823099, "tags": {"addr:city": "T\u00e2rgu Mure\u0219", "addr:housenumber": "211", "addr:postcode": "540541", "addr:street": "Bulevardul 1 Decembrie 1918", "amenity": "pharmacy", "dispensing": "yes", "healthcare": "pharmacy", "name": "Farmacia Richter", "opening_hours": "Mo-Fr 08:00-20:00; Sa 09:00-14:00", "phone": "+40265254082", "website": "https://richter-farmacia.ro/"}}, {"type": "node", "id": 699794175, "lat": 46.5511778, "lon": 24.5737015, "tags": {"amenity": "pharmacy", "brand": "Catena", "brand:wikidata": "Q24035728", "brand:wikipedia": "ro:Farmacia Catena", "dispensing": "yes", "healthcare": "pharmacy", "name": "Catena"}}, {"type": "node", "id": 913137562, "lat": 46.5332263, "lon": 24.5887238, "tags": {"addr:city": "T\u00e2rgu Mure\u0219", "addr:housenumber": "251", "addr:postcode": "540509", "addr:street": "Bulevardul 1 Decembrie 1918", "amenity": "pharmacy", "brand": "Catena", "brand:wikidata": "Q24035728", "brand:wikipedia": "ro:Farmacia Catena", "dispensing": "yes", "healthcare": "pharmacy", "name": "Catena", "opening_hours": "Mo-Fr 08:00-21:00; Sa 08:00-15:00; Su 08:00-14:00", "phone": "+40743004152", "website": "https://www.catena.ro/"}}, {"type": "node", "id": 913162387, "lat": 46.5359172, "lon": 24.5918677, "tags": {"amenity": "pharmacy", "healthcare": "pharmacy"}}, {"type": "node", "id": 913166486, "lat": 46.5356772, "lon": 24.584221, "tags": {"amenity": "pharmacy", "healthcare": "pharmacy", "name": "Novofarm"}}, {"type": "node", "id": 1021159255, "lat": 46.5590165, "lon": 24.5816539, "tags": {"amenity": "pharmacy", "healthcare": "pharmacy"}}, {"type": "node", "id": 1219511213, "lat": 46.5544209, "lon": 24.569337, "tags": {"amenity": "pharmacy", "brand": "Dr. Max", "brand:wikidata": "Q56317371", "dispensing": "no", "healthcare": "pharmacy", "name": "Dr. Max", "opening_hours": "Mo-Fr 08:00-22:00; Sa 09:00-19:00", "operator": "Dr.Max", "phone": "+40-265-214091", "website": "https://www.drmax.ro"}}, {"type": "node", "id": 1431651550, "lat": 46.5394525, "lon": 24.559839, "tags": {"amenity": "pharmacy", "brand": "Catena", "brand:wikidata": "Q24035728", "brand:wikipedia": "ro:Farmacia Catena", "dispensing": "yes", "healthcare": "pharmacy", "name": "Catena"}}, {"type": "node", "id": 2304981660, "lat": 46.6517197, "lon": 24.6082429, "tags": {"amenity": "pharmacy", "healthcare": "pharmacy", "name": "Farmacie"}}, {"type": "node", "id": 2311701806, "lat": 46.7614712, "lon": 24.635902, "tags": {"amenity": "pharmacy", "name": "Farmacie"}}, {"type": "node", "id": 2316155645, "lat": 46.7788776, "lon": 24.6999181, "tags": {"amenity": "pharmacy", "brand": "Farmacia Dona", "brand:wikidata": "Q12726919", "healthcare": "pharmacy", "name": "Farmacia Dona"}}, {"type": "node", "id": 2318589423, "lat": 46.781545, "lon": 24.7017287, "tags": {"addr:housenumber": "40", "addr:street": "Pia\u021ba Petru Maior", "amenity": "pharmacy", "healthcare": "pharmacy"}}, {"type": "node", "id": 2443350178, "lat": 46.5332714, "lon": 24.5885197, "tags": {"addr:city": "T\u00e2rgu Mure\u0219", "addr:housenumber": "251", "addr:postcode": "540509", "addr:street": "Bulevardul 1 Decembrie 1918", "amenity": "pharmacy", "brand": "Dr. Max", "brand:wikidata": "Q56317371", "brand:wikipedia": "fr:Dr.Max", "dispensing": "yes", "healthcare": "pharmacy", "name": "Dr. Max", "opening_hours": "Mo-Fr 08:00-20:00; Sa 09:00-14:00", "phone": "+40799914648", "website": "https://www.drmax.ro/"}}, {"type": "node", "id": 2497259262, "lat": 46.4839754, "lon": 24.4575987}, {"type": "node", "id": 2497259282, "lat": 46.4840247, "lon": 24.4576392}, {"type": "node", "id": 2497259295, "lat": 46.4840503, "lon": 24.457408}, {"type": "node", "id": 2497259311, "lat": 46.4840995, "lon": 24.4574484}, {"type": "node", "id": 2548902968, "lat": 46.5306428, "lon": 24.5465039, "tags": {"amenity": "pharmacy", "brand": "Dr. Max", "brand:wikidata": "Q56317371", "dispensing": "no", "healthcare": "pharmacy", "name": "Dr. Max", "opening_hours": "Mo-Sa 08:00-22:00; Su 08:00-20:00", "operator": "Dr.Max", "phone": "+40-265-264425", "website": "https://www.drmax.ro"}}, {"type": "node", "id": 2548902969, "lat": 46.5309066, "lon": 24.5978888, "tags": {"amenity": "pharmacy", "brand": "Dr. Max", "brand:wikidata": "Q56317371", "dispensing": "no", "healthcare": "pharmacy", "name": "Dr. Max", "opening_hours": "Mo-Su 09:00-21:00;", "operator": "Dr.Max", "phone": "+40-745-160984", "website": "https://www.drmax.ro", "wheelchair": "limited"}}, {"type": "node", "id": 2548902970, "lat": 46.5377089, "lon": 24.5737156, "tags": {"amenity": "pharmacy", "brand": "Dr. Max", "brand:wikidata": "Q56317371", "dispensing": "no", "healthcare": "pharmacy", "name": "Dr. Max", "opening_hours": "Mo-Fr 08:00-22:00; Sa 08:00-18:00; Su 08:00-16:00", "operator": "Dr.Max", "phone": "+40-737-477218", "website": "https://www.drmax.ro"}}, {"type": "node", "id": 2632100295, "lat": 46.5344969, "lon": 24.5841465, "tags": {"amenity": "pharmacy", "brand": "Catena", "brand:wikidata": "Q24035728", "brand:wikipedia": "ro:Farmacia Catena", "healthcare": "pharmacy", "name": "Catena", "website": "https://www.catena.ro/"}}, {"type": "node", "id": 2752792379, "lat": 46.5376749, "lon": 24.5740145, "tags": {"addr:city": "T\u00e2rgu Mure\u0219", "amenity": "pharmacy", "brand:wikidata": "Q630125", "healthcare": "pharmacy", "name": "Richter", "name:ro": "Richter", "opening_hours": "Mo-Fr 08:00-20:00; Sa 08:00-14:00"}}, {"type": "node", "id": 3686067902, "lat": 46.5340956, "lon": 24.7987222, "tags": {"amenity": "pharmacy", "name": "Elixir", "source": "local knowledge"}}, {"type": "node", "id": 3767682253, "lat": 46.4326992, "lon": 24.8384773}, {"type": "node", "id": 3767682254, "lat": 46.4325869, "lon": 24.8384838}, {"type": "node", "id": 3767682255, "lat": 46.4325972, "lon": 24.8386314}, {"type": "node", "id": 3767682256, "lat": 46.4326932, "lon": 24.8386164}, {"type": "node", "id": 3767690957, "lat": 46.4326911, "lon": 24.8385648}, {"type": "node", "id": 3767690958, "lat": 46.4327031, "lon": 24.838563}, {"type": "node", "id": 3801477641, "lat": 46.5636526, "lon": 24.5482325, "tags": {"addr:housenumber": "92-94", "addr:street": "Strada Voinicenilor", "amenity": "pharmacy", "healthcare": "pharmacy", "name": "Farmacia Stelaria"}}, {"type": "node", "id": 3951944339, "lat": 46.5347963, "lon": 24.801206}, {"type": "node", "id": 3951944348, "lat": 46.5348866, "lon": 24.8011584}, {"type": "node", "id": 4314741754, "lat": 46.5761894, "lon": 24.554849, "tags": {"amenity": "pharmacy", "dispensing": "yes", "name": "Gyop\u00e1r", "phone": "+40-265-323416"}}, {"type": "node", "id": 4334988919, "lat": 46.640214, "lon": 24.5160537, "tags": {"addr:city": "Ceua\u0219u de C\u00e2mpie", "addr:street": "Principala", "amenity": "pharmacy", "name": "Farmacia Pasiflora"}}, {"type": "node", "id": 4734633465, "lat": 46.5354126, "lon": 24.578211, "tags": {"amenity": "pharmacy", "healthcare": "pharmacy", "name": "Ecofarmacia", "website": "https://www.ecofarmacia.ro/"}}, {"type": "node", "id": 4998553897, "lat": 46.5595774, "lon": 24.5474787, "tags": {"addr:city": "T\u00e2rgu Mure\u0219", "addr:housenumber": "38-40", "addr:neighbourhood": "Unirii", "addr:street": "Strada Decebal", "amenity": "pharmacy", "drive_through": "no", "healthcare": "pharmacy", "name": "Ropharma", "opening_hours": "Mo-Fr 08:00-20:00, Sa 09:00-14:00", "payment:app": "yes", "payment:cards": "yes", "payment:cash": "yes", "payment:contactless": "yes", "payment:credit_cards": "yes", "payment:cryptocurrencies": "yes", "payment:debit_cards": "yes", "payment:mastercard": "yes", "payment:telephone_cards": "yes", "payment:visa": "yes", "payment:visa_debit": "yes", "payment:visa_electron": "yes", "wheelchair": "yes"}}, {"type": "node", "id": 6705148781, "lat": 46.5723123, "lon": 24.5981415, "tags": {"addr:city": "S\u00e2ngeorgiu de Mure\u0219", "addr:housenumber": "132", "addr:postcode": "547530", "addr:street": "Strada Petki D\u00e1vid", "amenity": "pharmacy", "dispensing": "yes", "healthcare": "pharmacy", "name": "Zitcom (Alphega)"}}, {"type": "node", "id": 6705157888, "lat": 46.5720897, "lon": 24.5978216, "tags": {"addr:city": "S\u00e2ngeorgiu de Mure\u0219", "addr:housenumber": "128", "addr:postcode": "547530", "addr:street": "Strada Petki D\u00e1vid", "amenity": "pharmacy", "dispensing": "yes", "healthcare": "pharmacy", "name": "Primula"}}, {"type": "node", "id": 6852701189, "lat": 46.522522, "lon": 24.5335894, "tags": {"amenity": "pharmacy", "brand": "Catena", "brand:wikidata": "Q24035728", "dispensing": "yes", "healthcare": "pharmacy", "name": "Catena", "operator": "Catena"}}, {"type": "node", "id": 7537007199, "lat": 46.5280433, "lon": 24.5961819, "tags": {"amenity": "pharmacy", "brand": "Dr. Max", "brand:wikidata": "Q56317371", "dispensing": "yes", "healthcare": "pharmacy", "level": "0", "name": "Dr. Max", "operator": "Dr.Max", "website": "https://www.drmax.ro"}}, {"type": "node", "id": 7600055145, "lat": 46.4882839, "lon": 24.4630317, "tags": {"amenity": "pharmacy", "healthcare": "pharmacy"}}, {"type": "node", "id": 7704910780, "lat": 46.5020996, "lon": 24.4910721, "tags": {"amenity": "pharmacy", "healthcare": "pharmacy", "name": "Farmacia Sf. Laz\u0103r"}}, {"type": "node", "id": 8077901463, "lat": 46.5226481, "lon": 24.5325606, "tags": {"amenity": "pharmacy", "healthcare": "pharmacy", "name": "Richter"}}, {"type": "node", "id": 8086239862, "lat": 46.5373033, "lon": 24.5846136, "tags": {"addr:city": "T\u00e2rgu Mure\u0219", "addr:housenumber": "14", "addr:postcode": "540560", "addr:street": "Strada \u00cenfr\u0103\u021birii", "amenity": "pharmacy", "dispensing": "yes", "healthcare": "pharmacy", "name": "Farmacia Primula Gyogyszert\u00e1r", "opening_hours": "Mo-Su 08:00-21:00"}}, {"type": "node", "id": 8425211820, "lat": 46.5598322, "lon": 24.5477539, "tags": {"addr:city": "T\u00e2rgu Mure\u0219", "addr:housenumber": "42", "addr:neighbourhood": "Unirii", "addr:street": "Strada Decebal", "amenity": "pharmacy", "brand": "Help Net", "brand:wikidata": "Q12729923", "drive_through": "no", "healthcare": "pharmacy", "name": "Help Net", "wheelchair": "yes"}}, {"type": "node", "id": 8425211841, "lat": 46.5638969, "lon": 24.5481777, "tags": {"amenity": "pharmacy", "healthcare": "pharmacy"}}, {"type": "node", "id": 8545101156, "lat": 46.5370313, "lon": 24.5903105, "tags": {"addr:city": "T\u00e2rgu Mure\u0219", "amenity": "pharmacy", "healthcare": "pharmacy"}}, {"type": "node", "id": 8545101162, "lat": 46.5366742, "lon": 24.5910273, "tags": {"addr:city": "T\u00e2rgu Mure\u0219", "amenity": "pharmacy", "healthcare": "pharmacy", "name": "Medimfarm", "name:ro": "Medimfarm"}}, {"type": "node", "id": 9090943819, "lat": 46.5550653, "lon": 24.4721264, "tags": {"amenity": "pharmacy", "dispensing": "yes", "healthcare": "pharmacy"}}, {"type": "node", "id": 9481223133, "lat": 46.5301668, "lon": 24.5552414, "tags": {"addr:city": "T\u00e2rgu Mure\u0219", "addr:housenumber": "46A", "addr:postcode": "540429", "addr:street": "Bulevardul 1848", "amenity": "pharmacy", "dispensing": "yes", "drive_through": "no", "healthcare": "pharmacy", "name": "Farmacia Universit\u0103\u021bii", "opening_hours": "Mo-Fr 08:00-20:00, Sa 09:00-15:00, Su 10:00-13:00", "phone": "0799 888 818", "website": "https://farmaciauniversitatii.ro/"}}, {"type": "node", "id": 9481223143, "lat": 46.5289914, "lon": 24.5548559, "tags": {"addr:city": "T\u00e2rgu Mure\u0219", "addr:housenumber": "71", "addr:postcode": "540422", "addr:street": "Bulevardul 1848", "amenity": "pharmacy", "brand": "Dr. Max", "brand:wikidata": "Q56317371", "brand:wikipedia": "fr:Dr.Max", "dispensing": "yes", "drive_through": "no", "healthcare": "pharmacy", "name": "Dr. Max", "opening_hours": "Mo-Fr 08:00-20:00, Sa 09:00-17:00", "phone": "+40737477217", "website": "https://www.drmax.ro"}}, {"type": "node", "id": 9481223146, "lat": 46.5303915, "lon": 24.5565489, "tags": {"addr:city": "T\u00e2rgu Mure\u0219", "addr:housenumber": "37", "addr:postcode": "540405", "addr:street": "Bulevardul 1848", "amenity": "pharmacy", "dispensing": "yes", "drive_through": "no", "healthcare": "pharmacy", "name": "Ropharma", "opening_hours": "Mo-Fr 08:00-20:00; Sa 09:00-14:00", "payment:cash": "yes", "payment:credit_cards": "yes", "payment:debit_cards": "yes", "website": "https://ropharma.ro/"}}, {"type": "node", "id": 9481223149, "lat": 46.5314687, "lon": 24.5577111, "tags": {"addr:city": "T\u00e2rgu Mure\u0219", "addr:housenumber": "23B", "addr:postcode": "540375", "addr:street": "Bulevardul 1848", "amenity": "pharmacy", "dispensing": "yes", "drive_through": "no", "healthcare": "pharmacy", "name": "Medimfarm", "opening_hours": "Mo-Fr 08:00-20:00; Sa 09:00-14:00", "phone": "+40737067395", "website": "https://www.medimfarm.ro/"}}, {"type": "node", "id": 9481223151, "lat": 46.5320625, "lon": 24.5585831, "tags": {"addr:city": "T\u00e2rgu Mure\u0219", "addr:housenumber": "23", "addr:postcode": "540373", "addr:street": "Bulevardul 1848", "amenity": "pharmacy", "brand": "Catena", "brand:wikidata": "Q24035728", "brand:wikipedia": "ro:Farmacia Catena", "dispensing": "yes", "drive_through": "no", "healthcare": "pharmacy", "name": "Catena", "opening_hours": "Mo-Fr 08:00-21:00; Sa 08:00-16:00; Su 08:00-13:00", "phone": "+40741106632", "website": "https://www.catena.ro/"}}, {"type": "node", "id": 9481223161, "lat": 46.5564773, "lon": 24.5625644, "tags": {"addr:city": "T\u00e2rgu Mure\u0219", "addr:housenumber": "57", "addr:postcode": "540650", "addr:street": "Aleea Carpa\u021bi", "amenity": "pharmacy", "dispensing": "yes", "drive_through": "no", "healthcare": "pharmacy", "name": "Millefolia", "opening_hours": "Mo-Fr 08:00-20:00; Sa 09:00-14:00"}}, {"type": "node", "id": 9481819805, "lat": 46.5370394, "lon": 24.5810941, "tags": {"addr:city": "T\u00e2rgu Mure\u0219", "addr:housenumber": "197", "addr:postcode": "540541", "addr:street": "Bulevardul 1 Decembrie 1918", "amenity": "pharmacy", "dispensing": "yes", "healthcare": "pharmacy", "name": "Bioplant", "opening_hours": "Mo-Fr 09:00-20:00; Sa 09:00-14:00", "phone": "+40265241076", "website": "https://www.bioplant.com.ro/"}}, {"type": "node", "id": 9483865468, "lat": 46.5325471, "lon": 24.5740123, "tags": {"addr:city": "T\u00e2rgu Mure\u0219", "addr:housenumber": "54", "addr:postcode": "540494", "addr:street": "Bulevardul Pandurilor", "amenity": "pharmacy", "dispensing": "yes", "healthcare": "pharmacy", "name": "Eco Farmacia"}}, {"type": "node", "id": 9483865474, "lat": 46.5333544, "lon": 24.5817402, "tags": {"addr:city": "T\u00e2rgu Mure\u0219", "addr:housenumber": "100", "addr:postcode": "540680", "addr:street": "Bulevardul Pandurilor", "amenity": "pharmacy", "dispensing": "yes", "healthcare": "pharmacy", "name": "Naturalia", "opening_hours": "Mo-Fr 08:00-21:00; Sa 08:00-14:00; Su 09:00-14:00"}}, {"type": "node", "id": 9484271488, "lat": 46.533452, "lon": 24.5495332, "tags": {"addr:city": "T\u00e2rgu Mure\u0219", "addr:housenumber": "1", "addr:postcode": "540610", "addr:street": "Pia\u021ba G\u0103rii", "amenity": "pharmacy", "dispensing": "yes", "healthcare": "pharmacy", "name": "Farmatop", "opening_hours": "Mo-Fr 08:00-20:00; Sa-Su 08:00-14:00", "operator": "S.C. Farmatop S.R.L."}}, {"type": "node", "id": 9484271489, "lat": 46.5335749, "lon": 24.5506532, "tags": {"addr:city": "T\u00e2rgu Mure\u0219", "addr:postcode": "540147", "addr:street": "Pia\u021ba G\u0103rii", "amenity": "pharmacy", "dispensing": "yes", "healthcare": "pharmacy", "name": "Ropharma", "opening_hours": "Mo-Fr 08:00-20:00; Sa 08:00-14:00"}}, {"type": "node", "id": 9484271492, "lat": 46.5512607, "lon": 24.5648353, "tags": {"addr:city": "T\u00e2rgu Mure\u0219", "addr:housenumber": "21", "addr:postcode": "540327", "addr:street": "Pia\u021ba M\u0103r\u0103\u0219e\u0219ti", "amenity": "pharmacy", "dispensing": "yes", "healthcare": "pharmacy", "name": "Eco Farmacia", "opening_hours": "Mo-Fr 08:00-20:00"}}, {"type": "node", "id": 9487070757, "lat": 46.5459443, "lon": 24.5622449, "tags": {"addr:city": "T\u00e2rgu Mure\u0219", "addr:housenumber": "7", "addr:postcode": "540049", "addr:street": "Pia\u021ba Trandafirilor", "amenity": "pharmacy", "dispensing": "yes", "drive_through": "no", "healthcare": "pharmacy", "name": "Ropharma", "opening_hours": "Mo-Fr 08:00-20:00; Sa 09:00-14:00", "payment:cash": "yes", "payment:credit_cards": "yes", "payment:debit_cards": "yes", "website": "https://ropharma.ro/"}}, {"type": "node", "id": 9487277796, "lat": 46.5407834, "lon": 24.558003, "tags": {"addr:city": "T\u00e2rgu Mure\u0219", "addr:housenumber": "18", "addr:postcode": "540029", "addr:street": "Pia\u021ba Victoriei", "amenity": "pharmacy", "brand": "Catena", "brand:wikidata": "Q24035728", "brand:wikipedia": "ro:Farmacia Catena", "dispensing": "yes", "drive_through": "no", "healthcare": "pharmacy", "name": "Catena", "opening_hours": "Mo-Fr 08:00-21:00; Sa 09:00-16:00; Su 09:00-15:00", "payment:cash": "yes", "payment:credit_cards": "yes", "payment:debit_cards": "yes", "phone": "+40265265120", "website": "https://www.catena.ro/"}}, {"type": "node", "id": 9487277801, "lat": 46.555696, "lon": 24.5720556, "tags": {"addr:city": "T\u00e2rgu Mure\u0219", "addr:housenumber": "16", "addr:postcode": "540109", "addr:street": "Bulevardul 22 Decembrie 1989", "amenity": "pharmacy", "dispensing": "yes", "drive_through": "no", "healthcare": "pharmacy", "name": "Sanicom", "opening_hours": "Mo-Fr 08:00-20:00; Sa 08:00-15:00", "payment:cash": "yes", "payment:credit_cards": "yes", "payment:debit_cards": "yes", "phone": "+40365407416", "website": "http://www.sanicom.ro/"}}, {"type": "node", "id": 9487277812, "lat": 46.5584027, "lon": 24.5772512, "tags": {"addr:city": "T\u00e2rgu Mure\u0219", "addr:housenumber": "42", "addr:postcode": "540136", "addr:street": "Bulevardul 22 Decembrie 1989", "amenity": "pharmacy", "dispensing": "yes", "drive_through": "no", "healthcare": "pharmacy", "name": "Selena", "opening_hours": "Mo-Fr 08:00-20:00; Sa 09:00-15:00", "payment:cash": "yes", "payment:credit_cards": "yes", "payment:debit_cards": "yes", "phone": "+40265218429"}}, {"type": "node", "id": 10043014334, "lat": 46.5354804, "lon": 24.8024452}, {"type": "node", "id": 10043014335, "lat": 46.5353519, "lon": 24.8025516}, {"type": "node", "id": 10043014336, "lat": 46.5353983, "lon": 24.8026294}, {"type": "node", "id": 10043014337, "lat": 46.5355161, "lon": 24.8025282}, {"type": "node", "id": 10043014343, "lat": 46.5350166, "lon": 24.8010943}, {"type": "node", "id": 10043014344, "lat": 46.5350412, "lon": 24.801202}, {"type": "node", "id": 10043014345, "lat": 46.5349435, "lon": 24.8012493}, {"type": "node", "id": 10043014346, "lat": 46.5349529, "lon": 24.8012905}, {"type": "node", "id": 10043014347, "lat": 46.5348243, "lon": 24.8013526}, {"type": "node", "id": 10148212726, "lat": 46.7804127, "lon": 24.7000964, "tags": {"addr:city": "Reghin", "addr:housenumber": "5", "addr:postcode": "545300", "addr:street": "Pia\u021ba Petru Maior", "amenity": "pharmacy", "dispensing": "yes", "drive_through": "no", "healthcare": "pharmacy", "name": "Medifarm"}}, {"type": "node", "id": 10148282214, "lat": 46.7822982, "lon": 24.7020873, "tags": {"addr:city": "Reghin", "addr:housenumber": "34", "addr:postcode": "545300", "addr:street": "Pia\u021ba Petru Maior", "amenity": "pharmacy", "brand": "Catena", "brand:wikidata": "Q24035728", "dispensing": "yes", "drive_through": "no", "healthcare": "pharmacy", "name": "Catena", "opening_hours": "Mo-Fr 08:00-21:00; Sa 08:00-15:00; Su 08:00-14:00; PH off"}}, {"type": "node", "id": 10219976391, "lat": 46.7791545, "lon": 24.7125497, "tags": {"addr:city": "Reghin", "addr:housenumber": "23-25", "addr:postcode": "545300", "addr:street": "Strada G\u0103rii", "amenity": "pharmacy", "brand": "Dr. Max", "brand:wikidata": "Q56317371", "dispensing": "yes", "drive_through": "no", "healthcare": "pharmacy", "name": "Dr. Max"}}, {"type": "node", "id": 10230620493, "lat": 46.5327633, "lon": 24.5593011, "tags": {"addr:city": "T\u00e2rgu Mure\u0219", "addr:housenumber": "15", "addr:postcode": "540374", "addr:street": "Bulevardul 1848", "amenity": "pharmacy", "dispensing": "yes", "drive_through": "no", "healthcare": "pharmacy", "name": "Farmacia Dr. Max", "opening_hours": "Mo-Fr 08:00-20:00; Sa 08:00-14:00", "phone": "0725826078", "website": "https://www.drmax.ro/"}}, {"type": "node", "id": 10230620507, "lat": 46.5314249, "lon": 24.5568118, "tags": {"addr:city": "T\u00e2rgu Mure\u0219", "addr:housenumber": "40-42", "addr:postcode": "540429", "addr:street": "Bulevardul 1848", "amenity": "pharmacy", "dispensing": "yes", "drive_through": "no", "healthcare": "pharmacy", "name": "Farmacia Richter", "opening_hours": "Mo-Fr 08:00-20:00; Sa 09:00-15:00", "phone": "0265220988", "website": "https://richter-farmacia.ro/"}}, {"type": "node", "id": 10230620513, "lat": 46.5394393, "lon": 24.5628475, "tags": {"addr:city": "T\u00e2rgu Mure\u0219", "addr:housenumber": "39", "addr:postcode": "540061", "addr:street": "Bulevardul 1 Decembrie 1918", "amenity": "pharmacy", "brand": "Help Net", "brand:wikidata": "Q12729923", "dispensing": "yes", "drive_through": "no", "healthcare": "pharmacy", "name": "Help Net", "opening_hours": "24/7", "phone": "0732.500131", "website": "https://www.helpnet.ro/"}}, {"type": "node", "id": 10538265620, "lat": 46.5531339, "lon": 24.5746744, "tags": {"addr:city": "T\u00e2rgu Mure\u0219", "addr:housenumber": "33", "addr:postcode": "540095", "addr:street": "Strada Nicolae Grigorescu", "amenity": "pharmacy", "dispensing": "yes", "drive_through": "no", "healthcare": "pharmacy", "name": "Farmacia Universit\u0103\u021bii", "opening_hours": "Mo-Fr 08:00-21:00; Sa 09:00-16:00", "phone": "+40265210808", "website": "https://zenpharma.ro"}}, {"type": "node", "id": 10565156291, "lat": 46.5477509, "lon": 24.5640129, "tags": {"addr:city": "T\u00e2rgu Mure\u0219", "addr:housenumber": "5", "addr:postcode": "540043", "addr:street": "Strada Revolu\u021biei", "amenity": "pharmacy", "dispensing": "yes", "drive_through": "no", "healthcare": "pharmacy", "name": "Farmacia Royal", "opening_hours": "Mo-Fr 08:00-20:00; Sa 09:00-17:00", "payment:cash": "yes", "payment:credit_cards": "yes", "payment:debit_cards": "yes", "phone": "+40265311602"}}, {"type": "node", "id": 11150040646, "lat": 46.7823005, "lon": 24.6976492, "tags": {"addr:housenumber": "1", "addr:street": "Rodnei", "amenity": "pharmacy", "healthcare": "pharmacy", "name": "VOLSCENS PRODIMPEX", "phone": "0265 513 283"}}, {"type": "node", "id": 11190371264, "lat": 46.778402, "lon": 24.7003958, "tags": {"amenity": "pharmacy", "healthcare": "pharmacy", "name": "ROPHARMA"}}, {"type": "node", "id": 12829155161, "lat": 46.7715754, "lon": 24.7029563, "tags": {"addr:city": "Reghin", "addr:housenumber": "32", "addr:street": "Strada Iernu\u021beni", "amenity": "pharmacy", "name": "Horvath Pharmacy", "opening_hours": "Mo-Fr 08:00-20:00, Sa 08:00-13:00, Sa Closed", "phone": "0265511772", "website": "https://www.farmacia-horvath.ro/"}}, {"type": "way", "id": 242212931, "nodes": [2497259311, 2497259282, 2497259262, 2497259295, 2497259311], "tags": {"amenity": "pharmacy", "brand": "Help Net", "brand:wikidata": "Q12729923", "building": "yes", "building:levels": "1", "healthcare": "pharmacy", "name": "Help Net"}}, {"type": "way", "id": 373263991, "nodes": [3767682253, 3767682254, 3767682255, 3767682256, 3767690957, 3767690958, 3767682253], "tags": {"addr:city": "Erd\u0151szentgy\u00f6rgy", "addr:street": "Strada Gheorghe Doja", "amenity": "pharmacy", "building": "yes", "healthcare": "pharmacy", "name": "Helleborus"}}, {"type": "way", "id": 1096749666, "nodes": [10043014334, 10043014335, 10043014336, 10043014337, 10043014334], "tags": {"amenity": "pharmacy", "building": "yes", "dispensing": "yes", "healthcare": "pharmacy", "name": "Pharmacon"}}, {"type": "way", "id": 1096749668, "nodes": [10043014343, 10043014344, 10043014345, 10043014346, 10043014347, 3951944339, 3951944348, 10043014343], "tags": {"amenity": "pharmacy", "building": "yes", "dispensing": "yes", "healthcare": "pharmacy"}}]}