{"version": 0.6, "generator": "Overpass API 0.7.62.8 e802775f", "osm3s": {"timestamp_osm_base": "2025-10-06T07:54:35Z", "copyright": "The data included in this document is from www.openstreetmap.org. The data is made available under ODbL."}, "elements": [{"type": "node", "id": 1156323086, "lat": 47.4766449, "lon": 18.5174214, "tags": {"amenity": "pharmacy", "dispensing": "no", "name": "Aranysas patika"}}, {"type": "node", "id": 1253036793, "lat": 47.5793522, "lon": 18.3938818, "tags": {"amenity": "pharmacy", "healthcare": "pharmacy", "name": "Szent Borb\u00e1la Patika"}}, {"type": "node", "id": 1576242992, "lat": 47.2014266, "lon": 18.1318465, "tags": {"addr:city": "V\u00e1rpalota", "addr:housenumber": "10", "addr:postcode": "8100", "addr:street": "Bakony utca", "amenity": "pharmacy", "contact:email": "tesidombipatika@chello.hu", "contact:facebook": "https://www.facebook.com/borostyanvarpalota/", "contact:phone": "+36 88 472 017", "dispensing": "no", "healthcare": "pharmacy", "name": "Borosty\u00e1n Gy\u00f3gyszert\u00e1r", "opening_hours": "Mo-Fr 07:30-18:30; Sa 08:00-12:00", "wheelchair": "yes"}}, {"type": "node", "id": 1577171712, "lat": 47.1966118, "lon": 18.1391597, "tags": {"addr:city": "V\u00e1rpalota", "addr:housenumber": "7", "addr:postcode": "8100", "addr:street": "Veszpr\u00e9mi \u00fat", "amenity": "pharmacy", "contact:phone": "+36 88 582 740", "dispensing": "no", "healthcare": "pharmacy", "internet_access:ssid": "SzentAnna_Patika", "name": "Szent Anna Gy\u00f3gyszert\u00e1r", "opening_hours": "Mo-Fr 07:30-19:00; Sa 07:00-12:00", "wheelchair": "yes"}}, {"type": "node", "id": 1774430554, "lat": 47.6632347, "lon": 18.3242441, "tags": {"amenity": "pharmacy", "healthcare": "pharmacy", "name": "Castanea Patika", "opening_hours": "Mo-Fr 08:00-16:30"}}, {"type": "node", "id": 1775040922, "lat": 47.6561304, "lon": 18.3211831, "tags": {"addr:city": "Tata", "addr:housenumber": "2", "addr:postcode": "2890", "addr:street": "Mikov\u00e9nyi S\u00e1muel utca", "amenity": "pharmacy", "contact:facebook": "https://facebook.com/angyalpatika", "healthcare": "pharmacy", "name": "Angyal patika", "note": "\u00dcGYELET: V: 20:00-22:00", "opening_hours": "Mo-Su 08:00-20:00", "wheelchair": "yes", "wheelchair:description": "Bej\u00e1rat: 110 cm L\u00e9pcs\u0151: 3x15 cm sz.sz.: 2,05 m R\u00e1mpa: 5% alatti lejt\u00e9s, sz.sz.: 1,20 m Akad\u00e1lymentes pult: 0,75m magas, 25 cm sz\u00e9les, t\u00e9rdszabad Padl\u00f3burkolat t\u00fckr\u00f6z\u0151dik"}}, {"type": "node", "id": 1975871804, "lat": 47.5844565, "lon": 18.401394, "tags": {"amenity": "pharmacy", "name": "Benu", "name:it": "Farmacia", "toilets:wheelchair": "yes", "wheelchair": "yes"}}, {"type": "node", "id": 1975877531, "lat": 47.589266, "lon": 18.3687232, "tags": {"addr:postcode": "2800", "addr:street": "Vereb\u00e9ly L\u00e1szl\u00f3 utca", "amenity": "pharmacy", "name": "Arany K\u00edgy\u00f3"}}, {"type": "node", "id": 2114372796, "lat": 47.3146706, "lon": 18.5482285, "tags": {"amenity": "pharmacy", "healthcare": "pharmacy"}}, {"type": "node", "id": 2114372798, "lat": 47.3924652, "lon": 18.4648547, "tags": {"amenity": "pharmacy", "name": "V\u00e9rtes gy\u00f3gyszert\u00e1r", "opening_hours": "Mo-Fr 08:00-17:00; Sa 08:00-12:00; PH off", "phone": "+36 22 254 379", "website": "https://www.almapatika.hu/"}}, {"type": "node", "id": 2114372813, "lat": 47.3930663, "lon": 18.4609749, "tags": {"amenity": "pharmacy", "healthcare": "pharmacy", "name": "Pax gy\u00f3gyszert\u00e1r"}}, {"type": "node", "id": 2114435621, "lat": 47.3172075, "lon": 18.4149982, "tags": {"addr:city": "Z\u00e1moly", "addr:housenumber": "41", "addr:postcode": "8081", "addr:street": "Kossuth utca", "amenity": "pharmacy", "contact:phone": "+36 22 354 150", "healthcare": "pharmacy", "name": "Pax patika fi\u00f3kgy\u00f3gyszert\u00e1r", "opening_hours": "Mo 14:00-17:00; Tu,Th,Fr 09:00-12:00; We 13:00-16:00"}}, {"type": "node", "id": 2357762361, "lat": 47.5797177, "lon": 18.3916601, "tags": {"amenity": "pharmacy", "healthcare": "pharmacy", "name": "Hunyadi Gy\u00f3gyszert\u00e1r"}}, {"type": "node", "id": 2434385848, "lat": 47.4959748, "lon": 18.3210819, "tags": {"amenity": "pharmacy"}}, {"type": "node", "id": 2440309604, "lat": 47.6501291, "lon": 18.31717, "tags": {"amenity": "pharmacy", "dispensing": "no", "healthcare": "pharmacy"}}, {"type": "node", "id": 2449989572, "lat": 47.6448536, "lon": 18.3176681, "tags": {"addr:city": "Tata", "addr:housenumber": "3", "addr:postcode": "2890", "addr:street": "Fazekas utca", "amenity": "pharmacy", "healthcare": "pharmacy", "name": "Capricornus patika", "wheelchair": "yes"}}, {"type": "node", "id": 2607014032, "lat": 47.5130833, "lon": 18.4998687, "tags": {"amenity": "pharmacy", "dispensing": "yes", "healthcare": "pharmacy", "name": "Patika"}}, {"type": "node", "id": 2831601225, "lat": 47.6209222, "lon": 18.3805324, "tags": {"addr:postcode": "2837", "addr:street": "Ady Endre utca", "amenity": "pharmacy", "name": "Smaragd Gy\u00f3gyszert\u00e1r", "name:sk": "Lek\u00e1ren", "opening_hours": "Mo-Fr 08:00-13:00, 13:30-16:00"}}, {"type": "node", "id": 3187699483, "lat": 47.5223533, "lon": 18.309177}, {"type": "node", "id": 3187699486, "lat": 47.5224462, "lon": 18.308879}, {"type": "node", "id": 3187699489, "lat": 47.5224289, "lon": 18.3092225}, {"type": "node", "id": 3187699494, "lat": 47.5225123, "lon": 18.3089189}, {"type": "node", "id": 3470067913, "lat": 47.560181, "lon": 18.411334, "tags": {"amenity": "pharmacy", "name": "Evital gy\u00f3gyszert\u00e1r", "name:it": "Evital Gy\u00f3gyszert\u00e1r", "source": "turistautak.hu", "source:date": "2011-09-03", "url": "http://turistautak.hu/poi.php?id=72004"}}, {"type": "node", "id": 3470068591, "lat": 47.602067, "lon": 18.370705, "tags": {"addr:postcode": "2800", "addr:street": "Kazinczy Ferenc utca", "amenity": "pharmacy", "healthcare": "pharmacy", "name": "Kertv\u00e1rosi patika", "source": "turistautak.hu", "source:date": "2011-09-03", "url": "http://turistautak.hu/poi.php?id=32114"}}, {"type": "node", "id": 3470096821, "lat": 47.501945, "lon": 18.139847, "tags": {"amenity": "pharmacy", "healthcare": "pharmacy", "name": "Alexir gy\u00f3gyszert\u00e1r", "source": "turistautak.hu", "source:date": "2011-09-03", "url": "http://turistautak.hu/poi.php?id=51410"}}, {"type": "node", "id": 3474939305, "lat": 47.293388, "lon": 18.264548, "tags": {"amenity": "pharmacy", "healthcare": "pharmacy", "source": "turistautak.hu", "source:date": "2011-06-25", "url": "http://turistautak.hu/poi.php?id=97466"}}, {"type": "node", "id": 3474939322, "lat": 47.318508, "lon": 18.08554, "tags": {"amenity": "pharmacy", "source": "turistautak.hu", "source:date": "2011-06-25", "url": "http://turistautak.hu/poi.php?id=6721"}}, {"type": "node", "id": 3487700798, "lat": 47.4884665, "lon": 18.3167378, "tags": {"amenity": "pharmacy", "name": "Szent Gr\u00e1l patika", "source": "turistautak.hu", "source:date": "2012-01-10", "url": "http://turistautak.hu/poi.php?id=131829"}}, {"type": "node", "id": 4375904765, "lat": 47.5019021, "lon": 18.0278847}, {"type": "node", "id": 4375904766, "lat": 47.5017972, "lon": 18.0279373}, {"type": "node", "id": 4375904767, "lat": 47.5016673, "lon": 18.0277666}, {"type": "node", "id": 4389799982, "lat": 47.5009487, "lon": 18.0241194, "tags": {"amenity": "pharmacy", "brand": "Alma Gy\u00f3gyszert\u00e1r", "brand:website": "https://almapatika.hu", "brand:wikidata": "Q105626221", "healthcare": "pharmacy", "name": "Alma Gy\u00f3gyszert\u00e1r"}}, {"type": "node", "id": 4459138689, "lat": 47.2645764, "lon": 18.2768936, "tags": {"amenity": "pharmacy", "healthcare": "pharmacy"}}, {"type": "node", "id": 4640533039, "lat": 47.5018538, "lon": 18.0276732}, {"type": "node", "id": 5052949542, "lat": 47.4766023, "lon": 18.5172822}, {"type": "node", "id": 5052949543, "lat": 47.4767354, "lon": 18.5174879}, {"type": "node", "id": 5052949544, "lat": 47.4767915, "lon": 18.5174083}, {"type": "node", "id": 5052949545, "lat": 47.4766585, "lon": 18.5172027}, {"type": "node", "id": 5300650702, "lat": 47.2009996, "lon": 18.1409088, "tags": {"amenity": "pharmacy", "healthcare": "pharmacy"}}, {"type": "node", "id": 5345616429, "lat": 47.3677739, "lon": 18.0278472, "tags": {"amenity": "pharmacy", "healthcare": "pharmacy", "name": "M\u00e1lyva Gy\u00f3gyszert\u00e1r"}}, {"type": "node", "id": 5345616430, "lat": 47.368595, "lon": 18.0255191, "tags": {"amenity": "pharmacy", "healthcare": "pharmacy", "name": "M\u00e1lyva gy\u00f3gyszert\u00e1r"}}, {"type": "node", "id": 5670733497, "lat": 47.5777195, "lon": 18.3890058, "tags": {"addr:city": "Tatab\u00e1nya", "addr:housenumber": "404", "addr:postcode": "2800", "addr:street": "B\u00e1nhidai lak\u00f3telep", "amenity": "pharmacy", "brand": "Alma Gy\u00f3gyszert\u00e1r", "brand:website": "https://almapatika.hu", "brand:wikidata": "Q105626221", "dispensing": "yes", "healthcare": "pharmacy", "name": "Alma Gy\u00f3gyszert\u00e1r", "opening_hours": "Mo-Fr 08:00-17:00"}}, {"type": "node", "id": 6057146654, "lat": 47.5491083, "lon": 18.3326547}, {"type": "node", "id": 6057146655, "lat": 47.5490154, "lon": 18.3327875}, {"type": "node", "id": 6057146656, "lat": 47.5489333, "lon": 18.3326614}, {"type": "node", "id": 6057146657, "lat": 47.5490163, "lon": 18.3325428}, {"type": "node", "id": 6057146658, "lat": 47.5489603, "lon": 18.3324568}, {"type": "node", "id": 6057146659, "lat": 47.549024, "lon": 18.3323658}, {"type": "node", "id": 6057146660, "lat": 47.5491094, "lon": 18.332497}, {"type": "node", "id": 6057146661, "lat": 47.5490556, "lon": 18.3325739}, {"type": "node", "id": 6987720598, "lat": 47.575922, "lon": 18.4074279, "tags": {"addr:city": "Tatab\u00e1nya", "addr:housenumber": "9", "addr:postcode": "2800", "addr:street": "Kod\u00e1ly Zolt\u00e1n t\u00e9r", "amenity": "pharmacy", "dispensing": "yes", "entrance": "yes", "healthcare": "pharmacy", "name": "Aries Patika"}}, {"type": "node", "id": 7089400463, "lat": 47.5833893, "lon": 18.3983646, "tags": {"amenity": "pharmacy", "healthcare": "pharmacy", "name": "Smaragd Gy\u00f3gyszert\u00e1r"}}, {"type": "node", "id": 7091797279, "lat": 47.5808067, "lon": 18.3910114, "tags": {"amenity": "pharmacy", "healthcare": "pharmacy", "name": "PatikaPlus Gy\u00f3gyszert\u00e1r"}}, {"type": "node", "id": 7091797281, "lat": 47.5832889, "lon": 18.3880851, "tags": {"amenity": "pharmacy", "name": "Eg\u00e9szs\u00e9g Patika"}}, {"type": "node", "id": 7223153635, "lat": 47.5730461, "lon": 18.406823, "tags": {"addr:city": "Tatab\u00e1nya", "addr:housenumber": "504", "addr:postcode": "2800", "addr:street": "S\u00e1rberki lak\u00f3telep", "amenity": "pharmacy", "branch": "Verb\u00e9na Gy\u00f3gyszert\u00e1r", "brand": "Szimpatika", "brand:wikidata": "Q105626428", "healthcare": "pharmacy", "name": "Szimpatika"}}, {"type": "node", "id": 7628344648, "lat": 47.3715542, "lon": 18.2147464}, {"type": "node", "id": 7628344649, "lat": 47.3714709, "lon": 18.2148369}, {"type": "node", "id": 7628344650, "lat": 47.3713739, "lon": 18.2146397}, {"type": "node", "id": 7628344651, "lat": 47.3714544, "lon": 18.2145543}, {"type": "node", "id": 8434119527, "lat": 47.6508234, "lon": 18.3249981, "tags": {"amenity": "pharmacy", "dispensing": "yes", "healthcare": "pharmacy", "name": "T\u00f3v\u00e1rosi Gy\u00f3gyszert\u00e1r"}}, {"type": "node", "id": 8434260438, "lat": 47.6467962, "lon": 18.3609762, "tags": {"addr:city": "Baj", "addr:housenumber": "23", "addr:postcode": "2836", "addr:street": "Pet\u0151fi S\u00e1ndor utca", "amenity": "pharmacy", "contact:phone": "+36 34 488 707", "dispensing": "yes", "drive_through": "no", "healthcare": "pharmacy", "name": "Tilla Patika", "opening_hours": "Mo-Th 08:00-12:00,13:00-17:00; Fr 08:00-13:00", "payment:cash": "yes", "payment:contactless": "yes", "payment:mastercard": "yes", "payment:visa": "yes", "wheelchair": "limited"}}, {"type": "node", "id": 9020411792, "lat": 47.3745416, "lon": 18.57969, "tags": {"addr:city": "V\u00e9rtesacsa", "addr:housenumber": "58", "addr:postcode": "8089", "addr:street": "V\u00f6r\u00f6smarty Mih\u00e1ly utca", "amenity": "pharmacy", "contact:phone": "+36 22 353 143", "description": "C\u00c9GT.: Dr. Burgetti", "healthcare": "pharmacy", "name": "Kazay Gy\u00f3gyszert\u00e0r", "opening_hours": "Mo 09:00-16:00,18:00-22:00; Tu 06:00-08:00,08:00-14:00; Th 11:00-18:00,18:00-22:00; Fr 06:00-08:00,08:00-14:00"}}, {"type": "node", "id": 10242465802, "lat": 47.5017724, "lon": 18.0278288}, {"type": "node", "id": 10242465803, "lat": 47.5016908, "lon": 18.0278696}, {"type": "node", "id": 10246411649, "lat": 47.2427388, "lon": 18.2997194, "tags": {"amenity": "pharmacy", "dispensing": "yes", "drive_through": "no", "healthcare": "pharmacy"}}, {"type": "node", "id": 11239772209, "lat": 47.4914072, "lon": 18.248353}, {"type": "node", "id": 11829894551, "lat": 47.6105677, "lon": 18.2109983}, {"type": "node", "id": 11829894552, "lat": 47.6105548, "lon": 18.2109566}, {"type": "node", "id": 11829894553, "lat": 47.6104581, "lon": 18.2109025}, {"type": "node", "id": 11829894554, "lat": 47.6104876, "lon": 18.2108823}, {"type": "node", "id": 11829894559, "lat": 47.610467, "lon": 18.2108162}, {"type": "node", "id": 11829894560, "lat": 47.6105019, "lon": 18.2110433}, {"type": "node", "id": 11829894561, "lat": 47.6106512, "lon": 18.2108907}, {"type": "node", "id": 11829894562, "lat": 47.6105998, "lon": 18.2107253}, {"type": "node", "id": 11911793742, "lat": 47.4914034, "lon": 18.2483775}, {"type": "node", "id": 11911793743, "lat": 47.4915101, "lon": 18.2484141}, {"type": "node", "id": 11911793744, "lat": 47.4913028, "lon": 18.2483172}, {"type": "node", "id": 11911793745, "lat": 47.4913182, "lon": 18.2482186}, {"type": "node", "id": 11911793746, "lat": 47.4915294, "lon": 18.248291}, {"type": "node", "id": 11930203665, "lat": 47.5224193, "lon": 18.308937}, {"type": "node", "id": 11930203666, "lat": 47.5224287, "lon": 18.3089427}, {"type": "node", "id": 12662600585, "lat": 47.3724808, "lon": 18.2077744}, {"type": "node", "id": 12662600586, "lat": 47.3723914, "lon": 18.2079006}, {"type": "node", "id": 12662600587, "lat": 47.3725561, "lon": 18.2081543}, {"type": "node", "id": 12662600588, "lat": 47.3725867, "lon": 18.2081481}, {"type": "node", "id": 12662600589, "lat": 47.3726378, "lon": 18.2080165}, {"type": "node", "id": 12662600590, "lat": 47.3725399, "lon": 18.2078659}, {"type": "node", "id": 12662600592, "lat": 47.3724505, "lon": 18.207992}, {"type": "way", "id": 312862646, "nodes": [3187699494, 3187699489, 3187699483, 11930203665, 11930203666, 3187699486, 3187699494], "tags": {"amenity": "pharmacy", "building": "yes", "healthcare": "pharmacy", "name": "Szent M\u00e1rk gy\u00f3gyszert\u00e1r", "opening_hours": "Mo-Fr 08:00-18:00; Sa 08:00-12:00"}}, {"type": "way", "id": 439914206, "nodes": [4640533039, 4375904765, 4375904766, 10242465802, 10242465803, 4375904767, 4640533039], "tags": {"amenity": "pharmacy", "building": "yes", "healthcare": "pharmacy", "name": "BENU Ez\u00fcstkehely Gy\u00f3gyszert\u00e1r"}}, {"type": "way", "id": 517881715, "nodes": [5052949542, 5052949543, 5052949544, 5052949545, 5052949542], "tags": {"amenity": "pharmacy", "building": "yes"}}, {"type": "way", "id": 643724570, "nodes": [6057146654, 6057146655, 6057146656, 6057146657, 6057146658, 6057146659, 6057146660, 6057146661, 6057146654], "tags": {"amenity": "pharmacy", "building": "yes", "dispensing": "yes", "healthcare": "pharmacy"}}, {"type": "way", "id": 816762836, "nodes": [7628344648, 7628344649, 7628344650, 7628344651, 7628344648], "tags": {"amenity": "pharmacy", "building": "yes", "dispensing": "yes", "healthcare": "pharmacy", "name": "Zs\u00e1lya patika"}}, {"type": "way", "id": 1274006565, "nodes": [11829894562, 11829894561, 11829894552, 11829894551, 11829894560, 11829894553, 11829894554, 11829894559, 11829894562], "tags": {"amenity": "pharmacy", "building": "yes", "check_date": "2025-03-28", "name": "Kocsi Gy\u00f3gyszert\u00e1r", "opening_hours": "Mo-Th 08:00-16:30; Fr 08:00-16:00; Sa-Su off", "payment:cash": "yes", "payment:credit_cards": "yes", "payment:debit_cards": "yes", "wheelchair": "limited"}}, {"type": "way", "id": 1283853473, "nodes": [11911793746, 11911793743, 11911793742, 11239772209, 11911793744, 11911793745, 11911793746], "tags": {"addr:city": "Bokod", "addr:housenumber": "43", "addr:postcode": "2855", "addr:street": "F\u0151 utca", "amenity": "pharmacy", "building": "yes", "healthcare": "pharmacy", "name": "Kamilla Gy\u00f3gyszert\u00e1r"}}, {"type": "way", "id": 1367314981, "nodes": [12662600589, 12662600590, 12662600585, 12662600586, 12662600592, 12662600587, 12662600588, 12662600589], "tags": {"addr:city": "M\u00f3r", "addr:housenumber": "1", "addr:postcode": "8060", "addr:street": "K\u00f6zt\u00e1rsas\u00e1g t\u00e9r", "amenity": "pharmacy", "brand": "Gy\u00f6ngy Patika", "brand:website": "https://gyongypatikak.hu/", "building": "yes", "contact:facebook": "https://www.facebook.com/gyogyszertarmor/", "dispensing": "yes", "drive_through": "no", "email": "mspatika@t-email.hu", "healthcare": "pharmacy", "name": "Szent Gy\u00f6rgy Gy\u00f3gyszert\u00e1r", "opening_hours": "Mo-Fr 08:00-17:00; Sa 08:00-12:00", "operator": "Patika Management Kft.", "phone": "+3622407036"}}]}