{"version": 0.6, "generator": "Overpass API 0.7.62.8 e802775f", "osm3s": {"timestamp_osm_base": "2025-10-06T08:16:01Z", "copyright": "The data included in this document is from www.openstreetmap.org. The data is made available under ODbL."}, "elements": [{"type": "node", "id": 694196914, "lat": 50.6353331, "lon": 18.8415602, "tags": {"amenity": "pharmacy", "healthcare": "pharmacy"}}, {"type": "node", "id": 798785786, "lat": 50.820377, "lon": 19.0980997, "tags": {"amenity": "pharmacy", "dispensing": "yes", "healthcare": "pharmacy", "ref:csioz": "1060825"}}, {"type": "node", "id": 997618842, "lat": 50.8215154, "lon": 19.118684, "tags": {"amenity": "pharmacy", "check_date:opening_hours": "2024-09-30", "dispensing": "yes", "healthcare": "pharmacy", "name": "S\u0142oneczna", "opening_hours": "Mo-Su 07:30-21:00", "phone": "+48 34 361 49 49", "ref:csioz": "1061035"}}, {"type": "node", "id": 1104463064, "lat": 50.9146301, "lon": 18.9394585, "tags": {"addr:city": "K\u0142obuck", "addr:housenumber": "1A", "addr:postcode": "42-100", "addr:street": "Poprzeczna", "amenity": "pharmacy", "dispensing": "yes", "healthcare": "pharmacy", "name": "ca\u0142odobowa", "ref:csioz": "1170609"}}, {"type": "node", "id": 1126350157, "lat": 50.8989825, "lon": 18.9362636, "tags": {"amenity": "pharmacy", "dispensing": "yes", "healthcare": "pharmacy", "ref:csioz": "1064695"}}, {"type": "node", "id": 1126350165, "lat": 50.910588, "lon": 18.9390024, "tags": {"amenity": "pharmacy", "healthcare": "pharmacy"}}, {"type": "node", "id": 1460314577, "lat": 50.9032471, "lon": 18.9385465, "tags": {"amenity": "pharmacy", "dispensing": "yes", "healthcare": "pharmacy", "name": "Lekfarm", "ref:csioz": "1064705"}}, {"type": "node", "id": 1472205799, "lat": 50.563683, "lon": 18.8881919, "tags": {"amenity": "pharmacy", "dispensing": "yes", "healthcare": "pharmacy", "name": "Apteka Vita", "ref:csioz": "1063376"}}, {"type": "node", "id": 1554390406, "lat": 50.8039817, "lon": 19.0914263, "tags": {"amenity": "pharmacy", "dispensing": "yes", "healthcare": "pharmacy", "name": "Apteka JANA", "ref:csioz": "1061145"}}, {"type": "node", "id": 1962240978, "lat": 50.7492188, "lon": 19.2690987, "tags": {"addr:city": "Olsztyn", "addr:housenumber": "1", "addr:postcode": "42-256", "addr:street": "Kacpra Karli\u0144skiego", "amenity": "pharmacy", "dispensing": "yes", "healthcare": "pharmacy", "name": "Apteka \"Na Rynku\"", "opening_hours": "Mo-Fr 07:30-21:00", "phone": "+48 690 509 515"}}, {"type": "node", "id": 2051587109, "lat": 50.8841853, "lon": 18.6916708, "tags": {"amenity": "pharmacy", "dispensing": "yes", "healthcare": "pharmacy"}}, {"type": "node", "id": 2402264720, "lat": 50.6317221, "lon": 18.8415036}, {"type": "node", "id": 2402264724, "lat": 50.6318098, "lon": 18.8414719}, {"type": "node", "id": 2402264783, "lat": 50.6317, "lon": 18.841352}, {"type": "node", "id": 2412000635, "lat": 50.6176213, "lon": 18.900136, "tags": {"addr:city": "Strzebi\u0144", "addr:housename": "Dworzec kolejowy w Strzebini", "addr:housenumber": "5", "addr:postcode": "42-288", "addr:street": "Dworcowa", "amenity": "pharmacy", "healthcare": "pharmacy", "name": "Apteka \"Na Dworcu\"", "ref:csioz": "1164140", "source": "survey"}}, {"type": "node", "id": 2560948933, "lat": 50.9675497, "lon": 18.9821341}, {"type": "node", "id": 2560948934, "lat": 50.96757, "lon": 18.9823947}, {"type": "node", "id": 2560948935, "lat": 50.9676542, "lon": 18.9821136}, {"type": "node", "id": 2560948936, "lat": 50.9676744, "lon": 18.9823742}, {"type": "node", "id": 2658295562, "lat": 50.7808958, "lon": 19.0982805, "tags": {"amenity": "pharmacy", "dispensing": "yes", "healthcare": "pharmacy", "ref:csioz": "1061081"}}, {"type": "node", "id": 2692310598, "lat": 50.9243458, "lon": 19.1972092, "tags": {"amenity": "pharmacy", "dispensing": "yes", "healthcare": "pharmacy", "name": "Lindorm"}}, {"type": "node", "id": 2705310846, "lat": 50.9547686, "lon": 19.1713795, "tags": {"amenity": "pharmacy", "dispensing": "yes", "healthcare": "pharmacy", "name": "Lindorm"}}, {"type": "node", "id": 2917653611, "lat": 50.7811147, "lon": 18.9589841, "tags": {"addr:city": "Blachownia", "addr:housenumber": "8", "addr:postcode": "42-290", "addr:street": "Stefana \u017beromskiego", "amenity": "pharmacy", "healthcare": "pharmacy", "name": "Apteka"}}, {"type": "node", "id": 2917653612, "lat": 50.7795986, "lon": 18.9590511, "tags": {"addr:city": "Blachownia", "addr:housenumber": "2", "addr:street": "Stefana \u017beromskiego", "amenity": "pharmacy", "healthcare": "pharmacy", "name": "Apteka"}}, {"type": "node", "id": 3009946820, "lat": 50.8121559, "lon": 19.1185503, "tags": {"addr:city": "Cz\u0119stochowa", "addr:floor": "G", "addr:housenumber": "24", "addr:postcode": "42-202", "addr:street": "Aleja Naj\u015bwi\u0119tszej Maryi Panny", "amenity": "pharmacy", "check_date": "2023-04-14", "dispensing": "yes", "healthcare": "pharmacy", "level": "0", "name": "Bursztynowa", "ref:csioz": "1060366"}}, {"type": "node", "id": 3027304192, "lat": 50.6317876, "lon": 18.8413203}, {"type": "node", "id": 3034027818, "lat": 50.8253573, "lon": 19.1106745, "tags": {"amenity": "pharmacy", "dispensing": "yes", "healthcare": "pharmacy", "name": "Corax", "official_name": "Apteka Corax", "ref:csioz": "1208305"}}, {"type": "node", "id": 3074951716, "lat": 50.6642923, "lon": 19.0699602, "tags": {"amenity": "pharmacy", "healthcare": "pharmacy"}}, {"type": "node", "id": 3093602379, "lat": 50.8073708, "lon": 19.11681, "tags": {"addr:housenumber": "4/6", "addr:street": "Ferdynanda Focha", "amenity": "pharmacy", "check_date": "2023-04-12", "dispensing": "yes", "drive_through": "no", "healthcare": "pharmacy", "name": "Apteka \u015bw. \u0141ukasza Ca\u0142odobowa", "name:pl": "Apteka \u015bw. \u0141ukasza", "name:uk": "\u0410\u043f\u0442\u0435\u043a\u0430", "opening_hours": "24/7", "payment:cash": "yes", "payment:coins": "yes", "payment:contactless": "yes", "payment:mastercard": "yes", "payment:visa": "yes", "phone": "+48 34 324 15 09", "ref:csioz": "1060548", "source": "survey;local knowledge"}}, {"type": "node", "id": 3186115332, "lat": 50.7843188, "lon": 19.4058754, "tags": {"amenity": "pharmacy", "dispensing": "yes", "healthcare": "pharmacy", "name": "Malwa"}}, {"type": "node", "id": 3400252752, "lat": 50.8827437, "lon": 18.7477632, "tags": {"amenity": "pharmacy", "description": "GPS 18:44:51.57|50:52:58.09", "dispensing": "yes", "email": "apt68468@dbamozdrowie.pl", "healthcare": "pharmacy", "name": "Dbam O Zdrowie", "opening_hours": "Mo-Fr 08:00-20:00, Sa 08:00-16:00", "phone": "+48 34 319 00 33", "ref:csioz": "1066420"}}, {"type": "node", "id": 3476109653, "lat": 50.8247356, "lon": 19.0987897, "tags": {"amenity": "pharmacy", "brand": "Dbam o Zdrowie", "brand:wikidata": "Q62563833", "dispensing": "yes", "healthcare": "pharmacy", "name": "Dbam o Zdrowie", "operator": "DOZ", "payment:cash": "yes", "payment:maestro": "yes", "payment:mastercard": "yes", "payment:visa": "yes", "payment:visa_debit": "yes", "payment:visa_electron": "yes", "ref:csioz": "1120512", "short_name": "DOZ"}}, {"type": "node", "id": 4154268666, "lat": 50.7809143, "lon": 19.1363386, "tags": {"amenity": "pharmacy", "dispensing": "yes", "healthcare": "pharmacy", "name": "Dr. Max", "opening_hours": "24/7", "operator": "Apteka Magiczna", "ref:csioz": "1121894"}}, {"type": "node", "id": 4240931666, "lat": 50.906708, "lon": 18.9377807}, {"type": "node", "id": 4240931667, "lat": 50.9066206, "lon": 18.9377516}, {"type": "node", "id": 4240931668, "lat": 50.9065868, "lon": 18.9380069}, {"type": "node", "id": 4240931669, "lat": 50.9066742, "lon": 18.938036}, {"type": "node", "id": 4315347773, "lat": 50.783659, "lon": 19.1458743, "tags": {"amenity": "pharmacy", "dispensing": "yes", "healthcare": "pharmacy", "ref:csioz": "1060965"}}, {"type": "node", "id": 4315488381, "lat": 50.7835059, "lon": 19.14248, "tags": {"addr:city": "Cz\u0119stochowa", "addr:housenumber": "2", "addr:postcode": "42-200", "addr:street": "Brzozowa", "amenity": "pharmacy", "dispensing": "yes", "healthcare": "pharmacy", "opening_hours": "Mo-Fr 08:00-20:00; Sa 08:00-14:00", "ref:csioz": "1060481"}}, {"type": "node", "id": 4694037946, "lat": 50.8074019, "lon": 19.0866113, "tags": {"addr:city": "Cz\u0119stochowa", "addr:housenumber": "49", "addr:postcode": "42-226", "addr:street": "Ojca Augustyna Kordeckiego", "amenity": "pharmacy", "dispensing": "yes", "healthcare": "pharmacy", "name": "Apteka \u015bw. Wincentego", "opening_hours": "Mo-Fr 08:00-19:00; Sa 08:00-14:00; PH off", "operator": "Pallotyni", "phone": "+48 34 365 16 30", "ref:csioz": "1060732"}}, {"type": "node", "id": 4796772866, "lat": 50.8081852, "lon": 19.1092635, "tags": {"amenity": "pharmacy", "dispensing": "yes", "healthcare": "pharmacy", "name": "Nowa Farmacja", "name:uk": "\u0410\u043f\u0442\u0435\u043a\u0430", "opening_hours": "Mo-Sa 08:00-19:00", "phone": "+48 34 360 61 85", "ref:csioz": "1060710"}}, {"type": "node", "id": 4816520256, "lat": 50.8265666, "lon": 19.1170433, "tags": {"addr:city": "Cz\u0119stochowa", "addr:housenumber": "41b", "addr:postcode": "42-215", "addr:street": "Dekabryst\u00f3w", "amenity": "pharmacy", "check_date": "2023-03-18", "dispensing": "yes", "healthcare": "pharmacy", "name": "Niezapominajka", "name:pl": "Apteka Niezapominajka", "official_name": "Niezapominajka Dla Ca\u0142ej Rodziny", "opening_hours": "Mo-Fr 08:00-20:00; Sa 08:00-16:00; Su off", "phone": "+48 513 012 595", "ref:csioz": "1214023"}}, {"type": "node", "id": 4816520259, "lat": 50.8269056, "lon": 19.1169487, "tags": {"amenity": "pharmacy", "dispensing": "yes", "healthcare": "pharmacy", "name": "Prima", "ref:csioz": "1206181"}}, {"type": "node", "id": 4829335152, "lat": 50.8245101, "lon": 19.1215476, "tags": {"amenity": "pharmacy", "dispensing": "yes", "healthcare": "pharmacy", "name": "Kolorowa Apteka", "ref:csioz": "1206197"}}, {"type": "node", "id": 4894308633, "lat": 50.8460176, "lon": 18.9207774, "tags": {"amenity": "pharmacy", "dispensing": "yes", "healthcare": "pharmacy", "name": "Pod Z\u0142otym D\u0119bem", "ref:csioz": "1071204"}}, {"type": "node", "id": 5175919230, "lat": 50.8085876, "lon": 18.8465217}, {"type": "node", "id": 5175919231, "lat": 50.8085797, "lon": 18.8467058}, {"type": "node", "id": 5175919232, "lat": 50.8086469, "lon": 18.8465271}, {"type": "node", "id": 5175919233, "lat": 50.8086397, "lon": 18.8467132}, {"type": "node", "id": 5209543852, "lat": 50.8115972, "lon": 19.1230834, "tags": {"amenity": "pharmacy", "dispensing": "yes", "healthcare": "pharmacy", "name": "Nowa Farmacja", "official_name": "Apteka Nowa Farmacja Plus", "opening_hours": "Mo-Fr 08:00-19:00;Sa 08:00-16:00", "ref:csioz": "1122495"}}, {"type": "node", "id": 5261025187, "lat": 50.8102687, "lon": 19.1179463, "tags": {"addr:housenumber": "10", "addr:street": "Aleja Wolno\u015bci", "amenity": "pharmacy", "check_date": "2023-04-12", "dispensing": "yes", "healthcare": "pharmacy", "name": "G\u0142\u00f3wna", "official_name": "Apteka G\u0142\u00f3wna", "payment:mastercard": "yes", "ref:csioz": "1177315", "source": "survey"}}, {"type": "node", "id": 5261025188, "lat": 50.81077, "lon": 19.1179448, "tags": {"addr:city": "Cz\u0119stochowa", "addr:housenumber": "4", "addr:postcode": "42-200", "addr:street": "Aleja Wolno\u015bci", "amenity": "pharmacy", "brand": "Ziko Apteka", "brand:wikidata": "Q63432892", "check_date": "2023-02-19", "description": "Apteka w d.h.centrum", "dispensing": "yes", "healthcare": "pharmacy", "level": "0", "name": "Ziko Apteka", "name:pl": "Ziko Apteka", "opening_hours": "Mo-Fr 07:00-21:00, Sa 08:00-16:00", "payment:cash": "yes", "payment:coins": "yes", "payment:contactless": "yes", "payment:mastercard": "yes", "payment:mastercard_contactless": "yes", "payment:visa": "yes", "phone": "+48 12 687 57 47; +48 34 307 26 45", "ref:csioz": "1193147", "short_name": "Ziko", "source": "local knowledge", "website": "https://www.ziko.pl/apteki/czestochowa/wolnosci-4/", "wheelchair": "yes"}}, {"type": "node", "id": 5261026058, "lat": 50.8905775, "lon": 19.1173147, "tags": {"amenity": "pharmacy", "healthcare": "pharmacy"}}, {"type": "node", "id": 5359265379, "lat": 50.7633617, "lon": 19.055872, "tags": {"addr:city": "Cz\u0119stochowa", "addr:housenumber": "4", "addr:postcode": "42-271", "addr:street": "Kopalniana", "amenity": "pharmacy", "dispensing": "yes", "healthcare": "pharmacy", "name": "Apteka W Przychodni", "ref:csioz": "1060692"}}, {"type": "node", "id": 5508100581, "lat": 50.8337924, "lon": 19.1182875, "tags": {"amenity": "pharmacy", "dispensing": "yes", "healthcare": "pharmacy", "name": "Apteka Gemini", "opening_hours": "Mo-Fr 07:00-21:00; Sa 07:00-14:00", "ref:csioz": "1060645"}}, {"type": "node", "id": 5683250809, "lat": 50.8156049, "lon": 19.0982727, "tags": {"amenity": "pharmacy", "dispensing": "yes", "healthcare": "pharmacy", "opening_hours": "Mo-Fr 08:00-19:00; Sa 08:00-15:00", "ref:csioz": "1061184"}}, {"type": "node", "id": 6310914153, "lat": 50.8936976, "lon": 19.0848241, "tags": {"amenity": "pharmacy", "dispensing": "yes", "healthcare": "pharmacy", "name": "Eskulap"}}, {"type": "node", "id": 6585131485, "lat": 50.9697596, "lon": 18.7273965, "tags": {"amenity": "pharmacy", "dispensing": "yes", "healthcare": "pharmacy", "name": "Apfarm", "ref:csioz": "1065178"}}, {"type": "node", "id": 7372719324, "lat": 50.8394183, "lon": 19.1601385, "tags": {"addr:housenumber": "2/4", "addr:street": "Stanis\u0142awa Konarskiego", "amenity": "pharmacy", "check_date": "2025-07-18", "check_date:opening_hours": "2025-07-18", "dispensing": "yes", "healthcare": "pharmacy", "name": "Apteka", "opening_hours": "07:00-23:00", "payment:contactless": "yes", "payment:mastercard": "yes", "payment:mastercard_contactless": "yes", "ref:csioz": "1060684", "wheelchair": "yes"}}, {"type": "node", "id": 7732016465, "lat": 50.6722797, "lon": 18.9098082, "tags": {"addr:city": "Boron\u00f3w", "addr:housenumber": "5", "addr:postcode": "42-283", "addr:street": "Wolno\u015bci", "amenity": "pharmacy", "brand": "Dbam o Zdrowie", "brand:wikidata": "Q62563833", "dispensing": "yes", "healthcare": "pharmacy", "name": "Dbam o Zdrowie", "opening_hours": "Mo-Fr 08:00-18:00; Sa 08:00-13:00", "payment:cards": "yes", "payment:cash": "yes", "ref:csioz": "1225536", "short_name": "DOZ", "wheelchair": "yes"}}, {"type": "node", "id": 7849892906, "lat": 50.8923097, "lon": 19.3341458}, {"type": "node", "id": 7849892907, "lat": 50.8922897, "lon": 19.3340508}, {"type": "node", "id": 7849892908, "lat": 50.8922086, "lon": 19.3340936}, {"type": "node", "id": 7849892909, "lat": 50.8922287, "lon": 19.3341886}, {"type": "node", "id": 7887393790, "lat": 50.8017305, "lon": 19.1068943, "tags": {"amenity": "pharmacy", "dispensing": "yes", "drive_through": "no", "email": "miodowa@aptekikolorowe.pl", "healthcare": "pharmacy", "name": "Miodowa", "name:uk": "\u0410\u043f\u0442\u0435\u043a\u0430", "opening_hours": "Mo-Fr 07:30-20:00; Sa 08:00-14:00; PH off", "operator": "Apteki Kolorowe", "phone": "+48 34 366 83 93", "ref:csioz": "1218546", "website": "aptekikolorowe.pl", "wheelchair": "yes"}}, {"type": "node", "id": 8043237084, "lat": 50.8448123, "lon": 19.1283634, "tags": {"amenity": "pharmacy", "dispensing": "yes", "healthcare": "pharmacy", "name": "Zdrowit+", "official_name": "Apteka Zdrowit +", "ref:csioz": "1218242", "wheelchair": "limited"}}, {"type": "node", "id": 8048294514, "lat": 50.8476617, "lon": 19.1303474, "tags": {"addr:housenumber": "12", "addr:street": "Genera\u0142a W\u0142adys\u0142awa Andersa", "amenity": "pharmacy", "check_date": "2023-01-29", "dispensing": "yes", "healthcare": "pharmacy", "name": "Aloes", "official_name": "Waga", "opening_hours": "Mo-Fr 08:00-20:00; Sa 08:00-15:00", "ref:csioz": "1060573"}}, {"type": "node", "id": 9166027752, "lat": 50.8121245, "lon": 19.1199965, "tags": {"amenity": "pharmacy", "brand": "Gemini", "brand:wikidata": "Q130243797", "check_date": "2023-04-13", "dispensing": "yes", "healthcare": "pharmacy", "name": "Gemini", "official_name": "Apteka Gemini", "opening_hours": "Mo-Fr 07:30-20:00; Sa 08:00-16:00", "ref:csioz": "1216293"}}, {"type": "node", "id": 9166027766, "lat": 50.812115, "lon": 19.1203731, "tags": {"amenity": "pharmacy", "dispensing": "yes", "healthcare": "pharmacy", "name": "Zielona", "ref:csioz": "1060344"}}, {"type": "node", "id": 9168550723, "lat": 50.8120953, "lon": 19.1255973, "tags": {"addr:city": "Cz\u0119stochowa", "addr:housenumber": "2", "addr:postcode": "42-202", "addr:street": "Aleja Naj\u015bwi\u0119tszej Maryi Panny", "amenity": "pharmacy", "brand": "Dbam o Zdrowie", "brand:wikidata": "Q62563833", "dispensing": "yes", "healthcare": "pharmacy", "name": "Dbam o Zdrowie", "official_name": "Apteka Dbam O Zdrowie", "ref:csioz": "1060353", "short_name": "DOZ"}}, {"type": "node", "id": 9231284853, "lat": 50.8122327, "lon": 19.1148056, "tags": {"addr:city": "Cz\u0119stochowa", "addr:housenumber": "2", "addr:postcode": "42-200", "addr:street": "Jana Kili\u0144skiego", "amenity": "pharmacy", "dispensing": "yes", "healthcare": "pharmacy", "name": "Z\u0142ota", "ref:csioz": "1060668"}}, {"type": "node", "id": 9355114846, "lat": 50.794573, "lon": 19.0406026, "tags": {"amenity": "pharmacy", "dispensing": "yes", "healthcare": "pharmacy", "name": "Biovita", "ref:csioz": "1060954"}}, {"type": "node", "id": 9551850850, "lat": 50.8012923, "lon": 19.1174443, "tags": {"amenity": "pharmacy", "check_date": "2023-04-28", "dispensing": "yes", "drive_through": "no", "healthcare": "pharmacy", "level": "0", "name": "Apteka przy Rondzie", "name:pl": "Apteka przy Rondzie", "name:uk": "\u0410\u043f\u0442\u0435\u043a\u0430", "opening_hours": "Mo-Sa 08:00-21:00; PH off", "payment:cash": "yes", "payment:coins": "yes", "payment:contactless": "yes", "payment:mastercard": "yes", "payment:visa": "yes", "phone": "+48 34 324 11 63", "ref:csioz": "1192835"}}, {"type": "node", "id": 9551850851, "lat": 50.8040664, "lon": 19.1172356, "tags": {"amenity": "pharmacy", "dispensing": "yes", "drive_through": "no", "email": "wrzosowa@aptekikolorowe.pl", "healthcare": "pharmacy", "name": "Wrzosowa", "name:uk": "\u0410\u043f\u0442\u0435\u043a\u0430", "opening_hours": "Mo-Fr 07:00-20:00; Sa 08:00-15:00; PH off", "operator": "Apteki Kolorowe", "phone": "+48 34 367 11 57", "ref:csioz": "1061231", "website": "aptekikolorowe.pl"}}, {"type": "node", "id": 9551850852, "lat": 50.8065206, "lon": 19.1154938, "tags": {"amenity": "pharmacy", "check_date": "2023-03-15", "dispensing": "yes", "drive_through": "no", "email": "cynamonowa@aptekikolorowe.pl", "healthcare": "pharmacy", "level": "0", "name": "Cynamonowa", "name:uk": "\u0410\u043f\u0442\u0435\u043a\u0430", "opening_hours": "Mo-Fr 07:30-20:00; Sa 08:00-15:00; PH off", "operator": "Apteki Kolorowe", "payment:contactless": "yes", "payment:mastercard": "yes", "payment:visa": "yes", "phone": "+48 34 324 55 30", "ref:csioz": "1060561", "website": "aptekikolorowe.pl"}}, {"type": "node", "id": 9551850865, "lat": 50.8072227, "lon": 19.1171842, "tags": {"amenity": "pharmacy", "check_date": "2023-02-12", "dispensing": "yes", "drive_through": "no", "healthcare": "pharmacy", "name": "Apteka \u015bw. \u0141ukasza", "name:pl": "Apteka \u015bw. \u0141ukasza", "name:uk": "\u0410\u043f\u0442\u0435\u043a\u0430", "opening_hours": "08:00-22:00", "payment:mastercard": "yes", "payment:visa": "yes", "phone": "+48 34 387 27 07", "ref:csioz": "1060557"}}, {"type": "node", "id": 9555199053, "lat": 50.7958333, "lon": 19.1052434, "tags": {"amenity": "pharmacy", "dispensing": "yes", "drive_through": "no", "email": "oliwkowa@aptekikolorowe.pl", "healthcare": "pharmacy", "name": "Oliwkowa", "name:uk": "\u0410\u043f\u0442\u0435\u043a\u0430", "opening_hours": "Mo-Fr 07:00-20:00; Sa 08:00-14:00; PH off", "operator": "Apteki Kolorowe", "phone": "+48 34 365 80 33", "ref:csioz": "1060987", "website": "aptekikolorowe.pl", "wheelchair": "yes"}}, {"type": "node", "id": 9570919292, "lat": 50.809927, "lon": 19.093897, "tags": {"amenity": "pharmacy", "dispensing": "yes", "drive_through": "no", "email": "turkusowa@aptekikolorowe.pl", "healthcare": "pharmacy", "name": "Turkusowa", "name:uk": "\u0410\u043f\u0442\u0435\u043a\u0430", "operator": "Apteki Kolorowe", "ref:csioz": "1060729", "website": "aptekikolorowe.pl", "wheelchair": "yes"}}, {"type": "node", "id": 9570919293, "lat": 50.8250127, "lon": 19.1089688, "tags": {"addr:city": "Cz\u0119stochowa", "addr:housenumber": "9", "addr:postcode": "42-218", "addr:street": "Dekabryst\u00f3w", "amenity": "pharmacy", "dispensing": "yes", "drive_through": "no", "email": "pistacjowa@aptekikolorowe.pl", "healthcare": "pharmacy", "name": "Pistacjowa", "name:uk": "\u0410\u043f\u0442\u0435\u043a\u0430", "opening_hours": "Mo-Fr 07:00-20:00; Sa 08:00-15:00; PH off", "operator": "Apteki Kolorowe", "phone": "+48 34 322 51 00", "ref:csioz": "1165924", "website": "aptekikolorowe.pl", "wheelchair": "yes"}}, {"type": "node", "id": 9570919294, "lat": 50.812852, "lon": 19.1286048, "tags": {"amenity": "pharmacy", "dispensing": "yes", "drive_through": "no", "healthcare": "pharmacy", "name": "4 Pory Roku", "name:uk": "\u0410\u043f\u0442\u0435\u043a\u0430", "opening_hours": "08:00-20:00", "phone": "+48 34 324 46 93", "ref:csioz": "1061159", "website": "apteka4poryroku.pl", "wheelchair": "yes"}}, {"type": "node", "id": 9570919295, "lat": 50.8115754, "lon": 19.1249955, "tags": {"amenity": "pharmacy", "dispensing": "yes", "drive_through": "no", "email": "amarantowa@aptekikolorowe.pl", "healthcare": "pharmacy", "name": "Amarantowa", "name:uk": "\u0410\u043f\u0442\u0435\u043a\u0430", "opening_hours": "Mo-Fr 07:00-21:00; Sa 08:00-15:00; PH off", "operator": "Apteki Kolorowe", "phone": "+48 34 372 44 77", "ref:csioz": "1060377", "website": "aptekikolorowe.pl", "wheelchair": "yes"}}, {"type": "node", "id": 9570919296, "lat": 50.779006, "lon": 18.9588809, "tags": {"amenity": "pharmacy", "dispensing": "yes", "drive_through": "no", "email": "migdalowa@aptekikolorowe.pl", "healthcare": "pharmacy", "name": "Migda\u0142owa", "name:uk": "\u0410\u043f\u0442\u0435\u043a\u0430", "opening_hours": "Mo-Fr 08:00-21:00; Sa 08:00-15:00; PH off", "operator": "Apteki Kolorowe", "phone": "+48 34 359 16 89", "website": "aptekikolorowe.pl", "wheelchair": "yes"}}, {"type": "node", "id": 9570919297, "lat": 50.7508201, "lon": 19.2676641, "tags": {"amenity": "pharmacy", "dispensing": "yes", "drive_through": "no", "email": "podzamkiem@aptekikolorowe.pl", "healthcare": "pharmacy", "name": "Pod Zamkiem", "name:uk": "\u0410\u043f\u0442\u0435\u043a\u0430", "opening_hours": "Mo-Fr 08:00-21:00; Sa 08:00-16:00; PH off", "operator": "Apteki Kolorowe", "phone": "+48 34 355 41 02", "website": "aptekikolorowe.pl", "wheelchair": "yes"}}, {"type": "node", "id": 9659183984, "lat": 50.7857764, "lon": 19.1460057, "tags": {"amenity": "pharmacy", "dispensing": "yes", "healthcare": "pharmacy", "name": "Fides", "opening_hours": "Mo-Fr 08:00-20:00; Sa 08:00-13:00", "ref:csioz": "1061024"}}, {"type": "node", "id": 9659183985, "lat": 50.786381, "lon": 19.1493656, "tags": {"amenity": "pharmacy", "dispensing": "yes", "healthcare": "pharmacy", "name": "Fides", "opening_hours": "Mo-Fr 08:00-20:00; Sa 08:00-15:00; Su 10:00-15:00", "ref:csioz": "1061019"}}, {"type": "node", "id": 9659183986, "lat": 50.8320338, "lon": 19.1132155, "tags": {"amenity": "pharmacy", "dispensing": "yes", "healthcare": "pharmacy", "ref:csioz": "1060882"}}, {"type": "node", "id": 9659183987, "lat": 50.8313936, "lon": 19.1080791, "tags": {"amenity": "pharmacy", "dispensing": "yes", "healthcare": "pharmacy", "name": "Peonia", "ref:csioz": "1060874"}}, {"type": "node", "id": 9659183988, "lat": 50.839046, "lon": 19.1633918, "tags": {"amenity": "pharmacy", "check_date": "2023-05-12", "dispensing": "yes", "healthcare": "pharmacy", "name": "Apteka Od Serca", "ref:csioz": "1060858"}}, {"type": "node", "id": 9659183989, "lat": 50.790155, "lon": 19.1328521, "tags": {"addr:city": "Cz\u0119stochowa", "addr:housenumber": "27", "addr:postcode": "42-216", "addr:street": "Aleja Niepodleg\u0142o\u015bci", "amenity": "pharmacy", "dispensing": "yes", "healthcare": "pharmacy", "name": "Osiedlowa", "ref:csioz": "1060830"}}, {"type": "node", "id": 9659183990, "lat": 50.8117445, "lon": 19.1317829, "tags": {"addr:city": "Cz\u0119stochowa", "addr:housenumber": "9", "addr:postcode": "42-200", "addr:street": "Mirowska", "amenity": "pharmacy", "dispensing": "yes", "healthcare": "pharmacy", "ref:csioz": "1060817"}}, {"type": "node", "id": 9659183991, "lat": 50.7775753, "lon": 19.1523178, "tags": {"amenity": "pharmacy", "dispensing": "yes", "healthcare": "pharmacy", "ref:csioz": "1060793"}}, {"type": "node", "id": 9659183992, "lat": 50.840844, "lon": 19.1185269, "tags": {"addr:city": "Cz\u0119stochowa", "addr:housenumber": "17", "addr:postcode": "42-200", "addr:street": "Profesora Kazimierza Micha\u0142owskiego", "amenity": "pharmacy", "dispensing": "yes", "healthcare": "pharmacy", "ref:csioz": "1060786"}}, {"type": "node", "id": 9659183993, "lat": 50.7699023, "lon": 19.1441486, "tags": {"amenity": "pharmacy", "dispensing": "yes", "healthcare": "pharmacy", "ref:csioz": "1060637"}}, {"type": "node", "id": 9659183994, "lat": 50.8392664, "lon": 19.1232324, "tags": {"amenity": "pharmacy", "dispensing": "yes", "healthcare": "pharmacy", "name": "Natural", "ref:csioz": "1060613"}}, {"type": "node", "id": 9659183995, "lat": 50.8390944, "lon": 19.131469, "tags": {"amenity": "pharmacy", "dispensing": "yes", "healthcare": "pharmacy", "name:signed": "no", "opening_hours": "Mo-Fr 08:00-20:00; Sa 08:00-15:00", "ref:csioz": "1060599"}}, {"type": "node", "id": 9659183996, "lat": 50.8361932, "lon": 19.1335341, "tags": {"amenity": "pharmacy", "dispensing": "yes", "healthcare": "pharmacy", "name": "Apteka Vita", "ref:csioz": "1060585"}}, {"type": "node", "id": 9659183997, "lat": 50.772929, "lon": 19.1511119, "tags": {"addr:city": "Cz\u0119stochowa", "addr:housenumber": "25A", "addr:postcode": "42-200", "addr:street": "Bohater\u00f3w Katynia", "amenity": "pharmacy", "dispensing": "yes", "healthcare": "pharmacy", "name": "Apteka Aronia", "ref:csioz": "1060470"}}, {"type": "node", "id": 9659183998, "lat": 50.8296972, "lon": 19.0891004, "tags": {"addr:city": "Cz\u0119stochowa", "addr:housenumber": "104", "addr:postcode": "42-200", "addr:street": "Bialska", "amenity": "pharmacy", "dispensing": "yes", "healthcare": "pharmacy", "ref:csioz": "1060462"}}, {"type": "node", "id": 9659183999, "lat": 50.8372852, "lon": 19.1276992, "tags": {"amenity": "pharmacy", "dispensing": "yes", "healthcare": "pharmacy", "name": "Apteka czynna codziennie", "opening_hours": "Su 09:00-19:00; Sa 07:00-19:00; Mo-Fr 07:00-21:00", "ref:csioz": "1060443"}}, {"type": "node", "id": 9659184000, "lat": 50.8159802, "lon": 19.1181073, "tags": {"amenity": "pharmacy", "dispensing": "yes", "healthcare": "pharmacy", "ref:csioz": "1060419"}}, {"type": "node", "id": 9659184001, "lat": 50.8078785, "lon": 19.1298053, "tags": {"addr:floor": "1", "amenity": "pharmacy", "brand": "Super-Pharm", "brand:en": "Super-Pharm", "brand:he": "\u05e1\u05d5\u05e4\u05e8-\u05e4\u05d0\u05e8\u05dd", "brand:wikidata": "Q13220217", "dispensing": "yes", "healthcare": "pharmacy", "level": "1", "name": "Super-Pharm", "name:ar": "\u0633\u0648\u0628\u064a\u0631 \u0641\u0627\u0631\u0645", "name:en": "Super-Pharm", "name:he": "\u05e1\u05d5\u05e4\u05e8-\u05e4\u05d0\u05e8\u05dd", "name:ru": "\u0421\u0443\u043f\u0435\u0440-\u0424\u0430\u0440\u043c", "ref:csioz": "1060408"}}, {"type": "node", "id": 9659489608, "lat": 50.8305046, "lon": 19.1211049, "tags": {"amenity": "pharmacy", "dispensing": "yes", "healthcare": "pharmacy", "name": "Poziomkowa", "ref:csioz": "1180128"}}, {"type": "node", "id": 9659489609, "lat": 50.827517, "lon": 19.106544, "tags": {"amenity": "pharmacy", "dispensing": "yes", "healthcare": "pharmacy", "name": "Apteka Corax", "ref:csioz": "1177328"}}, {"type": "node", "id": 9659489610, "lat": 50.836669, "lon": 19.061137, "tags": {"amenity": "pharmacy", "dispensing": "yes", "healthcare": "pharmacy", "name": "Kolorowa Apteka", "ref:csioz": "1176704"}}, {"type": "node", "id": 9659489611, "lat": 50.8371778, "lon": 19.1562536, "tags": {"amenity": "pharmacy", "dispensing": "yes", "healthcare": "pharmacy", "name": "Koralowa", "ref:csioz": "1176351"}}, {"type": "node", "id": 9659489612, "lat": 50.8307472, "lon": 19.068403, "tags": {"addr:city": "Cz\u0119stochowa", "addr:housenumber": "4", "addr:postcode": "42-200", "addr:street": "Radomska", "amenity": "pharmacy", "dispensing": "yes", "healthcare": "pharmacy", "name": "Apteka \u015aw. Rocha", "ref:csioz": "1176165"}}, {"type": "node", "id": 9659489613, "lat": 50.8324143, "lon": 19.11921, "tags": {"amenity": "pharmacy", "dispensing": "yes", "healthcare": "pharmacy", "name": "Apteka Zdrowit", "ref:csioz": "1174256"}}, {"type": "node", "id": 9659489614, "lat": 50.8213654, "lon": 19.0698653, "tags": {"amenity": "pharmacy", "dispensing": "yes", "healthcare": "pharmacy", "name": "Magnolia", "ref:csioz": "1061266"}}, {"type": "node", "id": 9659489615, "lat": 50.8218908, "lon": 19.0785857, "tags": {"addr:city": "Cz\u0119stochowa", "addr:housenumber": "29", "addr:postcode": "42-202", "addr:street": "Wr\u0119czycka", "amenity": "pharmacy", "dispensing": "yes", "healthcare": "pharmacy", "ref:csioz": "1061253"}}, {"type": "node", "id": 9659489616, "lat": 50.8497299, "lon": 19.1028644, "tags": {"amenity": "pharmacy", "dispensing": "yes", "healthcare": "pharmacy", "name": "Pulsatilla", "ref:csioz": "1061100"}}, {"type": "node", "id": 9659502817, "lat": 50.8167535, "lon": 19.0930929, "tags": {"amenity": "pharmacy", "dispensing": "yes", "healthcare": "pharmacy", "ref:csioz": "1061070"}}, {"type": "node", "id": 9659502818, "lat": 50.8397789, "lon": 19.1355841, "tags": {"amenity": "pharmacy", "dispensing": "yes", "healthcare": "pharmacy", "ref:csioz": "1061056"}}, {"type": "node", "id": 9660575800, "lat": 50.7620604, "lon": 19.0590143, "tags": {"amenity": "pharmacy", "dispensing": "yes", "healthcare": "pharmacy", "name": "Apteka W D\u017abowie", "ref:csioz": "1120520"}}, {"type": "node", "id": 9660575801, "lat": 50.8168971, "lon": 19.1214748, "tags": {"amenity": "pharmacy", "dispensing": "yes", "healthcare": "pharmacy", "name": "Apteka Nowa Farmacja", "official_name": "Apteka Nowa Farmacja W Centrum Medycznym Klara", "ref:csioz": "1119416"}}, {"type": "node", "id": 9660575802, "lat": 50.7884816, "lon": 19.0855211, "tags": {"amenity": "pharmacy", "dispensing": "yes", "healthcare": "pharmacy", "ref:csioz": "1110902"}}, {"type": "node", "id": 9660575803, "lat": 50.7787211, "lon": 19.132041, "tags": {"amenity": "pharmacy", "dispensing": "yes", "healthcare": "pharmacy", "ref:csioz": "1060933"}}, {"type": "node", "id": 9660575804, "lat": 50.7771856, "lon": 19.1333332, "tags": {"amenity": "pharmacy", "dispensing": "yes", "healthcare": "pharmacy", "ref:csioz": "1060922"}}, {"type": "node", "id": 9660575805, "lat": 50.8059791, "lon": 19.1390134, "tags": {"amenity": "pharmacy", "dispensing": "yes", "healthcare": "pharmacy", "name": "Pod Wag\u0105", "ref:csioz": "1060911"}}, {"type": "node", "id": 9660575807, "lat": 50.8182377, "lon": 19.1129272, "tags": {"amenity": "pharmacy", "dispensing": "yes", "healthcare": "pharmacy", "name": "Nasza Apteka", "ref:csioz": "1060504"}}, {"type": "node", "id": 9660575808, "lat": 50.8103059, "lon": 19.0977144, "tags": {"amenity": "pharmacy", "dispensing": "yes", "healthcare": "pharmacy", "name": "Pod Klasztorem", "ref:csioz": "1060283"}}, {"type": "node", "id": 9660881690, "lat": 50.7831659, "lon": 19.1396451, "tags": {"amenity": "pharmacy", "dispensing": "yes", "healthcare": "pharmacy", "name": "Apteka Kolorowa", "ref:csioz": "1225366"}}, {"type": "node", "id": 9660881691, "lat": 50.7850816, "lon": 19.140995, "tags": {"amenity": "pharmacy", "dispensing": "yes", "healthcare": "pharmacy", "name": "Kolorowa Apteka Sezam", "ref:csioz": "1221563"}}, {"type": "node", "id": 9660881693, "lat": 50.7827982, "lon": 19.1405112, "tags": {"addr:city": "Cz\u0119stochowa", "addr:housenumber": "1", "addr:postcode": "42-216", "addr:street": "Jagiello\u0144ska", "amenity": "pharmacy", "dispensing": "yes", "healthcare": "pharmacy", "name": "Apteka Zdrowit +", "ref:csioz": "1215632"}}, {"type": "node", "id": 9660881694, "lat": 50.7962466, "lon": 19.0398448, "tags": {"amenity": "pharmacy", "dispensing": "yes", "healthcare": "pharmacy", "name": "Kolorowa Apteka", "ref:csioz": "1211704"}}, {"type": "node", "id": 9660881695, "lat": 50.8193339, "lon": 19.1148199, "tags": {"amenity": "pharmacy", "dispensing": "yes", "healthcare": "pharmacy", "name": "Nasza Apteka", "ref:csioz": "1208686"}}, {"type": "node", "id": 9660881696, "lat": 50.784722, "lon": 19.1543171, "tags": {"amenity": "pharmacy", "dispensing": "yes", "healthcare": "pharmacy", "name": "Apteka \u015aw.Floriana", "ref:csioz": "1206064"}}, {"type": "node", "id": 9660881697, "lat": 50.7861336, "lon": 19.1471234, "tags": {"amenity": "pharmacy", "dispensing": "yes", "healthcare": "pharmacy", "name": "Niezapominajka", "official_name": "Niezapominajka Dla Ca\u0142ej Rodziny", "opening_hours": "Mo-Fr 08:00-20:00; Sa 08:00-16:00", "ref:csioz": "1204223"}}, {"type": "node", "id": 9660881699, "lat": 50.8190327, "lon": 19.0552145, "tags": {"addr:city": "Cz\u0119stochowa", "addr:housenumber": "37", "addr:postcode": "42-202", "addr:street": "Wielkoborska", "amenity": "pharmacy", "dispensing": "yes", "healthcare": "pharmacy", "ref:csioz": "1189234"}}, {"type": "node", "id": 9660881700, "lat": 50.8393455, "lon": 19.1271251, "tags": {"addr:city": "Cz\u0119stochowa", "addr:housenumber": "7", "addr:postcode": "42-224", "addr:street": "Aleja Wyzwolenia", "amenity": "pharmacy", "dispensing": "yes", "healthcare": "pharmacy", "name": "Limonkowa", "ref:csioz": "1185895"}}, {"type": "node", "id": 9660881701, "lat": 50.7894216, "lon": 19.1727472, "tags": {"addr:city": "Cz\u0119stochowa", "addr:housenumber": "44", "addr:postcode": "42-200", "addr:street": "Aleja Pokoju", "amenity": "pharmacy", "dispensing": "yes", "healthcare": "pharmacy", "name": "Apteka Na Kucelinie", "ref:csioz": "1173518"}}, {"type": "node", "id": 9685761104, "lat": 50.8832526, "lon": 18.6877506, "tags": {"addr:city": "Przystaj\u0144", "addr:housenumber": "10A", "addr:postcode": "42-141", "addr:street": "Powsta\u0144c\u00f3w \u015al\u0105skich", "amenity": "pharmacy", "dispensing": "yes", "healthcare": "pharmacy", "ref:csioz": "1066910"}}, {"type": "node", "id": 9685767575, "lat": 50.8436408, "lon": 18.9178251, "tags": {"addr:city": "Wr\u0119czyca Wielka", "addr:housenumber": "3", "addr:postcode": "42-130", "addr:street": "Szkolna", "amenity": "pharmacy", "dispensing": "yes", "healthcare": "pharmacy", "ref:csioz": "1071220"}}, {"type": "node", "id": 9685767717, "lat": 50.9708814, "lon": 18.7287085, "tags": {"addr:city": "Krzepice", "addr:housenumber": "5", "addr:postcode": "42-160", "addr:street": "Szkolna", "amenity": "pharmacy", "dispensing": "yes", "healthcare": "pharmacy", "name": "Apteka Centrum Zdrowia Lekfarm", "ref:csioz": "1190555"}}, {"type": "node", "id": 9685794090, "lat": 50.8807355, "lon": 18.7470277, "tags": {"addr:city": "Panki", "addr:housenumber": "10", "addr:postcode": "42-140", "addr:street": "1 Maja", "amenity": "pharmacy", "dispensing": "yes", "healthcare": "pharmacy", "name": "Apteka Galen Mgr Farm. Jolanta Talik", "ref:csioz": "1066412"}}, {"type": "node", "id": 9685794160, "lat": 50.9985126, "lon": 18.8630572, "tags": {"addr:city": "R\u0119bielice Kr\u00f3lewskie", "addr:housenumber": "34", "addr:postcode": "42-110", "addr:street": "G\u0142\u00f3wna", "amenity": "pharmacy", "dispensing": "yes", "healthcare": "pharmacy", "name": "Lekfarm", "ref:csioz": "1179200"}}, {"type": "node", "id": 9685819164, "lat": 50.9476291, "lon": 18.6551965, "tags": {"addr:city": "Starokrzepice", "addr:housenumber": "4", "addr:postcode": "42-161", "addr:street": "Piaskowa", "amenity": "pharmacy", "dispensing": "yes", "healthcare": "pharmacy", "ref:csioz": "1228839"}}, {"type": "node", "id": 9685823800, "lat": 50.9699291, "lon": 18.7284676, "tags": {"addr:city": "Krzepice", "addr:housenumber": "11", "addr:postcode": "42-160", "addr:street": "Cz\u0119stochowska", "amenity": "pharmacy", "dispensing": "yes", "healthcare": "pharmacy", "ref:csioz": "1065164"}}, {"type": "node", "id": 9685838910, "lat": 50.9045427, "lon": 18.9374142, "tags": {"addr:city": "K\u0142obuck", "addr:housenumber": "21", "addr:postcode": "42-100", "addr:street": "Rynek Jana Paw\u0142a II", "amenity": "pharmacy", "dispensing": "yes", "healthcare": "pharmacy", "ref:csioz": "1064680"}}, {"type": "node", "id": 9685844252, "lat": 50.8997509, "lon": 19.0279214, "tags": {"addr:city": "Kamyk", "addr:housenumber": "9", "addr:postcode": "42-125", "addr:street": "Plac Wincentego Witosa", "amenity": "pharmacy", "dispensing": "yes", "healthcare": "pharmacy", "name": "Lindorm", "ref:csioz": "1063444"}}, {"type": "node", "id": 9685848563, "lat": 50.9005926, "lon": 18.9376973, "tags": {"addr:city": "K\u0142obuck", "addr:housenumber": "1F", "addr:postcode": "42-100", "addr:street": "Cz\u0119stochowska", "amenity": "pharmacy", "dispensing": "yes", "healthcare": "pharmacy", "name": "Pod Czerwonym K\u0142obukiem", "ref:csioz": "1064667"}}, {"type": "node", "id": 9685853076, "lat": 50.9705172, "lon": 18.7275435, "tags": {"addr:city": "Krzepice", "addr:housenumber": "7", "addr:postcode": "42-160", "addr:street": "Dzielna", "amenity": "pharmacy", "dispensing": "yes", "healthcare": "pharmacy", "ref:csioz": "1065186"}}, {"type": "node", "id": 9685866894, "lat": 50.8847436, "lon": 18.6916423, "tags": {"addr:city": "Przystaj\u0144", "addr:housenumber": "7", "addr:postcode": "42-141", "addr:street": "Rynek", "amenity": "pharmacy", "dispensing": "yes", "healthcare": "pharmacy", "name": "Apteka Pod Z\u0142otymi Sukiennicami", "ref:csioz": "1188091"}}, {"type": "node", "id": 9685893999, "lat": 50.9650675, "lon": 18.9829081, "tags": {"addr:city": "Mied\u017ano", "addr:housenumber": "18A", "addr:postcode": "42-120", "addr:street": "Cz\u0119stochowska", "amenity": "pharmacy", "branch": "Veris Mied\u017ano", "brand": "Dbam o Zdrowie", "brand:wikidata": "Q62563833", "dispensing": "yes", "healthcare": "pharmacy", "name": "Dbam o Zdrowie", "ref:csioz": "1065669", "short_name": "DOZ"}}, {"type": "node", "id": 9685894664, "lat": 50.9085008, "lon": 18.93891, "tags": {"addr:city": "K\u0142obuck", "addr:housenumber": "14", "addr:postcode": "42-100", "addr:street": "11 Listopada", "amenity": "pharmacy", "dispensing": "yes", "healthcare": "pharmacy", "name": "Plus Dla Zdrowia-Twoja Apteka Internetowa", "ref:csioz": "1195585"}}, {"type": "node", "id": 9685895665, "lat": 50.8054635, "lon": 18.8505972, "tags": {"addr:housenumber": "32", "addr:place": "Puszczew", "addr:postcode": "42-133", "amenity": "pharmacy", "dispensing": "yes", "healthcare": "pharmacy", "name": "Apteka Puszczew", "opening_hours": "Mo-Fr 08:30-18:00  Sa 08:30-13:00", "ref:csioz": "1226033"}}, {"type": "node", "id": 9685952837, "lat": 50.8681322, "lon": 18.8241001, "tags": {"addr:city": "Truskolasy", "addr:housenumber": "9", "addr:postcode": "42-134", "addr:street": "Opolska", "amenity": "pharmacy", "dispensing": "yes", "healthcare": "pharmacy", "name": "Plus Dla Zdrowia", "ref:csioz": "1171275"}}, {"type": "node", "id": 9685953238, "lat": 50.970867, "lon": 18.7275533, "tags": {"addr:city": "Krzepice", "addr:housenumber": "12", "addr:postcode": "42-160", "addr:street": "Dzielna", "amenity": "pharmacy", "dispensing": "yes", "healthcare": "pharmacy", "ref:csioz": "1201829"}}, {"type": "node", "id": 9685954475, "lat": 50.8835962, "lon": 18.6910253, "tags": {"addr:city": "Przystaj\u0144", "addr:housenumber": "9", "addr:postcode": "42-141", "addr:street": "Nowa", "amenity": "pharmacy", "dispensing": "yes", "healthcare": "pharmacy", "name": "Apteka Prywatna Mgr Farm.Ewa Spytkowska", "ref:csioz": "1066907"}}, {"type": "node", "id": 9685967352, "lat": 50.8383854, "lon": 18.997414, "tags": {"addr:city": "Kalej", "addr:housenumber": "24C", "addr:postcode": "42-130", "addr:street": "G\u0142\u00f3wna", "amenity": "pharmacy", "dispensing": "yes", "healthcare": "pharmacy", "name": "Plus Dla Zdrowia", "ref:csioz": "1230599"}}, {"type": "node", "id": 9685970711, "lat": 50.9138279, "lon": 18.9436081, "tags": {"addr:city": "K\u0142obuck", "addr:housenumber": "44", "addr:postcode": "42-100", "addr:street": "11 Listopada", "amenity": "pharmacy", "dispensing": "yes", "healthcare": "pharmacy", "ref:csioz": "1064646"}}, {"type": "node", "id": 9685977850, "lat": 50.9488675, "lon": 18.656344, "tags": {"addr:city": "Starokrzepice", "addr:housenumber": "209", "addr:postcode": "42-161", "addr:street": "Oleska", "amenity": "pharmacy", "dispensing": "yes", "drive_through": "no", "healthcare": "pharmacy", "name": "Apfarm", "ref:csioz": "1186856"}}, {"type": "node", "id": 9685977890, "lat": 50.8675445, "lon": 18.8418151, "tags": {"addr:city": "Truskolasy", "addr:housenumber": "20", "addr:postcode": "42-134", "addr:street": "Cmentarna", "amenity": "pharmacy", "dispensing": "yes", "healthcare": "pharmacy", "ref:csioz": "1073483"}}, {"type": "node", "id": 9685985323, "lat": 50.8371991, "lon": 18.9895346, "tags": {"addr:city": "Kalej", "addr:housenumber": "55", "addr:postcode": "42-130", "addr:street": "G\u0142\u00f3wna", "amenity": "pharmacy", "dispensing": "yes", "healthcare": "pharmacy", "name": "Punkt Apteczny Veris Kalej", "ref:csioz": "1211089"}}, {"type": "node", "id": 9685987356, "lat": 50.9756316, "lon": 19.0532898, "tags": {"addr:city": "Ostrowy nad Oksz\u0105", "addr:housenumber": "35", "addr:postcode": "42-122", "addr:street": "Tadeusza Ko\u015bciuszki", "amenity": "pharmacy", "dispensing": "yes", "healthcare": "pharmacy", "ref:csioz": "1066398"}}, {"type": "node", "id": 9685997319, "lat": 50.9527435, "lon": 18.8180061, "tags": {"addr:city": "Opat\u00f3w", "addr:housenumber": "10", "addr:postcode": "42-152", "addr:street": "Tadeusza Ko\u015bciuszki", "amenity": "pharmacy", "dispensing": "yes", "healthcare": "pharmacy", "ref:csioz": "1073090"}}, {"type": "node", "id": 9713838455, "lat": 50.63176, "lon": 18.841285}, {"type": "node", "id": 9713838456, "lat": 50.6317071, "lon": 18.8413042}, {"type": "node", "id": 9713838457, "lat": 50.6317134, "lon": 18.8413472}, {"type": "node", "id": 9713838458, "lat": 50.6317663, "lon": 18.841328}, {"type": "node", "id": 9713882203, "lat": 50.7521074, "lon": 18.8821997, "tags": {"addr:city": "Herby", "addr:housenumber": "21", "addr:postcode": "42-284", "addr:street": "Adama Mickiewicza", "amenity": "pharmacy", "dispensing": "yes", "healthcare": "pharmacy", "ref:csioz": "1062581"}}, {"type": "node", "id": 9713902781, "lat": 50.6343101, "lon": 18.8449214, "tags": {"addr:city": "Kosz\u0119cin", "addr:housenumber": "11D", "addr:postcode": "42-286", "addr:street": "Juliusza Ligonia", "amenity": "pharmacy", "dispensing": "yes", "healthcare": "pharmacy", "ref:csioz": "1065005"}}, {"type": "node", "id": 9713932558, "lat": 50.6345742, "lon": 18.9929333, "tags": {"addr:city": "Kamienica", "addr:housenumber": "31", "addr:postcode": "42-287", "addr:street": "Cz\u0119stochowska", "amenity": "pharmacy", "dispensing": "yes", "healthcare": "pharmacy", "name": "Kalma", "ref:csioz": "1063402"}}, {"type": "node", "id": 9713935640, "lat": 50.7480768, "lon": 18.8805583, "tags": {"addr:city": "Herby", "addr:housenumber": "43", "addr:postcode": "42-284", "addr:street": "Lubliniecka", "amenity": "pharmacy", "dispensing": "yes", "healthcare": "pharmacy", "ref:csioz": "1062570"}}, {"type": "node", "id": 9713947087, "lat": 50.6122925, "lon": 18.9662722, "tags": {"addr:city": "Psary", "addr:housenumber": "44", "addr:postcode": "42-287", "addr:street": "G\u0142\u00f3wna", "amenity": "pharmacy", "dispensing": "yes", "healthcare": "pharmacy", "name": "Libra", "ref:csioz": "1066964"}}, {"type": "node", "id": 9713957317, "lat": 50.636549, "lon": 18.8412205, "tags": {"addr:city": "Kosz\u0119cin", "addr:housenumber": "14", "addr:postcode": "42-286", "addr:street": "Powsta\u0144c\u00f3w \u015al\u0105skich", "amenity": "pharmacy", "dispensing": "yes", "healthcare": "pharmacy", "ref:csioz": "1065018"}}, {"type": "node", "id": 9829033362, "lat": 50.6750694, "lon": 19.2181246, "tags": {"addr:city": "Poraj", "addr:housenumber": "43", "addr:street": "Armii Krajowej", "amenity": "pharmacy", "dispensing": "yes", "healthcare": "pharmacy", "name": "Isofarm", "ref:csioz": "1219257"}}, {"type": "node", "id": 9829033363, "lat": 50.6782792, "lon": 19.2135591, "tags": {"addr:city": "Poraj", "addr:housenumber": "5", "addr:street": "Marsza\u0142ka J\u00f3zefa Pi\u0142sudskiego", "amenity": "pharmacy", "dispensing": "yes", "healthcare": "pharmacy", "name:signed": "no", "ref:csioz": "1066838"}}, {"type": "node", "id": 9829033364, "lat": 50.676369, "lon": 19.2144289, "tags": {"addr:city": "Poraj", "addr:housenumber": "3A", "addr:street": "G\u00f3rnicza", "amenity": "pharmacy", "dispensing": "yes", "healthcare": "pharmacy", "ref:csioz": "1066823"}}, {"type": "node", "id": 10241009243, "lat": 51.0794731, "lon": 19.1807966, "tags": {"amenity": "pharmacy", "dispensing": "yes", "healthcare": "pharmacy", "name": "Punkt Apteczny", "ref:csioz": "1017954"}}, {"type": "node", "id": 10241009244, "lat": 51.081345, "lon": 19.1837793, "tags": {"amenity": "pharmacy", "dispensing": "yes", "healthcare": "pharmacy", "ref:csioz": "1009552", "wheelchair": "no"}}, {"type": "node", "id": 12179616601, "lat": 50.8254081, "lon": 19.1111201, "tags": {"amenity": "pharmacy", "healthcare": "pharmacy", "name": "Corax"}}, {"type": "node", "id": 12569475929, "lat": 50.9045803, "lon": 18.9376987, "tags": {"amenity": "pharmacy", "healthcare": "pharmacy"}}, {"type": "node", "id": 12693797291, "lat": 50.8370768, "lon": 19.117153, "tags": {"amenity": "pharmacy", "healthcare": "pharmacy", "name": "Dr. Zdrowie"}}, {"type": "node", "id": 13004889839, "lat": 50.7216721, "lon": 19.4356697, "tags": {"amenity": "pharmacy", "healthcare": "pharmacy", "name": "Apteka \u015awi\u0119tej Anny"}}, {"type": "node", "id": 13004893309, "lat": 50.7193771, "lon": 19.4344633, "tags": {"amenity": "pharmacy", "healthcare": "pharmacy", "name": "Rodzinna"}}, {"type": "node", "id": 13037144445, "lat": 50.9091665, "lon": 18.9390488, "tags": {"amenity": "pharmacy", "dispensing": "yes", "healthcare": "pharmacy", "name": "Tag-Farm"}}, {"type": "node", "id": 13098630068, "lat": 50.8660971, "lon": 18.8265027, "tags": {"amenity": "pharmacy", "healthcare": "pharmacy"}}, {"type": "way", "id": 249502060, "nodes": [2560948933, 2560948935, 2560948936, 2560948934, 2560948933], "tags": {"amenity": "pharmacy", "building": "yes", "healthcare": "pharmacy"}}, {"type": "way", "id": 298793521, "nodes": [2402264720, 2402264783, 9713838457, 9713838456, 9713838455, 9713838458, 3027304192, 2402264724, 2402264720], "tags": {"addr:city": "Kosz\u0119cin", "addr:housenumber": "8A", "addr:postcode": "42-286", "addr:street": "Jana Sobieskiego", "amenity": "pharmacy", "building": "yes", "ref:csioz": "1065026"}}, {"type": "way", "id": 424707036, "nodes": [4240931666, 4240931667, 4240931668, 4240931669, 4240931666], "tags": {"addr:city": "K\u0142obuck", "addr:housenumber": "5B", "addr:postcode": "42-100", "addr:street": "11 Listopada", "amenity": "pharmacy", "brand": "Dbam o Zdrowie", "brand:wikidata": "Q62563833", "building": "yes", "building:levels": "1", "dispensing": "yes", "drive_through": "no", "healthcare": "pharmacy", "name": "Dbam o Zdrowie", "roof:colour": "silver", "short_name": "DOZ", "source:addr": "EMUiA (emuia.geoportal.gov.pl)"}}, {"type": "way", "id": 533525502, "nodes": [5175919230, 5175919232, 5175919233, 5175919231, 5175919230], "tags": {"addr:city": "Czarna Wie\u015b", "addr:housenumber": "91", "addr:postcode": "42-133", "addr:street": "Szkolna", "amenity": "pharmacy", "building": "yes", "dispensing": "yes", "healthcare": "pharmacy", "name": "Apteka Weglowice", "operator": "Krystyna Szleper", "ref:csioz": "1059930"}}, {"type": "way", "id": 841318292, "nodes": [7849892909, 7849892908, 7849892907, 7849892906, 7849892909], "tags": {"addr:city": "Rzerz\u0119czyce", "addr:city:simc": "0134440", "addr:housenumber": "75", "addr:postcode": "42-270", "addr:street": "Skrzydlowska", "addr:street:sym_ul": "20160", "amenity": "pharmacy", "building": "yes", "dispensing": "yes", "healthcare": "pharmacy", "name": "Punkt Apteczny Kapsu\u0142ka", "source": "www.geoportal.gov.pl", "source:addr": "klomnice.e-mapa.net"}}]}