{"version": 0.6, "generator": "Overpass API 0.7.62.8 e802775f", "osm3s": {"timestamp_osm_base": "2025-10-06T07:51:29Z", "copyright": "The data included in this document is from www.openstreetmap.org. The data is made available under ODbL."}, "elements": [{"type": "node", "id": 1154168333, "lat": 46.8929606, "lon": 18.0576344, "tags": {"addr:city": "Si\u00f3fok", "addr:housenumber": "27", "addr:postcode": "8600", "addr:street": "Vak Botty\u00e1n utca", "amenity": "pharmacy", "contact:phone": "+36 84 506 954", "healthcare": "pharmacy", "name": "Gy\u00f3gyszerpont Gy\u00f3gyszert\u00e1r", "opening_hours": "Mo-Sa 09:00-20:00"}}, {"type": "node", "id": 1372793552, "lat": 46.8997003, "lon": 18.0423157, "tags": {"amenity": "pharmacy", "name": "Kor\u00e1nyi Gy\u00f3gyszert\u00e1r", "wheelchair": "yes"}}, {"type": "node", "id": 2003120663, "lat": 47.1028715, "lon": 18.0068974}, {"type": "node", "id": 2003120680, "lat": 47.1028341, "lon": 18.0070557}, {"type": "node", "id": 2003120682, "lat": 47.1028032, "lon": 18.007018}, {"type": "node", "id": 2003120689, "lat": 47.1027907, "lon": 18.0071323}, {"type": "node", "id": 2003120704, "lat": 47.1028147, "lon": 18.006828}, {"type": "node", "id": 2003120731, "lat": 47.1027031, "lon": 18.0070252}, {"type": "node", "id": 2943843076, "lat": 46.8998556, "lon": 18.0277279}, {"type": "node", "id": 2959088385, "lat": 46.7291794, "lon": 18.0316573, "tags": {"addr:city": "Tab", "addr:housenumber": "65", "addr:postcode": "8660", "addr:street": "Kossuth Lajos utca", "amenity": "pharmacy", "healthcare": "pharmacy", "name": "Rudolf Patika", "opening_hours": "Mo-Fr 08:00-18:00; Sa 08:00-12:00", "operator": "Rudolf Patika Kereskedelmi Bt."}}, {"type": "node", "id": 3005323816, "lat": 47.031244, "lon": 18.0132466, "tags": {"addr:city": "Balatonalm\u00e1di", "addr:housenumber": "11", "addr:postcode": "8220", "addr:street": "Pet\u0151fi S\u00e1ndor utca", "amenity": "pharmacy", "contact:facebook": "818834871803888", "contact:phone": "+36 88 574 464", "dispensing": "no", "healthcare": "pharmacy", "name": "Optimum patika", "opening_hours": "Mo-Fr 07:30-18:00", "operator": "T\u00e1borosi \u00e9s T\u00e1rsa Bt.", "operator:addr": "8416 Dudar, Berek park 2.", "payment:cash": "yes", "payment:debit_cards": "yes", "payment:mastercard": "yes", "payment:visa": "yes", "ref:HU:vatin": "27261318-2-19", "wheelchair": "yes", "wikimedia_commons": "File:Balatonalm\u00e1di Optimum patika, PXL 20240126 113200426.jpg"}}, {"type": "node", "id": 3015816839, "lat": 47.0781019, "lon": 18.0272132, "tags": {"addr:city": "Balatonf\u0171zf\u0151", "addr:housenumber": "20", "addr:postcode": "8184", "addr:street": "Bugyog\u00f3forr\u00e1s utca", "addr:suburb": "F\u0171zf\u0151gy\u00e1rtelep", "amenity": "pharmacy", "name": "Balaton Gy\u00f3gyszert\u00e1r", "wheelchair": "no"}}, {"type": "node", "id": 3175148342, "lat": 47.0319449, "lon": 18.013755}, {"type": "node", "id": 3175148343, "lat": 47.0319796, "lon": 18.0135171}, {"type": "node", "id": 3175148345, "lat": 47.0320452, "lon": 18.0136334}, {"type": "node", "id": 3441442883, "lat": 46.89129, "lon": 18.1342266, "tags": {"amenity": "pharmacy", "name": "Forr\u00e1s patika", "source": "turistautak.hu", "source:date": "2012-10-14", "url": "http://turistautak.hu/poi.php?id=74340"}}, {"type": "node", "id": 6732515045, "lat": 47.0370205, "lon": 18.108079, "tags": {"addr:city": "Balatonkenese", "addr:housenumber": "23", "addr:postcode": "8174", "addr:street": "F\u0151 utca", "amenity": "pharmacy", "name": "Csillag Patika", "opening_hours": "Jun-Aug Mo-Su 08:00-19:00"}}, {"type": "node", "id": 8534280853, "lat": 47.0318793, "lon": 18.0136387}, {"type": "node", "id": 8831337934, "lat": 46.7309444, "lon": 18.0340419}, {"type": "node", "id": 8831337935, "lat": 46.7309719, "lon": 18.0339181}, {"type": "node", "id": 8928289004, "lat": 46.9080052, "lon": 18.0571069, "tags": {"addr:city": "Si\u00f3fok", "addr:housenumber": "202", "addr:postcode": "8600", "addr:street": "F\u0151 utca", "amenity": "pharmacy", "contact:phone": "+36 84 310 041;+36 84 510 168", "contact:website": "http://regigyogyszertar.hu/", "healthcare": "pharmacy", "name": "R\u00e9gi Gy\u00f3gyszert\u00e1r", "opening_hours": "Mo-Fr 08:00-19:00; Sa 08:00-13:00"}}, {"type": "node", "id": 9208664906, "lat": 46.904989, "lon": 18.0527218, "tags": {"addr:city": "Si\u00f3fok", "addr:housenumber": "10/B", "addr:postcode": "8600", "addr:street": "F\u0151 t\u00e9r", "amenity": "pharmacy", "brand": "Benu", "name": "F\u0151nix Gy\u00f3gyszert\u00e1r", "opening_hours": "Mo-Fr 08:00-18:00; Sa 08:00-12:00", "phone": "+36 84 510 730"}}, {"type": "node", "id": 9240434807, "lat": 46.8998163, "lon": 18.0275557}, {"type": "node", "id": 9240434808, "lat": 46.8995421, "lon": 18.0276897}, {"type": "node", "id": 9240434809, "lat": 46.8995814, "lon": 18.027862}, {"type": "node", "id": 9715814413, "lat": 46.7308349, "lon": 18.0338551}, {"type": "node", "id": 9715814414, "lat": 46.730806, "lon": 18.0339839}, {"type": "node", "id": 10213006289, "lat": 47.0792111, "lon": 18.0284464, "tags": {"amenity": "pharmacy"}}, {"type": "node", "id": 10969185251, "lat": 47.0320204, "lon": 18.0136618, "tags": {"entrance": "main"}}, {"type": "node", "id": 11350894246, "lat": 46.8367, "lon": 18.1023, "tags": {"addr:city": "S\u00e1gv\u00e1r", "addr:housenumber": "9", "addr:postcode": "8654", "addr:street": "Ady Endre utca", "amenity": "pharmacy", "fixme": "GLS csomagpont, \u00f6ssze kell vonni ezt a pontot a hozz\u00e1tartoz\u00f3 \u00fczlettel", "name": "S\u00e1gv\u00e1r Patika", "post_office": "post_partner", "post_office:brand": "GLS", "post_office:brand:wikidata": "Q366182", "post_office:parcel_from": "yes", "post_office:parcel_to": "yes", "post_office:ref": "8654-NOGROUPGRP"}}, {"type": "way", "id": 189726931, "nodes": [2003120689, 2003120731, 2003120704, 2003120663, 2003120682, 2003120680, 2003120689], "tags": {"addr:city": "Lit\u00e9r", "addr:housenumber": "12", "addr:postcode": "8196", "addr:street": "\u00c1rp\u00e1d utca", "amenity": "pharmacy", "building": "residential", "healthcare": "pharmacy", "name": "Zs\u00e1lya Gy\u00f3gyszert\u00e1r", "opening_hours": "Mo-Fr 07:30-17:30", "phone": "+36 20 508 4571", "website": "https://www.zsalyapatika.hu/"}}, {"type": "way", "id": 311795110, "nodes": [3175148343, 3175148345, 10969185251, 3175148342, 8534280853, 3175148343], "tags": {"addr:city": "Balatonalm\u00e1di", "addr:housenumber": "12", "addr:postcode": "8220", "addr:street": "Park utca", "amenity": "pharmacy", "building": "retail", "building:levels": "2", "contact:email": "iroda@gyorgypatika.hu", "contact:facebook": "https://www.facebook.com/gy.patika/", "contact:phone": "+36 88 593 970", "healthcare": "pharmacy", "name": "Gy\u00f6rgy Patika", "opening_hours": "Mo-Fr 07:30-18:00; Sa 08:00-13:00", "operator": "Dr. Gy\u00f6rgy Gy\u00f3gyszert\u00e1r Kft.", "operator:addr": "8220 Balatonalm\u00e1di, Baross G\u00e1bor \u00fat 25.", "ref:HU:vatin": "26585947-2-19"}}, {"type": "way", "id": 1001076284, "nodes": [2943843076, 9240434809, 9240434808, 9240434807, 2943843076], "tags": {"addr:city": "Si\u00f3fok", "addr:housenumber": "4", "addr:postcode": "8600", "addr:street": "Zam\u00e1rdi utca", "amenity": "pharmacy", "building": "yes", "dispensing": "yes", "email": "kaduceusgyogyszertar@gmail.com", "facebook": "https://www.facebook.com/gyoreymarianns", "healthcare": "pharmacy", "name": "Kaduceus Gy\u00f3gyszert\u00e1r", "opening_hours": "Sep 01-May 31 Mo-Fr 07:30-19:00; Sep 01-May 31 Sa 08:00-16:00; Jun 01-Aug 31 Mo-Fr 07:30-20:00; Jun 01-Aug 31 Sa 08:00-20:00; Jun 01-Aug 31 Su 08:00-20:00", "phone": "+3684310935", "website": "https://www.kaduceusgyogyszertar.hu"}}, {"type": "way", "id": 1057378618, "nodes": [9715814413, 8831337935, 8831337934, 9715814414, 9715814413], "tags": {"amenity": "pharmacy", "building": "retail", "building:levels": "1", "dispensing": "yes", "drive_through": "no", "healthcare": "pharmacy", "name": "Kamilla Gy\u00f3gyszert\u00e1r", "roof:levels": "0", "roof:shape": "gabled"}}]}