{"version": 0.6, "generator": "Overpass API 0.7.62.8 e802775f", "osm3s": {"timestamp_osm_base": "2025-10-06T08:24:06Z", "copyright": "The data included in this document is from www.openstreetmap.org. The data is made available under ODbL."}, "elements": [{"type": "node", "id": 257775684, "lat": 45.6110933, "lon": 22.9510087, "tags": {"addr:housenumber": "7", "addr:street": "Strada Tudor Vladimirescu", "amenity": "pharmacy", "name": "Farmacia Valfarm"}}, {"type": "node", "id": 359088630, "lat": 45.7517475, "lon": 22.8964921, "tags": {"addr:city": "Hunedoara", "addr:housenumber": "3", "addr:street": "Aleea Cioc\u00e2rliei", "amenity": "pharmacy", "dispensing": "no", "name": "Iulia Farm"}}, {"type": "node", "id": 371613715, "lat": 45.7656919, "lon": 22.9067478}, {"type": "node", "id": 371613721, "lat": 45.7657357, "lon": 22.9067664}, {"type": "node", "id": 371613726, "lat": 45.7657336, "lon": 22.9067763}, {"type": "node", "id": 383545288, "lat": 45.7579828, "lon": 22.9075297}, {"type": "node", "id": 486277559, "lat": 45.7544939, "lon": 22.9018788, "tags": {"addr:city": "Hunedoara", "addr:housenumber": "2", "addr:street": "Strada George Enescu", "amenity": "pharmacy", "healthcare": "pharmacy", "name": "Dianthus Pharma Plus"}}, {"type": "node", "id": 486277568, "lat": 45.7542062, "lon": 22.9033929, "tags": {"addr:city": "Hunedoara", "addr:housenumber": "6", "addr:street": "Strada George Enescu", "amenity": "pharmacy", "healthcare": "pharmacy", "name": "Medicom"}}, {"type": "node", "id": 486277575, "lat": 45.7538888, "lon": 22.9056417, "tags": {"addr:city": "Hunedoara", "addr:housenumber": "14", "addr:street": "Strada George Enescu", "amenity": "pharmacy", "healthcare": "pharmacy", "name": "Energofarm"}}, {"type": "node", "id": 486281444, "lat": 45.7562453, "lon": 22.9014305, "tags": {"addr:city": "Hunedoara", "addr:housenumber": "8", "addr:street": "Bulevardul Republicii", "amenity": "pharmacy", "name": "Serina"}}, {"type": "node", "id": 486287163, "lat": 45.7639977, "lon": 22.9060673, "tags": {"addr:city": "Hunedoara", "addr:housenumber": "6", "addr:street": "Bulevardul Mihai Viteazu", "amenity": "pharmacy", "name": "Richter"}}, {"type": "node", "id": 486290294, "lat": 45.7555251, "lon": 22.9144562, "tags": {"addr:city": "Hunedoara", "addr:housenumber": "7", "addr:street": "Bulevardul 1848", "amenity": "pharmacy", "name": "Remedia Sf\u00e2ntul Francisc"}}, {"type": "node", "id": 486293812, "lat": 45.760499, "lon": 22.9070107, "tags": {"addr:street": "Strada Avram Iancu", "amenity": "pharmacy", "name": "GMC Dava Med"}}, {"type": "node", "id": 486300552, "lat": 45.7510316, "lon": 22.9025835, "tags": {"addr:city": "Hunedoara", "addr:housenumber": "1", "addr:street": "Strada Nicolae B\u0103lcescu", "amenity": "pharmacy", "healthcare": "pharmacy", "name": "Lu-Ka"}}, {"type": "node", "id": 486304820, "lat": 45.7710064, "lon": 22.9120022, "tags": {"addr:city": "Hunedoara", "addr:housenumber": "39", "addr:street": "Bulevardul Dacia", "amenity": "pharmacy", "name": "Remedica Com"}}, {"type": "node", "id": 486307515, "lat": 45.7640154, "lon": 22.9097167, "tags": {"addr:city": "Hunedoara", "addr:housenumber": "25", "addr:street": "Bulevardul Dacia", "amenity": "pharmacy", "name": "Robinia Farm"}}, {"type": "node", "id": 486325252, "lat": 45.756211, "lon": 22.9188177, "tags": {"addr:street": "Strada Viorele", "amenity": "pharmacy", "name": "Remedia Sf\u00e2nta Ana"}}, {"type": "node", "id": 486328390, "lat": 45.756838, "lon": 22.9015598, "tags": {"addr:street": "Bulevardul Republicii", "amenity": "pharmacy", "name": "Remedia Corvinul"}}, {"type": "node", "id": 486342653, "lat": 45.7572655, "lon": 22.9051197, "tags": {"addr:city": "Hunedoara", "addr:housenumber": "10A", "addr:street": "Bulevardul Ion Corvin", "amenity": "pharmacy", "brand": "Dr. Max", "brand:wikidata": "Q56317371", "healthcare": "pharmacy", "name": "Dr. Max", "operator": "Dr.Max", "website": "https://www.drmax.ro"}}, {"type": "node", "id": 486342660, "lat": 45.7600073, "lon": 22.9112772, "tags": {"amenity": "pharmacy", "brand": "Dr. Max", "brand:wikidata": "Q56317371", "healthcare": "pharmacy", "name": "Dr. Max", "operator": "Dr.Max", "website": "https://www.drmax.ro"}}, {"type": "node", "id": 486362687, "lat": 45.7686966, "lon": 22.9113795, "tags": {"addr:city": "Hunedoara", "addr:housenumber": "33", "addr:street": "Bulevardul Dacia", "amenity": "pharmacy", "name": "Serina"}}, {"type": "node", "id": 498265720, "lat": 45.7606426, "lon": 22.9017895, "tags": {"amenity": "pharmacy", "name": "Top Pharma"}}, {"type": "node", "id": 529680204, "lat": 45.7323375, "lon": 23.0240247, "tags": {"amenity": "pharmacy", "name": "Iedera"}}, {"type": "node", "id": 529680206, "lat": 45.7332615, "lon": 23.0266815, "tags": {"amenity": "pharmacy", "name": "Farmedia"}}, {"type": "node", "id": 529680209, "lat": 45.732034, "lon": 23.0233679, "tags": {"amenity": "pharmacy", "name": "Lotus"}}, {"type": "node", "id": 529680211, "lat": 45.7320161, "lon": 23.0231533, "tags": {"amenity": "pharmacy", "name": "Remedia"}}, {"type": "node", "id": 533632778, "lat": 45.8777386, "lon": 22.9037825, "tags": {"addr:housenumber": "7", "addr:street": "Aleea Transilvaniei", "amenity": "pharmacy", "name": "Tacomi"}}, {"type": "node", "id": 564747667, "lat": 45.8481065, "lon": 23.0143649, "tags": {"addr:housenumber": "31", "addr:street": "Strada Atelierului", "amenity": "pharmacy", "dispensing": "no", "name": "Pharma Monica"}}, {"type": "node", "id": 564747669, "lat": 45.849063, "lon": 23.0133347, "tags": {"addr:city": "Simeria", "addr:housenumber": "6", "addr:postcode": "335900", "addr:street": "Pia\u021ba Unirii", "amenity": "pharmacy", "check_date": "2014-05-30", "healthcare": "pharmacy", "name": "Viofarm", "opening_hours": "07:00 - 23:00", "operator": "Viofarm s.r.l.", "website": "https://viofarm-pharmacy.business.site"}}, {"type": "node", "id": 565455304, "lat": 45.8494313, "lon": 23.0118209, "tags": {"addr:housenumber": "43", "addr:street": "Strada Avram Iancu", "amenity": "pharmacy", "name": "Remedia Sf\u00e2ntul Andrei"}}, {"type": "node", "id": 565455306, "lat": 45.8504859, "lon": 23.0131461, "tags": {"addr:housenumber": "18", "amenity": "pharmacy", "healthcare": "pharmacy", "name": "Grifi"}}, {"type": "node", "id": 585311634, "lat": 45.8413531, "lon": 23.1873089, "tags": {"addr:city": "Or\u0103\u0219tie", "addr:housenumber": "37A", "addr:street": "Strada Pricazului", "amenity": "pharmacy", "name": "Elixir"}}, {"type": "node", "id": 585315724, "lat": 45.8397609, "lon": 23.1904972, "tags": {"addr:city": "Or\u0103\u0219tie", "addr:housenumber": "4", "addr:street": "Strada Pricazului", "amenity": "pharmacy", "name": "Agora"}}, {"type": "node", "id": 593686650, "lat": 45.8376262, "lon": 23.1913601, "tags": {"addr:city": "Or\u0103\u0219tie", "addr:housenumber": "1", "addr:postcode": "335700", "addr:street": "Strada Armatei", "amenity": "pharmacy", "brand": "Catena", "brand:wikidata": "Q24035728", "healthcare": "pharmacy", "name": "Catena"}}, {"type": "node", "id": 612975488, "lat": 45.7515758, "lon": 22.9021131, "tags": {"addr:city": "Hunedoara", "addr:housenumber": "13A", "addr:street": "Strada Victoriei", "amenity": "pharmacy", "brand": "Catena", "brand:wikidata": "Q24035728", "healthcare": "pharmacy", "name": "Catena"}}, {"type": "node", "id": 642030661, "lat": 45.8493043, "lon": 23.0127597, "tags": {"amenity": "pharmacy", "name": "Cosmifarm"}}, {"type": "node", "id": 648542897, "lat": 45.8506525, "lon": 23.012174, "tags": {"amenity": "pharmacy", "dispensing": "no", "name": "Geofarm"}}, {"type": "node", "id": 649751557, "lat": 45.8753146, "lon": 22.9063891, "tags": {"addr:housenumber": "Q2", "addr:street": "Bulevardul 22 Decembrie 1989", "amenity": "pharmacy", "name": "Hipocrat"}}, {"type": "node", "id": 660477322, "lat": 45.8709422, "lon": 22.9055347, "tags": {"amenity": "pharmacy", "name": "E-Lite Nutritia"}}, {"type": "node", "id": 664273944, "lat": 45.879603, "lon": 22.9054318, "tags": {"amenity": "pharmacy", "name": "Bell' Optik"}}, {"type": "node", "id": 667925237, "lat": 45.8805373, "lon": 22.9051799, "tags": {"amenity": "pharmacy", "dispensing": "yes", "name": "Artemis"}}, {"type": "node", "id": 667925244, "lat": 45.8843548, "lon": 22.9041937, "tags": {"amenity": "pharmacy", "brand": "Remedia", "dispensing": "yes", "name": "Sf. Trei Ierarhi"}}, {"type": "node", "id": 673262843, "lat": 45.8650076, "lon": 22.9076078, "tags": {"amenity": "pharmacy", "dispensing": "yes", "name": "Sf. Maria", "operator": "Remedia"}}, {"type": "node", "id": 673743607, "lat": 45.8824337, "lon": 22.9057105, "tags": {"amenity": "pharmacy", "dispensing": "yes", "name": "HelpNet"}}, {"type": "node", "id": 674564979, "lat": 45.8831908, "lon": 22.90636, "tags": {"amenity": "pharmacy", "dispensing": "yes", "name": "Belladona"}}, {"type": "node", "id": 676813916, "lat": 45.8778772, "lon": 22.9024998, "tags": {"addr:city": "Deva", "addr:street": "Strada Pia\u021ba Victoriei", "amenity": "pharmacy", "brand": "Remedia", "check_date": "2017-08-14", "dispensing": "yes", "drive_through": "no", "name": "Remedia - Sf. Gheorghe", "opening_hours": "24/7", "operator": "Remedia"}}, {"type": "node", "id": 676819216, "lat": 45.8781201, "lon": 22.9035945, "tags": {"amenity": "pharmacy", "brand": "Dr. Max", "brand:wikidata": "Q56317371", "dispensing": "yes", "name": "Dr. Max", "operator": "Dr.Max", "website": "https://www.drmax.ro"}}, {"type": "node", "id": 682362140, "lat": 45.8826035, "lon": 22.9089835, "tags": {"amenity": "pharmacy", "dispensing": "yes", "name": "Galenica"}}, {"type": "node", "id": 683810178, "lat": 45.7506284, "lon": 22.9053456, "tags": {"addr:city": "Hunedoara", "amenity": "pharmacy", "dispensing": "yes", "drive_through": "no", "healthcare": "pharmacy", "name": "Remedia", "opening_hours": "sunrise-sunset"}}, {"type": "node", "id": 686196771, "lat": 45.9150448, "lon": 22.8807688, "tags": {"amenity": "pharmacy", "dispensing": "yes", "name": "Farmacie"}}, {"type": "node", "id": 710736002, "lat": 45.8727839, "lon": 22.9046252, "tags": {"amenity": "pharmacy", "dispensing": "yes", "name": "Integra Stecom"}}, {"type": "node", "id": 710736284, "lat": 45.8739483, "lon": 22.9097126, "tags": {"amenity": "pharmacy", "dispensing": "yes", "name": "Nirvana"}}, {"type": "node", "id": 721073335, "lat": 45.8748901, "lon": 22.9083913, "tags": {"amenity": "pharmacy", "name": "Catena"}}, {"type": "node", "id": 721078648, "lat": 45.7578724, "lon": 22.9075699, "tags": {"amenity": "pharmacy", "brand": "Farmacia Dona", "brand:wikidata": "Q12726919", "healthcare": "pharmacy", "name": "Farmacia Dona"}}, {"type": "node", "id": 721088233, "lat": 45.6090495, "lon": 22.9508238, "tags": {"addr:housenumber": "D1", "amenity": "pharmacy", "name": "Nora"}}, {"type": "node", "id": 721090707, "lat": 45.6107892, "lon": 22.9494743, "tags": {"addr:city": "Ha\u021beg", "amenity": "pharmacy", "dispensing": "no", "name": "Nardus Farm"}}, {"type": "node", "id": 731819562, "lat": 45.8861491, "lon": 22.9042357, "tags": {"amenity": "pharmacy", "brand": "Richter", "check_date": "2010", "name": "Richter"}}, {"type": "node", "id": 957121144, "lat": 45.8627194, "lon": 22.9091933, "tags": {"addr:housenumber": "1", "addr:street": "Strada Mihai Eminescu", "amenity": "pharmacy", "name": "Hygeea Dava Com"}}, {"type": "node", "id": 964943321, "lat": 45.837895, "lon": 23.1959506, "tags": {"addr:city": "Or\u0103\u0219tie", "addr:housenumber": "3", "addr:street": "Strada Nicolae B\u0103lcescu", "amenity": "pharmacy", "name": "Novo Farm"}}, {"type": "node", "id": 973612849, "lat": 45.8382461, "lon": 23.1957313, "tags": {"amenity": "pharmacy", "name": "Serina"}}, {"type": "node", "id": 973612852, "lat": 45.8379098, "lon": 23.194004, "tags": {"addr:city": "Or\u0103\u0219tie", "addr:housenumber": "1", "addr:street": "Strada Nicolae B\u0103lcescu", "amenity": "pharmacy", "name": "Comart Flores"}}, {"type": "node", "id": 1342091237, "lat": 45.879501, "lon": 22.905845, "tags": {"addr:housenumber": "23", "addr:street": "Bulevardul Decebal", "amenity": "pharmacy", "dispensing": "yes", "name": "Farmacia Catena", "website": "https://www.catena.ro/"}}, {"type": "node", "id": 1384970841, "lat": 45.6104813, "lon": 22.9509389, "tags": {"amenity": "pharmacy", "name": "Remedia"}}, {"type": "node", "id": 1459562052, "lat": 45.7113969, "lon": 22.7873697, "tags": {"addr:housename": "Farmacia Remedia", "addr:housenumber": "32", "addr:postcode": "337240", "addr:street": "Strada Rusca", "amenity": "pharmacy", "dispensing": "yes", "name": "Farmacia Remedia", "website": "www.remedia.ro"}}, {"type": "node", "id": 2598971525, "lat": 45.8376322, "lon": 23.1956816, "tags": {"addr:city": "Or\u0103\u0219tie", "addr:postcode": "335700", "addr:street": "Strada Nicolae B\u0103lcescu", "amenity": "pharmacy", "healthcare": "pharmacy", "name": "Farmacia Gen\u021biana"}}, {"type": "node", "id": 3325707834, "lat": 45.7571302, "lon": 22.9072658}, {"type": "node", "id": 4671696997, "lat": 45.7642819, "lon": 22.9064031, "tags": {"addr:city": "Hunedoara", "addr:street": "Strada Mihai Viteazu", "amenity": "pharmacy", "brand": "Dr. Max", "brand:wikidata": "Q56317371", "healthcare": "pharmacy", "name": "Dr. Max"}}, {"type": "node", "id": 4739738022, "lat": 45.8779348, "lon": 22.9026557, "tags": {"addr:street": "Pia\u021ba Victoriei", "amenity": "pharmacy", "name": "Revitalia"}}, {"type": "node", "id": 5293991566, "lat": 45.9318266, "lon": 22.6572261, "tags": {"amenity": "pharmacy", "healthcare": "pharmacy", "name": "Farmacia Sf\u00e2ntul Mihail"}}, {"type": "node", "id": 5726445512, "lat": 45.7507655, "lon": 22.9054498}, {"type": "node", "id": 5726445515, "lat": 45.7508919, "lon": 22.9053205}, {"type": "node", "id": 5726445516, "lat": 45.7507753, "lon": 22.9053044}, {"type": "node", "id": 5726445517, "lat": 45.7508821, "lon": 22.9054659}, {"type": "node", "id": 6053538191, "lat": 45.8645023, "lon": 22.9077778, "tags": {"amenity": "pharmacy"}}, {"type": "node", "id": 6053538202, "lat": 45.8826265, "lon": 22.9063514, "tags": {"amenity": "pharmacy"}}, {"type": "node", "id": 6053546203, "lat": 45.8660467, "lon": 22.9078873, "tags": {"amenity": "pharmacy", "healthcare": "pharmacy"}}, {"type": "node", "id": 6053546226, "lat": 45.8798335, "lon": 22.9055852, "tags": {"amenity": "pharmacy"}}, {"type": "node", "id": 6053546243, "lat": 45.8839504, "lon": 22.9043182, "tags": {"amenity": "pharmacy"}}, {"type": "node", "id": 6053546246, "lat": 45.885802, "lon": 22.9042117, "tags": {"amenity": "pharmacy"}}, {"type": "node", "id": 6053553991, "lat": 45.8780151, "lon": 22.9036794, "tags": {"amenity": "pharmacy"}}, {"type": "node", "id": 6053554495, "lat": 45.8832185, "lon": 22.9079684, "tags": {"amenity": "pharmacy"}}, {"type": "node", "id": 6053554498, "lat": 45.8823002, "lon": 22.9059, "tags": {"amenity": "pharmacy"}}, {"type": "node", "id": 12194528564, "lat": 45.7657665, "lon": 22.9067903}, {"type": "node", "id": 12194528565, "lat": 45.765683, "lon": 22.9067902}, {"type": "node", "id": 12194528566, "lat": 45.7657601, "lon": 22.906822}, {"type": "node", "id": 12204816524, "lat": 45.7578574, "lon": 22.9074917}, {"type": "node", "id": 12204816525, "lat": 45.7578637, "lon": 22.9075473}, {"type": "node", "id": 12204816529, "lat": 45.7578748, "lon": 22.9075915}, {"type": "node", "id": 12204816530, "lat": 45.7579696, "lon": 22.9076187}, {"type": "node", "id": 12204816531, "lat": 45.7578557, "lon": 22.9074602, "tags": {"amenity": "pharmacy", "brand": "Dr. Max", "brand:wikidata": "Q56317371", "healthcare": "pharmacy", "name": "Dr. Max"}}, {"type": "node", "id": 12211850246, "lat": 45.7571342, "lon": 22.9071969}, {"type": "node", "id": 12211850247, "lat": 45.7571474, "lon": 22.9072005}, {"type": "node", "id": 12211850248, "lat": 45.7571602, "lon": 22.9072083}, {"type": "node", "id": 12211850249, "lat": 45.7571725, "lon": 22.9072245, "tags": {"entrance": "yes"}}, {"type": "node", "id": 12211850250, "lat": 45.7571819, "lon": 22.9072407}, {"type": "node", "id": 12211850251, "lat": 45.7571886, "lon": 22.9072727}, {"type": "node", "id": 12282145919, "lat": 45.7569375, "lon": 22.9050552, "tags": {"amenity": "pharmacy", "brand": "Catena", "brand:wikidata": "Q24035728", "healthcare": "pharmacy", "name": "Catena"}}, {"type": "node", "id": 13147041282, "lat": 45.8419366, "lon": 23.1959032, "tags": {"amenity": "pharmacy", "name": "Farmacia lui Jula"}}, {"type": "way", "id": 603114635, "nodes": [5726445515, 5726445516, 5726445512, 5726445517, 5726445515], "tags": {"addr:city": "Hunedoara", "addr:housenumber": "12", "addr:street": "Strada Victoriei", "amenity": "pharmacy", "building": "yes", "dispensing": "yes", "healthcare": "pharmacy", "name": "Farmacia Medimfarm", "opening_hours": "Mo-Fr 08:00-20:00; Sa,Su 09:00-17:00", "payment:cash": "yes", "payment:debit_cards": "yes", "payment:maestro": "yes", "payment:visa": "yes"}}, {"type": "way", "id": 1317587487, "nodes": [12194528564, 371613726, 371613721, 371613715, 12194528565, 12194528566, 12194528564], "tags": {"addr:city": "Hunedoara", "amenity": "pharmacy", "building": "yes", "healthcare": "pharmacy", "height": "3"}}, {"type": "way", "id": 1318763138, "nodes": [383545288, 12204816524, 12204816525, 12204816529, 12204816530, 383545288], "tags": {"amenity": "pharmacy", "brand": "Farmacia Dona", "brand:wikidata": "Q12726919", "building": "yes", "healthcare": "pharmacy", "height": "4", "name": "Farmacia Dona", "roof:colour": "#c0c0c0"}}, {"type": "way", "id": 1319633939, "nodes": [12211850246, 12211850247, 12211850248, 12211850249, 12211850250, 12211850251, 3325707834, 12211850246], "tags": {"addr:city": "Hunedoara", "amenity": "pharmacy", "building": "yes", "healthcare": "pharmacy", "height": "7", "name": "Alfa Com"}}]}