{"version": 0.6, "generator": "Overpass API 0.7.62.8 e802775f", "osm3s": {"timestamp_osm_base": "2025-10-06T08:45:30Z", "copyright": "The data included in this document is from www.openstreetmap.org. The data is made available under ODbL."}, "elements": [{"type": "node", "id": 3206902272, "lat": 51.7883227, "lon": 23.2096208, "tags": {"addr:city": "Wisznice", "addr:city:simc": "0022013", "addr:housenumber": "38", "addr:postcode": "21-580", "addr:street": "Rynek", "addr:street:sym_ul": "19253", "amenity": "pharmacy", "dispensing": "yes", "healthcare": "pharmacy", "ref:csioz": "1156210"}}, {"type": "node", "id": 3208266536, "lat": 51.6409565, "lon": 22.8992947, "tags": {"addr:city": "Parczew", "addr:housenumber": "9", "addr:postcode": "21-200", "addr:street": "Plac Wolno\u015bci", "amenity": "pharmacy", "dispensing": "yes", "healthcare": "pharmacy", "name": "Vita", "opening_hours": "Mo-Fr 09:00-17:00", "ref:csioz": "1155966"}}, {"type": "node", "id": 3369363908, "lat": 51.78766, "lon": 23.20863, "tags": {"addr:city": "Wisznice", "addr:city:simc": "0022013", "addr:housenumber": "10", "addr:postcode": "21-580", "addr:street": "Piotra Makaruka", "amenity": "pharmacy", "dispensing": "yes", "healthcare": "pharmacy", "opening_hours": "Mo-Fr 07:30-17:00; Sa 07:30-13:00", "ref:csioz": "1155915", "source:addr": "wisznice.e-mapa.net"}}, {"type": "node", "id": 3468330133, "lat": 51.5219288, "lon": 23.0922288, "tags": {"addr:city": "Sosnowica", "addr:city:simc": "0108393", "addr:housenumber": "8", "addr:postcode": "21-230", "addr:street": "Adama Mickiewicza", "addr:street:sym_ul": "12740", "amenity": "pharmacy", "dispensing": "yes", "healthcare": "pharmacy", "opening_hours": "Mo-Fr 08:00-16:00; Sa 08:00-10:30", "phone": "+48 82 591 21 10", "ref:csioz": "1156614", "source:addr": "emuia.gugik.gov.pl"}}, {"type": "node", "id": 4170322302, "lat": 51.6347003, "lon": 22.9127331}, {"type": "node", "id": 4170322303, "lat": 51.6347189, "lon": 22.9126819}, {"type": "node", "id": 4170322304, "lat": 51.6347268, "lon": 22.9126977}, {"type": "node", "id": 4170322305, "lat": 51.634745, "lon": 22.9128205}, {"type": "node", "id": 4170322306, "lat": 51.6348161, "lon": 22.9125536}, {"type": "node", "id": 4170322308, "lat": 51.634869, "lon": 22.9126569}, {"type": "node", "id": 4377095140, "lat": 51.7567812, "lon": 22.7857169, "tags": {"addr:housenumber": "34", "addr:postcode": "21-310", "addr:street": "\u015arednia", "amenity": "pharmacy", "check_date": "2023-01-18", "dispensing": "yes", "drive_through": "no", "healthcare": "pharmacy", "level": "0", "name": "Nowa", "opening_hours": "Mo-Fr 08:00-18:00; Sa 08:00-13:00; Su,PH off", "payment:blik": "yes", "payment:cash": "yes", "payment:coins": "yes", "payment:mastercard": "yes", "payment:visa": "yes", "ref:csioz": "1106067", "wheelchair": "yes"}}, {"type": "node", "id": 4406747518, "lat": 51.4943158, "lon": 22.8539009, "tags": {"addr:city": "Ostr\u00f3w Lubelski", "addr:housenumber": "10", "addr:postcode": "21-110", "addr:street": "Czerwonego Krzy\u017ca", "amenity": "pharmacy", "dispensing": "yes", "drive_through": "no", "healthcare": "pharmacy", "ref:csioz": "1187662"}}, {"type": "node", "id": 5839735086, "lat": 51.6742273, "lon": 22.6373426, "tags": {"amenity": "pharmacy", "dispensing": "yes", "healthcare": "pharmacy", "name": "Apteka", "opening_hours": "Mo-Fr 08:00-18:00; Sa 08:00-14:00", "ref:csioz": "1164044"}}, {"type": "node", "id": 7178725862, "lat": 51.641576, "lon": 22.9121221, "tags": {"amenity": "pharmacy", "dispensing": "yes", "healthcare": "pharmacy", "name": "Spo\u0142eczna", "opening_hours": "Mo-Fr 08:00-19:00; Sa 08:00-15:00", "ref:csioz": "1191188"}}, {"type": "node", "id": 8521204220, "lat": 51.5626749, "lon": 23.3937548, "tags": {"addr:city:simc": "0110958", "amenity": "pharmacy", "dispensing": "yes", "healthcare": "pharmacy", "name": "Punkt Apteczny \"Vita\"", "opening_hours": "Mo-Fr 08:00-15:00", "ref:csioz": "1106417"}}, {"type": "node", "id": 8953419947, "lat": 51.6402815, "lon": 22.8989509, "tags": {"amenity": "pharmacy", "brand": "Dr. Max", "brand:wikidata": "Q56317371", "check_date": "2025-06-22", "dispensing": "yes", "healthcare": "pharmacy", "name": "Dr. Max", "ref:csioz": "1155816", "shop": "chemist"}}, {"type": "node", "id": 8957008966, "lat": 51.6400559, "lon": 22.9010293, "tags": {"amenity": "pharmacy", "dispensing": "yes", "healthcare": "pharmacy", "name": "Eskulap", "ref:csioz": "1156502"}}, {"type": "node", "id": 9028722131, "lat": 51.6421125, "lon": 22.9080048, "tags": {"amenity": "pharmacy", "brand": "Arnika", "check_date": "2025-06-22", "dispensing": "yes", "healthcare": "pharmacy", "name": "Arnika", "operator": "Arnimed", "phone": "+48 83 354 19 26", "ref:csioz": "1155535", "website": "http://www.arnimed.pl/strona/home.html"}}, {"type": "node", "id": 10591637947, "lat": 51.9034473, "lon": 23.1753007, "tags": {"amenity": "pharmacy", "dispensing": "yes", "healthcare": "pharmacy", "ref:csioz": "1106102"}}, {"type": "node", "id": 10591968550, "lat": 51.7887467, "lon": 23.2089366, "tags": {"amenity": "pharmacy", "dispensing": "yes", "healthcare": "pharmacy", "name": "Centrum", "ref:csioz": "1194203"}}, {"type": "node", "id": 10591968571, "lat": 51.8576617, "lon": 23.1353096, "tags": {"amenity": "pharmacy", "dispensing": "yes", "healthcare": "pharmacy", "name": "Punkt Apteczny", "ref:csioz": "1122816"}}, {"type": "node", "id": 10591968572, "lat": 51.8578993, "lon": 23.1356948, "tags": {"amenity": "pharmacy", "dispensing": "yes", "healthcare": "pharmacy", "name": "Punkt Apteczny Vikamed", "ref:csioz": "1229792"}}, {"type": "node", "id": 10592421055, "lat": 51.4699653, "lon": 22.9389454, "tags": {"amenity": "pharmacy", "dispensing": "yes", "fixme": "Lokalizacja do weryfikacji", "healthcare": "pharmacy", "name": "Punkt Apteczny", "opening_hours": "Mo-Fr 08:00-16:00; Sa 08:00-14:00", "phone": "+48 81 852 12 28", "ref:csioz": "1231293"}}, {"type": "node", "id": 10592421059, "lat": 51.4949285, "lon": 22.8542247, "tags": {"amenity": "pharmacy", "dispensing": "yes", "healthcare": "pharmacy", "name": "Vital Centrum", "ref:csioz": "1215834"}}, {"type": "node", "id": 10598946877, "lat": 51.7822963, "lon": 22.6158795, "tags": {"addr:housenumber": "17", "addr:street": "Warszawska", "amenity": "pharmacy", "brand": "Centrum Zdrowia", "check_date": "2023-02-01", "dispensing": "yes", "drive_through": "no", "healthcare": "pharmacy", "level": "0", "name": "Centrum Zdrowia", "opening_hours": "Mo-Fr 08:00-19:00; Sa 08:00-15:00; Su off", "payment:blik": "yes", "payment:cash": "yes", "payment:coins": "yes", "payment:mastercard": "yes", "payment:visa": "yes", "ref:csioz": "1155834", "wheelchair": "yes"}}, {"type": "node", "id": 10599828397, "lat": 51.5781143, "lon": 22.7939648, "tags": {"amenity": "pharmacy", "dispensing": "yes", "healthcare": "pharmacy", "name": "Punkt Apteczny", "ref:csioz": "1106657"}}, {"type": "node", "id": 10599828398, "lat": 51.6288739, "lon": 22.7726218, "tags": {"amenity": "pharmacy", "dispensing": "yes", "healthcare": "pharmacy", "ref:csioz": "1156045"}}, {"type": "node", "id": 10599828399, "lat": 51.641793, "lon": 22.9032116, "tags": {"amenity": "pharmacy", "dispensing": "yes", "healthcare": "pharmacy", "ref:csioz": "1203528"}}, {"type": "node", "id": 10599828400, "lat": 51.7007812, "lon": 22.8928602, "tags": {"amenity": "pharmacy", "dispensing": "yes", "fixme": "Lokalizacja do weryfikacji", "healthcare": "pharmacy", "name": "Punkt Apteczny Rodzinny", "ref:csioz": "1219579"}}, {"type": "node", "id": 10599828401, "lat": 51.6071907, "lon": 23.1269591, "tags": {"amenity": "pharmacy", "dispensing": "yes", "healthcare": "pharmacy", "name": "Punkt Apteczny Vita", "ref:csioz": "1231305"}}, {"type": "node", "id": 10599828402, "lat": 51.7245315, "lon": 23.0862612, "tags": {"amenity": "pharmacy", "dispensing": "yes", "healthcare": "pharmacy", "ref:csioz": "1156163"}}, {"type": "node", "id": 10599869641, "lat": 51.7737305, "lon": 22.6045654, "tags": {"amenity": "pharmacy", "dispensing": "yes", "healthcare": "pharmacy", "name": "Vita W Topazie", "ref:csioz": "1178540"}}, {"type": "node", "id": 10599869642, "lat": 51.7765445, "lon": 22.6113086, "tags": {"amenity": "pharmacy", "dispensing": "yes", "healthcare": "pharmacy", "name": "Remedium", "ref:csioz": "1155678"}}, {"type": "node", "id": 10599869643, "lat": 51.7726319, "lon": 22.6076994, "tags": {"amenity": "pharmacy", "brand": "Centrum Zdrowia", "dispensing": "yes", "healthcare": "pharmacy", "name": "Centrum Zdrowia", "ref:csioz": "1155701"}}, {"type": "node", "id": 10599869644, "lat": 51.7730088, "lon": 22.6069601, "tags": {"amenity": "pharmacy", "dispensing": "yes", "healthcare": "pharmacy", "name": "Przyszpitalna", "ref:csioz": "1231047"}}, {"type": "node", "id": 10599869645, "lat": 51.7758947, "lon": 22.6100631, "tags": {"amenity": "pharmacy", "brand": "Dbam o Zdrowie", "brand:wikidata": "Q62563833", "dispensing": "yes", "healthcare": "pharmacy", "name": "Dbam o Zdrowie", "ref:csioz": "1156362", "short_name": "DOZ"}}, {"type": "node", "id": 10599869646, "lat": 51.7794185, "lon": 22.6257032, "tags": {"amenity": "pharmacy", "dispensing": "yes", "fixme": "Lokalizacja do weryfikacji", "healthcare": "pharmacy", "ref:csioz": "1156101"}}, {"type": "node", "id": 10599869647, "lat": 51.7838885, "lon": 22.6204327, "tags": {"amenity": "pharmacy", "dispensing": "yes", "healthcare": "pharmacy", "name": "Vita", "ref:csioz": "1155597"}}, {"type": "node", "id": 10599869648, "lat": 51.7839379, "lon": 22.6218243, "tags": {"amenity": "pharmacy", "dispensing": "yes", "healthcare": "pharmacy", "name": "Rodzinna", "ref:csioz": "1224836"}}, {"type": "node", "id": 10599869649, "lat": 51.7831246, "lon": 22.6164812, "tags": {"amenity": "pharmacy", "dispensing": "yes", "healthcare": "pharmacy", "name": "Od Serca", "ref:csioz": "1164122"}}, {"type": "node", "id": 10599869650, "lat": 51.7830047, "lon": 22.6196777, "tags": {"amenity": "pharmacy", "brand": "Dr. Max", "brand:wikidata": "Q56317371", "dispensing": "yes", "healthcare": "pharmacy", "name": "Dr. Max", "ref:csioz": "1195470"}}, {"type": "node", "id": 10599869651, "lat": 51.7792871, "lon": 22.6158919, "tags": {"amenity": "pharmacy", "dispensing": "yes", "healthcare": "pharmacy", "name": "Od Serca", "ref:csioz": "1155725"}}, {"type": "node", "id": 10599869662, "lat": 51.802698, "lon": 22.944005, "tags": {"amenity": "pharmacy", "dispensing": "yes", "healthcare": "pharmacy", "name": "Vita", "ref:csioz": "1156450"}}, {"type": "node", "id": 10599869663, "lat": 51.6756183, "lon": 22.6442533, "tags": {"amenity": "pharmacy", "check_date:opening_hours": "2025-04-21", "dispensing": "yes", "healthcare": "pharmacy", "name": "Proxima", "opening_hours": "Mo-Fr 08:00-16:00; Sa 08:00-12:00", "ref:csioz": "1200228"}}, {"type": "way", "id": 311752497, "nodes": [4170322308, 4170322306, 4170322303, 4170322304, 4170322302, 4170322305, 4170322308], "tags": {"addr:city": "Parczew", "addr:city:simc": "0922254", "addr:housenumber": "136", "addr:postcode": "21-200", "addr:street": "Ko\u015bcielna", "addr:street:sym_ul": "09546", "amenity": "pharmacy", "building": "yes", "building:levels": "1", "dispensing": "yes", "healthcare": "pharmacy", "name": "Przyszpitalna", "opening_hours": "Mo-Fr 07:00-20:00; Sa 08:00-15:00", "ref:csioz": "1156278", "source:addr": "parczew.e-mapa.net"}}]}