{"version": 0.6, "generator": "Overpass API 0.7.62.8 e802775f", "osm3s": {"timestamp_osm_base": "2025-10-06T08:16:01Z", "copyright": "The data included in this document is from www.openstreetmap.org. The data is made available under ODbL."}, "elements": [{"type": "node", "id": 2323688243, "lat": 47.6242311, "lon": 20.7541285}, {"type": "node", "id": 2323688245, "lat": 47.6242463, "lon": 20.7538231}, {"type": "node", "id": 2323688246, "lat": 47.6244587, "lon": 20.7541535}, {"type": "node", "id": 2323688247, "lat": 47.6244739, "lon": 20.7538482}, {"type": "node", "id": 2354600763, "lat": 47.62781, "lon": 20.8916611, "tags": {"addr:city": "Egyek", "addr:housenumber": "48/a", "addr:postcode": "4069", "addr:street": "Hunyadi J\u00e1nos utca", "amenity": "pharmacy", "healthcare": "pharmacy", "name": "Rem\u00e9nys\u00e9g patika", "note": "H\u00e9tf\u0151-p\u00e9ntek: 8:00-16:00 (\u00dcgyeletet nem l\u00e1t el a helyi gy\u00f3gyszert\u00e1r.)", "phone": "+36 52 579 008", "wheelchair": "yes"}}, {"type": "node", "id": 2360430463, "lat": 47.6169262, "lon": 20.758115, "tags": {"addr:city": "Tiszaf\u00fcred", "addr:housenumber": "27", "addr:postcode": "5350", "addr:street": "F\u0151 utca", "amenity": "pharmacy", "email": "remenyseg@benugyogyszertar.hu", "healthcare": "pharmacy", "name": "BENU Rem\u00e9nys\u00e9g Gy\u00f3gyszert\u00e1r", "opening_hours": "Mo-Fr 08:00-18:00; Sa 08:00-12:30", "phone": "+36 59 510 180", "website": "https://benu.hu/"}}, {"type": "node", "id": 2370163100, "lat": 47.6243273, "lon": 20.7539595}, {"type": "node", "id": 2370163102, "lat": 47.6243336, "lon": 20.7538326}, {"type": "node", "id": 2370163104, "lat": 47.6243715, "lon": 20.7539644}, {"type": "node", "id": 2370163105, "lat": 47.6243778, "lon": 20.7538376}, {"type": "node", "id": 2372458108, "lat": 47.6058009, "lon": 20.7594708, "tags": {"amenity": "pharmacy", "healthcare": "pharmacy", "name": "Gy\u00f6ngy Patika"}}, {"type": "node", "id": 2383272749, "lat": 47.5831583, "lon": 21.1519934, "tags": {"amenity": "pharmacy", "healthcare": "pharmacy", "name": "Fekete G\u00f3lya gy\u00f3gyszert\u00e1r", "wheelchair": "yes"}}, {"type": "node", "id": 2906598920, "lat": 47.5597084, "lon": 20.52644}, {"type": "node", "id": 2906598921, "lat": 47.5596406, "lon": 20.5262755}, {"type": "node", "id": 2906598922, "lat": 47.5594315, "lon": 20.5264647}, {"type": "node", "id": 2906598923, "lat": 47.5594992, "lon": 20.5266292}, {"type": "node", "id": 2972302400, "lat": 47.4912702, "lon": 20.7241632, "tags": {"amenity": "pharmacy", "dispensing": "no", "healthcare": "pharmacy"}}, {"type": "node", "id": 3273630981, "lat": 47.6218217, "lon": 20.7501579, "tags": {"addr:city": "Tiszaf\u00fcred", "addr:housenumber": "13", "addr:postcode": "5350", "addr:street": "Ady Endre utca", "amenity": "pharmacy", "healthcare": "pharmacy", "name": "P\u00e1tria Patika", "opening_hours": "Mo-Fr 08:00-18:00; Sa 08:00-13:00; Su off", "phone": "+36 59 511 311", "website": "https://www.patriatiszafured.hu/"}}, {"type": "node", "id": 3487710207, "lat": 47.5091917, "lon": 20.8188376, "tags": {"addr:city": "Tisza\u00f6rs", "addr:housenumber": "13", "addr:postcode": "5362", "addr:street": "R\u00e1k\u00f3czi Ferenc \u00fat", "amenity": "pharmacy", "healthcare": "pharmacy", "name": "M\u00e1ty\u00e1s Kir\u00e1ly Gy\u00f3gyszert\u00e1r"}}, {"type": "node", "id": 3489588068, "lat": 47.6986124, "lon": 20.9871601, "tags": {"amenity": "pharmacy", "healthcare": "pharmacy", "source": "turistautak.hu", "source:date": "2009-02-12", "url": "http://turistautak.hu/poi.php?id=55247"}}, {"type": "node", "id": 3489649114, "lat": 47.727639, "lon": 20.9495085, "tags": {"addr:city": "\u00c1rokt\u0151", "addr:housenumber": "75", "addr:postcode": "3467", "addr:street": "Sz\u00e9chenyi utca", "amenity": "pharmacy", "healthcare": "pharmacy", "name": "V\u00e1ndor patika", "source": "turistautak.hu", "source:date": "2009-02-13", "url": "http://turistautak.hu/poi.php?id=55225"}}, {"type": "node", "id": 3489649138, "lat": 47.8222044, "lon": 20.9018662, "tags": {"amenity": "pharmacy", "healthcare": "pharmacy", "source": "turistautak.hu", "source:date": "2010-03-26", "url": "http://turistautak.hu/poi.php?id=51035"}}, {"type": "node", "id": 3490702901, "lat": 47.4785571, "lon": 20.5922725, "tags": {"amenity": "pharmacy", "healthcare": "pharmacy", "name": "Gabriel Arkangyal Gy\u00f3gyszert\u00e1r", "source": "turistautak.hu", "source:date": "2009-02-09", "url": "http://turistautak.hu/poi.php?id=65986"}}, {"type": "node", "id": 4709781584, "lat": 47.3847282, "lon": 20.8404964}, {"type": "node", "id": 4709781585, "lat": 47.3847723, "lon": 20.8405709}, {"type": "node", "id": 4709781586, "lat": 47.3848515, "lon": 20.8404688}, {"type": "node", "id": 4709781587, "lat": 47.3848074, "lon": 20.8403943}, {"type": "node", "id": 4849495937, "lat": 47.3670446, "lon": 20.6325497}, {"type": "node", "id": 4849495938, "lat": 47.3669004, "lon": 20.6325713}, {"type": "node", "id": 4849495939, "lat": 47.3668858, "lon": 20.6323596}, {"type": "node", "id": 4849495940, "lat": 47.3669707, "lon": 20.6323469}, {"type": "node", "id": 4849495941, "lat": 47.3669767, "lon": 20.6324346}, {"type": "node", "id": 4849495942, "lat": 47.367036, "lon": 20.6324257}, {"type": "node", "id": 4849495983, "lat": 47.3716544, "lon": 20.6311637}, {"type": "node", "id": 4849495984, "lat": 47.3713793, "lon": 20.631011}, {"type": "node", "id": 4849495985, "lat": 47.3713233, "lon": 20.6312309}, {"type": "node", "id": 4849495986, "lat": 47.3715984, "lon": 20.6313836}, {"type": "node", "id": 7705376784, "lat": 47.3847641, "lon": 20.8404107}, {"type": "node", "id": 7705381885, "lat": 47.3847298, "lon": 20.8404549}, {"type": "node", "id": 7705381886, "lat": 47.384743, "lon": 20.8404773}, {"type": "node", "id": 7705381887, "lat": 47.3847773, "lon": 20.8404331}, {"type": "node", "id": 7705381888, "lat": 47.3848053, "lon": 20.8405883}, {"type": "node", "id": 7705381889, "lat": 47.3848395, "lon": 20.8405443}, {"type": "node", "id": 7705381890, "lat": 47.3847852, "lon": 20.8405543}, {"type": "node", "id": 7705381891, "lat": 47.3848194, "lon": 20.8405102}, {"type": "node", "id": 7791189861, "lat": 47.4299844, "lon": 20.7978129}, {"type": "node", "id": 7791189862, "lat": 47.4299327, "lon": 20.7977909}, {"type": "node", "id": 7791189863, "lat": 47.4299874, "lon": 20.797958}, {"type": "node", "id": 7791189864, "lat": 47.4298576, "lon": 20.7979615}, {"type": "node", "id": 7791189865, "lat": 47.4297748, "lon": 20.7976261}, {"type": "node", "id": 7791189866, "lat": 47.4298836, "lon": 20.7975738}, {"type": "node", "id": 7809729550, "lat": 47.6447543, "lon": 20.6551019}, {"type": "node", "id": 7809729551, "lat": 47.6446784, "lon": 20.6551771}, {"type": "node", "id": 7809729552, "lat": 47.644592, "lon": 20.6549849}, {"type": "node", "id": 7809729553, "lat": 47.6446679, "lon": 20.6549098}, {"type": "node", "id": 10916728144, "lat": 47.7742646, "lon": 20.658405, "tags": {"addr:city": "Szentistv\u00e1n", "addr:housenumber": "16", "addr:postcode": "3418", "addr:street": "Sz\u00e9chenyi utca", "amenity": "pharmacy", "contact:phone": "+36 49 438 886", "healthcare": "pharmacy", "name": "Pesti Patika"}}, {"type": "way", "id": 223466650, "nodes": [2323688247, 2370163105, 2370163104, 2370163100, 2370163102, 2323688245, 2323688243, 2323688246, 2323688247], "tags": {"amenity": "pharmacy", "building": "yes", "healthcare": "pharmacy", "name": "Gy\u00f3gyszert\u00e1r BENU rem\u00e9nys\u00e9g"}}, {"type": "way", "id": 286994995, "nodes": [2906598920, 2906598921, 2906598922, 2906598923, 2906598920], "tags": {"addr:city": "Tiszan\u00e1na", "addr:housenumber": "108", "addr:postcode": "3385", "addr:street": "F\u0151 \u00fat", "amenity": "pharmacy", "building": "yes", "healthcare": "pharmacy", "name": "M\u00e1t\u00e9 Patika"}}, {"type": "way", "id": 477669966, "nodes": [4709781587, 4709781586, 7705381891, 7705381889, 7705381888, 7705381890, 4709781585, 4709781584, 7705381886, 7705381885, 7705376784, 7705381887, 4709781587], "tags": {"addr:city": "Berekf\u00fcrd\u0151", "addr:housenumber": "1", "addr:postcode": "5309", "addr:street": "F\u00fcrd\u0151 utca", "amenity": "pharmacy", "building": "yes", "healthcare": "pharmacy", "name": "Berek Patika", "opening_hours": "Mo-Fr 10:30-12:30,13:00-15:00", "operator": "Berek Patika Bt.", "wheelchair": "yes"}}, {"type": "way", "id": 492998875, "nodes": [4849495937, 4849495938, 4849495939, 4849495940, 4849495941, 4849495942, 4849495937], "tags": {"amenity": "pharmacy", "building": "yes"}}, {"type": "way", "id": 492998880, "nodes": [4849495983, 4849495984, 4849495985, 4849495986, 4849495983], "tags": {"amenity": "pharmacy", "building": "yes"}}, {"type": "way", "id": 834629857, "nodes": [7791189866, 7791189862, 7791189861, 7791189863, 7791189864, 7791189865, 7791189866], "tags": {"amenity": "pharmacy", "building": "yes"}}, {"type": "way", "id": 836769876, "nodes": [7809729553, 7809729550, 7809729551, 7809729552, 7809729553], "tags": {"amenity": "pharmacy", "building": "yes", "healthcare": "pharmacy", "source": "turistautak.hu", "source:date": "2013-09-07", "url": "http://turistautak.hu/poi.php?id=159011"}}]}