{"version": 0.6, "generator": "Overpass API 0.7.62.8 e802775f", "osm3s": {"timestamp_osm_base": "2025-10-06T08:16:01Z", "copyright": "The data included in this document is from www.openstreetmap.org. The data is made available under ODbL."}, "elements": [{"type": "node", "id": 551572829, "lat": 49.9891788, "lon": 19.676398, "tags": {"addr:city": "Czernich\u00f3w", "addr:housenumber": "2", "addr:postcode": "32-070", "addr:street": "Gminna", "amenity": "pharmacy", "dispensing": "yes", "healthcare": "pharmacy", "name": "Twoja", "opening_hours": "Mo-Fr 08:00-21:00", "operator": "Eskulap S.C.", "payment:cash": "yes", "payment:credit_cards": "yes", "payment:debit_cards": "yes", "phone": "+48122702003,+48122702602", "ref:csioz": "1076699", "source": "http://ump.waw.pl/ retrieved 01:24:13 09/02/09 (UMP-Krakow/src/KRAKOW.zakupy.pnt-converted.txt);survey;https://mapa.targeo.pl/twoja-apteka-gminna-2-32-070-czernichow~12745095/apteka/adres"}}, {"type": "node", "id": 613384192, "lat": 49.9992696, "lon": 19.895259, "tags": {"addr:city": "Krak\u00f3w", "addr:country": "PL", "addr:housenumber": "23B", "addr:postcode": "30-389", "addr:street": "Profesora Boles\u0142awa Wiktora Wicherkiewicza", "amenity": "pharmacy", "brand": "Dbam o Zdrowie", "brand:wikidata": "Q62563833", "dispensing": "yes", "drive_through": "no", "healthcare": "pharmacy", "name": "Dbam o Zdrowie", "official_name": "Apteka Dbam O Zdrowie", "opening_hours": "Mo-Fr 8:00-20:00; Sa 8:00-15:00", "ref:csioz": "1036289", "short_name": "DOZ", "website": "https://www.doz.pl/", "wheelchair": "yes", "wheelchair:description": "Dostep bez schodow, ale jest ostry zjazd w dol (lagodniejszy od strony ul. Komuny Paryskiej niz od ul. Wicherkiewicza)."}}, {"type": "node", "id": 799230489, "lat": 50.0176263, "lon": 19.8929139, "tags": {"amenity": "pharmacy", "brand": "Dbam o Zdrowie", "brand:wikidata": "Q62563833", "healthcare": "pharmacy", "name": "Dbam o Zdrowie", "opening_hours": "Mo-Fr 08:00-21:00; Sa 08:00-15:00", "ref:csioz": "1074896", "short_name": "DOZ"}}, {"type": "node", "id": 906649931, "lat": 50.1390441, "lon": 19.3986847, "tags": {"addr:city": "Chrzan\u00f3w", "addr:housenumber": "7", "addr:postcode": "32-500", "addr:street": "J\u00f3zefa Pi\u0142sudskiego", "amenity": "pharmacy", "dispensing": "yes", "healthcare": "pharmacy", "name": "Seniora", "opening_hours": "Mo-Sa 08:00-20:00", "ref:csioz": "1075527"}}, {"type": "node", "id": 989910652, "lat": 50.1409465, "lon": 19.3986494, "tags": {"amenity": "pharmacy", "dispensing": "yes", "healthcare": "pharmacy", "name": "Diafar", "ref:csioz": "1074764"}}, {"type": "node", "id": 1176013798, "lat": 50.0397948, "lon": 19.2287571, "tags": {"addr:city": "O\u015bwi\u0119cim", "addr:housenumber": "5", "addr:street": "Franciszka \u017bwirki i Stanis\u0142awa Wigury", "amenity": "pharmacy", "healthcare": "pharmacy", "name": "Centrum", "opening_hours": "Mo-Fr 08:00-18:00; Sa 08:00-13:00", "phone": "338423918"}}, {"type": "node", "id": 1219152626, "lat": 50.0477591, "lon": 19.2148411, "tags": {"addr:city": "O\u015bwi\u0119cim", "addr:housenumber": "24A", "addr:postcode": "32-600", "addr:street": "Andrzeja Nideckiego", "amenity": "pharmacy", "name": "Delfin", "opening_hours": "Mo-Fr 08:00-20:00; Sa 08:00-14:00", "phone": "338443534", "recycling:drugs": "yes", "ref:csioz": "1037041"}}, {"type": "node", "id": 1308904271, "lat": 50.084858, "lon": 19.849033, "tags": {"amenity": "pharmacy", "dispensing": "yes", "name": "Hygieia", "opening_hours": "Mo-Fr 07:00-21:00; Sa 07:00-16:00", "ref:csioz": "1035620"}}, {"type": "node", "id": 1362136209, "lat": 50.037357, "lon": 19.2249119, "tags": {"addr:housenumber": "12", "addr:street": "Plac Tadeusza Ko\u015bciuszki", "amenity": "pharmacy", "healthcare": "pharmacy", "name": "NOVA", "opening_hours": "Mo-Fr 8:00-20:00;Sa 8:00-16:00", "phone": "338422634"}}, {"type": "node", "id": 1368743652, "lat": 50.1487037, "lon": 19.7908441, "tags": {"amenity": "pharmacy", "dispensing": "no"}}, {"type": "node", "id": 1447753778, "lat": 50.0386888, "lon": 19.225409, "tags": {"addr:city": "O\u015bwi\u0119cim", "addr:housenumber": "11A", "addr:postcode": "32-600", "addr:street": "Genera\u0142a Jaros\u0142awa D\u0105browskiego", "amenity": "pharmacy", "healthcare": "pharmacy", "name": "Libra", "opening_hours": "Mo-Sa 08:00-22:00; Su 09:00-22:00", "phone": "338444341", "recycling:drugs": "yes", "ref:csioz": "1076211"}}, {"type": "node", "id": 1552009760, "lat": 50.0375698, "lon": 19.2204858, "tags": {"addr:city": "O\u015bwi\u0119cim", "addr:housenumber": "6", "addr:postcode": "32-600", "addr:street": "W\u0142adys\u0142awa Jagie\u0142\u0142y", "amenity": "pharmacy", "dispensing": "yes", "healthcare": "pharmacy", "name": "Prywatna", "opening_hours": "Mo-Fr 8:00-19:00;Sa 8:00-13:00;Su 9:00-13:00", "phone": "+48 33 844 08 40", "ref:csioz": "1036930"}}, {"type": "node", "id": 1565224497, "lat": 50.0366786, "lon": 19.2008804, "tags": {"addr:city": "O\u015bwi\u0119cim", "addr:housenumber": "7A", "addr:postcode": "32-600", "addr:street": "Wi\u0119\u017ani\u00f3w O\u015bwi\u0119cimia", "amenity": "pharmacy", "check_date": "2025-07-26", "dispensing": "yes", "name": "Blisko Ciebie", "opening_hours": "24/7", "phone": "338430744", "recycling:drugs": "yes", "ref:csioz": "1037108"}}, {"type": "node", "id": 1607403815, "lat": 50.1598231, "lon": 19.4672474}, {"type": "node", "id": 1607403817, "lat": 50.1598601, "lon": 19.4671351}, {"type": "node", "id": 1640452959, "lat": 50.1385949, "lon": 19.3994431, "tags": {"addr:city": "Chrzan\u00f3w", "addr:housenumber": "19", "addr:postcode": "32-500", "addr:street": "Soko\u0142a", "amenity": "pharmacy", "dispensing": "yes", "healthcare": "pharmacy", "name": "Pod Or\u0142em", "ref:csioz": "1218032"}}, {"type": "node", "id": 1650909774, "lat": 49.9655544, "lon": 19.6316942, "tags": {"amenity": "pharmacy", "name": "Remedium", "opening_hours": "Mo-Fr 08:00-18:00; Sa 08:00-14:00"}}, {"type": "node", "id": 1667940925, "lat": 50.0360583, "lon": 19.2421596, "tags": {"addr:housenumber": "8", "addr:street": "Plac Pokoju", "amenity": "pharmacy", "healthcare": "pharmacy", "name": "Malwa", "opening_hours": "Mo-Fr 8:00-19:00;Sa 9:00-13:00", "phone": "338444721"}}, {"type": "node", "id": 1705644056, "lat": 50.1599958, "lon": 19.4698203, "tags": {"addr:city": "Trzebinia", "addr:housenumber": "8", "addr:postcode": "32-540", "addr:street": "Gabriela Narutowicza", "amenity": "pharmacy", "dispensing": "yes", "healthcare": "pharmacy", "name": "S\u0142oneczna", "opening_hours": "Mo-Fr 07:00-20:00; Sa 07:00-14:00; Su off", "ref:csioz": "1113228", "wheelchair": "yes"}}, {"type": "node", "id": 1708164201, "lat": 50.0391479, "lon": 19.2396071, "tags": {"addr:housenumber": "2", "addr:street": "Szpitalna", "amenity": "pharmacy", "healthcare": "pharmacy", "name": "VITA", "opening_hours": "Mo-Fr 8:00-20:00;Sa 8:00-14:00", "phone": "338444609"}}, {"type": "node", "id": 1744170385, "lat": 49.9957916, "lon": 19.4377736, "tags": {"addr:city": "Zator", "addr:housenumber": "7", "addr:postcode": "32-640", "addr:street": "Rynek", "amenity": "pharmacy", "dispensing": "yes", "healthcare": "pharmacy", "name": "Pod Lwem", "ref:csioz": "1035375"}}, {"type": "node", "id": 1750206958, "lat": 50.0290342, "lon": 19.2408395, "tags": {"addr:city": "O\u015bwi\u0119cim", "addr:housenumber": "1", "addr:postcode": "32-600", "addr:street": "Aleja Juliusza S\u0142owackiego", "amenity": "pharmacy", "healthcare": "pharmacy", "name": "Apteka 4 Pory Roku", "opening_hours": "Mo-Fr 8:00-20:00; Sa 8:00-15:00", "phone": "+48 33 842 44 73", "ref:csioz": "1035265"}}, {"type": "node", "id": 1758328138, "lat": 49.9741108, "lon": 19.8284061, "tags": {"addr:city": "Skawina", "addr:housenumber": "7", "addr:street": "Kazimierza Wielkiego", "amenity": "pharmacy", "name": "Apteka Rumianek"}}, {"type": "node", "id": 1758328191, "lat": 49.973274, "lon": 19.8292717, "tags": {"amenity": "pharmacy", "name": "Apteka Rumianek"}}, {"type": "node", "id": 1765664532, "lat": 50.0312809, "lon": 19.2381756, "tags": {"addr:city": "O\u015bwi\u0119cim", "addr:housenumber": "5", "addr:postcode": "32-600", "addr:street": "Jana III Sobieskiego", "amenity": "pharmacy", "dispensing": "yes", "healthcare": "pharmacy", "name": "Rodzinna", "opening_hours": "Mo-Sa 08:00-20:00", "phone": "338410812", "recycling:drugs": "yes", "ref:csioz": "1042061"}}, {"type": "node", "id": 1780670537, "lat": 50.038051, "lon": 19.2311819, "tags": {"addr:housenumber": "30", "addr:street": "Genera\u0142a Jaros\u0142awa D\u0105browskiego", "amenity": "pharmacy", "healthcare": "pharmacy", "name": "Twoja"}}, {"type": "node", "id": 1781858266, "lat": 50.1419994, "lon": 19.4059337, "tags": {"addr:city": "Chrzan\u00f3w", "addr:housenumber": "11", "addr:postcode": "32-500", "addr:street": "Rynek", "amenity": "pharmacy", "dispensing": "yes", "healthcare": "pharmacy", "name": "Centrum Tanich Lek\u00f3w", "opening_hours": "24/7", "ref:csioz": "1077360"}}, {"type": "node", "id": 1781858269, "lat": 50.1420537, "lon": 19.4049571, "tags": {"addr:city": "Chrzan\u00f3w", "addr:housenumber": "14", "addr:postcode": "32-500", "addr:street": "Rynek", "amenity": "pharmacy", "dispensing": "yes", "healthcare": "pharmacy", "name": "S\u0142oneczna", "opening_hours": "Mo-Su 08:00-20:00", "ref:csioz": "1056762"}}, {"type": "node", "id": 1786118977, "lat": 50.1570184, "lon": 19.4593962, "tags": {"addr:city": "Trzebinia", "addr:housenumber": "47", "addr:street": "Tadeusza Ko\u015bciuszki", "amenity": "pharmacy", "dispensing": "yes", "healthcare": "pharmacy", "name": "Rodzinna", "ref:csioz": "1035233"}}, {"type": "node", "id": 1820597959, "lat": 50.0663382, "lon": 19.2581769, "tags": {"amenity": "pharmacy"}}, {"type": "node", "id": 1857119663, "lat": 50.0349241, "lon": 19.2343292, "tags": {"addr:city": "O\u015bwi\u0119cim", "addr:housenumber": "2", "addr:postcode": "32-600", "addr:street": "Bronis\u0142awa Czecha", "amenity": "pharmacy", "dispensing": "yes", "healthcare": "pharmacy", "name": "Apteka Mi\u0119towa", "opening_hours": "Mo-Fr 07:30-19:00; Su 08:00-13:00", "phone": "338414697", "ref:csioz": "1056329"}}, {"type": "node", "id": 1870457788, "lat": 50.0197651, "lon": 19.8978989, "tags": {"amenity": "pharmacy", "dispensing": "yes", "name": "Apteka Vita", "opening_hours": "Mo-Fr 08:00-21:00; Sa 08:00-20:00", "ref:csioz": "1037242"}}, {"type": "node", "id": 1891953034, "lat": 49.9838185, "lon": 19.3248481, "tags": {"addr:housenumber": "2", "addr:street": "D\u0142uga", "amenity": "pharmacy", "dispensing": "yes", "name": "Prywatna", "opening_hours": "Mo-Fr 08:30-16:30"}}, {"type": "node", "id": 2167526965, "lat": 50.0377164, "lon": 19.2087552, "tags": {"addr:housenumber": "1", "addr:street": "Garbarska", "amenity": "pharmacy", "entrance": "yes", "name": "Arnika", "opening_hours": "Mo-Fr 07:30-21:00; Sa,Su 08:00-15:00", "phone": "338433594"}}, {"type": "node", "id": 2167528433, "lat": 50.0363223, "lon": 19.2077011, "tags": {"addr:housenumber": "22", "addr:postcode": "32-600", "addr:street": "Szarych Szereg\u00f3w", "amenity": "pharmacy", "name": "zasole", "opening_hours": "Mo-Fr 07:30-20:00; Sa 07:30-14:00", "phone": "338432649", "ref:csioz": "1075399"}}, {"type": "node", "id": 2229435264, "lat": 49.8527813, "lon": 19.3419171, "tags": {"addr:city": "Andrych\u00f3w", "addr:housenumber": "32", "addr:postcode": "34-120", "addr:street": "Rynek", "amenity": "pharmacy", "healthcare": "pharmacy", "name": "Apteka Pod Bia\u0142ym Or\u0142em I", "opening_hours": "Mo-Fr 07:00-20:00; Sa 08:00-14:00; PH off"}}, {"type": "node", "id": 2229437114, "lat": 49.8557325, "lon": 19.3343191, "tags": {"addr:city": "Andrych\u00f3w", "addr:housenumber": "83", "addr:postcode": "34-120", "addr:street": "Krakowska", "amenity": "pharmacy", "name": "Apteka Andrychowska", "opening_hours": "Mo-Sa 07:00-21:00; Su 09:00-19:00; PH off", "phone": "+48 33 483 31 13"}}, {"type": "node", "id": 2262905769, "lat": 50.0332046, "lon": 19.2424918, "tags": {"addr:city": "O\u015bwi\u0119cim", "addr:housenumber": "26", "addr:postcode": "32-600", "addr:street": "Zygmunta Wr\u00f3blewskiego", "amenity": "pharmacy", "dispensing": "yes", "healthcare": "pharmacy", "name": "Remedium", "opening_hours": "Mo-Fr 7:30-20:00; Sa 8:00-15:00", "phone": "338440120", "ref:csioz": "1216174"}}, {"type": "node", "id": 2271173093, "lat": 49.8558749, "lon": 19.3356087, "tags": {"addr:city": "Andrych\u00f3w", "addr:housenumber": "138", "addr:postcode": "34-120", "addr:street": "Krakowska", "amenity": "pharmacy", "dispensing": "yes", "healthcare": "pharmacy", "name": "Przy Banku", "opening_hours": "Mo-Fr 08:00-20:00; Sa 08:00-16:00; Su 10:00-16:00; PH off", "operator": "Ewa Bartkowiak", "phone": "+48 33 870 20 77"}}, {"type": "node", "id": 2272104398, "lat": 50.0760574, "lon": 19.1724549, "tags": {"amenity": "pharmacy", "dispensing": "yes", "healthcare": "pharmacy"}}, {"type": "node", "id": 2272159561, "lat": 50.0415468, "lon": 19.2353013, "tags": {"addr:housenumber": "4", "addr:street": "Wysokie Brzegi", "amenity": "pharmacy", "healthcare": "pharmacy", "name": "Bliska", "opening_hours": "Mo-Fr 8:00-19:00;Sa 8:00-14:00", "phone": "338448237"}}, {"type": "node", "id": 2340468275, "lat": 50.134175, "lon": 19.5783074, "tags": {"addr:city": "Wola Filipowska", "addr:housenumber": "11", "addr:postcode": "32-067", "addr:street": "Chrzanowska", "amenity": "pharmacy", "dispensing": "yes", "historic": "wayside_shrine", "name": "Punkt Apteczny"}}, {"type": "node", "id": 2366193521, "lat": 49.9991198, "lon": 19.7435002, "tags": {"amenity": "pharmacy"}}, {"type": "node", "id": 2399810012, "lat": 49.8692197, "lon": 19.6845151, "tags": {"addr:city": "Kalwaria Zebrzydowska", "addr:housenumber": "7", "addr:street": "Aleja Jana Paw\u0142a II", "amenity": "pharmacy", "check_date": "2025-08-02", "dispensing": "yes", "healthcare": "pharmacy", "name": "Twoja Apteka"}}, {"type": "node", "id": 2483671342, "lat": 50.1002989, "lon": 19.253753, "tags": {"addr:city": "Che\u0142mek", "addr:housenumber": "2", "addr:postcode": "32-660", "addr:street": "Piastowska", "amenity": "pharmacy", "healthcare": "pharmacy", "name": "Apteka pod kasztanem"}}, {"type": "node", "id": 2484481745, "lat": 49.8832443, "lon": 19.491756, "tags": {"addr:city": "Wadowice", "addr:housenumber": "12", "addr:postcode": "34-100", "addr:street": "Plac Jana Paw\u0142a II", "amenity": "pharmacy", "dispensing": "yes", "healthcare": "pharmacy", "name": "Apteka Og\u00f3lnodost\u0119pna typu A", "opening_hours": "Mo-Fr 07:00-18:00; Sa 07:00-14:00", "phone": "+48338234106"}}, {"type": "node", "id": 2498736087, "lat": 50.0061595, "lon": 19.8973553, "tags": {"amenity": "pharmacy", "dispensing": "yes", "name": "DOZ", "official_name": "Apteka Vita", "opening_hours": "Mo-Sa 08:00-21:00", "ref:csioz": "1115415", "website": "https://www.doz.pl/apteki/a115867-DOZ_Apteka_Dbam_o_Zdrowie"}}, {"type": "node", "id": 2512595221, "lat": 49.9984172, "lon": 19.4294152, "tags": {"addr:city": "Zator", "addr:housenumber": "17", "addr:postcode": "32-640", "addr:street": "Kolejowa", "amenity": "pharmacy", "healthcare": "pharmacy", "name": "Apteka \"Nowa Zatorska\"", "ref:csioz": "1042057"}}, {"type": "node", "id": 2524778988, "lat": 50.0350042, "lon": 19.2383309, "tags": {"addr:city": "O\u015bwi\u0119cim", "addr:housenumber": "23-39", "addr:postcode": "32-600", "addr:street": "J\u0119drzeja \u015aniadeckiego", "amenity": "pharmacy", "healthcare": "pharmacy", "name": "Zdrowit", "opening_hours": "Mo-Fr 08:00-20:00; Sa 08:00-16:00", "phone": "338464531", "ref:csioz": "1120091"}}, {"type": "node", "id": 2524778989, "lat": 50.0346238, "lon": 19.2244992, "tags": {"addr:city": "O\u015bwi\u0119cim", "addr:housenumber": "11", "addr:postcode": "32-600", "addr:street": "Kr\u00f3lowej Jadwigi", "amenity": "pharmacy", "brand": "Dr. Max", "brand:wikidata": "Q56317371", "brand:wikipedia": "fr:Dr.Max", "healthcare": "pharmacy", "name": "Dr. Max", "opening_hours": "Mo-Fr 08:30-21:00; Sa 09:00-20:00; Su 09:00-17:00", "phone": "338427427", "ref:csioz": "1074561"}}, {"type": "node", "id": 2524778990, "lat": 50.0344297, "lon": 19.254477, "tags": {"addr:housenumber": "5a", "addr:street": "Chemik\u00f3w", "amenity": "pharmacy", "healthcare": "pharmacy", "name": "Multi-Vita", "opening_hours": "Mo-Fr 8:00-20:00;Sa 8:00-13:00", "phone": "338474141"}}, {"type": "node", "id": 2524778991, "lat": 50.0442738, "lon": 19.2074849, "tags": {"addr:housenumber": "1", "addr:street": "Powsta\u0144c\u00f3w \u015al\u0105skich", "amenity": "pharmacy", "healthcare": "pharmacy", "name": "EURO APTEKA", "opening_hours": "Mo-Sa 9:00-21:00;Su 10:00-20:00", "phone": "334841892"}}, {"type": "node", "id": 2524782648, "lat": 50.0104612, "lon": 19.2812449, "tags": {"amenity": "pharmacy", "dispensing": "no", "name": "Punkt Apteczny", "opening_hours": "Mo-Fr 8:00-17:00;Sa 8:00-14:00", "phone": "338413054"}}, {"type": "node", "id": 2530441998, "lat": 49.8654519, "lon": 19.6760109, "tags": {"amenity": "pharmacy", "name": "apteka Bonifratr\u00f3w"}}, {"type": "node", "id": 2552401036, "lat": 50.0374041, "lon": 19.7650692, "tags": {"amenity": "pharmacy", "name": "Malwa"}}, {"type": "node", "id": 2569059465, "lat": 50.1439637, "lon": 19.4157414, "tags": {"addr:city": "Chrzan\u00f3w", "addr:housenumber": "35", "addr:postcode": "32-500", "addr:street": "Trzebi\u0144ska", "amenity": "pharmacy", "dispensing": "yes", "healthcare": "pharmacy", "name": "Max", "opening_hours": "Mo-Fr 08:00-21:00; Sa 08:30-14:30", "ref:csioz": "1119207"}}, {"type": "node", "id": 2598887254, "lat": 49.8638587, "lon": 19.3548888}, {"type": "node", "id": 2598887256, "lat": 49.863775, "lon": 19.3548509}, {"type": "node", "id": 2598887258, "lat": 49.863887, "lon": 19.3547651}, {"type": "node", "id": 2598887260, "lat": 49.8637951, "lon": 19.3547283}, {"type": "node", "id": 2598936542, "lat": 50.0362865, "lon": 19.2429459, "tags": {"addr:city": "O\u015bwi\u0119cim", "addr:housenumber": "43", "addr:postcode": "32-600", "addr:street": "Aleja Juliusza S\u0142owackiego", "amenity": "pharmacy", "healthcare": "pharmacy", "name": "Du\u017cy Berlin", "opening_hours": "Mo-Fr 08:00-20:00; Sa,Su 08:00-19:00", "phone": "338733953", "recycling:drugs": "yes", "ref:csioz": "1114236"}}, {"type": "node", "id": 2609084531, "lat": 50.1049381, "lon": 19.329334, "tags": {"amenity": "pharmacy", "dispensing": "yes", "healthcare": "pharmacy", "name": "Zdrowit", "ref:csioz": "1038734"}}, {"type": "node", "id": 2609086309, "lat": 50.104693, "lon": 19.3288773, "tags": {"addr:city": "Libi\u0105\u017c", "addr:housenumber": "2", "addr:postcode": "32-590", "addr:street": "9 Maja", "amenity": "pharmacy", "brand": "Dbam o Zdrowie", "brand:wikidata": "Q62563833", "dispensing": "yes", "healthcare": "pharmacy", "name": "Dbam o Zdrowie", "opening_hours": "Mo-Fr 07:30-18:00; Sa 08:00-12:00"}}, {"type": "node", "id": 2610502159, "lat": 50.1033086, "lon": 19.3136966, "tags": {"amenity": "pharmacy", "dispensing": "yes", "healthcare": "pharmacy", "name": "Hygieia", "ref:csioz": "1194489"}}, {"type": "node", "id": 2621549604, "lat": 49.9849396, "lon": 19.3246293, "tags": {"addr:city": "Polanka Wielka", "addr:housenumber": "5", "addr:postcode": "32-607", "addr:street": "D\u0142uga", "amenity": "pharmacy", "name": "Arnika", "ref:csioz": "1042223"}}, {"type": "node", "id": 2641075563, "lat": 49.8668579, "lon": 19.6779782, "tags": {"amenity": "pharmacy"}}, {"type": "node", "id": 2657569966, "lat": 49.8746387, "lon": 19.4967863, "tags": {"addr:city": "Wadowice", "addr:housenumber": "6", "addr:postcode": "34-100", "addr:street": "Podg\u00f3rska", "amenity": "pharmacy", "contact:phone": "+48 33 873 81 13", "contact:website": "http://www.apteka-rodzinna.com.pl/", "dispensing": "yes", "name": "Rodzinna - Centrum Dla Zdrowia", "opening_hours": "Mo-Fr 08:00-20:00; Sa 08:00-16:00; Su 08:00-14:00"}}, {"type": "node", "id": 2661650406, "lat": 49.965596, "lon": 19.4912872, "tags": {"addr:city": "Bachowice", "addr:housenumber": "1", "addr:postcode": "34-116", "addr:street": "G\u00f3rki", "amenity": "pharmacy", "name": "Punkt apteczny", "source:addr": "spytkowice.e-mapa.net"}}, {"type": "node", "id": 2719359561, "lat": 50.0820029, "lon": 19.1613613, "tags": {"amenity": "pharmacy", "healthcare": "pharmacy"}}, {"type": "node", "id": 2869504744, "lat": 49.9341049, "lon": 19.9458691, "tags": {"addr:city": "\u015awi\u0105tniki G\u00f3rne", "addr:housenumber": "33A", "addr:postcode": "32-040", "addr:street": "Kazimierza Bruchnalskiego", "amenity": "pharmacy", "dispensing": "yes", "healthcare": "pharmacy", "name": "Pharmacia", "opening_hours": "Mo-Fr 08:00-18:00; Sa 08:00-13:00", "phone": "+48 12 270 55 05", "ref:csioz": "1076375", "source": "http://www.pkt.pl, http://swiatnikigorne.org/?page_id=841", "source:addr": "EMUiA (http://portal.gison.pl/swiatniki/)"}}, {"type": "node", "id": 3009553773, "lat": 50.0212052, "lon": 19.9027859}, {"type": "node", "id": 3057515574, "lat": 50.0211092, "lon": 19.9027922}, {"type": "node", "id": 3057515578, "lat": 50.0211276, "lon": 19.9027298}, {"type": "node", "id": 3057515584, "lat": 50.0211865, "lon": 19.902848}, {"type": "node", "id": 3162506132, "lat": 50.1283123, "lon": 19.4053105, "tags": {"addr:city": "Chrzan\u00f3w", "addr:housenumber": "21D", "addr:postcode": "32-500", "addr:street": "W\u0142adys\u0142awa Orkana", "amenity": "pharmacy", "dispensing": "yes", "healthcare": "pharmacy", "name": "Nowa", "opening_hours": "Mo-Fr 07:00-21:00; Sa 08:00-15:00", "ref:csioz": "1196796"}}, {"type": "node", "id": 3164289595, "lat": 50.0820226, "lon": 19.5291223, "tags": {"amenity": "pharmacy", "dispensing": "yes", "name": "Pharmed", "phone": "+48 12 264 5819"}}, {"type": "node", "id": 3168866761, "lat": 50.0667763, "lon": 19.5418217, "tags": {"addr:city": "Alwernia", "addr:housenumber": "16", "addr:street": "Zbigniewa G\u0119sikowskiego", "amenity": "pharmacy", "dispensing": "yes", "healthcare": "pharmacy", "name": "Centrum", "ref:csioz": "1123234"}}, {"type": "node", "id": 3169261234, "lat": 50.1400796, "lon": 19.4016258, "tags": {"addr:city": "Chrzan\u00f3w", "addr:housenumber": "35", "addr:postcode": "32-500", "addr:street": "Aleja Henryka", "amenity": "pharmacy", "dispensing": "yes", "healthcare": "pharmacy", "name": "Centrum Tanich Lek\u00f3w", "opening_hours": "Mo-Fr 08:00-19:00; Sa 08:00-14:00", "ref:csioz": "1115706"}}, {"type": "node", "id": 3201709218, "lat": 50.1295654, "lon": 19.4117947, "tags": {"addr:city": "Chrzan\u00f3w", "addr:housenumber": "3", "addr:postcode": "32-500", "addr:street": "Jana P\u0119ckowskiego", "amenity": "pharmacy", "dispensing": "yes", "healthcare": "pharmacy", "name": "Rodzinna", "ref:csioz": "1166591"}}, {"type": "node", "id": 3256854663, "lat": 49.99596, "lon": 19.5090356, "tags": {"addr:housenumber": "8", "addr:place": "Spytkowice", "addr:postcode": "34-116", "addr:street": "Szkolna", "amenity": "pharmacy", "healthcare": "pharmacy"}}, {"type": "node", "id": 3271250322, "lat": 49.8559932, "lon": 19.332, "tags": {"addr:city": "Andrych\u00f3w", "addr:housenumber": "91", "addr:postcode": "34-120", "addr:street": "Krakowska", "amenity": "pharmacy", "name": "Apteka Pod Bia\u0142ym Or\u0142em II"}}, {"type": "node", "id": 3271281270, "lat": 49.8534551, "lon": 19.3410865, "tags": {"addr:city": "Andrych\u00f3w", "addr:housenumber": "1", "addr:postcode": "34-120", "addr:street": "Legion\u00f3w", "amenity": "pharmacy", "name": "Apteka Apfarm"}}, {"type": "node", "id": 3271295362, "lat": 49.8518297, "lon": 19.342062, "tags": {"addr:city": "Andrych\u00f3w", "addr:housenumber": "26a", "addr:postcode": "34-120", "addr:street": "Rynek", "amenity": "pharmacy", "healthcare": "pharmacy", "name": "Medica", "opening_hours": "Mo-Fr 08:00-20:00; Sa 08:00-13:00; PH off"}}, {"type": "node", "id": 3271316749, "lat": 49.8563171, "lon": 19.3445697}, {"type": "node", "id": 3271331661, "lat": 49.8587366, "lon": 19.3533959, "tags": {"addr:city": "Andrych\u00f3w", "addr:housenumber": "7", "addr:postcode": "34-120", "addr:street": "Stanis\u0142awa Lenartowicza", "amenity": "pharmacy", "email": "apteka.andrychow.lenartowicza@hygieia.pl", "healthcare": "pharmacy", "name": "Hygieia", "opening_hours": "Mo-Fr 07:30-21:00; Sa 07:30-18:00; PH off", "phone": "+48 33 870 40 31", "website": "https://apteka.hygieia.pl", "wheelchair": "yes"}}, {"type": "node", "id": 3271349221, "lat": 49.8609806, "lon": 19.3510937, "tags": {"addr:city": "Andrych\u00f3w", "addr:housenumber": "18a", "addr:postcode": "34-120", "addr:street": "W\u0142\u00f3kniarzy", "amenity": "pharmacy", "dispensing": "yes", "drive_through": "no", "healthcare": "pharmacy", "name": "Apteka Pod Bia\u0142ym Or\u0142em III", "opening_hours": "Mo-Fr 08:00-20:00; Sa-Su 08:00-14:00"}}, {"type": "node", "id": 3294938781, "lat": 50.0439971, "lon": 19.8256835, "tags": {"amenity": "pharmacy", "dispensing": "yes", "name": "Apteka Na Bielanach", "ref:csioz": "1056517"}}, {"type": "node", "id": 3314771205, "lat": 49.8560251, "lon": 19.3511621, "tags": {"addr:city": "Andrych\u00f3w", "addr:housenumber": "62", "addr:postcode": "34-120", "addr:street": "Krakowska", "amenity": "pharmacy", "dispensing": "yes", "drive_through": "no", "healthcare": "pharmacy", "level": "0", "name": "Przy Samolocie", "opening_hours": "Mo-Fr 07:30-21:00; Sa-Su 08:00-18:00; PH off"}}, {"type": "node", "id": 3344205843, "lat": 50.060715, "lon": 19.2907392, "tags": {"addr:housenumber": "1a", "addr:street": "W\u0142adys\u0142awa Broniewskiego", "amenity": "pharmacy", "name": "punkt apteczny"}}, {"type": "node", "id": 3415997139, "lat": 50.0390275, "lon": 19.7683908, "tags": {"amenity": "pharmacy", "name": "Apteka"}}, {"type": "node", "id": 3419754993, "lat": 50.1416313, "lon": 19.402314, "tags": {"addr:city": "Chrzan\u00f3w", "addr:housenumber": "21", "addr:postcode": "32-500", "addr:street": "Aleja Henryka", "amenity": "pharmacy", "dispensing": "yes", "healthcare": "pharmacy", "name": "S\u0142oneczna", "opening_hours": "Mo-Fr 07:00-21:00; Sa 08:00-15:00", "ref:csioz": "1185270"}}, {"type": "node", "id": 3428695836, "lat": 50.1055122, "lon": 19.3302923, "tags": {"amenity": "pharmacy", "dispensing": "yes", "healthcare": "pharmacy", "highway": "street_lamp", "name": "Pod Or\u0142em", "ref:csioz": "1186396"}}, {"type": "node", "id": 3455847660, "lat": 50.1652604, "lon": 19.3902296, "tags": {"amenity": "pharmacy", "dispensing": "yes", "healthcare": "pharmacy", "name": "Nova", "ref:csioz": "1036184"}}, {"type": "node", "id": 3479183577, "lat": 49.9409817, "lon": 19.8080434, "tags": {"addr:city": "Radzisz\u00f3w", "addr:housenumber": "6", "addr:postcode": "32-052", "addr:street": "Brzegi", "amenity": "pharmacy", "brand": "Dbam o Zdrowie", "brand:wikidata": "Q62563833", "dispensing": "yes", "healthcare": "pharmacy", "name": "Dbam o Zdrowie", "ref:csioz": "1171143", "short_name": "DOZ"}}, {"type": "node", "id": 3495871707, "lat": 49.8736378, "lon": 19.4537043}, {"type": "node", "id": 3495871860, "lat": 49.87366, "lon": 19.4536478}, {"type": "node", "id": 3495871868, "lat": 49.8736726, "lon": 19.4536599}, {"type": "node", "id": 3495871912, "lat": 49.8737757, "lon": 19.4536873}, {"type": "node", "id": 3495872039, "lat": 49.8737886, "lon": 19.4536997}, {"type": "node", "id": 3495872145, "lat": 49.8738176, "lon": 19.4536275}, {"type": "node", "id": 3495872194, "lat": 49.8737225, "lon": 19.4535359}, {"type": "node", "id": 3495872198, "lat": 49.8737321, "lon": 19.4537952}, {"type": "node", "id": 3573281494, "lat": 50.1355729, "lon": 19.6370023, "tags": {"addr:city": "Krzeszowice", "addr:housenumber": "1", "addr:postcode": "32-065", "addr:street": "Legion\u00f3w Polskich", "amenity": "pharmacy", "dispensing": "yes", "healthcare": "pharmacy", "name": "Nowa", "opening_hours": "Mo-Fr 07:00-20:00; Sa 07:00-15:00", "ref:csioz": "1110816"}}, {"type": "node", "id": 3577720397, "lat": 49.9603922, "lon": 19.6677336, "tags": {"addr:city": "Ja\u015bkowice", "addr:housenumber": "63", "addr:postcode": "32-051", "addr:street": "Krakowska", "amenity": "pharmacy", "dispensing": "yes", "healthcare": "pharmacy", "name": "Punkt Apteczny", "ref:csioz": "1035458"}}, {"type": "node", "id": 3611112594, "lat": 49.9513069, "lon": 19.2644375, "tags": {"addr:city": "Osiek", "addr:housenumber": "5", "addr:postcode": "32-608", "addr:street": "Ko\u015bcielna", "amenity": "pharmacy", "healthcare": "pharmacy", "name": "Apteka Arnika", "ref:csioz": "1056355"}}, {"type": "node", "id": 3622665516, "lat": 50.0758159, "lon": 19.181383, "tags": {"addr:city": "Bieru\u0144", "addr:housenumber": "40", "addr:street": "Wawelska", "amenity": "pharmacy", "healthcare": "pharmacy", "name": "Hipokrates"}}, {"type": "node", "id": 3653325668, "lat": 49.9533635, "lon": 19.266972, "tags": {"amenity": "pharmacy"}}, {"type": "node", "id": 3686704624, "lat": 50.1636029, "lon": 19.3066547, "tags": {"addr:city": "Jaworzno", "addr:housenumber": "126", "addr:postcode": "43-607", "addr:street": "Krakowska", "amenity": "pharmacy", "brand": "Dbam o Zdrowie", "brand:wikidata": "Q62563833", "dispensing": "yes", "healthcare": "pharmacy", "name": "Dbam o Zdrowie", "opening_hours": "Mo-Fr 08:00-18:00; Sa 08:00-14:00", "ref:csioz": "1063135", "short_name": "DOZ"}}, {"type": "node", "id": 3701034150, "lat": 50.1442357, "lon": 19.4051454, "tags": {"addr:city": "Chrzan\u00f3w", "addr:housenumber": "11", "addr:postcode": "32-500", "addr:street": "Henryka Sienkiewicza", "amenity": "pharmacy", "name": "Apteka Nowa", "opening_hours": "Mo-Fr 08:00-20:00", "phone": "+48 32 622 94 44"}}, {"type": "node", "id": 3730569849, "lat": 50.0353742, "lon": 19.2239187, "tags": {"addr:city": "O\u015bwi\u0119cim", "addr:housenumber": "13", "addr:postcode": "32-602", "addr:street": "Kr\u00f3lowej Jadwigi", "amenity": "pharmacy", "healthcare": "pharmacy", "name": "Zdrowe Ceny", "opening_hours": "Mo-Fr 08:00-21:00; Sa 08:00-20:00; Su 09:00-18:00", "ref:csioz": "1185750"}}, {"type": "node", "id": 3738991066, "lat": 50.1009329, "lon": 19.2534973, "tags": {"addr:city": "Che\u0142mek", "addr:housenumber": "1", "addr:postcode": "32-660", "addr:street": "Plac Jana Kili\u0144skiego", "amenity": "pharmacy", "healthcare": "pharmacy", "name": "Nowa s.c", "ref:csioz": "1077292"}}, {"type": "node", "id": 3748476305, "lat": 49.8561825, "lon": 19.3462807, "tags": {"addr:city": "Andrych\u00f3w", "addr:housenumber": "3", "addr:postcode": "34-120", "addr:street": "Starowiejska", "amenity": "pharmacy", "contact:phone": "+48 33 875 27 10", "name": "Nowa Dobra", "opening_hours": "Mo-Fr 08:00-20:00; Sa 08:00-15:00; PH off", "website": "http://wandrychowie.pl/nowa-dobra-apteka-w-andrychowie"}}, {"type": "node", "id": 3786659490, "lat": 50.101493, "lon": 19.4587929, "tags": {"addr:city": "P\u0142aza", "addr:housenumber": "2", "addr:postcode": "32-500", "addr:street": "Janusza Korczaka", "amenity": "pharmacy", "dispensing": "yes", "healthcare": "pharmacy", "operator": "Szubel Stanis\u0142awa", "phone": "+48 32 613 12 87", "ref:csioz": "1042341"}}, {"type": "node", "id": 3796921217, "lat": 50.0821223, "lon": 19.1614957}, {"type": "node", "id": 3796924237, "lat": 50.0822413, "lon": 19.1612667}, {"type": "node", "id": 3796924389, "lat": 50.0821766, "lon": 19.1615458}, {"type": "node", "id": 3796924390, "lat": 50.0822718, "lon": 19.161295}, {"type": "node", "id": 3796924573, "lat": 50.0822173, "lon": 19.1612448}, {"type": "node", "id": 3796924575, "lat": 50.0822372, "lon": 19.161277}, {"type": "node", "id": 3796924577, "lat": 50.0822468, "lon": 19.1612858}, {"type": "node", "id": 3796924579, "lat": 50.0822508, "lon": 19.1612758}, {"type": "node", "id": 3908218038, "lat": 50.137217, "lon": 19.4290964, "tags": {"addr:city": "Chrzan\u00f3w", "addr:housenumber": "16", "addr:street": "Topolowa", "amenity": "pharmacy", "dispensing": "yes", "healthcare": "pharmacy", "name": "Pod Z\u0142ot\u0105 Gwiazd\u0105", "ref:csioz": "1117713"}}, {"type": "node", "id": 3916927512, "lat": 49.8561736, "lon": 19.3446639}, {"type": "node", "id": 3916927760, "lat": 49.8561721, "lon": 19.3446004}, {"type": "node", "id": 3916927788, "lat": 49.8562548, "lon": 19.3445378}, {"type": "node", "id": 3916927821, "lat": 49.8563043, "lon": 19.3447351}, {"type": "node", "id": 3916927866, "lat": 49.8563066, "lon": 19.3447246}, {"type": "node", "id": 3916929758, "lat": 49.8563278, "lon": 19.3447357}, {"type": "node", "id": 3916929976, "lat": 49.8563401, "lon": 19.3445815}, {"type": "node", "id": 3920117125, "lat": 50.1589707, "lon": 19.477231, "tags": {"addr:city": "Trzebinia", "addr:housenumber": "14", "addr:street": "Wi\u015bniowa", "amenity": "pharmacy", "dispensing": "yes", "healthcare": "pharmacy", "name": "Rodzinna", "opening_hours": "Mo-Fr 08:00-18:00; Sa 08:00-15:00", "ref:csioz": "1200320"}}, {"type": "node", "id": 3933800130, "lat": 49.8697336, "lon": 19.6772057}, {"type": "node", "id": 3933801965, "lat": 49.8696163, "lon": 19.6770627}, {"type": "node", "id": 3933801979, "lat": 49.8696727, "lon": 19.6770189}, {"type": "node", "id": 3933801981, "lat": 49.8696771, "lon": 19.6772496}, {"type": "node", "id": 3975064278, "lat": 49.8789491, "lon": 19.503042, "tags": {"amenity": "pharmacy", "healthcare": "pharmacy", "name": "Wadowice"}}, {"type": "node", "id": 3987603503, "lat": 50.1430272, "lon": 19.4185224, "tags": {"addr:city": "Chrzan\u00f3w", "addr:housenumber": "17a", "addr:street": "Kardyna\u0142a Stefana Wyszy\u0144skiego", "amenity": "pharmacy", "dispensing": "yes", "entrance": "yes", "healthcare": "pharmacy", "name": "Rodzinna", "ref:csioz": "1074710"}}, {"type": "node", "id": 3991142708, "lat": 49.8812532, "lon": 19.4912106, "tags": {"addr:city": "Wadowice", "addr:housenumber": "10", "addr:postcode": "34-100", "addr:street": "Karmelicka", "amenity": "pharmacy", "healthcare": "pharmacy", "name": "B\u0105d\u017a Zdr\u00f3w", "opening_hours": "Mo-Sa 07:00-22:00; Su 09:00-21:00", "source:addr": "EMUiA (wadowice.e-mapa.net)"}}, {"type": "node", "id": 3991142717, "lat": 49.882646, "lon": 19.4923942, "tags": {"addr:city": "Wadowice", "addr:housenumber": "16", "addr:postcode": "34-100", "addr:street": "Plac Ko\u015bciuszki", "amenity": "pharmacy", "dispensing": "yes", "drive_through": "no", "healthcare": "pharmacy", "level": "0", "name": "Apteka S\u0142oneczna", "opening_hours": "Mo-Fr 07:00-21:00; Sa 07:00-15:00", "payment:apple_pay": "yes", "payment:cash": "yes", "payment:contactless": "yes", "payment:credit_cards": "yes", "payment:debit_cards": "yes", "payment:google_pay": "yes", "payment:mastercard": "yes", "payment:visa": "yes", "phone": "+48338791629", "wheelchair": "limited"}}, {"type": "node", "id": 4004957310, "lat": 50.0640959, "lon": 19.5430673, "tags": {"addr:city": "Alwernia", "addr:housenumber": "6a", "addr:postcode": "32-566", "addr:street": "Marii Sk\u0142odowskiej-Curie", "amenity": "pharmacy", "dispensing": "yes", "healthcare": "pharmacy", "name": "Rodzinna", "ref:csioz": "1195965"}}, {"type": "node", "id": 4036361630, "lat": 50.1427622, "lon": 19.40521, "tags": {"addr:city": "Chrzan\u00f3w", "addr:housenumber": "2", "addr:street": "Rynek", "amenity": "pharmacy", "dispensing": "yes", "healthcare": "pharmacy", "name": "4 Pory Roku", "opening_hours": "Mo-Sa 08:00-20:00; Su 09:00-14:00", "ref:csioz": "1121019"}}, {"type": "node", "id": 4043279204, "lat": 49.974865, "lon": 19.8280474, "tags": {"addr:city": "Skawina", "addr:housenumber": "5", "addr:street": "Juliusza S\u0142owackiego", "amenity": "pharmacy", "dispensing": "yes", "healthcare": "pharmacy", "name": "Pod Gwiazd\u0105", "opening_hours": "Mo-Fr 09:00-18:00; Sa-Su 09:00-13:00", "operator": "osoby prywatne", "ref:csioz": "1074786"}}, {"type": "node", "id": 4044106559, "lat": 49.9732577, "lon": 19.828369, "tags": {"addr:city": "Skawina", "addr:housenumber": "5E", "addr:postcode": "32-050", "addr:street": "29 Listopada", "amenity": "pharmacy", "dispensing": "yes", "healthcare": "pharmacy", "opening_hours": "Mo-Fr 07:30-21:00; Sa 07:30-20:00", "ref:csioz": "1173997"}}, {"type": "node", "id": 4049284452, "lat": 50.1169907, "lon": 19.6160686, "tags": {"addr:city": "Tenczynek", "addr:housenumber": "1", "addr:street": "W\u0142adys\u0142awa Reymonta", "amenity": "pharmacy", "dispensing": "yes"}}, {"type": "node", "id": 4060641586, "lat": 50.0379714, "lon": 19.6436812, "tags": {"amenity": "pharmacy", "dispensing": "yes", "healthcare": "pharmacy", "name": "Punkt Apteczny Kierunek Zdrowie", "ref:csioz": "1231463"}}, {"type": "node", "id": 4089005331, "lat": 50.0631415, "lon": 19.4920732, "tags": {"amenity": "pharmacy", "healthcare": "pharmacy"}}, {"type": "node", "id": 4212228051, "lat": 49.9780872, "lon": 19.8331636, "tags": {"addr:city": "Skawina", "addr:housenumber": "19A", "addr:postcode": "32-050", "addr:street": "Krakowska", "amenity": "pharmacy", "dispensing": "yes", "healthcare": "pharmacy", "name": "Niebieska", "ref:csioz": "1183284"}}, {"type": "node", "id": 4223704289, "lat": 50.1600373, "lon": 19.4716839, "tags": {"addr:city": "Trzebinia", "addr:housenumber": "21", "addr:postcode": "32-540", "addr:street": "Rynek", "amenity": "pharmacy", "dispensing": "yes", "healthcare": "pharmacy", "name": "Max", "ref:csioz": "1119566"}}, {"type": "node", "id": 4265023410, "lat": 49.986031, "lon": 19.3255708, "tags": {"addr:city": "Polanka Wielka", "addr:housenumber": "5A", "addr:postcode": "32-607", "addr:street": "Kasztanowa", "amenity": "pharmacy", "name": "Apteka Przyjazna", "ref:csioz": "1197196"}}, {"type": "node", "id": 4416380429, "lat": 50.0314334, "lon": 19.2447314, "tags": {"addr:city": "O\u015bwi\u0119cim", "addr:housenumber": "8A", "addr:postcode": "32-600", "addr:street": "Genera\u0142a J\u00f3zefa Bema", "amenity": "pharmacy", "healthcare": "pharmacy", "name": "Galen"}}, {"type": "node", "id": 4440109927, "lat": 49.9461617, "lon": 19.2729975, "tags": {"addr:city": "Osiek", "addr:housenumber": "219", "addr:postcode": "32-608", "addr:street": "G\u0142\u00f3wna", "amenity": "pharmacy", "name": "Apteka Nowa Dla Zdrowia", "ref:csioz": "1206321"}}, {"type": "node", "id": 4463344393, "lat": 50.011002, "lon": 19.3719028, "tags": {"addr:city": "Przecisz\u00f3w", "addr:housenumber": "3", "addr:street": "Podlesie", "amenity": "pharmacy", "healthcare": "pharmacy", "name": "Apteka Rodzinna", "opening_hours": "Mo-Fr 08:00-20:00; Sa 08:00-18:00; Su 09:00-13:00", "phone": "+48 600 545 610"}}, {"type": "node", "id": 4519799011, "lat": 50.0646212, "lon": 19.8798517, "tags": {"amenity": "pharmacy", "dispensing": "yes", "name": "Ziko Apteka", "ref:csioz": "1230827", "website": "https://zikoapteka.pl/apteki/krakow/kolo-strzelnicy-2/"}}, {"type": "node", "id": 4526607598, "lat": 50.2596662, "lon": 19.7473544, "tags": {"amenity": "pharmacy", "dispensing": "yes", "healthcare": "pharmacy", "name": "Verbena", "ref:csioz": "1228407"}}, {"type": "node", "id": 4760679493, "lat": 49.8705428, "lon": 19.7665068, "tags": {"amenity": "pharmacy"}}, {"type": "node", "id": 5091233022, "lat": 49.9972009, "lon": 19.5113833, "tags": {"addr:city": "Spytkowice", "addr:housenumber": "16", "addr:postcode": "34-116", "addr:street": "Rynek", "amenity": "pharmacy", "healthcare": "pharmacy", "name": "Rodzinna", "source": "survey"}}, {"type": "node", "id": 5126519924, "lat": 50.0153614, "lon": 19.8088564, "tags": {"amenity": "pharmacy", "dispensing": "yes", "name": "Apteka w Ty\u0144cu", "official_name": "Apteka W Ty\u0144cu W Malwach", "ref:csioz": "1075019"}}, {"type": "node", "id": 5488345374, "lat": 49.8907483, "lon": 19.3572695, "tags": {"addr:city": "Wieprz", "addr:housenumber": "1", "addr:postcode": "34-122", "addr:street": "Centralna", "amenity": "pharmacy", "dispensing": "yes", "healthcare": "pharmacy"}}, {"type": "node", "id": 5490218975, "lat": 49.9078129, "lon": 19.3725531, "tags": {"addr:city": "Wieprz", "addr:housenumber": "3", "addr:postcode": "34-122", "addr:street": "Wadowicka", "amenity": "pharmacy", "dispensing": "yes", "healthcare": "pharmacy"}}, {"type": "node", "id": 5515053667, "lat": 49.9757344, "lon": 19.8191807, "tags": {"addr:city": "Skawina", "addr:housenumber": "19E", "addr:postcode": "32-050", "addr:street": "Adama Mickiewicza", "amenity": "pharmacy", "dispensing": "yes", "healthcare": "pharmacy", "name": "Hygieia", "ref:csioz": "1222909"}}, {"type": "node", "id": 5635042825, "lat": 50.00587, "lon": 19.9045637, "tags": {"amenity": "pharmacy", "check_date:opening_hours": "2025-07-23", "dispensing": "yes", "name": "Fantazja", "official_name": "Apteka Fantazja", "opening_hours": "Mo-Fr 08:00-21:00; Sa 08:00-20:00", "ref:csioz": "1214102", "wheelchair": "yes"}}, {"type": "node", "id": 5873849687, "lat": 50.1079435, "lon": 19.1949505, "tags": {"amenity": "pharmacy", "healthcare": "pharmacy", "name": "Evita", "opening_hours": "Mo-Fr 08:00-19:00; Sa 08:00-13:00"}}, {"type": "node", "id": 6106422495, "lat": 49.9708645, "lon": 19.8301205, "tags": {"addr:city": "Skawina", "addr:housenumber": "101", "addr:postcode": "32-050", "addr:street": "Ogrody", "amenity": "pharmacy", "dispensing": "yes", "healthcare": "pharmacy", "name": "S\u0142oneczna", "ref:csioz": "1075622"}}, {"type": "node", "id": 6161450087, "lat": 50.1569456, "lon": 19.4611306, "tags": {"addr:city": "Trzebinia", "addr:housenumber": "43A", "addr:postcode": "32-540", "addr:street": "Tadeusza Ko\u015bciuszki", "amenity": "pharmacy", "dispensing": "yes", "healthcare": "pharmacy", "level": "0", "name": "Hygieia", "opening_hours": "Mo-Sa 07:00-21:00; Su 09:00-20:00; PH closed", "ref:csioz": "1220323", "wheelchair": "yes"}}, {"type": "node", "id": 6213188141, "lat": 50.0720216, "lon": 19.8001358, "tags": {"amenity": "pharmacy", "dispensing": "yes", "healthcare": "pharmacy", "level": "1", "name": "\u015aw. Barbara", "opening_hours": "Mo-Su 07:00-21:00", "ref:csioz": "1227182"}}, {"type": "node", "id": 6221711486, "lat": 50.0116804, "lon": 19.8866422, "tags": {"addr:city": "Krak\u00f3w", "addr:housenumber": "33", "addr:postcode": "30-392", "addr:street": "Czerwone Maki", "amenity": "pharmacy", "brand": "Ziko Apteka", "brand:wikidata": "Q63432892", "dispensing": "yes", "healthcare": "pharmacy", "level": "0", "name": "Ziko Apteka", "opening_hours": "Mo-Fr 08:00-21:00, Sa 08:00-20:00, Su 10:00-20:00", "payment:cash": "yes", "payment:coins": "yes", "payment:mastercard": "yes", "payment:visa": "yes", "phone": "+48 12 687 57 47", "ref:csioz": "1228860", "short_name": "Ziko", "website": "https://www.ziko.pl/krakow-apteki-drogerie-ziko/Czerwone-Maki-33/", "wheelchair": "yes"}}, {"type": "node", "id": 6316934107, "lat": 50.1440039, "lon": 19.4142701, "tags": {"addr:city": "Chrzan\u00f3w", "addr:housenumber": "1D", "addr:postcode": "32-500", "addr:street": "Genera\u0142a W\u0142adys\u0142awa Sikorskiego", "amenity": "pharmacy", "dispensing": "yes", "healthcare": "pharmacy", "name": "Hygieia", "ref:csioz": "1120599"}}, {"type": "node", "id": 6329112713, "lat": 50.1437206, "lon": 19.4041729, "tags": {"addr:city": "Chrzan\u00f3w", "addr:housenumber": "9", "addr:postcode": "32-500", "addr:street": "\u015al\u0105ska", "amenity": "pharmacy", "dispensing": "yes", "healthcare": "pharmacy", "name": "Codzienna", "opening_hours": "Mo-Sa 07:30-20:00", "ref:csioz": "1219728", "website": "https://www.aptekacodzienna.pl/"}}, {"type": "node", "id": 6559330260, "lat": 49.8776103, "lon": 19.5048157, "tags": {"addr:city": "Wadowice", "addr:housenumber": "4", "addr:postcode": "34-100", "addr:street": "Doktora J\u00f3zefa Putka", "amenity": "pharmacy", "healthcare": "pharmacy", "name": "Apteka", "opening_hours": "Mo-Su 8:00-21:00"}}, {"type": "node", "id": 7042442378, "lat": 49.8787009, "lon": 19.4902707, "tags": {"amenity": "pharmacy", "healthcare": "pharmacy", "name": "Pod Karmelem", "opening_hours": "Mo-Fr 08:00-21:00; Sa 08:00-14:00"}}, {"type": "node", "id": 7227421773, "lat": 50.159786, "lon": 19.4671771}, {"type": "node", "id": 7227421774, "lat": 50.1597755, "lon": 19.4672092}, {"type": "node", "id": 7711226761, "lat": 50.0132664, "lon": 19.5860671, "tags": {"addr:city": "Kamie\u0144", "addr:housenumber": "17", "addr:postcode": "32-071", "addr:street": "Piaski", "amenity": "pharmacy", "dispensing": "yes", "healthcare": "pharmacy", "name": "Punkt Apteczny", "ref:csioz": "1204191"}}, {"type": "node", "id": 7750017082, "lat": 50.1146788, "lon": 19.4782043, "tags": {"amenity": "pharmacy", "dispensing": "yes", "healthcare": "pharmacy", "ref:csioz": "1034969"}}, {"type": "node", "id": 7873656602, "lat": 49.9964486, "lon": 19.4314348, "tags": {"addr:city": "Zator", "addr:housenumber": "1", "addr:postcode": "32-640", "addr:street": "Juliusza S\u0142owackiego", "amenity": "pharmacy", "email": "zator@artfarm.pl", "healthcare": "pharmacy", "name": "Artfarm", "opening_hours": "Mo-Fr 08:00-20:00; Sa 08:00-20:00; Su 09:00-15:00", "phone": "+48 33 432 27 42", "ref:csioz": "1209252", "website": "http://aptekaartfarm.pl/"}}, {"type": "node", "id": 7965905118, "lat": 50.1598125, "lon": 19.4670969}, {"type": "node", "id": 7965906016, "lat": 50.1598264, "lon": 19.4671081, "tags": {"entrance": "main"}}, {"type": "node", "id": 8079296107, "lat": 49.8546997, "lon": 19.3347359, "tags": {"addr:city": "Andrych\u00f3w", "addr:housenumber": "83g", "addr:postcode": "34-120", "addr:street": "Krakowska", "amenity": "pharmacy", "brand": "Dr. Max", "brand:wikidata": "Q56317371", "brand:wikipedia": "fr:Dr.Max", "dispensing": "yes", "drive_through": "no", "email": "apteka@drmax.pl", "healthcare": "pharmacy", "name": "Dr. Max", "opening_hours": "Mo-Sa 08:00-21:00; Su 09:00-19:00; PH off", "operator": "Med-Pharma Sp. z o. o.", "phone": "+48 22 100 85 99", "website": "https://drmax.pl/"}}, {"type": "node", "id": 8138043753, "lat": 50.1390529, "lon": 19.6372299, "tags": {"amenity": "pharmacy", "name": "Apteka \"Hygieia\"", "opening_hours": "Mo-Fr 07:00-21:00", "phone": "+48122825284", "website": "https://www.hygieia.pl/"}}, {"type": "node", "id": 8399965827, "lat": 49.8254411, "lon": 19.6377622}, {"type": "node", "id": 8399965828, "lat": 49.8254479, "lon": 19.63781}, {"type": "node", "id": 8399965829, "lat": 49.8254331, "lon": 19.6378666}, {"type": "node", "id": 8399965830, "lat": 49.8254365, "lon": 19.6379268}, {"type": "node", "id": 8399965831, "lat": 49.8254194, "lon": 19.6379852}, {"type": "node", "id": 8399965832, "lat": 49.8254274, "lon": 19.6380259}, {"type": "node", "id": 8399965833, "lat": 49.8254148, "lon": 19.6380631}, {"type": "node", "id": 8399965840, "lat": 49.8253041, "lon": 19.6380471}, {"type": "node", "id": 8399965841, "lat": 49.8253234, "lon": 19.6378577}, {"type": "node", "id": 8399965842, "lat": 49.8253357, "lon": 19.6378607}, {"type": "node", "id": 8399965843, "lat": 49.8253463, "lon": 19.6377569}, {"type": "node", "id": 8399965844, "lat": 49.8253691, "lon": 19.6377357}, {"type": "node", "id": 8818795843, "lat": 49.8839128, "lon": 19.4917573, "tags": {"addr:city": "Wadowice", "addr:housenumber": "1", "addr:postcode": "34-100", "addr:street": "Zatorska", "amenity": "pharmacy", "dispensing": "yes", "drive_through": "no", "healthcare": "pharmacy", "name": "Niezapominajka", "opening_hours": "Mo-Fr 07:00-18:00; Sa 07:00-14:00", "phone": "+48 513 103 870", "website": "https://apteka-niezapominajka.pl/"}}, {"type": "node", "id": 9084785528, "lat": 50.0822169, "lon": 19.3526102, "tags": {"amenity": "pharmacy", "dispensing": "yes", "healthcare": "pharmacy", "opening_hours": "Mo-Fr 08:00-17:00", "ref:csioz": "1074573"}}, {"type": "node", "id": 9230712745, "lat": 49.8637688, "lon": 19.3547664}, {"type": "node", "id": 9230712746, "lat": 49.8637543, "lon": 19.3548508}, {"type": "node", "id": 9230712747, "lat": 49.8638695, "lon": 19.3548934}, {"type": "node", "id": 9423685987, "lat": 50.0493133, "lon": 19.3725971, "tags": {"addr:city": "M\u0119tk\u00f3w", "addr:housenumber": "43", "addr:postcode": "32-551", "addr:street": "Nadwi\u015bla\u0144ska", "amenity": "pharmacy", "dispensing": "yes", "healthcare": "pharmacy", "name": "Punkt Apteczny Zdrowie", "opening_hours": "Mo 09:00-16:00; Tu 10:00-14:00; We-Fr 09:00-13:00", "ref:csioz": "1196213"}}, {"type": "node", "id": 9586345666, "lat": 49.939095, "lon": 19.8151111, "tags": {"addr:city": "Radzisz\u00f3w", "addr:housenumber": "15", "addr:postcode": "32-052", "addr:street": "Szkolna", "amenity": "pharmacy", "dispensing": "yes", "ref:csioz": "1075100"}}, {"type": "node", "id": 9586360972, "lat": 50.1105546, "lon": 19.8141277, "tags": {"addr:city": "Zabierz\u00f3w", "addr:housenumber": "232", "addr:postcode": "32-080", "addr:street": "Krakowska", "amenity": "pharmacy", "dispensing": "yes", "healthcare": "pharmacy", "name": "Apteka Zdrowie", "ref:csioz": "1038147"}}, {"type": "node", "id": 9586377147, "lat": 50.1391688, "lon": 19.6372601, "tags": {"addr:city": "Krzeszowice", "addr:housenumber": "30", "addr:postcode": "32-065", "addr:street": "Legion\u00f3w Polskich", "amenity": "pharmacy", "dispensing": "yes", "name": "Hygieia", "ref:csioz": "1076571"}}, {"type": "node", "id": 9586397561, "lat": 50.172245, "lon": 19.5957766, "tags": {"addr:housenumber": "425", "addr:place": "Nowa G\u00f3ra", "addr:postcode": "32-065", "amenity": "pharmacy", "dispensing": "yes", "name": "Hygieia", "ref:csioz": "1036486"}}, {"type": "node", "id": 9586402502, "lat": 50.1366573, "lon": 19.6340251, "tags": {"addr:city": "Krzeszowice", "addr:housenumber": "12", "addr:postcode": "32-065", "addr:street": "Rynek", "amenity": "pharmacy", "dispensing": "yes", "healthcare": "pharmacy", "name": "Apteka Rodzinna", "ref:csioz": "1035222"}}, {"type": "node", "id": 9586403442, "lat": 50.0414895, "lon": 19.7838754, "tags": {"addr:housenumber": "469", "addr:place": "Liszki", "addr:postcode": "32-060", "amenity": "pharmacy", "dispensing": "yes", "name": "Twoja Apteka", "ref:csioz": "1042150"}}, {"type": "node", "id": 9586407985, "lat": 49.9728866, "lon": 19.8299916, "tags": {"addr:city": "Skawina", "addr:housenumber": "7", "addr:postcode": "32-050", "addr:street": "Ksi\u0119dza Jerzego Popie\u0142uszki", "amenity": "pharmacy", "dispensing": "yes", "healthcare": "pharmacy", "name": "Niezapominajka", "opening_hours": "Mo-Fr 07:30-21:00; Sa 08:00-16:00", "ref:csioz": "1196891"}}, {"type": "node", "id": 9586419185, "lat": 50.0382115, "lon": 19.7677835, "tags": {"addr:housenumber": "207", "addr:place": "Liszki", "addr:postcode": "32-060", "amenity": "pharmacy", "dispensing": "yes", "healthcare": "pharmacy", "name": "Twoja Apteka", "opening_hours": "Mo-Fr 08:00-20:00; Sa 08:00-15:00", "ref:csioz": "1220845"}}, {"type": "node", "id": 9586423845, "lat": 50.0830887, "lon": 19.6285645, "tags": {"addr:city": "Zalas", "addr:housenumber": "78", "addr:postcode": "32-067", "addr:street": "ks. P. P. Gawlikowskiego", "amenity": "pharmacy", "dispensing": "yes", "ref:csioz": "1190395"}}, {"type": "node", "id": 9586429344, "lat": 49.9866994, "lon": 19.6747853, "tags": {"addr:city": "Czernich\u00f3w", "addr:housenumber": "2", "addr:postcode": "32-070", "addr:street": "Wi\u015blana", "amenity": "pharmacy", "dispensing": "yes", "name": "Apteka W Przychodni", "ref:csioz": "1075373"}}, {"type": "node", "id": 9586432564, "lat": 49.9726938, "lon": 19.9034398, "tags": {"addr:city": "Libert\u00f3w", "addr:housenumber": "31", "addr:postcode": "30-444", "addr:street": "Jana Paw\u0142a II", "amenity": "pharmacy", "dispensing": "yes", "name": "Apteka Libertowska", "ref:csioz": "1223929"}}, {"type": "node", "id": 9586439363, "lat": 50.0436218, "lon": 19.7924469, "tags": {"addr:housenumber": "97", "addr:place": "Kryspin\u00f3w", "addr:postcode": "32-060", "amenity": "pharmacy", "dispensing": "yes", "healthcare": "pharmacy", "name": "Apteka Kryspin\u00f3w", "ref:csioz": "1076759"}}, {"type": "node", "id": 9586439371, "lat": 50.1265509, "lon": 19.8064257, "tags": {"addr:city": "Bolechowice", "addr:housenumber": "1A", "addr:postcode": "32-082", "addr:street": "Zielona", "amenity": "pharmacy", "dispensing": "yes", "name": "Apteka Jurajska", "opening_hours": "Mo-Fr 08:00-20:00; Sa 08:00-18:00; Su 10:00-15:00", "ref:csioz": "1230328"}}, {"type": "node", "id": 9586441358, "lat": 49.9678247, "lon": 19.8260645, "tags": {"addr:city": "Skawina", "addr:housenumber": "7", "addr:postcode": "32-050", "addr:street": "Aleksandra G\u0142owackiego", "amenity": "pharmacy", "dispensing": "yes", "name": "Panaceum", "ref:csioz": "1034800"}}, {"type": "node", "id": 9586448247, "lat": 50.2357244, "lon": 19.7007484, "tags": {"addr:housenumber": "116", "addr:place": "Przeginia", "addr:postcode": "32-300", "amenity": "pharmacy", "dispensing": "yes", "healthcare": "pharmacy", "ref:csioz": "1075847"}}, {"type": "node", "id": 9586450230, "lat": 50.1151296, "lon": 19.7992432, "tags": {"addr:city": "Zabierz\u00f3w", "addr:housenumber": "8", "addr:postcode": "32-080", "addr:street": "Kolejowa", "amenity": "pharmacy", "dispensing": "yes", "healthcare": "pharmacy", "ref:csioz": "1074858"}}, {"type": "node", "id": 9586462406, "lat": 50.1345929, "lon": 19.6319572, "tags": {"addr:city": "Krzeszowice", "addr:housenumber": "1", "addr:postcode": "32-065", "addr:street": "I. Daszy\u0144skiego", "amenity": "pharmacy", "dispensing": "yes", "healthcare": "pharmacy", "name": "\"O\u015brodek Rehabilitacji Narz\u0105du Ruchu \"\"Krzeszowice\"\" Sp Zoz\"", "ref:csioz": "1113622"}}, {"type": "node", "id": 9586462834, "lat": 49.9746762, "lon": 19.8257287, "tags": {"addr:city": "Skawina", "addr:housenumber": "1", "addr:postcode": "32-050", "addr:street": "\u017bwirki i Wigury", "amenity": "pharmacy", "dispensing": "yes", "name": "Apteka W Rynku", "ref:csioz": "1120443"}}, {"type": "node", "id": 9586463526, "lat": 50.1869689, "lon": 19.7958295, "tags": {"addr:city": "B\u0119b\u0142o", "addr:housenumber": "5", "addr:postcode": "32-089", "addr:street": "Kwiatowa", "amenity": "pharmacy", "dispensing": "yes", "ref:csioz": "1042479"}}, {"type": "node", "id": 9586468003, "lat": 50.2124755, "lon": 19.7472833, "tags": {"addr:city": "Jerzmanowice", "addr:housenumber": "100", "addr:postcode": "32-048", "addr:street": "Centralna", "amenity": "pharmacy", "dispensing": "yes", "healthcare": "pharmacy", "name": "Apteka z Sercem", "ref:csioz": "1215655"}}, {"type": "node", "id": 9586471123, "lat": 49.9426589, "lon": 19.8845411, "tags": {"addr:city": "Mogilany", "addr:housenumber": "4a", "addr:postcode": "32-031", "addr:street": "Rynek", "amenity": "pharmacy", "brand": "Dbam o Zdrowie", "brand:wikidata": "Q62563833", "dispensing": "yes", "healthcare": "pharmacy", "name": "Dbam o Zdrowie", "opening_hours": "Mo-Fr 08:00-21:00; Sa 08:00-17:00; Su 10:00-17:00", "short_name": "DOZ", "website": "https://www.doz.pl/apteki/a148054-DOZ_Apteka_dbam_o_zdrowie_Vita"}}, {"type": "node", "id": 9586480310, "lat": 50.077411, "lon": 19.7484516, "tags": {"addr:housenumber": "292", "addr:place": "Morawica", "addr:postcode": "32-084", "amenity": "pharmacy", "dispensing": "yes", "ref:csioz": "1075575"}}, {"type": "node", "id": 9586492628, "lat": 49.9586837, "lon": 19.7346894, "tags": {"addr:city": "Zelczyna", "addr:housenumber": "178", "addr:postcode": "32-051", "addr:street": "Krakowska", "amenity": "pharmacy", "dispensing": "yes", "healthcare": "pharmacy", "ref:csioz": "1223823"}}, {"type": "node", "id": 9586508919, "lat": 49.9081417, "lon": 19.7867858, "tags": {"addr:housenumber": "18", "addr:place": "Wola Radziszowska", "addr:postcode": "32-053", "amenity": "pharmacy", "dispensing": "yes", "name": "Apteka Vita", "ref:csioz": "1230331"}}, {"type": "node", "id": 9586512540, "lat": 49.9752655, "lon": 19.8272974, "tags": {"addr:city": "Skawina", "addr:housenumber": "15", "addr:postcode": "32-050", "addr:street": "Rynek", "amenity": "pharmacy", "dispensing": "yes", "name": "Apteka Niebieska 24H", "ref:csioz": "1042085"}}, {"type": "node", "id": 9586514064, "lat": 49.9721109, "lon": 19.8302015, "tags": {"addr:city": "Skawina", "addr:housenumber": "1B", "addr:postcode": "32-050", "addr:street": "Ogrody", "amenity": "pharmacy", "dispensing": "yes", "healthcare": "pharmacy", "name": "Apteka S\u0142oneczna", "ref:csioz": "1074504"}}, {"type": "node", "id": 9586514286, "lat": 50.112665, "lon": 19.7966915, "tags": {"addr:city": "Zabierz\u00f3w", "addr:housenumber": "2A", "addr:postcode": "32-080", "addr:street": "Le\u015bna", "amenity": "pharmacy", "dispensing": "yes", "healthcare": "pharmacy", "name": "Aptekaeskulap.Pl", "ref:csioz": "1056169"}}, {"type": "node", "id": 9586524667, "lat": 50.1357076, "lon": 19.8201235, "tags": {"addr:city": "Ujazd", "addr:housenumber": "23A", "addr:postcode": "32-080", "addr:street": "Jurajska", "amenity": "pharmacy", "dispensing": "yes", "name:signed": "no", "opening_hours": "Mo-Fr 08:00-20:00; Sa 08:00-18:00; Su 09:00-14:00", "ref:csioz": "1113202"}}, {"type": "node", "id": 9586549994, "lat": 50.1356042, "lon": 19.6342093, "tags": {"addr:city": "Krzeszowice", "addr:housenumber": "1", "addr:postcode": "32-065", "addr:street": "Krakowska", "amenity": "pharmacy", "dispensing": "yes", "name": "Apteka S\u0142oneczna", "ref:csioz": "1222413"}}, {"type": "node", "id": 9586586565, "lat": 50.0428692, "lon": 19.7912394, "tags": {"addr:city": "Kryspin\u00f3w", "addr:housenumber": "47", "addr:postcode": "32-060", "addr:street": "Kryspina \u017bele\u0144skiego", "amenity": "pharmacy", "brand": "Gemini", "brand:wikidata": "Q130243797", "healthcare": "pharmacy", "name": "Gemini", "opening_hours": "Mo-Fr 07:00-21:00; Sa 08:00-20:00; PH off", "ref:csioz": "1209998", "wheelchair": "yes"}}, {"type": "node", "id": 9586590066, "lat": 50.1326282, "lon": 19.6365928, "tags": {"addr:city": "Krzeszowice", "addr:housenumber": "1", "addr:postcode": "32-065", "addr:street": "\u015awi\u0119tego Floriana", "amenity": "pharmacy", "dispensing": "yes", "name": "Apteka Agafarmax Krzeszowice", "ref:csioz": "1226148"}}, {"type": "node", "id": 9586601321, "lat": 50.1352622, "lon": 19.6347279, "tags": {"addr:city": "Krzeszowice", "addr:housenumber": "12", "addr:postcode": "32-065", "addr:street": "K. Wyki", "amenity": "pharmacy", "dispensing": "yes", "name": "\"Apteka \"\"Nowa\"\"\"", "ref:csioz": "1076981"}}, {"type": "node", "id": 9586601743, "lat": 49.9604141, "lon": 19.6861354, "tags": {"addr:housenumber": "102", "addr:place": "Wielkie Drogi", "addr:postcode": "32-051", "amenity": "pharmacy", "dispensing": "yes", "ref:csioz": "1176338"}}, {"type": "node", "id": 9586607286, "lat": 49.9724784, "lon": 19.8299043, "tags": {"addr:city": "Skawina", "addr:housenumber": "13", "addr:postcode": "32-050", "addr:street": "Ksi\u0119dza Jerzego Popie\u0142uszki", "amenity": "pharmacy", "dispensing": "yes", "healthcare": "pharmacy", "name": "Euro Plus", "ref:csioz": "1077157"}}, {"type": "node", "id": 9586607287, "lat": 50.1090024, "lon": 19.8332006, "tags": {"addr:city": "Zabierz\u00f3w", "addr:housenumber": "317", "addr:postcode": "32-080", "addr:street": "Krakowska", "amenity": "pharmacy", "dispensing": "yes", "healthcare": "pharmacy", "ref:csioz": "1227255"}}, {"type": "node", "id": 9586607445, "lat": 50.1355485, "lon": 19.635589, "tags": {"addr:city": "Krzeszowice", "addr:housenumber": "16", "addr:postcode": "32-065", "addr:street": "Krakowska", "amenity": "pharmacy", "dispensing": "yes", "name": "Apteka Rodzinna", "ref:csioz": "1035240"}}, {"type": "node", "id": 9586609883, "lat": 50.2026399, "lon": 19.6779121, "tags": {"addr:housenumber": "52", "addr:place": "Rac\u0142awice", "addr:postcode": "32-049", "amenity": "pharmacy", "dispensing": "yes", "ref:csioz": "1194861"}}, {"type": "node", "id": 9586613581, "lat": 50.1218161, "lon": 19.7117101, "tags": {"addr:city": "Rudawa", "addr:housenumber": "4", "addr:postcode": "32-064", "addr:street": "Rudawska", "amenity": "pharmacy", "dispensing": "yes", "name": "Prima", "ref:csioz": "1075290"}}, {"type": "node", "id": 9586620737, "lat": 50.1330173, "lon": 19.6410547, "tags": {"addr:city": "Krzeszowice", "addr:housenumber": "54", "addr:postcode": "32-065", "addr:street": "T. Ko\u015bciuszki", "amenity": "pharmacy", "dispensing": "yes", "name": "Hygieia", "ref:csioz": "1036542"}}, {"type": "node", "id": 9586620741, "lat": 50.1093643, "lon": 19.8466837, "tags": {"addr:city": "Modlniczka", "addr:housenumber": "32", "addr:postcode": "32-085", "addr:street": "Profesora Adama Ro\u017ca\u0144skiego", "amenity": "pharmacy", "brand": "Super-Pharm", "brand:en": "Super-Pharm", "brand:he": "\u05e1\u05d5\u05e4\u05e8-\u05e4\u05d0\u05e8\u05dd", "brand:wikidata": "Q13220217", "brand:wikipedia": "en:Super-Pharm", "dispensing": "yes", "healthcare": "pharmacy", "name": "Super-Pharm", "name:ar": "\u0633\u0648\u0628\u064a\u0631 \u0641\u0627\u0631\u0645", "name:en": "Super-Pharm", "name:he": "\u05e1\u05d5\u05e4\u05e8-\u05e4\u05d0\u05e8\u05dd", "name:ru": "\u0421\u0443\u043f\u0435\u0440-\u0424\u0430\u0440\u043c", "ref:csioz": "1076829"}}, {"type": "node", "id": 9586623047, "lat": 49.988883, "lon": 19.6747559, "tags": {"addr:city": "Czernich\u00f3w", "addr:housenumber": "4", "addr:postcode": "32-070", "addr:street": "Us\u0142ugowa", "amenity": "pharmacy", "dispensing": "yes", "ref:csioz": "1036871"}}, {"type": "node", "id": 9586632908, "lat": 50.135174, "lon": 19.6334416, "tags": {"addr:city": "Krzeszowice", "addr:housenumber": "6A", "addr:postcode": "32-065", "addr:street": "K. Wyki", "amenity": "pharmacy", "dispensing": "yes", "name": "Hygieia", "ref:csioz": "1076303"}}, {"type": "node", "id": 9586640310, "lat": 49.9748236, "lon": 19.8334197, "tags": {"addr:city": "Skawina", "addr:housenumber": "7A", "addr:postcode": "32-050", "addr:street": "Korabnicka", "amenity": "pharmacy", "check_date": "2023-06-23", "dispensing": "yes", "name": "Apteka Vita", "ref:csioz": "1228312"}}, {"type": "node", "id": 9586645382, "lat": 50.0910025, "lon": 19.8301189, "tags": {"addr:city": "Rz\u0105ska", "addr:housenumber": "49A", "addr:postcode": "30-199", "addr:street": "Balicka", "amenity": "pharmacy", "dispensing": "yes", "healthcare": "pharmacy", "name": "Apteka Rz\u0105ska", "ref:csioz": "1212042"}}, {"type": "node", "id": 9586671189, "lat": 49.9629805, "lon": 19.8175717, "tags": {"addr:city": "Skawina", "addr:housenumber": "7", "addr:postcode": "32-050", "addr:street": "Radziszowska", "amenity": "pharmacy", "dispensing": "yes", "name": "Hygieia", "ref:csioz": "1207843"}}, {"type": "node", "id": 9587922812, "lat": 50.0143727, "lon": 19.8961255, "tags": {"amenity": "pharmacy", "brand": "Dbam o Zdrowie", "brand:wikidata": "Q62563833", "dispensing": "yes", "healthcare": "pharmacy", "name": "Dbam o Zdrowie", "opening_hours": "Mo-Fr 08:00-21:00; Sa 08:00-20:00; Su 10:00-17:00", "ref:csioz": "1222155", "short_name": "DOZ"}}, {"type": "node", "id": 9587922813, "lat": 50.0183042, "lon": 19.9067923, "tags": {"amenity": "pharmacy", "dispensing": "yes", "name": "Apteka Niezapominajka Dla Ca\u0142ej Rodziny", "opening_hours": "Mo-Fr 08:00-21:00; Sa 08:00-15:00", "ref:csioz": "1194711", "wheelchair": "yes"}}, {"type": "node", "id": 9588531272, "lat": 50.0065643, "lon": 19.8731762, "tags": {"amenity": "pharmacy", "dispensing": "yes", "ref:csioz": "1036723"}}, {"type": "node", "id": 9595544208, "lat": 50.0437635, "lon": 19.2432859, "tags": {"addr:city": "O\u015bwi\u0119cim", "addr:housenumber": "2", "addr:postcode": "32-600", "addr:street": "Szpitalna", "amenity": "pharmacy", "name": "Apteka \u201eVita\u201d", "ref:csioz": "1077011"}}, {"type": "node", "id": 9595544209, "lat": 49.8774097, "lon": 19.2813679, "tags": {"addr:city": "Bulowice", "addr:housenumber": "52", "addr:postcode": "32-652", "addr:street": "Bielska", "amenity": "pharmacy", "name": "Aspirynka", "ref:csioz": "1077259"}}, {"type": "node", "id": 9595544211, "lat": 49.983703, "lon": 19.3633738, "tags": {"addr:city": "Piotrowice", "addr:housenumber": "77", "addr:postcode": "32-641", "addr:street": "Andrychowska", "amenity": "pharmacy", "name": "Punkt Apteczny Arnika", "ref:csioz": "1035482"}}, {"type": "node", "id": 9595668917, "lat": 50.1041842, "lon": 19.2633113, "tags": {"addr:city": "Che\u0142mek", "addr:housenumber": "6", "addr:postcode": "32-600", "addr:street": "Brzozowa", "amenity": "pharmacy", "name": "Apteka \u015awiat Lek\u00f3w", "ref:csioz": "1194952"}}, {"type": "node", "id": 9595668918, "lat": 50.0436481, "lon": 19.2047238, "tags": {"addr:city": "O\u015bwi\u0119cim", "addr:flats": "0.11", "addr:housenumber": "1", "addr:postcode": "32-600", "addr:street": "Powsta\u0144c\u00f3w \u015al\u0105skich", "amenity": "pharmacy", "name": "Dr.Max", "ref:csioz": "1230283"}}, {"type": "node", "id": 9595668921, "lat": 50.0378997, "lon": 19.2334959, "tags": {"addr:city": "O\u015bwi\u0119cim", "addr:housenumber": "1D", "addr:postcode": "32-600", "addr:street": "J\u00f3zefa Nojego", "amenity": "pharmacy", "healthcare": "pharmacy", "name": "Apteka S\u0142oneczna", "ref:csioz": "1190903"}}, {"type": "node", "id": 9705795281, "lat": 49.8561788, "lon": 19.3446337, "tags": {"entrance": "yes"}}, {"type": "node", "id": 9705810332, "lat": 49.8561732, "lon": 19.3446466}, {"type": "node", "id": 9705810333, "lat": 49.8561789, "lon": 19.3446463}, {"type": "node", "id": 9705810334, "lat": 49.8561787, "lon": 19.3446212}, {"type": "node", "id": 9705810335, "lat": 49.8561725, "lon": 19.3446214}, {"type": "node", "id": 9705810336, "lat": 49.8563473, "lon": 19.3446482}, {"type": "node", "id": 9705810337, "lat": 49.8563267, "lon": 19.344637}, {"type": "node", "id": 10298780300, "lat": 49.9716012, "lon": 19.827408, "tags": {"amenity": "pharmacy", "level": "0"}}, {"type": "node", "id": 10640730303, "lat": 50.0707028, "lon": 19.4504896, "tags": {"amenity": "pharmacy", "dispensing": "yes", "healthcare": "pharmacy", "name": "Nadzieja", "ref:csioz": "1037143"}}, {"type": "node", "id": 10646753248, "lat": 50.1442285, "lon": 19.4070283, "tags": {"amenity": "pharmacy", "dispensing": "yes", "healthcare": "pharmacy", "name": "Pod Or\u0142em", "ref:csioz": "1036665"}}, {"type": "node", "id": 10646801414, "lat": 50.1474839, "lon": 19.4093174, "tags": {"amenity": "pharmacy", "brand": "Dbam o Zdrowie", "brand:wikidata": "Q62563833", "dispensing": "yes", "healthcare": "pharmacy", "name": "Dbam o Zdrowie", "ref:csioz": "1056724", "short_name": "DOZ"}}, {"type": "node", "id": 10646842116, "lat": 50.0935992, "lon": 19.4017099, "tags": {"amenity": "pharmacy", "dispensing": "yes", "healthcare": "pharmacy", "name": "Punkt Apteczny Zag\u00f3rze", "ref:csioz": "1226087"}}, {"type": "node", "id": 10646842117, "lat": 50.1591805, "lon": 19.4756601, "tags": {"amenity": "pharmacy", "dispensing": "yes", "healthcare": "pharmacy", "ref:csioz": "1181638"}}, {"type": "node", "id": 10646842118, "lat": 50.2016766, "lon": 19.4436138, "tags": {"addr:city": "Trzebinia", "addr:housenumber": "39", "addr:postcode": "32-540", "addr:street": "Jana Matejki", "amenity": "pharmacy", "dispensing": "yes", "healthcare": "pharmacy", "name": "Apteka Gaj", "opening_hours": "Mo-Fr 07:30-19:00; Sa 08:00-13:00", "ref:csioz": "1034586"}}, {"type": "node", "id": 10646842119, "lat": 50.159207, "lon": 19.4596992, "tags": {"amenity": "pharmacy", "dispensing": "yes", "healthcare": "pharmacy", "name": "Hygieia", "ref:csioz": "1206489"}}, {"type": "node", "id": 10646842120, "lat": 50.1697256, "lon": 19.5220311, "tags": {"amenity": "pharmacy", "dispensing": "yes", "healthcare": "pharmacy", "name": "Punkt Apteczny Pod Or\u0142em", "ref:csioz": "1226543"}}, {"type": "node", "id": 10646842122, "lat": 50.1835008, "lon": 19.4782441, "tags": {"amenity": "pharmacy", "dispensing": "yes", "healthcare": "pharmacy", "name": "Punkt Apteczny My\u015blachowice", "ref:csioz": "1223160"}}, {"type": "node", "id": 10646842123, "lat": 50.1027643, "lon": 19.3232436, "tags": {"amenity": "pharmacy", "dispensing": "yes", "healthcare": "pharmacy", "name": "Hygieia", "ref:csioz": "1194477"}}, {"type": "node", "id": 10646842124, "lat": 50.0990745, "lon": 19.3300861, "tags": {"amenity": "pharmacy", "dispensing": "yes", "healthcare": "pharmacy", "name": "Pod Z\u0142ot\u0105 Gwiazd\u0105", "ref:csioz": "1115960"}}, {"type": "node", "id": 10646842130, "lat": 50.046096, "lon": 19.4402094, "tags": {"addr:city": "Jankowice", "addr:housenumber": "16", "addr:postcode": "32-551", "addr:street": "Jana Paw\u0142a II", "amenity": "pharmacy", "dispensing": "yes", "healthcare": "pharmacy", "name": "Punkt Apteczny", "ref:csioz": "1209315"}}, {"type": "node", "id": 10651788205, "lat": 49.9429139, "lon": 19.8849521, "tags": {"amenity": "pharmacy", "dispensing": "yes", "healthcare": "pharmacy", "name": "Nowa Farmacja", "ref:csioz": "1202846"}}, {"type": "node", "id": 10651788207, "lat": 49.9754977, "lon": 19.8207459, "tags": {"amenity": "pharmacy", "dispensing": "yes", "healthcare": "pharmacy", "name": "Mniszek", "ref:csioz": "1056525"}}, {"type": "node", "id": 10651788208, "lat": 50.1330456, "lon": 19.5864937, "tags": {"amenity": "pharmacy", "dispensing": "yes", "healthcare": "pharmacy", "name": "Punkt Apteczny", "ref:csioz": "1219110"}}, {"type": "node", "id": 10651788215, "lat": 50.220374, "lon": 19.7487664, "tags": {"amenity": "pharmacy", "dispensing": "yes", "healthcare": "pharmacy", "name": "Ojcowska", "ref:csioz": "1231226"}}, {"type": "node", "id": 10652746466, "lat": 49.8918483, "lon": 19.8255038, "tags": {"amenity": "pharmacy", "brand": "Dbam o Zdrowie", "brand:wikidata": "Q62563833", "dispensing": "yes", "healthcare": "pharmacy", "name": "Dbam o Zdrowie", "ref:csioz": "1075654", "short_name": "DOZ"}}, {"type": "node", "id": 10652746467, "lat": 49.8959275, "lon": 19.8757291, "tags": {"amenity": "pharmacy", "dispensing": "yes", "healthcare": "pharmacy", "name": "Punkt Apteczny Krokus", "ref:csioz": "1228591"}}, {"type": "node", "id": 10701986506, "lat": 50.1372217, "lon": 19.428851, "tags": {"amenity": "pharmacy", "healthcare": "pharmacy"}}, {"type": "node", "id": 11217773053, "lat": 50.029007, "lon": 19.8558188, "tags": {"addr:housenumber": "161", "addr:street": "Tyniecka", "amenity": "pharmacy", "brand": "Ziko Apteka", "brand:wikidata": "Q63432892", "check_date": "2023-09-25", "healthcare": "pharmacy", "name": "Ziko Apteka", "opening_hours": "Mo-Fr 08:00-21:00; Sa 08:00-17:00", "short_name": "Ziko", "website": "https://zikoapteka.pl/apteki/krakow/tyniecka-161/", "wheelchair": "yes"}}, {"type": "node", "id": 11482252862, "lat": 49.9065829, "lon": 19.6038662, "tags": {"addr:city": "Wysoka", "addr:housenumber": "2", "addr:postcode": "34-105", "addr:street": "Jesionowa", "amenity": "pharmacy", "healthcare": "pharmacy"}}, {"type": "node", "id": 11825018490, "lat": 50.0440208, "lon": 19.8256762, "tags": {"addr:housenumber": "170a", "addr:street": "Ksi\u0119cia J\u00f3zefa", "amenity": "pharmacy", "check_date": "2024-04-17", "healthcare": "pharmacy", "name": "Apteka Na Bielanach", "opening_hours": "Mo-Fr 09:00-18:00; Sa 09:00-13:00", "wheelchair": "yes"}}, {"type": "node", "id": 12064429459, "lat": 50.108987, "lon": 19.196005, "tags": {"addr:city": "Che\u0142m \u015al\u0105ski", "addr:housenumber": "66", "addr:postcode": "41-403", "addr:street": "\u015al\u0105ska", "amenity": "pharmacy", "check_date": "2024-07-20", "dispensing": "yes", "drive_through": "no", "entrance": "yes", "healthcare": "pharmacy", "name": "Blisko Ciebie"}}, {"type": "node", "id": 12708516637, "lat": 49.8908392, "lon": 19.4915614, "tags": {"addr:city": "Wadowice", "addr:housenumber": "14", "addr:postcode": "34-100", "addr:street": "Wojska Polskiego", "amenity": "pharmacy", "dispensing": "yes", "drive_through": "no", "healthcare": "pharmacy", "name": "Hygieia", "opening_hours": "Mo-Fr 07:00-21:00; Sa 07:00-19:00", "website": "https://www.hygieia.pl/", "wheelchair": "yes"}}, {"type": "node", "id": 12755501935, "lat": 49.8866056, "lon": 19.4914514, "tags": {"addr:city": "Wadowice", "addr:housenumber": "4", "addr:postcode": "34-100", "addr:street": "Plac Obro\u0144c\u00f3w Westerplatte", "amenity": "pharmacy", "dispensing": "yes", "drive_through": "no", "healthcare": "pharmacy", "name": "Apteka Medicus", "opening_hours": "Mo-Fr 07:00-20:30; Sa07:00-15:00", "phone": "+48 33 870 75 60", "wheelchair": "limited"}}, {"type": "way", "id": 147526979, "nodes": [7965905118, 7965906016, 1607403817, 1607403815, 7227421774, 7227421773, 7965905118], "tags": {"addr:city": "Trzebinia", "addr:city:simc": "0944149", "addr:housenumber": "17", "addr:postcode": "32-540", "addr:street": "Ma\u0142y Rynek", "addr:street:sym_ul": "9582", "amenity": "pharmacy", "building": "yes", "building:material": "plaster", "dispensing": "yes", "healthcare": "pharmacy", "ref:csioz": "1042272", "roof:levels": "1", "roof:material": "roof_tiles", "roof:orientation": "across", "roof:shape": "half-hipped", "source:addr": "emuia.gugik.gov.pl"}}, {"type": "way", "id": 254057936, "nodes": [2598887260, 9230712745, 9230712746, 2598887256, 2598887254, 9230712747, 2598887258, 2598887260], "tags": {"addr:city": "Andrych\u00f3w", "addr:city:simc": "0924023", "addr:housenumber": "40", "addr:postcode": "34-120", "addr:street": "Stanis\u0142awa Lenartowicza", "addr:street:sym_ul": "10812", "amenity": "pharmacy", "building": "yes", "dispensing": "yes", "healthcare": "pharmacy", "name": "Animar I", "opening_hours": "Mo-Fr 08:00-20:00; Sa 08:00-13:00; PH off", "source:addr": "andrychow.e-mapa.net"}}, {"type": "way", "id": 256594484, "nodes": [3933801979, 3933801965, 3933801981, 3933800130, 3933801979], "tags": {"addr:city": "Kalwaria Zebrzydowska", "addr:city:simc": "0924253", "addr:housenumber": "8", "addr:postcode": "34-130", "addr:street": "Targowa", "addr:street:sym_ul": "22659", "amenity": "pharmacy", "building": "yes", "healthcare": "pharmacy", "source:addr": "kalwariazebrzydowska.e-mapa.net"}}, {"type": "way", "id": 261906464, "nodes": [3495871912, 3495872039, 3495872145, 3495872194, 3495871868, 3495871860, 3495871707, 3495872198, 3495871912], "tags": {"addr:city": "Chocznia", "addr:housenumber": "2", "addr:postcode": "34-123", "addr:street": "G\u0142\u00f3wna", "amenity": "pharmacy", "building": "yes", "healthcare": "pharmacy", "name": "Apteka", "source:addr": "EMUiA (wadowice.e-mapa.net)", "wheelchair": "yes"}}, {"type": "way", "id": 301663354, "nodes": [3057515578, 3009553773, 3057515584, 3057515574, 3057515578], "tags": {"amenity": "pharmacy", "buildingpart": "room", "dispensing": "yes", "healthcare": "pharmacy", "indoor": "yes", "name": "Apteka Hygieia", "official_name": "Hygieia", "ref:csioz": "1035612"}}, {"type": "way", "id": 320586039, "nodes": [3916927788, 3916927760, 9705810335, 9705810334, 9705795281, 9705810333, 9705810332, 3916927512, 3916927821, 3916927866, 3916929758, 9705810336, 9705810337, 3916929976, 3271316749, 3916927788], "tags": {"addr:city": "Andrych\u00f3w", "addr:city:simc": "0924023", "addr:housenumber": "9", "addr:postcode": "34-120", "addr:street": "27 Stycznia", "addr:street:sym_ul": "30091", "amenity": "pharmacy", "brand": "Dr. Max", "brand:wikidata": "Q56317371", "brand:wikipedia": "fr:Dr.Max", "building": "commercial", "dispensing": "yes", "healthcare": "pharmacy", "name": "Dr. Max", "opening_hours": "Mo-Sa 08:00-21:00; PH off", "source:addr": "andrychow.e-mapa.net", "website": "https://www.drmax.pl/"}}, {"type": "way", "id": 376249762, "nodes": [3796924390, 3796924579, 3796924577, 3796924575, 3796924237, 3796924573, 3796921217, 3796924389, 3796924390], "tags": {"addr:city": "Bieru\u0144", "addr:city:simc": "0938077", "addr:housenumber": "20", "addr:postcode": "43-155", "addr:street": "Granitowa", "addr:street:sym_ul": "06077", "amenity": "pharmacy", "building": "yes", "healthcare": "pharmacy", "source:addr": "gugik.gov.pl"}}, {"type": "way", "id": 904472308, "nodes": [8399965844, 8399965827, 8399965828, 8399965829, 8399965830, 8399965831, 8399965832, 8399965833, 8399965840, 8399965841, 8399965842, 8399965843, 8399965844], "tags": {"addr:housenumber": "626", "addr:place": "Strysz\u00f3w", "addr:postcode": "34-146", "amenity": "pharmacy", "building": "yes", "dispensing": "yes", "drive_through": "no", "healthcare": "pharmacy", "name": "Apteka Rodzinna"}}]}