{"version": 0.6, "generator": "Overpass API 0.7.62.8 e802775f", "osm3s": {"timestamp_osm_base": "2025-10-06T08:16:01Z", "copyright": "The data included in this document is from www.openstreetmap.org. The data is made available under ODbL."}, "elements": [{"type": "node", "id": 734535664, "lat": 49.3583746, "lon": 19.6012359}, {"type": "node", "id": 734535692, "lat": 49.3585167, "lon": 19.6012758}, {"type": "node", "id": 734535785, "lat": 49.3584884, "lon": 19.6011881}, {"type": "node", "id": 734535904, "lat": 49.3584221, "lon": 19.6013367}, {"type": "node", "id": 734535932, "lat": 49.3584313, "lon": 19.6013561}, {"type": "node", "id": 734535993, "lat": 49.3584802, "lon": 19.6011972}, {"type": "node", "id": 734536115, "lat": 49.3584625, "lon": 19.6011594}, {"type": "node", "id": 734536140, "lat": 49.3584417, "lon": 19.6013742}, {"type": "node", "id": 734536207, "lat": 49.3584999, "lon": 19.6012379}, {"type": "node", "id": 734536302, "lat": 49.3584499, "lon": 19.6011572}, {"type": "node", "id": 734536386, "lat": 49.3585077, "lon": 19.6012293}, {"type": "node", "id": 734536420, "lat": 49.3585132, "lon": 19.6012985}, {"type": "node", "id": 885593026, "lat": 49.6097322, "lon": 19.9530312, "tags": {"addr:city": "Rabka-Zdr\u00f3j", "addr:housenumber": "29", "addr:postcode": "34-700", "addr:street": "W\u0142adys\u0142awa Orkana", "amenity": "pharmacy", "dispensing": "yes", "healthcare": "pharmacy", "name": "Pod Gwiazd\u0105", "opening_hours": "Mo-Fr 08:00-21:00; Sa 08:00-20:00; Su 09:00-14:00", "ref:csioz": "1056479", "wheelchair": "no"}}, {"type": "node", "id": 1687943223, "lat": 49.3583097, "lon": 19.6021993}, {"type": "node", "id": 1687943631, "lat": 49.3583565, "lon": 19.6021439}, {"type": "node", "id": 1687943846, "lat": 49.3584019, "lon": 19.6020901}, {"type": "node", "id": 1687943865, "lat": 49.3584075, "lon": 19.6023939}, {"type": "node", "id": 1687944003, "lat": 49.3584284, "lon": 19.6021429}, {"type": "node", "id": 1687944163, "lat": 49.3584504, "lon": 19.602343}, {"type": "node", "id": 1687944232, "lat": 49.3584742, "lon": 19.6023905}, {"type": "node", "id": 1687944236, "lat": 49.3584761, "lon": 19.6023438}, {"type": "node", "id": 1687944252, "lat": 49.3584901, "lon": 19.6023717}, {"type": "node", "id": 1687944270, "lat": 49.3585095, "lon": 19.6023043}, {"type": "node", "id": 1687945803, "lat": 49.3595154, "lon": 19.6071129}, {"type": "node", "id": 1687945835, "lat": 49.3595357, "lon": 19.6072711}, {"type": "node", "id": 1687946066, "lat": 49.3597155, "lon": 19.6070605}, {"type": "node", "id": 1864628570, "lat": 49.6607117, "lon": 19.5578054, "tags": {"amenity": "pharmacy", "name": "APTEKA PRYWATNA W ZAWOI, MGR DOROTA DRWI\u0118GA", "opening_hours": "Mo-Fr 07:30-16:30; Sa 07:30-13:30; Sa off"}}, {"type": "node", "id": 2378794312, "lat": 49.6063655, "lon": 19.9519785, "tags": {"amenity": "pharmacy", "healthcare": "pharmacy"}}, {"type": "node", "id": 2552326052, "lat": 49.6494757, "lon": 19.831632, "tags": {"amenity": "pharmacy"}}, {"type": "node", "id": 2599084038, "lat": 49.61909, "lon": 20.07296, "tags": {"addr:housenumber": "693", "addr:place": "Por\u0119ba Wielka", "addr:postcode": "34-735", "amenity": "pharmacy", "dispensing": "yes", "healthcare": "pharmacy", "ref:csioz": "1080955"}}, {"type": "node", "id": 2712966496, "lat": 49.7586685, "lon": 19.4873711}, {"type": "node", "id": 2712966532, "lat": 49.7587071, "lon": 19.4878258}, {"type": "node", "id": 2712966550, "lat": 49.7587614, "lon": 19.4873522}, {"type": "node", "id": 2712966570, "lat": 49.7588001, "lon": 19.4878068}, {"type": "node", "id": 2777478448, "lat": 49.7422955, "lon": 19.5984149, "tags": {"amenity": "pharmacy", "healthcare": "pharmacy", "opening_hours": "Mo-Fr 07:30-19:00; Sa 07:30-15:00"}}, {"type": "node", "id": 2823501931, "lat": 49.8298361, "lon": 19.9456481, "tags": {"addr:city": "My\u015blenice", "addr:housenumber": "14", "addr:postcode": "32-400", "addr:street": "Franciszka \u017bwirki i Stanis\u0142awa Wigury", "amenity": "pharmacy", "dispensing": "yes", "healthcare": "pharmacy", "name": "Esculap", "phone": "+48122723077", "ref:csioz": "1035776", "source:addr": "EMUiA (emuia.gugik.gov.pl)"}}, {"type": "node", "id": 2823522637, "lat": 49.8298162, "lon": 19.9464244, "tags": {"addr:city": "My\u015blenice", "addr:housenumber": "3a", "addr:postcode": "32-400", "addr:street": "Szpitalna", "amenity": "pharmacy", "dispensing": "yes", "healthcare": "pharmacy", "name": "S\u0142oneczna", "phone": "+48531199649", "ref:csioz": "1171431", "source:addr": "EMUiA (emuia.gugik.gov.pl)", "website": "www.apteka-sloneczna.pl"}}, {"type": "node", "id": 2824536376, "lat": 49.7374865, "lon": 19.8955767, "tags": {"addr:housenumber": "568", "addr:place": "Krzczon\u00f3w", "addr:postcode": "32-435", "amenity": "pharmacy", "name": "Punkt Apteczny", "source:addr": "EMUiA (emuia.gugik.gov.pl)"}}, {"type": "node", "id": 3253777528, "lat": 49.6592592, "lon": 19.5571025, "tags": {"amenity": "pharmacy", "brand": "Dbam o Zdrowie", "brand:wikidata": "Q62563833", "dispensing": "yes", "healthcare": "pharmacy", "name": "Dbam o Zdrowie", "opening_hours": "Mo-Fr 08:00-17:00; Sa 08:00-12:00; Sa off", "short_name": "DOZ"}}, {"type": "node", "id": 3370360419, "lat": 49.4785851, "lon": 20.0234651, "tags": {"addr:city": "Nowy Targ", "addr:housenumber": "20", "addr:postcode": "34-400", "addr:street": "Jana Kili\u0144skiego", "amenity": "pharmacy", "brand": "Ziko Apteka", "brand:wikidata": "Q63432892", "description": "Ziko Apteka zlokalizowana jest w Nowym Targu przy ul. Jana Kili\u0144skiego 20. Czynna jest przez 7 dni w tygodniu \u2013 od poniedzia\u0142ku do niedzieli.", "dispensing": "yes", "healthcare": "pharmacy", "name": "Ziko Apteka", "opening_hours": "Mo-Fr 07:30-20:00; Sa 09:00-20:00; Su 10:00-19:00", "payment:cash": "yes", "payment:coins": "yes", "payment:mastercard": "yes", "payment:visa": "yes", "phone": "+48 12 687 57 47", "ref:csioz": "1170000", "short_name": "Ziko", "website": "https://www.ziko.pl/nowy-targ-apteki-drogerie-ziko/kilinskiego-20/"}}, {"type": "node", "id": 3509197260, "lat": 49.7345615, "lon": 19.8784361, "tags": {"amenity": "pharmacy", "dispensing": "yes", "healthcare": "pharmacy", "name": "Maria", "ref:csioz": "1077480"}}, {"type": "node", "id": 3511336193, "lat": 49.6116317, "lon": 19.728134, "tags": {"amenity": "pharmacy", "name": "Apteka", "opening_hours": "Mo-Fr 08:00-15:30"}}, {"type": "node", "id": 3521399359, "lat": 49.5765393, "lon": 19.8209228}, {"type": "node", "id": 3521399363, "lat": 49.5765531, "lon": 19.8207925}, {"type": "node", "id": 3521399368, "lat": 49.5765755, "lon": 19.8207992}, {"type": "node", "id": 3521399383, "lat": 49.5766744, "lon": 19.8208288}, {"type": "node", "id": 3521399387, "lat": 49.57669, "lon": 19.8208335}, {"type": "node", "id": 3521400294, "lat": 49.5766769, "lon": 19.8209574}, {"type": "node", "id": 3529432060, "lat": 49.6051314, "lon": 19.968945}, {"type": "node", "id": 3529432525, "lat": 49.6050006, "lon": 19.9690279}, {"type": "node", "id": 3529432528, "lat": 49.6050238, "lon": 19.968896}, {"type": "node", "id": 3529432534, "lat": 49.6051084, "lon": 19.969077}, {"type": "node", "id": 3724583135, "lat": 49.8351778, "lon": 19.948429, "tags": {"addr:city": "My\u015blenice", "addr:housenumber": "2d", "addr:postcode": "32-400", "addr:street": "S\u0142oneczna", "amenity": "pharmacy", "brand": "Dbam o Zdrowie", "brand:wikidata": "Q62563833", "dispensing": "yes", "healthcare": "pharmacy", "name": "Dbam o Zdrowie", "ref:csioz": "1038183", "short_name": "DOZ"}}, {"type": "node", "id": 3784451326, "lat": 49.7413941, "lon": 19.5849364, "tags": {"amenity": "pharmacy", "healthcare": "pharmacy"}}, {"type": "node", "id": 3784451327, "lat": 49.7405066, "lon": 19.5866316, "tags": {"amenity": "pharmacy", "healthcare": "pharmacy", "name:signed": "no", "opening_hours": "Mo-Fr 07:30-20:00; Sa 07:30-17:00"}}, {"type": "node", "id": 3788637492, "lat": 49.838465, "lon": 19.9424292, "tags": {"amenity": "pharmacy", "healthcare": "pharmacy"}}, {"type": "node", "id": 3918882812, "lat": 49.7222632, "lon": 19.3777902}, {"type": "node", "id": 3918898711, "lat": 49.7220805, "lon": 19.3778537}, {"type": "node", "id": 3918899284, "lat": 49.7222332, "lon": 19.3777125}, {"type": "node", "id": 3918899668, "lat": 49.7221106, "lon": 19.3779314}, {"type": "node", "id": 3938791511, "lat": 49.7375585, "lon": 19.8956035}, {"type": "node", "id": 3938793387, "lat": 49.7374143, "lon": 19.8955499}, {"type": "node", "id": 3938808711, "lat": 49.7374636, "lon": 19.8956856}, {"type": "node", "id": 3938808808, "lat": 49.7375092, "lon": 19.8954678}, {"type": "node", "id": 4418126142, "lat": 49.7277258, "lon": 19.507123, "tags": {"amenity": "pharmacy", "name": "Apteka", "opening_hours": "Mo-Fr 08:00-18:00; Sa 08:00-16:00; PH off"}}, {"type": "node", "id": 4418127757, "lat": 49.7277755, "lon": 19.5080934, "tags": {"amenity": "pharmacy", "name": "Apteka Corda", "opening_hours": "Mo-Fr 08:00-18:00; Sa 08:00-15:00; Su 09:00-13:00"}}, {"type": "node", "id": 4419543529, "lat": 49.728593, "lon": 19.834057, "tags": {"amenity": "pharmacy", "opening_hours": "Mo-Fr 08:00-15:00, We 08:00-17:00"}}, {"type": "node", "id": 4440278866, "lat": 49.8337401, "lon": 19.9558548, "tags": {"addr:city": "My\u015blenice", "addr:housenumber": "5", "addr:postcode": "32-400", "addr:street": "Drogowc\u00f3w", "amenity": "pharmacy", "dispensing": "yes", "healthcare": "pharmacy", "name": "Esculap", "opening_hours": "Mo-Fr 08:00-19:00; Sa 08:00-13:00", "ref:csioz": "1189203"}}, {"type": "node", "id": 4718481905, "lat": 49.6736066, "lon": 20.0770287, "tags": {"amenity": "pharmacy", "dispensing": "yes", "healthcare": "pharmacy", "name": "Krokus", "ref:csioz": "1080895"}}, {"type": "node", "id": 4718481911, "lat": 49.6750605, "lon": 20.0814022, "tags": {"amenity": "pharmacy", "brand": "Dbam o Zdrowie", "brand:wikidata": "Q62563833", "dispensing": "yes", "healthcare": "pharmacy", "name": "Dbam o Zdrowie", "name:signed": "no", "opening_hours": "Mo-Fr 08:00-18:00; Sa 08:00-14:00", "ref:csioz": "1080929", "short_name": "DOZ"}}, {"type": "node", "id": 4718481913, "lat": 49.6753388, "lon": 20.0822616, "tags": {"amenity": "pharmacy", "dispensing": "yes", "healthcare": "pharmacy", "name": "Galicja", "opening_hours": "Sa 07:30-14:00; Mo-Fr 07:00-19:00", "ref:csioz": "1203084"}}, {"type": "node", "id": 4728620197, "lat": 49.7285545, "lon": 19.6799401, "tags": {"amenity": "pharmacy", "healthcare": "pharmacy", "name": "Eskulap"}}, {"type": "node", "id": 5289090331, "lat": 49.6097677, "lon": 19.9641932, "tags": {"amenity": "pharmacy", "dispensing": "yes", "healthcare": "pharmacy", "level": "-1", "opening_hours": "Mo-Fr 08:00-20:00; Sa 08:00-19:00; Su 10:00-14:00", "ref:csioz": "1056596"}}, {"type": "node", "id": 5485825821, "lat": 49.7760371, "lon": 19.6028729, "tags": {"addr:city": "Zembrzyce", "addr:postcode": "34-210", "amenity": "pharmacy", "name": "Apteka pod kasztanami", "opening_hours": "Mo-Fr 07:30-15:00; Sa 08:00-12:00"}}, {"type": "node", "id": 5833966986, "lat": 49.7514435, "lon": 19.969213, "tags": {"amenity": "pharmacy", "dispensing": "yes", "healthcare": "pharmacy", "name": "Zdrowe Ceny", "opening_hours": "Mo-Fr 08:00-18:00; Sa 08:00-15:00", "ref:csioz": "1036176"}}, {"type": "node", "id": 5892515485, "lat": 49.7395645, "lon": 19.5800014, "tags": {"amenity": "pharmacy", "healthcare": "pharmacy", "name": "Nova", "opening_hours": "Mo-Fr 07:30-18:00; Sa 08:00-14:00"}}, {"type": "node", "id": 6139222589, "lat": 49.6762478, "lon": 20.0824194, "tags": {"amenity": "pharmacy", "check_date:opening_hours": "2021-08-06", "dispensing": "yes", "healthcare": "pharmacy", "name": "Msza\u0144ska", "opening_hours": "Mo-Fr 07:30-20:00; Sa 08:00-15:00", "phone": "501158541", "ref:csioz": "1080880"}}, {"type": "node", "id": 6267502789, "lat": 49.729724, "lon": 19.6772241, "tags": {"amenity": "pharmacy", "check_date": "2023-09-02", "dispensing": "yes", "healthcare": "pharmacy", "name": "Corda", "opening_hours": "Mo-Fr 07:30-19:00; Sa 07:30-15:00", "payment:mastercard": "yes", "payment:visa": "yes", "wheelchair": "yes"}}, {"type": "node", "id": 6393350634, "lat": 49.8364611, "lon": 19.9481434, "tags": {"addr:city": "My\u015blenice", "addr:housenumber": "2e", "addr:postcode": "32-400", "addr:street": "S\u0142oneczna", "amenity": "pharmacy", "brand": "Ziko Apteka", "brand:wikidata": "Q63432892", "description": "Ziko Apteka zlokalizowana jest w My\u015blenicach przy ul. S\u0142onecznej 2e. Czynna jest przez 7 dni w tygodniu \u2013 od poniedzia\u0142ku do niedzieli.", "dispensing": "yes", "healthcare": "pharmacy", "name": "Ziko Apteka", "opening_hours": "Mo-Fr 08:00-21:00, Sa 09:00-21:00, Su 10:00-19:00", "payment:cash": "yes", "payment:coins": "yes", "payment:mastercard": "yes", "payment:visa": "yes", "phone": "+48 12 687 57 47", "ref:csioz": "1200348", "short_name": "Ziko", "website": "https://www.ziko.pl/myslenice-apteki-drogerie-ziko/sloneczna-2e/"}}, {"type": "node", "id": 7790792556, "lat": 49.6050537, "lon": 19.9690521, "tags": {"entrance": "yes"}}, {"type": "node", "id": 7877516390, "lat": 49.7414136, "lon": 19.5918627, "tags": {"addr:city": "Sucha Beskidzka", "addr:housenumber": "91", "addr:postcode": "34-200", "addr:street": "Adama Mickiewicza", "amenity": "pharmacy", "dispensing": "yes", "healthcare": "pharmacy", "name": "Aspirynka", "opening_hours": "Mo-Fr 08:30-18:30; Sa 09:00-15:00"}}, {"type": "node", "id": 8371943611, "lat": 49.5643937, "lon": 19.8787726, "tags": {"addr:city": "Raba Wy\u017cna", "addr:city:simc": "0461646", "addr:housenumber": "38a;38 a", "addr:place": "Raba Wy\u017cna", "addr:postcode": "34-721", "amenity": "pharmacy", "dispensing": "yes", "healthcare": "pharmacy", "name": "Apteka Rodzinna", "opening_hours": "Mo-Sa 08:00-18:00", "ref:csioz": "1123143", "source:addr": "gugik.gov.pl"}}, {"type": "node", "id": 9563250721, "lat": 49.3597304, "lon": 19.6072236}, {"type": "node", "id": 9588617877, "lat": 49.4741324, "lon": 20.0242626, "tags": {"addr:city": "Nowy Targ", "addr:housenumber": "14", "addr:postcode": "34-400", "addr:street": "Wojska Polskiego", "amenity": "pharmacy", "dispensing": "yes", "name": "Apteka Arnika", "ref:csioz": "1035211"}}, {"type": "node", "id": 9588621611, "lat": 49.4398677, "lon": 19.8526013, "tags": {"addr:city": "Czarny Dunajec", "addr:housenumber": "33", "addr:postcode": "34-470", "addr:street": "Rynek", "amenity": "pharmacy", "dispensing": "yes", "ref:csioz": "1077112"}}, {"type": "node", "id": 9588622832, "lat": 49.495579, "lon": 19.8797352, "tags": {"addr:housenumber": "140A", "addr:place": "Pieni\u0105\u017ckowice", "addr:postcode": "34-408", "amenity": "pharmacy", "dispensing": "yes", "ref:csioz": "1194798"}}, {"type": "node", "id": 9588633994, "lat": 49.4808749, "lon": 20.0295725, "tags": {"addr:city": "Nowy Targ", "addr:housenumber": "55", "addr:postcode": "34-400", "addr:street": "D\u0142uga", "amenity": "pharmacy", "dispensing": "yes", "ref:csioz": "1075407"}}, {"type": "node", "id": 9588641398, "lat": 49.4763894, "lon": 19.766811, "tags": {"addr:housenumber": "127", "addr:place": "Piekielnik", "addr:postcode": "34-472", "amenity": "pharmacy", "dispensing": "yes", "ref:csioz": "1196237"}}, {"type": "node", "id": 9588645033, "lat": 49.5399629, "lon": 19.9010984, "tags": {"addr:housenumber": "2", "addr:place": "Sieniawa", "addr:postcode": "34-723", "amenity": "pharmacy", "dispensing": "yes", "name": "Punkt Apteczny Adrian Chy\u0142a", "ref:csioz": "1172679"}}, {"type": "node", "id": 9588645086, "lat": 49.5197156, "lon": 19.9860388, "tags": {"addr:housenumber": "40a", "addr:place": "Klikuszowa", "addr:postcode": "34-404", "amenity": "pharmacy", "dispensing": "yes", "name": "Apteka Rodzinna", "ref:csioz": "1038559"}}, {"type": "node", "id": 9588652530, "lat": 49.5600443, "lon": 19.6511668, "tags": {"addr:housenumber": "499", "addr:place": "Zubrzyca G\u00f3rna", "addr:postcode": "34-484", "amenity": "pharmacy", "dispensing": "yes", "healthcare": "pharmacy", "name": "Maria", "ref:csioz": "1077543"}}, {"type": "node", "id": 9588656567, "lat": 49.4772657, "lon": 20.0515545, "tags": {"addr:city": "Nowy Targ", "addr:housenumber": "111", "addr:postcode": "34-400", "addr:street": "Tysi\u0105clecia", "amenity": "pharmacy", "dispensing": "yes", "name": "Zdrowie", "ref:csioz": "1226834"}}, {"type": "node", "id": 9588657331, "lat": 49.4636515, "lon": 19.979753, "tags": {"addr:city": "Lud\u017amierz", "addr:housenumber": "95", "addr:postcode": "34-471", "addr:street": "Jana Paw\u0142a II", "amenity": "pharmacy", "dispensing": "yes", "ref:csioz": "1191525"}}, {"type": "node", "id": 9588673463, "lat": 49.473242, "lon": 20.0112785, "tags": {"addr:city": "Nowy Targ", "addr:housenumber": "2", "addr:postcode": "34-400", "addr:street": "Sk\u0142adowa", "amenity": "pharmacy", "dispensing": "yes", "name": "Apteka Centrum", "ref:csioz": "1056422"}}, {"type": "node", "id": 9588678896, "lat": 49.4788098, "lon": 19.6933738, "tags": {"addr:city": "Jab\u0142onka", "addr:housenumber": "6", "addr:postcode": "34-480", "addr:street": "Jana III Sobieskiego", "amenity": "pharmacy", "dispensing": "yes", "name": "Niezapominajka Dla Ca\u0142ej Rodziny", "ref:csioz": "1197948"}}, {"type": "node", "id": 9588700682, "lat": 49.4823742, "lon": 20.0298342, "tags": {"addr:city": "Nowy Targ", "addr:housenumber": "19", "addr:postcode": "34-400", "addr:street": "Rynek", "amenity": "pharmacy", "dispensing": "yes", "name": "Niezapominajka Dla Ca\u0142ej Rodziny", "ref:csioz": "1174001"}}, {"type": "node", "id": 9588717753, "lat": 49.4771337, "lon": 19.6929081, "tags": {"addr:city": "Jab\u0142onka", "addr:housenumber": "20", "addr:postcode": "34-480", "addr:street": "Jana III Sobieskiego", "amenity": "pharmacy", "dispensing": "yes", "name": "Apteka Maria", "ref:csioz": "1077104"}}, {"type": "node", "id": 9588729236, "lat": 49.6083196, "lon": 19.9689999, "tags": {"addr:city": "Rabka-Zdr\u00f3j", "addr:housenumber": "10", "addr:postcode": "34-700", "addr:street": "Poniatowskiego", "amenity": "pharmacy", "dispensing": "yes", "name": "Apteka Rodzinna", "ref:csioz": "1042280"}}, {"type": "node", "id": 9588731141, "lat": 49.4732237, "lon": 20.0274019, "tags": {"addr:city": "Nowy Targ", "addr:housenumber": "12", "addr:postcode": "34-400", "addr:street": "Miko\u0142aja Kopernika", "amenity": "pharmacy", "dispensing": "yes", "name": "Apteka Vita", "ref:csioz": "1037269"}}, {"type": "node", "id": 9588734849, "lat": 49.5657519, "lon": 19.8804905, "tags": {"addr:housenumber": "557a", "addr:place": "Raba Wy\u017cna", "addr:postcode": "34-721", "amenity": "pharmacy", "dispensing": "yes", "ref:csioz": "1213433"}}, {"type": "node", "id": 9588738526, "lat": 49.4787205, "lon": 20.0858592, "tags": {"addr:city": "Waksmund", "addr:housenumber": "294", "addr:postcode": "34-431", "addr:street": "Nowotarska", "amenity": "pharmacy", "dispensing": "yes", "name": "Apteka Hipokrates-Anna Przygodzka-Szczepaniak", "ref:csioz": "1204440"}}, {"type": "node", "id": 9588744036, "lat": 49.4816199, "lon": 20.0271885, "tags": {"addr:city": "Nowy Targ", "addr:housenumber": "31", "addr:postcode": "34-400", "addr:street": "Kolejowa", "amenity": "pharmacy", "dispensing": "yes", "name": "Zdrowie", "ref:csioz": "1228493"}}, {"type": "node", "id": 9588744648, "lat": 49.607497, "lon": 19.9522441, "tags": {"addr:city": "Rabka-Zdr\u00f3j", "addr:housenumber": "6a", "addr:postcode": "34-700", "addr:street": "Zakopia\u0144ska", "amenity": "pharmacy", "dispensing": "yes", "healthcare": "pharmacy", "level": "-1", "name": "Zdrojowa s.c. Apteka", "ref:csioz": "1075818"}}, {"type": "node", "id": 9588745682, "lat": 49.4814023, "lon": 20.0282947, "tags": {"addr:city": "Nowy Targ", "addr:housenumber": "19", "addr:postcode": "34-400", "addr:street": "Kolejowa", "amenity": "pharmacy", "dispensing": "yes", "name": "Apteka S\u0142oneczna", "ref:csioz": "1170783"}}, {"type": "node", "id": 9588755048, "lat": 49.6101509, "lon": 19.9470625, "tags": {"addr:city": "Rabka-Zdr\u00f3j", "addr:housenumber": "1B", "addr:postcode": "34-700", "addr:street": "S\u0105decka", "amenity": "pharmacy", "dispensing": "yes", "name": "Dr. Max", "opening_hours": "Mo 07:30-21:00; Tu-Fr 08:00-21:00; Sa 08:00-19:00; Su 09:00-16:00", "ref:csioz": "1036043", "wheelchair": "yes"}}, {"type": "node", "id": 9588755683, "lat": 49.4808492, "lon": 20.0324586, "tags": {"addr:city": "Nowy Targ", "addr:housenumber": "96", "addr:postcode": "34-400", "addr:street": "D\u0142uga", "amenity": "pharmacy", "dispensing": "yes", "name": "Apteka Rodzinna", "ref:csioz": "1038576"}}, {"type": "node", "id": 9588758759, "lat": 49.478207, "lon": 19.697324, "tags": {"addr:city": "Jab\u0142onka", "addr:housenumber": "9", "addr:postcode": "34-480", "addr:street": "3 Maja", "amenity": "pharmacy", "dispensing": "yes", "name": "Niezapominajka Dla Ca\u0142ej Rodziny", "ref:csioz": "1122977"}}, {"type": "node", "id": 9588759542, "lat": 49.5989255, "lon": 19.9154973, "tags": {"addr:housenumber": "639", "addr:place": "Skawa", "addr:postcode": "34-713", "amenity": "pharmacy", "dispensing": "yes", "healthcare": "pharmacy", "name": "Apteka Prywatna Jolanta Chy\u0142a", "ref:csioz": "1036751"}}, {"type": "node", "id": 9588763771, "lat": 49.4769576, "lon": 20.0987868, "tags": {"addr:city": "Ostrowsko", "addr:housenumber": "2", "addr:postcode": "34-431", "addr:street": "Za Potokiem", "amenity": "pharmacy", "dispensing": "yes", "name": "Vita-Minka", "ref:csioz": "1194885"}}, {"type": "node", "id": 9588765991, "lat": 49.5485062, "lon": 19.742942, "tags": {"addr:housenumber": "303", "addr:place": "Podwilk", "addr:postcode": "34-422", "amenity": "pharmacy", "dispensing": "yes", "ref:csioz": "1193602"}}, {"type": "node", "id": 9588766635, "lat": 49.5773753, "lon": 19.8332142, "tags": {"addr:housenumber": "719", "addr:place": "Spytkowice", "addr:postcode": "34-745", "amenity": "pharmacy", "dispensing": "yes", "name": "Apteka Rodzinna", "ref:csioz": "1195497"}}, {"type": "node", "id": 9588766781, "lat": 49.4404687, "lon": 19.8529303, "tags": {"addr:city": "Czarny Dunajec", "addr:housenumber": "25", "addr:postcode": "34-470", "addr:street": "Rynek", "amenity": "pharmacy", "dispensing": "yes", "name": "Apteka Rodzinna", "ref:csioz": "1177520"}}, {"type": "node", "id": 9588767249, "lat": 49.4788324, "lon": 20.0279559, "tags": {"addr:city": "Nowy Targ", "addr:housenumber": "8", "addr:postcode": "34-400", "addr:street": "Topolowe", "amenity": "pharmacy", "dispensing": "yes", "name": "\"Apteka \"\"Antiqua\"\"\"", "ref:csioz": "1056223"}}, {"type": "node", "id": 9588768012, "lat": 49.4705541, "lon": 20.0284552, "tags": {"addr:city": "Nowy Targ", "addr:housenumber": "136", "addr:postcode": "34-400", "addr:street": "Szaflarska", "amenity": "pharmacy", "dispensing": "yes", "drive_through": "no", "healthcare": "pharmacy", "name": "Apteka Rodzinna", "ref:csioz": "1038568"}}, {"type": "node", "id": 9588768269, "lat": 49.4787368, "lon": 20.0265289, "tags": {"addr:city": "Nowy Targ", "addr:housenumber": "17", "addr:postcode": "34-400", "addr:street": "Kr\u00f3lowej Jadwigi", "amenity": "pharmacy", "brand": "Dr. Max", "brand:wikidata": "Q56317371", "dispensing": "yes", "healthcare": "pharmacy", "name": "Dr. Max", "ref:csioz": "1210851"}}, {"type": "node", "id": 9588769540, "lat": 49.4823772, "lon": 20.0331703, "tags": {"addr:city": "Nowy Targ", "addr:housenumber": "8", "addr:postcode": "34-400", "addr:street": "Jana III Sobieskiego", "amenity": "pharmacy", "dispensing": "yes", "name": "Vita-Minka", "ref:csioz": "1037170"}}, {"type": "node", "id": 9588797383, "lat": 49.4817795, "lon": 20.0389008, "tags": {"addr:city": "Nowy Targ", "addr:housenumber": "79", "addr:postcode": "34-400", "addr:street": "Waksmundzka", "amenity": "pharmacy", "dispensing": "yes", "name": "Vita-Minka", "ref:csioz": "1037162"}}, {"type": "node", "id": 9588797384, "lat": 49.5765534, "lon": 19.8206468, "tags": {"addr:housenumber": "26", "addr:place": "Spytkowice", "addr:postcode": "34-745", "amenity": "pharmacy", "dispensing": "yes", "name": "Punkt Apteczny Jolanta Chy\u0142a", "ref:csioz": "1036361"}}, {"type": "node", "id": 9588804276, "lat": 49.5207373, "lon": 19.6319915, "tags": {"addr:housenumber": "301B", "addr:place": "Lipnica Ma\u0142a", "addr:postcode": "34-482", "amenity": "pharmacy", "dispensing": "yes", "name": "Arnika", "ref:csioz": "1209195"}}, {"type": "node", "id": 9588808909, "lat": 49.4408418, "lon": 19.8536651, "tags": {"addr:city": "Czarny Dunajec", "addr:housenumber": "19", "addr:postcode": "34-470", "addr:street": "Rynek", "amenity": "pharmacy", "dispensing": "yes", "ref:csioz": "1076661"}}, {"type": "node", "id": 10652637733, "lat": 49.6371067, "lon": 20.021988, "tags": {"amenity": "pharmacy", "dispensing": "yes", "healthcare": "pharmacy", "name": "Punkt Apteczny Krokus", "ref:csioz": "1080907"}}, {"type": "node", "id": 10652637737, "lat": 49.6236364, "lon": 20.0823147, "tags": {"amenity": "pharmacy", "dispensing": "yes", "healthcare": "pharmacy", "name": "Punkt Apteczny Nied\u017awiadek", "ref:csioz": "1122869"}}, {"type": "node", "id": 10652637739, "lat": 49.6675321, "lon": 20.0856053, "tags": {"amenity": "pharmacy", "dispensing": "yes", "healthcare": "pharmacy", "name": "Krokus", "ref:csioz": "1175582"}}, {"type": "node", "id": 10652637744, "lat": 49.6742075, "lon": 20.0784441, "tags": {"amenity": "pharmacy", "dispensing": "yes", "healthcare": "pharmacy", "ref:csioz": "1221103"}}, {"type": "node", "id": 10652637745, "lat": 49.67534, "lon": 20.0760874, "tags": {"amenity": "pharmacy", "dispensing": "yes", "healthcare": "pharmacy", "name": "W Galerii", "ref:csioz": "1080867"}}, {"type": "node", "id": 10652637746, "lat": 49.678075, "lon": 20.0606396, "tags": {"amenity": "pharmacy", "dispensing": "yes", "healthcare": "pharmacy", "name": "Silla", "ref:csioz": "1080872"}}, {"type": "node", "id": 10652746415, "lat": 49.7891876, "lon": 19.8452798, "tags": {"amenity": "pharmacy", "dispensing": "yes", "healthcare": "pharmacy", "name": "Punkt Apteczny", "ref:csioz": "1114193"}}, {"type": "node", "id": 10652746416, "lat": 49.8544057, "lon": 19.7960493, "tags": {"amenity": "pharmacy", "brand": "Dbam o Zdrowie", "brand:wikidata": "Q62563833", "dispensing": "yes", "healthcare": "pharmacy", "name": "Dbam o Zdrowie", "ref:csioz": "1038448", "short_name": "DOZ"}}, {"type": "node", "id": 10652746417, "lat": 49.8539475, "lon": 19.796641, "tags": {"amenity": "pharmacy", "dispensing": "yes", "healthcare": "pharmacy", "name": "Vita", "ref:csioz": "1074906"}}, {"type": "node", "id": 10652746423, "lat": 49.7958467, "lon": 19.9228474, "tags": {"amenity": "pharmacy", "dispensing": "yes", "entrance": "yes", "healthcare": "pharmacy", "ref:csioz": "1042329"}}, {"type": "node", "id": 10652746425, "lat": 49.644621, "lon": 19.9154448, "tags": {"amenity": "pharmacy", "dispensing": "yes", "healthcare": "pharmacy", "name": "Punkt Apteczny", "ref:csioz": "1194873"}}, {"type": "node", "id": 10652746437, "lat": 49.753162, "lon": 19.9740359, "tags": {"amenity": "pharmacy", "dispensing": "yes", "healthcare": "pharmacy", "name": "Nasza Apteka Zdrowia", "ref:csioz": "1074599"}}, {"type": "node", "id": 10652746443, "lat": 49.8300242, "lon": 19.9460456, "tags": {"amenity": "pharmacy", "dispensing": "yes", "healthcare": "pharmacy", "name": "Niebieska 24h", "ref:csioz": "1113527"}}, {"type": "node", "id": 10652746444, "lat": 49.8304762, "lon": 19.940278, "tags": {"amenity": "pharmacy", "dispensing": "yes", "healthcare": "pharmacy", "name": "4 Pory Roku", "ref:csioz": "1056563"}}, {"type": "node", "id": 10652746445, "lat": 49.8357107, "lon": 19.9426532, "tags": {"amenity": "pharmacy", "brand": "Dbam o Zdrowie", "brand:wikidata": "Q62563833", "dispensing": "yes", "healthcare": "pharmacy", "name": "Dbam o Zdrowie", "ref:csioz": "1038436", "short_name": "DOZ"}}, {"type": "node", "id": 10652746446, "lat": 49.8326385, "lon": 19.938702, "tags": {"amenity": "pharmacy", "dispensing": "yes", "healthcare": "pharmacy", "name": "Szwajcarska", "ref:csioz": "1209882"}}, {"type": "node", "id": 10652746447, "lat": 49.8353341, "lon": 19.9403658, "tags": {"amenity": "pharmacy", "dispensing": "yes", "healthcare": "pharmacy", "name": "S\u0142oneczna", "ref:csioz": "1120940"}}, {"type": "node", "id": 10652746448, "lat": 49.8347149, "lon": 19.9402489, "tags": {"amenity": "pharmacy", "brand": "Gemini", "dispensing": "yes", "healthcare": "pharmacy", "name": "Gemini", "ref:csioz": "1075410"}}, {"type": "node", "id": 10652746449, "lat": 49.7149011, "lon": 19.9750116, "tags": {"amenity": "pharmacy", "dispensing": "yes", "healthcare": "pharmacy", "ref:csioz": "1192374"}}, {"type": "node", "id": 10652792623, "lat": 49.4897937, "lon": 20.0274728, "tags": {"amenity": "pharmacy", "dispensing": "yes", "healthcare": "pharmacy", "name": "S\u0142oneczna", "ref:csioz": "1214768"}}, {"type": "node", "id": 10652792624, "lat": 49.4859792, "lon": 20.034494, "tags": {"amenity": "pharmacy", "dispensing": "yes", "healthcare": "pharmacy", "name": "S\u0142oneczna", "opening_hours": "Mo-Sa 07:00-21:00; Su 08:00-21:00", "phone": "+48 513 905 331", "ref:csioz": "1174734", "website": "apteka-sloneczna.pl"}}, {"type": "node", "id": 10652792625, "lat": 49.4977023, "lon": 19.6152307, "tags": {"amenity": "pharmacy", "dispensing": "yes", "healthcare": "pharmacy", "ref:csioz": "1075698"}}, {"type": "node", "id": 11161103817, "lat": 49.6973191, "lon": 19.7079461, "tags": {"addr:housenumber": "542a", "addr:place": "Juszczyn", "amenity": "pharmacy", "check_date": "2023-09-01", "dispensing": "yes", "healthcare": "pharmacy", "name": "Corda", "opening_hours": "Mo,We-Fr 08:00-15:00; Tu 08:00-18:00; Sa-Su off", "payment:cash": "yes", "payment:coins": "yes", "payment:mastercard": "yes", "payment:visa": "yes", "source": "local knowledge", "wheelchair": "yes"}}, {"type": "node", "id": 12523937427, "lat": 49.6780042, "lon": 19.6278055, "tags": {"addr:housenumber": "448", "addr:place": "Skawica", "addr:postcode": "34-221", "amenity": "pharmacy"}}, {"type": "way", "id": 156571550, "nodes": [1687943223, 1687943631, 1687943846, 1687944003, 1687944270, 1687944236, 1687944252, 1687944232, 1687944163, 1687943865, 1687943223], "tags": {"addr:city": "Trsten\u00e1", "addr:conscriptionnumber": "1383", "addr:country": "SK", "addr:housenumber": "1383/1383", "addr:postcode": "02801", "addr:street": "Mieru", "addr:streetnumber": "1383", "addr:suburb": "Trsten\u00e1", "amenity": "pharmacy", "building": "yes", "building:levels": "3", "dispensing": "yes", "healthcare": "pharmacy", "name": "Verejn\u00e1 lek\u00e1re\u0148", "operator": "HNsP Trsten\u00e1", "ref:minvskaddress": "7102201733", "source": "kapor2", "source:addr": "minvskaddress 2021-10"}}, {"type": "way", "id": 156571595, "nodes": [734535904, 734535664, 734536302, 734536115, 734535993, 734535785, 734536386, 734536207, 734535692, 734536420, 734536140, 734535932, 734535904], "tags": {"addr:city": "Trsten\u00e1", "addr:conscriptionnumber": "1315", "addr:country": "SK", "addr:housenumber": "1315/1315", "addr:postcode": "02801", "addr:street": "Mieru", "addr:streetnumber": "1315", "addr:suburb": "Trsten\u00e1", "amenity": "pharmacy", "building": "yes", "building:levels": "1", "dispensing": "yes", "healthcare": "pharmacy", "name": "Lek\u00e1re\u0148 pri nemocnici", "ref:minvskaddress": "7102201821", "source": "kapor2", "source:addr": "minvskaddress 2021-10"}}, {"type": "way", "id": 156571834, "nodes": [1687946066, 9563250721, 1687945835, 1687945803, 1687946066], "tags": {"addr:city": "Trsten\u00e1", "addr:conscriptionnumber": "21", "addr:country": "SK", "addr:housenumber": "21/15", "addr:postcode": "02801", "addr:street": "Bernol\u00e1kova", "addr:streetnumber": "15", "addr:suburb": "Trsten\u00e1", "amenity": "pharmacy", "building": "yes", "building:levels": "3", "dispensing": "yes", "healthcare": "pharmacy", "name": "Karmel", "ref:minvskaddress": "813218A", "source": "kapor2", "source:addr": "minvskaddress 2021-10"}}, {"type": "way", "id": 265668102, "nodes": [2712966496, 2712966532, 2712966570, 2712966550, 2712966496], "tags": {"addr:city:simc": "0068430", "addr:housenumber": "82a", "addr:place": "Krzesz\u00f3w", "addr:postcode": "34-206", "amenity": "pharmacy", "building": "yes", "name": "Punkt Apteczny", "opening_hours": "Mo-We, Fr 08:00-15:00; Th 11:00-18:00; Sa 08:30-12:00", "phone": "+48 33 874 77 77", "source:addr": "emuia.gugik.gov.pl"}}, {"type": "way", "id": 346399605, "nodes": [3529432060, 3529432528, 3529432525, 7790792556, 3529432534, 3529432060], "tags": {"addr:city": "Rabka-Zdr\u00f3j", "addr:city:simc": "0962503", "addr:housenumber": "12", "addr:postcode": "34-700", "addr:street": "Polna", "addr:street:sym_ul": "17011", "amenity": "pharmacy", "building": "yes", "dispensing": "yes", "healthcare": "pharmacy", "name": "Paw. V", "source:addr": "emuia.gugik.gov.pl"}}, {"type": "way", "id": 360408514, "nodes": [3521399387, 3521399383, 3521399368, 3521399363, 3521399359, 3521400294, 3521399387], "tags": {"amenity": "pharmacy", "name": "Apteka \u015awi\u0119tej Teresy", "phone": "18 268 80 37", "source": "http://www.nowotarski.pl/opieka-spoleczna/dokumenty/wykaz-aptek-581.html"}}, {"type": "way", "id": 388726467, "nodes": [3918899668, 3918898711, 3918899284, 3918882812, 3918899668], "tags": {"addr:city": "\u015alemie\u0144", "addr:city:simc": "0071840", "addr:housenumber": "4", "addr:postcode": "34-323", "addr:street": "\u017bywiecka", "addr:street:sym_ul": "26640", "amenity": "pharmacy", "building": "public", "building:levels": "1", "dispensing": "yes", "email": "aptekawslemieniu@o2.pl", "healthcare": "pharmacy", "name": "Apteka w \u015alemieniu", "opening_hours": "Mo-Fr 08:30-15:30; Sa 08:00-13:00", "phone": "+48 33 860 03 40", "source": "www.geoportal.gov.pl", "source:addr": "slemien.e-mapa.net"}}, {"type": "way", "id": 390736884, "nodes": [3938808808, 3938793387, 3938808711, 3938791511, 3938808808], "tags": {"amenity": "pharmacy", "building": "yes"}}]}