{"version": 0.6, "generator": "Overpass API 0.7.62.8 e802775f", "osm3s": {"timestamp_osm_base": "2025-10-06T08:12:00Z", "copyright": "The data included in this document is from www.openstreetmap.org. The data is made available under ODbL."}, "elements": [{"type": "node", "id": 1489036399, "lat": 40.6699807, "lon": 22.9455742, "tags": {"amenity": "pharmacy", "dispensing": "yes", "healthcare": "pharmacy", "name": "\u0393\u03b9\u03ac\u03bd\u03c4\u03c3\u03b9\u03bf\u03c5"}}, {"type": "node", "id": 1493655854, "lat": 40.66701, "lon": 22.9274183, "tags": {"amenity": "pharmacy", "healthcare": "pharmacy"}}, {"type": "node", "id": 1706031003, "lat": 40.9941369, "lon": 22.8755172, "tags": {"amenity": "pharmacy", "healthcare": "pharmacy"}}, {"type": "node", "id": 1706031005, "lat": 40.9902262, "lon": 22.8690076, "tags": {"amenity": "pharmacy", "healthcare": "pharmacy"}}, {"type": "node", "id": 1706031019, "lat": 40.9933553, "lon": 22.8735052, "tags": {"amenity": "pharmacy", "healthcare": "pharmacy"}}, {"type": "node", "id": 1706031020, "lat": 40.9928879, "lon": 22.8744993, "tags": {"amenity": "pharmacy", "healthcare": "pharmacy"}}, {"type": "node", "id": 1706031021, "lat": 40.9941569, "lon": 22.8737514, "tags": {"amenity": "pharmacy", "healthcare": "pharmacy"}}, {"type": "node", "id": 1709346932, "lat": 40.992182, "lon": 22.8671136, "tags": {"amenity": "pharmacy", "healthcare": "pharmacy"}}, {"type": "node", "id": 1709346935, "lat": 40.9937548, "lon": 22.875191, "tags": {"amenity": "pharmacy", "healthcare": "pharmacy"}}, {"type": "node", "id": 1758199648, "lat": 40.667332, "lon": 22.800739, "tags": {"amenity": "pharmacy", "healthcare": "pharmacy"}}, {"type": "node", "id": 1758199650, "lat": 40.6729714, "lon": 22.8022625, "tags": {"addr:city": "\u03a3\u03af\u03bd\u03b4\u03bf\u03c2", "addr:housenumber": "10", "addr:postcode": "57400", "addr:street": "\u03a7\u03c1\u03c5\u03c3\u03bf\u03c3\u03c4\u03cc\u03bc\u03bf\u03c5 \u03a3\u03bc\u03cd\u03c1\u03bd\u03b7\u03c2", "addr:unit": "\u0391", "amenity": "pharmacy", "healthcare": "pharmacy", "phone": "+30 2310799400"}}, {"type": "node", "id": 1758199653, "lat": 40.6703857, "lon": 22.8047114, "tags": {"addr:city": "\u03a3\u03af\u03bd\u03b4\u03bf\u03c2", "addr:housenumber": "2", "addr:postcode": "57400", "addr:street": "\u03a0\u03bb\u03b1\u03c4\u03b5\u03af\u03b1 \u0394\u03b7\u03bc\u03bf\u03ba\u03c1\u03b1\u03c4\u03af\u03b1\u03c2", "amenity": "pharmacy", "healthcare": "pharmacy", "phone": "+30 2310798107"}}, {"type": "node", "id": 1758199656, "lat": 40.6709289, "lon": 22.8043976, "tags": {"addr:city": "\u03a3\u03af\u03bd\u03b4\u03bf\u03c2", "addr:housenumber": "20", "addr:postcode": "57400", "addr:street": "\u0391\u03bb\u03ad\u03be\u03b1\u03bd\u03b4\u03c1\u03bf\u03c5 \u03a0\u03b1\u03c0\u03b1\u03bd\u03b1\u03c3\u03c4\u03b1\u03c3\u03af\u03bf\u03c5", "addr:unit": "\u0391", "amenity": "pharmacy", "healthcare": "pharmacy", "phone": "+30 2310798394"}}, {"type": "node", "id": 1758201601, "lat": 40.667557, "lon": 22.805684, "tags": {"amenity": "pharmacy", "healthcare": "pharmacy"}}, {"type": "node", "id": 1758203679, "lat": 40.6706087, "lon": 22.8075723, "tags": {"addr:city": "\u03a3\u03af\u03bd\u03b4\u03bf\u03c2", "addr:housenumber": "22-24", "addr:postcode": "57400", "addr:street": "\u03a5\u03c8\u03b7\u03bb\u03ac\u03bd\u03c4\u03bf\u03c5", "amenity": "pharmacy", "healthcare": "pharmacy", "phone": "+30 2315002002"}}, {"type": "node", "id": 1763844576, "lat": 40.6716318, "lon": 22.9237761, "tags": {"addr:city": "\u0395\u03cd\u03bf\u03c3\u03bc\u03bf\u03c2", "addr:housenumber": "47", "addr:postcode": "56431", "addr:street": "\u0399\u03b8\u03ac\u03ba\u03b7\u03c2", "amenity": "pharmacy", "healthcare": "pharmacy", "operator": "Iliopoulou Eleni"}}, {"type": "node", "id": 1763844585, "lat": 40.6690054, "lon": 22.9243206, "tags": {"amenity": "pharmacy", "healthcare": "pharmacy"}}, {"type": "node", "id": 1872094149, "lat": 40.6666611, "lon": 22.9217096, "tags": {"addr:city": "\u0395\u03cd\u03bf\u03c3\u03bc\u03bf\u03c2", "addr:housenumber": "181", "addr:postcode": "56224", "addr:street": "\u039a\u03b1\u03c1\u03b1\u03bf\u03bb\u03ae & \u0394\u03b7\u03bc\u03b7\u03c4\u03c1\u03af\u03bf\u03c5", "amenity": "pharmacy", "healthcare": "pharmacy", "operator": "Agapitos Georgios"}}, {"type": "node", "id": 1899737722, "lat": 40.667771, "lon": 22.936671, "tags": {"addr:city": "\u03a3\u03c4\u03b1\u03c5\u03c1\u03bf\u03cd\u03c0\u03bf\u03bb\u03b7", "addr:postcode": "56430", "addr:street": "\u039a\u03b1\u03c4\u03c3\u03ce\u03bd\u03b7", "amenity": "pharmacy", "healthcare": "pharmacy", "operator": "Adaliadis Michail"}}, {"type": "node", "id": 1900113260, "lat": 40.6869305, "lon": 22.953983, "tags": {"addr:street": "\u03a0\u03bf\u03bb\u03c5\u03c4\u03b5\u03c7\u03bd\u03b5\u03af\u03bf\u03c5", "amenity": "pharmacy", "healthcare": "pharmacy"}}, {"type": "node", "id": 1911189978, "lat": 40.6742791, "lon": 22.9219282, "tags": {"addr:city": "\u0395\u03cd\u03bf\u03c3\u03bc\u03bf\u03c2", "addr:housenumber": "18", "addr:postcode": "56224", "addr:street": "\u0393\u03c1\u03b7\u03b3\u03cc\u03c1\u03b7 \u039b\u03b1\u03bc\u03c0\u03c1\u03ac\u03ba\u03b7", "amenity": "pharmacy", "healthcare": "pharmacy", "operator": "Mpikos Konstantinos"}}, {"type": "node", "id": 1911196664, "lat": 40.6687107, "lon": 22.8997076, "tags": {"addr:street": "\u039a\u03c9\u03bd\u03c3\u03c4\u03b1\u03bd\u03c4\u03af\u03bd\u03bf\u03c5 \u039a\u03b1\u03c1\u03b1\u03bc\u03b1\u03bd\u03bb\u03ae", "amenity": "pharmacy", "healthcare": "pharmacy", "source": "Kaart Ground Survey 2018"}}, {"type": "node", "id": 1911221589, "lat": 40.66921, "lon": 22.9001545, "tags": {"addr:city": "\u0395\u03bb\u03b5\u03c5\u03b8\u03ad\u03c1\u03b9\u03bf-\u039a\u03bf\u03c1\u03b4\u03b5\u03bb\u03b9\u03cc", "addr:street": "\u039a\u03c9\u03bd\u03c3\u03c4\u03b1\u03bd\u03c4\u03af\u03bd\u03bf\u03c5 \u039a\u03b1\u03c1\u03b1\u03bc\u03b1\u03bd\u03bb\u03ae", "amenity": "pharmacy", "healthcare": "pharmacy"}}, {"type": "node", "id": 1911221619, "lat": 40.6699508, "lon": 22.9010737, "tags": {"addr:city": "\u0395\u03bb\u03b5\u03c5\u03b8\u03ad\u03c1\u03b9\u03bf-\u039a\u03bf\u03c1\u03b4\u03b5\u03bb\u03b9\u03cc", "addr:street": "\u039a\u03c9\u03bd\u03c3\u03c4\u03b1\u03bd\u03c4\u03af\u03bd\u03bf\u03c5 \u039a\u03b1\u03c1\u03b1\u03bc\u03b1\u03bd\u03bb\u03ae", "amenity": "pharmacy", "healthcare": "pharmacy", "name": "\u03a3\u03b1\u03c1\u03b1\u03bd\u03c4\u03af\u03b4\u03b7\u03c2"}}, {"type": "node", "id": 1918379078, "lat": 40.6669524, "lon": 22.8959337, "tags": {"amenity": "pharmacy", "healthcare": "pharmacy"}}, {"type": "node", "id": 1918379082, "lat": 40.6656194, "lon": 22.8987251, "tags": {"addr:housenumber": "28", "addr:street": "\u039c\u03b5\u03b3\u03ac\u03bb\u03bf\u03c5 \u0391\u03bb\u03b5\u03be\u03ac\u03bd\u03b4\u03c1\u03bf\u03c5", "amenity": "pharmacy", "healthcare": "pharmacy", "name": "\u039a\u03c1\u03bf\u03cd\u03bd\u03c4\u03c3\u03b7\u03c2", "source": "Kaart Ground Survey 2018"}}, {"type": "node", "id": 1918391154, "lat": 40.6671738, "lon": 22.8939745, "tags": {"addr:street": "\u039a\u03c1\u03ae\u03c4\u03b7\u03c2", "amenity": "pharmacy", "healthcare": "pharmacy", "source": "Kaart Ground Survey 2018"}}, {"type": "node", "id": 1918391175, "lat": 40.6666786, "lon": 22.8972038, "tags": {"amenity": "pharmacy", "healthcare": "pharmacy"}}, {"type": "node", "id": 1928538762, "lat": 40.6658567, "lon": 22.928551, "tags": {"addr:city": "\u0395\u03cd\u03bf\u03c3\u03bc\u03bf\u03c2", "addr:housenumber": "254", "addr:postcode": "564 31", "addr:street": "\u039a\u03b1\u03c1\u03b1\u03bf\u03bb\u03ae & \u0394\u03b7\u03bc\u03b7\u03c4\u03c1\u03af\u03bf\u03c5", "amenity": "pharmacy", "healthcare": "pharmacy", "operator": "Margouta Maria"}}, {"type": "node", "id": 1928546054, "lat": 40.6667653, "lon": 22.919963, "tags": {"amenity": "pharmacy", "healthcare": "pharmacy"}}, {"type": "node", "id": 1928546056, "lat": 40.6673401, "lon": 22.9178521, "tags": {"amenity": "pharmacy", "healthcare": "pharmacy"}}, {"type": "node", "id": 1928546059, "lat": 40.6756802, "lon": 22.9181617, "tags": {"addr:city": "\u0395\u03cd\u03bf\u03c3\u03bc\u03bf\u03c2", "addr:housenumber": "37", "addr:postcode": "56224", "addr:street": "\u0395\u03bb\u03b5\u03c5\u03b8\u03b5\u03c1\u03af\u03b1\u03c2", "amenity": "pharmacy", "healthcare": "pharmacy", "operator": "Elmaoglou Lazaridou Areti"}}, {"type": "node", "id": 1928546066, "lat": 40.6724834, "lon": 22.9163615, "tags": {"addr:city": "\u0395\u03cd\u03bf\u03c3\u03bc\u03bf\u03c2", "addr:housenumber": "86", "addr:postcode": "56224", "addr:street": "25\u03b7\u03c2 \u039c\u03b1\u03c1\u03c4\u03af\u03bf\u03c5", "amenity": "pharmacy", "healthcare": "pharmacy", "operator": "Papadopoulos Savvas"}}, {"type": "node", "id": 1928546074, "lat": 40.6723521, "lon": 22.9202482, "tags": {"amenity": "pharmacy", "healthcare": "pharmacy"}}, {"type": "node", "id": 1930900852, "lat": 40.6866034, "lon": 22.8581872, "tags": {"amenity": "pharmacy", "healthcare": "pharmacy", "name": "\u0395\u03a5\u03a1\u0399\u03a0\u0399\u0394\u0397\u03a3 \u0392\u0391\u03a3\u0399\u039b\u0395\u0399\u039f\u03a3 \u0391"}}, {"type": "node", "id": 1930919302, "lat": 40.68938, "lon": 22.8574938, "tags": {"addr:city": "\u0394\u03b9\u03b1\u03b2\u03b1\u03c4\u03ac", "addr:housenumber": "16", "addr:postcode": "57008", "addr:street": "\u0395\u03b8\u03bd\u03b9\u03ba\u03ae\u03c2 \u0391\u03bd\u03c4\u03b9\u03c3\u03c4\u03ac\u03c3\u03b5\u03c9\u03c2", "amenity": "pharmacy", "healthcare": "pharmacy", "phone": "+30 2310781391"}}, {"type": "node", "id": 1930922489, "lat": 40.6887801, "lon": 22.8543047, "tags": {"addr:city": "\u0394\u03b9\u03b1\u03b2\u03b1\u03c4\u03ac", "addr:housenumber": "15", "addr:postcode": "57008", "addr:street": "\u039b\u03b5\u03c9\u03bd\u03af\u03b4\u03b1 \u0399\u03b1\u03c3\u03bf\u03bd\u03af\u03b4\u03bf\u03c5", "amenity": "pharmacy", "email": "alex2311@hotmail.gr", "healthcare": "pharmacy", "name": "\u0391\u03bb\u03ad\u03be\u03b1\u03bd\u03b4\u03c1\u03bf\u03c2 \u0391\u03b2\u03c1\u03b1\u03bc\u03af\u03b4\u03b7\u03c2", "opening_hours": "Mo-Sa 10:00-18:00", "phone": "+30 2310784382"}}, {"type": "node", "id": 1930930121, "lat": 40.6872892, "lon": 22.854994, "tags": {"addr:city": "\u0394\u03b9\u03b1\u03b2\u03b1\u03c4\u03ac", "addr:housenumber": "12", "addr:postcode": "57008", "addr:street": "\u0395\u03bb\u03b5\u03c5\u03b8\u03b5\u03c1\u03af\u03bf\u03c5 \u0392\u03b5\u03bd\u03b9\u03b6\u03ad\u03bb\u03bf\u03c5", "amenity": "pharmacy", "healthcare": "pharmacy", "phone": "+30 2310781369"}}, {"type": "node", "id": 1942386902, "lat": 40.6674964, "lon": 22.9377826, "tags": {"amenity": "pharmacy", "healthcare": "pharmacy"}}, {"type": "node", "id": 1952572862, "lat": 40.6611658, "lon": 22.9461139, "tags": {"amenity": "pharmacy", "healthcare": "pharmacy", "name": "\u039c\u03ac\u03bb\u03c4\u03b6\u03b1\u03c1\u03b7 \u039c\u03b1\u03b3\u03b4\u03b1\u03bb\u03b7\u03bd\u03ae", "name:el": "\u039c\u03ac\u03bb\u03c4\u03b6\u03b1\u03c1\u03b7 \u039c\u03b1\u03b3\u03b4\u03b1\u03bb\u03b7\u03bd\u03ae", "name:en": "Maltzari Magdalini"}}, {"type": "node", "id": 1956477914, "lat": 40.655114, "lon": 22.9185355, "tags": {"addr:city": "\u0391\u03bc\u03c0\u03b5\u03bb\u03cc\u03ba\u03b7\u03c0\u03bf\u03b9", "addr:housenumber": "110", "addr:postcode": "561 21", "addr:street": "\u0395\u03bb\u03b5\u03c5\u03b8\u03b5\u03c1\u03af\u03bf\u03c5 \u0392\u03b5\u03bd\u03b9\u03b6\u03ad\u03bb\u03bf\u03c5", "amenity": "pharmacy", "healthcare": "pharmacy", "name": "\u0396\u03b1\u03c7\u03b1\u03c1\u03b9\u03ac\u03b4\u03bf\u03c5", "operator": "\u0396\u03b1\u03c7\u03b1\u03c1\u03b9\u03ac\u03b4\u03bf\u03c5 \u039a\u03c5\u03c1\u03b9\u03b1\u03ba\u03ae \u03ba\u03b1\u03b9 \u03a3\u03b9\u03b1", "source": "Kaart Ground Survey 2018"}}, {"type": "node", "id": 1956477962, "lat": 40.654367, "lon": 22.9193438, "tags": {"addr:street": "\u0395\u03bb\u03b5\u03c5\u03b8\u03b5\u03c1\u03af\u03bf\u03c5 \u0392\u03b5\u03bd\u03b9\u03b6\u03ad\u03bb\u03bf\u03c5", "amenity": "pharmacy", "healthcare": "pharmacy", "name": "\u039c\u03c0\u03ac\u03c1\u03bc\u03c0\u03b1\u03c2", "source": "Kaart Ground Survey 2018"}}, {"type": "node", "id": 1967431840, "lat": 40.6666919, "lon": 22.9159742, "tags": {"amenity": "pharmacy", "healthcare": "pharmacy"}}, {"type": "node", "id": 1967431867, "lat": 40.6737788, "lon": 22.915544, "tags": {"amenity": "pharmacy", "healthcare": "pharmacy"}}, {"type": "node", "id": 1967431900, "lat": 40.6675209, "lon": 22.9136878, "tags": {"amenity": "pharmacy", "healthcare": "pharmacy"}}, {"type": "node", "id": 1967440554, "lat": 40.6754216, "lon": 22.9154939, "tags": {"amenity": "pharmacy", "healthcare": "pharmacy"}}, {"type": "node", "id": 1967469604, "lat": 40.6418163, "lon": 22.8550603, "tags": {"amenity": "pharmacy", "healthcare": "pharmacy", "wheelchair": "yes"}}, {"type": "node", "id": 1967469624, "lat": 40.6421649, "lon": 22.8566721, "tags": {"amenity": "pharmacy", "healthcare": "pharmacy"}}, {"type": "node", "id": 1967469625, "lat": 40.6421181, "lon": 22.8561571, "tags": {"amenity": "pharmacy", "healthcare": "pharmacy"}}, {"type": "node", "id": 1972223597, "lat": 40.7954807, "lon": 22.8617614, "tags": {"amenity": "pharmacy"}}, {"type": "node", "id": 2111263528, "lat": 40.9924824, "lon": 22.8733342, "tags": {"addr:city": "\u039a\u03b9\u03bb\u03ba\u03af\u03c2", "addr:housenumber": "87", "addr:postcode": "61100", "addr:street": "21\u03b7\u03c2 \u0399\u03bf\u03c5\u03bd\u03af\u03bf\u03c5", "amenity": "pharmacy", "healthcare": "pharmacy", "name": "\u03a3\u03bf\u03c6\u03af\u03b1 \u039d. \u03a3\u03c4\u03c1\u03b1\u03c4\u03b9\u03bd\u03ac\u03ba\u03b7", "phone": "+302341029529", "website": "http://www.pharma4seasons.gr/"}}, {"type": "node", "id": 2111263587, "lat": 40.9924159, "lon": 22.8754458, "tags": {"amenity": "pharmacy", "healthcare": "pharmacy"}}, {"type": "node", "id": 2111263650, "lat": 40.9947693, "lon": 22.8729047, "tags": {"amenity": "pharmacy", "healthcare": "pharmacy"}}, {"type": "node", "id": 2172199368, "lat": 40.6897857, "lon": 23.0025979, "tags": {"addr:city": "\u03a6\u03af\u03bb\u03c5\u03c1\u03bf", "amenity": "pharmacy", "dispensing": "yes", "healthcare": "pharmacy"}}, {"type": "node", "id": 2215823765, "lat": 40.6804769, "lon": 22.9327896, "tags": {"addr:street": "\u03a0\u03b1\u03bb\u03b1\u03b9\u03bf\u03bb\u03cc\u03b3\u03bf\u03c5", "amenity": "pharmacy", "healthcare": "pharmacy"}}, {"type": "node", "id": 2238828238, "lat": 40.68722, "lon": 22.8534836, "tags": {"addr:city": "\u0394\u03b9\u03b1\u03b2\u03b1\u03c4\u03ac", "addr:housenumber": "4", "addr:postcode": "57008", "addr:street": "\u0392\u03b5\u03c1\u03bf\u03af\u03b1\u03c2", "amenity": "pharmacy", "healthcare": "pharmacy", "phone": "+30 2310781164"}}, {"type": "node", "id": 2285130960, "lat": 40.7515083, "lon": 23.0672459, "tags": {"amenity": "pharmacy", "healthcare": "pharmacy"}}, {"type": "node", "id": 2285130962, "lat": 40.7501996, "lon": 23.0647194, "tags": {"amenity": "pharmacy", "healthcare": "pharmacy"}}, {"type": "node", "id": 2604508620, "lat": 40.7238142, "lon": 22.9241318, "tags": {"amenity": "pharmacy", "healthcare": "pharmacy"}}, {"type": "node", "id": 2665344749, "lat": 40.6613169, "lon": 22.9309991, "tags": {"addr:city": "\u0398\u03b5\u03c3\u03c3\u03b1\u03bb\u03bf\u03bd\u03af\u03ba\u03b7", "addr:housenumber": "1", "addr:postcode": "564 30", "addr:street": "\u0394\u03b7\u03bc\u03b7\u03c4\u03c1\u03af\u03bf\u03c5 \u0393\u03bf\u03cd\u03bd\u03b1\u03c1\u03b7", "amenity": "pharmacy", "healthcare": "pharmacy", "name": "\u0393\u03c1\u03b1\u03bc\u03bc\u03ad\u03bd\u03bf\u03c5 - \u0391\u03b3\u03b1\u03b8\u03b1\u03b3\u03b3\u03b5\u03bb\u03af\u03b4\u03bf\u03c5"}}, {"type": "node", "id": 2665344751, "lat": 40.6599206, "lon": 22.9312353, "tags": {"addr:city": "\u03a3\u03c4\u03b1\u03c5\u03c1\u03bf\u03cd\u03c0\u03bf\u03bb\u03b7 \u0398\u03b5\u03c3\u03c3\u03b1\u03bb\u03bf\u03bd\u03af\u03ba\u03b7", "addr:housenumber": "22", "addr:postcode": "564 30", "addr:street": "\u0391\u03bc\u03c0\u03b5\u03bb\u03bf\u03ba\u03ae\u03c0\u03c9\u03bd", "amenity": "pharmacy", "drive_through": "no", "healthcare": "pharmacy", "name": "\u0393\u03bb\u03c5\u03ba\u03cc\u03c2 \u03a0\u03ac\u03c4\u03c1\u03bf\u03ba\u03bb\u03bf\u03c2", "wheelchair": "yes"}}, {"type": "node", "id": 2665344758, "lat": 40.6623306, "lon": 22.9289335, "tags": {"addr:housenumber": "37\u0394", "addr:postcode": "56430", "addr:street": "\u0399\u03b1\u03c4\u03c1\u03bf\u03cd \u0393\u03c9\u03b3\u03bf\u03cd\u03c3\u03b7", "amenity": "pharmacy", "healthcare": "pharmacy", "level": "0", "name": "\u039d\u03b9\u03ba\u03bf\u03bb\u03b1\u03ca\u03b4\u03bf\u03c5-\u03a3\u03b1\u03b2\u03b2\u03af\u03b4\u03bf\u03c5 \u0392\u03b9\u03ba\u03c4\u03c9\u03c1\u03af\u03b1"}}, {"type": "node", "id": 2916981853, "lat": 40.6604592, "lon": 22.929439, "tags": {"addr:housenumber": "20", "addr:postcode": "56430", "addr:street": "\u0399\u03ba\u03bf\u03bd\u03af\u03bf\u03c5", "amenity": "pharmacy", "dispensing": "yes", "healthcare": "pharmacy", "name": "\u03a0\u03b1\u03c0\u03b1\u03c3\u03c4\u03b5\u03c6\u03ac\u03bd\u03bf\u03c5 \u03a0\u03b1\u03bd\u03b1\u03b3\u03b9\u03ce\u03c4\u03b7\u03c2"}}, {"type": "node", "id": 3098754135, "lat": 40.6731504, "lon": 22.9325758, "tags": {"addr:city": "\u03a3\u03c4\u03b1\u03c5\u03c1\u03bf\u03cd\u03c0\u03bf\u03bb\u03b7", "addr:housenumber": "6", "addr:postcode": "56430", "addr:street": "\u0398\u03b5\u03c1\u03bc\u03bf\u03c0\u03c5\u03bb\u03ce\u03bd", "amenity": "pharmacy", "healthcare": "pharmacy", "name": "\u039b\u03bf\u03b3\u03b3\u03b9\u03bd\u03af\u03b4\u03b7\u03c2 \u039d\u03b9\u03ba\u03cc\u03bb\u03b1\u03bf\u03c2", "operator": "Logginidis Nikolaos"}}, {"type": "node", "id": 3506420232, "lat": 40.7227603, "lon": 22.9175973}, {"type": "node", "id": 3923655117, "lat": 40.664336, "lon": 22.947008, "tags": {"amenity": "pharmacy", "healthcare": "pharmacy"}}, {"type": "node", "id": 3923720529, "lat": 40.6673341, "lon": 22.9465596, "tags": {"amenity": "pharmacy", "healthcare": "pharmacy"}}, {"type": "node", "id": 3933400104, "lat": 40.6738058, "lon": 22.9275801, "tags": {"addr:city": "\u03a3\u03c4\u03b1\u03c5\u03c1\u03bf\u03cd\u03c0\u03bf\u03bb\u03b7", "addr:housenumber": "15", "addr:postcode": "56431", "addr:street": "\u03a6\u03b9\u03bb\u03ce\u03c4\u03b1", "amenity": "pharmacy", "healthcare": "pharmacy", "operator": "Diamantopoulos Georgios"}}, {"type": "node", "id": 3967768386, "lat": 40.6754402, "lon": 22.9267104, "tags": {"addr:city": "\u03a3\u03c4\u03b1\u03c5\u03c1\u03bf\u03cd\u03c0\u03bf\u03bb\u03b7", "addr:housenumber": "59", "addr:postcode": "56431", "addr:street": "\u039c\u03b1\u03ba\u03c1\u03c5\u03b3\u03b9\u03ac\u03bd\u03bd\u03b7", "amenity": "pharmacy", "healthcare": "pharmacy", "operator": "Soultogiannis George"}}, {"type": "node", "id": 4283992912, "lat": 40.7373052, "lon": 22.8748996, "tags": {"amenity": "pharmacy", "healthcare": "pharmacy", "name": "\u039a\u03bf\u03bc\u03ac\u03c1\u03b7"}}, {"type": "node", "id": 5260489425, "lat": 40.70367, "lon": 22.841636, "tags": {"amenity": "pharmacy", "name": "Vetfarm", "website": "https://www.vetfarm.gr/"}}, {"type": "node", "id": 5320546416, "lat": 40.6664904, "lon": 22.9286485, "tags": {"addr:city": "\u03a3\u03c4\u03b1\u03c5\u03c1\u03bf\u03cd\u03c0\u03bf\u03bb\u03b7", "addr:housenumber": "4", "addr:postcode": "564 31", "addr:street": "\u03a0\u03bf\u03bb\u03c5\u03c4\u03b5\u03c7\u03bd\u03b5\u03af\u03bf\u03c5", "amenity": "pharmacy", "healthcare": "pharmacy", "name": "thessfarmakeio.gr"}}, {"type": "node", "id": 5325183194, "lat": 40.6738916, "lon": 22.9284665, "tags": {"addr:city": "\u03a3\u03c4\u03b1\u03c5\u03c1\u03bf\u03cd\u03c0\u03bf\u03bb\u03b7", "addr:housenumber": "62", "addr:postcode": "56431", "addr:street": "\u039c\u03b1\u03ba\u03c1\u03c5\u03b3\u03b9\u03ac\u03bd\u03bd\u03b7", "amenity": "pharmacy", "healthcare": "pharmacy", "operator": "Vasilakou Georgia"}}, {"type": "node", "id": 5325183195, "lat": 40.6724045, "lon": 22.9293663, "tags": {"addr:city": "\u03a3\u03c4\u03b1\u03c5\u03c1\u03bf\u03cd\u03c0\u03bf\u03bb\u03b7", "addr:housenumber": "11", "addr:postcode": "56431", "addr:street": "\u039f\u03bb\u03cd\u03bc\u03c0\u03bf\u03c5", "amenity": "pharmacy", "healthcare": "pharmacy", "operator": "Triantafyllidou Eftychia"}}, {"type": "node", "id": 5325183196, "lat": 40.6719056, "lon": 22.9303794, "tags": {"addr:city": "\u03a3\u03c4\u03b1\u03c5\u03c1\u03bf\u03cd\u03c0\u03bf\u03bb\u03b7", "addr:housenumber": "38", "addr:postcode": "56431", "addr:street": "\u039c\u03b1\u03ba\u03c1\u03c5\u03b3\u03b9\u03ac\u03bd\u03bd\u03b7", "amenity": "pharmacy", "healthcare": "pharmacy", "operator": "David Georgios & Co"}}, {"type": "node", "id": 5325213802, "lat": 40.6697307, "lon": 22.9316804, "tags": {"addr:city": "\u03a3\u03c4\u03b1\u03c5\u03c1\u03bf\u03cd\u03c0\u03bf\u03bb\u03b7", "addr:housenumber": "23", "addr:postcode": "56430", "addr:street": "\u039c\u03c0\u03bf\u03c5\u03bc\u03c0\u03bf\u03c5\u03bb\u03af\u03bd\u03b1\u03c2", "amenity": "pharmacy", "healthcare": "pharmacy", "operator": "Rossidou Eleni"}}, {"type": "node", "id": 5325248869, "lat": 40.6690075, "lon": 22.928341, "tags": {"addr:city": "\u03a3\u03c4\u03b1\u03c5\u03c1\u03bf\u03cd\u03c0\u03bf\u03bb\u03b7", "addr:housenumber": "48", "addr:postcode": "56431", "addr:street": "\u03a0\u03bf\u03bb\u03c5\u03c4\u03b5\u03c7\u03bd\u03b5\u03af\u03bf\u03c5", "amenity": "pharmacy", "healthcare": "pharmacy", "operator": "Chatziioannidou Artemisia"}}, {"type": "node", "id": 5325248870, "lat": 40.6665522, "lon": 22.9279588, "tags": {"addr:city": "\u03a3\u03c4\u03b1\u03c5\u03c1\u03bf\u03cd\u03c0\u03bf\u03bb\u03b7", "addr:housenumber": "5", "addr:postcode": "564 31", "addr:street": "\u039a\u03ce\u03c3\u03c4\u03b1 \u039a\u03c9\u03bd\u03c3\u03c4\u03b1\u03bd\u03c4\u03b9\u03bd\u03af\u03b4\u03b7", "amenity": "pharmacy", "healthcare": "pharmacy", "operator": "Sitaridou Ekaterini"}}, {"type": "node", "id": 5328921723, "lat": 40.6762164, "lon": 22.9231394, "tags": {"addr:city": "\u0395\u03cd\u03bf\u03c3\u03bc\u03bf\u03c2", "addr:housenumber": "83", "addr:postcode": "56224", "addr:street": "\u0399\u03b8\u03ac\u03ba\u03b7\u03c2", "amenity": "pharmacy", "healthcare": "pharmacy", "operator": "Pinas Athanasios"}}, {"type": "node", "id": 5330995690, "lat": 40.6710368, "lon": 22.9325424, "tags": {"addr:city": "\u03a3\u03c4\u03b1\u03c5\u03c1\u03bf\u03cd\u03c0\u03bf\u03bb\u03b7", "addr:housenumber": "48", "addr:postcode": "56430", "addr:street": "\u039c\u03c0\u03bf\u03c5\u03bc\u03c0\u03bf\u03c5\u03bb\u03af\u03bd\u03b1\u03c2", "amenity": "pharmacy", "healthcare": "pharmacy", "operator": "Tsiami Syrpi Maria"}}, {"type": "node", "id": 5338693143, "lat": 40.6663472, "lon": 22.9232756, "tags": {"addr:city": "\u0395\u03cd\u03bf\u03c3\u03bc\u03bf\u03c2", "addr:housenumber": "204", "addr:postcode": "56224", "addr:street": "\u039a\u03b1\u03c1\u03b1\u03bf\u03bb\u03ae & \u0394\u03b7\u03bc\u03b7\u03c4\u03c1\u03af\u03bf\u03c5", "amenity": "pharmacy", "healthcare": "pharmacy", "operator": "Andreadou Sylvana"}}, {"type": "node", "id": 5339375817, "lat": 40.674633, "lon": 22.9277749, "tags": {"addr:city": "\u03a3\u03c4\u03b1\u03c5\u03c1\u03bf\u03cd\u03c0\u03bf\u03bb\u03b7", "addr:housenumber": "72", "addr:postcode": "56431", "addr:street": "\u039c\u03b1\u03ba\u03c1\u03c5\u03b3\u03b9\u03ac\u03bd\u03bd\u03b7", "amenity": "pharmacy", "healthcare": "pharmacy", "operator": "Fotiadis Athanasios"}}, {"type": "node", "id": 5339375818, "lat": 40.6751607, "lon": 22.9297227, "tags": {"addr:city": "\u03a3\u03c4\u03b1\u03c5\u03c1\u03bf\u03cd\u03c0\u03bf\u03bb\u03b7", "addr:housenumber": "4", "addr:postcode": "56431", "addr:street": "\u03a6\u03b9\u03bb\u03ce\u03c4\u03b1", "amenity": "pharmacy", "healthcare": "pharmacy", "operator": "Ardaggelou Ioannis"}}, {"type": "node", "id": 5339375819, "lat": 40.6741576, "lon": 22.9302405, "tags": {"addr:city": "\u03a3\u03c4\u03b1\u03c5\u03c1\u03bf\u03cd\u03c0\u03bf\u03bb\u03b7", "addr:housenumber": "6", "addr:postcode": "56431", "addr:street": "\u039b\u03c5\u03c3\u03b9\u03c3\u03c4\u03c1\u03ac\u03c4\u03b7\u03c2", "amenity": "pharmacy", "healthcare": "pharmacy", "operator": "Barkopoulos Stergios"}}, {"type": "node", "id": 5340661614, "lat": 40.6729445, "lon": 22.9337529, "tags": {"addr:city": "\u03a3\u03c4\u03b1\u03c5\u03c1\u03bf\u03cd\u03c0\u03bf\u03bb\u03b7", "addr:housenumber": "3", "addr:postcode": "56430", "addr:street": "\u0398\u03b5\u03c1\u03bc\u03bf\u03c0\u03c5\u03bb\u03ce\u03bd", "amenity": "pharmacy", "healthcare": "pharmacy", "name": "\u039a\u03bf\u03c5\u03bb\u03b5\u03bb\u03ae", "operator": "Kouleli Despina"}}, {"type": "node", "id": 5351466260, "lat": 40.6622944, "lon": 22.9467418, "tags": {"addr:city": "\u03a0\u03bf\u03bb\u03af\u03c7\u03bd\u03b7", "addr:housenumber": "73", "addr:postcode": "56533", "addr:street": "\u0391\u03b3\u03bd\u03ce\u03c3\u03c4\u03bf\u03c5 \u03a3\u03c4\u03c1\u03b1\u03c4\u03b9\u03ce\u03c4\u03bf\u03c5", "amenity": "pharmacy", "healthcare": "pharmacy", "name": "Family Pharmacy", "operator": "Notas Christos"}}, {"type": "node", "id": 5351544920, "lat": 40.6612607, "lon": 22.9478039, "tags": {"addr:city": "\u03a0\u03bf\u03bb\u03af\u03c7\u03bd\u03b7", "addr:housenumber": "7", "addr:postcode": "56533", "addr:street": "\u0391\u03b3\u03af\u03bf\u03c5 \u03a0\u03b1\u03bd\u03c4\u03b5\u03bb\u03b5\u03ae\u03bc\u03bf\u03bd\u03b1", "amenity": "pharmacy", "healthcare": "pharmacy", "name": "\u03a3\u03b1\u03c1\u03b1\u03c6\u03af\u03b4\u03bf\u03c5-\u0398\u03b5\u03bf\u03b4\u03c9\u03c1\u03af\u03b4\u03bf\u03c5 \u0391\u03bb\u03b5\u03be\u03ac\u03bd\u03b4\u03c1\u03b1", "operator": "Sarafidou Theodoridou Alexandra"}}, {"type": "node", "id": 5398659521, "lat": 40.6647987, "lon": 22.9383723, "tags": {"addr:city": "\u03a3\u03c4\u03b1\u03c5\u03c1\u03bf\u03cd\u03c0\u03bf\u03bb\u03b7", "addr:housenumber": "2", "addr:postcode": "56430", "addr:street": "\u039a\u03ce\u03c3\u03c4\u03b1 \u039a\u03b1\u03b2\u03ac\u03c6\u03b7", "amenity": "pharmacy", "healthcare": "pharmacy", "operator": "Kikinidis Polydefkis"}}, {"type": "node", "id": 5398809706, "lat": 40.661585, "lon": 22.9448479, "tags": {"addr:city": "\u03a0\u03bf\u03bb\u03af\u03c7\u03bd\u03b7", "addr:housenumber": "25", "addr:postcode": "56533", "addr:street": "\u0391\u03b3\u03af\u03bf\u03c5 \u03a0\u03b1\u03bd\u03c4\u03b5\u03bb\u03b5\u03ae\u03bc\u03bf\u03bd\u03b1", "amenity": "pharmacy", "healthcare": "pharmacy", "operator": "Papadopoulou Despina"}}, {"type": "node", "id": 5398809709, "lat": 40.6613342, "lon": 22.9459889, "tags": {"addr:city": "\u03a0\u03bf\u03bb\u03af\u03c7\u03bd\u03b7", "addr:housenumber": "55", "addr:postcode": "56533", "addr:street": "\u0391\u03b3\u03bd\u03ce\u03c3\u03c4\u03bf\u03c5 \u03a3\u03c4\u03c1\u03b1\u03c4\u03b9\u03ce\u03c4\u03bf\u03c5", "amenity": "pharmacy", "healthcare": "pharmacy", "operator": "Gavra Christina"}}, {"type": "node", "id": 5398809710, "lat": 40.6594583, "lon": 22.944546, "tags": {"addr:city": "\u03a0\u03bf\u03bb\u03af\u03c7\u03bd\u03b7", "addr:housenumber": "73", "addr:postcode": "56533", "addr:street": "\u0391\u03b3\u03bd\u03ce\u03c3\u03c4\u03bf\u03c5 \u03a3\u03c4\u03c1\u03b1\u03c4\u03b9\u03ce\u03c4\u03bf\u03c5", "amenity": "pharmacy", "healthcare": "pharmacy", "operator": "Karatziou Theodosia"}}, {"type": "node", "id": 5591611594, "lat": 40.7288945, "lon": 22.9214386, "tags": {"amenity": "pharmacy", "healthcare": "pharmacy"}}, {"type": "node", "id": 5784616961, "lat": 40.6580643, "lon": 22.9111732, "tags": {"addr:city": "\u039c\u03b5\u03bd\u03b5\u03bc\u03ad\u03bd\u03b7", "addr:housenumber": "41", "addr:postcode": "561 22", "addr:street": "\u0398\u03c9\u03bc\u03ac \u03a7\u03b1\u03c4\u03b6\u03af\u03ba\u03bf\u03c5", "amenity": "pharmacy", "drive_through": "no", "healthcare": "pharmacy", "name": "\u03a4\u03bf\u03c5\u03c4\u03b6\u03bf\u03cd\u03bb\u03b1", "operator": "\u03a4\u03bf\u03c5\u03c4\u03b6\u03bf\u03cd\u03bb\u03b1 \u0395\u03c5\u03b1\u03b3\u03b3\u03b5\u03bb\u03af\u03b1", "source": "Kaart Ground Survey"}}, {"type": "node", "id": 5784672806, "lat": 40.6569611, "lon": 22.9134718, "tags": {"addr:street": "\u0398\u03c9\u03bc\u03ac \u03a7\u03b1\u03c4\u03b6\u03af\u03ba\u03bf\u03c5", "amenity": "pharmacy", "fixme": "name", "healthcare": "pharmacy", "source": "Kaart Ground Survey"}}, {"type": "node", "id": 5784708941, "lat": 40.6560315, "lon": 22.9123105, "tags": {"addr:street": "\u0391\u03b3\u03af\u03b1\u03c2 \u03a0\u03b1\u03c1\u03b1\u03c3\u03ba\u03b5\u03c5\u03ae\u03c2", "amenity": "pharmacy", "healthcare": "pharmacy", "source": "Kaart Ground Survey 2018"}}, {"type": "node", "id": 5785034008, "lat": 40.6663141, "lon": 22.9117942, "tags": {"addr:street": "\u0391\u03c1\u03b9\u03c3\u03c4\u03bf\u03c4\u03ad\u03bb\u03bf\u03c5\u03c2", "amenity": "pharmacy", "healthcare": "pharmacy", "source": "Kaart Ground Survey 2018"}}, {"type": "node", "id": 5785258811, "lat": 40.666809, "lon": 22.9135843, "tags": {"addr:street": "\u039a\u03b1\u03c1\u03b1\u03bf\u03bb\u03ae & \u0394\u03b7\u03bc\u03b7\u03c4\u03c1\u03af\u03bf\u03c5", "amenity": "pharmacy", "healthcare": "pharmacy", "source": "Kaart Ground Survey 2018"}}, {"type": "node", "id": 5790332604, "lat": 40.7229029, "lon": 22.917778}, {"type": "node", "id": 5790332605, "lat": 40.7228286, "lon": 22.9178181}, {"type": "node", "id": 5790332606, "lat": 40.7228345, "lon": 22.9175573}, {"type": "node", "id": 5790903426, "lat": 40.7209683, "lon": 22.9108931}, {"type": "node", "id": 5790903427, "lat": 40.720819, "lon": 22.9108992}, {"type": "node", "id": 5790903428, "lat": 40.7208143, "lon": 22.9107011}, {"type": "node", "id": 5790903429, "lat": 40.7209636, "lon": 22.9106949}, {"type": "node", "id": 5796652598, "lat": 40.7315757, "lon": 22.9178592, "tags": {"addr:street": "\u039a\u03bf\u03bc\u03bd\u03b7\u03bd\u03ce\u03bd", "amenity": "pharmacy", "healthcare": "pharmacy", "source": "Kaart Ground Survey 2018"}}, {"type": "node", "id": 5796866709, "lat": 40.6640462, "lon": 22.9028678, "tags": {"addr:street": "\u039a\u03b1\u03c1\u03b1\u03bf\u03bb\u03ae & \u0394\u03b7\u03bc\u03b7\u03c4\u03c1\u03af\u03bf\u03c5", "amenity": "pharmacy", "healthcare": "pharmacy", "name": "\u039a\u03c5\u03c1\u03bb\u03af\u03b4\u03bf\u03c5", "operator": "\u0395\u03c5\u03b3\u03b5\u03bd\u03af\u03b1 \u0391\u03bd\u03b1\u03c3\u03c4\u03b1\u03c3\u03af\u03bf\u03c5 \u039a\u03c5\u03c1\u03bb\u03af\u03b4\u03bf\u03c5", "source": "Kaart Ground Survey 2018"}}, {"type": "node", "id": 5797117544, "lat": 40.6634602, "lon": 22.9027846, "tags": {"amenity": "pharmacy", "healthcare": "pharmacy", "source": "Kaart Ground Survey 2018"}}, {"type": "node", "id": 5799467254, "lat": 40.7265301, "lon": 22.9146871, "tags": {"addr:street": "\u0391\u03c1\u03b3\u03c5\u03c1\u03bf\u03c5\u03c0\u03cc\u03bb\u03b5\u03c9\u03c2", "amenity": "pharmacy", "healthcare": "pharmacy", "source": "Kaart Ground Survey 2018"}}, {"type": "node", "id": 5799467255, "lat": 40.7246051, "lon": 22.9137656, "tags": {"addr:street": "\u039c\u03c0\u03bf\u03c5\u03bc\u03c0\u03bf\u03c5\u03bb\u03af\u03bd\u03b1\u03c2", "amenity": "pharmacy", "healthcare": "pharmacy", "source": "Kaart Ground Survey 2018"}}, {"type": "node", "id": 5799467273, "lat": 40.7309558, "lon": 22.9194547, "tags": {"addr:street": "\u0394\u03b7\u03bc\u03bf\u03ba\u03c1\u03b1\u03c4\u03af\u03b1\u03c2", "amenity": "pharmacy", "healthcare": "pharmacy", "name": "\u03a4\u03c3\u03bf\u03c5\u03bc\u03b1\u03c4\u03af\u03b4\u03b7 \u0394\u03b7\u03bc\u03bf\u03c3\u03b8. \u0399\u03c9\u03ac\u03bd\u03bd\u03b3", "source": "Kaart Ground Survey 2018"}}, {"type": "node", "id": 5799649554, "lat": 40.6649658, "lon": 22.9341295, "tags": {"addr:street": "\u03a7\u03c1\u03c5\u03c3\u03bf\u03c3\u03c4\u03cc\u03bc\u03bf\u03c5 \u03a3\u03bc\u03cd\u03c1\u03bd\u03b7\u03c2", "amenity": "pharmacy", "healthcare": "pharmacy", "source": "Kaart Ground Survey 2018"}}, {"type": "node", "id": 5800015193, "lat": 40.688123, "lon": 22.8500269, "tags": {"addr:street": "\u039d\u03af\u03ba\u03b7\u03c2", "amenity": "pharmacy", "healthcare": "pharmacy", "source": "Kaart Ground Survey 2018"}}, {"type": "node", "id": 5800498525, "lat": 40.6878078, "lon": 22.9494708, "tags": {"addr:street": "\u039f\u03bb\u03cd\u03bc\u03c0\u03bf\u03c5", "amenity": "pharmacy", "healthcare": "pharmacy"}}, {"type": "node", "id": 5800498538, "lat": 40.6855694, "lon": 22.9484493, "tags": {"addr:street": "\u039f\u03bc\u03ae\u03c1\u03bf\u03c5", "amenity": "pharmacy", "healthcare": "pharmacy"}}, {"type": "node", "id": 5801892746, "lat": 40.6719662, "lon": 22.9410544, "tags": {"addr:street": "\u039b\u03b5\u03c9\u03c6\u03cc\u03c1\u03bf\u03c2 \u03a3\u03c4\u03c1\u03b1\u03c4\u03bf\u03cd", "amenity": "pharmacy", "healthcare": "pharmacy", "name": "\u039a\u03b1\u03c1\u03b1\u03b3\u03b9\u03ac\u03bd\u03bd\u03b7", "name:el": "\u039a\u03b1\u03c1\u03b1\u03b3\u03b9\u03ac\u03bd\u03bd\u03b7", "source": "Kaart Ground Survey 2018"}}, {"type": "node", "id": 5802079667, "lat": 40.6624275, "lon": 22.9090227, "tags": {"addr:street": "\u039c\u03b1\u03ba\u03b5\u03b4\u03bf\u03bd\u03af\u03b1\u03c2", "amenity": "pharmacy", "healthcare": "pharmacy", "source": "Kaart Ground Survey 2018"}}, {"type": "node", "id": 5802345853, "lat": 40.6664816, "lon": 22.9257288, "tags": {"addr:street": "\u039a\u03b1\u03c1\u03b1\u03bf\u03bb\u03ae & \u0394\u03b7\u03bc\u03b7\u03c4\u03c1\u03af\u03bf\u03c5", "amenity": "pharmacy", "healthcare": "pharmacy", "source": "Kaart Ground Survey 2018"}}, {"type": "node", "id": 5802391610, "lat": 40.6694934, "lon": 22.9082649, "tags": {"addr:street": "\u039c\u03b5\u03b3\u03ac\u03bb\u03bf\u03c5 \u0391\u03bb\u03b5\u03be\u03ac\u03bd\u03b4\u03c1\u03bf\u03c5", "amenity": "pharmacy", "check_date": "2025-09-30", "healthcare": "pharmacy", "name": "\u0391\u03c3\u03ba\u03b7\u03c4\u03ae\u03c2 \u03a6\u03b1\u03c1\u03bc\u03b1\u03ba\u03b5\u03af\u03bf", "source": "Kaart Ground Survey 2018"}}, {"type": "node", "id": 5802391616, "lat": 40.6697264, "lon": 22.9068495, "tags": {"addr:street": "\u039c\u03b5\u03b3\u03ac\u03bb\u03bf\u03c5 \u0391\u03bb\u03b5\u03be\u03ac\u03bd\u03b4\u03c1\u03bf\u03c5", "amenity": "pharmacy", "check_date": "2025-09-30", "healthcare": "pharmacy", "operator": "\u039a\u03bf\u03c5\u03c3\u03c4\u03b5\u03c1\u03af\u03b4\u03b7\u03c2", "source": "Kaart Ground Survey 2018"}}, {"type": "node", "id": 5802391623, "lat": 40.6679198, "lon": 22.9060006, "tags": {"addr:street": "\u03a0\u03b1\u03c4\u03c1\u03ce\u03bd", "amenity": "pharmacy", "healthcare": "pharmacy", "source": "Kaart Ground Survey 2018"}}, {"type": "node", "id": 5804480666, "lat": 40.6739472, "lon": 22.8998214, "tags": {"amenity": "pharmacy", "check_date": "2025-09-30", "healthcare": "pharmacy", "internet_access": "no", "operator": "\u0395\u03bb\u03ad\u03bd\u03b7 \u0393. \u0391\u03b3\u03b1\u03c0\u03b7\u03c4\u03bf\u03cd", "source": "Kaart Ground Survey 2018"}}, {"type": "node", "id": 5804509586, "lat": 40.6731021, "lon": 22.8969525, "tags": {"addr:street": "\u03a3\u03ba\u03c1\u03b1", "amenity": "pharmacy", "healthcare": "pharmacy", "source": "Kaart Ground Survey 2018"}}, {"type": "node", "id": 5804719956, "lat": 40.6684606, "lon": 22.8967066, "tags": {"addr:street": "\u039a\u03b1\u03c4\u03c3\u03b1\u03bd\u03c4\u03ce\u03bd\u03b7", "amenity": "pharmacy", "healthcare": "pharmacy", "source": "Kaart Ground Survey 2018"}}, {"type": "node", "id": 5804719961, "lat": 40.6703285, "lon": 22.8983241, "tags": {"addr:street": "\u039a\u03b1\u03c4\u03c3\u03b1\u03bd\u03c4\u03ce\u03bd\u03b7", "amenity": "pharmacy", "healthcare": "pharmacy", "source": "Kaart Ground Survey 2018"}}, {"type": "node", "id": 5804766741, "lat": 40.6719028, "lon": 22.8966041, "tags": {"addr:street": "\u03a6\u03b9\u03bb\u03af\u03c0\u03c0\u03bf\u03c5 \u03a6\u03bb\u03ce\u03c1\u03bf\u03c5", "amenity": "pharmacy", "healthcare": "pharmacy", "source": "Kaart Ground Survey 2018"}}, {"type": "node", "id": 5804766750, "lat": 40.6694945, "lon": 22.8946227, "tags": {"addr:street": "\u0391\u03bd\u03b4\u03c1\u03ad\u03b1 \u03a0\u03b1\u03c0\u03b1\u03bd\u03b4\u03c1\u03ad\u03bf\u03c5", "amenity": "pharmacy", "healthcare": "pharmacy", "source": "Kaart Ground Survey 2018"}}, {"type": "node", "id": 5805144200, "lat": 40.6709023, "lon": 22.8941677, "tags": {"addr:street": "\u0391\u03bd\u03b4\u03c1\u03ad\u03b1 \u03a0\u03b1\u03c0\u03b1\u03bd\u03b4\u03c1\u03ad\u03bf\u03c5", "amenity": "pharmacy", "healthcare": "pharmacy", "source": "Kaart Ground Survey 2018"}}, {"type": "node", "id": 5805144209, "lat": 40.6677164, "lon": 22.896487, "tags": {"addr:street": "\u039a\u03b1\u03c4\u03c3\u03b1\u03bd\u03c4\u03ce\u03bd\u03b7", "amenity": "pharmacy", "healthcare": "pharmacy", "source": "Kaart Ground Survey 2018"}}, {"type": "node", "id": 5805160676, "lat": 40.6697762, "lon": 22.9154567, "tags": {"addr:street": "17\u03b7\u03c2 \u039d\u03bf\u03b5\u03bc\u03b2\u03c1\u03af\u03bf\u03c5", "amenity": "pharmacy", "healthcare": "pharmacy", "source": "Kaart Ground Survey 2018", "wheelchair": "yes"}}, {"type": "node", "id": 5805160681, "lat": 40.671954, "lon": 22.9095814, "tags": {"addr:street": "\u03a3\u03bc\u03cd\u03c1\u03bd\u03b7\u03c2", "amenity": "pharmacy", "healthcare": "pharmacy", "source": "Kaart Ground Survey 2018"}}, {"type": "node", "id": 5805160687, "lat": 40.6691751, "lon": 22.9097879, "tags": {"addr:street": "\u039c\u03b5\u03b3\u03ac\u03bb\u03bf\u03c5 \u0391\u03bb\u03b5\u03be\u03ac\u03bd\u03b4\u03c1\u03bf\u03c5", "amenity": "pharmacy", "healthcare": "pharmacy", "source": "Kaart Ground Survey 2018"}}, {"type": "node", "id": 5805258539, "lat": 40.6837512, "lon": 22.9328888, "tags": {"addr:street": "\u0386\u03c1\u03b7 \u0392\u03b5\u03bb\u03bf\u03c5\u03c7\u03b9\u03ce\u03c4\u03b7", "amenity": "pharmacy", "healthcare": "pharmacy", "source": "Kaart Ground Survey 2018"}}, {"type": "node", "id": 5805276600, "lat": 40.6719886, "lon": 22.8942968, "tags": {"addr:street": "\u0391\u03bd\u03b4\u03c1\u03ad\u03b1 \u03a0\u03b1\u03c0\u03b1\u03bd\u03b4\u03c1\u03ad\u03bf\u03c5", "amenity": "pharmacy", "check_date": "2025-10-04", "healthcare": "pharmacy", "operator": "\u03a7\u03b1\u03bb\u03ba\u03af\u03b4\u03b7", "source": "Kaart Ground Survey 2018"}}, {"type": "node", "id": 5805276606, "lat": 40.6681029, "lon": 22.8943665, "tags": {"addr:city": "\u0395\u03bb\u03b5\u03c5\u03b8\u03ad\u03c1\u03b9\u03bf-\u039a\u03bf\u03c1\u03b4\u03b5\u03bb\u03b9\u03cc", "addr:postcode": "563 34", "addr:street": "\u0391\u03bd\u03b4\u03c1\u03ad\u03b1 \u03a0\u03b1\u03c0\u03b1\u03bd\u03b4\u03c1\u03ad\u03bf\u03c5", "amenity": "pharmacy", "healthcare": "pharmacy", "name": "\u03a4\u03c1\u03b1\u03bd\u03bf\u03cd", "source": "Kaart Ground Survey 2018"}}, {"type": "node", "id": 5805307856, "lat": 40.6849034, "lon": 22.9322791, "tags": {"addr:street": "\u0391\u03b3\u03b3\u03ad\u03bb\u03bf\u03c5 \u0392\u03bb\u03ac\u03c7\u03bf\u03c5", "amenity": "pharmacy", "healthcare": "pharmacy", "source": "Kaart Ground Survey 2018"}}, {"type": "node", "id": 5805443223, "lat": 40.6701251, "lon": 22.9050337, "tags": {"addr:city": "\u0395\u03cd\u03bf\u03c3\u03bc\u03bf\u03c2", "addr:housenumber": "22", "addr:postcode": "562 24", "addr:street": "\u039c\u03b5\u03b3\u03ac\u03bb\u03bf\u03c5 \u0391\u03bb\u03b5\u03be\u03ac\u03bd\u03b4\u03c1\u03bf\u03c5", "amenity": "pharmacy", "healthcare": "pharmacy", "name": "\u03a0\u03b1\u03bb\u03b1\u03b9\u03bf\u03bb\u03cc\u03b3\u03bf\u03c5 \u03a7.", "operator": "\u03a0\u03b1\u03bb\u03b1\u03b9\u03bf\u03bb\u03cc\u03b3\u03bf\u03c5 \u03a7\u03c1\u03c5\u03c3\u03bf\u03cd\u03bb\u03b1", "source": "Kaart Ground Survey 2018"}}, {"type": "node", "id": 5805444053, "lat": 40.6705096, "lon": 22.9042892, "tags": {"addr:street": "\u039c\u03b5\u03b3\u03ac\u03bb\u03bf\u03c5 \u0391\u03bb\u03b5\u03be\u03ac\u03bd\u03b4\u03c1\u03bf\u03c5", "amenity": "pharmacy", "healthcare": "pharmacy", "name": "\u0397\u03bb\u03b9\u03ac\u03b4\u03b7\u03c2 \u03a0.", "operator": "\u0397\u03bb\u03b9\u03ac\u03b4\u03b7\u03c2 \u03a0\u03c1\u03cc\u03b4\u03c1\u03bf\u03bc\u03bf\u03c2", "source": "Kaart Ground Survey 2018"}}, {"type": "node", "id": 5805444837, "lat": 40.6668235, "lon": 22.898333, "tags": {"addr:street": "\u039a\u03c9\u03bd\u03c3\u03c4\u03b1\u03bd\u03c4\u03af\u03bd\u03bf\u03c5 \u039a\u03b1\u03c1\u03b1\u03bc\u03b1\u03bd\u03bb\u03ae", "amenity": "pharmacy", "healthcare": "pharmacy", "source": "Kaart Ground Survey 2018"}}, {"type": "node", "id": 5805444848, "lat": 40.6671661, "lon": 22.8941705, "tags": {"addr:street": "\u039a\u03c1\u03ae\u03c4\u03b7\u03c2", "amenity": "pharmacy", "healthcare": "pharmacy", "source": "Kaart Ground Survey 2018"}}, {"type": "node", "id": 5805509746, "lat": 40.683241, "lon": 22.9494051, "tags": {"addr:street": "\u03a0\u03bf\u03c3\u03b5\u03b9\u03b4\u03ce\u03bd\u03bf\u03c2", "amenity": "pharmacy", "healthcare": "pharmacy", "source": "Kaart Ground Survey 2018"}}, {"type": "node", "id": 5805511857, "lat": 40.6838723, "lon": 22.9468913, "tags": {"addr:street": "\u03a1\u03ae\u03b3\u03b1 \u03a6\u03b5\u03c1\u03b1\u03af\u03bf\u03c5", "amenity": "pharmacy", "healthcare": "pharmacy", "source": "Kaart Ground Survey 2018"}}, {"type": "node", "id": 5805524476, "lat": 40.6683206, "lon": 22.8989209, "tags": {"addr:street": "\u0399\u03b1\u03c3o\u03bd\u03af\u03b4\u03bf\u03c5", "amenity": "pharmacy", "healthcare": "pharmacy", "source": "Kaart Ground Survey 2018"}}, {"type": "node", "id": 6133632965, "lat": 40.820871, "lon": 23.0310622}, {"type": "node", "id": 6133632966, "lat": 40.8208339, "lon": 23.0309815}, {"type": "node", "id": 6133632967, "lat": 40.8209648, "lon": 23.0308864}, {"type": "node", "id": 6133632968, "lat": 40.8209997, "lon": 23.0309715}, {"type": "node", "id": 6133632969, "lat": 40.8225272, "lon": 23.0302812}, {"type": "node", "id": 6133632970, "lat": 40.8224992, "lon": 23.0302913}, {"type": "node", "id": 6133632971, "lat": 40.8225094, "lon": 23.0303453}, {"type": "node", "id": 6133632972, "lat": 40.8225383, "lon": 23.0303374}, {"type": "node", "id": 6426664086, "lat": 40.7100857, "lon": 22.9294472, "tags": {"amenity": "pharmacy", "dispensing": "yes", "healthcare": "pharmacy"}}, {"type": "node", "id": 6430224684, "lat": 40.6872, "lon": 22.8601999, "tags": {"addr:city": "\u0394\u03b9\u03b1\u03b2\u03b1\u03c4\u03ac", "addr:housenumber": "2", "addr:postcode": "57008", "addr:street": "\u03a3\u03ac\u03b2\u03b2\u03b1 \u03a0\u03b1\u03c0\u03b1\u03c0\u03bf\u03bb\u03af\u03c4\u03b7", "amenity": "pharmacy", "healthcare": "pharmacy", "phone": "+30 2310780742"}}, {"type": "node", "id": 6430225785, "lat": 40.6884869, "lon": 22.8561264, "tags": {"addr:city": "\u0394\u03b9\u03b1\u03b2\u03b1\u03c4\u03ac", "addr:housenumber": "27", "addr:postcode": "57008", "addr:street": "\u0391\u03b3\u03af\u03bf\u03c5 \u0394\u03b7\u03bc\u03b7\u03c4\u03c1\u03af\u03bf\u03c5", "amenity": "pharmacy", "healthcare": "pharmacy", "name": "\u0392\u03b1\u03c1\u03bf\u03cd\u03c4\u03b7\u03c2 \u0398\u03b5\u03cc\u03c6\u03b9\u03bb\u03bf\u03c2", "phone": "+30 2310788559"}}, {"type": "node", "id": 6512148861, "lat": 40.6688526, "lon": 22.8050842, "tags": {"addr:city": "\u03a3\u03af\u03bd\u03b4\u03bf\u03c2", "addr:housenumber": "14", "addr:postcode": "57400", "addr:street": "\u038c\u03c7\u03b9", "amenity": "pharmacy", "healthcare": "pharmacy", "phone": "+30 2310795126"}}, {"type": "node", "id": 6512197611, "lat": 40.6697908, "lon": 22.8024647, "tags": {"addr:city": "\u03a3\u03af\u03bd\u03b4\u03bf\u03c2", "addr:housenumber": "24", "addr:postcode": "57400", "addr:street": "\u03a7\u03c1\u03c5\u03c3\u03bf\u03c3\u03c4\u03cc\u03bc\u03bf\u03c5 \u03a3\u03bc\u03cd\u03c1\u03bd\u03b7\u03c2", "amenity": "pharmacy", "contact:facebook": "naturalcare.gr", "contact:instagram": "naturalcare.gr", "email": "info@naturalcare.gr", "healthcare": "pharmacy", "name": "\u03a6\u03b1\u03c1\u03bc\u03b1\u03ba\u03b5\u03af\u03bf \u0394\u03b7\u03bc\u03b7\u03c4\u03c1\u03b9\u03ac\u03b4\u03b7\u03c2 \u03a3\u03c4\u03c5\u03bb\u03b9\u03b1\u03bd\u03cc\u03c2", "name:el": "Naturalcare", "name:en": "Naturalcare", "opening_hours": "Mo 08:30-14:00; Tu 08:30-14:00, 17:00-20:30; We 08:30-14:00; Th-Fr 08:30-14:00, 17:00-20:30", "operator": "\u0394\u03b7\u03bc\u03b7\u03c4\u03c1\u03b9\u03ac\u03b4\u03b7\u03c2 \u03a3\u03c4\u03c5\u03bb\u03b9\u03b1\u03bd\u03cc\u03c2", "phone": "+30 2310796036", "website": "https://www.naturalcare.gr/"}}, {"type": "node", "id": 8004379008, "lat": 40.724074, "lon": 23.0045629, "tags": {"amenity": "pharmacy", "dispensing": "yes", "healthcare": "pharmacy"}}, {"type": "node", "id": 8743741552, "lat": 40.7275982, "lon": 22.923835, "tags": {"addr:city": "\u03a9\u03c1\u03b1\u03b9\u03cc\u03ba\u03b1\u03c3\u03c4\u03c1\u03bf", "addr:housenumber": "2", "addr:postcode": "57013", "addr:street": "\u039a\u03b1\u03c1\u03c0\u03b5\u03bd\u03b7\u03c3\u03af\u03bf\u03c5", "amenity": "pharmacy", "name": "\u0392\u03b1\u03c3\u03b9\u03bb\u03b9\u03ba\u03ae \u03a0\u03b5\u03c4\u03c1\u03bf\u03c0\u03bf\u03cd\u03bb\u03bf\u03c5", "shop": "chemist"}}, {"type": "node", "id": 8971439573, "lat": 40.7237507, "lon": 22.9053172, "tags": {"amenity": "pharmacy", "healthcare": "pharmacy"}}, {"type": "node", "id": 9177803263, "lat": 40.7311015, "lon": 22.9218337, "tags": {"amenity": "pharmacy", "name": "\u0395\u03bb\u03b9\u03c3\u03ac\u03b2\u03b5\u03c4 \u03a3. \u039c\u03c0\u03bf\u03c5\u03c1\u03bb\u03b7", "shop": "chemist"}}, {"type": "node", "id": 9454699235, "lat": 40.7209656, "lon": 22.9107803}, {"type": "node", "id": 9454981182, "lat": 40.7228902, "lon": 22.9177372}, {"type": "node", "id": 9454981185, "lat": 40.7228441, "lon": 22.9175882}, {"type": "node", "id": 10226072419, "lat": 40.6596165, "lon": 22.9292797, "tags": {"addr:city": "\u03a3\u03c4\u03b1\u03c5\u03c1\u03bf\u03cd\u03c0\u03bf\u03bb\u03b7 \u0398\u03b5\u03c3\u03c3\u03b1\u03bb\u03bf\u03bd\u03af\u03ba\u03b7", "addr:housenumber": "34", "addr:postcode": "564 30", "addr:street": "\u0391\u03bc\u03c0\u03b5\u03bb\u03bf\u03ba\u03ae\u03c0\u03c9\u03bd", "amenity": "pharmacy", "dispensing": "yes", "drive_through": "no", "healthcare": "pharmacy", "name": "\u03a0\u03b1\u03c0\u03b1\u03c3\u03c4\u03b5\u03c6\u03ac\u03bd\u03bf\u03c5", "operator": "\u03a0\u03b1\u03c0\u03b1\u03c3\u03c4\u03b5\u03c6\u03ac\u03bd\u03bf\u03c5 \u03a0\u03b1\u03bd\u03b1\u03b3\u03b9\u03ce\u03c4\u03b7\u03c2"}}, {"type": "node", "id": 10860722881, "lat": 40.6649819, "lon": 22.9371646, "tags": {"addr:city": "\u03a3\u03c4\u03b1\u03c5\u03c1\u03bf\u03cd\u03c0\u03bf\u03bb\u03b7", "addr:housenumber": "1", "addr:street": "\u0393\u03c1\u03b7\u03b3\u03bf\u03c1\u03af\u03bf\u03c5 \u039b\u03b1\u03bc\u03c0\u03c1\u03ac\u03ba\u03b7", "amenity": "pharmacy", "healthcare": "pharmacy"}}, {"type": "node", "id": 10961214714, "lat": 40.9081407, "lon": 22.8710646}, {"type": "node", "id": 10961214715, "lat": 40.9080071, "lon": 22.8711057}, {"type": "node", "id": 10961214716, "lat": 40.9080342, "lon": 22.8712597}, {"type": "node", "id": 10961214717, "lat": 40.9081677, "lon": 22.8712187}, {"type": "node", "id": 11126363278, "lat": 40.6735125, "lon": 22.9083264, "tags": {"addr:city": "\u0395\u03cd\u03bf\u03c3\u03bc\u03bf\u03c2, \u0398\u03b5\u03c3\u03c3\u03b1\u03bb\u03bf\u03bd\u03af\u03ba\u03b7", "addr:postcode": "562 26", "addr:street": "\u039d\u03a5\u039c\u03a6\u0391\u0399\u039f\u03a5 49 & 25\u03b7\u03c2 \u039c\u0391\u03a1\u03a4\u0399\u039f\u03a5 41", "amenity": "pharmacy", "healthcare": "pharmacy", "name": "\u03a6\u0391\u03a1\u039c\u0391\u039a\u0395\u0399\u039f \u0398\u0391\u039d\u0391\u03a3\u0397 \u03a1\u039f\u03a5\u03a3\u039f\u03a5", "operator": "\u0398\u0391\u039d\u0391\u03a3\u0397\u03a3 \u03a1\u039f\u03a5\u03a3\u039f\u03a3"}}, {"type": "node", "id": 11241150649, "lat": 40.6915476, "lon": 23.0031485, "tags": {"addr:city": "\u03a6\u03af\u03bb\u03c5\u03c1\u03bf", "addr:housenumber": "1", "addr:postcode": "57010", "addr:street": "\u0395\u03bb\u03b5\u03c5\u03b8\u03b5\u03c1\u03af\u03b1\u03c2 \u039b\u03b5\u03c9\u03c6\u03cc\u03c1\u03bf\u03c2", "amenity": "pharmacy", "healthcare": "pharmacy", "name": "\u03a6\u03b1\u03c1\u03bc\u03b1\u03ba\u03b5\u03af\u03bf \u039c\u03b5\u03bb\u03b5\u03c4\u03af\u03b4\u03b7\u03c2 \u0391\u03c1\u03b9\u03c3\u03c4\u03b5\u03af\u03b4\u03b7\u03c2-\u0398\u03b5\u03cc\u03b4\u03c9\u03c1\u03bf\u03c2", "name:el": "\u03a6\u03b1\u03c1\u03bc\u03b1\u03ba\u03b5\u03af\u03bf \u039c\u03b5\u03bb\u03b5\u03c4\u03af\u03b4\u03b7\u03c2 \u0391\u03c1\u03b9\u03c3\u03c4\u03b5\u03af\u03b4\u03b7\u03c2-\u0398\u03b5\u03cc\u03b4\u03c9\u03c1\u03bf\u03c2", "name:en": "Pharmacy Meletidis Aristedes-Theodore", "opening_hours": "Mo-Fr 08:30-15:00, 17:00-21:00"}}, {"type": "node", "id": 11567670822, "lat": 41.0346848, "lon": 22.7992037, "tags": {"amenity": "pharmacy", "healthcare": "pharmacy"}}, {"type": "node", "id": 11715821225, "lat": 40.6576651, "lon": 22.9334032, "tags": {"amenity": "pharmacy", "healthcare": "pharmacy"}}, {"type": "node", "id": 11752429249, "lat": 40.6567021, "lon": 22.9129604, "tags": {"amenity": "pharmacy", "healthcare": "pharmacy", "name": "\u0394\u03b1\u03bd\u03b1\u03c0\u03b1\u03c3\u03b7\u03c2"}}, {"type": "node", "id": 11758712755, "lat": 40.6661223, "lon": 22.9292027, "tags": {"amenity": "pharmacy", "healthcare": "pharmacy"}}, {"type": "node", "id": 11829790358, "lat": 40.6572937, "lon": 22.924618, "tags": {"amenity": "pharmacy", "healthcare": "pharmacy"}}, {"type": "node", "id": 11829880229, "lat": 40.6556981, "lon": 22.9237341, "tags": {"amenity": "pharmacy", "healthcare": "pharmacy"}}, {"type": "node", "id": 11970567354, "lat": 40.661515, "lon": 22.9461494, "tags": {"amenity": "pharmacy", "healthcare": "pharmacy"}}, {"type": "node", "id": 12182642956, "lat": 40.7499172, "lon": 23.0674128, "tags": {"amenity": "pharmacy", "healthcare": "pharmacy", "name": "\u039c\u03c0\u03bf\u03cd\u03c4\u03c3\u03b1\u03bb\u03b7\u03c2"}}, {"type": "node", "id": 13056592207, "lat": 40.6716597, "lon": 22.9051123, "tags": {"addr:city": "\u0395\u03cd\u03bf\u03c3\u03bc\u03bf\u03c2", "addr:housenumber": "53", "addr:postcode": "562 24", "addr:street": "\u039c\u03b1\u03b9\u03ac\u03bd\u03b4\u03c1\u03bf\u03c5", "amenity": "pharmacy", "healthcare": "pharmacy", "name": "\u03a3\u03c1\u03b1\u03c4\u03ad\u03c7 \u0391\u03b9\u03bc\u03b9\u03bb\u03af\u03b1"}}, {"type": "node", "id": 13056785346, "lat": 40.6749216, "lon": 22.9059764, "tags": {"addr:city": "\u0395\u03cd\u03bf\u03c3\u03bc\u03bf\u03c2", "addr:housenumber": "87", "addr:street": "\u039c\u03b1\u03b9\u03ac\u03bd\u03b4\u03c1\u03bf\u03c5", "amenity": "pharmacy", "healthcare": "pharmacy"}}, {"type": "node", "id": 13087201001, "lat": 40.7080409, "lon": 22.9317977, "tags": {"addr:city": "\u03a9\u03c1\u03b1\u03b9\u03cc\u03ba\u03b1\u03c3\u03c4\u03c1\u03bf", "addr:street": "\u0398\u03b5\u03c3\u03c3\u03b1\u03bb\u03bf\u03bd\u03af\u03ba\u03b7\u03c2", "amenity": "pharmacy", "healthcare": "pharmacy", "name": "\u03a4\u03b5\u03bb\u03b5\u03b2\u03b5\u03ba\u03af\u03b4\u03b7\u03c2"}}, {"type": "node", "id": 13096852351, "lat": 40.675738, "lon": 22.9062943, "tags": {"amenity": "pharmacy", "healthcare": "pharmacy"}}, {"type": "node", "id": 13096894277, "lat": 40.6761659, "lon": 22.9059224, "tags": {"amenity": "pharmacy", "healthcare": "pharmacy"}}, {"type": "node", "id": 13112081591, "lat": 40.66763, "lon": 22.9326918, "tags": {"addr:city": "\u03a3\u03c4\u03b1\u03c5\u03c1\u03bf\u03cd\u03c0\u03bf\u03bb\u03b7", "addr:postcode": "564 30", "addr:street": "\u03a9\u03c1\u03b1\u03b9\u03bf\u03ba\u03ac\u03c3\u03c4\u03c1\u03bf\u03c5", "amenity": "pharmacy", "healthcare": "pharmacy", "name": "\u03a6\u03c9\u03c4\u03b9\u03ac\u03b4\u03bf\u03c5"}}, {"type": "node", "id": 13148001859, "lat": 40.6704612, "lon": 22.9283592, "tags": {"addr:city": "\u03a3\u03c4\u03b1\u03c5\u03c1\u03bf\u03cd\u03c0\u03bf\u03bb\u03b7 \u0398\u03b5\u03c3\u03c3\u03b1\u03bb\u03bf\u03bd\u03af\u03ba\u03b7\u03c2", "addr:housenumber": "65", "addr:postcode": "56431", "addr:street": "\u03a3\u03c5\u03bd\u03c4\u03b1\u03b3\u03bc\u03b1\u03c4\u03ac\u03c1\u03c7\u03bf\u03c5 \u0394\u03b1\u03b2\u03ac\u03ba\u03b7", "amenity": "pharmacy", "dispensing": "yes", "healthcare": "pharmacy"}}, {"type": "node", "id": 13193364026, "lat": 40.6691675, "lon": 22.8946566, "tags": {"amenity": "pharmacy", "check_date": "2025-10-04", "healthcare": "pharmacy"}}, {"type": "node", "id": 13193370672, "lat": 40.6703191, "lon": 22.894199, "tags": {"amenity": "pharmacy", "check_date": "2025-10-04", "healthcare": "pharmacy"}}, {"type": "way", "id": 611642575, "nodes": [5790332606, 9454981185, 9454981182, 5790332604, 5790332605, 3506420232, 5790332606], "tags": {"addr:street": "\u0391\u03b5\u03c1\u03bf\u03b4\u03c1\u03bf\u03bc\u03af\u03bf\u03c5", "amenity": "pharmacy", "building": "yes", "healthcare": "pharmacy", "source": "Kaart Ground Survey 2018"}}, {"type": "way", "id": 611680444, "nodes": [5790903429, 9454699235, 5790903426, 5790903427, 5790903428, 5790903429], "tags": {"addr:street": "\u039c\u03b1\u03ba\u03b5\u03b4\u03bf\u03bd\u03b9\u03ba\u03bf\u03cd \u0391\u03b3\u03ce\u03bd\u03b1", "amenity": "pharmacy", "building": "yes", "healthcare": "pharmacy", "source": "Kaart Ground Survey 2018"}}, {"type": "way", "id": 654594510, "nodes": [6133632965, 6133632966, 6133632967, 6133632968, 6133632965], "tags": {"amenity": "pharmacy", "building": "yes", "dispensing": "yes", "healthcare": "pharmacy"}}, {"type": "way", "id": 654594511, "nodes": [6133632969, 6133632970, 6133632971, 6133632972, 6133632969], "tags": {"amenity": "pharmacy", "building": "yes", "dispensing": "yes", "healthcare": "pharmacy"}}, {"type": "way", "id": 1180168867, "nodes": [10961214714, 10961214715, 10961214716, 10961214717, 10961214714], "tags": {"amenity": "pharmacy", "building": "yes", "healthcare": "pharmacy", "name": "ramadani pharmacy", "name:el": "\u03c6\u03b1\u03bc\u03b1\u03ba\u03b5\u03b9\u03bf \u03c1\u03b1\u03bc\u03b1\u03bd\u03c4\u03b1\u03bd\u03b7", "source": "microsoft/BuildingFootprints"}}]}