{"version": 0.6, "generator": "Overpass API 0.7.62.8 e802775f", "osm3s": {"timestamp_osm_base": "2025-10-06T08:03:46Z", "copyright": "The data included in this document is from www.openstreetmap.org. The data is made available under ODbL."}, "elements": [{"type": "node", "id": 955764893, "lat": 47.4436644, "lon": 19.3511691, "tags": {"amenity": "pharmacy", "name": "M\u00e1ria Patika"}}, {"type": "node", "id": 955764895, "lat": 47.4444851, "lon": 19.3676745, "tags": {"addr:city": "Magl\u00f3d", "addr:housenumber": "25", "addr:postcode": "2234", "addr:street": "Katona J\u00f3zsef utca", "amenity": "pharmacy", "contact:email": "annapatika@monornet.hu", "contact:phone": "+36 29 327 446", "contact:website": "http://www.annamaglod.novodata.hu", "healthcare": "pharmacy", "name": "Anna Gy\u00f3gyszert\u00e1r", "opening_hours": "Mo-Fr 08:00-18:30; Sa 08:00-12:00"}}, {"type": "node", "id": 1053700117, "lat": 47.4593643, "lon": 19.3328199, "tags": {"amenity": "pharmacy", "healthcare": "pharmacy", "name": "Benu Gy\u00f3gyszert\u00e1r Magl\u00f3d Auchan", "opening_hours": "Mo-Fr 08:30-20:00; Sa 09:00-20:00; Su 09:00-18:00", "source": "Website Auchan Magl\u00f3d"}}, {"type": "node", "id": 1269227650, "lat": 47.1294872, "lon": 19.4348253, "tags": {"addr:city": "\u00d6rk\u00e9ny", "addr:housenumber": "25", "addr:postcode": "2377", "addr:street": "Kossuth Lajos utca", "amenity": "pharmacy", "contact:phone": "+36 29 510 140", "healthcare": "pharmacy", "name": "\u0150rangyal gy\u00f3gyszert\u00e1r", "opening_hours": "Mo-Fr 09:00-17:00"}}, {"type": "node", "id": 1624127343, "lat": 47.2815061, "lon": 19.5420281, "tags": {"amenity": "pharmacy", "healthcare": "pharmacy"}}, {"type": "node", "id": 2450604539, "lat": 47.1750584, "lon": 19.7960783, "tags": {"amenity": "pharmacy", "healthcare": "pharmacy", "name": "Szent Imre Patika", "wheelchair": "no"}}, {"type": "node", "id": 2450604543, "lat": 47.1798105, "lon": 19.800873, "tags": {"amenity": "pharmacy", "healthcare": "pharmacy", "name": "K\u00edgy\u00f3 Patika"}}, {"type": "node", "id": 2450604546, "lat": 47.1808398, "lon": 19.8058664, "tags": {"amenity": "pharmacy", "name": "T\u00f6m\u00f6rk\u00e9ny patika"}}, {"type": "node", "id": 2450604548, "lat": 47.172693, "lon": 19.7983995, "tags": {"amenity": "pharmacy", "brand": "Pingvin Patika", "brand:wikidata": "Q105626461", "healthcare": "pharmacy", "name": "Pingvin Patika", "name:en": "Penguin Pharmacy", "name:hu": "Pingvin Patika"}}, {"type": "node", "id": 2450604551, "lat": 47.1713005, "lon": 19.7980992, "tags": {"amenity": "pharmacy", "healthcare": "pharmacy", "mapillary": "1162563440852049", "name": "Belv\u00e1rosi Gy\u00f3gyszert\u00e1r"}}, {"type": "node", "id": 2666696095, "lat": 47.2103395, "lon": 19.5510229, "tags": {"amenity": "pharmacy", "healthcare": "pharmacy", "name": "Gy\u00f3gyszert\u00e1r."}}, {"type": "node", "id": 2958368493, "lat": 47.3547509, "lon": 19.4356749, "tags": {"addr:city": "Monor", "addr:postcode": "2200", "addr:street": "Balassi B\u00e1lint utca", "amenity": "pharmacy", "name": "Margit Gy\u00f3gyszert\u00e1r", "wheelchair": "yes"}}, {"type": "node", "id": 3198645244, "lat": 47.4083212, "lon": 19.247688}, {"type": "node", "id": 3198661682, "lat": 47.4084086, "lon": 19.2477095}, {"type": "node", "id": 3198661683, "lat": 47.4083525, "lon": 19.2476359}, {"type": "node", "id": 3198661684, "lat": 47.4083773, "lon": 19.2477616}, {"type": "node", "id": 3204480902, "lat": 47.3313418, "lon": 19.8738537, "tags": {"amenity": "pharmacy", "name": "Seg\u00edt\u0151 M\u00e1ria Gy\u00f3gyszert\u00e1r", "opening_hours": "Mo-Fr 07:30-17:30; Sa 08:00-12:00; Su off"}}, {"type": "node", "id": 3284840500, "lat": 47.3485463, "lon": 19.4420884}, {"type": "node", "id": 3284840523, "lat": 47.348644, "lon": 19.4419495}, {"type": "node", "id": 3284840528, "lat": 47.3486762, "lon": 19.4422874}, {"type": "node", "id": 3284840552, "lat": 47.3487738, "lon": 19.4421485}, {"type": "node", "id": 3311665728, "lat": 47.3626723, "lon": 19.6856263}, {"type": "node", "id": 3311665729, "lat": 47.3625292, "lon": 19.6855083}, {"type": "node", "id": 3311665731, "lat": 47.3626176, "lon": 19.6857708}, {"type": "node", "id": 3343597923, "lat": 47.2379525, "lon": 19.6105263}, {"type": "node", "id": 3343597924, "lat": 47.2380119, "lon": 19.6104409}, {"type": "node", "id": 3343597925, "lat": 47.2379161, "lon": 19.6102964}, {"type": "node", "id": 3343597926, "lat": 47.2378567, "lon": 19.6103819}, {"type": "node", "id": 3343598228, "lat": 47.2441545, "lon": 19.6122238, "tags": {"addr:city": "Albertirsa", "addr:housenumber": "4/11", "addr:postcode": "2730", "addr:street": "Vas\u00fat utca", "amenity": "pharmacy", "healthcare": "pharmacy", "name": "Centrum Gy\u00f3gyszert\u00e1r", "opening_hours": "Mo-Fr 08:00-18:00; Sa 08:00-13:00", "phone": "+36 53 571 241"}}, {"type": "node", "id": 3343602122, "lat": 47.250144, "lon": 19.6084746}, {"type": "node", "id": 3343602123, "lat": 47.2500825, "lon": 19.6085775}, {"type": "node", "id": 3343602124, "lat": 47.2502395, "lon": 19.6087857}, {"type": "node", "id": 3343602125, "lat": 47.2503024, "lon": 19.6086827}, {"type": "node", "id": 3343609217, "lat": 47.2458706, "lon": 19.6133398}, {"type": "node", "id": 3343609218, "lat": 47.2457634, "lon": 19.6132036}, {"type": "node", "id": 3343609219, "lat": 47.2456855, "lon": 19.6133365}, {"type": "node", "id": 3343609220, "lat": 47.2457928, "lon": 19.6134728}, {"type": "node", "id": 3347364065, "lat": 47.2502325, "lon": 19.6085869}, {"type": "node", "id": 3446927623, "lat": 47.336283, "lon": 19.95125, "tags": {"amenity": "pharmacy", "source": "turistautak.hu", "source:date": "2010-08-25", "url": "http://turistautak.hu/poi.php?id=100590"}}, {"type": "node", "id": 3446927878, "lat": 47.449738, "lon": 19.695365, "tags": {"amenity": "pharmacy", "source": "turistautak.hu", "source:date": "2013-11-24", "url": "http://turistautak.hu/poi.php?id=163272"}}, {"type": "node", "id": 3454580738, "lat": 47.161733, "lon": 19.793, "tags": {"amenity": "pharmacy", "healthcare": "pharmacy", "name": "Schulek Gy\u00f3gyszert\u00e1r", "opening_hours": "Mo-Fr 08:00-18:00", "source": "turistautak.hu", "source:date": "2019-02-03", "url": "http://turistautak.hu/poi.php?id=25080"}}, {"type": "node", "id": 3454580742, "lat": 47.168167, "lon": 19.795567, "tags": {"amenity": "pharmacy", "healthcare": "pharmacy", "name": "Szent Anna Gy\u00f3gyszert\u00e1r", "source": "turistautak.hu", "source:date": "2010-06-02", "url": "http://turistautak.hu/poi.php?id=47926"}}, {"type": "node", "id": 3454580747, "lat": 47.1717, "lon": 19.796767, "tags": {"amenity": "pharmacy", "healthcare": "pharmacy", "source": "turistautak.hu", "source:date": "2010-06-02", "url": "http://turistautak.hu/poi.php?id=48451"}}, {"type": "node", "id": 3471833789, "lat": 47.406017, "lon": 19.257157, "tags": {"addr:city": "Vecs\u00e9s", "addr:housenumber": "2", "addr:postcode": "2220", "addr:street": "Kinizsi utca", "amenity": "pharmacy", "contact:phone": "+36 29 356 326", "description": "V\u00e1ltott \u00fcgyelet van 4 hetente, ilyenkor szombaton 8-12 \u00f3r\u00e1ig nyitva", "healthcare": "pharmacy", "name": "Bor\u00f3k\u00e1s gy\u00f3gyszert\u00e1r", "opening_hours": "Mo-Fr 08:00-18:00; PH off", "operator": "Gy\u00f6ngy", "source": "turistautak.hu", "source:date": "2008-08-13", "url": "http://turistautak.hu/poi.php?id=27715", "wheelchair": "limited"}}, {"type": "node", "id": 3471835306, "lat": 47.409483, "lon": 19.264683, "tags": {"amenity": "pharmacy", "healthcare": "pharmacy", "name": "Hanga patika", "source": "turistautak.hu", "source:date": "2011-05-16", "url": "http://turistautak.hu/poi.php?id=54852", "wheelchair": "yes"}}, {"type": "node", "id": 3471835307, "lat": 47.408158, "lon": 19.268273, "tags": {"amenity": "pharmacy", "healthcare": "pharmacy", "name": "Havasi gyop\u00e1r patika", "source": "turistautak.hu", "source:date": "2011-05-16", "url": "http://turistautak.hu/poi.php?id=54828"}}, {"type": "node", "id": 3471835327, "lat": 47.416402, "lon": 19.2484468, "tags": {"addr:city": "Vecs\u00e9s", "addr:housenumber": "246-248", "addr:postcode": "2220", "addr:street": "F\u0151 \u00fat", "amenity": "pharmacy", "contact:phone": "+36 29 557 820", "drive_through": "no", "healthcare": "pharmacy", "name": "PatikaPlus Gy\u00f3gyszert\u00e1r Vecs\u00e9s Market Central", "opening_hours": "Mo-Sa 08:00-20:00; Su 09:00-18:00"}}, {"type": "node", "id": 3471929584, "lat": 47.169267, "lon": 19.411283, "tags": {"amenity": "pharmacy", "source": "turistautak.hu", "source:date": "2014-08-16", "url": "http://turistautak.hu/poi.php?id=170722"}}, {"type": "node", "id": 3473637858, "lat": 47.2789384, "lon": 19.5383362, "tags": {"amenity": "pharmacy", "healthcare": "pharmacy", "source": "turistautak.hu", "source:date": "2014-06-11", "url": "http://turistautak.hu/poi.php?id=169235"}}, {"type": "node", "id": 3863160838, "lat": 47.2542891, "lon": 19.3294831, "tags": {"amenity": "pharmacy", "name": "Galenus gy\u00f3gyszert\u00e1r"}}, {"type": "node", "id": 4032937828, "lat": 47.3077908, "lon": 19.5033223}, {"type": "node", "id": 4032937830, "lat": 47.3078447, "lon": 19.5031902}, {"type": "node", "id": 4032937831, "lat": 47.3078779, "lon": 19.5033996}, {"type": "node", "id": 4032937832, "lat": 47.3079318, "lon": 19.5032674}, {"type": "node", "id": 4047313339, "lat": 47.1755863, "lon": 19.786943}, {"type": "node", "id": 4047313340, "lat": 47.1756427, "lon": 19.7872463}, {"type": "node", "id": 4047313341, "lat": 47.175662, "lon": 19.7869125}, {"type": "node", "id": 4047313343, "lat": 47.1757184, "lon": 19.7872159}, {"type": "node", "id": 4203843293, "lat": 47.4443531, "lon": 19.321075, "tags": {"amenity": "pharmacy", "name": "Kehely Patika"}}, {"type": "node", "id": 4322742892, "lat": 47.4601996, "lon": 19.299631, "tags": {"addr:city": "Budapest", "addr:housenumber": "226", "addr:postcode": "1171", "addr:street": "Zr\u00ednyi utca", "amenity": "pharmacy", "brand": "Alma", "healthcare": "pharmacy", "name": "Str\u00e1zsahegy Gy\u00f3gyszert\u00e1r", "opening_hours": "Mo-Fr 08:00-20:00"}}, {"type": "node", "id": 4340845192, "lat": 47.5546726, "lon": 19.794751, "tags": {"addr:city": "Pusztamonostor", "addr:housenumber": "82", "addr:postcode": "5125", "addr:street": "Szabads\u00e1g \u00fat", "amenity": "pharmacy", "healthcare": "pharmacy", "name": "Kleop\u00e1tra Patika", "opening_hours": "Mo-Fr 08:00-12:00", "operator": "Kleop\u00e1tra Patika Bt."}}, {"type": "node", "id": 4378023442, "lat": 47.362413, "lon": 19.6856667}, {"type": "node", "id": 4378023455, "lat": 47.362486, "lon": 19.6854735}, {"type": "node", "id": 4378023462, "lat": 47.3625107, "lon": 19.6857473}, {"type": "node", "id": 4378023467, "lat": 47.3625289, "lon": 19.6855089}, {"type": "node", "id": 4378023468, "lat": 47.3625293, "lon": 19.685698}, {"type": "node", "id": 5214555538, "lat": 47.2662217, "lon": 19.9113149, "tags": {"addr:city": "\u00dajszilv\u00e1s", "addr:housenumber": "66", "addr:postcode": "2768", "addr:street": "Alkotm\u00e1ny utca", "amenity": "pharmacy", "healthcare": "pharmacy", "name": "\u00c1rp\u00e1d Patika Fi\u00f3k Gy\u00f3gyszert\u00e1ra", "opening_hours": "Mo,Tu,We,Fr 09:00-14:00; Th 13:00-16:00", "phone": "+36 53 587 539"}}, {"type": "node", "id": 5236812664, "lat": 47.4307506, "lon": 19.3948386}, {"type": "node", "id": 5236812667, "lat": 47.4308483, "lon": 19.3949561}, {"type": "node", "id": 5268445490, "lat": 47.4007843, "lon": 19.6259391, "tags": {"addr:city": "T\u00e1pi\u00f3s\u00e1g", "addr:housenumber": "8", "addr:postcode": "2253", "addr:street": "Bicskei utca", "amenity": "pharmacy", "healthcare": "pharmacy", "opening_hours": "Mo,Tu,Th 08:00-16:00; We 08:00-18:00; Fr 08:00-15:00; PH off"}}, {"type": "node", "id": 5436346833, "lat": 47.3856896, "lon": 19.3449738}, {"type": "node", "id": 5436346834, "lat": 47.3857528, "lon": 19.3448456}, {"type": "node", "id": 5436346835, "lat": 47.385806, "lon": 19.3449028}, {"type": "node", "id": 5436346836, "lat": 47.3857986, "lon": 19.3449177}, {"type": "node", "id": 5436346837, "lat": 47.3858253, "lon": 19.3449465}, {"type": "node", "id": 5436346838, "lat": 47.3858146, "lon": 19.3449681}, {"type": "node", "id": 5436346839, "lat": 47.3859978, "lon": 19.3451652}, {"type": "node", "id": 5436346840, "lat": 47.3859526, "lon": 19.3452568}, {"type": "node", "id": 5441715932, "lat": 47.3846437, "lon": 19.3441445}, {"type": "node", "id": 5441715933, "lat": 47.3843412, "lon": 19.3445534}, {"type": "node", "id": 5441715934, "lat": 47.384262, "lon": 19.3444409}, {"type": "node", "id": 5441715935, "lat": 47.3843207, "lon": 19.3443597}, {"type": "node", "id": 5441715936, "lat": 47.3843351, "lon": 19.344383}, {"type": "node", "id": 5441715937, "lat": 47.3843529, "lon": 19.3443589}, {"type": "node", "id": 5441715938, "lat": 47.3843363, "lon": 19.3443321}, {"type": "node", "id": 5441715939, "lat": 47.3843768, "lon": 19.3442774}, {"type": "node", "id": 5441715940, "lat": 47.3844105, "lon": 19.3443318}, {"type": "node", "id": 5441715941, "lat": 47.3844428, "lon": 19.3442883}, {"type": "node", "id": 5441715942, "lat": 47.3844104, "lon": 19.3442361}, {"type": "node", "id": 5441715943, "lat": 47.3844754, "lon": 19.3441483}, {"type": "node", "id": 5441715944, "lat": 47.3845151, "lon": 19.3442123}, {"type": "node", "id": 5441715945, "lat": 47.384608, "lon": 19.3440868}, {"type": "node", "id": 5567745286, "lat": 47.3843271, "lon": 19.3445347, "tags": {"entrance": "main"}}, {"type": "node", "id": 5567745289, "lat": 47.3857382, "lon": 19.3448752, "tags": {"entrance": "main"}}, {"type": "node", "id": 5593940460, "lat": 47.5210156, "lon": 19.5522258}, {"type": "node", "id": 5593940461, "lat": 47.5209701, "lon": 19.5523413}, {"type": "node", "id": 5593940462, "lat": 47.5210914, "lon": 19.5524632}, {"type": "node", "id": 5593940463, "lat": 47.5210589, "lon": 19.552553}, {"type": "node", "id": 5593940464, "lat": 47.5211239, "lon": 19.5526364}, {"type": "node", "id": 5593940465, "lat": 47.521217, "lon": 19.5524279}, {"type": "node", "id": 6005570342, "lat": 47.4141222, "lon": 19.5233588, "tags": {"amenity": "pharmacy", "healthcare": "pharmacy"}}, {"type": "node", "id": 6385266088, "lat": 47.3859599, "lon": 19.3451247}, {"type": "node", "id": 6385266089, "lat": 47.3858136, "lon": 19.3449339}, {"type": "node", "id": 7197457593, "lat": 47.3621078, "lon": 19.8464209, "tags": {"amenity": "pharmacy", "healthcare": "pharmacy"}}, {"type": "node", "id": 8222524419, "lat": 47.1740545, "lon": 19.4963953, "tags": {"addr:city": "Pusztavacs", "addr:housenumber": "10", "addr:postcode": "2378", "addr:street": "B\u00e9ke t\u00e9r", "amenity": "pharmacy", "building": "yes", "contact:phone": "+36 29/315-101", "name": "Szent Istv\u00e1n Gy\u00f3gyszert\u00e1r", "opening_hours": "Mo-Th 11:00-14:00; We,Fr 10:00-12:30"}}, {"type": "node", "id": 8501212377, "lat": 47.4524695, "lon": 19.5244382}, {"type": "node", "id": 8501212378, "lat": 47.4525547, "lon": 19.5244414}, {"type": "node", "id": 8501212379, "lat": 47.4525541, "lon": 19.5244773}, {"type": "node", "id": 8501212380, "lat": 47.4527106, "lon": 19.5244833}, {"type": "node", "id": 8501212381, "lat": 47.4527084, "lon": 19.5246081}, {"type": "node", "id": 8501212382, "lat": 47.4526006, "lon": 19.524604}, {"type": "node", "id": 8501212383, "lat": 47.4525996, "lon": 19.5246615}, {"type": "node", "id": 8501212384, "lat": 47.4525061, "lon": 19.5246579}, {"type": "node", "id": 8501212385, "lat": 47.4525071, "lon": 19.5245977}, {"type": "node", "id": 8501212386, "lat": 47.4524848, "lon": 19.5245969}, {"type": "node", "id": 8501212387, "lat": 47.4524855, "lon": 19.5245532}, {"type": "node", "id": 8501212388, "lat": 47.4524675, "lon": 19.5245525}, {"type": "node", "id": 9025809164, "lat": 47.3857256, "lon": 19.3450126}, {"type": "node", "id": 9025809165, "lat": 47.3857027, "lon": 19.344988}, {"type": "node", "id": 9209247361, "lat": 47.3836642, "lon": 19.3402698, "tags": {"entrance": "main", "wheelchair": "yes"}}, {"type": "node", "id": 9209247362, "lat": 47.3836522, "lon": 19.3402955}, {"type": "node", "id": 9209247363, "lat": 47.3835415, "lon": 19.3401828}, {"type": "node", "id": 9209247364, "lat": 47.3836237, "lon": 19.3400064}, {"type": "node", "id": 9209247365, "lat": 47.3837345, "lon": 19.3401191}, {"type": "node", "id": 10657247128, "lat": 47.2976792, "lon": 19.4293655, "tags": {"amenity": "pharmacy", "name": "Fi\u00f3k gy\u00f3gyszert\u00e1r", "opening_hours": "Mo, Fr 08:00-12:00; Tu, Th 12:00-16:00; We 14:00-17:00"}}, {"type": "node", "id": 10864075184, "lat": 47.3892167, "lon": 19.4092646, "tags": {"amenity": "pharmacy", "name": "P\u00e9teri Fi\u00f3kgy\u00f3gyszert\u00e1r", "opening_hours": "Mo,We 08:00-13:00; Tu,Th 12:00-16:30; Fr 08:00-12:00", "wheelchair": "yes"}}, {"type": "node", "id": 10892094753, "lat": 47.451818, "lon": 19.5342445, "tags": {"addr:city": "S\u00fclys\u00e1p", "addr:housenumber": "12", "addr:postcode": "2241", "addr:street": "Szent Istv\u00e1n t\u00e9r", "amenity": "pharmacy", "contact:email": "aranypajzs@monornet.hu", "contact:phone": "+36 29 635 180;+36 29 435 033", "contact:website": "http://aranypajzs.weebly.com/;http://www.aranypajzssulysap.novodata.hu/", "description": "\u00fcgyelet 18:00-07:30", "name": "Aranypajzs Gy\u00f3gyszert\u00e1r", "opening_hours": "Mo-Fr 07:30-18:00; Sa-Su 09:00-12:00"}}, {"type": "node", "id": 11681013622, "lat": 47.2938555, "lon": 19.8408105}, {"type": "node", "id": 11681013623, "lat": 47.2937564, "lon": 19.8406987}, {"type": "node", "id": 11681013624, "lat": 47.2936883, "lon": 19.8408306}, {"type": "node", "id": 11681013625, "lat": 47.2937875, "lon": 19.8409424}, {"type": "node", "id": 12500461836, "lat": 47.3243519, "lon": 19.4029954, "tags": {"addr:city": "Vasad", "addr:housenumber": "65", "addr:postcode": "2211", "addr:street": "Kossuth Lajos utca", "amenity": "pharmacy", "contact:website": "https://vasad.asp.lgov.hu/gyogyszertarak", "name": "Fi\u00f3k gy\u00f3gyszert\u00e1r", "opening_hours": "Mo 12:30-16:00; Tu, Th 08:00-12:00; We 09:00-13:30; Fr 12:15-14:00", "operator": "\u00cdris gy\u00f3gyszert\u00e1r Monorierd\u0151"}}, {"type": "node", "id": 12518202460, "lat": 47.1151791, "lon": 19.6958226}, {"type": "node", "id": 12518202461, "lat": 47.1151273, "lon": 19.695963}, {"type": "node", "id": 12518202462, "lat": 47.1152522, "lon": 19.6960624}, {"type": "node", "id": 12518202463, "lat": 47.115304, "lon": 19.695922}, {"type": "node", "id": 12592857643, "lat": 47.4307013, "lon": 19.3949284}, {"type": "node", "id": 12592857644, "lat": 47.430799, "lon": 19.3950458}, {"type": "node", "id": 12739442609, "lat": 47.4260236, "lon": 19.3869015, "tags": {"addr:city": "Gy\u00f6mr\u0151", "addr:housenumber": "1", "addr:postcode": "2230", "addr:street": "Simon Mih\u00e1ly t\u00e9r", "amenity": "pharmacy", "brand": "Teva", "name": "Humanit\u00e1s patika"}}, {"type": "node", "id": 12757207664, "lat": 47.4210572, "lon": 19.3917744, "tags": {"amenity": "pharmacy", "brand": "Teva", "name": "Kehely patika", "opening_hours": "Mo-Fr 08:00-19:00; Sa 08:00-13:00"}}, {"type": "way", "id": 313831672, "nodes": [3198645244, 3198661683, 3198661682, 3198661684, 3198645244], "tags": {"amenity": "pharmacy", "building": "yes", "name": "Halmi Telepi Patika"}}, {"type": "way", "id": 321719102, "nodes": [3284840552, 3284840528, 3284840500, 3284840523, 3284840552], "tags": {"addr:city": "Monor", "addr:housenumber": "26", "addr:postcode": "2200", "addr:street": "Pet\u0151fi S\u00e1ndor utca", "amenity": "pharmacy", "brand": "Alma Gy\u00f3gyszert\u00e1r", "brand:website": "https://almapatika.hu", "brand:wikidata": "Q105626221", "building": "yes", "contact:phone": "+36 29 413 881", "healthcare": "pharmacy", "name": "Vir\u00e1g utcai patika", "opening_hours": "Mo-Fr 08:00-17:00", "operator": "Vir\u00e1g utcai Patika Kft."}}, {"type": "way", "id": 324441615, "nodes": [4378023467, 3311665729, 3311665728, 3311665731, 4378023468, 4378023462, 4378023442, 4378023455, 4378023467], "tags": {"addr:city": "T\u00e1pi\u00f3bicske", "addr:housenumber": "102", "addr:postcode": "2764", "addr:street": "R\u00e1k\u00f3czi \u00fat", "amenity": "pharmacy", "building": "yes", "dispensing": "yes", "healthcare": "pharmacy", "name": "Kehely Gy\u00f3gyszert\u00e1r", "opening_hours": "Mo,Tu,We,Fr 08:00-12:00; Th 12:00-16:00", "operator": "Kehely Patika Kft.", "payment:coins": "yes", "payment:girocard": "yes", "payment:notes": "yes", "phone": "+36 29 421 479", "source": "F\u00d6MI ortophoto 2005", "wheelchair": "yes"}}, {"type": "way", "id": 327555729, "nodes": [3343597923, 3343597924, 3343597925, 3343597926, 3343597923], "tags": {"addr:city": "Albertirsa", "addr:housenumber": "36", "addr:postcode": "2730", "addr:street": "Somogyi B\u00e9la utca", "amenity": "pharmacy", "building": "yes", "healthcare": "pharmacy", "name": "IRSA Gy\u00f3gyszert\u00e1r", "phone": "+36 53 371 645"}}, {"type": "way", "id": 327556910, "nodes": [3343602122, 3343602123, 3343602124, 3343602125, 3347364065, 3343602122], "tags": {"addr:city": "Albertirsa", "addr:housenumber": "26", "addr:postcode": "2730", "addr:street": "D\u00f3zsa Gy\u00f6rgy utca", "amenity": "pharmacy", "building": "yes", "healthcare": "pharmacy", "name": "Irm\u00e1k Gy\u00f3gyszert\u00e1r", "phone": "+36 53 571 118"}}, {"type": "way", "id": 327557890, "nodes": [3343609217, 3343609218, 3343609219, 3343609220, 3343609217], "tags": {"addr:city": "Albertirsa", "addr:housenumber": "4", "addr:postcode": "2730", "addr:street": "Vas\u00fat utca", "amenity": "pharmacy", "building": "yes", "name": "Rem\u00e9ny Gy\u00f3gyszert\u00e1r", "phone": "+36 53 370 070", "wheelchair": "yes"}}, {"type": "way", "id": 400780953, "nodes": [4032937828, 4032937831, 4032937832, 4032937830, 4032937828], "tags": {"amenity": "pharmacy", "building": "yes", "healthcare": "pharmacy", "name": "Iris gy\u00f3gyszert\u00e1r"}}, {"type": "way", "id": 402317604, "nodes": [4047313343, 4047313340, 4047313339, 4047313341, 4047313343], "tags": {"amenity": "pharmacy", "building": "yes", "healthcare": "pharmacy", "name": "Felszegi patika", "source": "F\u0150MI Ortofot\u00f3 2005"}}, {"type": "way", "id": 541581790, "nodes": [5236812664, 12592857643, 12592857644, 5236812667, 5236812664], "tags": {"addr:city": "Gy\u00f6mr\u0151", "addr:housenumber": "4", "addr:postcode": "2230", "addr:street": "Erzs\u00e9bet utca", "amenity": "pharmacy", "building": "yes", "healthcare": "pharmacy", "name": "Szent Erzs\u00e9bet Gy\u00f3gyszert\u00e1r", "opening_hours": "Mo-Fr 08:00-19:00; Sa 08:00-12:00"}}, {"type": "way", "id": 564156665, "nodes": [5436346833, 5567745289, 5436346834, 5436346835, 5436346836, 6385266089, 5436346837, 5436346838, 6385266088, 5436346839, 5436346840, 9025809164, 9025809165, 5436346833], "tags": {"addr:city": "\u00dcll\u0151", "addr:housenumber": "100", "addr:postcode": "2225", "addr:street": "Pesti \u00fat", "amenity": "pharmacy", "building": "yes", "building:levels": "2", "healthcare": "pharmacy", "name": "Csillag Gy\u00f3gyszert\u00e1r", "opening_hours": "Mo-Fr 08:00-18:00, Sa 08:00-12:30"}}, {"type": "way", "id": 564887399, "nodes": [5441715932, 5441715933, 5567745286, 5441715934, 5441715935, 5441715936, 5441715937, 5441715938, 5441715939, 5441715940, 5441715941, 5441715942, 5441715943, 5441715944, 5441715945, 5441715932], "tags": {"addr:city": "\u00dcll\u0151", "addr:housenumber": "4", "addr:postcode": "2225", "addr:street": "\u00d3csai \u00fat", "amenity": "pharmacy", "building": "yes", "drive_through": "no", "healthcare": "pharmacy", "name": "Szent Benedek Patika"}}, {"type": "way", "id": 585340308, "nodes": [5593940460, 5593940461, 5593940462, 5593940463, 5593940464, 5593940465, 5593940460], "tags": {"amenity": "pharmacy", "building": "yes", "dispensing": "yes", "healthcare": "pharmacy"}}, {"type": "way", "id": 915180642, "nodes": [8501212377, 8501212378, 8501212379, 8501212380, 8501212381, 8501212382, 8501212383, 8501212384, 8501212385, 8501212386, 8501212387, 8501212388, 8501212377], "tags": {"addr:city": "S\u00fclys\u00e1p", "addr:housenumber": "26", "addr:postcode": "2241", "addr:street": "Vas\u00fat utca", "amenity": "pharmacy", "brand": "Gy\u00f6ngy patik\u00e1k", "building": "yes", "contact:email": "levendulapatika@gmail.com", "contact:phone": "+36 29 436 005", "contact:website": "http://aranypajzs.weebly.com/;http://www.aranypajzssulysap.novodata.hu/", "dispensing": "yes", "healthcare": "pharmacy", "internet_access:ssid": "Levendula Wifi;Levendula Patika Wifi", "name": "Levendula Gy\u00f3gyszert\u00e1r", "opening_hours": "Mo-Fr 08:00-18:00; Sa 08:00-12:00"}}, {"type": "way", "id": 997354317, "nodes": [9209247365, 9209247361, 9209247362, 9209247363, 9209247364, 9209247365], "tags": {"addr:city": "\u00dcll\u0151", "addr:housenumber": "11", "addr:postcode": "2225", "addr:street": "Faiskola utca", "amenity": "pharmacy", "building": "yes", "healthcare": "pharmacy", "name": "Szent Ilona Patika", "operator": "Szent Ilona Patika Bt."}}, {"type": "way", "id": 1256481478, "nodes": [11681013622, 11681013623, 11681013624, 11681013625, 11681013622], "tags": {"addr:city": "T\u00e1pi\u00f3sz\u0151l\u0151s", "addr:housenumber": "9", "addr:postcode": "2769", "addr:street": "\u00c1rp\u00e1d utca", "amenity": "pharmacy", "building": "yes", "healthcare": "pharmacy", "name": "Gy\u00f3gyszert\u00e1r", "operator": "Gy\u00f6ngy Patik\u00e1k"}}, {"type": "way", "id": 1352904245, "nodes": [12518202460, 12518202461, 12518202462, 12518202463, 12518202460], "tags": {"addr:city": "Csem\u0151", "addr:housenumber": "28", "addr:postcode": "2713", "addr:street": "Szent Istv\u00e1n \u00fat", "amenity": "pharmacy", "building": "yes", "contact:email": "csengegyogyszertar@gmail.com", "contact:facebook": "csengegyogyszertar", "contact:phone": "+36 53 592 016", "dispensing": "yes", "drive_through": "no", "healthcare": "pharmacy", "name": "Csenge Gy\u00f3gyszert\u00e1r", "opening_hours": "Mo-Tu 09:00-17:00; We 08:00-16:00; Th 09:00-17:00; Fr 08:00-16:00", "wheelchair": "yes"}}]}