{"version": 0.6, "generator": "Overpass API 0.7.62.8 e802775f", "osm3s": {"timestamp_osm_base": "2025-10-06T08:04:48Z", "copyright": "The data included in this document is from www.openstreetmap.org. The data is made available under ODbL."}, "elements": [{"type": "node", "id": 1048370665, "lat": 44.018067, "lon": 20.9129374, "tags": {"amenity": "pharmacy", "int_name": "Luj Paster", "name": "\u041b\u0443\u0458 \u041f\u0430\u0441\u0442\u0435\u0440", "name:sr": "\u041b\u0443\u0458 \u041f\u0430\u0441\u0442\u0435\u0440", "name:sr-Latn": "Luj Paster"}}, {"type": "node", "id": 1048372053, "lat": 44.0116689, "lon": 20.8945222, "tags": {"amenity": "pharmacy", "int_name": "Kolonija", "name": "\u041a\u043e\u043b\u043e\u043d\u0438\u0458\u0430", "name:sr": "\u041a\u043e\u043b\u043e\u043d\u0438\u0458\u0430", "name:sr-Latn": "Kolonija"}}, {"type": "node", "id": 1108852221, "lat": 44.0277101, "lon": 20.9191781}, {"type": "node", "id": 1108852250, "lat": 44.0274102, "lon": 20.9199548}, {"type": "node", "id": 1108852378, "lat": 44.0277509, "lon": 20.9202145}, {"type": "node", "id": 1108852409, "lat": 44.0280587, "lon": 20.9194494}, {"type": "node", "id": 1288480635, "lat": 44.0131282, "lon": 20.9137694, "tags": {"amenity": "pharmacy", "healthcare": "pharmacy", "int_name": "Lek", "name": "\u041b\u0435\u043a", "name:sr": "\u041b\u0435\u043a", "name:sr-Latn": "Lek"}}, {"type": "node", "id": 1500122650, "lat": 44.0186126, "lon": 20.9160696, "tags": {"addr:city": "\u041a\u0440\u0430\u0433\u0443\u0458\u0435\u0432\u0430\u0446", "addr:country": "RS", "addr:housenumber": "4", "addr:postcode": "34000", "addr:street": "\u0426\u0440\u0432\u0435\u043d\u043e\u0433 \u043a\u0440\u0441\u0442\u0430", "alt_name": "\u0414\u0440\u0436\u0430\u0432\u043d\u0430 \u0430\u043f\u043e\u0442\u0435\u043a\u0430", "alt_name:sr": "\u0414\u0440\u0436\u0430\u0432\u043d\u0430 \u0430\u043f\u043e\u0442\u0435\u043a\u0430", "alt_name:sr-Latn": "Dr\u017eavna apoteka", "amenity": "pharmacy", "dispensing": "yes", "email": "bubanj@apotekakg.rs", "healthcare": "pharmacy", "int_name": "Bubanj", "medical_supply": "yes", "name": "\u0411\u0443\u0431\u0430\u045a", "name:sr": "\u0411\u0443\u0431\u0430\u045a", "name:sr-Latn": "Bubanj", "opening_hours": "Mo-Fr 07:00-20:00; Sa 07:00-14:00", "operator": "\u0410\u043f\u043e\u0442\u0435\u043a\u0430\u0440\u0441\u043a\u0430 \u0443\u0441\u0442\u0430\u043d\u043e\u0432\u0430 \u041a\u0440\u0430\u0433\u0443\u0458\u0435\u0432\u0430\u0446", "operator:type": "government", "phone": "+381346371639;+38134300038", "website": "https://www.apotekakg.rs/"}}, {"type": "node", "id": 2697448493, "lat": 43.9788542, "lon": 21.2607903, "tags": {"addr:city": "\u0408\u0430\u0433\u043e\u0434\u0438\u043d\u0430", "addr:postcode": "35000", "addr:street": "\u041a\u043d\u0435\u0433\u0438\u045a\u0435 \u041c\u0438\u043b\u0438\u0446\u0435", "amenity": "pharmacy", "emergency": "yes", "healthcare": "pharmacy", "int_name": "Arnika", "name": "\u0410\u0440\u043d\u0438\u043a\u0430", "name:sr": "\u0410\u0440\u043d\u0438\u043a\u0430", "name:sr-Latn": "Arnika", "phone": "+381-35-8852544", "wheelchair": "yes"}}, {"type": "node", "id": 2827084504, "lat": 43.9817494, "lon": 21.2704302, "tags": {"amenity": "pharmacy", "healthcare": "pharmacy"}}, {"type": "node", "id": 4008241450, "lat": 44.2334324, "lon": 21.1941513, "tags": {"amenity": "pharmacy", "healthcare": "pharmacy"}}, {"type": "node", "id": 5846122975, "lat": 44.0275966, "lon": 20.9121096, "tags": {"amenity": "pharmacy", "dispensing": "yes", "healthcare": "pharmacy"}}, {"type": "node", "id": 5846122976, "lat": 44.028363, "lon": 20.9107029, "tags": {"amenity": "pharmacy", "brand": "Lilly", "brand:wikidata": "Q111764460", "dispensing": "yes", "drive_through": "no", "healthcare": "pharmacy", "int_name": "Lili", "name": "Lilly", "name:en": "Lilly", "name:sr": "\u041b\u0438\u043b\u0438", "name:sr-Latn": "Lili", "shop": "chemist"}}, {"type": "node", "id": 5923921369, "lat": 44.1982883, "lon": 21.2427322, "tags": {"amenity": "pharmacy", "dispensing": "yes", "healthcare": "pharmacy"}}, {"type": "node", "id": 6304735895, "lat": 44.0089345, "lon": 20.8969855}, {"type": "node", "id": 6412226677, "lat": 44.2331266, "lon": 21.1943396, "tags": {"amenity": "pharmacy", "dispensing": "yes", "healthcare": "pharmacy", "name": "Viva"}}, {"type": "node", "id": 6496447614, "lat": 44.0242791, "lon": 20.9267717, "tags": {"amenity": "pharmacy", "brand": "Benu", "brand:wikidata": "Q62562792", "dispensing": "no", "drive_through": "no", "healthcare": "pharmacy", "name": "Benu", "name:en": "Benu", "name:sr": "\u0411\u0435\u043d\u0443", "name:sr-Latn": "Benu"}}, {"type": "node", "id": 6796945690, "lat": 44.0148965, "lon": 20.9227938, "tags": {"amenity": "pharmacy", "name": "Benu"}}, {"type": "node", "id": 6796947289, "lat": 44.0112636, "lon": 20.9252122, "tags": {"amenity": "pharmacy"}}, {"type": "node", "id": 6799089594, "lat": 44.0281363, "lon": 20.9049724, "tags": {"amenity": "pharmacy", "drive_through": "no", "healthcare": "pharmacy", "name": "\u041d\u0430\u043d\u0430", "name:en": "Nana", "name:hr": "Nana", "name:sr": "\u041d\u0430\u043d\u0430", "name:sr-Latn": "Nana"}}, {"type": "node", "id": 6799089622, "lat": 44.010387, "lon": 20.9152803, "tags": {"amenity": "pharmacy", "healthcare": "pharmacy"}}, {"type": "node", "id": 6799097509, "lat": 44.0063733, "lon": 20.9060326, "tags": {"amenity": "pharmacy"}}, {"type": "node", "id": 6799097796, "lat": 44.0067245, "lon": 20.906306, "tags": {"amenity": "pharmacy", "name": "Benu"}}, {"type": "node", "id": 6799097885, "lat": 44.0275487, "lon": 20.9127479, "tags": {"amenity": "pharmacy", "healthcare": "pharmacy"}}, {"type": "node", "id": 6801882611, "lat": 44.0102713, "lon": 20.9150354, "tags": {"amenity": "pharmacy", "healthcare": "pharmacy", "name": "Benu"}}, {"type": "node", "id": 6801969885, "lat": 44.0096274, "lon": 20.9141015, "tags": {"amenity": "pharmacy", "healthcare": "pharmacy"}}, {"type": "node", "id": 6802142585, "lat": 44.0128343, "lon": 20.9182103, "tags": {"amenity": "pharmacy", "brand": "Benu", "brand:wikidata": "Q62562792", "healthcare": "pharmacy", "name": "Benu"}}, {"type": "node", "id": 6802718702, "lat": 44.016908, "lon": 20.9189916, "tags": {"amenity": "pharmacy", "healthcare": "pharmacy"}}, {"type": "node", "id": 6802718715, "lat": 44.0140233, "lon": 20.9159781, "tags": {"amenity": "pharmacy", "name": "Dr Max"}}, {"type": "node", "id": 6802718722, "lat": 44.0198444, "lon": 20.9128545, "tags": {"amenity": "pharmacy", "name": "Zegin"}}, {"type": "node", "id": 6802718991, "lat": 44.0093839, "lon": 20.9220556, "tags": {"amenity": "pharmacy", "name": "Betty"}}, {"type": "node", "id": 6802718993, "lat": 44.0111583, "lon": 20.9250264, "tags": {"amenity": "pharmacy", "healthcare": "pharmacy", "name": "\u041d\u0430\u043d\u0430", "name:en": "Nana", "name:sr": "\u041d\u0430\u043d\u0430", "name:sr-Latn": "Nana"}}, {"type": "node", "id": 6802718996, "lat": 44.017039, "lon": 20.9188503, "tags": {"amenity": "pharmacy", "brand": "Dr. Max", "brand:wikidata": "Q56317371", "healthcare": "pharmacy", "name": "Dr. Max"}}, {"type": "node", "id": 6802719004, "lat": 44.0143888, "lon": 20.9164814, "tags": {"amenity": "pharmacy"}}, {"type": "node", "id": 6802719011, "lat": 44.0182988, "lon": 20.9133926, "tags": {"amenity": "pharmacy", "brand": "Benu", "brand:wikidata": "Q62562792", "healthcare": "pharmacy", "name": "Benu"}}, {"type": "node", "id": 6802783491, "lat": 44.0142628, "lon": 20.9162394, "tags": {"addr:city": "\u041a\u0440\u0430\u0433\u0443\u0458\u0435\u0432\u0430\u0446", "addr:country": "RS", "addr:housenumber": "36", "addr:postcode": "34000", "addr:street": "\u0421\u0432\u0435\u0442\u043e\u0437\u0430\u0440\u0430 \u041c\u0430\u0440\u043a\u043e\u0432\u0438\u045b\u0430", "amenity": "pharmacy", "dispensing": "yes", "email": "sumadija@apotekakg.rs", "healthcare": "pharmacy", "int_name": "Sumadija", "medical_supply": "yes", "name": "\u0428\u0443\u043c\u0430\u0434\u0438\u0458\u0430", "name:sr": "\u0428\u0443\u043c\u0430\u0434\u0438\u0458\u0430", "name:sr-Latn": "\u0160umadija", "opening_hours": "Mo-Fr 07:00-20:00; Sa 07:00-14:00", "operator": "\u0410\u043f\u043e\u0442\u0435\u043a\u0430\u0440\u0441\u043a\u0430 \u0443\u0441\u0442\u0430\u043d\u043e\u0432\u0430 \u041a\u0440\u0430\u0433\u0443\u0458\u0435\u0432\u0430\u0446", "operator:type": "government", "phone": "+38134332871", "ref:RS:kucni_broj": "3733822", "website": "https://www.apotekakg.rs/"}}, {"type": "node", "id": 6802783687, "lat": 44.015568, "lon": 20.9173515, "tags": {"amenity": "pharmacy", "name": "Plus"}}, {"type": "node", "id": 6802783688, "lat": 44.0200037, "lon": 20.913056, "tags": {"amenity": "pharmacy", "name": "Vitanova"}}, {"type": "node", "id": 6805677787, "lat": 44.0105061, "lon": 20.9202287, "tags": {"amenity": "pharmacy"}}, {"type": "node", "id": 6805688386, "lat": 44.0128444, "lon": 20.9212845, "tags": {"amenity": "pharmacy", "healthcare": "pharmacy"}}, {"type": "node", "id": 6805691596, "lat": 43.9339323, "lon": 21.3723837, "tags": {"amenity": "pharmacy", "healthcare": "pharmacy", "name": "Nar"}}, {"type": "node", "id": 7045814285, "lat": 44.0182429, "lon": 20.9158452, "tags": {"addr:housenumber": "43", "addr:postcode": "34000", "addr:street": "\u0417\u043c\u0430\u0458 \u0408\u043e\u0432\u0438\u043d\u0430", "amenity": "pharmacy", "email": "etera@mts.rs", "healthcare": "pharmacy", "name": "\u0415\u0442\u0435\u0440\u0430", "name:en": "Etera", "opening_hours": "Mo-Sa 07:00-21:00; Su 09:00-18:00", "phone": "+381346375777", "ref:RS:kucni_broj": "3733489"}}, {"type": "node", "id": 8273693947, "lat": 44.0126504, "lon": 20.8977055, "tags": {"amenity": "pharmacy", "healthcare": "pharmacy", "name": "Higija", "name:en": "Hygieia"}}, {"type": "node", "id": 8273693949, "lat": 44.0129415, "lon": 20.8972674, "tags": {"amenity": "pharmacy", "healthcare": "pharmacy", "int_name": "Zdravlje Lek", "name": "\u0417\u0434\u0440\u0430\u0432\u0459\u0435 \u041b\u0435\u043a"}}, {"type": "node", "id": 8273693953, "lat": 44.012581, "lon": 20.8983152, "tags": {"amenity": "pharmacy", "brand": "\u041a\u0440\u0448\u0435\u043d\u043a\u043e\u0432\u0438\u045b", "brand:wikidata": "Q132782214", "healthcare": "pharmacy", "name": "\u041a\u0440\u0448\u0435\u043d\u043a\u043e\u0432\u0438\u045b", "name:en": "Kr\u0161enkovi\u0107", "name:sr": "\u041a\u0440\u0448\u0435\u043d\u043a\u043e\u0432\u0438\u045b", "name:sr-Latn": "Kr\u0161enkovi\u0107"}}, {"type": "node", "id": 8273693958, "lat": 44.0126879, "lon": 20.8969508, "tags": {"amenity": "pharmacy", "brand": "Benu", "brand:wikidata": "Q62562792", "healthcare": "pharmacy", "int_name": "Benu", "name": "\u0411\u0435\u043d\u0443"}}, {"type": "node", "id": 8901785240, "lat": 44.1831834, "lon": 21.1050722}, {"type": "node", "id": 8901785241, "lat": 44.1831053, "lon": 21.1049695}, {"type": "node", "id": 8901785242, "lat": 44.1829293, "lon": 21.10523}, {"type": "node", "id": 8901785243, "lat": 44.1829527, "lon": 21.1052607}, {"type": "node", "id": 8901785244, "lat": 44.1829289, "lon": 21.105296}, {"type": "node", "id": 8901785245, "lat": 44.1829836, "lon": 21.1053679}, {"type": "node", "id": 8901785246, "lat": 44.1829933, "lon": 21.1051334}, {"type": "node", "id": 8901785253, "lat": 44.182957, "lon": 21.1051908}, {"type": "node", "id": 9475498706, "lat": 43.9783052, "lon": 21.2605238, "tags": {"addr:country": "RS", "addr:housenumber": "1", "addr:postcode": "35000", "addr:street": "\u041d\u0438\u043a\u0447\u0435\u0432\u0438\u045b\u0435\u0432\u0430", "alt_name": "\u0413\u0440\u0430\u0434\u0441\u043a\u0430 \u0430\u043f\u043e\u0442\u0435\u043a\u0430", "alt_name:sr-Latn": "Gradska apoteka", "amenity": "pharmacy", "dispensing": "yes", "healthcare": "pharmacy", "int_name": "Jagodina", "medical_supply": "yes", "name": "\u0408\u0430\u0433\u043e\u0434\u0438\u043d\u0430", "name:sr": "\u0408\u0430\u0433\u043e\u0434\u0438\u043d\u0430", "name:sr-Latn": "Jagodina", "opening_hours": "Mo-Fr 07:00-24:00; Sa-Su 07:00-24:00", "operator": "\u0417\u0434\u0440\u0430\u0432\u0441\u0442\u0432\u0435\u043d\u0430 \u0443\u0441\u0442\u0430\u043d\u043e\u0432\u0430 \u0410\u043f\u043e\u0442\u0435\u043a\u0430 \u0408\u0430\u0433\u043e\u0434\u0438\u043d\u0430", "operator:type": "government", "phone": "+381358221477", "ref:RS:kucni_broj": "4036676", "website": "www.apotekajagodina.rs", "wheelchair": "yes"}}, {"type": "node", "id": 9475498707, "lat": 43.978377, "lon": 21.2564354, "tags": {"addr:city": "\u0408\u0430\u0433\u043e\u0434\u0438\u043d\u0430", "addr:country": "RS", "addr:housenumber": "4", "addr:postcode": "35000", "addr:street": "\u041a\u0430\u0440\u0430\u0452\u043e\u0440\u0452\u0435\u0432\u0430", "alt_name": "\u0413\u0440\u0430\u0434\u0441\u043a\u0430 \u0430\u043f\u043e\u0442\u0435\u043a\u0430", "alt_name:sr-Latn": "Gradska apoteka", "amenity": "pharmacy", "dispensing": "yes", "healthcare": "pharmacy", "int_name": "Dom zdravlja", "medical_supply": "yes", "name": "\u0414\u043e\u043c \u0437\u0434\u0440\u0430\u0432\u0459\u0430", "name:sr": "\u0414\u043e\u043c \u0437\u0434\u0440\u0430\u0432\u0459\u0430", "name:sr-Latn": "Dom zdravlja", "opening_hours": "Mo-Fr 07:00-24:00; Sa-Su 07:00-24:00", "operator": "\u0417\u0434\u0440\u0430\u0432\u0441\u0442\u0432\u0435\u043d\u0430 \u0443\u0441\u0442\u0430\u043d\u043e\u0432\u0430 \u0410\u043f\u043e\u0442\u0435\u043a\u0430 \u0408\u0430\u0433\u043e\u0434\u0438\u043d\u0430", "operator:type": "government", "phone": "+381358221477", "website": "www.apotekajagodina.rs", "wheelchair": "yes"}}, {"type": "node", "id": 9476134770, "lat": 43.9802314, "lon": 21.2589164, "tags": {"addr:country": "RS", "addr:housenumber": "1", "addr:postcode": "35000", "addr:street": "\u041c\u0430\u043a\u0441\u0438\u043c\u0430 \u0413\u043e\u0440\u043a\u043e\u0433", "alt_name": "\u0413\u0440\u0430\u0434\u0441\u043a\u0430 \u0430\u043f\u043e\u0442\u0435\u043a\u0430 \u0431\u0440\u043e\u0458 2", "alt_name:sr-Latn": "Gradska apoteka broj 2", "amenity": "pharmacy", "dispensing": "yes", "healthcare": "pharmacy", "int_name": "Jagodina", "medical_supply": "yes", "name": "\u0408\u0430\u0433\u043e\u0434\u0438\u043d\u0430", "name:sr": "\u0408\u0430\u0433\u043e\u0434\u0438\u043d\u0430", "name:sr-Latn": "Jagodina", "opening_hours": "Mo-Fr 07:00-24:00; Sa-Su 07:00-24:00", "operator": "\u0417\u0434\u0440\u0430\u0432\u0441\u0442\u0432\u0435\u043d\u0430 \u0443\u0441\u0442\u0430\u043d\u043e\u0432\u0430 \u0410\u043f\u043e\u0442\u0435\u043a\u0430 \u0408\u0430\u0433\u043e\u0434\u0438\u043d\u0430", "operator:type": "government", "phone": "+381358221477", "ref:RS:kucni_broj": "4037180", "website": "www.apotekajagodina.rs", "wheelchair": "yes"}}, {"type": "node", "id": 9476169396, "lat": 43.9869379, "lon": 21.2470537, "tags": {"addr:city": "\u0408\u0430\u0433\u043e\u0434\u0438\u043d\u0430", "addr:country": "RS", "addr:housenumber": "\u0431\u0431", "addr:postcode": "35000", "addr:street": "\u0411\u0430\u0433\u0440\u0434\u0430\u043d\u0441\u043a\u0430", "alt_name": "\u0415\u043b\u043c\u043e\u0441", "alt_name:sr-Latn": "Elmos", "amenity": "pharmacy", "dispensing": "yes", "healthcare": "pharmacy", "int_name": "Jagodina", "medical_supply": "yes", "name": "\u0408\u0430\u0433\u043e\u0434\u0438\u043d\u0430", "name:sr": "\u0408\u0430\u0433\u043e\u0434\u0438\u043d\u0430", "name:sr-Latn": "Jagodina", "opening_hours": "Mo-Fr 07:00-24:00; Sa-Su 07:00-24:00", "operator": "\u0417\u0434\u0440\u0430\u0432\u0441\u0442\u0432\u0435\u043d\u0430 \u0443\u0441\u0442\u0430\u043d\u043e\u0432\u0430 \u0410\u043f\u043e\u0442\u0435\u043a\u0430 \u0408\u0430\u0433\u043e\u0434\u0438\u043d\u0430", "operator:type": "government", "phone": "+381358221477", "website": "www.apotekajagodina.rs", "wheelchair": "yes"}}, {"type": "node", "id": 9516447814, "lat": 44.0118296, "lon": 20.9133352, "tags": {"alt_name": "\u041f\u0440\u0432\u0438 \u043c\u0430\u0458", "alt_name:sr": "\u041f\u0440\u0432\u0438 \u043c\u0430\u0458", "alt_name:sr-Latn": "Prvi maj", "amenity": "pharmacy", "dispensing": "yes", "email": "1.maj@apotekakg.rs", "healthcare": "pharmacy", "int_name": "1. maj", "medical_supply": "yes", "name": "1. \u043c\u0430\u0458", "name:sr": "1. \u043c\u0430\u0458", "name:sr-Latn": "1. maj", "opening_hours": "Mo-Fr 07:00-20:00; Sa 07:00-20:00; Su 07:00-20:00", "operator": "\u0410\u043f\u043e\u0442\u0435\u043a\u0430\u0440\u0441\u043a\u0430 \u0443\u0441\u0442\u0430\u043d\u043e\u0432\u0430 \u041a\u0440\u0430\u0433\u0443\u0458\u0435\u0432\u0430\u0446", "operator:type": "government", "phone": "+38134332917", "website": "https://www.apotekakg.rs/"}}, {"type": "node", "id": 9516648194, "lat": 44.0059675, "lon": 20.9029832, "tags": {"addr:city": "\u041a\u0440\u0430\u0433\u0443\u0458\u0435\u0432\u0430\u0446", "addr:country": "RS", "addr:housenumber": "2", "addr:postcode": "34000", "addr:street": "\u0420\u0430\u0442\u0438\u043d\u0447\u0435\u0432\u0430", "amenity": "pharmacy", "dispensing": "yes", "email": "palilula@apotekakg.rs", "healthcare": "pharmacy", "int_name": "Palilula", "medical_supply": "yes", "name": "\u041f\u0430\u043b\u0438\u043b\u0443\u043b\u0430", "name:sr": "\u041f\u0430\u043b\u0438\u043b\u0443\u043b\u0430", "name:sr-Latn": "Palilula", "opening_hours": "Mo-Fr 07:00-20:00; Sa 07:00-14:00", "operator": "\u0410\u043f\u043e\u0442\u0435\u043a\u0430\u0440\u0441\u043a\u0430 \u0443\u0441\u0442\u0430\u043d\u043e\u0432\u0430 \u041a\u0440\u0430\u0433\u0443\u0458\u0435\u0432\u0430\u0446", "operator:type": "government", "phone": "+38134332355", "website": "https://www.apotekakg.rs/"}}, {"type": "node", "id": 9516713970, "lat": 44.0296652, "lon": 20.9109011, "tags": {"addr:city": "\u041a\u0440\u0430\u0433\u0443\u0458\u0435\u0432\u0430\u0446", "addr:country": "RS", "addr:postcode": "34000", "addr:street": "\u0421\u0432\u0435\u0442\u043e\u0433\u043e\u0440\u0441\u043a\u0430", "amenity": "pharmacy", "dispensing": "yes", "email": "avala@apotekakg.rs", "healthcare": "pharmacy", "int_name": "Avala", "medical_supply": "yes", "name": "\u0410\u0432\u0430\u043b\u0430", "name:sr": "\u0410\u0432\u0430\u043b\u0430", "name:sr-Latn": "Apoteka Avala", "opening_hours": "Mo-Fr 07:00-20:00; Sa 07:00-20:00; Su 08:00-14:00", "operator": "\u0410\u043f\u043e\u0442\u0435\u043a\u0430\u0440\u0441\u043a\u0430 \u0443\u0441\u0442\u0430\u043d\u043e\u0432\u0430 \u041a\u0440\u0430\u0433\u0443\u0458\u0435\u0432\u0430\u0446", "operator:type": "government", "phone": "+38134370057", "website": "https://www.apotekakg.rs/"}}, {"type": "node", "id": 9534459113, "lat": 43.9996113, "lon": 20.8845377, "tags": {"addr:city": "\u041a\u0440\u0430\u0433\u0443\u0458\u0435\u0432\u0430\u0446", "addr:country": "RS", "addr:housenumber": "1", "addr:postcode": "34000", "addr:street": "\u041a\u0440\u0430\u0459\u0430 \u041c\u0438\u043b\u0443\u0442\u0438\u043d\u0430", "amenity": "pharmacy", "dispensing": "yes", "email": "stanovo@apotekakg.rs", "healthcare": "pharmacy", "int_name": "Stanovo", "medical_supply": "yes", "name": "\u0421\u0442\u0430\u043d\u043e\u0432\u043e", "name:sr": "\u0421\u0442\u0430\u043d\u043e\u0432\u043e", "name:sr-Latn": "Stanovo", "opening_hours": "Mo-Fr 07:00-20:00; Sa 07:00-20:00; Su 08:00-12:00", "operator": "\u0410\u043f\u043e\u0442\u0435\u043a\u0430\u0440\u0441\u043a\u0430 \u0443\u0441\u0442\u0430\u043d\u043e\u0432\u0430 \u041a\u0440\u0430\u0433\u0443\u0458\u0435\u0432\u0430\u0446", "operator:type": "government", "phone": "+38134323068", "website": "https://www.apotekakg.rs/"}}, {"type": "node", "id": 9534484414, "lat": 44.0196461, "lon": 20.9089431, "tags": {"addr:city": "\u041a\u0440\u0430\u0433\u0443\u0458\u0435\u0432\u0430\u0446", "addr:country": "RS", "addr:housenumber": "6", "addr:postcode": "34000", "addr:street": "\u0420\u0430\u0434\u043e\u0458\u0430 \u0414\u043e\u043c\u0430\u043d\u043e\u0432\u0438\u045b\u0430", "alt_name": "\u0434\u0432\u0430\u0434\u0435\u0441\u0435\u0442 \u043f\u0440\u0432\u0438 \u043e\u043a\u0442\u043e\u0431\u0430\u0440", "alt_name:sr": "\u0434\u0432\u0430\u0434\u0435\u0441\u0435\u0442 \u043f\u0440\u0432\u0438 \u043e\u043a\u0442\u043e\u0431\u0430\u0440", "alt_name:sr-Latn": "dvadeset prvi oktobar", "amenity": "pharmacy", "dispensing": "yes", "email": "21.oktobar@apotekakg.rs", "healthcare": "pharmacy", "int_name": "21. oktobar", "medical_supply": "yes", "name": "21. \u043e\u043a\u0442\u043e\u0431\u0430\u0440", "name:sr": "21. \u043e\u043a\u0442\u043e\u0431\u0430\u0440", "name:sr-Latn": "21. oktobar", "opening_hours": "Mo-Fr 07:00-20:00; Sa 07:00-14:00", "operator": "\u0410\u043f\u043e\u0442\u0435\u043a\u0430\u0440\u0441\u043a\u0430 \u0443\u0441\u0442\u0430\u043d\u043e\u0432\u0430 \u041a\u0440\u0430\u0433\u0443\u0458\u0435\u0432\u0430\u0446", "operator:type": "government", "phone": "+38134335885", "website": "https://www.apotekakg.rs/", "wheelchair": "yes"}}, {"type": "node", "id": 9534579098, "lat": 43.9969641, "lon": 20.9284334, "tags": {"addr:city": "\u041a\u0440\u0430\u0433\u0443\u0458\u0435\u0432\u0430\u0446", "addr:country": "RS", "addr:postcode": "34000", "addr:street": "\u0427\u0435\u0433\u0430\u0440\u0441\u043a\u0430", "amenity": "pharmacy", "dispensing": "yes", "email": "bresnica@apotekakg.rs", "healthcare": "pharmacy", "int_name": "Bresnica", "medical_supply": "yes", "name": "\u0411\u0440\u0435\u0441\u043d\u0438\u0446\u0430", "name:sr": "\u0411\u0440\u0435\u0441\u043d\u0438\u0446\u0430", "name:sr-Latn": "Bresnica", "opening_hours": "Mo-Fr 07:00-20:00; Sa 07:00-14:00", "operator": "\u0410\u043f\u043e\u0442\u0435\u043a\u0430\u0440\u0441\u043a\u0430 \u0443\u0441\u0442\u0430\u043d\u043e\u0432\u0430 \u041a\u0440\u0430\u0433\u0443\u0458\u0435\u0432\u0430\u0446", "operator:type": "government", "phone": "+38134381402", "website": "https://www.apotekakg.rs/"}}, {"type": "node", "id": 9534658999, "lat": 44.0113893, "lon": 20.9038965, "tags": {"addr:city": "\u041a\u0440\u0430\u0433\u0443\u0458\u0435\u0432\u0430\u0446", "addr:country": "RS", "addr:postcode": "34000", "addr:street": "\u0427\u0438\u0447\u0435 \u043e\u0434 \u0420\u043e\u043c\u0430\u043d\u0438\u0458\u0435", "amenity": "pharmacy", "dispensing": "yes", "email": "erdoglija@apotekakg.rs", "healthcare": "pharmacy", "int_name": "Erdoglija", "medical_supply": "yes", "name": "\u0415\u0440\u0434\u043e\u0433\u043b\u0438\u0458\u0430", "name:sr": "\u0415\u0440\u0434\u043e\u0433\u043b\u0438\u0458\u0430", "name:sr-Latn": "Erdoglija", "opening_hours": "Mo-Fr 07:00-20:00; Sa 07:00-14:00", "operator": "\u0410\u043f\u043e\u0442\u0435\u043a\u0430\u0440\u0441\u043a\u0430 \u0443\u0441\u0442\u0430\u043d\u043e\u0432\u0430 \u041a\u0440\u0430\u0433\u0443\u0458\u0435\u0432\u0430\u0446", "operator:type": "government", "phone": "+38134323138", "website": "https://www.apotekakg.rs/"}}, {"type": "node", "id": 9534686731, "lat": 43.9993422, "lon": 20.895052, "tags": {"addr:city": "\u041a\u0440\u0430\u0433\u0443\u0458\u0435\u0432\u0430\u0446", "addr:country": "RS", "addr:postcode": "34000", "amenity": "pharmacy", "dispensing": "yes", "email": "zastava@apotekakg.rs", "healthcare": "pharmacy", "int_name": "Zastava", "medical_supply": "yes", "name": "\u0417\u0430\u0441\u0442\u0430\u0432\u0430", "name:sr": "\u0417\u0430\u0441\u0442\u0430\u0432\u0430", "name:sr-Latn": "Zastava", "opening_hours": "Mo-Fr 07:00-20:00; Sa 07:00-14:00", "operator": "\u0410\u043f\u043e\u0442\u0435\u043a\u0430\u0440\u0441\u043a\u0430 \u0443\u0441\u0442\u0430\u043d\u043e\u0432\u0430 \u041a\u0440\u0430\u0433\u0443\u0458\u0435\u0432\u0430\u0446", "operator:type": "government", "phone": "+38134381396", "website": "https://www.apotekakg.rs/"}}, {"type": "node", "id": 9534777883, "lat": 44.0127242, "lon": 20.8972983, "tags": {"addr:city": "\u041a\u0440\u0430\u0433\u0443\u0458\u0435\u0432\u0430\u0446", "addr:country": "RS", "addr:housenumber": "105", "addr:postcode": "34000", "addr:street": "\u0414\u0430\u043d\u0438\u0447\u0438\u045b\u0435\u0432\u0430", "amenity": "pharmacy", "dispensing": "yes", "email": "djurdjevdan@apotekakg.rs", "healthcare": "pharmacy", "int_name": "Djurdjevdan", "medical_supply": "yes", "name": "\u0402\u0443\u0440\u0452\u0435\u0432\u0434\u0430\u043d", "name:sr": "\u0402\u0443\u0440\u0452\u0435\u0432\u0434\u0430\u043d", "name:sr-Latn": "\u0110ur\u0111evdan", "opening_hours": "Mo-Fr 07:00-20:00; Sa 07:00-14:00; Su 08:00-14:00", "operator": "\u0410\u043f\u043e\u0442\u0435\u043a\u0430\u0440\u0441\u043a\u0430 \u0443\u0441\u0442\u0430\u043d\u043e\u0432\u0430 \u041a\u0440\u0430\u0433\u0443\u0458\u0435\u0432\u0430\u0446", "operator:type": "government", "phone": "+38134318060", "ref:RS:kucni_broj": "3738368", "website": "https://www.apotekakg.rs/"}}, {"type": "node", "id": 9534797145, "lat": 44.0253858, "lon": 20.8618382, "tags": {"amenity": "pharmacy", "dispensing": "yes", "email": "sumarice@apotekakg.rs", "healthcare": "pharmacy", "int_name": "Sumarice", "medical_supply": "yes", "name": "\u0428\u0443\u043c\u0430\u0440\u0438\u0446\u0435", "name:sr": "\u0428\u0443\u043c\u0430\u0440\u0438\u0446\u0435", "name:sr-Latn": "\u0160umarice", "opening_hours": "Mo-Fr 07:00-14:00", "operator": "\u0410\u043f\u043e\u0442\u0435\u043a\u0430\u0440\u0441\u043a\u0430 \u0443\u0441\u0442\u0430\u043d\u043e\u0432\u0430 \u041a\u0440\u0430\u0433\u0443\u0458\u0435\u0432\u0430\u0446", "operator:type": "government", "phone": "+38134318060", "website": "https://www.apotekakg.rs/"}}, {"type": "node", "id": 9534840930, "lat": 44.0136434, "lon": 20.9294446, "tags": {"addr:city": "\u041a\u0440\u0430\u0433\u0443\u0458\u0435\u0432\u0430\u0446", "addr:country": "RS", "addr:housenumber": "56", "addr:postcode": "34000", "addr:street": "\u0414\u0440\u0430\u0433\u043e\u0441\u043b\u0430\u0432\u0430 \u0421\u0440\u0435\u0458\u043e\u0432\u0438\u045b\u0430", "amenity": "pharmacy", "dispensing": "yes", "email": "filip.kljajic@apotekakg.rs", "healthcare": "pharmacy", "int_name": "Filip Kljajic", "medical_supply": "yes", "name": "\u0424\u0438\u043b\u0438\u043f \u041a\u0459\u0430\u0458\u0438\u045b", "name:sr": "\u0424\u0438\u043b\u0438\u043f \u041a\u0459\u0430\u0458\u0438\u045b", "name:sr-Latn": "Filip Kljaji\u0107", "opening_hours": "Mo-Fr 07:00-19:30; Sa 07:00-14:00", "operator": "\u0410\u043f\u043e\u0442\u0435\u043a\u0430\u0440\u0441\u043a\u0430 \u0443\u0441\u0442\u0430\u043d\u043e\u0432\u0430 \u041a\u0440\u0430\u0433\u0443\u0458\u0435\u0432\u0430\u0446", "operator:type": "government", "phone": "+38134310342", "ref:RS:kucni_broj": "3733040", "website": "https://www.apotekakg.rs/"}}, {"type": "node", "id": 9831726169, "lat": 44.1546391, "lon": 21.0775586}, {"type": "node", "id": 9831726170, "lat": 44.1545611, "lon": 21.077568}, {"type": "node", "id": 9831726171, "lat": 44.1545631, "lon": 21.0776552}, {"type": "node", "id": 9831726172, "lat": 44.1546439, "lon": 21.0776445}, {"type": "node", "id": 11771673359, "lat": 43.9318971, "lon": 21.3713648, "tags": {"amenity": "pharmacy", "brand": "Dr. Max", "brand:wikidata": "Q56317371", "check_date": "2025-07-28", "healthcare": "pharmacy", "name": "Dr. Max", "opening_hours": "Mo-Fr 07:00-21:00; Sa 08:00-21:00; Su 08:00-15:00", "payment:cash": "yes", "payment:credit_cards": "yes", "payment:debit_cards": "yes"}}, {"type": "node", "id": 12071822043, "lat": 44.0088447, "lon": 20.8968754}, {"type": "node", "id": 12071822044, "lat": 44.0088152, "lon": 20.896974}, {"type": "node", "id": 12071829313, "lat": 44.0088111, "lon": 20.8969939}, {"type": "node", "id": 12071945922, "lat": 44.0089298, "lon": 20.8968637}, {"type": "node", "id": 12112739784, "lat": 44.0114403, "lon": 20.9040483, "tags": {"addr:housenumber": "3", "addr:street": "\u0427\u0438\u0447\u0435 \u043e\u0434 \u0420\u043e\u043c\u0430\u043d\u0438\u0458\u0435", "amenity": "pharmacy", "check_date": "2024-08-15", "drive_through": "no", "healthcare": "pharmacy", "int_name": "Paster", "level": "0", "name": "\u041f\u0430\u0441\u0442\u0435\u0440", "name:sr": "\u041f\u0430\u0441\u0442\u0435\u0440", "opening_hours": "Mo-Fr 08:00-20:00; Sa 08:00-15:00; Su 09:00-12:00", "wheelchair": "no"}}, {"type": "node", "id": 12314028441, "lat": 44.0223534, "lon": 20.9459725, "tags": {"addr:city": "\u041a\u0440\u0430\u0433\u0443\u0458\u0435\u0432\u0430\u0446", "addr:street": "19. \u043e\u043a\u0442\u043e\u0431\u0440\u0430", "amenity": "pharmacy", "dispensing": "yes", "healthcare": "pharmacy", "int_name": "Zdravlje Lek", "name": "\u0417\u0434\u0440\u0430\u0432\u0459\u0435 \u041b\u0435\u043a", "opening_hours": "Mo-Su 07:00-22:00"}}, {"type": "node", "id": 12456122245, "lat": 43.9348256, "lon": 21.3704367, "tags": {"amenity": "pharmacy", "check_date": "2025-08-03", "healthcare": "pharmacy", "name": "Mila Lek", "opening_hours": "Mo-Fr 07:30-11:30,17:00-21:00; Sa 08:00-20:00; Su off"}}, {"type": "node", "id": 12484599842, "lat": 43.9332987, "lon": 21.3714469, "tags": {"amenity": "pharmacy", "check_date": "2025-01-08", "healthcare": "pharmacy", "name": "Viva", "opening_hours": "Mo-Fr 07:30-20:00; Sa 08:00-17:00; Su off", "payment:cash": "yes", "payment:credit_cards": "yes", "payment:debit_cards": "yes"}}, {"type": "node", "id": 12963833783, "lat": 44.0098097, "lon": 20.9146453, "tags": {"amenity": "pharmacy", "healthcare": "pharmacy"}}, {"type": "node", "id": 13045938672, "lat": 43.9341195, "lon": 21.3773402, "tags": {"amenity": "pharmacy", "check_date": "2025-08-03", "healthcare": "pharmacy", "name": "Belladonna", "opening_hours": "Mo-Fr 08:00-20:00; Sa 08:00-15:00; Su off", "payment:cash": "yes", "payment:credit_cards": "yes", "payment:debit_cards": "yes"}}, {"type": "node", "id": 13045941486, "lat": 43.9347663, "lon": 21.372642, "tags": {"amenity": "pharmacy", "brand": "Dr. Max", "brand:wikidata": "Q56317371", "check_date": "2025-08-03", "healthcare": "pharmacy", "name": "Dr. Max", "opening_hours": "Mo-Fr 07:30-21:00; Sa 08:00-20:00; Su 08:00-15:00"}}, {"type": "way", "id": 95631640, "nodes": [1108852409, 1108852378, 1108852250, 1108852221, 1108852409], "tags": {"addr:housenumber": "10", "addr:street": "\u041c\u0438\u043e\u0434\u0440\u0430\u0433\u0430 \u0412\u043b\u0430\u0458\u0438\u045b\u0430 \u0428\u0443\u043a\u0435", "amenity": "pharmacy", "building": "yes", "healthcare": "pharmacy", "int_name": "Hemofarm stovariste lekova", "name": "\u0425\u0435\u043c\u043e\u0444\u0430\u0440\u043c \u0441\u0442\u043e\u0432\u0430\u0440\u0438\u0448\u0442\u0435 \u043b\u0435\u043a\u043e\u0432\u0430", "name:sr": "\u0425\u0435\u043c\u043e\u0444\u0430\u0440\u043c \u0441\u0442\u043e\u0432\u0430\u0440\u0438\u0448\u0442\u0435 \u043b\u0435\u043a\u043e\u0432\u0430", "name:sr-Latn": "Hemofarm stovari\u0161te lekova", "ref:RS:kucni_broj": "7111311"}}, {"type": "way", "id": 962344003, "nodes": [8901785240, 8901785241, 8901785246, 8901785253, 8901785242, 8901785243, 8901785244, 8901785245, 8901785240], "tags": {"amenity": "pharmacy", "building": "yes", "dispensing": "yes", "healthcare": "pharmacy"}}, {"type": "way", "id": 1071356787, "nodes": [9831726169, 9831726170, 9831726171, 9831726172, 9831726169], "tags": {"addr:city": "\u0411\u0430\u0442\u043e\u0447\u0438\u043d\u0430", "addr:postcode": "34227", "addr:street": "\u041a\u043d\u0435\u0437\u0430 \u041c\u0438\u043b\u043e\u0448\u0430 \u041e\u0431\u0440\u0435\u043d\u043e\u0432\u0438\u045b\u0430", "amenity": "pharmacy", "building": "yes", "dispensing": "yes", "healthcare": "pharmacy"}}, {"type": "way", "id": 1303522721, "nodes": [12071822043, 12071945922, 6304735895, 12071829313, 12071822044, 12071822043], "tags": {"amenity": "pharmacy", "brand": "Benu", "brand:wikidata": "Q62562792", "dispensing": "yes", "healthcare": "pharmacy", "indoor": "room", "level": "0", "name": "Benu", "opening_hours": "Mo-Su 10:00-22:00"}}]}