{"version": 0.6, "generator": "Overpass API 0.7.62.8 e802775f", "osm3s": {"timestamp_osm_base": "2025-10-06T08:23:05Z", "copyright": "The data included in this document is from www.openstreetmap.org. The data is made available under ODbL."}, "elements": [{"type": "node", "id": 321740984, "lat": 54.5391409, "lon": 18.46544, "tags": {"amenity": "pharmacy", "contact:phone": "+4858623 41 41", "dispensing": "yes", "name": "Chylonia I", "official_name": "Dom Lek\u00f3w", "opening_hours": "Mo-Fr 08:00-20:00; Sa 09:00-15:00", "operator": "Dom Lek\u00f3w", "ref:csioz": "1189288", "website": "https://domlekow.pl/apteki.php?cID=46&aID=59&action=show"}}, {"type": "node", "id": 442256675, "lat": 54.360913, "lon": 18.7119378, "tags": {"addr:city": "Gda\u0144sk", "addr:housenumber": "27", "addr:street": "Wilhelma Stryjewskiego", "amenity": "pharmacy", "brand": "Dr. Max", "brand:wikidata": "Q56317371", "brand:wikipedia": "fr:Dr.Max", "dispensing": "yes", "email": "gdansk.stryjewskiego@drmax.com.pl", "healthcare": "pharmacy", "name": "Dr. Max", "opening_hours": "Mo-Fr 08:00-20:00; Sa 08:00-15:00", "ref:csioz": "1032021"}}, {"type": "node", "id": 442257163, "lat": 54.3612265, "lon": 18.7147517, "tags": {"addr:city": "Gda\u0144sk", "addr:housenumber": "29C", "addr:postcode": "80-611", "addr:street": "Wilhelma Stryjewskiego", "amenity": "pharmacy", "contact:phone": "+48 58 301 73 64", "dispensing": "yes", "name": "Dom Lek\u00f3w", "opening_hours": "Mo-Fr 08:00-20:00; Sa 08:00-15:00", "operator": "Dom Lek\u00f3w", "ref:csioz": "1188003", "website": "https://domlekow.pl/"}}, {"type": "node", "id": 471843083, "lat": 54.3455802, "lon": 18.6493354, "tags": {"addr:city": "Gda\u0144sk", "addr:housenumber": "2", "addr:street": "Kocurki", "amenity": "pharmacy", "dispensing": "yes", "healthcare": "pharmacy", "name": "Eljax", "ref:csioz": "1027430"}}, {"type": "node", "id": 497836596, "lat": 54.1314198, "lon": 18.200137, "tags": {"addr:city": "Nowa Karczma", "addr:housenumber": "23", "addr:postcode": "83-404", "addr:street": "Aleksandra Majkowskiego", "amenity": "pharmacy", "name": "Apteka Przyjazna", "ref:csioz": "1030299"}}, {"type": "node", "id": 604705002, "lat": 54.4401141, "lon": 18.5726121, "tags": {"addr:city": "Sopot", "addr:housenumber": "64", "addr:postcode": "81-771", "addr:street": "Grunwaldzka", "amenity": "pharmacy", "brand": "Dbam o Zdrowie", "brand:wikidata": "Q62563833", "dispensing": "yes", "email": "apt69864@dbamozdrowie.pl", "healthcare": "pharmacy", "name": "Dbam o Zdrowie", "ref:csioz": "1027547", "short_name": "DOZ"}}, {"type": "node", "id": 746496114, "lat": 54.3490486, "lon": 18.6517408, "tags": {"addr:city": "Gda\u0144sk", "addr:housenumber": "54/55", "addr:street": "D\u0142uga", "amenity": "pharmacy", "check_date:opening_hours": "2025-05-30", "dispensing": "yes", "healthcare": "pharmacy", "name": "Ratuszowa", "opening_hours:signed": "no", "ref:csioz": "1033366", "wheelchair": "limited"}}, {"type": "node", "id": 748345991, "lat": 54.3487187, "lon": 18.6197874, "tags": {"addr:city": "Gda\u0144sk", "addr:housenumber": "114", "addr:street": "Kartuska", "amenity": "pharmacy", "contact:website": "http://www.apteka-kartuska.pl/", "dispensing": "yes", "healthcare": "pharmacy", "name": "Kartuska", "opening_hours": "Mo-Fr 08:00-19:00; Sa 08:00-15:00", "ref:csioz": "1026294"}}, {"type": "node", "id": 876380540, "lat": 54.3769011, "lon": 18.6075899, "tags": {"addr:city": "Gda\u0144sk", "addr:country": "PL", "addr:housenumber": "82", "addr:postcode": "80-236", "addr:street": "Aleja Grunwaldzka", "amenity": "pharmacy", "dispensing": "yes", "email": "aptekaman@wp.pl", "healthcare": "pharmacy", "level": "-1", "name": "Manhattan", "opening_hours": "Mo-Sa 09:00-21:00; Su 10:00-20:00", "ref:csioz": "1030301"}}, {"type": "node", "id": 939080160, "lat": 54.3248767, "lon": 18.6116643, "tags": {"addr:city": "Gda\u0144sk", "addr:housenumber": "2E", "addr:street": "Genera\u0142a Leopolda Okulickiego", "amenity": "pharmacy", "dispensing": "yes", "healthcare": "pharmacy", "name": "Sanitas", "ref:csioz": "1028815"}}, {"type": "node", "id": 974817756, "lat": 54.2603304, "lon": 18.6493218, "tags": {"addr:city": "Pruszcz Gda\u0144ski", "addr:housenumber": "36", "addr:postcode": "83-000", "addr:street": "Fryderyka Chopina", "amenity": "pharmacy", "healthcare": "pharmacy", "name": "Apteka Medica", "ref:csioz": "1031259"}}, {"type": "node", "id": 974826750, "lat": 54.2573596, "lon": 18.6510761, "tags": {"addr:city": "Pruszcz Gda\u0144ski", "addr:housenumber": "21", "addr:postcode": "83-000", "addr:street": "Powsta\u0144c\u00f3w Warszawy", "amenity": "pharmacy", "healthcare": "pharmacy", "name": "Pod Lampionami", "ref:csioz": "1031610"}}, {"type": "node", "id": 1015333598, "lat": 54.3809625, "lon": 18.6146729, "tags": {"addr:city": "Gda\u0144sk", "addr:housenumber": "4A", "addr:street": "Danusi", "amenity": "pharmacy", "dispensing": "yes", "email": "apteka-przyrynku@wp.pl", "healthcare": "pharmacy", "name": "Przy Rynku", "ref:csioz": "1028127"}}, {"type": "node", "id": 1046711864, "lat": 54.4712464, "lon": 18.4961219, "tags": {"amenity": "pharmacy", "contact:fax": "+4858 629 14 40", "contact:phone": "+4858 629 14 40", "dispensing": "yes", "name": "Dom Lek\u00f3w", "old_name": "Apteka \"\u015awietego Miko\u0142aja\"", "opening_hours": "Mo-Fr 08:00-20:00; Sa 08:00-13:00", "operator": "Dom Lek\u00f3w", "ref:csioz": "1189313", "website": "https://domlekow.pl/apteki.php?cID=46&aID=58&action=show"}}, {"type": "node", "id": 1103195007, "lat": 54.5613787, "lon": 18.490766, "tags": {"amenity": "pharmacy", "dispensing": "yes", "name": "Apteka Dbam O Zdrowie", "ref:csioz": "1030650"}}, {"type": "node", "id": 1307223185, "lat": 54.4479829, "lon": 18.5436808, "tags": {"addr:city": "Sopot", "addr:housenumber": "79A", "addr:postcode": "81-820", "addr:street": "23 Marca", "amenity": "pharmacy", "check_date": "2025-02-06", "dispensing": "yes", "email": "vitalis23.apteka@gmail.com", "name": "Vitalis", "opening_hours": "Mo-Fr 09:00-19:00; Sa 09:00-13:00; Su off", "ref:csioz": "1195481"}}, {"type": "node", "id": 1307223191, "lat": 54.4434999, "lon": 18.5639897, "tags": {"addr:city": "Sopot", "addr:housenumber": "37", "addr:postcode": "81-767", "addr:street": "Bohater\u00f3w Monte Cassino", "amenity": "pharmacy", "contact:phone": "+48 585511018", "dispensing": "yes", "email": "aptekadomlekow.sopot@wp.pl", "healthcare": "pharmacy", "name": "Dom Lek\u00f3w", "opening_hours": "Mo-Su 08:00-21:00", "ref:csioz": "1189242", "website": "https://domlekow.pl/apteki.php?cID=43"}}, {"type": "node", "id": 1346258039, "lat": 54.4970867, "lon": 18.5417598, "tags": {"addr:city": "Gdynia", "addr:housenumber": "39A", "addr:postcode": "81-450", "addr:street": "Red\u0142owska", "amenity": "pharmacy", "dispensing": "yes", "healthcare": "pharmacy", "name": "Apteka \u015bw. Jana", "ref:csioz": "1029037"}}, {"type": "node", "id": 1434163381, "lat": 54.2608495, "lon": 18.6381377, "tags": {"addr:city": "Pruszcz Gda\u0144ski", "addr:housenumber": "5", "addr:postcode": "83-000", "addr:street": "Aleja Ksi\u0119dza J\u00f3zefa Wal\u0105ga", "amenity": "pharmacy", "healthcare": "pharmacy", "name": "Panaceum", "ref:csioz": "1029577"}}, {"type": "node", "id": 1458087315, "lat": 54.3552384, "lon": 18.6065486, "tags": {"addr:city": "Gda\u0144sk", "addr:housenumber": "4", "addr:street": "Otwarta", "amenity": "pharmacy", "dispensing": "yes", "healthcare": "pharmacy", "name": "Po Zdrowie", "opening_hours": "Mo-Fr 08:00-19:00", "ref:csioz": "1030744"}}, {"type": "node", "id": 1515856046, "lat": 54.3650159, "lon": 18.6353441, "tags": {"addr:city": "Gda\u0144sk", "addr:housenumber": "49", "addr:postcode": "80-207", "addr:street": "Aleja Zwyci\u0119stwa", "amenity": "pharmacy", "brand": "Dbam o Zdrowie", "brand:wikidata": "Q62563833", "dispensing": "yes", "email": "apt65527@dbamozdrowie.pl", "healthcare": "pharmacy", "name": "Dbam o Zdrowie", "opening_hours": "Mo-Fr 08:00-20:00; Sa 08:00-14:00", "operator": "DOZ.pl Sp. z o.o.", "ref:csioz": "1030186", "website": "https://www.doz.pl/apteki/a65527-DOZ_Apteka_Dbam_o_Zdrowie"}}, {"type": "node", "id": 1538112315, "lat": 54.4182911, "lon": 18.5664362, "tags": {"addr:city": "Gda\u0144sk", "addr:housenumber": "34", "addr:postcode": "80-339", "addr:street": "Bitwy Oliwskiej", "amenity": "pharmacy", "dispensing": "yes", "drive_through": "no", "healthcare": "pharmacy", "name": "Avena", "opening_hours": "Mo-Fr 08:00-20:00, Sa 08:00-16:00", "ref:csioz": "1219382"}}, {"type": "node", "id": 1538859537, "lat": 54.4032316, "lon": 18.5885055, "tags": {"addr:city": "Gda\u0144sk", "addr:housenumber": "32", "addr:postcode": "80-394", "addr:street": "Ko\u0142obrzeska", "amenity": "pharmacy", "brand": "Dr. Max", "brand:wikidata": "Q56317371", "brand:wikipedia": "fr:Dr.Max", "check_date": "2025-03-07", "dispensing": "yes", "email": "gdansk.kolobrzeska@drmax.pl", "healthcare": "pharmacy", "name": "Dr. Max Apteka", "opening_hours": "24/7", "ref:csioz": "1030212", "wheelchair": "yes"}}, {"type": "node", "id": 1577478306, "lat": 54.4849264, "lon": 18.5377806, "tags": {"amenity": "pharmacy", "brand": "Dbam o Zdrowie", "brand:wikidata": "Q62563833", "dispensing": "yes", "healthcare": "pharmacy", "name": "Dbam o Zdrowie", "ref:csioz": "1030579", "short_name": "DOZ"}}, {"type": "node", "id": 1577478689, "lat": 54.482659, "lon": 18.5372256, "tags": {"amenity": "pharmacy", "dispensing": "yes", "healthcare": "pharmacy", "name": "Multi Apteka", "official_name": "Or\u0142owska", "opening_hours": "Mo-Fr 08:00-20:00; Sa 09:00-15:00", "ref:csioz": "1027401"}}, {"type": "node", "id": 1606242352, "lat": 54.3018138, "lon": 18.5783396, "tags": {"addr:city": "Borkowo", "addr:housenumber": "1E", "addr:postcode": "80-180", "addr:street": "Wsp\u00f3\u0142czesna", "amenity": "pharmacy", "healthcare": "pharmacy", "name": "T\u0119czowa", "ref:csioz": "1032488"}}, {"type": "node", "id": 1608446887, "lat": 54.2645601, "lon": 18.658604, "tags": {"addr:city": "Pruszcz Gda\u0144ski", "addr:housenumber": "7a", "addr:street": "Henryka Sienkiewicza", "amenity": "pharmacy", "dispensing": "yes", "healthcare": "pharmacy", "name": "Anafarm", "opening_hours": "08:00-22:00", "ref:csioz": "1033114"}}, {"type": "node", "id": 1641456768, "lat": 54.3514025, "lon": 18.6363676, "tags": {"addr:city": "Gda\u0144sk", "addr:floor": "0", "addr:housenumber": "5", "addr:street": "Kartuska", "amenity": "pharmacy", "check_date": "2024-11-03", "contact:phone": "+48 58 721 40 00", "dispensing": "yes", "email": "aptekadomlekow.kartuska@wp.pl", "healthcare": "pharmacy", "level": "0", "name": "Dom Lek\u00f3w", "opening_hours": "24/7", "operator": "Dom Lek\u00f3w", "payment:cash": "yes", "payment:credit_cards": "yes", "payment:debit_cards": "yes", "ref:csioz": "1188016", "wheelchair": "yes"}}, {"type": "node", "id": 1738391381, "lat": 54.5483362, "lon": 18.5324989, "tags": {"amenity": "pharmacy", "dispensing": "yes", "name": "Dr. Max+", "official_name": "Apteka Dy\u017curna", "opening_hours": "Mo-Fr 08:00-21:00; Sa 09:00-21:00; Su 10:00-20:00", "ref:csioz": "1032045", "wheelchair": "yes"}}, {"type": "node", "id": 1752588386, "lat": 54.4673374, "lon": 18.4872674, "tags": {"addr:city": "Gdynia", "addr:housenumber": "79D", "addr:postcode": "81-572", "addr:street": "Gryfa Pomorskiego", "amenity": "pharmacy", "dispensing": "yes", "name": "Pod Gryfem Pomorskim", "ref:csioz": "1030071"}}, {"type": "node", "id": 1755971248, "lat": 54.3263457, "lon": 18.6222019, "tags": {"addr:city": "Gda\u0144sk", "addr:housenumber": "16", "addr:street": "Krzemowa", "amenity": "pharmacy", "dispensing": "yes", "email": "aptekaorunska2@wp.pl", "name": "Oru\u0144ska II", "opening_hours": "Mo-Fr 08:00-19:30; Sa 09:00-14:00", "ref:csioz": "1028626"}}, {"type": "node", "id": 1755971319, "lat": 54.3252682, "lon": 18.6180528, "tags": {"addr:city": "Gda\u0144sk", "addr:housenumber": "1", "addr:postcode": "80-041", "addr:street": "Krzemowa", "amenity": "pharmacy", "dispensing": "yes", "name": "Krzemowa", "opening_hours": "Mo-Fr 08:00-21:00; Sa 09:00-22:30; Su 09:00-15:00", "payment:credit_cards": "yes", "phone": "+48587604094", "ref:csioz": "1030193"}}, {"type": "node", "id": 1761940773, "lat": 54.3456706, "lon": 18.3659316, "tags": {"addr:city": "\u017bukowo", "addr:housenumber": "6", "addr:postcode": "83-330", "addr:street": "Po\u017carna", "amenity": "pharmacy", "brand": "Dbam o Zdrowie", "brand:wikidata": "Q62563833", "dispensing": "yes", "drive_through": "no", "healthcare": "pharmacy", "name": "Dbam o Zdrowie", "opening_hours": "Mo-Fr 08:00-19:00; Sa 09:00-14:00; Su,PH off", "operator": "DOZ.pl Sp. z o.o.", "ref:csioz": "1027594"}}, {"type": "node", "id": 1766018003, "lat": 54.5545783, "lon": 18.5232166, "tags": {"amenity": "pharmacy", "brand": "Dbam o Zdrowie", "brand:wikidata": "Q62563833", "dispensing": "yes", "healthcare": "pharmacy", "name": "Dbam o Zdrowie", "official_name": "Apteka Dbam O Zdrowie", "opening_hours": "Mo-Fr 08:00-20:00; Sa 08:00-15:00", "ref:csioz": "1030437", "short_name": "DOZ", "source": "survey"}}, {"type": "node", "id": 1766018008, "lat": 54.5494975, "lon": 18.5232419, "tags": {"amenity": "pharmacy", "dispensing": "yes", "name": "Apteka Gemini", "opening_hours": "Mo-Fr 08:00-20:00; Sa 08:00-14:00", "ref:csioz": "1033075", "source": "survey", "wheelchair": "yes"}}, {"type": "node", "id": 1766488222, "lat": 54.5498635, "lon": 18.513321, "tags": {"amenity": "pharmacy", "check_date": "2024-11-08", "contact:phone": "+4858 625 02 76", "dispensing": "yes", "healthcare": "pharmacy", "name": "Dom Lek\u00f3w", "opening_hours": "Mo-Fr 08:00 - 22:00; Sa 08:00-20:00; Su 09:00-15:00", "operator": "Dom Lek\u00f3w", "ref:csioz": "1189359", "source": "survey"}}, {"type": "node", "id": 1769069364, "lat": 54.3595309, "lon": 18.5838419, "tags": {"addr:city": "Gda\u0144sk", "addr:floor": "0", "addr:housenumber": "26", "addr:street": "Piecewska", "amenity": "pharmacy", "check_date": "2023-09-23", "email": "arctowskiego@apimex.pl", "internet_access": "no", "level": "0", "name": "Prima", "opening_hours": "Mo-Sa 08:00-20:00", "payment:mastercard": "yes", "payment:visa": "yes", "ref:csioz": "1029343", "wheelchair": "yes"}}, {"type": "node", "id": 1769082976, "lat": 54.3584665, "lon": 18.5830722, "tags": {"addr:city": "Gda\u0144sk", "addr:housenumber": "13", "addr:street": "Franciszka Rakoczego", "amenity": "pharmacy", "brand": "Dr. Max", "brand:wikidata": "Q56317371", "brand:wikipedia": "fr:Dr.Max", "dispensing": "yes", "email": "gdansk.rakoczego@drmax.pl", "healthcare": "pharmacy", "name": "Dr. Max", "opening_hours": "Mo-Fr 8:00-20:00, Sa 8:00-15:00", "ref:csioz": "1112578"}}, {"type": "node", "id": 1772800146, "lat": 54.4715851, "lon": 18.4893177, "tags": {"amenity": "pharmacy", "contact:phone": "+48 58 629 16 28", "dispensing": "yes", "name": "U \u0179r\u00f3d\u0142a Marii", "opening_hours": "Mo-Su 08:00-22:00", "operator": "Dom Lek\u00f3w", "ref:csioz": "1026218", "source": "local_knowledge"}}, {"type": "node", "id": 1772853396, "lat": 54.5033184, "lon": 18.5415741, "tags": {"amenity": "pharmacy", "contact:phone": "+4858 622 68 24", "dispensing": "yes", "healthcare": "pharmacy", "name": "Dom Lek\u00f3w", "opening_hours": "Mo-Fr 08:00-20:00; Sa 09:00-14:00", "operator": "Dom Lek\u00f3w", "ref:csioz": "1189275", "source": "knowledge", "website": "https://domlekow.pl/apteki.php?cID=46&aID=60&action=show"}}, {"type": "node", "id": 1773673808, "lat": 54.5146308, "lon": 18.5376442, "tags": {"amenity": "pharmacy", "brand": "Dbam o Zdrowie", "brand:wikidata": "Q62563833", "check_date": "2024-08-31", "dispensing": "yes", "healthcare": "pharmacy", "name": "Dbam o Zdrowie", "official_name": "Doz Apteka. Dbam O Zdrowie. W\u0142adys\u0142awa Iv", "opening_hours": "Mo-Fr 08:00-21:00; Sa 09:00-21:00; Su 10:00-18:00", "ref:csioz": "1027908", "short_name": "DOZ", "source": "survey"}}, {"type": "node", "id": 1773912090, "lat": 54.5144671, "lon": 18.5385113, "tags": {"addr:city": "Gdynia", "addr:housenumber": "70", "addr:postcode": "81-353", "addr:street": "Antoniego Abrahama", "amenity": "pharmacy", "dispensing": "yes", "healthcare": "pharmacy", "name": "Apteka Dy\u017curna", "official_name": "Dy\u017curna 2", "opening_hours": "Mo-Fr 08:00-20:00; Sa 08:00-15:00", "ref:csioz": "1030789"}}, {"type": "node", "id": 1774349557, "lat": 54.347687, "lon": 18.6619137, "tags": {"addr:city": "Gda\u0144sk", "addr:housenumber": "11C", "addr:street": "D\u0142ugie Ogrody", "amenity": "pharmacy", "dispensing": "yes", "healthcare": "pharmacy", "name": "DOZ Apteka", "ref:csioz": "1027893", "website": "https://www.doz.pl/"}}, {"type": "node", "id": 1783363386, "lat": 54.2734612, "lon": 18.4750482, "tags": {"addr:city": "Kolbudy", "addr:housenumber": "34", "addr:postcode": "83-050", "addr:street": "Przedszkolna", "amenity": "pharmacy", "name": "Rodzinna", "ref:csioz": "1030702"}}, {"type": "node", "id": 1785907058, "lat": 54.5184291, "lon": 18.5289524, "tags": {"addr:city": "Gdynia", "addr:housenumber": "14", "addr:postcode": "81-314", "addr:street": "Warszawska", "amenity": "pharmacy", "dispensing": "yes", "healthcare": "pharmacy", "name": "Dom Lek\u00f3w", "opening_hours": "Mo-Fr 08:00-19:00", "ref:csioz": "1112593"}}, {"type": "node", "id": 1785941268, "lat": 54.5163841, "lon": 18.5302711, "tags": {"addr:city": "Gdynia", "addr:housenumber": "34", "addr:postcode": "81-317", "addr:street": "Warszawska", "amenity": "pharmacy", "dispensing": "yes", "healthcare": "pharmacy", "name": "Dla Zdrowia", "official_name": "Apteka Dla Zdrowia", "ref:csioz": "1029590"}}, {"type": "node", "id": 1787520471, "lat": 54.5047391, "lon": 18.5369403, "tags": {"amenity": "pharmacy", "dispensing": "yes", "healthcare": "pharmacy", "name": "Przy Alei", "ref:csioz": "1030060"}}, {"type": "node", "id": 1796267993, "lat": 54.3720804, "lon": 18.5183875, "tags": {"addr:city": "Gda\u0144sk", "addr:country": "PL", "addr:housenumber": "26", "addr:postcode": "80-286", "addr:street": "Z\u0142ota Karczma", "amenity": "pharmacy", "brand": "Super-Pharm", "brand:en": "Super-Pharm", "brand:he": "\u05e1\u05d5\u05e4\u05e8-\u05e4\u05d0\u05e8\u05dd", "brand:wikidata": "Q13220217", "check_date:opening_hours": "2023-07-28", "contact:phone": "+48 58 522 67 08", "contact:website": "http://www.superpharm.pl/", "dispensing": "yes", "email": "hhennig@superpharm.pl", "healthcare": "pharmacy", "name": "Super-Pharm", "name:ar": "\u0633\u0648\u0628\u064a\u0631 \u0641\u0627\u0631\u0645", "name:en": "Super-Pharm", "name:he": "\u05e1\u05d5\u05e4\u05e8-\u05e4\u05d0\u05e8\u05dd", "name:ru": "\u0421\u0443\u043f\u0435\u0440-\u0424\u0430\u0440\u043c", "opening_hours": "Mo-Sa 09:00-21:00; Su 10:00-20:00", "ref:csioz": "1030835", "shop": "chemist"}}, {"type": "node", "id": 1806878957, "lat": 54.5448809, "lon": 18.4623649, "tags": {"amenity": "pharmacy", "contact:phone": "+48586206598", "dispensing": "yes", "healthcare": "pharmacy", "name": "Centrum Lek\u00f3w Chylonia", "opening_hours": "Mo-Fr 08:00-20:00;Sa 08:00-15:00", "ref:csioz": "1172611"}}, {"type": "node", "id": 1806879037, "lat": 54.5449203, "lon": 18.4629482, "tags": {"amenity": "pharmacy", "dispensing": "yes", "healthcare": "pharmacy", "name": "Medapteka", "ref:csioz": "1194509"}}, {"type": "node", "id": 1823318076, "lat": 54.4915582, "lon": 18.5133473, "tags": {"amenity": "pharmacy", "dispensing": "yes", "healthcare": "pharmacy", "name": "Apteka Paracelsus", "name:en": "Paracelsus", "phone": "+48 58 624 68 07", "ref:csioz": "1027298"}}, {"type": "node", "id": 1899743142, "lat": 54.3217938, "lon": 18.5513856, "tags": {"addr:city": "Gda\u0144sk", "addr:housenumber": "6", "addr:street": "Przywidzka", "amenity": "pharmacy", "dispensing": "yes", "email": "apteka.gdansk@viktoria.com.pl", "healthcare": "pharmacy", "name": "Viktoria", "ref:csioz": "1216887"}}, {"type": "node", "id": 1901951180, "lat": 54.3583869, "lon": 18.5877225, "tags": {"addr:city": "Gda\u0144sk", "addr:housenumber": "132", "addr:street": "Ja\u015bkowa Dolina", "addr:unit": "1", "amenity": "pharmacy", "check_date": "2025-07-31", "dispensing": "yes", "email": "gdansk.jaskowa@farmacja24.com.pl", "healthcare": "pharmacy", "name": "Farmacja 24", "opening_hours": "Mo-Fr 06:00-20:00; Sa 10:00-15:00", "ref:csioz": "1112452"}}, {"type": "node", "id": 1907502270, "lat": 54.5340355, "lon": 18.4858069, "tags": {"amenity": "pharmacy", "dispensing": "yes", "name": "Apteka Dy\u017curna", "opening_hours": "Mo-Fr 08:00-20:00; Sa 08:00-15:00", "ref:csioz": "1031607", "source": "survey", "survey:date": "2015-05-31"}}, {"type": "node", "id": 1910270249, "lat": 54.5211247, "lon": 18.5428839, "tags": {"amenity": "pharmacy", "contact:phone": "+48 58 620 44 20", "dispensing": "yes", "healthcare": "pharmacy", "name": "Dom Lek\u00f3w", "note": "inne godziny otwarcia podane na stronie www", "opening_hours": "Mo-Fr 07:30-20:30; Sa 09:00-14:30", "operator": "Dom Lek\u00f3w", "ref:csioz": "1189321", "source": "survey"}}, {"type": "node", "id": 1910270250, "lat": 54.5428021, "lon": 18.4655205, "tags": {"addr:city": "Gdynia", "addr:country": "PL", "addr:housenumber": "59", "addr:postcode": "81-065", "addr:street": "Wejherowska", "amenity": "pharmacy", "contact:phone": "+4858 623 02 21", "dispensing": "yes", "name": "Dom Lek\u00f3w", "opening_hours": "Mo-Fr 08:00-20:00; Sa 09:00-14:00", "operator": "Dom Lek\u00f3w", "ref:csioz": "1189337", "website": "https://domlekow.pl/apteki.php?cID=46&aID=81&action=show"}}, {"type": "node", "id": 1910270251, "lat": 54.4997229, "lon": 18.514877, "tags": {"addr:city": "Gdynia", "addr:housenumber": "1/9", "addr:postcode": "81-653", "addr:street": "Narcyzowa", "amenity": "pharmacy", "contact:phone": "+48 58 621 44 75", "dispensing": "yes", "healthcare": "pharmacy", "name": "Dom Lek\u00f3w", "opening_hours": "Mo-Fr 08:00-20:00; Sa 08:00-15:00", "operator": "Dom Lek\u00f3w", "ref:csioz": "1189368"}}, {"type": "node", "id": 1910277880, "lat": 54.3831179, "lon": 18.6242233, "tags": {"addr:city": "Gda\u0144sk", "addr:country": "PL", "addr:housenumber": "27A", "addr:postcode": "80-405", "addr:street": "Adama Mickiewicza", "amenity": "pharmacy", "brand": "Dom Lek\u00f3w", "contact:phone": "+48 58 341 63 62", "dispensing": "yes", "drive_through": "no", "email": "aptekamickiewicza@wp.pl", "healthcare": "pharmacy", "name": "Dom Lek\u00f3w", "opening_hours": "Mo-Fr 07:00-20:00; Sa 08:00-14:00", "operator": "Superfarmacja", "ref:csioz": "1189300"}}, {"type": "node", "id": 1991232145, "lat": 54.5508563, "lon": 18.536563, "tags": {"amenity": "pharmacy", "dispensing": "yes", "name": "Dbam o Zdrowie", "official_name": "Doz Apteka. Dbam O Zdrowie. Oksywska", "opening_hours": "Mo-Fr 08:00-20:00; Sa 10:00-13:00", "ref:csioz": "1031292"}}, {"type": "node", "id": 2082217475, "lat": 54.4699693, "lon": 18.5011206, "tags": {"amenity": "pharmacy", "check_date:opening_hours": "2024-12-24", "contact:phone": "+48 58 629-34-84", "dispensing": "yes", "healthcare": "pharmacy", "name": "Korzenna", "opening_hours": "Mo-Fr 08:00-20:00; Sa 08:30-15:00", "ref:csioz": "1031237"}}, {"type": "node", "id": 2161919218, "lat": 54.430188, "lon": 18.5623801, "tags": {"addr:city": "Sopot", "addr:housenumber": "675", "addr:postcode": "81-854", "addr:street": "Aleja Niepodleg\u0142o\u015bci", "amenity": "pharmacy", "dispensing": "yes", "email": "przypetli@gmail.com", "healthcare": "pharmacy", "name": "Przy P\u0119tli", "opening_hours": "Mo-Fr 08:00-20:00; Sa 09:00-14:00", "ref:csioz": "1116954"}}, {"type": "node", "id": 2208753252, "lat": 54.39281, "lon": 18.40736, "tags": {"addr:city": "Banino", "addr:housenumber": "25", "addr:postcode": "80-297", "addr:street": "Klonowa", "amenity": "pharmacy", "drive_through": "no", "email": "aptekawbaninie@wp.pl", "level": "0", "name": "W Baninie", "opening_hours": "Mo-Fr 08:30-18:00; Sa 09:00-14:00", "operator": "MEDPHARM S.C.", "phone": "+48 58 681 89 91", "ref:csioz": "1032370", "source": "notes;http://apteka-banino.pl", "source:addr": "UG \u017bukowo", "website": "https://apteka-banino.pl/"}}, {"type": "node", "id": 2250178132, "lat": 54.2891539, "lon": 18.220049, "tags": {"addr:city": "Kie\u0142pino", "addr:housenumber": "36d", "addr:postcode": "83-307", "addr:street": "D\u0142uga", "amenity": "pharmacy", "healthcare": "pharmacy", "name": "\u015aw. Paw\u0142a", "opening_hours:covid19": "Mo-Fr 08:00-20:00, Su 8:00-14:00", "ref:csioz": "1031931"}}, {"type": "node", "id": 2288102107, "lat": 54.5493868, "lon": 18.5336236, "tags": {"amenity": "pharmacy", "dispensing": "yes", "name": "Datura", "opening_hours": "Mo-Fr 08:00-20:00; Sa 08:00-14:00", "ref:csioz": "1030468", "source": "survey"}}, {"type": "node", "id": 2318610363, "lat": 54.5179921, "lon": 18.5369325, "tags": {"amenity": "pharmacy", "check_date": "2025-06-12", "check_date:opening_hours": "2025-06-12", "dispensing": "yes", "healthcare": "pharmacy", "name": "Apteka Chabrowa", "opening_hours": "Mo-Fr 07:00-20:00; Sa 09:00-15:00", "ref:csioz": "1031347", "source": "survey"}}, {"type": "node", "id": 2318724648, "lat": 54.3308561, "lon": 18.5866398, "tags": {"addr:city": "Gda\u0144sk", "addr:housenumber": "3", "addr:street": "Ostro\u0142\u0119cka", "amenity": "pharmacy", "brand": "Dbam o Zdrowie", "brand:wikidata": "Q62563833", "dispensing": "yes", "email": "apt69137@dbamozdrowie.pl", "healthcare": "pharmacy", "name": "Dbam o Zdrowie", "ref:csioz": "1030484"}}, {"type": "node", "id": 2339644807, "lat": 54.5226743, "lon": 18.5426282, "tags": {"amenity": "pharmacy", "dispensing": "yes", "healthcare": "pharmacy", "name": "Apteka Dy\u017curna", "opening_hours": "24/7", "ref:csioz": "1029752"}}, {"type": "node", "id": 2353787454, "lat": 54.4865405, "lon": 18.2185022, "tags": {"addr:city": "Szemud", "addr:housenumber": "26", "addr:postcode": "84-217", "addr:street": "Wejherowska", "amenity": "pharmacy", "check_date:opening_hours": "2024-08-28", "dispensing": "yes", "healthcare": "pharmacy", "name": "Premium", "opening_hours": "Mo-Fr 08:00-18:00", "ref:csioz": "1174074"}}, {"type": "node", "id": 2356709409, "lat": 54.5691452, "lon": 18.3915685, "tags": {"addr:city": "Rumia", "addr:housenumber": "4A", "addr:postcode": "84-230", "addr:street": "Starowiejska", "amenity": "pharmacy", "dispensing": "yes", "healthcare": "pharmacy", "name": "Starowiejska", "opening_hours": "Mo-Su,PH 08:00-21:00", "ref:csioz": "1026377", "source": "survey"}}, {"type": "node", "id": 2358417770, "lat": 54.5219102, "lon": 18.5323066, "tags": {"addr:city": "Gdynia", "addr:housenumber": "49", "addr:postcode": "81-355", "addr:street": "W\u00f3jta Radtkego", "amenity": "pharmacy", "brand": "Dbam o Zdrowie", "brand:wikidata": "Q62563833", "dispensing": "yes", "healthcare": "pharmacy", "name": "Dbam o Zdrowie", "official_name": "Apteka Dbam O Zdrowie", "opening_hours": "Mo-Fr 07:00-18:00; Sa 08:00-15:00", "ref:csioz": "1030129", "short_name": "DOZ"}}, {"type": "node", "id": 2359033393, "lat": 54.5446055, "lon": 18.4634282, "tags": {"amenity": "pharmacy", "dispensing": "yes", "healthcare": "pharmacy", "name": "Apteka Gemini", "ref:csioz": "1223986", "source": "survey"}}, {"type": "node", "id": 2378268935, "lat": 54.3302351, "lon": 18.6074949, "tags": {"addr:city": "Gda\u0144sk", "addr:housenumber": "23", "addr:postcode": "80-034", "addr:street": "Wawelska", "amenity": "pharmacy", "brand": "Dbam o Zdrowie", "brand:wikidata": "Q62563833", "dispensing": "yes", "email": "apt86453@dbamozdrowie.pl", "healthcare": "pharmacy", "name": "Dbam o Zdrowie", "opening_hours": "Mo-Fr 09:00-17:00; Sa 09:00-14:00", "ref:csioz": "1031438"}}, {"type": "node", "id": 2402208620, "lat": 54.3664472, "lon": 18.6277917, "tags": {"addr:city": "Gda\u0144sk", "addr:housenumber": "5", "addr:postcode": "80-210", "addr:street": "Marii Sk\u0142odowskiej-Curie", "amenity": "pharmacy", "brand": "Dr. Max", "brand:wikidata": "Q56317371", "brand:wikipedia": "fr:Dr.Max", "dispensing": "yes", "email": "gdansk.sklodowskiej@drmax.com.pl", "healthcare": "pharmacy", "name": "Dr. Max", "opening_hours": "Mo-Fr 08:00-20:00; Sa 08:00-16:00", "ref:csioz": "1028116"}}, {"type": "node", "id": 2420611409, "lat": 54.4065412, "lon": 18.6341252, "tags": {"addr:city": "Gda\u0144sk", "addr:housenumber": "13", "addr:postcode": "80-508", "addr:street": "Konrada Korzeniowskiego", "amenity": "pharmacy", "brand": "Gemini", "brand:wikidata": "Q130243797", "dispensing": "yes", "healthcare": "pharmacy", "name": "Gemini", "opening_hours": "Mo-Fr 09:00-19:30; Sa 09:00-14:30", "ref:csioz": "1027425"}}, {"type": "node", "id": 2424575294, "lat": 54.3778914, "lon": 18.605611, "tags": {"addr:city": "Gda\u0144sk", "addr:housenumber": "5", "addr:postcode": "80-254", "addr:street": "Partyzant\u00f3w", "amenity": "pharmacy", "brand": "Dr. Max", "brand:wikidata": "Q56317371", "brand:wikipedia": "fr:Dr.Max", "check_date": "2025-07-23", "dispensing": "yes", "email": "gdansk.grunwaldzka100@drmax.com.pl", "healthcare": "pharmacy", "name": "Dr. Max", "opening_hours": "Mo-Fr 08:00-20:00; Sa 08:00-15:00", "payment:maestro": "yes", "payment:mastercard": "yes", "payment:visa": "yes", "payment:visa_electron": "yes", "ref:csioz": "1032590", "source": "survey"}}, {"type": "node", "id": 2455128137, "lat": 54.416074, "lon": 18.5577735, "tags": {"addr:city": "Gda\u0144sk", "addr:housenumber": "14", "addr:street": "J\u00f3zefa Czy\u017cewskiego", "amenity": "pharmacy", "dispensing": "yes", "email": "apteka-slowianska@wp.pl", "name": "S\u0142owia\u0144ska", "opening_hours": "Mo-Fr 08:00-19:00; Sa 08:00-14:00", "ref:csioz": "1027350"}}, {"type": "node", "id": 2489960825, "lat": 54.5213432, "lon": 18.5419234, "tags": {"amenity": "pharmacy", "dispensing": "yes", "healthcare": "pharmacy", "name": "Aptecus", "official_name": "Aptecus 6", "opening_hours": "Mo-Fr 08:00-20:00; Sa 09:00-15:00", "ref:csioz": "1113486", "source": "survey"}}, {"type": "node", "id": 2507531386, "lat": 54.4530409, "lon": 18.3315291, "tags": {"addr:city": "Kielno", "addr:housenumber": "6", "addr:postcode": "84-208", "addr:street": "Le\u015bna", "amenity": "pharmacy", "dispensing": "yes", "name": "Punkt Apteczny Na Zdrowie", "ref:csioz": "1033987"}}, {"type": "node", "id": 2602175697, "lat": 54.3829785, "lon": 18.6162001, "tags": {"addr:city": "Gda\u0144sk", "addr:housenumber": "1", "addr:street": "Adama Mickiewicza", "amenity": "pharmacy", "brand": "Dbam o Zdrowie", "brand:wikidata": "Q62563833", "check_date": "2025-01-27", "dispensing": "yes", "email": "apteka@apteka.gda.pl", "healthcare": "pharmacy", "internet_access": "no", "name": "Dbam o Zdrowie", "opening_hours": "Mo-Fr 08:00-20:00; Sa 08:00-15:00", "payment:cash": "yes", "payment:credit_cards": "yes", "payment:debit_cards": "yes", "ref:csioz": "1030862", "wheelchair": "yes"}}, {"type": "node", "id": 2614888942, "lat": 54.4186716, "lon": 18.4784377, "tags": {"addr:city": "Gda\u0144sk", "addr:housenumber": "98", "addr:street": "Junony", "amenity": "pharmacy", "dispensing": "yes", "name": "Farmacja24", "opening_hours": "Mo-Sa 07:00-22:00; Su 08:00-20:00", "ref:csioz": "1201759"}}, {"type": "node", "id": 2616576988, "lat": 54.4255303, "lon": 18.4732062, "tags": {"addr:city": "Gda\u0144sk", "addr:housenumber": "2", "addr:street": "Kozioro\u017cca", "amenity": "pharmacy", "dispensing": "yes", "name": "Rodzinna", "ref:csioz": "1113385"}}, {"type": "node", "id": 2622577085, "lat": 54.3817936, "lon": 18.6085322, "tags": {"addr:city": "Gda\u0144sk", "addr:housenumber": "12", "addr:postcode": "80-437", "addr:street": "Wajdeloty", "amenity": "pharmacy", "brand": "Dbam o Zdrowie", "brand:wikidata": "Q62563833", "check_date": "2025-03-19", "dispensing": "yes", "drive_through": "no", "email": "apt131582@dbamozdrowie.pl", "healthcare": "pharmacy", "name": "Dbam o Zdrowie", "opening_hours": "Mo-Sa 08:00-20:00; Su 09:00-17:00", "operator": "DOZ.pl Sp. z o.o.", "payment:cash": "yes", "payment:credit_cards": "yes", "ref:csioz": "1181973", "short_name": "DOZ", "website": "https://www.doz.pl/apteki/a131582-Apteka_Dbam_o_Zdrowie"}}, {"type": "node", "id": 2624732955, "lat": 54.5464798, "lon": 18.4419951, "tags": {"addr:city": "Gdynia", "addr:housenumber": "230", "addr:postcode": "81-006", "addr:street": "Morska", "amenity": "pharmacy", "dispensing": "yes", "name": "Eskulap", "ref:csioz": "1027391"}}, {"type": "node", "id": 2632995598, "lat": 54.3805418, "lon": 18.6046897, "tags": {"addr:city": "Gda\u0144sk", "addr:housenumber": "4A", "addr:street": "Klonowa", "amenity": "pharmacy", "brand": "Dr. Max", "brand:wikidata": "Q56317371", "brand:wikipedia": "fr:Dr.Max", "check_date": "2025-03-18", "dispensing": "yes", "email": "gdansk.klonowa@drmax.com.pl", "healthcare": "pharmacy", "name": "Dr. Max", "opening_hours": "Mo-Fr 07:00-20:00; Sa 08:00-18:00", "ref:csioz": "1112586"}}, {"type": "node", "id": 2657832477, "lat": 54.4707395, "lon": 18.4876866, "tags": {"addr:city": "Gdynia", "addr:housenumber": "21c", "addr:street": "Chwaszczy\u0144ska", "amenity": "pharmacy", "brand": "Dr. Max", "brand:wikidata": "Q56317371", "dispensing": "yes", "drive_through": "no", "healthcare": "pharmacy", "name": "Dr. Max", "opening_hours": "Mo-Su 07:00-22:00", "phone": "58 660 80 80", "ref:csioz": "1031079"}}, {"type": "node", "id": 2670452048, "lat": 54.5211425, "lon": 18.5380349, "tags": {"amenity": "pharmacy", "brand": "Dbam o Zdrowie", "brand:wikidata": "Q62563833", "check_date:opening_hours": "2023-07-09", "contact:phone": "+48 58 6606209", "contact:website": "http://www.doz.pl/apteki/a71274-Apteka_Dbam_o_Zdrowie", "dispensing": "yes", "name": "Dbam o Zdrowie", "official_name": "Apteka Dbam O Zdrowie", "opening_hours": "Mo-Fr 08:00-20:00; Sa 08:00-15:00; PH off", "ref:csioz": "1030540", "source": "survey"}}, {"type": "node", "id": 2676684856, "lat": 54.3554191, "lon": 18.6834824, "tags": {"addr:city": "Gda\u0144sk", "addr:housenumber": "20", "addr:street": "Kryniczna", "amenity": "pharmacy", "dispensing": "yes", "healthcare": "pharmacy", "name": "Nad Wis\u0142\u0105", "opening_hours": "Mo-Fr 8:00-20:00; Sa 8:00-15:00", "phone": "+48 58 303 84 64", "ref:csioz": "1029936", "website": "http://www.aptekanadwislagdansk.pl/"}}, {"type": "node", "id": 2684230501, "lat": 54.4031919, "lon": 18.6123282, "tags": {"addr:city": "Gda\u0144sk", "addr:housenumber": "50", "addr:street": "Aleja Jana Paw\u0142a II", "amenity": "pharmacy", "brand": "Dr. Max", "brand:wikidata": "Q56317371", "brand:wikipedia": "fr:Dr.Max", "check_date": "2024-01-29", "dispensing": "yes", "email": "gdansk.janapawlaII@drmax.com.pl", "healthcare": "pharmacy", "name": "Dr. Max", "ref:csioz": "1185063"}}, {"type": "node", "id": 2685543689, "lat": 54.3564489, "lon": 18.6300457, "tags": {"addr:city": "Gda\u0144sk", "addr:housenumber": "1", "addr:street": "Jana Kozietulskiego", "amenity": "pharmacy", "dispensing": "yes", "healthcare": "pharmacy", "name": "Tradycyjna", "ref:csioz": "1030325"}}, {"type": "node", "id": 2685967926, "lat": 54.5587675, "lon": 18.5131286, "tags": {"amenity": "pharmacy", "dispensing": "yes", "healthcare": "pharmacy", "name": "Forte", "opening_hours": "Mo-Fr 09:00-20:00; Sa 09:00-14:00", "ref:csioz": "1027685", "source": "survey"}}, {"type": "node", "id": 2706762386, "lat": 54.4944867, "lon": 18.5513454, "tags": {"amenity": "pharmacy", "brand": "Dbam o Zdrowie", "brand:wikidata": "Q62563833", "dispensing": "yes", "healthcare": "pharmacy", "name": "Dbam o Zdrowie", "ref:csioz": "1031782", "short_name": "DOZ"}}, {"type": "node", "id": 2708594664, "lat": 54.4432243, "lon": 18.4188151, "tags": {"addr:city": "Chwaszczyno", "addr:flats": "2", "addr:housenumber": "135", "addr:postcode": "80-209", "addr:street": "Oliwska", "amenity": "pharmacy", "name": "w Chwaszczynie", "ref:csioz": "1033621"}}, {"type": "node", "id": 2901475585, "lat": 54.3391366, "lon": 18.5653384, "tags": {"addr:city": "Gda\u0144sk", "addr:housenumber": "1A", "addr:street": "Damroki", "amenity": "pharmacy", "dispensing": "yes", "email": "apteka.damroki@gmail.com", "name": "Damroki", "ref:csioz": "1027482"}}, {"type": "node", "id": 2919877435, "lat": 54.3351177, "lon": 18.2013496, "tags": {"addr:city": "Kartuzy", "addr:housenumber": "13", "addr:postcode": "83-300", "addr:street": "3 Maja", "amenity": "pharmacy", "dispensing": "yes", "email": "aptekadm@farmjug.pl", "healthcare": "pharmacy", "name": "Dr Majkowskiego", "official_name": "Apteka im. Dr Majkowskiego", "opening_hours": "Mo-Fr 08:00-21:00; Sa 08:00-15:00; Su,PH off", "operator": "Farmjug Sp. z o.o.", "phone": "+48 58 684 07 09", "ref:csioz": "1029865", "website": "https://www.farmjug.pl/index.php?p=2&s=2"}}, {"type": "node", "id": 2961962042, "lat": 54.3605433, "lon": 18.5908442, "tags": {"addr:city": "Gda\u0144sk", "addr:floor": "0", "addr:housenumber": "1", "addr:street": "Zofii Na\u0142kowskiej", "amenity": "pharmacy", "check_date": "2024-06-05", "dispensing": "yes", "email": "gdansk@medapteka.pl", "healthcare": "pharmacy", "internet_access": "no", "level": "0", "name": "Med", "opening_hours": "Mo-Fr 08:00-19:00; Sa 08:00-14:00", "payment:cash": "yes", "payment:credit_cards": "yes", "payment:debit_cards": "yes", "ref:csioz": "1218384", "wheelchair": "yes"}}, {"type": "node", "id": 2969078086, "lat": 54.3748311, "lon": 18.6118581, "tags": {"addr:city": "Gda\u0144sk", "addr:housenumber": "3", "addr:street": "Jana Matejki", "amenity": "pharmacy", "dispensing": "yes", "email": "aptekanamatejki@wp.pl", "healthcare": "pharmacy", "name": "Recepturowa", "phone": "+48583453572", "ref:csioz": "1028984"}}, {"type": "node", "id": 3024958079, "lat": 54.5406464, "lon": 18.4779045, "tags": {"amenity": "pharmacy", "dispensing": "yes", "name": "Dbam o Zdrowie", "opening_hours": "Mo-Sa 07:00-21:00; Su 08:00-20:00", "phone": "+48 58 623 45 34", "ref:csioz": "1030492", "short_name": "DOZ"}}, {"type": "node", "id": 3027247419, "lat": 54.3937281, "lon": 18.3961073, "tags": {"addr:city": "Banino", "addr:housenumber": "62", "addr:postcode": "80-297", "addr:street": "Lotnicza", "amenity": "pharmacy", "dispensing": "yes", "email": "aptekakb@farmjug.pl", "image": "http://farmjug.pl/images/apteka5b.jpg", "level": "0", "name": "Kaszubska", "opening_hours": "Mo-Fr 08:00-20:00; Sa 08:00-15:00; Su,PH off", "operator": "FARMJUG Sp. z o.o.", "payment:bancomat": "yes", "payment:cash": "yes", "payment:maestro": "yes", "payment:mastercard": "yes", "payment:visa": "yes", "payment:visa_debit": "yes", "payment:visa_electron": "yes", "phone": "+48583334311", "ref:csioz": "1032920", "website": "https://farmjug.pl/index.php?p=2&s=5"}}, {"type": "node", "id": 3028033886, "lat": 54.509592, "lon": 18.5380842, "tags": {"addr:city": "Gdynia", "addr:housenumber": "122", "addr:postcode": "81-388", "addr:street": "\u015awi\u0119toja\u0144ska", "amenity": "pharmacy", "dispensing": "yes", "healthcare": "pharmacy", "name": "EuroApteka", "official_name": "Euro-Apteka \"Centrum Farmaceutyczne\"", "ref:csioz": "1030459"}}, {"type": "node", "id": 3029441634, "lat": 54.3586336, "lon": 18.6269912, "tags": {"addr:city": "Gda\u0144sk", "addr:housenumber": "8/7", "addr:postcode": "80-156", "addr:street": "Marsza\u0142ka Ferdynanda Focha", "amenity": "pharmacy", "dispensing": "yes", "healthcare": "pharmacy", "name": "S\u0142oneczna", "opening_hours": "Mo-Fr 09:00-20:00;Sa 09:00-14:00;Su off", "ref:csioz": "1112426"}}, {"type": "node", "id": 3061657794, "lat": 54.5531548, "lon": 18.5059045, "tags": {"amenity": "pharmacy", "dispensing": "yes", "name": "Mediqus", "opening_hours": "Mo-Fr 08:00-20:00; Sa 08:00-14:00", "ref:csioz": "1122259", "source": "survey", "survey:date": "2014-09-05"}}, {"type": "node", "id": 3086778207, "lat": 54.2721766, "lon": 18.4672085}, {"type": "node", "id": 3086778209, "lat": 54.2722646, "lon": 18.46714}, {"type": "node", "id": 3086778210, "lat": 54.2722401, "lon": 18.4674925}, {"type": "node", "id": 3086778215, "lat": 54.2723301, "lon": 18.4674224}, {"type": "node", "id": 3111586260, "lat": 54.3523519, "lon": 18.5135875, "tags": {"addr:city": "Gda\u0144sk", "addr:housenumber": "4", "addr:street": "Kalinowa", "amenity": "pharmacy", "dispensing": "yes", "healthcare": "pharmacy", "name": "Kalina", "opening_hours": "Mo-Fr 08:00-20:00; Sa 09:00-16:00", "ref:csioz": "1123269", "wheelchair": "yes"}}, {"type": "node", "id": 3145251851, "lat": 54.3781809, "lon": 18.608035, "tags": {"addr:city": "Gda\u0144sk", "addr:housenumber": "83", "addr:street": "Aleja Grunwaldzka", "amenity": "pharmacy", "brand": "Dbam o Zdrowie", "brand:wikidata": "Q62563833", "check_date": "2025-06-03", "dispensing": "yes", "healthcare": "pharmacy", "name": "Dbam o Zdrowie", "opening_hours": "Mo-Fr 08:00-20:00; Sa 09:00-15:00; Su off", "ref:csioz": "1029961"}}, {"type": "node", "id": 3159978623, "lat": 54.3662556, "lon": 18.6285036, "tags": {"addr:city": "Gda\u0144sk", "addr:housenumber": "3", "addr:postcode": "80-210", "addr:street": "Marii Sk\u0142odowskiej-Curie", "amenity": "pharmacy", "dispensing": "yes", "healthcare": "pharmacy", "name": "Przy Akademii", "opening_hours": "Mo-Fr 07:00-19:00; Sa 09:00-16:00; Su 09:00-15:00", "ref:csioz": "1027956"}}, {"type": "node", "id": 3559250588, "lat": 54.5228285, "lon": 18.5218318, "tags": {"addr:city": "Gdynia", "addr:housenumber": "49", "addr:postcode": "81-332", "addr:street": "Morska", "amenity": "pharmacy", "contact:phone": "+48586207062", "dispensing": "yes", "name": "Apteka Morska", "opening_hours": "Mo-Fr 09:00-18:30; Sa 09:00-14:00; Su 10:00-13:00", "ref:csioz": "1028048", "source": "survey", "survey:date": "2015-05-30"}}, {"type": "node", "id": 3559560441, "lat": 54.5300243, "lon": 18.4994095, "tags": {"amenity": "pharmacy", "dispensing": "yes", "healthcare": "pharmacy", "name": "Dom Lek\u00f3w", "opening_hours": "24/7", "ref:csioz": "1113336", "source": "survey", "survey:date": "2015-05-30"}}, {"type": "node", "id": 3604478423, "lat": 54.4882008, "lon": 18.3414943, "tags": {"addr:city": "Koleczkowo", "addr:housenumber": "16", "addr:postcode": "84-207", "addr:street": "Wejherowska", "amenity": "pharmacy", "dispensing": "yes", "healthcare": "pharmacy", "name": "Rodzinna", "opening_hours": "Mo-Fr 8:00-19:00, Sa 9:00-14:00", "phone": "+48 58 677 00 80", "ref:csioz": "1033659"}}, {"type": "node", "id": 3618181089, "lat": 54.4718582, "lon": 18.3842379, "tags": {"addr:city": "Bojano", "addr:housenumber": "20", "addr:postcode": "84-207", "addr:street": "J\u00f3zefa Wybickiego", "amenity": "pharmacy", "dispensing": "yes", "healthcare": "pharmacy", "name": "Bojano", "ref:csioz": "1203879"}}, {"type": "node", "id": 3637115154, "lat": 54.2697301, "lon": 18.468728, "tags": {"addr:city": "Kolbudy", "addr:housenumber": "2", "addr:postcode": "83-050", "addr:street": "Le\u015bna", "amenity": "pharmacy", "healthcare": "pharmacy", "name": "Apteka Rodzinna II", "ref:csioz": "1112564"}}, {"type": "node", "id": 3673913181, "lat": 54.3413047, "lon": 18.6167835, "tags": {"addr:city": "Gda\u0144sk", "addr:housenumber": "15D", "addr:street": "Marcina Dragana", "amenity": "pharmacy", "dispensing": "yes", "healthcare": "pharmacy", "name": "Polska", "ref:csioz": "1033226"}}, {"type": "node", "id": 3673913188, "lat": 54.3401013, "lon": 18.6189089, "tags": {"addr:city": "Gda\u0144sk", "addr:housenumber": "29", "addr:postcode": "80-807", "addr:street": "Tytusa Cha\u0142ubi\u0144skiego", "amenity": "pharmacy", "brand": "Dbam o Zdrowie", "brand:wikidata": "Q62563833", "dispensing": "yes", "email": "apt119097@dbamozdrowie.pl", "healthcare": "pharmacy", "name": "Dbam o Zdrowie", "ref:csioz": "1031423"}}, {"type": "node", "id": 3675660619, "lat": 54.5143266, "lon": 18.5325443, "tags": {"amenity": "pharmacy", "dispensing": "yes", "healthcare": "pharmacy", "name": "Apteka Dy\u017curna", "opening_hours": "Mo-Fr 08:00-20:15; Sa 08:00-15:00", "ref:csioz": "1033138", "source": "survey", "survey:date": "2015-07-31"}}, {"type": "node", "id": 3686752444, "lat": 54.3266714, "lon": 18.1958102, "tags": {"addr:city": "Kartuzy", "addr:housenumber": "3A", "addr:postcode": "83-300", "addr:street": "Osiedle Genera\u0142a J\u00f3zefa Wybickiego", "amenity": "pharmacy", "dispensing": "yes", "email": "aptekahuberta@farmjug.pl", "name": "\u015aw. Huberta", "opening_hours": "Mo-Fr 08:00-20:00; Sa 08:00-15:00; Su 09:00-15:00", "operator": "FARMJUG Sp. z o.o.", "phone": "+48 58 681 45 60", "ref:csioz": "1029854", "website": "https://www.farmjug.pl/index.php?p=2&s=3"}}, {"type": "node", "id": 3686752450, "lat": 54.3311488, "lon": 18.2016129, "tags": {"addr:city": "Kartuzy", "addr:housenumber": "14", "addr:postcode": "83-300", "addr:street": "Gda\u0144ska", "amenity": "pharmacy", "brand": "Dom Lek\u00f3w", "brand:wikidata": "Q130487923", "healthcare": "pharmacy", "name": "Dom Lek\u00f3w", "opening_hours": "Mo-Sa 07:00-21:00; Su 10:00-20:00", "operator": "Dom Lek\u00f3w", "ref:csioz": "1216854"}}, {"type": "node", "id": 3686752451, "lat": 54.3330693, "lon": 18.2021137, "tags": {"addr:city": "Kartuzy", "addr:housenumber": "17", "addr:postcode": "83-300", "addr:street": "Tadeusza Ko\u015bciuszki", "amenity": "pharmacy", "email": "aptekatk@farmjug.pl", "healthcare": "pharmacy", "name": "Tadeusza Ko\u015bciuszki", "official_name": "Apteka im. T. Ko\u015bciuszki", "opening_hours": "Mo-Fr 08:00-20:00; Sa 08:00-15:00; Su 09:00-15:00", "operator": "Farmjug Sp. z o.o.", "phone": "+48 58 681 32 13", "ref:csioz": "1027855", "website": "https://www.farmjug.pl/index.php?p=2&s=1"}}, {"type": "node", "id": 3686752453, "lat": 54.3339826, "lon": 18.2015657, "tags": {"addr:city": "Kartuzy", "addr:housenumber": "10", "addr:postcode": "83-300", "addr:street": "Rynek", "amenity": "pharmacy", "brand": "Dbam o Zdrowie", "brand:wikidata": "Q62563833", "email": "apt101255@dbamozdrowie.pl", "healthcare": "pharmacy", "name": "Dbam o Zdrowie", "official_name": "Apteka Dbam o Zdrowie", "opening_hours": "Mo-Fr 08:00-20:00; Sa 08:00-16:00", "operator": "Dbam o Zdrowie", "phone": "+48 58 6810484", "ref:csioz": "1031318", "website": "https://www.doz.pl/apteki/a101255-DOZ_Apteka_Dbam_o_Zdrowie"}}, {"type": "node", "id": 3686752454, "lat": 54.34073, "lon": 18.2019892, "tags": {"addr:city": "Kartuzy", "addr:housenumber": "13", "addr:postcode": "83-300", "addr:street": "M\u015bciwoja II", "amenity": "pharmacy", "email": "aptekams@farmjug.pl", "healthcare": "pharmacy", "name": "M\u015bciwoja II", "official_name": "Apteka im. M\u015bciwoja II", "opening_hours": "Mo-Fr 07:00-22:00; Sa 08:00-22:00; Su 09:00-22:00", "operator": "Farmjug Sp. z o.o.", "phone": "+48 58 736 61 34", "ref:csioz": "1033408", "website": "https://www.farmjug.pl/"}}, {"type": "node", "id": 3686785787, "lat": 54.5823213, "lon": 18.4938872, "tags": {"addr:city": "Kosakowo", "addr:housenumber": "34", "addr:postcode": "81-198", "addr:street": "Stefana \u017beromskiego", "amenity": "pharmacy", "dispensing": "yes", "healthcare": "pharmacy", "name": "Przystanek", "ref:csioz": "1230847"}}, {"type": "node", "id": 3702839397, "lat": 54.3373596, "lon": 18.1982165, "tags": {"addr:city": "Kartuzy", "addr:housenumber": "8", "addr:postcode": "83-300", "addr:street": "Floriana Ceynowy", "amenity": "pharmacy", "dispensing": "yes", "healthcare": "pharmacy", "name": "Dom Lek\u00f3w", "opening_hours": "Mo-Fr 08:00-20:00; Sa 09:00-15:00", "operator": "Dom Lek\u00f3w", "phone": "+48 58 684 08 79", "ref:csioz": "1032973", "website": "https://domlekow.pl/nasze-apteki"}}, {"type": "node", "id": 3776488560, "lat": 54.5754157, "lon": 18.4707462, "tags": {"addr:city": "Suchy Dw\u00f3r", "addr:housenumber": "1", "addr:postcode": "81-198", "addr:street": "Sowia", "amenity": "pharmacy", "name": "Punkt Apteczny Punkt Zdrowia", "opening_hours": "Mo-Fr 08:30-20:00; Sa 09:00-14:00", "ref:csioz": "1230840", "wheelchair": "yes"}}, {"type": "node", "id": 3785376588, "lat": 54.5211749, "lon": 18.5324516, "tags": {"amenity": "pharmacy", "dispensing": "yes", "healthcare": "pharmacy", "name": "Apteka Gdy\u0144ska", "opening_hours": "Mo-Fr 08:00-20:00; Sa 09:00-15:00", "ref:csioz": "1029182", "source": "survey", "survey:date": "2023-04-02"}}, {"type": "node", "id": 3790593677, "lat": 54.5212972, "lon": 18.5368817, "tags": {"amenity": "pharmacy", "dispensing": "yes", "healthcare": "pharmacy", "name": "Gemini", "official_name": "Apteka Gemini", "old_name": "Pod Gryfem", "opening_hours": "Mo-Fr 08:00-18:00; Sa 08:00-15:00; Su off", "phone": "+48586220199", "ref:csioz": "1211274", "source": "survey"}}, {"type": "node", "id": 3842670296, "lat": 54.3514725, "lon": 18.651917, "tags": {"addr:city": "Gda\u0144sk", "addr:housenumber": "21", "addr:postcode": "80-835", "addr:street": "Szeroka", "amenity": "pharmacy", "brand": "Dbam o Zdrowie", "brand:wikidata": "Q62563833", "check_date": "2025-07-30", "dispensing": "yes", "drive_through": "no", "email": "apt69138@dbamozdrowie.pl", "healthcare": "pharmacy", "name": "Dbam o Zdrowie", "opening_hours": "Mo-Fr 08:00-20:00; Sa 09:00-16:00", "operator": "DOZ.pl Sp. z o.o.", "ref:csioz": "1030413"}}, {"type": "node", "id": 3870489178, "lat": 54.2555404, "lon": 18.6329231, "tags": {"addr:city": "Pruszcz Gda\u0144ski", "addr:housenumber": "11", "addr:postcode": "83-000", "addr:street": "Wojska Polskiego", "amenity": "pharmacy", "healthcare": "pharmacy", "name": "Centralna", "ref:csioz": "1171010"}}, {"type": "node", "id": 3882087192, "lat": 54.3561455, "lon": 18.6135687, "tags": {"addr:city": "Gda\u0144sk", "addr:housenumber": "22A", "addr:postcode": "80-171", "addr:street": "Ludwika Beethovena", "amenity": "pharmacy", "brand": "Dbam o Zdrowie", "brand:wikidata": "Q62563833", "dispensing": "yes", "email": "apteka22a@gmail.com", "healthcare": "pharmacy", "name": "Dbam o Zdrowie", "opening_hours": "Mo-Fr 07:45-20:00; Sa 08:00-14:00", "operator": "DOZ.pl Sp. z o.o.", "ref:csioz": "1029491"}}, {"type": "node", "id": 3935100343, "lat": 54.2610934, "lon": 18.6335104, "tags": {"addr:city": "Pruszcz Gda\u0144ski", "addr:housenumber": "14", "addr:postcode": "83-000", "addr:street": "Wojska Polskiego", "amenity": "pharmacy", "healthcare": "pharmacy", "name": "Rodzinna", "ref:csioz": "1030533"}}, {"type": "node", "id": 3940166057, "lat": 54.3111498, "lon": 18.5667908, "tags": {"addr:city": "Kowale", "addr:housenumber": "32A", "addr:postcode": "80-180", "addr:street": "Staropolska", "amenity": "pharmacy", "brand": "Dr. Max", "brand:wikidata": "Q56317371", "brand:wikipedia": "fr:Dr.Max", "healthcare": "pharmacy", "name": "Dr. Max", "ref:csioz": "1220372"}}, {"type": "node", "id": 4012266709, "lat": 54.380614, "lon": 18.5995936, "tags": {"addr:city": "Gda\u0144sk", "addr:housenumber": "2", "addr:street": "Jesionowa", "amenity": "pharmacy", "check_date": "2025-07-23", "dispensing": "yes", "email": "apteka.jesionowa@upcpoczta.pl", "healthcare": "pharmacy", "name": "Jesionowa", "opening_hours": "Mo-Fr 09:00-18:00", "ref:csioz": "1027745"}}, {"type": "node", "id": 4113400684, "lat": 54.572981, "lon": 18.4176754, "tags": {"addr:city": "Rumia", "addr:housenumber": "132", "addr:postcode": "84-230", "addr:street": "D\u0119bog\u00f3rska", "amenity": "pharmacy", "dispensing": "yes", "healthcare": "pharmacy", "name": "EKOzdrowie", "opening_hours": "24/7", "phone": "+48 58 670 48 48", "ref:csioz": "1184070", "website": "https://m.facebook.com/Apteka-EKOzdrowie-728468610596110/"}}, {"type": "node", "id": 4116162991, "lat": 54.3255485, "lon": 18.6063549, "tags": {"addr:city": "Gda\u0144sk", "addr:housenumber": "137D", "addr:street": "Kr\u00f3lowej Jadwigi", "amenity": "pharmacy", "dispensing": "yes", "email": "geminiorunia@aptekigemini.pl", "healthcare": "pharmacy", "name": "Gemini", "ref:csioz": "1201131"}}, {"type": "node", "id": 4170217922, "lat": 54.4412406, "lon": 18.5627371, "tags": {"addr:city": "Sopot", "addr:housenumber": "14", "addr:postcode": "81-704", "addr:street": "Tadeusza Ko\u015bciuszki", "amenity": "pharmacy", "dispensing": "yes", "email": "kosciuszki@aptekacosmedica.pl", "healthcare": "pharmacy", "level": "-1", "name": "Cosmedica", "opening_hours": "24/7", "ref:csioz": "1203196"}}, {"type": "node", "id": 4314056318, "lat": 54.5196552, "lon": 18.5286503, "tags": {"amenity": "pharmacy", "dispensing": "yes", "healthcare": "pharmacy", "name": "Nowa Farmacja", "official_name": "Wolno\u015bci 1 Nowa Farmacja", "opening_hours": "Mo-Fr 08:00-18:30; Sa 09:00-15:00", "ref:csioz": "1224242"}}, {"type": "node", "id": 4314228285, "lat": 54.5102462, "lon": 18.5383725, "tags": {"amenity": "pharmacy", "dispensing": "yes", "healthcare": "pharmacy", "name": "\u015awi\u0119tego Alberta", "ref:csioz": "1027962"}}, {"type": "node", "id": 4314287010, "lat": 54.5032895, "lon": 18.5325115, "tags": {"amenity": "pharmacy", "brand": "Super-Pharm", "brand:en": "Super-Pharm", "brand:he": "\u05e1\u05d5\u05e4\u05e8-\u05e4\u05d0\u05e8\u05dd", "brand:wikidata": "Q13220217", "brand:wikipedia": "en:Super-Pharm", "dispensing": "yes", "healthcare": "pharmacy", "name": "Super-Pharm", "name:ar": "\u0633\u0648\u0628\u064a\u0631 \u0641\u0627\u0631\u0645", "name:en": "Super-Pharm", "name:he": "\u05e1\u05d5\u05e4\u05e8-\u05e4\u05d0\u05e8\u05dd", "name:ru": "\u0421\u0443\u043f\u0435\u0440-\u0424\u0430\u0440\u043c", "ref:csioz": "1112418"}}, {"type": "node", "id": 4331835891, "lat": 54.4940513, "lon": 18.5416141, "tags": {"addr:city": "Gdynia", "addr:housenumber": "115D", "addr:postcode": "81-472", "addr:street": "Legion\u00f3w", "amenity": "pharmacy", "dispensing": "yes", "healthcare": "pharmacy", "name": "Pod Korabiem", "ref:csioz": "1029286"}}, {"type": "node", "id": 4338892113, "lat": 54.5211259, "lon": 18.5434513, "tags": {"addr:city": "Gdynia", "addr:country": "PL", "addr:housenumber": "5", "addr:postcode": "81-368", "addr:street": "\u015awi\u0119toja\u0144ska", "amenity": "pharmacy", "brand": "Dbam o Zdrowie", "brand:wikidata": "Q62563833", "dispensing": "yes", "healthcare": "pharmacy", "name": "Dbam o Zdrowie", "official_name": "Apteka Dbam O Zdrowie", "opening_hours": "Mo-Fr 08:00-20:00; Sa 08:00-18:00", "ref:csioz": "1030382", "short_name": "DOZ", "source": "survey", "survey:date": "2016-08-03"}}, {"type": "node", "id": 4346611238, "lat": 54.3564905, "lon": 18.6484742, "tags": {"addr:city": "Gda\u0144sk", "addr:country": "PL", "addr:housenumber": "10", "addr:postcode": "80-850", "addr:street": "Rajska", "amenity": "pharmacy", "dispensing": "yes", "healthcare": "pharmacy", "level": "0", "name": "Rajska", "ref:csioz": "1030178", "source": "https://madison.gda.pl/"}}, {"type": "node", "id": 4346611273, "lat": 54.3572121, "lon": 18.6515082, "tags": {"addr:city": "Gda\u0144sk", "addr:housenumber": "52", "addr:street": "\u0141agiewniki", "amenity": "pharmacy", "dispensing": "yes", "healthcare": "pharmacy", "name": "Aksamitna", "opening_hours": "Mo-Fr 08:00-21:00; Sa 09:00-20:00; Su 09:00-18:00", "phone": "583051522", "ref:csioz": "1027759", "website": "http://aksamitna.eu"}}, {"type": "node", "id": 4372108711, "lat": 54.402238, "lon": 18.5744355, "tags": {"addr:city": "Gda\u0144sk", "addr:housenumber": "471", "addr:postcode": "80-309", "addr:street": "Aleja Grunwaldzka", "addr:unit": "14", "amenity": "pharmacy", "check_date:opening_hours": "2024-06-24", "dispensing": "yes", "healthcare": "pharmacy", "name": "Farmacja 24", "opening_hours": "Mo-Fr 08:00-21:00; Sa 08:00-20:00", "ref:csioz": "1112460"}}, {"type": "node", "id": 4387235758, "lat": 54.4026279, "lon": 18.5703794, "tags": {"addr:city": "Gda\u0144sk", "addr:housenumber": "472A", "addr:postcode": "80-309", "addr:street": "Aleja Grunwaldzka", "amenity": "pharmacy", "dispensing": "yes", "healthcare": "pharmacy", "name": "Medicover", "opening_hours": "Mo-Fr 08:00-20:00; Sa 08:00-14:00", "ref:csioz": "1173211"}}, {"type": "node", "id": 4398981478, "lat": 54.4206779, "lon": 18.5833035, "tags": {"addr:city": "Gda\u0144sk", "addr:housenumber": "3A", "addr:street": "Gospody", "amenity": "pharmacy", "brand": "Dbam o Zdrowie", "brand:wikidata": "Q62563833", "check_date:opening_hours": "2025-03-22", "dispensing": "yes", "email": "apt92131@dbamozdrowie.pl", "healthcare": "pharmacy", "name": "Dbam o Zdrowie", "opening_hours": "Mo-Fr 08:00-20:00; Sa 08:00-18:00; Su 09:00-15:00", "ref:csioz": "1031185", "wheelchair": "yes"}}, {"type": "node", "id": 4398981479, "lat": 54.4209635, "lon": 18.5841012, "tags": {"addr:city": "Gda\u0144sk", "addr:housenumber": "3B", "addr:street": "Gospody", "amenity": "pharmacy", "dispensing": "yes", "healthcare": "pharmacy", "name": "Natura", "opening_hours": "Mo-Fr 08:00-20:00; Sa 08:00-16:00", "ref:csioz": "1029416", "wheelchair": "yes"}}, {"type": "node", "id": 4453037005, "lat": 54.3469283, "lon": 18.5098611, "tags": {"addr:city": "Gda\u0144sk", "addr:housenumber": "15C", "addr:street": "Otomi\u0144ska", "amenity": "pharmacy", "dispensing": "yes", "email": "otominska@aptekabaltycka.pl", "healthcare": "pharmacy", "name": "Ba\u0142tycka", "opening_hours": "Mo-Fr 07:30-20:00", "ref:csioz": "1207301"}}, {"type": "node", "id": 4453037006, "lat": 54.352422, "lon": 18.5129025, "tags": {"addr:city": "Gda\u0144sk", "addr:housenumber": "11", "addr:street": "Kalinowa", "amenity": "pharmacy", "check_date": "2025-05-15", "dispensing": "yes", "email": "kalinowa@aptekabaltycka.pl", "healthcare": "pharmacy", "name": "Ba\u0142tycka", "opening_hours": "Mo-Fr 08:00-21:00; Sa 08:00-19:00; Su 10:00-16:00", "ref:csioz": "1209075", "wheelchair": "yes"}}, {"type": "node", "id": 4457844271, "lat": 54.4912702, "lon": 18.5421603, "tags": {"amenity": "pharmacy", "dispensing": "yes", "drive_through": "no", "healthcare": "pharmacy", "name": "Cosmedica", "official_name": "Apteka Cosmedica", "opening_hours": "Mo-Fr 09:00-21:00; Sa 09:00-19:00", "ref:csioz": "1174096", "website": "http://www.aptekacosmedica.pl/"}}, {"type": "node", "id": 4460747319, "lat": 54.3512733, "lon": 18.5239512, "tags": {"addr:city": "Gda\u0144sk", "addr:housenumber": "3", "addr:postcode": "80-176", "addr:street": "Szcz\u0119\u015bliwa", "amenity": "pharmacy", "dispensing": "yes", "email": "aptekadlaciebieauchan@wp.pl", "healthcare": "pharmacy", "name": "Dla Ciebie", "opening_hours": "Mo-Sa 09:00-21:00; Su 10:00-20:00", "ref:csioz": "1211662"}}, {"type": "node", "id": 4472590846, "lat": 54.3882267, "lon": 18.3836073, "tags": {"addr:city": "Banino", "addr:housenumber": "112A", "addr:postcode": "80-297", "addr:street": "Pszenna", "amenity": "pharmacy", "drive_through": "no", "email": "aptekabanino@wp.pl", "name": "\u015aw. Jana", "opening_hours": "Mo-Fr 08:30-18:00", "operator": "MEDPHARM S.C.", "phone": "+48583556766", "ref:csioz": "1172622", "source": "http://apteka-banino.pl", "website": "http://apteka-banino.pl"}}, {"type": "node", "id": 4489338990, "lat": 54.3998845, "lon": 18.6607852, "tags": {"addr:city": "Gda\u0144sk", "addr:housenumber": "29", "addr:street": "Wyzwolenia", "amenity": "pharmacy", "dispensing": "yes", "healthcare": "pharmacy", "name": "Puls Farm", "ref:csioz": "1027287"}}, {"type": "node", "id": 4507132504, "lat": 54.3793095, "lon": 18.2890122, "tags": {"addr:city": "Przodkowo", "addr:country": "PL", "addr:housenumber": "16B", "addr:postcode": "83-304", "addr:street": "Gda\u0144ska", "amenity": "pharmacy", "dispensing": "yes", "name": "Przystanek", "opening_hours": "Mo-Fr 08:00-20:00; Sa 08:00-15:00; Su 09:00-13:00", "phone": "+48 58 680 00 20", "ref:csioz": "1199571"}}, {"type": "node", "id": 4520414867, "lat": 54.5647487, "lon": 18.5040741, "tags": {"addr:city": "Gdynia", "addr:housenumber": "338", "addr:postcode": "81-198", "addr:street": "Pu\u0142kownika Stanis\u0142awa D\u0105bka", "amenity": "pharmacy", "check_date": "2024-07-18", "contact:email": "szperk@multiapteka.eu", "contact:phone": "+48587282341", "contact:website": "http://multiapteka.eu/", "healthcare": "pharmacy", "name": "Multiapteka", "opening_hours": "Mo-Sa 09:00-21:00; Su 10:00-20:00", "ref:csioz": "1033419", "source": "survey"}}, {"type": "node", "id": 4752448391, "lat": 54.5199714, "lon": 18.5425842, "tags": {"amenity": "pharmacy", "brand": "Gemini", "brand:wikidata": "Q130243797", "dispensing": "yes", "healthcare": "pharmacy", "name": "Gemini", "official_name": "Apteka Gemini", "opening_hours": "Mo-Fr 08:00-20:00; Sa,Su 09:00-18:00", "ref:csioz": "1210734", "source": "survey"}}, {"type": "node", "id": 4809194755, "lat": 54.3382605, "lon": 18.626395, "tags": {"addr:city": "Gda\u0144sk", "addr:housenumber": "44", "addr:street": "Stanis\u0142awa Worcella", "amenity": "pharmacy", "dispensing": "yes", "email": "worcella@aptekacosmedica.pl", "healthcare": "pharmacy", "name": "Cosmedica", "ref:csioz": "1194275"}}, {"type": "node", "id": 4815349072, "lat": 54.4093352, "lon": 18.5990951, "tags": {"addr:city": "Gda\u0144sk", "addr:housenumber": "2", "addr:postcode": "80-398", "addr:street": "Obro\u0144c\u00f3w Wybrze\u017ca", "amenity": "pharmacy", "dispensing": "yes", "email": "geminiobroncow@aptekigemini.pl", "name": "Gemini", "opening_hours": "Mo-Fr 08:00-20:00; Sa 09:00-15:00", "ref:csioz": "1225849", "website": "https://www.aptekigemini.pl/apteki/pomorskie,gdansk,39"}}, {"type": "node", "id": 4832218754, "lat": 54.4731565, "lon": 18.4646724, "tags": {"addr:city": "Gdynia", "addr:housenumber": "4 A", "addr:postcode": "81-577", "addr:street": "Rdestowa", "amenity": "pharmacy", "brand": "Dr. Max", "brand:wikidata": "Q56317371", "dispensing": "yes", "healthcare": "pharmacy", "name": "Dr. Max", "official_name": "Apteka Dy\u017curna", "opening_hours": "Mo-Fr 08:00-20:00; Sa 08:00-15:00", "phone": "+48 58 620 11 66", "ref:csioz": "1184062"}}, {"type": "node", "id": 4841202081, "lat": 54.275108, "lon": 18.5850554, "tags": {"addr:city": "Straszyn", "addr:city:simc": "0169331", "addr:housenumber": "1", "addr:postcode": "83-010", "addr:street": "Komandora Kazimierza Kraszewskiego", "amenity": "pharmacy", "healthcare": "pharmacy", "name": "Rodzinna", "ref:csioz": "1217826"}}, {"type": "node", "id": 4849370544, "lat": 54.265421, "lon": 18.6587027, "tags": {"addr:city": "Pruszcz Gda\u0144ski", "addr:housenumber": "13", "addr:postcode": "83-000", "addr:street": "Henryka Sienkiewicza", "amenity": "pharmacy", "drive_through": "no", "healthcare": "pharmacy", "name": "Familijna", "ref:csioz": "1214956"}}, {"type": "node", "id": 4904750521, "lat": 54.5647285, "lon": 18.4102872, "tags": {"addr:city": "Rumia", "addr:housenumber": "25", "addr:postcode": "84-230", "addr:street": "Gda\u0144ska", "amenity": "pharmacy", "dispensing": "yes", "healthcare": "pharmacy", "name": "Starowiejska", "opening_hours": "Mo-Sa 08:00-20:00; Su 10:00-17:00", "ref:csioz": "1172591"}}, {"type": "node", "id": 4958261339, "lat": 54.486817, "lon": 18.2234107, "tags": {"addr:city": "Szemud", "addr:housenumber": "35", "addr:postcode": "84-217", "addr:street": "Wejherowska", "amenity": "pharmacy", "dispensing": "yes", "healthcare": "pharmacy", "name": "Geranium", "ref:csioz": "1028036"}}, {"type": "node", "id": 5045991041, "lat": 54.3290601, "lon": 18.6343493, "tags": {"addr:city": "Gda\u0144sk", "addr:housenumber": "85", "addr:postcode": "80-043", "addr:street": "Trakt \u015awi\u0119tego Wojciecha", "amenity": "pharmacy", "dispensing": "yes", "email": "stareszkoty@interia.pl", "healthcare": "pharmacy", "name": "Stare Szkoty", "opening_hours": "Mo-Fr 08:30-20:00; Sa 08:00-16:00; Su 10:00-14:00", "ref:csioz": "1027505"}}, {"type": "node", "id": 5046408991, "lat": 54.3205745, "lon": 18.294912, "tags": {"addr:city": "Borowo", "addr:housenumber": "2A", "addr:postcode": "83-332", "addr:street": "Piwna", "amenity": "pharmacy", "healthcare": "pharmacy", "name": "Nad Jarem", "ref:csioz": "1033613"}}, {"type": "node", "id": 5046462947, "lat": 54.3269435, "lon": 18.6316233, "tags": {"addr:city": "Gda\u0144sk", "addr:housenumber": "3", "addr:street": "Diamentowa", "amenity": "pharmacy", "dispensing": "yes", "email": "apt.diam@wp.pl", "healthcare": "pharmacy", "name": "Diamentowa", "ref:csioz": "1026729"}}, {"type": "node", "id": 5046462948, "lat": 54.3227776, "lon": 18.6317615, "tags": {"addr:city": "Gda\u0144sk", "addr:housenumber": "3", "addr:street": "Go\u015bcinna", "amenity": "pharmacy", "check_date": "2025-02-15", "dispensing": "yes", "drive_through": "no", "email": "aptekami@o2.pl", "healthcare": "pharmacy", "name": "Gemini", "ref:csioz": "1029760"}}, {"type": "node", "id": 5049626395, "lat": 54.2656073, "lon": 18.6314665, "tags": {"addr:city": "Pruszcz Gda\u0144ski", "addr:housenumber": "8", "addr:postcode": "83-000", "addr:street": "Antoniego Dobrowolskiego", "amenity": "pharmacy", "brand": "Dbam o Zdrowie", "brand:wikidata": "Q62563833", "healthcare": "pharmacy", "name": "Dbam o Zdrowie", "ref:csioz": "1218820", "short_name": "DOZ"}}, {"type": "node", "id": 5050346210, "lat": 54.5849057, "lon": 18.3741739, "tags": {"addr:city": "Rumia", "addr:housenumber": "108", "addr:postcode": "84-230", "addr:street": "Grunwaldzka", "amenity": "pharmacy", "dispensing": "yes", "healthcare": "pharmacy", "name": "Starowiejska", "opening_hours": "Mo-Sa 09:00-21:00; Su 09:30-20:00", "ref:csioz": "1031641"}}, {"type": "node", "id": 5077729936, "lat": 54.352596, "lon": 18.6487582, "tags": {"addr:city": "Gda\u0144sk", "addr:housenumber": "3", "addr:street": "Targ Drzewny", "amenity": "pharmacy", "check_date": "2025-07-04", "dispensing": "yes", "email": "geminitargdrzewny@aptekigemini.pl", "healthcare": "pharmacy", "name": "Gemini", "opening_hours": "Mo-Fr 07:00-20:00; Sa-Su 09:00-18:00; PH off", "ref:csioz": "1216229"}}, {"type": "node", "id": 5086972162, "lat": 54.3593279, "lon": 18.5777862, "tags": {"addr:city": "Gda\u0144sk", "addr:housenumber": "2", "addr:postcode": "80-288", "addr:street": "J\u00f3zefa \u017bylewicza", "amenity": "pharmacy", "dispensing": "yes", "email": "zylewicza@aptekacosmedica.pl", "name": "Cosmedica", "opening_hours": "Mo-Sa 09:00-20:00; Su 10:00-15:00", "ref:csioz": "1219790"}}, {"type": "node", "id": 5139736518, "lat": 54.5192814, "lon": 18.5412708, "tags": {"amenity": "pharmacy", "brand": "Dr. Max", "brand:wikidata": "Q56317371", "brand:wikipedia": "fr:Dr.Max", "dispensing": "yes", "healthcare": "pharmacy", "name": "Dr. Max", "official_name": "Apteka Dy\u017curna", "opening_hours": "Mo-Fr 08:00-20:00; Sa 08:00-18:00; Su 09:00-18:00", "ref:csioz": "1189384"}}, {"type": "node", "id": 5177655435, "lat": 54.4429008, "lon": 18.4162017, "tags": {"addr:city": "Chwaszczyno", "addr:housenumber": "145", "addr:postcode": "80-209", "addr:street": "Oliwska", "amenity": "pharmacy", "healthcare": "pharmacy", "name": "Przystanek", "ref:csioz": "1181961"}}, {"type": "node", "id": 5216823242, "lat": 54.516045, "lon": 18.5392485, "tags": {"addr:city": "Gdynia", "addr:housenumber": "48", "addr:postcode": "81-395", "addr:street": "Antoniego Abrahama", "amenity": "pharmacy", "dispensing": "yes", "healthcare": "pharmacy", "name": "Millennium", "opening_hours": "Mo-Fr 08:00-20:00; Sa 09:00-15:00", "ref:csioz": "1030047"}}, {"type": "node", "id": 5221225781, "lat": 54.3554313, "lon": 18.646842, "tags": {"addr:city": "Gda\u0144sk", "addr:housenumber": "8", "addr:street": "Podwale Grodzkie", "amenity": "pharmacy", "dispensing": "yes", "healthcare": "pharmacy", "name": "Grodzie\u0144ska", "opening_hours": "Mo-Fr 08:00-20:00; Sa 09:00-16:00; Su 10:00-17:00; PH off", "ref:csioz": "1027981"}}, {"type": "node", "id": 5315181193, "lat": 54.4259039, "lon": 18.4712214, "tags": {"addr:city": "Gda\u0144sk", "addr:housenumber": "3", "addr:street": "Biwakowa", "amenity": "pharmacy", "dispensing": "yes", "email": "aptekabiwakowa@aptekiadw.pl", "name": "Apteki Dla Was", "ref:csioz": "1028890"}}, {"type": "node", "id": 5361893490, "lat": 54.4419066, "lon": 18.5637468, "tags": {"addr:city": "Sopot", "addr:housenumber": "7", "addr:street": "Tadeusza Ko\u015bciuszki", "amenity": "pharmacy", "brand": "Dr. Max", "brand:wikidata": "Q56317371", "brand:wikipedia": "fr:Dr.Max", "dispensing": "yes", "email": "sopot.kosciuszki@drmax.pl", "healthcare": "pharmacy", "name": "Dr. Max", "opening_hours": "Mo-Fr 08:00-21:00; Sa 08:00-20:00", "ref:csioz": "1029278"}}, {"type": "node", "id": 5361893501, "lat": 54.4439336, "lon": 18.5666353, "tags": {"addr:city": "Sopot", "addr:housenumber": "44", "addr:postcode": "81-753", "addr:street": "Bohater\u00f3w Monte Cassino", "amenity": "pharmacy", "dispensing": "yes", "email": "k.montecassino@aptekacosmedica.pl", "healthcare": "pharmacy", "name": "Cosmedica", "opening_hours": "Mo-Fr 09:00-21:00; Sa 09:00-17:00; Su 10:00-16:00", "ref:csioz": "1193631"}}, {"type": "node", "id": 5619084271, "lat": 54.3505542, "lon": 18.3668803, "tags": {"addr:city": "\u017bukowo", "addr:housenumber": "50", "addr:postcode": "83-330", "addr:street": "Gdy\u0144ska", "amenity": "pharmacy", "dispensing": "yes", "level": "0.5", "name": "Rodzinna", "phone": "+48 58 685 89 48", "ref:csioz": "1031065", "wheelchair": "no"}}, {"type": "node", "id": 5665806251, "lat": 54.3498349, "lon": 18.6432373, "tags": {"amenity": "pharmacy", "brand": "Super-Pharm", "brand:wikidata": "Q13220217", "dispensing": "yes", "healthcare": "pharmacy", "level": "1", "name": "Super-Pharm", "ref:csioz": "1231053", "shop": "chemist"}}, {"type": "node", "id": 5759030779, "lat": 54.4570161, "lon": 18.5520221, "tags": {"addr:city": "Sopot", "addr:housenumber": "7", "addr:postcode": "81-813", "addr:street": "Ma\u0142opolska", "amenity": "pharmacy", "dispensing": "yes", "email": "aptekadomlekow.brodwino@wp.pl", "healthcare": "pharmacy", "name": "Dom Lek\u00f3w", "ref:csioz": "1189269"}}, {"type": "node", "id": 5824906956, "lat": 54.3217894, "lon": 18.6051274, "tags": {"addr:city": "Gda\u0144sk", "addr:housenumber": "21", "addr:street": "\u015awi\u0119tokrzyska", "amenity": "pharmacy", "brand": "Gemini", "brand:wikidata": "Q130243797", "check_date": "2025-07-19", "dispensing": "yes", "email": "apteka.swietokrzyska@viktoria.com.pl", "healthcare": "pharmacy", "name": "Gemini", "ref:csioz": "1208556"}}, {"type": "node", "id": 5912313668, "lat": 54.4404739, "lon": 18.568508, "tags": {"addr:city": "Sopot", "addr:housenumber": "1", "addr:postcode": "81-756", "addr:street": "Boles\u0142awa Chrobrego", "amenity": "pharmacy", "dispensing": "yes", "email": "geminisopot@aptekigemini.pl", "healthcare": "pharmacy", "name": "Gemini", "ref:csioz": "1031451"}}, {"type": "node", "id": 6051754754, "lat": 54.4209572, "lon": 18.5718324, "tags": {"addr:city": "Gda\u0144sk", "addr:housenumber": "30", "addr:postcode": "80-354", "addr:street": "Subis\u0142awa", "amenity": "pharmacy", "check_date:opening_hours": "2024-09-02", "dispensing": "yes", "drive_through": "no", "email": "geminizabianka@aptekigemini.pl", "healthcare": "pharmacy", "name": "Gemini", "opening_hours": "Mo-Fr 07:00-20:00; Sa 08:00-18:00; Su 09:00-15:00", "operator": "Gemini Pharm Sp. z o.o.", "phone": "+48 58 340 82 44", "ref:csioz": "1217056", "website": "https://www.geminipolska.com.pl/apteki-stacjonarne/gdansk/subislawa-30", "wheelchair": "yes"}}, {"type": "node", "id": 6179039577, "lat": 54.2727449, "lon": 18.6122107, "tags": {"addr:city": "Rotmanka", "addr:housenumber": "6", "addr:postcode": "83-010", "addr:street": "Bajki", "amenity": "pharmacy", "dispensing": "yes", "healthcare": "pharmacy", "name": "Anafarm", "ref:csioz": "1211635"}}, {"type": "node", "id": 6203232739, "lat": 54.4348583, "lon": 18.5617899, "tags": {"addr:city": "Sopot", "addr:housenumber": "715", "addr:postcode": "81-853", "addr:street": "Aleja Niepodleg\u0142o\u015bci", "amenity": "pharmacy", "dispensing": "yes", "email": "apt.prywatna@wp.pl", "healthcare": "pharmacy", "name": "Kuracyjna", "opening_hours": "Mo-Fr 08:00-21:00; Sa 09:00-15:00", "payment:cash": "yes", "payment:credit_cards": "yes", "payment:debit_cards": "yes", "phone": "+48 58 551 2276", "ref:csioz": "1025939"}}, {"type": "node", "id": 6251051511, "lat": 54.4029807, "lon": 18.6100343, "tags": {"addr:city": "Gda\u0144sk", "addr:housenumber": "20", "addr:postcode": "80-462", "addr:street": "Janusza Meissnera", "amenity": "pharmacy", "dispensing": "yes", "email": "dl.meissnera@gmail.com", "name": "Dom Lek\u00f3w", "ref:csioz": "1220090"}}, {"type": "node", "id": 6258079039, "lat": 54.3902493, "lon": 18.5930762, "tags": {"addr:city": "Gda\u0144sk", "addr:housenumber": "65", "addr:postcode": "80-465", "addr:street": "Franciszka Hynka", "amenity": "pharmacy", "dispensing": "yes", "email": "hynka@aptekacosmedica.pl", "level": "0", "name": "Cosmedica", "opening_hours": "Mo-Fr 08:00-20:00; Sa 09:00-15:00", "phone": "+48 58 761 38 80", "ref:csioz": "1179928", "website": "https://apteka.cosmedica.pl/"}}, {"type": "node", "id": 6328736708, "lat": 54.351265, "lon": 18.6344386, "tags": {"addr:city": "Gda\u0144sk", "addr:housenumber": "17", "addr:postcode": "80-103", "addr:street": "Kartuska", "alt_name": "Dbam o zdrowie", "amenity": "pharmacy", "brand": "Dbam o Zdrowie", "brand:wikidata": "Q62563833", "dispensing": "yes", "email": "apt38024@dbamozdrowie.pl", "healthcare": "pharmacy", "name": "Dbam o Zdrowie", "opening_hours": "Mo-Fr 08:00-20:00; Sa 08:00-16:00", "operator": "DOZ.pl Sp. z o.o.", "ref:csioz": "1031655", "short_name": "DOZ", "website": "https://www.doz.pl/"}}, {"type": "node", "id": 6341075496, "lat": 54.3113132, "lon": 18.5973624, "tags": {"addr:city": "Gda\u0144sk", "addr:housenumber": "32", "addr:postcode": "80-180", "addr:street": "Niepo\u0142omicka", "amenity": "pharmacy", "dispensing": "yes", "drive_through": "no", "email": "niepolomicka@aptekabaltycka.pl", "healthcare": "pharmacy", "name": "Ba\u0142tycka", "ref:csioz": "1229131"}}, {"type": "node", "id": 6364200174, "lat": 54.3399926, "lon": 18.3520005}, {"type": "node", "id": 6364200185, "lat": 54.3400571, "lon": 18.3519534}, {"type": "node", "id": 6381951271, "lat": 54.3893169, "lon": 18.5689212, "tags": {"addr:city": "Gda\u0144sk", "addr:housenumber": "28", "addr:postcode": "80-304", "addr:street": "Piotra Norblina", "amenity": "pharmacy", "dispensing": "yes", "email": "apteka7dwor@gmail.com", "healthcare": "pharmacy", "name": "VII Dw\u00f3r", "opening_hours": "Mo-Fr 10:00-20:00", "ref:csioz": "1029589"}}, {"type": "node", "id": 6426151444, "lat": 54.355672, "lon": 18.6142744, "tags": {"addr:city": "Gda\u0144sk", "addr:floor": "0", "addr:housenumber": "1", "addr:postcode": "80-170", "addr:street": "Zygmunta Noskowskiego", "amenity": "pharmacy", "check_date": "2024-07-23", "dispensing": "yes", "healthcare": "pharmacy", "level": "0", "name": "Dom Lek\u00f3w", "opening_hours": "Mo-Fr 08:00-20:00; Sa 08:00-16:00", "operator": "Dom Lek\u00f3w", "payment:mastercard": "yes", "payment:visa": "yes", "ref:csioz": "1221307", "website": "https://domlekow.pl/", "wheelchair": "yes"}}, {"type": "node", "id": 6426799815, "lat": 54.3547847, "lon": 18.6459412, "tags": {"addr:city": "Gda\u0144sk", "addr:housenumber": "1", "addr:postcode": "80-851", "addr:street": "Karmelicka", "amenity": "pharmacy", "brand": "Dbam o Zdrowie", "brand:wikidata": "Q62563833", "dispensing": "yes", "email": "apt67744@dbamozdrowie.pl", "healthcare": "pharmacy", "name": "Dbam o Zdrowie", "opening_hours": "Mo-Sa 08:00-21:00; Su 09:00-20:00", "operator": "DOZ.pl Sp. z o.o.", "ref:csioz": "1030317", "short_name": "DOZ", "website": "https://www.doz.pl/apteki/a67744-Apteka_Dbam_o_Zdrowie"}}, {"type": "node", "id": 6426799816, "lat": 54.3590279, "lon": 18.6543172, "tags": {"addr:city": "Gda\u0144sk", "addr:housenumber": "27a", "addr:postcode": "80-858", "addr:street": "Wa\u0142owa", "amenity": "pharmacy", "brand": "Dbam o Zdrowie", "brand:wikidata": "Q62563833", "dispensing": "yes", "email": "apt119104@dbamozdrowie.pl", "healthcare": "pharmacy", "name": "Dbam o Zdrowie", "opening_hours": "Mo-Fr 07:30-19:00; Sa 08:00-14:00", "operator": "DOZ.pl Sp. z o.o.", "ref:csioz": "1031717", "short_name": "DOZ", "website": "https://www.doz.pl/apteki/a119104-Apteka_Dbam_o_Zdrowie"}}, {"type": "node", "id": 6528059287, "lat": 54.2613254, "lon": 18.6380426, "tags": {"addr:city": "Pruszcz Gda\u0144ski", "addr:housenumber": "4", "addr:postcode": "83-000", "addr:street": "Aleja Ksi\u0119dza J\u00f3zefa Wal\u0105ga", "amenity": "pharmacy", "dispensing": "yes", "drive_through": "no", "healthcare": "pharmacy", "name": "Apteka Gemini", "ref:csioz": "1031284"}}, {"type": "node", "id": 6575454394, "lat": 54.3524576, "lon": 18.5930324, "tags": {"addr:city": "Gda\u0144sk", "addr:housenumber": "102A", "addr:street": "Franciszka Schuberta", "amenity": "pharmacy", "dispensing": "yes", "email": "miniapteka@gmail.com", "healthcare": "pharmacy", "level": "0", "name": "Mini", "ref:csioz": "1029667"}}, {"type": "node", "id": 6575474938, "lat": 54.355181, "lon": 18.5936466, "tags": {"addr:city": "Gda\u0144sk", "addr:housenumber": "3", "addr:street": "Trzy Lipy", "amenity": "pharmacy", "check_date": "2024-10-23", "dispensing": "yes", "email": "gemini3lipy@aptekigemini.pl", "healthcare": "pharmacy", "name": "Gemini", "opening_hours": "24/7", "payment:cash": "yes", "payment:credit_cards": "yes", "payment:debit_cards": "yes", "ref:csioz": "1113399"}}, {"type": "node", "id": 6645657649, "lat": 54.1325156, "lon": 18.2008382, "tags": {"addr:city": "Nowa Karczma", "addr:housenumber": "7", "addr:postcode": "83-404", "addr:street": "Ko\u015bcierska", "amenity": "pharmacy", "dispensing": "yes", "drive_through": "no", "healthcare": "pharmacy", "name": "Apteka P\u00ebla", "ref:csioz": "1198312"}}, {"type": "node", "id": 6736736318, "lat": 54.5129147, "lon": 18.539442, "tags": {"amenity": "pharmacy", "dispensing": "yes", "healthcare": "pharmacy", "name": "Apteka \u015awi\u0119toja\u0144ska", "ref:csioz": "1026456"}}, {"type": "node", "id": 6761526578, "lat": 54.4943021, "lon": 18.5510662, "tags": {"addr:city": "Gdynia", "addr:housenumber": "5", "addr:postcode": "81-466", "addr:street": "Bohater\u00f3w Star\u00f3wki Warszawskiej", "amenity": "pharmacy", "dispensing": "yes", "healthcare": "pharmacy", "name": "Apteka S\u0142owia\u0144ska", "ref:csioz": "1219193"}}, {"type": "node", "id": 6798213456, "lat": 54.3762113, "lon": 18.6124086, "tags": {"addr:city": "Gda\u0144sk", "addr:housenumber": "52", "addr:postcode": "80-241", "addr:street": "Aleja Grunwaldzka", "amenity": "pharmacy", "check_date": "2025-07-04", "dispensing": "yes", "drive_through": "no", "email": "apteka.calamus@wp.pl", "healthcare": "pharmacy", "name": "Calamus", "opening_hours": "Mo-Fr 08:00-22:00; Sa 09:00-19:00", "ref:csioz": "1028099"}}, {"type": "node", "id": 7074467667, "lat": 54.3537687, "lon": 18.6071519, "tags": {"addr:city": "Gda\u0144sk", "addr:housenumber": "9", "addr:street": "Ignacego Paderewskiego", "amenity": "pharmacy", "check_date": "2024-09-28", "dispensing": "yes", "drive_through": "no", "email": "suchanino@aptekacosmedica.pl", "healthcare": "pharmacy", "level": "0", "name": "Cosmedica", "opening_hours": "Mo-Fr 08:00-20:00; Sa 08:00-16:00", "payment:cash": "yes", "payment:credit_cards": "yes", "payment:debit_cards": "yes", "ref:csioz": "1184100", "wheelchair": "yes"}}, {"type": "node", "id": 7080102981, "lat": 54.5299874, "lon": 18.5044248, "tags": {"amenity": "pharmacy", "brand": "Dr. Max", "brand:wikidata": "Q56317371", "dispensing": "yes", "healthcare": "pharmacy", "name": "Dr. Max", "opening_hours": "Mo-Fr 08:00-21:00; Sa 08:00-20:00; Su 09:00-19:00", "ref:csioz": "1030995"}}, {"type": "node", "id": 7102037227, "lat": 54.5681313, "lon": 18.3964086, "tags": {"addr:city": "Rumia", "addr:housenumber": "20", "addr:postcode": "84-230", "addr:street": "Henryka D\u0105browskiego", "amenity": "pharmacy", "check_date:opening_hours": "2024-06-09", "dispensing": "yes", "healthcare": "pharmacy", "name": "Gemini", "opening_hours": "Mo-Fr 08:00-20:00, Sa 08:00-16:00, Su 09:00-15:00", "phone": "+48 58 572 10 91", "ref:csioz": "1225218", "website": "https://aptekagemini.pl/", "wheelchair": "yes"}}, {"type": "node", "id": 7156137385, "lat": 54.3439948, "lon": 18.6486408, "tags": {"addr:city": "Gda\u0144sk", "addr:housenumber": "10", "addr:street": "\u017babi Kruk", "amenity": "pharmacy", "dispensing": "yes", "email": "zabikruk@aptekacosmedica.pl", "healthcare": "pharmacy", "name": "Cosmedica", "opening_hours": "Mo-Fr 08:00-20:00; Sa 09:00-17:00", "ref:csioz": "1205418"}}, {"type": "node", "id": 7218831971, "lat": 54.376611, "lon": 18.6112247, "tags": {"addr:city": "Gda\u0144sk", "addr:housenumber": "60", "addr:postcode": "80-241", "addr:street": "Aleja Grunwaldzka", "amenity": "pharmacy", "brand": "Dbam o Zdrowie", "brand:wikidata": "Q62563833", "check_date": "2025-07-04", "check_date:opening_hours": "2025-06-06", "dispensing": "yes", "drive_through": "no", "healthcare": "pharmacy", "name": "Dbam o Zdrowie", "opening_hours": "Mo-Fr 08:00-20:00; Sa 09:00-15:00; Su off", "operator": "DOZ.pl Sp. z o.o.", "ref:csioz": "1030052", "website": "https://www.doz.pl/apteki/a63449-DOZ_Apteka._Dbam_o_Zdrowie._Sw._Krzysztofa"}}, {"type": "node", "id": 7222921990, "lat": 54.3896467, "lon": 18.6033144, "tags": {"addr:city": "Gda\u0144sk", "addr:housenumber": "23", "addr:postcode": "80-462", "addr:street": "Dywizjonu 303", "amenity": "pharmacy", "dispensing": "yes", "email": "ap.vena@wp.pl", "healthcare": "pharmacy", "name": "Vena", "opening_hours": "Mo-Fr 08:00-20:00; Sa 08:00-15:00", "ref:csioz": "1027496"}}, {"type": "node", "id": 7288557296, "lat": 54.3769437, "lon": 18.2869669, "tags": {"addr:city": "Przodkowo", "addr:housenumber": "24", "addr:postcode": "83-304", "addr:street": "Kartuska", "amenity": "pharmacy", "contact:email": "aptekaswmarcina@farmjug.pl", "contact:phone": "+48 58 355 51 04", "contact:website": "http://www.farmjug.pl/", "dispensing": "yes", "name": "\u015aw. Marcina", "opening_hours": "Mo-Fr 08:00-18:00; Sa,Su,PH off", "operator": "Farmjug", "ref:csioz": "1031245"}}, {"type": "node", "id": 7911932740, "lat": 54.4694831, "lon": 18.4702394, "tags": {"amenity": "pharmacy", "dispensing": "yes", "name": "Dom Lek\u00f3w", "ref:csioz": "1218227"}}, {"type": "node", "id": 7929289085, "lat": 54.4971308, "lon": 18.4393019, "tags": {"amenity": "pharmacy", "dispensing": "yes", "name": "Apteka Serdeczna", "name:en": "Pharmacy Serdeczna", "opening_hours": "Mo-Fr 08:00-20:30; Sa 09:00-16:00", "phone": "58 711 89 89", "ref:csioz": "1171658"}}, {"type": "node", "id": 8004097229, "lat": 54.3930126, "lon": 18.6103012, "tags": {"addr:city": "Gda\u0144sk", "addr:housenumber": "12", "addr:street": "\u017bwirki i Wigury", "amenity": "pharmacy", "brand": "Dbam o Zdrowie", "brand:wikidata": "Q62563833", "dispensing": "yes", "healthcare": "pharmacy", "level": "0", "name": "Dbam o Zdrowie", "opening_hours": "Mo-Fr 08:00-17:00; Sa 09:00-13:00", "phone": "+48 800 110 110", "ref:csioz": "1031480", "short_name": "DOZ", "website": "https://www.doz.pl", "wheelchair": "yes"}}, {"type": "node", "id": 8007740100, "lat": 54.3824608, "lon": 18.5998491}, {"type": "node", "id": 8032794352, "lat": 54.3898317, "lon": 18.6092688, "tags": {"addr:city": "Gda\u0144sk", "addr:housenumber": "33", "addr:postcode": "80-463", "addr:street": "Aleja Rzeczypospolitej", "amenity": "pharmacy", "brand": "Dbam o Zdrowie", "brand:wikidata": "Q62563833", "dispensing": "yes", "email": "apt150184@dbamozdrowie.pl", "healthcare": "pharmacy", "level": "0", "name": "Dbam o Zdrowie", "opening_hours": "Mo-Sa 09:00-21:00; Su 09:00-19:00", "ref:csioz": "1205681", "short_name": "DOZ", "website": "https://www.doz.pl", "wheelchair": "yes"}}, {"type": "node", "id": 8037675699, "lat": 54.3910886, "lon": 18.609915, "tags": {"addr:city": "Gda\u0144sk", "addr:housenumber": "6", "addr:postcode": "80-463", "addr:street": "\u017bwirki i Wigury", "amenity": "pharmacy", "brand": "Dbam o Zdrowie", "brand:wikidata": "Q62563833", "dispensing": "yes", "email": "apt89804@dbamozdrowie.pl", "healthcare": "pharmacy", "level": "0", "name": "Dbam o Zdrowie", "opening_hours": "Mo-Fr 08:00-19:00; Sa 09:00-15:00", "ref:csioz": "1031686", "wheelchair": "yes"}}, {"type": "node", "id": 8037675703, "lat": 54.391579, "lon": 18.6098326, "tags": {"addr:city": "Gda\u0144sk", "addr:housename": "4", "addr:housenumber": "8", "addr:street": "\u017bwirki i Wigury", "amenity": "pharmacy", "dispensing": "yes", "email": "geminizaspa@aptekigemini.pl", "healthcare": "pharmacy", "level": "0", "name": "Gemini", "opening_hours": "Mo-Fr 08:00-20:00; Sa 09:00-18:00; Su 09:00-15:00", "ref:csioz": "1198137", "wheelchair": "yes"}}, {"type": "node", "id": 8423500500, "lat": 54.4129108, "lon": 18.5929178, "tags": {"addr:city": "Gda\u0144sk", "addr:housenumber": "4", "addr:street": "Jagiello\u0144ska", "amenity": "pharmacy", "dispensing": "yes", "email": "geminigdansk@aptekigemini.pl", "healthcare": "pharmacy", "name": "Gemini", "ref:csioz": "1031467", "website": "http://www.aptekagemini.pl/"}}, {"type": "node", "id": 8423500515, "lat": 54.4054899, "lon": 18.5991255, "tags": {"addr:city": "Gda\u0144sk", "addr:housenumber": "63F", "addr:street": "Ko\u0142obrzeska", "amenity": "pharmacy", "dispensing": "yes", "email": "geminikolobrzeska@aptekigemini.pl", "healthcare": "pharmacy", "name": "Gemini", "ref:csioz": "1032381", "website": "http://www.aptekagemini.pl/"}}, {"type": "node", "id": 8806197748, "lat": 54.3525972, "lon": 18.646392, "tags": {"addr:city": "Gda\u0144sk", "addr:housenumber": "28/30", "addr:street": "Wa\u0142y Jagiello\u0144skie", "amenity": "pharmacy", "brand": "Dr. Max", "brand:wikidata": "Q56317371", "brand:wikipedia": "fr:Dr.Max", "check_date": "2025-08-08", "dispensing": "yes", "email": "gdansk.walyjagiellonskie@drmax.com.pl", "healthcare": "pharmacy", "name": "Dr. Max", "opening_hours": "Mo-Fr 08:00-19:00; Sa,Su 08:00-18:00", "ref:csioz": "1031157"}}, {"type": "node", "id": 8859915727, "lat": 54.5656309, "lon": 18.4119933, "tags": {"addr:city": "Rumia", "addr:city:simc": "0934694", "addr:housenumber": "40", "addr:postcode": "84-230", "addr:street": "Gda\u0144ska", "amenity": "pharmacy", "brand": "Dbam o Zdrowie", "brand:wikidata": "Q62563833", "healthcare": "pharmacy", "name": "Dbam o Zdrowie", "short_name": "DOZ", "source:addr": "gugik.gov.pl"}}, {"type": "node", "id": 8883169003, "lat": 54.487227, "lon": 18.2207142, "tags": {"addr:city": "Szemud", "addr:housenumber": "2", "addr:postcode": "84-217", "addr:street": "Szkolna", "amenity": "pharmacy", "dispensing": "yes", "healthcare": "pharmacy", "name": "W Szemudzie", "opening_hours": "Mo-Fr 08:00-18:00; Sa 08:00-13:00", "ref:csioz": "1033536"}}, {"type": "node", "id": 8884268949, "lat": 54.3475337, "lon": 18.6609867, "tags": {"addr:city": "Gda\u0144sk", "addr:housenumber": "11", "addr:street": "Szafarnia", "amenity": "pharmacy", "brand": "Dr. Max", "brand:wikidata": "Q56317371", "brand:wikipedia": "fr:Dr.Max", "dispensing": "yes", "email": "gdansk.szafarnia@drmax.com.pl", "healthcare": "pharmacy", "name": "Dr. Max", "opening_hours": "Mo-Fr 08:00-20:00; Sa 08:00-17:00; Su 10:00-16:00", "ref:csioz": "1186374"}}, {"type": "node", "id": 8890292982, "lat": 54.4845104, "lon": 18.5384663, "tags": {"amenity": "pharmacy", "dispensing": "yes", "healthcare": "pharmacy", "name": "Apteka ''Wracam do zdrowia''", "ref:csioz": "1210791"}}, {"type": "node", "id": 8890765272, "lat": 54.4540052, "lon": 18.3345228, "tags": {"addr:city": "Kielno", "addr:housenumber": "1", "addr:postcode": "84-208", "addr:street": "Szkolna", "amenity": "pharmacy", "dispensing": "yes", "healthcare": "pharmacy", "name": "W Kielnie", "ref:csioz": "1032726"}}, {"type": "node", "id": 8914401851, "lat": 54.3580661, "lon": 18.5808985, "tags": {"amenity": "pharmacy", "check_date": "2023-02-13", "dispensing": "yes", "email": "geminirakoczego@aptekigemini.pl", "healthcare": "pharmacy", "name": "Gemini", "opening_hours": "Mo-Fr 07:00-21:00", "payment:mastercard": "yes", "payment:visa": "yes", "ref:csioz": "1225114", "wheelchair": "yes"}}, {"type": "node", "id": 9351960364, "lat": 54.3205254, "lon": 18.2517145, "tags": {"addr:city": "Dzier\u017c\u0105\u017cno", "addr:housenumber": "2D", "addr:postcode": "83-332", "addr:street": "Kartuska", "amenity": "pharmacy", "email": "kartuska@pelfarm.com.pl", "name": "P\u00ebla", "opening_hours": "Mo-Fr 07:00-21:00; Sa 08:00-20:00", "phone": "+48 575 732 888", "ref:csioz": "1231219", "website": "https://aptekapela.pl/"}}, {"type": "node", "id": 9360306499, "lat": 54.3399386, "lon": 18.3520036, "tags": {"entrance": "yes", "level": "0", "level_name": "parter"}}, {"type": "node", "id": 9360313521, "lat": 54.3399463, "lon": 18.3520343}, {"type": "node", "id": 9360313523, "lat": 54.3400071, "lon": 18.3517526}, {"type": "node", "id": 9360313525, "lat": 54.3399294, "lon": 18.3519666}, {"type": "node", "id": 9360313526, "lat": 54.3399661, "lon": 18.3519397}, {"type": "node", "id": 9360313527, "lat": 54.339933, "lon": 18.3518068}, {"type": "node", "id": 9360391683, "lat": 54.3399619, "lon": 18.3520229}, {"type": "node", "id": 9385590364, "lat": 54.3422289, "lon": 18.3653013, "tags": {"addr:city": "\u017bukowo", "addr:housenumber": "40", "addr:postcode": "83-330", "addr:street": "Gda\u0144ska", "amenity": "pharmacy", "brand": "Dbam o Zdrowie", "brand:wikidata": "Q62563833", "dispensing": "yes", "drive_through": "no", "healthcare": "pharmacy", "name": "Dbam o Zdrowie", "opening_hours": "Mo-Fr 08:00-19:00; Sa 09:00-14:00; Su,PH off", "operator": "DOZ.pl Sp. z o.o.", "ref:csioz": "1031326"}}, {"type": "node", "id": 9410617003, "lat": 54.3838213, "lon": 18.5885114, "tags": {"addr:city": "Gda\u0144sk", "addr:housenumber": "14", "addr:street": "Karola Szymanowskiego", "amenity": "pharmacy", "dispensing": "yes", "email": "apteka_szymanowskiego@wp.pl", "healthcare": "pharmacy", "name": "Szymanowskiego", "opening_hours": "Mo-Fr 08:30-19:30; Sa 09:00-15:00", "ref:csioz": "1189376"}}, {"type": "node", "id": 9425689927, "lat": 54.4267854, "lon": 18.4907031, "tags": {"amenity": "pharmacy", "dispensing": "yes", "healthcare": "pharmacy", "name": "Multi Pharm", "opening_hours": "Mo-Sa 09:00-21:00; Su 10:00-20:00", "ref:csioz": "1231062"}}, {"type": "node", "id": 9542738606, "lat": 54.2854167, "lon": 18.2041065, "tags": {"addr:city": "Somonino", "addr:housenumber": "1", "addr:postcode": "83-314", "addr:street": "Sp\u00f3\u0142dzielc\u00f3w", "amenity": "pharmacy", "name": "Przystanek", "ref:csioz": "1230180"}}, {"type": "node", "id": 9542738608, "lat": 54.2718576, "lon": 18.1942756, "tags": {"addr:city": "Somonino", "addr:housenumber": "20", "addr:postcode": "83-314", "addr:street": "Floriana Ceynowy", "amenity": "pharmacy", "name": "Dr Ceynowy", "operator": "Farmjug Sp. z o.o.", "ref:csioz": "1181076"}}, {"type": "node", "id": 9542738614, "lat": 54.3673532, "lon": 18.3969968, "tags": {"addr:city": "P\u0119powo", "addr:housenumber": "2", "addr:postcode": "83-330", "addr:street": "Armii Krajowej", "amenity": "pharmacy", "level": "0", "name": "Punkt Apteczny Pod Gryfem", "ref:csioz": "1226011"}}, {"type": "node", "id": 9542738615, "lat": 54.3336987, "lon": 18.2006808, "tags": {"addr:city": "Kartuzy", "addr:housenumber": "4", "addr:postcode": "83-300", "addr:street": "Dworcowa", "amenity": "pharmacy", "name": "Na Deptaku", "operator": "Nawrocki Sp. Jawna", "ref:csioz": "1225817", "wheelchair": "yes"}}, {"type": "node", "id": 9542738616, "lat": 54.3453575, "lon": 18.3651196, "tags": {"addr:city": "\u017bukowo", "addr:housenumber": "2A", "addr:postcode": "83-330", "addr:street": "Po\u017carna", "amenity": "pharmacy", "name": "od Serca", "ref:csioz": "1031136"}}, {"type": "node", "id": 9542749119, "lat": 54.3468177, "lon": 18.3655541, "tags": {"addr:city": "\u017bukowo", "addr:housenumber": "22D", "addr:postcode": "83-330", "addr:street": "Gdy\u0144ska", "amenity": "pharmacy", "level": "0", "name": "Od Serca", "ref:csioz": "1033172", "wheelchair": "yes"}}, {"type": "node", "id": 9543572483, "lat": 54.2721904, "lon": 18.467306}, {"type": "node", "id": 9543572484, "lat": 54.2722005, "lon": 18.4672981}, {"type": "node", "id": 9543572485, "lat": 54.2722794, "lon": 18.4672322}, {"type": "node", "id": 9543572486, "lat": 54.2722875, "lon": 18.4672259}, {"type": "node", "id": 9543572490, "lat": 54.2316463, "lon": 18.6348511, "tags": {"addr:city": "Cieplewo", "addr:housenumber": "101A", "addr:postcode": "83-031", "addr:street": "D\u0142uga", "amenity": "pharmacy", "healthcare": "pharmacy", "name": "Wracam Do Zdrowia", "ref:csioz": "1205296"}}, {"type": "node", "id": 9543572491, "lat": 54.2645501, "lon": 18.6641392, "tags": {"addr:city": "Pruszcz Gda\u0144ski", "addr:flats": "3", "addr:housenumber": "52", "addr:postcode": "83-000", "addr:street": "Jana Kasprowicza", "amenity": "pharmacy", "name": "Multipharm", "ref:csioz": "1184056"}}, {"type": "node", "id": 9543572494, "lat": 54.259917, "lon": 18.6732781, "tags": {"addr:city": "Pruszcz Gda\u0144ski", "addr:housenumber": "66", "addr:postcode": "83-000", "addr:street": "J\u00f3zefa Konrada Korzeniowskiego", "amenity": "pharmacy", "healthcare": "pharmacy", "name": "Magnolia", "ref:csioz": "1029293"}}, {"type": "node", "id": 9543572495, "lat": 54.2706078, "lon": 18.6265051, "tags": {"addr:city": "Pruszcz Gda\u0144ski", "addr:housenumber": "6", "addr:postcode": "83-000", "addr:street": "Stefana Rogozi\u0144skiego", "amenity": "pharmacy", "dispensing": "yes", "healthcare": "pharmacy", "name": "Bursztynowa", "phone": "+48 58 670 42 22", "ref:csioz": "1206242"}}, {"type": "node", "id": 9543572496, "lat": 54.2599152, "lon": 18.6335179, "tags": {"addr:city": "Pruszcz Gda\u0144ski", "addr:housenumber": "18", "addr:postcode": "83-000", "addr:street": "Wojska Polskiego", "amenity": "pharmacy", "healthcare": "pharmacy", "name": "Spo\u0142eczna", "operator": "Grupa Nowa Farmacja", "ref:csioz": "1184348"}}, {"type": "node", "id": 9543572499, "lat": 54.1728902, "lon": 18.5341465, "tags": {"addr:city": "Tr\u0105bki Wielkie", "addr:housenumber": "27J", "addr:postcode": "83-034", "addr:street": "Gda\u0144ska", "amenity": "pharmacy", "dispensing": "yes", "healthcare": "pharmacy", "name": "Centrum", "opening_hours": "Mo-Fr 08:00-18:00; Sa 09:00-14:00", "phone": "797795339", "ref:csioz": "1032718"}}, {"type": "node", "id": 9543572500, "lat": 54.1938616, "lon": 18.3187246, "tags": {"addr:city": "Przywidz", "addr:housenumber": "4", "addr:postcode": "83-047", "addr:street": "Cisowa", "amenity": "pharmacy", "ref:csioz": "1032434"}}, {"type": "node", "id": 9543572501, "lat": 54.2586231, "lon": 18.628271, "tags": {"addr:city": "Pruszcz Gda\u0144ski", "addr:housenumber": "9", "addr:postcode": "83-000", "addr:street": "Obro\u0144c\u00f3w Wybrze\u017ca", "amenity": "pharmacy", "check_date": "2025-01-28", "ref:csioz": "1028889"}}, {"type": "node", "id": 9545802960, "lat": 54.5878166, "lon": 18.4926479, "tags": {"addr:city": "Kosakowo", "addr:housenumber": "51A", "addr:postcode": "81-198", "addr:street": "Stefana \u017beromskiego", "amenity": "pharmacy", "dispensing": "yes", "healthcare": "pharmacy", "name": "Jantar", "opening_hours": "Mo-Fr 08:30-19:00", "ref:csioz": "1026497", "wheelchair": "designated"}}, {"type": "node", "id": 9550429038, "lat": 54.1053407, "lon": 18.2357816, "tags": {"addr:housenumber": "27", "addr:place": "Lubieszyn", "addr:postcode": "83-420", "amenity": "pharmacy", "healthcare": "pharmacy", "name": "Magnolia", "opening_hours": "Mo-Fr 08:00-17:30; Sa 09:-12:00", "ref:csioz": "1029356"}}, {"type": "node", "id": 9556623306, "lat": 54.5696711, "lon": 18.3900636, "tags": {"addr:city": "Rumia", "addr:housenumber": "13C", "addr:postcode": "84-230", "addr:street": "Starowiejska", "amenity": "pharmacy", "dispensing": "yes", "healthcare": "pharmacy", "name": "Starowiejska", "opening_hours": "Mo-Fr 08:00-20:00; Sa 08:00-15:00", "ref:csioz": "1206453"}}, {"type": "node", "id": 9556623307, "lat": 54.5689826, "lon": 18.4001652, "tags": {"addr:city": "Rumia", "addr:housenumber": "48A", "addr:postcode": "84-230", "addr:street": "Marsza\u0142ka J\u00f3zefa Pi\u0142sudskiego", "amenity": "pharmacy", "dispensing": "yes", "healthcare": "pharmacy", "name": "Prima", "ref:csioz": "1190351"}}, {"type": "node", "id": 9556623310, "lat": 54.5666905, "lon": 18.413293, "tags": {"addr:city": "Rumia", "addr:housenumber": "24", "addr:postcode": "84-230", "addr:street": "Gda\u0144ska", "amenity": "pharmacy", "dispensing": "yes", "fixme": "Dok\u0142adna lokalizacja do weryfikacji. Wed\u0142ug adresu w rejestrze jest to budynek wielorodzinny.", "healthcare": "pharmacy", "name": "Zdrowia", "ref:csioz": "1032528"}}, {"type": "node", "id": 9556623311, "lat": 54.5631255, "lon": 18.3905423, "tags": {"addr:city": "Rumia", "addr:housenumber": "14A", "addr:postcode": "84-230", "addr:street": "Jana III Sobieskiego", "amenity": "pharmacy", "dispensing": "yes", "level": "0", "name": "Lawendowa", "ref:csioz": "1032442"}}, {"type": "node", "id": 9556623313, "lat": 54.5732283, "lon": 18.3998826, "tags": {"addr:city": "Rumia", "addr:housenumber": "21", "addr:postcode": "84-230", "addr:street": "Hieronima Derdowskiego", "amenity": "pharmacy", "dispensing": "yes", "healthcare": "pharmacy", "name": "Polska", "ref:csioz": "1031360"}}, {"type": "node", "id": 9556623314, "lat": 54.564792, "lon": 18.3900696, "tags": {"addr:city": "Rumia", "addr:housenumber": "10A", "addr:postcode": "84-230", "addr:street": "Jana III Sobieskiego", "amenity": "pharmacy", "brand": "Dbam o Zdrowie", "brand:wikidata": "Q62563833", "dispensing": "yes", "healthcare": "pharmacy", "name": "Dbam o Zdrowie", "ref:csioz": "1030790"}}, {"type": "node", "id": 9556623316, "lat": 54.5655602, "lon": 18.4177402, "tags": {"addr:city": "Rumia", "addr:housenumber": "11A", "addr:postcode": "84-230", "addr:street": "Pomorska", "amenity": "pharmacy", "dispensing": "yes", "fixme": "Dok\u0142adna lokalizacja do weryfikacji.", "healthcare": "pharmacy", "name": "Alfa", "ref:csioz": "1029442", "source": "Rejestr Aptek MZ"}}, {"type": "node", "id": 9556689717, "lat": 54.5689204, "lon": 18.3936036, "tags": {"addr:city": "Rumia", "addr:housenumber": "12A", "addr:postcode": "84-230", "addr:street": "Henryka D\u0105browskiego", "amenity": "pharmacy", "dispensing": "yes", "healthcare": "pharmacy", "name": "Gratus", "opening_hours": "Mo-Fr 08:00-20:00; Sa 08:00-15:00", "ref:csioz": "1028652"}}, {"type": "node", "id": 9556689719, "lat": 54.4752236, "lon": 18.3774407, "tags": {"addr:city": "Bojano", "addr:housenumber": "40", "addr:postcode": "84-207", "addr:street": "J\u00f3zefa Wybickiego", "amenity": "pharmacy", "dispensing": "yes", "name": "Nowa", "opening_hours": "Mo-Fr 08:00-19:00; Sa 08:00-14:00", "ref:csioz": "1117206"}}, {"type": "node", "id": 9556689722, "lat": 54.5643574, "lon": 18.407726, "tags": {"addr:city": "Rumia", "addr:housenumber": "50", "addr:postcode": "84-230", "addr:street": "Henryka D\u0105browskiego", "amenity": "pharmacy", "dispensing": "yes", "healthcare": "pharmacy", "name": "Starowiejska", "ref:csioz": "1033027"}}, {"type": "node", "id": 9556689723, "lat": 54.5720526, "lon": 18.3993202, "tags": {"addr:city": "Rumia", "addr:housenumber": "18", "addr:postcode": "84-230", "addr:street": "Hieronima Derdowskiego", "amenity": "pharmacy", "brand": "Dbam o Zdrowie", "brand:wikidata": "Q62563833", "dispensing": "yes", "healthcare": "pharmacy", "name": "Dbam o Zdrowie", "ref:csioz": "1030476", "short_name": "DOZ"}}, {"type": "node", "id": 9556689724, "lat": 54.5688013, "lon": 18.3902162, "tags": {"addr:city": "Rumia", "addr:housenumber": "9", "addr:postcode": "84-230", "addr:street": "Starowiejska", "amenity": "pharmacy", "brand": "Dbam o Zdrowie", "brand:wikidata": "Q62563833", "dispensing": "yes", "healthcare": "pharmacy", "name": "Dbam o Zdrowie", "ref:csioz": "1028770", "short_name": "DOZ"}}, {"type": "node", "id": 9556689725, "lat": 54.5736009, "lon": 18.4002132, "tags": {"addr:city": "Rumia", "addr:housenumber": "23A", "addr:postcode": "84-230", "addr:street": "Hieronima Derdowskiego", "amenity": "pharmacy", "brand": "Gemini", "dispensing": "yes", "healthcare": "pharmacy", "name": "Gemini", "ref:csioz": "1027713"}}, {"type": "node", "id": 9556689726, "lat": 54.5859437, "lon": 18.3907337, "tags": {"addr:city": "Rumia", "addr:housenumber": "37A", "addr:postcode": "84-230", "addr:street": "Stefana Okrzei", "amenity": "pharmacy", "dispensing": "yes", "healthcare": "pharmacy", "name": "Vita", "ref:csioz": "1026793"}}, {"type": "node", "id": 9567063862, "lat": 54.4395782, "lon": 18.5681228, "tags": {"addr:city": "Sopot", "addr:housenumber": "6/8", "addr:postcode": "81-783", "addr:street": "Boles\u0142awa Chrobrego", "amenity": "pharmacy", "brand": "Dr. Max", "brand:wikidata": "Q56317371", "brand:wikipedia": "fr:Dr.Max", "dispensing": "yes", "email": "sopot.chrobrego@drmax.com.pl", "healthcare": "pharmacy", "name": "Dr. Max", "ref:csioz": "1217385"}}, {"type": "node", "id": 9567063863, "lat": 54.4539305, "lon": 18.548811, "tags": {"addr:city": "Sopot", "addr:housenumber": "26", "addr:postcode": "81-815", "addr:street": "J\u00f3zefa Kraszewskiego", "amenity": "pharmacy", "brand": "Dr. Max", "brand:wikidata": "Q56317371", "brand:wikipedia": "fr:Dr.Max", "dispensing": "yes", "email": "sopot.kraszewskiego@drmax.com.pl", "healthcare": "pharmacy", "name": "Dr. Max", "ref:csioz": "1032904"}}, {"type": "node", "id": 9567063864, "lat": 54.4459524, "lon": 18.5563944, "tags": {"addr:city": "Sopot", "addr:housenumber": "114", "addr:postcode": "81-824", "addr:street": "Armii Krajowej", "amenity": "pharmacy", "dispensing": "yes", "email": "vitalis.apteka@gmail.com", "name": "Vitalis", "ref:csioz": "1030220"}}, {"type": "node", "id": 9567063865, "lat": 54.4569966, "lon": 18.5351905, "tags": {"addr:city": "Sopot", "addr:housenumber": "22", "addr:postcode": "81-881", "addr:street": "W\u0142adys\u0142awa Cieszy\u0144skiego", "amenity": "pharmacy", "dispensing": "yes", "email": "apteka.brodwino@wp.pl", "name": "Brodwino", "ref:csioz": "1026172"}}, {"type": "node", "id": 9569805860, "lat": 54.4099453, "lon": 18.5985212, "tags": {"addr:city": "Gda\u0144sk", "addr:housenumber": "17", "addr:street": "Obro\u0144c\u00f3w Wybrze\u017ca", "amenity": "pharmacy", "brand": "Dr. Max", "brand:wikidata": "Q56317371", "brand:wikipedia": "fr:Dr.Max", "dispensing": "yes", "email": "gdansk.obroncowwybrzeza@drmax.com.pl", "healthcare": "pharmacy", "name": "Dr. Max", "opening_hours": "Mo-Fr 08:00-20:00; Sa 09:00-18:00; Su 10:00-18:00", "ref:csioz": "1225659"}}, {"type": "node", "id": 9569805861, "lat": 54.4122934, "lon": 18.5867039, "tags": {"addr:city": "Gda\u0144sk", "addr:housenumber": "24", "addr:street": "Czerwony Dw\u00f3r", "amenity": "pharmacy", "dispensing": "yes", "email": "zielonykamyk@aptekacosmedica.pl", "name": "Cosmedica", "ref:csioz": "1213921"}}, {"type": "node", "id": 9569805862, "lat": 54.4087424, "lon": 18.5677251, "tags": {"addr:city": "Gda\u0144sk", "addr:housenumber": "3", "addr:street": "Kapr\u00f3w", "amenity": "pharmacy", "brand": "Dr. Max", "brand:wikidata": "Q56317371", "brand:wikipedia": "fr:Dr.Max", "check_date": "2025-03-24", "dispensing": "yes", "email": "gdansk.kaprow@drmax.pl", "healthcare": "pharmacy", "name": "Dr. Max", "ref:csioz": "1188353"}}, {"type": "node", "id": 9569805864, "lat": 54.4166269, "lon": 18.5905134, "tags": {"addr:city": "Gda\u0144sk", "addr:housenumber": "90E", "addr:street": "Piastowska", "amenity": "pharmacy", "dispensing": "yes", "email": "apteka-slowianska2@wp.pl", "name": "S\u0142owia\u0144ska", "ref:csioz": "1112405"}}, {"type": "node", "id": 9569805865, "lat": 54.4068296, "lon": 18.5598496, "tags": {"addr:city": "Gda\u0144sk", "addr:housenumber": "7", "addr:street": "Polanki", "amenity": "pharmacy", "dispensing": "yes", "email": "aptekapolanki@aptekiadw.pl", "name": "Apteki Dla Was", "opening_hours": "Mo-Sa 07:00-19:00", "ref:csioz": "1032833"}}, {"type": "node", "id": 9569805867, "lat": 54.4320558, "lon": 18.4709745, "tags": {"addr:city": "Gda\u0144sk", "addr:housenumber": "2", "addr:street": "Wac\u0142awa Balcerskiego", "amenity": "pharmacy", "dispensing": "yes", "name": "Rodzinna", "ref:csioz": "1031495"}}, {"type": "node", "id": 9569805868, "lat": 54.4213479, "lon": 18.5840465, "tags": {"addr:city": "Gda\u0144sk", "addr:housenumber": "25", "addr:street": "Jakuba Wejhera", "amenity": "pharmacy", "check_date:opening_hours": "2024-03-20", "dispensing": "yes", "drive_through": "no", "name": "Polska", "opening_hours": "Mo-Fr 08:00-20:00; Sa 08:00-14:00", "ref:csioz": "1031276", "wheelchair": "yes"}}, {"type": "node", "id": 9569805869, "lat": 54.4208431, "lon": 18.5775816, "tags": {"addr:city": "Gda\u0144sk", "addr:housenumber": "3A", "addr:postcode": "80-340", "addr:street": "Gdy\u0144ska", "amenity": "pharmacy", "brand": "Dbam o Zdrowie", "brand:wikidata": "Q62563833", "dispensing": "yes", "drive_through": "no", "email": "apt82126@dbamozdrowie.pl", "healthcare": "pharmacy", "name": "Dbam o Zdrowie", "opening_hours": "Mo-Fr 08:00-19:00; Sa 09:00-14:00", "operator": "DOZ.pl Sp. z o.o.", "phone": "+48 736 698 007", "recycling:drugs": "yes", "ref:csioz": "1031087", "short_name": "DOZ", "website": "https://www.doz.pl/apteki/a82126-DOZ_Apteka_Dbam_o_Zdrowie"}}, {"type": "node", "id": 9569805872, "lat": 54.4230616, "lon": 18.5800505, "tags": {"addr:city": "Gda\u0144sk", "addr:housenumber": "19A", "addr:street": "Gospody", "amenity": "pharmacy", "dispensing": "yes", "healthcare": "pharmacy", "ref:csioz": "1029362"}}, {"type": "node", "id": 9569805873, "lat": 54.4090787, "lon": 18.5870982, "tags": {"addr:city": "Gda\u0144sk", "addr:housenumber": "40", "addr:street": "Genera\u0142a Bora-Komorowskiego", "amenity": "pharmacy", "dispensing": "yes", "drive_through": "no", "email": "elakuduk@o2.pl", "healthcare": "pharmacy", "name": "Medicur", "opening_hours": "Mo-Fr 09:00-20:00; Sa 10:00-15:00; PH off", "ref:csioz": "1028639", "wheelchair": "yes"}}, {"type": "node", "id": 9571518110, "lat": 54.4040599, "lon": 18.6011208, "tags": {"addr:city": "Gda\u0144sk", "addr:housenumber": "3", "addr:postcode": "80-395", "addr:street": "Opolska", "amenity": "pharmacy", "brand": "Dom Lek\u00f3w", "brand:wikidata": "Q130487923", "dispensing": "yes", "email": "dl.opolska@gmail.com", "healthcare": "pharmacy", "name": "Dom Lek\u00f3w", "opening_hours": "Mo-Fr 08:00-20:00; Sa 08:00-15:00", "ref:csioz": "1222468"}}, {"type": "node", "id": 9571518111, "lat": 54.3927703, "lon": 18.5964107, "tags": {"addr:city": "Gda\u0144sk", "addr:housenumber": "3", "addr:street": "Pilot\u00f3w", "amenity": "pharmacy", "check_date": "2023-07-03", "dispensing": "yes", "email": "geminipilotow@aptekigemini.pl", "name": "Gemini", "ref:csioz": "1201886"}}, {"type": "node", "id": 9571518113, "lat": 54.4042721, "lon": 18.5879979, "tags": {"addr:city": "Gda\u0144sk", "addr:housenumber": "41C", "addr:street": "Ko\u0142obrzeska", "amenity": "pharmacy", "brand": "Super-Pharm", "brand:wikidata": "Q13220217", "dispensing": "yes", "email": "mpaszek@superpharm.pl", "healthcare": "pharmacy", "level": "0", "name": "Super-Pharm", "opening_hours": "Mo-Sa 09:00-21:00; Su 10:00-20:00", "ref:csioz": "1112471", "shop": "chemist"}}, {"type": "node", "id": 9571518114, "lat": 54.4052798, "lon": 18.6066405, "tags": {"addr:city": "Gda\u0144sk", "addr:housenumber": "3C", "addr:street": "Olszty\u0144ska", "amenity": "pharmacy", "dispensing": "yes", "name": "Trzy \u017bagle", "ref:csioz": "1033315"}}, {"type": "node", "id": 9571518115, "lat": 54.3972503, "lon": 18.5959486, "tags": {"addr:city": "Gda\u0144sk", "addr:housenumber": "6", "addr:street": "Startowa", "amenity": "pharmacy", "brand": "Cef@rm 36,6", "dispensing": "yes", "drive_through": "no", "email": "177@cefarm36.pl", "name": "Cef@Rm 36,6", "opening_hours": "PH,Mo-Su 08:00-21:00", "phone": "+48 58 559 23 27", "ref:csioz": "1032961", "website": "https://www.aptekicefarm.pl/"}}, {"type": "node", "id": 9571518116, "lat": 54.391633, "lon": 18.5996092, "tags": {"addr:city": "Gda\u0144sk", "addr:housenumber": "6D", "addr:postcode": "80-462", "addr:street": "Aleja Jana Paw\u0142a II", "amenity": "pharmacy", "contact:facebook": "https://www.facebook.com/aptepl", "dispensing": "yes", "email": "zamowienia@aptekapolska.pl", "level": "0", "name": "Polska", "opening_hours": "Mo-Fr 08:00-20:00; Sa 08:00-14:00", "phone": "+48 58 512 11 05", "ref:csioz": "1032469", "website": "http://aptekapolska.pl/", "wheelchair": "yes"}}, {"type": "node", "id": 9571599317, "lat": 54.3989931, "lon": 18.6077132, "tags": {"addr:city": "Gda\u0144sk", "addr:housenumber": "1", "addr:postcode": "80-462", "addr:street": "Zbigniewa Burzy\u0144skiego", "amenity": "pharmacy", "brand": "Dbam o Zdrowie", "brand:wikidata": "Q62563833", "check_date": "2025-01-27", "dispensing": "yes", "email": "apt93809@dbamozdrowie.pl", "healthcare": "pharmacy", "name": "Dbam o Zdrowie", "ref:csioz": "1031869", "short_name": "DOZ"}}, {"type": "node", "id": 9571599318, "lat": 54.3932144, "lon": 18.5981137, "tags": {"addr:city": "Gda\u0144sk", "addr:housenumber": "1", "addr:street": "Startowa", "amenity": "pharmacy", "dispensing": "yes", "email": "apteka.startowa@gmail.com", "name": "Startowa", "ref:csioz": "1029948"}}, {"type": "node", "id": 9571599319, "lat": 54.3878549, "lon": 18.5896118, "tags": {"addr:city": "Gda\u0144sk", "addr:housenumber": "212", "addr:postcode": "80-266", "addr:street": "Aleja Grunwaldzka", "amenity": "pharmacy", "dispensing": "yes", "email": "aptekakalinowa@o2.pl", "name": "Od Serca", "ref:csioz": "1029739"}}, {"type": "node", "id": 9571599321, "lat": 54.4048211, "lon": 18.5997547, "tags": {"addr:city": "Gda\u0144sk", "addr:housenumber": "46", "addr:street": "Ko\u0142obrzeska", "amenity": "pharmacy", "brand": "Dbam o Zdrowie", "brand:wikidata": "Q62563833", "dispensing": "yes", "email": "apt153051@dbamozdrowie.pl", "healthcare": "pharmacy", "name": "Dbam o Zdrowie", "opening_hours": "Mo-Fr 07:30-19:30; Sa 08:00-14:00", "ref:csioz": "1026830", "wheelchair": "yes"}}, {"type": "node", "id": 9571599322, "lat": 54.3864759, "lon": 18.5830881, "tags": {"addr:city": "Gda\u0144sk", "addr:housenumber": "10A", "addr:street": "Ksi\u0119dza Bernarda Sychty", "amenity": "pharmacy", "dispensing": "yes", "email": "osiedlowaapteka@wp.pl", "healthcare": "pharmacy", "name": "Osiedlowa", "ref:csioz": "1026764"}}, {"type": "node", "id": 9571599323, "lat": 54.4029249, "lon": 18.5814145, "tags": {"addr:city": "Gda\u0144sk", "addr:housenumber": "23", "addr:street": "Szczeci\u0144ska", "amenity": "pharmacy", "check_date": "2025-03-17", "dispensing": "yes", "healthcare": "pharmacy", "name": "Apteka \"Gda\u0144ska\"", "opening_hours": "Mo-Fr 10:00-18:00; Sa 10:00-14:00; Su off; PH off", "ref:csioz": "1026659"}}, {"type": "node", "id": 9571599324, "lat": 54.386434, "lon": 18.6059014, "tags": {"addr:city": "Gda\u0144sk", "addr:housenumber": "12", "addr:street": "Tadeusza Ko\u015bciuszki", "amenity": "pharmacy", "check_date": "2025-04-18", "dispensing": "yes", "drive_through": "no", "email": "apsana@wp.pl", "name": "Sana", "opening_hours": "Mo-Fr 08:00-20:00; Sa 09:00-15:00", "operator": "Sinkiewicz D.", "phone": "+48 58 344 10 16", "ref:csioz": "1026613"}}, {"type": "node", "id": 9571689857, "lat": 54.3368095, "lon": 18.613463, "tags": {"addr:city": "Gda\u0144sk", "addr:housenumber": "48", "addr:street": "W\u0142adys\u0142awa Cieszy\u0144skiego", "addr:unit": "1", "amenity": "pharmacy", "dispensing": "yes", "email": "geminigdacie@aptekigemini.pl", "healthcare": "pharmacy", "name": "Gemini", "ref:csioz": "1215221"}}, {"type": "node", "id": 9571689858, "lat": 54.328487, "lon": 18.5829834, "tags": {"addr:city": "Gda\u0144sk", "addr:housenumber": "25", "addr:street": "Piotrkowska", "amenity": "pharmacy", "dispensing": "yes", "name": "4 Pory Roku", "ref:csioz": "1219789"}}, {"type": "node", "id": 9571689859, "lat": 54.3322851, "lon": 18.5832528, "tags": {"addr:city": "Gda\u0144sk", "addr:housenumber": "69", "addr:street": "Warszawska", "amenity": "pharmacy", "dispensing": "yes", "email": "gdansk_wa@wdoz.pl", "name": "Wracam Do Zdrowia", "ref:csioz": "1205635"}}, {"type": "node", "id": 9571689860, "lat": 54.3300737, "lon": 18.6054415, "tags": {"addr:city": "Gda\u0144sk", "addr:housenumber": "10", "addr:street": "Nieborowska", "amenity": "pharmacy", "dispensing": "yes", "email": "nieborowska@aptekacosmedica.pl", "name": "Cosmedica", "ref:csioz": "1199648"}}, {"type": "node", "id": 9571689861, "lat": 54.3305068, "lon": 18.5569619, "tags": {"addr:city": "Gda\u0144sk", "addr:housenumber": "29A", "addr:postcode": "80-174", "addr:street": "Jab\u0142oniowa", "amenity": "pharmacy", "dispensing": "yes", "name": "Jab\u0142oniowa", "opening_hours": "Sa 09:00-17:00; Mo-Fr 08:00-21:00", "ref:csioz": "1189392"}}, {"type": "node", "id": 9571689862, "lat": 54.3508264, "lon": 18.5623724, "tags": {"addr:city": "Gda\u0144sk", "addr:housenumber": "72", "addr:street": "My\u015bliwska", "amenity": "pharmacy", "check_date": "2024-05-05", "dispensing": "yes", "name": "Ba\u0142tycka", "opening_hours": "Mo-Fr 08:00-21:00; Sa 08:00-19:00", "payment:cash": "yes", "payment:credit_cards": "yes", "payment:debit_cards": "yes", "ref:csioz": "1125005"}}, {"type": "node", "id": 9571689863, "lat": 54.3259662, "lon": 18.6066411, "tags": {"addr:city": "Gda\u0144sk", "addr:housenumber": "4", "addr:street": "\u015awi\u0119tokrzyska", "amenity": "pharmacy", "dispensing": "yes", "email": "aptekaswietokrzyska@aptekiadw.pl", "name": "Apteki Dla Was", "ref:csioz": "1031678"}}, {"type": "node", "id": 9571793723, "lat": 54.3784374, "lon": 18.6055824, "tags": {"addr:city": "Gda\u0144sk", "addr:housenumber": "102", "addr:street": "Aleja Grunwaldzka", "amenity": "pharmacy", "check_date": "2025-03-18", "dispensing": "yes", "email": "gdanskgrunwaldzka@aptekigemini.pl", "name": "Gemini", "opening_hours": "Mo-Fr 07:00-18:00; Sa 09:00-18:00; Su 09:00-15:00; PH off", "ref:csioz": "1218392", "wheelchair": "yes"}}, {"type": "node", "id": 9571793724, "lat": 54.3785089, "lon": 18.6054082, "tags": {"addr:city": "Gda\u0144sk", "addr:housenumber": "104", "addr:street": "Aleja Grunwaldzka", "amenity": "pharmacy", "brand": "Dr. Max", "brand:wikidata": "Q56317371", "brand:wikipedia": "fr:Dr.Max", "check_date": "2025-03-18", "dispensing": "yes", "email": "gdansk.grunwaldzka104@drmax.com.pl", "healthcare": "pharmacy", "name": "Dr. Max", "opening_hours": "24/7", "ref:csioz": "1203207", "wheelchair": "yes"}}, {"type": "node", "id": 9571793726, "lat": 54.3582871, "lon": 18.5861443, "tags": {"addr:city": "Gda\u0144sk", "addr:housenumber": "105", "addr:street": "Ja\u015bkowa Dolina", "amenity": "pharmacy", "dispensing": "yes", "email": "apteka@aptekabratek.pl", "fixme": "Dok\u0142adna lokalizacja do weryfikacji", "name": "Bratek", "ref:csioz": "1026801"}}, {"type": "node", "id": 9576392803, "lat": 54.3565756, "lon": 18.6820851, "tags": {"addr:city": "Gda\u0144sk", "addr:housenumber": "9", "addr:street": "Siennicka", "amenity": "pharmacy", "dispensing": "yes", "healthcare": "pharmacy", "name": "Pinus-Pharm", "ref:csioz": "1217202"}}, {"type": "node", "id": 9576392804, "lat": 54.3374753, "lon": 18.6125756, "tags": {"addr:city": "Gda\u0144sk", "addr:housenumber": "1A", "addr:street": "W\u0142adys\u0142awa Cieszy\u0144skiego", "amenity": "pharmacy", "dispensing": "yes", "healthcare": "pharmacy", "name": "Dom Lek\u00f3w", "opening_hours": "Mo-Su 07:00-22:00", "ref:csioz": "1197912"}}, {"type": "node", "id": 9576392806, "lat": 54.4067324, "lon": 18.6399249, "tags": {"addr:city": "Gda\u0144sk", "addr:housenumber": "4", "addr:street": "Konstantego Ildefonsa Ga\u0142czy\u0144skiego", "amenity": "pharmacy", "dispensing": "yes", "email": "brzezno@aptekapolska.pl", "healthcare": "pharmacy", "name": "Polska", "ref:csioz": "1031944"}}, {"type": "node", "id": 9576392807, "lat": 54.3569941, "lon": 18.6517333, "tags": {"addr:city": "Gda\u0144sk", "addr:housenumber": "48", "addr:street": "\u0141agiewniki", "amenity": "pharmacy", "brand": "Gemini", "brand:wikidata": "Q130243797", "dispensing": "yes", "email": "aptekalagiewniki@aptekigemini.pl", "healthcare": "pharmacy", "name": "Gemini", "opening_hours": "Mo-Su 07:30-20:00; Sa 09:00-18:00", "ref:csioz": "1031730"}}, {"type": "node", "id": 9576392809, "lat": 54.4065087, "lon": 18.638902, "tags": {"addr:city": "Gda\u0144sk", "addr:housenumber": "2", "addr:street": "Konstantego Ildefonsa Ga\u0142czy\u0144skiego", "amenity": "pharmacy", "brand": "Dbam o Zdrowie", "brand:wikidata": "Q62563833", "dispensing": "yes", "healthcare": "pharmacy", "name": "Dbam o Zdrowie", "ref:csioz": "1030808", "short_name": "DOZ"}}, {"type": "node", "id": 9576392810, "lat": 54.4012724, "lon": 18.6620751, "tags": {"addr:city": "Gda\u0144sk", "addr:housenumber": "21B", "addr:street": "Wolno\u015bci", "amenity": "pharmacy", "dispensing": "yes", "name": "Przy Falowcu", "ref:csioz": "1030141"}}, {"type": "node", "id": 9576392812, "lat": 54.3522407, "lon": 18.6511073, "tags": {"addr:city": "Gda\u0144sk", "addr:floor": "0", "addr:housenumber": "6", "addr:street": "Pa\u0144ska", "amenity": "pharmacy", "brand": "Dr. Max", "brand:wikidata": "Q56317371", "brand:wikipedia": "fr:Dr.Max", "check_date": "2025-07-30", "dispensing": "yes", "email": "gdansk.panska@drmax.pl", "healthcare": "pharmacy", "internet_access": "no", "level": "0", "name": "Dr. Max", "opening_hours": "08:00-21:00", "payment:cash": "yes", "payment:credit_cards": "yes", "payment:debit_cards": "yes", "ref:csioz": "1029726", "wheelchair": "no"}}, {"type": "node", "id": 9576392813, "lat": 54.3609624, "lon": 18.7140415, "tags": {"addr:city": "Gda\u0144sk", "addr:housenumber": "29B", "addr:street": "Wilhelma Stryjewskiego", "amenity": "pharmacy", "dispensing": "yes", "name": "El\u017cbieta\u0144ska", "ref:csioz": "1027997"}}, {"type": "node", "id": 9576392814, "lat": 54.4017599, "lon": 18.6707385, "tags": {"addr:city": "Gda\u0144sk", "addr:housenumber": "62", "addr:street": "Oliwska", "amenity": "pharmacy", "dispensing": "yes", "name": "Westerplatte", "ref:csioz": "1027792"}}, {"type": "node", "id": 9576392815, "lat": 54.3568923, "lon": 18.6841634, "tags": {"addr:city": "Gda\u0144sk", "addr:housenumber": "4A", "addr:street": "Teofila Lenartowicza", "amenity": "pharmacy", "brand": "Dbam o Zdrowie", "brand:wikidata": "Q62563833", "dispensing": "yes", "healthcare": "pharmacy", "name": "Dbam o Zdrowie", "ref:csioz": "1027700"}}, {"type": "node", "id": 9576418317, "lat": 54.3369304, "lon": 18.6124554, "tags": {"addr:city": "Gda\u0144sk", "addr:housenumber": "38", "addr:street": "W\u0142adys\u0142awa Cieszy\u0144skiego", "amenity": "pharmacy", "dispensing": "yes", "level": "0", "name": "Orlik", "ref:csioz": "1027342"}}, {"type": "node", "id": 9576418318, "lat": 54.3427751, "lon": 18.6604711, "tags": {"addr:city": "Gda\u0144sk", "addr:housenumber": "16", "addr:street": "Jask\u00f3\u0142cza", "amenity": "pharmacy", "dispensing": "yes", "name": "Apteka Gemini", "opening_hours": "Mo-Fr 08:00-20:00; Sa 09:00-15:00", "ref:csioz": "1026778"}}, {"type": "node", "id": 9576418319, "lat": 54.3605057, "lon": 18.7121321, "tags": {"addr:city": "Gda\u0144sk", "addr:housenumber": "12", "addr:street": "Ho\u017ca", "amenity": "pharmacy", "dispensing": "yes", "name": "Na Stogach", "opening_hours": "Mo-Fr 08:00-19:00; Sa 08:00-14:00", "phone": "+48583073052", "ref:csioz": "1025918"}}, {"type": "node", "id": 9576422588, "lat": 54.3952745, "lon": 18.6432313, "tags": {"addr:city": "Gda\u0144sk", "addr:housenumber": "37A", "addr:postcode": "80-531", "addr:street": "Sucha", "amenity": "pharmacy", "dispensing": "yes", "healthcare": "pharmacy", "name": "Przystanek Apteka", "ref:csioz": "1231195"}}, {"type": "node", "id": 9579248363, "lat": 54.3415586, "lon": 18.3746326, "tags": {"addr:city": "\u017bukowo", "addr:housenumber": "14D", "addr:postcode": "83-330", "addr:street": "Gda\u0144ska", "amenity": "pharmacy", "dispensing": "yes", "name": "\u017bukowo", "ref:csioz": "1231027"}}, {"type": "node", "id": 9642876096, "lat": 54.4976792, "lon": 18.5081245, "tags": {"addr:city": "Gdynia", "addr:housenumber": "1", "addr:postcode": "81-611", "addr:street": "Niska", "amenity": "pharmacy", "dispensing": "yes", "name": "Euro-Apteka", "ref:csioz": "1030039"}}, {"type": "node", "id": 9642876097, "lat": 54.4817151, "lon": 18.5373388, "tags": {"amenity": "pharmacy", "dispensing": "yes", "healthcare": "pharmacy", "name": "W Przychodni", "ref:csioz": "1029822"}}, {"type": "node", "id": 9642876099, "lat": 54.4734728, "lon": 18.4626643, "tags": {"addr:floor": "0", "addr:housenumber": "6", "addr:street": "Gorczycowa", "amenity": "pharmacy", "check_date": "2023-01-12", "dispensing": "yes", "internet_access": "no", "level": "0", "name": "Apteka Dbam O Zdrowie", "opening_hours": "Mo-Fr 08:00-20:00; Sa 08:00-16:00; Su off", "payment:mastercard": "yes", "payment:visa": "yes", "ref:csioz": "1028103", "website": "https://doz.pl", "wheelchair": "yes"}}, {"type": "node", "id": 9642876100, "lat": 54.4726996, "lon": 18.4747831, "tags": {"amenity": "pharmacy", "dispensing": "yes", "healthcare": "pharmacy", "ref:csioz": "1027604"}}, {"type": "node", "id": 9642876101, "lat": 54.5378437, "lon": 18.4586605, "tags": {"amenity": "pharmacy", "dispensing": "yes", "name": "Kr\u00f3lowej Jadwigi", "ref:csioz": "1027265"}}, {"type": "node", "id": 9642876102, "lat": 54.5115947, "lon": 18.5315591, "tags": {"amenity": "pharmacy", "dispensing": "yes", "healthcare": "pharmacy", "ref:csioz": "1026195"}}, {"type": "node", "id": 9643340347, "lat": 54.4748189, "lon": 18.5515897, "tags": {"amenity": "pharmacy", "brand": "Super-Pharm", "brand:en": "Super-Pharm", "brand:he": "\u05e1\u05d5\u05e4\u05e8-\u05e4\u05d0\u05e8\u05dd", "brand:wikidata": "Q13220217", "dispensing": "yes", "healthcare": "pharmacy", "name": "Super-Pharm", "name:ar": "\u0633\u0648\u0628\u064a\u0631 \u0641\u0627\u0631\u0645", "name:en": "Super-Pharm", "name:he": "\u05e1\u05d5\u05e4\u05e8-\u05e4\u05d0\u05e8\u05dd", "name:ru": "\u0421\u0443\u043f\u0435\u0440-\u0424\u0430\u0440\u043c", "ref:csioz": "1122237"}}, {"type": "node", "id": 9643340348, "lat": 54.4975956, "lon": 18.508862, "tags": {"addr:city": "Gdynia", "addr:housenumber": "4A", "addr:postcode": "81-611", "addr:street": "Wielkokacka", "amenity": "pharmacy", "dispensing": "yes", "name": "Apteka Dy\u017curna", "name:en": "Dr.Max pharmacy", "name:pl": "Apteka Dr.Max", "opening_hours": "Mo-Fr 08:00-21:00; Sa 08:00-20:00", "phone": "+48586653084", "ref:csioz": "1120882", "website": "https://www.drmax.pl"}}, {"type": "node", "id": 9643340350, "lat": 54.5289101, "lon": 18.5035033, "tags": {"addr:city": "Gdynia", "addr:housenumber": "113A", "addr:postcode": "81-222", "addr:street": "Morska", "amenity": "pharmacy", "brand": "Dbam o Zdrowie", "brand:wikidata": "Q62563833", "check_date": "2025-07-02", "dispensing": "yes", "healthcare": "pharmacy", "name": "Dbam o Zdrowie", "official_name": "Doz Apteka. Dbam O Zdrowie. Kliniczna", "ref:csioz": "1118574", "short_name": "DOZ"}}, {"type": "node", "id": 9643340353, "lat": 54.5300316, "lon": 18.5425806, "tags": {"amenity": "pharmacy", "dispensing": "yes", "name": "Piko", "official_name": "Piko 3", "ref:csioz": "1032362"}}, {"type": "node", "id": 9643466762, "lat": 54.4696673, "lon": 18.469648, "tags": {"amenity": "pharmacy", "dispensing": "yes", "name": "Apteka Dbam O Zdrowie", "ref:csioz": "1031693"}}, {"type": "node", "id": 9643466764, "lat": 54.5542338, "lon": 18.4993483, "tags": {"amenity": "pharmacy", "dispensing": "yes", "name": "Piko", "official_name": "Piko 2", "ref:csioz": "1031352"}}, {"type": "node", "id": 9643466766, "lat": 54.4898899, "lon": 18.5541798, "tags": {"amenity": "pharmacy", "dispensing": "yes", "name": "Dr. Max", "ref:csioz": "1029469"}}, {"type": "node", "id": 9643466767, "lat": 54.5527427, "lon": 18.5040718, "tags": {"amenity": "pharmacy", "dispensing": "yes", "healthcare": "pharmacy", "name": "Apteka Nr 1", "official_name": "Mgr Farm. Marzena Tylicka Apteka Nr 1", "opening_hours": "Mo-Fr 08:00-20:00; Sa 08:00-15:00", "ref:csioz": "1027737"}}, {"type": "node", "id": 9643466768, "lat": 54.5464348, "lon": 18.4547509, "tags": {"addr:housenumber": "191", "addr:street": "Chylo\u0144ska", "amenity": "pharmacy", "dispensing": "yes", "healthcare": "pharmacy", "name": "Pod Lwem", "ref:csioz": "1026707"}}, {"type": "node", "id": 9643466769, "lat": 54.5593899, "lon": 18.5085238, "tags": {"amenity": "pharmacy", "dispensing": "yes", "name": "Melissa", "ref:csioz": "1026512"}}, {"type": "node", "id": 9643466770, "lat": 54.4857505, "lon": 18.5252952, "tags": {"amenity": "pharmacy", "dispensing": "yes", "name": "Pere\u0142ka", "opening_hours": "Mo-Fr 10:00-18:00; Sa 10:00-14:00", "ref:csioz": "1029651"}}, {"type": "node", "id": 9643466771, "lat": 54.5219904, "lon": 18.5342832, "tags": {"amenity": "pharmacy", "dispensing": "yes", "healthcare": "pharmacy", "name": "Dom Lek\u00f3w", "ref:csioz": "1198097"}}, {"type": "node", "id": 9643473505, "lat": 54.4896079, "lon": 18.4257315, "tags": {"amenity": "pharmacy", "dispensing": "yes", "name": "Medica", "ref:csioz": "1223281"}}, {"type": "node", "id": 9643473506, "lat": 54.493322, "lon": 18.4281835, "tags": {"amenity": "pharmacy", "dispensing": "yes", "name": "Multiapteka", "ref:csioz": "1211712"}}, {"type": "node", "id": 9643473508, "lat": 54.5420112, "lon": 18.4615038, "tags": {"addr:city": "Gdynia", "addr:housenumber": "21", "addr:postcode": "81-047", "addr:street": "Gniewska", "amenity": "pharmacy", "dispensing": "yes", "name": "Apteka Dy\u017curna", "ref:csioz": "1202788"}}, {"type": "node", "id": 9643473509, "lat": 54.4979781, "lon": 18.5069631, "tags": {"amenity": "pharmacy", "dispensing": "yes", "healthcare": "pharmacy", "name": "Wracam Do Zdrowia", "ref:csioz": "1200917"}}, {"type": "node", "id": 9770239615, "lat": 54.4096797, "lon": 18.5930594, "tags": {"addr:city": "Gda\u0144sk", "addr:housenumber": "1", "addr:street": "Obro\u0144c\u00f3w Wybrze\u017ca", "amenity": "pharmacy", "check_date:opening_hours": "2022-08-26", "dispensing": "yes", "email": "apteka@zrodlo-zdrowia.pl", "healthcare": "pharmacy", "level": "0", "name": "\u0179r\u00f3d\u0142o Zdrowia", "opening_hours": "Mo-Sa 08:00-21:00; Su 09:00-20:00", "opening_hours:signed": "no", "ref:csioz": "1032255", "website": "https://zrodlo-zdrowia.pl/"}}, {"type": "node", "id": 9880724629, "lat": 54.3958377, "lon": 18.642866, "tags": {"addr:city": "Gda\u0144sk", "addr:housenumber": "37B", "addr:postcode": "80-531", "addr:street": "Sucha", "amenity": "pharmacy", "dispensing": "yes", "healthcare": "pharmacy", "name": "Nowa Letnica", "opening_hours": "Mo-Fr 08:00-19:00, Sa 09:00-14:00", "ref:csioz": "1231399"}}, {"type": "node", "id": 10127802462, "lat": 54.331316, "lon": 18.2093383, "tags": {"addr:city": "Kartuzy", "addr:housenumber": "49", "addr:postcode": "83-300", "addr:street": "Gda\u0144ska", "amenity": "pharmacy", "dispensing": "yes", "healthcare": "pharmacy", "name": "Przystanek", "ref:csioz": "1231283"}}, {"type": "node", "id": 10208126745, "lat": 54.3033765, "lon": 18.611342, "tags": {"amenity": "pharmacy", "dispensing": "yes", "healthcare": "pharmacy", "name": "Zielony Po\u0142udnik", "ref:csioz": "1231410"}}, {"type": "node", "id": 10210551371, "lat": 54.4553372, "lon": 18.3577785, "tags": {"addr:city": "Dobrzewino", "addr:housenumber": "19B", "addr:street": "D\u0119bowa", "amenity": "pharmacy", "dispensing": "yes", "healthcare": "pharmacy", "name": "Punkt Apteczny", "ref:csioz": "1231438"}}, {"type": "node", "id": 10210551376, "lat": 54.4565839, "lon": 18.459817, "tags": {"addr:city": "Gdynia", "addr:housenumber": "151E", "addr:street": "Chwaszczy\u0144ska", "amenity": "pharmacy", "dispensing": "yes", "healthcare": "pharmacy", "name": "Lek24.pl", "ref:csioz": "1231031"}}, {"type": "node", "id": 10756186614, "lat": 54.3864722, "lon": 18.5830744, "tags": {"amenity": "pharmacy", "healthcare": "pharmacy", "name": "Apteka Osiedlowa"}}, {"type": "node", "id": 11224675317, "lat": 54.3957399, "lon": 18.6446306, "tags": {"addr:city": "Gda\u0144sk", "addr:housenumber": "41", "addr:postcode": "80-531", "addr:street": "Sucha", "amenity": "pharmacy", "healthcare": "pharmacy", "name": "Multipharm", "opening_hours": "Mo-Fr 08:00-21:00, Sa 09:00-18:00, Su 10:00-15:00", "operator": "Multipharm"}}, {"type": "node", "id": 11450667092, "lat": 54.3822837, "lon": 18.5994289}, {"type": "node", "id": 11450667093, "lat": 54.3822468, "lon": 18.599504}, {"type": "node", "id": 11450667094, "lat": 54.3823095, "lon": 18.5995863}, {"type": "node", "id": 11450667095, "lat": 54.3822914, "lon": 18.5996292}, {"type": "node", "id": 11450667096, "lat": 54.3825423, "lon": 18.5996616}, {"type": "node", "id": 11450667103, "lat": 54.3823173, "lon": 18.5993666}, {"type": "node", "id": 11649248877, "lat": 54.3020628, "lon": 18.5399456, "tags": {"addr:city": "B\u0105kowo", "addr:housenumber": "16", "addr:postcode": "83-050", "addr:street": "Kapitana Konstantego Maciejewicza", "amenity": "pharmacy", "dispensing": "yes", "healthcare": "pharmacy", "name": "+A Ba\u0142tycka", "opening_hours": "Mo-Fr 08:00-19:00; Sa 09:00-17:00", "operator": "Apteka Ba\u0142tycka Michalina Soko\u0142owska"}}, {"type": "node", "id": 12101771989, "lat": 54.3553288, "lon": 18.6446613, "tags": {"addr:city": "Gda\u0144sk", "addr:housenumber": "1", "addr:street": "Podwale Grodzkie", "amenity": "pharmacy", "brand": "Dr. Max", "brand:wikidata": "Q56317371", "brand:wikipedia": "fr:Dr.Max", "check_date": "2024-08-05", "contact:phone": "+48 506 311 127", "dispensing": "yes", "email": "gdansk.podwalegrodzkie@drmax.com.pl", "healthcare": "pharmacy", "indoor": "room", "level": "0", "name": "Dr. Max", "opening_hours": "07:00-22:00", "ref:csioz": "1029811", "wheelchair": "yes"}}, {"type": "node", "id": 12250258327, "lat": 54.3609319, "lon": 18.2613001, "tags": {"addr:door": "4", "amenity": "pharmacy", "dispensing": "yes", "email": "kobysewo@hyperpharm.pl", "level": "0", "name": "Punkt Apteczny Przystanek", "opening_hours": "Mo-Fr 08:00-20:00; Sa 08:00-15:00", "ref:csioz": "1231968", "start_date": "2024-12-28"}}, {"type": "node", "id": 12539165592, "lat": 54.2680607, "lon": 18.5718208, "tags": {"amenity": "pharmacy", "brand": "Anafarm", "name": "Anafarm", "opening_hours": "Mo-Fr 8:00-20:00; Sa 8:00-16:00"}}, {"type": "node", "id": 12830443675, "lat": 54.4015238, "lon": 18.6084125, "tags": {"amenity": "pharmacy", "check_date": "2024-05-06", "dispensing": "yes", "healthcare": "pharmacy", "name": "Gemini", "ref:csioz": "1118563"}}, {"type": "node", "id": 12985492676, "lat": 54.5619158, "lon": 18.4922178, "tags": {"addr:city": "Gdynia", "addr:housenumber": "2A", "addr:postcode": "81-185", "addr:street": "Genera\u0142a broni W\u0142adys\u0142awa Sikorskiego", "amenity": "pharmacy", "brand": "Gemini", "brand:wikidata": "Q130243797", "dispensing": "yes", "drive_through": "no", "healthcare": "pharmacy", "name": "Gemini", "opening_hours": "Mo-Fr 08:00-20:00, Sa 8:00-14:00"}}, {"type": "node", "id": 13033958280, "lat": 54.5164338, "lon": 18.5305283, "tags": {"amenity": "pharmacy", "healthcare": "pharmacy"}}, {"type": "way", "id": 304152166, "nodes": [3086778209, 9543572486, 9543572485, 3086778215, 3086778210, 9543572483, 9543572484, 3086778207, 3086778209], "tags": {"addr:city": "Kolbudy", "addr:city:simc": "0163950", "addr:housenumber": "7B", "addr:postcode": "83-050", "addr:street": "Plac Kaszubski", "addr:street:sym_ul": "08185", "amenity": "pharmacy", "building": "yes", "drive_through": "no", "healthcare": "pharmacy", "name": "Nad Raduni\u0105", "ref:csioz": "1029638", "source:addr": "kolbudy.e-mapa.net"}}, {"type": "way", "id": 1014564974, "nodes": [9360313523, 9360313527, 9360313526, 9360313525, 9360306499, 9360313521, 9360391683, 6364200174, 6364200185, 9360313523], "tags": {"addr:city": "\u017bukowo", "addr:housenumber": "59A", "addr:postcode": "83-330", "addr:street": "Gda\u0144ska", "amenity": "pharmacy", "dispensing": "yes", "healthcare": "pharmacy", "indoor": "room", "level": "0", "level_name": "parter", "name": "Zdrowie", "opening_hours": "Mo-Sa 09:00-20:00; Su 10:00-19:00", "phone": "+48 58 681 54 76", "ref:csioz": "1031891"}}, {"type": "way", "id": 1233919331, "nodes": [11450667096, 8007740100, 11450667095, 11450667094, 11450667093, 11450667092, 11450667103, 11450667096], "tags": {"addr:city": "Gda\u0144sk", "addr:country": "PL", "addr:housenumber": "141", "addr:postcode": "80-264", "addr:street": "Aleja Grunwaldzka", "amenity": "pharmacy", "brand": "Super-Pharm", "brand:wikidata": "Q13220217", "brand:wikipedia": "en:Super-Pharm", "contact:phone": "+48 58 522 67 08", "contact:website": "http://www.superpharm.pl/", "dispensing": "yes", "email": "mossowska@superpharm.pl", "healthcare": "pharmacy", "indoor": "room", "level": "0", "name": "Super-Pharm", "ref:csioz": "1031508", "shop": "chemist"}}]}