{"version": 0.6, "generator": "Overpass API 0.7.62.8 e802775f", "osm3s": {"timestamp_osm_base": "2025-10-06T08:02:45Z", "copyright": "The data included in this document is from www.openstreetmap.org. The data is made available under ODbL."}, "elements": [{"type": "node", "id": 538196612, "lat": 50.0900728, "lon": 18.2601496, "tags": {"amenity": "pharmacy", "brand": "Dbam o Zdrowie", "brand:wikidata": "Q62563833", "healthcare": "pharmacy", "name": "Dbam o Zdrowie", "operator": "Dbam o Zdrowie", "phone": "+48324171048", "ref:csioz": "1067378", "short_name": "DOZ"}}, {"type": "node", "id": 565609981, "lat": 50.0176663, "lon": 18.1219399, "tags": {"amenity": "pharmacy", "dispensing": "yes", "healthcare": "pharmacy", "name": "Apteka \u015aw. Wac\u0142awa", "phone": "+4832 410 80 63", "ref:csioz": "1065155"}}, {"type": "node", "id": 703667727, "lat": 49.9205463, "lon": 18.1052663, "tags": {"addr:conscriptionnumber": "110", "addr:country": "CZ", "addr:housenumber": "110", "addr:place": "Doln\u00ed Bene\u0161ov", "addr:postcode": "74722", "addr:street": "Na B\u0159ez\u00edch", "amenity": "pharmacy", "name": "L\u00e9k\u00e1rna U Kaple", "ref:ruian:addr": "26396157"}}, {"type": "node", "id": 864133375, "lat": 50.2283571, "lon": 18.1213374, "tags": {"addr:city": "Polska Cerekiew", "addr:housenumber": "4", "addr:postcode": "47-260", "addr:street": "Stanis\u0142awa Ligonia", "amenity": "pharmacy", "name": "Rodzinna", "ref:csioz": "1188786"}}, {"type": "node", "id": 1154174774, "lat": 50.0053141, "lon": 18.4695976}, {"type": "node", "id": 1154174775, "lat": 50.0051575, "lon": 18.4697644}, {"type": "node", "id": 1154174776, "lat": 50.005215, "lon": 18.4698928}, {"type": "node", "id": 1154174777, "lat": 50.0053882, "lon": 18.469771}, {"type": "node", "id": 1197016247, "lat": 50.0404614, "lon": 18.3958863, "tags": {"amenity": "pharmacy", "healthcare": "pharmacy"}}, {"type": "node", "id": 1204245556, "lat": 50.0151035, "lon": 18.4128822, "tags": {"amenity": "pharmacy", "healthcare": "pharmacy", "name": "Na Pszowskiej"}}, {"type": "node", "id": 1387902566, "lat": 50.0815839, "lon": 18.2088407, "tags": {"amenity": "pharmacy", "brand": "Dbam o Zdrowie", "brand:wikidata": "Q62563833", "dispensing": "yes", "healthcare": "pharmacy", "name": "Dbam o Zdrowie", "operator": "Dbam o Zdrowie", "phone": "+4832 415 25 80", "ref:csioz": "1067364", "short_name": "DOZ"}}, {"type": "node", "id": 1805428736, "lat": 50.00216, "lon": 18.4617869, "tags": {"addr:city": "Wodzis\u0142aw \u015al\u0105ski", "addr:housenumber": "4", "addr:street": "Ksi\u0119\u017cnej Konstancji", "amenity": "pharmacy", "dispensing": "no", "healthcare": "pharmacy", "name": "Eskulap", "opening_hours": "Mo-Fr 08:00-18:00; Sa 09:00-13:00", "ref:csioz": "1071039"}}, {"type": "node", "id": 1806465035, "lat": 50.0100398, "lon": 18.4621629, "tags": {"amenity": "pharmacy", "dispensing": "yes", "healthcare": "pharmacy", "name": "Apteka Ca\u0142odobowa", "opening_hours": "24/7", "ref:csioz": "1074435"}}, {"type": "node", "id": 1806465044, "lat": 50.0102996, "lon": 18.4612386, "tags": {"amenity": "pharmacy", "healthcare": "pharmacy", "name": "Eskulap", "opening_hours": "Mo-Fr 07:00-19:00"}}, {"type": "node", "id": 1806465045, "lat": 50.0113012, "lon": 18.4566767, "tags": {"amenity": "pharmacy", "dispensing": "no", "healthcare": "pharmacy", "name": "Eskulap", "opening_hours": "Mo-Fr 08:00-19:00;Sa 09:00-13:00"}}, {"type": "node", "id": 1879455114, "lat": 50.2007801, "lon": 18.3111227, "tags": {"amenity": "pharmacy", "dispensing": "yes", "healthcare": "pharmacy", "name": "\u015awi\u0119tego \u0141ukasz", "opening_hours": "Mo-Fr 07:30-19:00; Sa 07:30-13:00", "ref:csioz": "1176643"}}, {"type": "node", "id": 2175002448, "lat": 50.1596945, "lon": 18.3075828}, {"type": "node", "id": 2175002476, "lat": 50.1598016, "lon": 18.3072826}, {"type": "node", "id": 2175002768, "lat": 50.1597912, "lon": 18.3075908}, {"type": "node", "id": 2175002777, "lat": 50.1597049, "lon": 18.3072746}, {"type": "node", "id": 2259778293, "lat": 50.0922491, "lon": 18.2194546, "tags": {"addr:city": "Racib\u00f3rz", "addr:housenumber": "12", "addr:postcode": "47-400", "addr:street": "Rynek", "amenity": "pharmacy", "dispensing": "yes", "healthcare": "pharmacy", "name": "Centrum Farmaceutyczne pod R\u00f3\u017cami", "ref:csioz": "1112367"}}, {"type": "node", "id": 2260588485, "lat": 50.346935, "lon": 18.2187354, "tags": {"addr:city": "K\u0119dzierzyn-Ko\u017ale", "addr:housenumber": "5", "addr:postcode": "47-220", "addr:street": "Wojska Polskiego", "amenity": "pharmacy", "healthcare": "pharmacy", "name": "Pod Lwem", "ref:csioz": "1107543", "source": "http://sdi.opolskie.pl/mapa_bazowa/request.aspx"}}, {"type": "node", "id": 2261650059, "lat": 50.0848517, "lon": 18.2000164, "tags": {"amenity": "pharmacy", "dispensing": "yes", "healthcare": "pharmacy", "name": "abc", "phone": "+4832 415 56 20", "ref:csioz": "1067310"}}, {"type": "node", "id": 2271096240, "lat": 50.1016797, "lon": 18.2023783, "tags": {"amenity": "pharmacy", "dispensing": "yes", "healthcare": "pharmacy", "name": "\u015aw. Kosmy I Damiana", "phone": "+4832 755 50 64", "ref:csioz": "1067238"}}, {"type": "node", "id": 2293957932, "lat": 50.089849, "lon": 18.2166383, "tags": {"addr:city": "Racib\u00f3rz", "addr:housenumber": "15", "addr:postcode": "47-400", "addr:street": "Wojska Polskiego", "amenity": "pharmacy", "dispensing": "yes", "healthcare": "pharmacy", "name": "Apteka Pod R\u00f3\u017cami", "ref:csioz": "1220757"}}, {"type": "node", "id": 2294401711, "lat": 50.0935381, "lon": 18.215484, "tags": {"amenity": "pharmacy", "dispensing": "yes", "healthcare": "pharmacy", "name": "Apteka"}}, {"type": "node", "id": 2298906302, "lat": 50.0865054, "lon": 18.1980795, "tags": {"amenity": "pharmacy", "dispensing": "yes", "healthcare": "pharmacy", "name": "Apteka", "phone": "+4832 415 99 05"}}, {"type": "node", "id": 2311765509, "lat": 50.0736903, "lon": 18.3162041, "tags": {"amenity": "pharmacy", "dispensing": "no", "healthcare": "pharmacy", "name": "Punkt Apteczny"}}, {"type": "node", "id": 2458488520, "lat": 50.0129247, "lon": 18.4589231, "tags": {"amenity": "pharmacy", "healthcare": "pharmacy", "name": "Dr. Optima", "opening_hours": "Mo-Fr 08:00-20:00; Sa 08:00-15:00"}}, {"type": "node", "id": 2458488526, "lat": 50.0152897, "lon": 18.4600487, "tags": {"addr:city": "Wodzis\u0142aw \u015al\u0105ski", "addr:housenumber": "68", "addr:postcode": "44-300", "addr:street": "Radli\u0144ska", "amenity": "pharmacy", "dispensing": "yes", "drive_through": "no", "healthcare": "pharmacy", "name": "Medhouse", "opening_hours": "Mo-Fr 10:00-18:00"}}, {"type": "node", "id": 2589062077, "lat": 50.0807362, "lon": 18.2025371, "tags": {"amenity": "pharmacy", "dispensing": "yes", "healthcare": "pharmacy", "name": "Apteka pod R\u00f3\u017cami - Opawska 124", "operator": "Apteka pod R\u00f3\u017cami", "ref:csioz": "1122438"}}, {"type": "node", "id": 2899459921, "lat": 50.0417776, "lon": 18.4044834, "tags": {"amenity": "pharmacy", "healthcare": "pharmacy", "name": "Melissa"}}, {"type": "node", "id": 2935551244, "lat": 50.3346053, "lon": 18.1471508, "tags": {"amenity": "pharmacy", "name": "Apteka Melisa"}}, {"type": "node", "id": 2996525097, "lat": 50.084418, "lon": 18.0941939, "tags": {"amenity": "pharmacy", "dispensing": "yes", "healthcare": "pharmacy", "name": "Ma\u0142gorzata Maciejak", "phone": "+4832 419 80 43", "ref:csioz": "1066734"}}, {"type": "node", "id": 3041136239, "lat": 50.2818684, "lon": 18.2017801, "tags": {"amenity": "pharmacy"}}, {"type": "node", "id": 3054129445, "lat": 50.0885224, "lon": 18.3557589, "tags": {"addr:city": "Pstr\u0105\u017cna", "addr:housenumber": "30", "addr:postcode": "44-284", "addr:street": "Wyzwolenia", "amenity": "pharmacy", "dispensing": "yes", "healthcare": "pharmacy", "name": "Punkt Apteczny Pstr\u0105\u017cna", "opening_hours": "Mo-Fr 08:00-16:00", "ref:csioz": "1227293"}}, {"type": "node", "id": 3080798748, "lat": 50.1176497, "lon": 18.3863406}, {"type": "node", "id": 3080798753, "lat": 50.1177365, "lon": 18.3864951}, {"type": "node", "id": 3080798754, "lat": 50.1177645, "lon": 18.3863996}, {"type": "node", "id": 3080798755, "lat": 50.1177679, "lon": 18.386179}, {"type": "node", "id": 3080798756, "lat": 50.1177734, "lon": 18.3861716}, {"type": "node", "id": 3080798757, "lat": 50.1177827, "lon": 18.3864319}, {"type": "node", "id": 3080798759, "lat": 50.117842, "lon": 18.3862937}, {"type": "node", "id": 3740449462, "lat": 49.9878133, "lon": 18.353542}, {"type": "node", "id": 3740449478, "lat": 49.9878694, "lon": 18.3534666}, {"type": "node", "id": 3740449479, "lat": 49.9878705, "lon": 18.353643}, {"type": "node", "id": 3740449490, "lat": 49.9879261, "lon": 18.353568}, {"type": "node", "id": 3797654290, "lat": 50.0011299, "lon": 18.4631949}, {"type": "node", "id": 3797654293, "lat": 50.0011665, "lon": 18.463299}, {"type": "node", "id": 3797654306, "lat": 50.0011833, "lon": 18.4633468}, {"type": "node", "id": 3797654317, "lat": 50.0012307, "lon": 18.4631152}, {"type": "node", "id": 3797654334, "lat": 50.0012818, "lon": 18.4632626}, {"type": "node", "id": 4592566612, "lat": 50.0104533, "lon": 18.4669544, "tags": {"amenity": "pharmacy", "healthcare": "pharmacy", "name": "Apteka Zdrowit", "opening_hours": "Mo-Fr 08:00-20:00; Sa 08:00-14:00", "phone": "+48324556255"}}, {"type": "node", "id": 5104080092, "lat": 50.0027387, "lon": 18.4666898, "tags": {"amenity": "pharmacy", "healthcare": "pharmacy", "name": "Pod Lwem", "opening_hours": "Mo-Fr 08:00-20:00; Sa 08:00-14:00"}}, {"type": "node", "id": 5195383755, "lat": 49.9844692, "lon": 18.2664809, "tags": {"addr:housenumber": "5", "addr:postcode": "47-450", "addr:street": "Tworkowska", "amenity": "pharmacy", "healthcare": "pharmacy", "name": "Kolegialna", "opening_hours": "Mo-Fr 09:00-18:00; Sa 09:00-14:00", "phone": "+48324194405", "ref:csioz": "1065204"}}, {"type": "node", "id": 5228528659, "lat": 50.3466708, "lon": 18.2190683, "tags": {"addr:city": "K\u0119dzierzyn-Ko\u017ale", "addr:housenumber": "7", "addr:postcode": "47-220", "addr:street": "Wojska Polskiego", "amenity": "pharmacy", "brand": "Ziko Apteka", "brand:wikidata": "Q63432892", "description": "Ziko Apteka zlokalizowana jest w K\u0119dzierzyn-Ko\u017ale przy ulicy Wojska Polskiego 7. Czynna jest przez 6 dni w tygodniu \u2013 od poniedzia\u0142ku do soboty. W niedziele plac\u00f3wka jest nieczynna.", "dispensing": "yes", "healthcare": "pharmacy", "name": "Ziko Apteka", "opening_hours": "Mo-Fr 08:00-21:00, Sa 08:00-16:00", "payment:cash": "yes", "payment:coins": "yes", "payment:mastercard": "yes", "payment:visa": "yes", "phone": "+48 12 687 57 47", "ref:csioz": "1195825", "short_name": "Ziko", "website": "https://www.ziko.pl/kedzierzyn-kozle-apteki-drogerie-ziko/wojska-polskiego-7/"}}, {"type": "node", "id": 5229017803, "lat": 50.3452149, "lon": 18.2207967, "tags": {"addr:city": "K\u0119dzierzyn-Ko\u017ale", "addr:housenumber": "13", "addr:postcode": "47-224", "addr:street": "Harcerska", "amenity": "pharmacy", "brand": "Gemini", "brand:wikidata": "Q130243797", "healthcare": "pharmacy", "name": "Gemini", "payment:cash": "yes", "payment:credit_cards": "yes", "ref:csioz": "1202615"}}, {"type": "node", "id": 5268750593, "lat": 50.344429, "lon": 18.2074318, "tags": {"addr:city": "K\u0119dzierzyn-Ko\u017ale", "addr:housenumber": "3", "addr:postcode": "47-220", "addr:street": "Aleja Jana Paw\u0142a II", "amenity": "pharmacy", "healthcare": "pharmacy", "name": "Centrum", "opening_hours": "Mo-Fr 08:00-18:00", "ref:csioz": "1107284"}}, {"type": "node", "id": 5381276712, "lat": 50.332503, "lon": 18.1504222, "tags": {"amenity": "pharmacy", "healthcare": "pharmacy"}}, {"type": "node", "id": 6367753572, "lat": 50.3416335, "lon": 18.1903885, "tags": {"addr:city": "K\u0119dzierzyn-Ko\u017ale", "addr:housenumber": "38", "addr:postcode": "47-224", "addr:street": "Aleja Armii Krajowej", "amenity": "pharmacy", "brand": "Ziko Apteka", "brand:wikidata": "Q63432892", "description": "Ziko Apteka zlokalizowana jest w K\u0119dzierzyn-Ko\u017ale przy ulicy Armii Krajowej 38. Czynna jest przez 6 dni w tygodniu \u2013 od poniedzia\u0142ku do soboty. W niedziele handlowe plac\u00f3wka jest czynna.", "dispensing": "yes", "healthcare": "pharmacy", "name": "Ziko Apteka", "opening_hours": "Mo-Sa 09:00-21:00, Su 10:00-20:00", "payment:cash": "yes", "payment:coins": "yes", "payment:mastercard": "yes", "payment:visa": "yes", "phone": "+48 12 687 57 47", "ref:csioz": "1182762", "short_name": "Ziko", "website": "https://www.ziko.pl/kedzierzyn-kozle-apteki-drogerie-ziko/armii-krajowej-38/"}}, {"type": "node", "id": 6514804780, "lat": 50.074606, "lon": 18.4235563, "tags": {"addr:city": "Rydu\u0142towy", "addr:housenumber": "20A", "addr:postcode": "44-280", "addr:street": "Osiedle Or\u0142owiec", "amenity": "pharmacy", "healthcare": "pharmacy", "name": "Apteka Or\u0142owiec", "opening_hours": "Mo-Fr 08:00-20:00; Sa 08:00-13:00", "ref:csioz": "1068391"}}, {"type": "node", "id": 6553889799, "lat": 50.0052882, "lon": 18.4747561, "tags": {"amenity": "pharmacy", "healthcare": "pharmacy", "name": "Apteka Cefarm 36,6", "opening_hours": "Mo-Sa 08:00-21:00; Su 09:00-19:00", "ref:csioz": "1071110"}}, {"type": "node", "id": 6653469903, "lat": 50.0105184, "lon": 18.4662038, "tags": {"amenity": "pharmacy", "healthcare": "pharmacy", "name": "Apteka pod Lwem", "opening_hours": "Mo-Fr 08:00-20:00; Sa 08:00-14:00"}}, {"type": "node", "id": 6717391291, "lat": 50.0006345, "lon": 18.4633201, "tags": {"amenity": "pharmacy", "healthcare": "pharmacy", "name": "Apteka Zdrowit", "opening_hours": "Mo-Fr 08:00-20:00; Sa 08:00-14:00", "phone": "+48324402414"}}, {"type": "node", "id": 6733507215, "lat": 49.9872475, "lon": 18.4211938, "tags": {"amenity": "pharmacy", "healthcare": "pharmacy", "name": "Punkt Apteczny", "opening_hours": "Mo-Fr 08:00-19:00; Sa 08:00-17:00"}}, {"type": "node", "id": 6923446382, "lat": 50.0902937, "lon": 18.2249289, "tags": {"amenity": "pharmacy", "dispensing": "yes", "healthcare": "pharmacy", "name": "Victoria", "phone": "+4832 415 39 15", "ref:csioz": "1067295"}}, {"type": "node", "id": 6923470805, "lat": 50.0908954, "lon": 18.2215661, "tags": {"amenity": "pharmacy", "dispensing": "yes", "healthcare": "pharmacy", "name": "Pod R\u00f3\u017cami - Mickiewicza", "phone": "+4832 417 04 64", "ref:csioz": "1067307"}}, {"type": "node", "id": 6923470910, "lat": 50.0987476, "lon": 18.228102, "tags": {"addr:city": "Racib\u00f3rz", "addr:housenumber": "12", "addr:postcode": "47-400", "addr:street": "Ksi\u0105\u017c\u0119ca", "amenity": "pharmacy", "dispensing": "yes", "healthcare": "pharmacy", "name": "Pod R\u00f3\u017cami", "ref:csioz": "1182251"}}, {"type": "node", "id": 6923470973, "lat": 50.096574, "lon": 18.2113132, "tags": {"amenity": "pharmacy", "dispensing": "yes", "healthcare": "pharmacy", "name": "\u015bw. Miko\u0142aja", "phone": "+4832415 89 38", "ref:csioz": "1067280"}}, {"type": "node", "id": 6923470994, "lat": 50.0900757, "lon": 18.2120702, "tags": {"amenity": "pharmacy", "dispensing": "yes", "healthcare": "pharmacy", "name": "Apteka Pod R\u00f3\u017cami", "phone": "+48 32 415 27 53", "ref:csioz": "1067329", "short_name": "Pod R\u00f3\u017cami"}}, {"type": "node", "id": 6923471026, "lat": 50.0855502, "lon": 18.2123443, "tags": {"amenity": "pharmacy", "healthcare": "pharmacy", "name": "Apteka Dr. Max+", "phone": "+48324149577", "ref:csioz": "1067341"}}, {"type": "node", "id": 6923471125, "lat": 50.0828402, "lon": 18.2018927, "tags": {"amenity": "pharmacy", "dispensing": "yes", "healthcare": "pharmacy", "name": "Apteka Zdrowit", "phone": "+4832 417 63 12", "ref:csioz": "1067251"}}, {"type": "node", "id": 6923471169, "lat": 50.0864471, "lon": 18.2144047, "tags": {"amenity": "pharmacy", "dispensing": "yes", "healthcare": "pharmacy", "name": "Pod R\u00f3\u017cami - Opawska Ca\u0142odobowa", "opening_hours": "24/7", "ref:csioz": "1067332"}}, {"type": "node", "id": 7143584922, "lat": 50.0880666, "lon": 18.2176926, "tags": {"amenity": "pharmacy", "dispensing": "yes", "healthcare": "pharmacy", "name": "Pod R\u00f3\u017c\u0105", "phone": "+48324147049", "ref:csioz": "1067355"}}, {"type": "node", "id": 7159258028, "lat": 50.0907727, "lon": 18.2195405, "tags": {"amenity": "pharmacy", "dispensing": "yes", "healthcare": "pharmacy", "name": "Apteka Zdrowit", "phone": "+4832 419 91 44", "ref:csioz": "1196803", "website": "https://aptekizdrowit.pl/"}}, {"type": "node", "id": 7159258057, "lat": 50.0922497, "lon": 18.2171491, "tags": {"amenity": "pharmacy", "dispensing": "yes", "healthcare": "pharmacy", "name": "Pod R\u00f3\u017cami - \u015ar\u00f3dmiejska", "phone": "+4832 415 38 64", "ref:csioz": "1067223"}}, {"type": "node", "id": 7159268932, "lat": 50.0947944, "lon": 18.2298448, "tags": {"amenity": "pharmacy", "dispensing": "yes", "healthcare": "pharmacy", "name": "ABC Bosacka", "phone": "+4832 418 16 08"}}, {"type": "node", "id": 7214529919, "lat": 50.1124757, "lon": 18.271132, "tags": {"amenity": "pharmacy", "dispensing": "yes", "healthcare": "pharmacy", "name": "Apteka", "ref:csioz": "1185880"}}, {"type": "node", "id": 7251368632, "lat": 50.1268983, "lon": 18.1878932, "tags": {"amenity": "pharmacy", "healthcare": "pharmacy", "name": "Punkt Apteczny", "ref:csioz": "1205002"}}, {"type": "node", "id": 7251368638, "lat": 50.1516844, "lon": 18.2494463, "tags": {"amenity": "pharmacy", "healthcare": "pharmacy", "name": "Punkt apteczny w Zawadzie Ksi\u0105\u017c\u0119cej", "phone": "+4832 418 63 63", "ref:csioz": "1182061"}}, {"type": "node", "id": 8599147652, "lat": 50.0109631, "lon": 18.236264, "tags": {"addr:city": "Twork\u00f3w", "addr:housenumber": "1", "addr:postcode": "47-451", "addr:street": "Parkowa", "amenity": "pharmacy", "dispensing": "yes", "healthcare": "pharmacy", "level": "0", "opening_hours": "Mo-Th 08:30-17:00; Fr 08:30-15:00", "ref:csioz": "1070267"}}, {"type": "node", "id": 8662769128, "lat": 49.9518317, "lon": 18.0804014, "tags": {"amenity": "pharmacy", "dispensing": "yes", "healthcare": "pharmacy", "name": "U Zlat\u00e9 rybky"}}, {"type": "node", "id": 9625708272, "lat": 50.0589677, "lon": 18.4230106, "tags": {"addr:city": "Rydu\u0142towy", "addr:housenumber": "47", "addr:postcode": "44-280", "addr:street": "Plebiscytowa", "amenity": "pharmacy", "dispensing": "yes", "healthcare": "pharmacy", "ref:csioz": "1184202"}}, {"type": "node", "id": 9653717419, "lat": 50.342037, "lon": 18.1365291, "tags": {"amenity": "pharmacy", "dispensing": "yes", "name": "Na Dobre I Na Z\u0142e", "ref:csioz": "1223592"}}, {"type": "node", "id": 9653717420, "lat": 50.3442023, "lon": 18.2191917, "tags": {"addr:city": "K\u0119dzierzyn-Ko\u017ale", "addr:housenumber": "9", "addr:postcode": "47-200", "addr:street": "Harcerska", "amenity": "pharmacy", "brand": "Dr. Max", "brand:wikidata": "Q56317371", "dispensing": "yes", "healthcare": "pharmacy", "name": "Dr. Max", "ref:csioz": "1107352"}}, {"type": "node", "id": 9653717421, "lat": 50.3467339, "lon": 18.2158041, "tags": {"addr:city": "K\u0119dzierzyn-Ko\u017ale", "addr:housenumber": "30", "addr:postcode": "47-220", "addr:street": "Aleja Jana Paw\u0142a II", "amenity": "pharmacy", "brand": "Dbam o Zdrowie", "brand:wikidata": "Q62563833", "dispensing": "yes", "healthcare": "pharmacy", "name": "Dbam o Zdrowie", "ref:csioz": "1107292", "short_name": "DOZ"}}, {"type": "node", "id": 9653717422, "lat": 50.3431121, "lon": 18.2045337, "tags": {"addr:city": "K\u0119dzierzyn-Ko\u017ale", "addr:housenumber": "2", "addr:postcode": "47-224", "addr:street": "Miko\u0142aja Reja", "amenity": "pharmacy", "brand": "Gemini", "brand:wikidata": "Q130243797", "dispensing": "yes", "healthcare": "pharmacy", "name": "Gemini", "ref:csioz": "1177138"}}, {"type": "node", "id": 9653717423, "lat": 50.3387502, "lon": 18.1376445, "tags": {"addr:city": "K\u0119dzierzyn-Ko\u017ale", "addr:housenumber": "8", "addr:postcode": "47-200", "addr:street": "Boles\u0142awa Chrobrego", "amenity": "pharmacy", "dispensing": "yes", "ref:csioz": "1107339"}}, {"type": "node", "id": 9653717424, "lat": 50.3397842, "lon": 18.1408712, "tags": {"addr:city": "K\u0119dzierzyn-Ko\u017ale", "addr:housenumber": "2B", "addr:postcode": "47-200", "addr:street": "Gazowa", "amenity": "pharmacy", "dispensing": "yes", "name": "Apteka Pod Lwem", "ref:csioz": "1121289"}}, {"type": "node", "id": 9653717425, "lat": 50.3119409, "lon": 18.2453835, "tags": {"addr:city": "K\u0119dzierzyn-Ko\u017ale", "addr:housenumber": "31", "addr:postcode": "47-223", "addr:street": "Mostowa", "amenity": "pharmacy", "dispensing": "yes", "name": "Salus Bis", "ref:csioz": "1107326"}}, {"type": "node", "id": 9653717426, "lat": 50.340041, "lon": 18.1904197, "tags": {"addr:city": "K\u0119dzierzyn-Ko\u017ale", "addr:housenumber": "36", "addr:postcode": "47-224", "addr:street": "Kozielska", "amenity": "pharmacy", "brand": "Dr. Max", "brand:wikidata": "Q56317371", "dispensing": "yes", "healthcare": "pharmacy", "name": "Dr. Max", "ref:csioz": "1194078"}}, {"type": "node", "id": 9653717427, "lat": 50.3415474, "lon": 18.1939924, "tags": {"addr:city": "K\u0119dzierzyn-Ko\u017ale", "addr:housenumber": "20", "addr:postcode": "47-200", "addr:street": "Kozielska", "amenity": "pharmacy", "brand": "Dbam o Zdrowie", "brand:wikidata": "Q62563833", "dispensing": "yes", "healthcare": "pharmacy", "name": "Dbam o Zdrowie", "ref:csioz": "1107409", "short_name": "DOZ"}}, {"type": "node", "id": 9653717428, "lat": 50.1902379, "lon": 18.1022394, "tags": {"addr:city": "Wronin", "addr:housenumber": "19", "addr:postcode": "47-260", "addr:street": "G\u0142ubczycka", "amenity": "pharmacy", "dispensing": "yes", "ref:csioz": "1229474"}}, {"type": "node", "id": 9653717429, "lat": 50.3331142, "lon": 18.1524047, "tags": {"addr:city": "K\u0119dzierzyn-Ko\u017ale", "addr:housenumber": "4", "addr:postcode": "47-200", "addr:street": "Franklina Delano Roosevelta", "amenity": "pharmacy", "dispensing": "yes", "name": "Prima", "ref:csioz": "1177075"}}, {"type": "node", "id": 9653717430, "lat": 50.2819955, "lon": 18.2437822, "tags": {"addr:city": "Bierawa", "addr:housenumber": "12", "addr:postcode": "47-240", "addr:street": "Wojska Polskiego", "amenity": "pharmacy", "dispensing": "yes", "name": "Punkt Apteczny Wioleta Restel", "ref:csioz": "1202727"}}, {"type": "node", "id": 9653717431, "lat": 50.3436991, "lon": 18.2122072, "tags": {"addr:city": "K\u0119dzierzyn-Ko\u017ale", "addr:housenumber": "8", "addr:postcode": "47-220", "addr:street": "Powsta\u0144c\u00f3w", "amenity": "pharmacy", "dispensing": "yes", "healthcare": "pharmacy", "name": "Na Zdrowie", "ref:csioz": "1107508"}}, {"type": "node", "id": 9653717432, "lat": 50.287557, "lon": 18.1468874, "tags": {"addr:city": "D\u0142ugomi\u0142owice", "addr:housenumber": "36", "addr:postcode": "47-208", "addr:street": "G\u0142\u00f3wna", "amenity": "pharmacy", "dispensing": "yes", "name": "Punkt Apteczny W D\u0142ugomi\u0142owicach", "ref:csioz": "1177172"}}, {"type": "node", "id": 9653717433, "lat": 50.3330834, "lon": 18.1458628, "tags": {"addr:city": "K\u0119dzierzyn-Ko\u017ale", "addr:housenumber": "1", "addr:postcode": "47-200", "addr:street": "Rynek", "amenity": "pharmacy", "dispensing": "yes", "healthcare": "pharmacy", "name": "Apteka S\u0142oneczna", "opening_hours": "Mo-Fr 07:00-21:00; Sa 08:00-15:00", "ref:csioz": "1107519"}}, {"type": "node", "id": 9653717434, "lat": 50.3469906, "lon": 18.2380852, "tags": {"addr:city": "K\u0119dzierzyn-Ko\u017ale", "addr:housenumber": "12", "addr:postcode": "47-232", "addr:street": "Kr\u00f3lowej Jadwigi", "amenity": "pharmacy", "dispensing": "yes", "healthcare": "pharmacy", "name": "Apteka Urtica", "ref:csioz": "1121277"}}, {"type": "node", "id": 9653717435, "lat": 50.3388101, "lon": 18.1994694, "tags": {"addr:city": "K\u0119dzierzyn-Ko\u017ale", "addr:housenumber": "2", "addr:postcode": "47-224", "addr:street": "Arki Bo\u017cka", "amenity": "pharmacy", "dispensing": "yes", "healthcare": "pharmacy", "ref:csioz": "1107318"}}, {"type": "node", "id": 9653717436, "lat": 50.3378326, "lon": 18.2041687, "tags": {"addr:city": "K\u0119dzierzyn-Ko\u017ale", "addr:housenumber": "5A", "addr:postcode": "47-224", "addr:street": "Plac Jana Surzyckiego", "amenity": "pharmacy", "dispensing": "yes", "healthcare": "pharmacy", "ref:csioz": "1107347"}}, {"type": "node", "id": 9653717438, "lat": 50.2400777, "lon": 18.2856542, "tags": {"addr:city": "Dziergowice", "addr:housenumber": "9", "addr:postcode": "47-244", "addr:street": "Kozielska", "amenity": "pharmacy", "dispensing": "yes", "name": "Punkt Apteczny Stokrotka Joanna Motyka", "ref:csioz": "1229463"}}, {"type": "node", "id": 9653717439, "lat": 50.3321626, "lon": 18.1469801, "tags": {"addr:city": "K\u0119dzierzyn-Ko\u017ale", "addr:housenumber": "13", "addr:postcode": "47-200", "addr:street": "Marii Sk\u0142odowskiej-Curie", "amenity": "pharmacy", "dispensing": "yes", "healthcare": "pharmacy", "name": "Apteka Gemini", "opening_hours": "Mo-Fr 07:30-19:00; Sa 08:00-13:00", "ref:csioz": "1107446"}}, {"type": "node", "id": 9653717440, "lat": 50.2130583, "lon": 18.1941962, "tags": {"addr:city": "\u0141any", "addr:housenumber": "96B", "addr:postcode": "47-253", "addr:street": "G\u0142\u00f3wna", "amenity": "pharmacy", "dispensing": "yes", "healthcare": "pharmacy", "name": "Punkt Apteczny Vademecum", "ref:csioz": "1109932"}}, {"type": "node", "id": 9965883067, "lat": 50.0870977, "lon": 18.2224307, "tags": {"addr:city": "Racib\u00f3rz", "addr:housenumber": "20", "addr:postcode": "47-400", "addr:street": "Kolejowa", "amenity": "pharmacy", "dispensing": "yes", "healthcare": "pharmacy", "name": "Centrum Opieki Farmaceutycznej Apteka Kolejowa", "ref:csioz": "1067267"}}, {"type": "node", "id": 9965890216, "lat": 50.0862965, "lon": 18.219035, "tags": {"addr:city": "Racib\u00f3rz", "addr:housenumber": "5", "addr:postcode": "47-400", "addr:street": "Genera\u0142a J\u00f3zefa Bema", "amenity": "pharmacy", "dispensing": "yes", "healthcare": "pharmacy", "name": "Centrum Medyczno-Diagnostyczne Artimex-Eurodent", "ref:csioz": "1173956"}}, {"type": "node", "id": 9965930209, "lat": 50.1986893, "lon": 18.3201803, "tags": {"addr:city": "Ku\u017ania Raciborska", "addr:housenumber": "3", "addr:postcode": "47-420", "addr:street": "Stanis\u0142awa Moniuszki", "amenity": "pharmacy", "dispensing": "yes", "healthcare": "pharmacy", "name": "Na Osiedlu", "ref:csioz": "1065220"}}, {"type": "node", "id": 9965933068, "lat": 50.2026181, "lon": 18.3099917, "tags": {"addr:city": "Ku\u017ania Raciborska", "addr:housenumber": "2", "addr:postcode": "47-420", "addr:street": "Kozielska", "amenity": "pharmacy", "dispensing": "yes", "healthcare": "pharmacy", "name": "Margofarm", "ref:csioz": "1217464"}}, {"type": "node", "id": 9965933590, "lat": 50.0847929, "lon": 18.0908066, "tags": {"addr:city": "Pietrowice Wielkie", "addr:housenumber": "15a", "addr:postcode": "47-480", "addr:street": "1 Maja", "amenity": "pharmacy", "dispensing": "yes", "healthcare": "pharmacy", "name": "Zielona", "ref:csioz": "1225377"}}, {"type": "node", "id": 9965941707, "lat": 50.0946499, "lon": 18.2300883, "tags": {"addr:city": "Racib\u00f3rz", "addr:housenumber": "61", "addr:postcode": "47-400", "addr:street": "Bosacka", "amenity": "pharmacy", "dispensing": "yes", "healthcare": "pharmacy", "name": "Abc Bosacka", "ref:csioz": "1067214"}}, {"type": "node", "id": 9965955013, "lat": 50.0928513, "lon": 18.223622, "tags": {"addr:city": "Racib\u00f3rz", "addr:housenumber": "7", "addr:postcode": "47-400", "addr:street": "Czekoladowa", "amenity": "pharmacy", "dispensing": "yes", "healthcare": "pharmacy", "name": "Lecznica Imienia \u015awi\u0119tego \u0141azarza Chirurgia Jednego Dnia", "ref:csioz": "1170210"}}, {"type": "node", "id": 9965978588, "lat": 50.0392468, "lon": 18.3068826, "tags": {"addr:city": "Lubomia", "addr:housenumber": "34", "addr:postcode": "44-360", "addr:street": "Wojciecha Korfantego", "amenity": "pharmacy", "dispensing": "yes", "healthcare": "pharmacy", "ref:csioz": "1065476"}}, {"type": "node", "id": 9966006555, "lat": 50.1177216, "lon": 18.3861411, "tags": {"addr:city": "Lyski", "addr:housenumber": "2", "addr:postcode": "44-295", "addr:street": "Rybnicka", "amenity": "pharmacy", "dispensing": "yes", "healthcare": "pharmacy", "ref:csioz": "1072983"}}, {"type": "node", "id": 9966028435, "lat": 50.0245147, "lon": 18.328997, "tags": {"addr:city": "Syrynia", "addr:housenumber": "9", "addr:postcode": "44-361", "addr:street": "Krzy\u017cowa", "amenity": "pharmacy", "dispensing": "yes", "healthcare": "pharmacy", "ref:csioz": "1069773"}}, {"type": "node", "id": 9966030871, "lat": 49.9879392, "lon": 18.3534731, "tags": {"addr:city": "Rog\u00f3w", "addr:housenumber": "32", "addr:postcode": "44-362", "addr:street": "Raciborska", "amenity": "pharmacy", "dispensing": "yes", "healthcare": "pharmacy", "ref:csioz": "1178554"}}, {"type": "node", "id": 9966042633, "lat": 50.00519, "lon": 18.4698376}, {"type": "node", "id": 9966042634, "lat": 50.0052017, "lon": 18.4698254}, {"type": "node", "id": 9966042635, "lat": 50.0052259, "lon": 18.4698814}, {"type": "node", "id": 9966042636, "lat": 50.0052302, "lon": 18.4699309}, {"type": "node", "id": 9966066145, "lat": 50.0488155, "lon": 18.3852719, "tags": {"addr:city": "Psz\u00f3w", "addr:housenumber": "22", "addr:postcode": "44-370", "addr:street": "W\u0142adys\u0142awa Andersa", "amenity": "pharmacy", "dispensing": "yes", "healthcare": "pharmacy", "name": "Apteka Sw. Anny", "ref:csioz": "1067085"}}, {"type": "node", "id": 9966086916, "lat": 50.0726876, "lon": 18.4095271, "tags": {"addr:city": "Rydu\u0142towy", "addr:housenumber": "144", "addr:postcode": "44-280", "addr:street": "Raciborska", "amenity": "pharmacy", "dispensing": "yes", "healthcare": "pharmacy", "name": "Apteka Pod Lwem", "ref:csioz": "1182660"}}, {"type": "node", "id": 9966103575, "lat": 50.0670519, "lon": 18.4313127, "tags": {"addr:city": "Rydu\u0142towy", "addr:housenumber": "150", "addr:postcode": "44-280", "addr:street": "Kazimierza Przerwy-Tetmajera", "amenity": "pharmacy", "dispensing": "yes", "healthcare": "pharmacy", "name": "Apteka Melissa", "ref:csioz": "1218300"}}, {"type": "node", "id": 9966105253, "lat": 50.0624754, "lon": 18.414969, "tags": {"addr:city": "Rydu\u0142towy", "addr:housenumber": "52", "addr:postcode": "44-280", "addr:street": "Genera\u0142a J\u00f3zefa Bema", "amenity": "pharmacy", "dispensing": "yes", "healthcare": "pharmacy", "name": "Na Bema", "ref:csioz": "1068350"}}, {"type": "node", "id": 9966107159, "lat": 50.0599626, "lon": 18.4236112, "tags": {"addr:city": "Rydu\u0142towy", "addr:housenumber": "48", "addr:postcode": "44-200", "addr:street": "Plebiscytowa", "amenity": "pharmacy", "dispensing": "yes", "healthcare": "pharmacy", "name": "Doz Apteka Dbam O Zdrowie Pod Jask\u00f3\u0142k\u0105", "ref:csioz": "1068401"}}, {"type": "node", "id": 9966114859, "lat": 50.0226854, "lon": 18.4671554, "tags": {"addr:city": "Wodzis\u0142aw \u015al\u0105ski", "addr:housenumber": "119", "addr:postcode": "44-300", "addr:street": "Boles\u0142awa Chrobrego", "amenity": "pharmacy", "dispensing": "yes", "healthcare": "pharmacy", "name": "Doz Apteka Dbam O Zdrowie Pod Jask\u00f3\u0142k\u0105", "ref:csioz": "1071005"}}, {"type": "node", "id": 11806079769, "lat": 49.9470526, "lon": 18.2380501, "tags": {"amenity": "pharmacy", "healthcare": "pharmacy", "name": "PharmDr. Alena \u0160ubertov\u00e1"}}, {"type": "way", "id": 99836208, "nodes": [1154174777, 9966042636, 1154174776, 9966042635, 9966042634, 9966042633, 1154174775, 1154174774, 1154174777], "tags": {"addr:city": "Wodzis\u0142aw \u015al\u0105ski", "addr:housenumber": "18", "addr:postcode": "44-300", "addr:street": "26 Marca", "amenity": "pharmacy", "building": "yes", "building:levels": "2", "dispensing": "yes", "healthcare": "pharmacy", "name": "Apteka Blisko Ciebie", "opening_hours": "24/7", "ref:csioz": "1219627", "source": "www.geoportal.gov.pl", "wheelchair": "yes"}}, {"type": "way", "id": 188537294, "nodes": [3797654317, 3797654290, 3797654293, 3797654306, 3797654334, 3797654317], "tags": {"addr:city": "Wodzis\u0142aw \u015al\u0105ski", "addr:housenumber": "12", "addr:postcode": "44-300", "addr:street": "Targowa", "amenity": "pharmacy", "building": "yes", "healthcare": "pharmacy", "name": "Farmex", "source": "Bing"}}, {"type": "way", "id": 207305582, "nodes": [2175002476, 2175002777, 2175002448, 2175002768, 2175002476], "tags": {"addr:city": "N\u0119dza", "addr:city:simc": "0217627", "addr:housenumber": "17", "addr:postcode": "47-440", "addr:street": "Jana III Sobieskiego", "addr:street:sym_ul": "20431", "amenity": "pharmacy", "building": "yes", "dispensing": "yes", "healthcare": "pharmacy", "name": "Apteka \u015bw. Kosmy I Damiana", "phone": "32 410 23 13", "source:addr": "emuia.gugik.gov.pl"}}, {"type": "way", "id": 303678211, "nodes": [3080798755, 3080798756, 3080798759, 3080798754, 3080798757, 3080798753, 3080798748, 3080798755], "tags": {"addr:city": "Lyski", "addr:city:simc": "0216361", "addr:housenumber": "2A", "addr:postcode": "44-295", "addr:street": "Rybnicka", "amenity": "pharmacy", "building": "yes", "dispensing": "yes", "healthcare": "pharmacy", "source:addr": "gugik.gov.pl"}}, {"type": "way", "id": 370336591, "nodes": [3740449478, 3740449462, 3740449479, 3740449490, 3740449478], "tags": {"amenity": "pharmacy", "building": "yes", "healthcare": "pharmacy"}}]}