{"version": 0.6, "generator": "Overpass API 0.7.62.8 e802775f", "osm3s": {"timestamp_osm_base": "2025-10-06T08:51:34Z", "copyright": "The data included in this document is from www.openstreetmap.org. The data is made available under ODbL."}, "elements": [{"type": "node", "id": 1851243568, "lat": 54.308643, "lon": 22.3033116, "tags": {"addr:city": "Go\u0142dap", "addr:housenumber": "17A", "addr:postcode": "19-500", "addr:street": "Plac Zwyci\u0119stwa", "amenity": "pharmacy", "brand": "Dr. Max", "brand:wikidata": "Q56317371", "brand:wikipedia": "fr:Dr.Max", "dispensing": "yes", "email": "goldap.plzwyciestwa@drmax.pl", "healthcare": "pharmacy", "name": "Dr. Max", "ref:csioz": "1041577"}}, {"type": "node", "id": 1851243595, "lat": 54.3086861, "lon": 22.3063714, "tags": {"addr:city": "Go\u0142dap", "addr:housenumber": "9", "addr:postcode": "19-500", "addr:street": "S\u0142oneczna", "amenity": "pharmacy", "dispensing": "yes", "name": "Start", "ref:csioz": "1041566"}}, {"type": "node", "id": 2792452667, "lat": 54.3083477, "lon": 22.3037268, "tags": {"addr:city": "Go\u0142dap", "addr:housenumber": "18", "addr:street": "Plac Zwyci\u0119stwa", "amenity": "pharmacy", "brand": "Dbam o Zdrowie", "brand:wikidata": "Q62563833", "dispensing": "yes", "email": "aptekagoldap@familijna.eu", "healthcare": "pharmacy", "name": "Dbam o Zdrowie", "ref:csioz": "1041553"}}, {"type": "node", "id": 9554323074, "lat": 54.2508413, "lon": 22.6558609, "tags": {"addr:city": "Przero\u015bl", "addr:housenumber": "26", "addr:postcode": "16-427", "addr:street": "Rynek", "amenity": "pharmacy", "name": "Ewa", "ref:csioz": "1216614"}}, {"type": "node", "id": 9554323076, "lat": 54.1809742, "lon": 22.6208971, "tags": {"addr:city": "Filip\u00f3w", "addr:housenumber": "4", "addr:postcode": "16-424", "addr:street": "W\u00f3lcza\u0144ska", "amenity": "pharmacy", "name": "Punkt apteczny (\u0141. Trzasko)", "ref:csioz": "1014592"}}, {"type": "node", "id": 9592762891, "lat": 54.2878531, "lon": 22.5631183, "tags": {"addr:city": "Dubeninki", "addr:housenumber": "7A", "addr:street": "D\u0119bowa", "amenity": "pharmacy", "dispensing": "yes", "name": "Punkt Apteczny", "ref:csioz": "1230743"}}, {"type": "node", "id": 9592762892, "lat": 54.3039524, "lon": 22.2999642, "tags": {"addr:city": "Go\u0142dap", "addr:housenumber": "8", "addr:postcode": "19-500", "addr:street": "Wojska Polskiego", "amenity": "pharmacy", "dispensing": "yes", "healthcare": "pharmacy", "level": "0", "mobile": "+48 720 856 004", "name": "Apteka Ania", "opening_hours": "Mo-Fr 08:00-20:00; Sa 08:00-20:00; Su 10:00-18:00", "ref:csioz": "1204596", "website": "https://ktomalek.pl/apteki/apteka-ania/goldap/an-859940?bgar=aHR0cHM6Ly93d3cuZ29vZ2xlLnBsLw%3D%3D", "wheelchair": "yes"}}, {"type": "node", "id": 9592762893, "lat": 54.224555, "lon": 22.2377529, "tags": {"addr:housenumber": "27A", "addr:place": "Grabowo", "amenity": "pharmacy", "dispensing": "yes", "fixme": "Lokalizacja do weryfikacji", "name": "Punkt Apteczny", "ref:csioz": "1185448"}}, {"type": "node", "id": 9598280905, "lat": 54.1633456, "lon": 22.4180166, "tags": {"addr:city": "Kowale Oleckie", "addr:housenumber": "1A", "addr:street": "Wincentego Witosa", "amenity": "pharmacy", "dispensing": "yes", "ref:csioz": "1041589"}}, {"type": "node", "id": 9954253858, "lat": 54.2455708, "lon": 22.0398328, "tags": {"addr:city": "Banie Mazurskie", "addr:housenumber": "20", "addr:postcode": "19-520", "addr:street": "Marii Konopnickiej", "amenity": "pharmacy", "dispensing": "yes", "email": "apteka.guzewicz@gmail.com", "healthcare": "pharmacy", "name:signed": "no", "opening_hours": "Mo-Fr 08:30-15:30; Sa 09:00-12:00", "operator": "Tadeusz Guzewicz", "phone": "+48 87 615 71 45", "ref:csioz": "1041397"}}]}