{"version": 0.6, "generator": "Overpass API 0.7.62.8 e802775f", "osm3s": {"timestamp_osm_base": "2025-10-06T08:45:30Z", "copyright": "The data included in this document is from www.openstreetmap.org. The data is made available under ODbL."}, "elements": [{"type": "node", "id": 3218674601, "lat": 52.4762095, "lon": 22.4410264, "tags": {"addr:city": "Jab\u0142onna Lacka", "addr:city:simc": "0672685", "addr:housenumber": "5", "addr:postcode": "08-304", "addr:street": "Henryka Sienkiewicza", "addr:street:sym_ul": "19830", "amenity": "pharmacy", "name": "Mgr Farm. Jacek Jezierski", "opening_hours": "Mo-Fr 08:00-16:00; Sa 09:00-11:00", "ref:csioz": "1120548", "source:addr": "jablonnalacka.e-mapa.net"}}, {"type": "node", "id": 3277994761, "lat": 52.4240735, "lon": 22.8629308, "tags": {"addr:city": "Siemiatycze", "addr:housenumber": "20", "addr:postcode": "17-300", "addr:street": "Pa\u0142acowa", "amenity": "pharmacy", "dispensing": "yes", "healthcare": "pharmacy", "ref:csioz": "1021126"}}, {"type": "node", "id": 5608783454, "lat": 52.6769, "lon": 22.49896, "tags": {"addr:city": "Ciechanowiec", "addr:housenumber": "2", "addr:postcode": "18-230", "addr:street": "Polska", "amenity": "pharmacy", "dispensing": "yes", "email": "ciechanowiec@pogodnaapteka.pl", "healthcare": "pharmacy", "name": "Pogodna", "opening_hours": "Mo-Fr 08:00-20:00; Sa 09:00-13:00", "operator": "Pogodna Apteka Lubczyk Sp.j.", "payment:cash": "yes", "payment:credit_cards": "yes", "phone": "+48 86 277 22 99", "ref:csioz": "1022028", "website": "https://pogodnaapteka.pl/", "wheelchair": "yes"}}, {"type": "node", "id": 5747668918, "lat": 52.4053589, "lon": 22.2530785, "tags": {"addr:city": "Soko\u0142\u00f3w Podlaski", "addr:housenumber": "1", "addr:postcode": "08-300", "addr:street": "Magistracka", "amenity": "pharmacy", "dispensing": "yes", "email": "sokolow@pogodnaapteka.pl", "healthcare": "pharmacy", "name": "Pogodna", "operator": "Pogodna Apteka \u0179ebrowski Sp.j."}}, {"type": "node", "id": 7131407489, "lat": 52.406768, "lon": 22.2537739, "tags": {"amenity": "pharmacy", "dispensing": "yes", "healthcare": "pharmacy", "name": "Choma"}}, {"type": "node", "id": 9554269639, "lat": 52.6783603, "lon": 22.497772, "tags": {"addr:city": "Ciechanowiec", "addr:housenumber": "1", "addr:postcode": "18-230", "addr:street": "3 Maja", "amenity": "pharmacy", "name": "Nova", "ref:csioz": "1019701"}}, {"type": "node", "id": 9554269640, "lat": 52.6785831, "lon": 22.499273, "tags": {"addr:city": "Ciechanowiec", "addr:housenumber": "26", "addr:postcode": "18-230", "addr:street": "3 Maja", "amenity": "pharmacy", "name": "Apteka Im. Prof. W.J. Stra\u017cewicza", "ref:csioz": "1019562"}}, {"type": "node", "id": 9556817743, "lat": 52.4287539, "lon": 22.8628311, "tags": {"addr:city": "Siemiatycze", "addr:housenumber": "38", "addr:postcode": "17-300", "addr:street": "Plac Jana Paw\u0142a II", "amenity": "pharmacy", "healthcare": "pharmacy", "name": "Apteka Miejska", "ref:csioz": "1213530"}}, {"type": "node", "id": 9556817744, "lat": 52.4286243, "lon": 22.8822435, "tags": {"amenity": "pharmacy", "ref:csioz": "1024744"}}, {"type": "node", "id": 9556817745, "lat": 52.424334, "lon": 22.8633461, "tags": {"addr:city": "Siemiatycze", "addr:housenumber": "19", "addr:postcode": "17-300", "addr:street": "Pa\u0142acowa", "amenity": "pharmacy", "brand": "Dbam o Zdrowie", "brand:wikidata": "Q62563833", "dispensing": "yes", "healthcare": "pharmacy", "name": "Dbam o Zdrowie", "ref:csioz": "1024363", "short_name": "DOZ"}}, {"type": "node", "id": 9556817746, "lat": 52.427501, "lon": 22.8637881, "tags": {"addr:city": "Siemiatycze", "addr:housenumber": "14", "addr:postcode": "17-300", "addr:street": "Plac Jana Paw\u0142a II", "amenity": "pharmacy", "healthcare": "pharmacy", "name": "Apteka Spo\u0142eczna", "ref:csioz": "1206983"}}, {"type": "node", "id": 9556817747, "lat": 52.4223571, "lon": 22.8671094, "tags": {"addr:city": "Siemiatycze", "addr:housenumber": "45", "addr:postcode": "17-300", "addr:street": "11 Listopada", "amenity": "pharmacy", "brand": "Dbam o Zdrowie", "brand:wikidata": "Q62563833", "dispensing": "yes", "healthcare": "pharmacy", "name": "Dbam o Zdrowie", "ref:csioz": "1022044", "short_name": "DOZ"}}, {"type": "node", "id": 9556817748, "lat": 52.4272465, "lon": 22.8696172, "tags": {"addr:city": "Siemiatycze", "addr:housenumber": "36", "addr:postcode": "17-300", "addr:street": "Grodzie\u0144ska", "amenity": "pharmacy", "healthcare": "pharmacy", "ref:csioz": "1021867"}}, {"type": "node", "id": 9556817749, "lat": 52.4006091, "lon": 22.6580386, "tags": {"addr:city": "Drohiczyn", "addr:housenumber": "12", "addr:postcode": "17-312", "addr:street": "Warszawska", "amenity": "pharmacy", "name": "Urtica", "ref:csioz": "1021105"}}, {"type": "node", "id": 9556817751, "lat": 52.583243, "lon": 22.7395572, "tags": {"addr:city": "Grodzisk", "addr:housenumber": "4A", "addr:postcode": "17-315", "addr:street": "Bielska", "amenity": "pharmacy", "name": "Punkt Apteczny Przy Bielskiej", "ref:csioz": "1015061"}}, {"type": "node", "id": 9556817752, "lat": 52.581658, "lon": 22.7348469, "tags": {"addr:city": "Grodzisk", "addr:housenumber": "11", "addr:postcode": "17-315", "addr:street": "1 Maja", "amenity": "pharmacy", "name": "Apteka", "ref:csioz": "1014615"}}, {"type": "node", "id": 9556817754, "lat": 52.3952857, "lon": 22.6576358, "tags": {"addr:city": "Drohiczyn", "addr:housenumber": "12", "addr:postcode": "17-312", "addr:street": "Tadeusza Ko\u015bciuszki", "amenity": "pharmacy", "dispensing": "yes", "drive_through": "no", "healthcare": "pharmacy", "name": "Apteka Cef@rm 36,6", "ref:csioz": "1022662"}}, {"type": "node", "id": 9556817755, "lat": 52.42714, "lon": 22.8624015, "tags": {"addr:city": "Siemiatycze", "addr:housenumber": "16", "addr:postcode": "17-300", "addr:street": "Plac Jana Paw\u0142a II", "amenity": "pharmacy", "name": "Apteka Cef@Rm 36,6", "ref:csioz": "1022643"}}, {"type": "node", "id": 9556817756, "lat": 52.4209686, "lon": 22.8666359, "tags": {"addr:city": "Siemiatycze", "addr:housenumber": "1A", "addr:postcode": "17-300", "addr:street": "Szpitalna", "amenity": "pharmacy", "dispensing": "yes", "healthcare": "pharmacy", "name": "Rodzinna", "ref:csioz": "1021243"}}, {"type": "node", "id": 9563491489, "lat": 52.3846686, "lon": 22.389882, "tags": {"addr:housenumber": "2", "addr:postcode": "08-307", "addr:street": "Szkolna", "amenity": "pharmacy", "name": "Punkt Apteczny Centrum", "opening_hours": "Mo-Sa 08:00-18:00", "ref:csioz": "1211198"}}, {"type": "node", "id": 9563533983, "lat": 52.4080618, "lon": 22.248329, "tags": {"addr:city": "Soko\u0142\u00f3w Podlaski", "addr:housenumber": "5", "addr:postcode": "08-300", "addr:street": "Lipowa", "amenity": "pharmacy", "opening_hours": "Mo-Fr 17:00-19:00", "ref:csioz": "1124783"}}, {"type": "node", "id": 9563535605, "lat": 52.579445, "lon": 22.2925865, "tags": {"addr:city": "Sterdy\u0144", "addr:housenumber": "9A", "addr:postcode": "08-320", "addr:street": "Tadeusza Ko\u015bciuszki", "amenity": "pharmacy", "ref:csioz": "1226054"}}, {"type": "node", "id": 9563558078, "lat": 52.5940184, "lon": 22.1487617, "tags": {"addr:city": "Kos\u00f3w Lacki", "addr:flats": "2", "addr:housenumber": "8", "addr:postcode": "08-330", "addr:street": "S\u0142oneczna", "amenity": "pharmacy", "name": "Apteka Pigu\u0142ka", "ref:csioz": "1117560"}}, {"type": "node", "id": 9563578024, "lat": 52.6280482, "lon": 22.2230066, "tags": {"addr:housenumber": "25", "addr:place": "Ceran\u00f3w", "addr:postcode": "08-322", "amenity": "pharmacy", "name": "Punkt Apteczny Centrum", "ref:csioz": "1197920"}}, {"type": "node", "id": 9563603231, "lat": 52.5956044, "lon": 22.1468572, "tags": {"addr:housenumber": "45", "addr:postcode": "08-330", "addr:street": "Wolno\u015bci", "amenity": "pharmacy", "name": "Farmacja Choma", "opening_hours": "Mo-Fr 08:00-18:00, Sa 08:00-14:00", "ref:csioz": "1097728"}}, {"type": "node", "id": 9624311290, "lat": 52.6683484, "lon": 22.3188095, "tags": {"addr:city": "Nur", "addr:housenumber": "10", "addr:street": "Rynek", "amenity": "pharmacy", "dispensing": "yes", "fixme": "Lokalizacja do weryfikacji", "name": "T&P", "ref:csioz": "1122065"}}, {"type": "node", "id": 9659211175, "lat": 52.3531838, "lon": 22.6112421, "tags": {"addr:city": "Korczew", "addr:housenumber": "9", "addr:street": "Siedlecka", "amenity": "pharmacy", "dispensing": "yes", "name": "Punkt Apteczny Prima", "ref:csioz": "1228024"}}, {"type": "node", "id": 9659211176, "lat": 52.2742504, "lon": 22.4260543, "tags": {"addr:city": "Ho\u0142ubla", "addr:housenumber": "70A", "addr:street": "Siedlecka", "amenity": "pharmacy", "dispensing": "yes", "name": "Punkt Apteczny Centrum", "ref:csioz": "1226796"}}, {"type": "node", "id": 10269885958, "lat": 52.726558, "lon": 22.7320351, "tags": {"amenity": "pharmacy", "dispensing": "yes", "healthcare": "pharmacy", "ref:csioz": "1020245"}}]}