{"version": 0.6, "generator": "Overpass API 0.7.62.8 e802775f", "osm3s": {"timestamp_osm_base": "2025-10-06T07:57:45Z", "copyright": "The data included in this document is from www.openstreetmap.org. The data is made available under ODbL."}, "elements": [{"type": "node", "id": 1672666157, "lat": 46.5247734, "lon": 19.2534422, "tags": {"addr:city": "Kecel", "addr:housenumber": "1", "addr:postcode": "6237", "addr:street": "R\u00e1k\u00f3czi Ferenc utca", "amenity": "pharmacy", "healthcare": "pharmacy", "name": "Szent Gy\u00f6rgy Gy\u00f3gyszert\u00e1r", "opening_hours": "Mo-Fr 08:00-12:00,14:00-18:00; week 02-52/2: Sa 08:00-12:00; PH off"}}, {"type": "node", "id": 1672666169, "lat": 46.5257601, "lon": 19.2554609, "tags": {"addr:city": "Kecel", "addr:housenumber": "3", "addr:postcode": "6237", "addr:street": "Vas\u00fat utca", "amenity": "pharmacy", "healthcare": "pharmacy", "name": "Krist\u00e1ly Gy\u00f3gyszert\u00e1r", "opening_hours": "Mo-Fr 08:00-13:00,16:00-19:00; week 01-53/2 Sa 08:00-12:00; PH off"}}, {"type": "node", "id": 1948915531, "lat": 46.2971339, "lon": 19.3241888, "tags": {"amenity": "pharmacy", "name": "Benk\u0151 Patika"}}, {"type": "node", "id": 1948915713, "lat": 46.2995029, "lon": 19.3266903, "tags": {"addr:city": "J\u00e1noshalma", "addr:housenumber": "1/A", "addr:postcode": "6440", "addr:street": "B\u00e9ke t\u00e9r", "amenity": "pharmacy", "name": "V\u00e1rosh\u00e1zi Gy\u00f3gyszert\u00e1r"}}, {"type": "node", "id": 1948962845, "lat": 46.2174071, "lon": 19.3777419, "tags": {"amenity": "pharmacy"}}, {"type": "node", "id": 2337839369, "lat": 46.4407846, "lon": 19.4818371, "tags": {"amenity": "pharmacy"}}, {"type": "node", "id": 2337845616, "lat": 46.4320087, "lon": 19.4866799, "tags": {"amenity": "pharmacy", "healthcare": "pharmacy", "name": "Pingvipatika"}}, {"type": "node", "id": 2337845625, "lat": 46.43136, "lon": 19.4799691, "tags": {"amenity": "pharmacy", "healthcare": "pharmacy"}}, {"type": "node", "id": 2337845632, "lat": 46.4298932, "lon": 19.4831353, "tags": {"amenity": "pharmacy"}}, {"type": "node", "id": 2337849331, "lat": 46.4299157, "lon": 19.4773775, "tags": {"amenity": "pharmacy", "healthcare": "pharmacy", "name": "Aranym\u00e9rleg Patika"}}, {"type": "node", "id": 3042319361, "lat": 46.2628065, "lon": 19.225046, "tags": {"amenity": "pharmacy", "opening_hours": "Mo-Fr 08:00-13:00, 16:00-19:00"}}, {"type": "node", "id": 3046933551, "lat": 46.1261113, "lon": 19.3307202, "tags": {"amenity": "pharmacy", "name": "K\u00edgy\u00f3 Patika", "wheelchair": "limited"}}, {"type": "node", "id": 3474965131, "lat": 46.579617, "lon": 19.39016, "tags": {"amenity": "pharmacy", "healthcare": "pharmacy", "source": "turistautak.hu", "source:date": "2011-06-24", "url": "http://turistautak.hu/poi.php?id=28787"}}, {"type": "node", "id": 3487611749, "lat": 46.361523, "lon": 19.415356, "tags": {"amenity": "pharmacy", "healthcare": "pharmacy", "name": "Feh\u00e9rt\u00f3 Patika", "opening_hours": "Mo-Th 08:00-17:00; Fr 08:00-12:00", "source": "turistautak.hu", "source:date": "2012-10-15", "url": "http://turistautak.hu/poi.php?id=141893"}}, {"type": "node", "id": 3628183931, "lat": 46.2889991, "lon": 19.7451579, "tags": {"addr:city": "Ruzsa", "addr:postcode": "6786", "amenity": "pharmacy", "healthcare": "pharmacy"}}, {"type": "node", "id": 4200188495, "lat": 46.4898995, "lon": 19.0705072}, {"type": "node", "id": 4200188496, "lat": 46.4899822, "lon": 19.0703535}, {"type": "node", "id": 4872047426, "lat": 46.4340048, "lon": 19.483742, "tags": {"amenity": "pharmacy"}}, {"type": "node", "id": 5251167386, "lat": 46.2781132, "lon": 19.4915777}, {"type": "node", "id": 5251167387, "lat": 46.2782987, "lon": 19.4920089}, {"type": "node", "id": 5251167388, "lat": 46.2782199, "lon": 19.4920799}, {"type": "node", "id": 5251167389, "lat": 46.2781607, "lon": 19.4919423}, {"type": "node", "id": 7535471537, "lat": 46.4899042, "lon": 19.070255}, {"type": "node", "id": 7535471538, "lat": 46.4898121, "lon": 19.0704055}, {"type": "node", "id": 7686030593, "lat": 46.1968523, "lon": 19.6059823, "tags": {"addr:city": "Kelebia", "addr:housenumber": "39", "addr:postcode": "6423", "addr:street": "Bajcsy-Zsilinszky Endre utca", "amenity": "pharmacy", "name": "Aranym\u00e9rleg gy\u00f3gyszert\u00e1r", "phone": "+36 77 454 223"}}, {"type": "node", "id": 8342902670, "lat": 46.524763, "lon": 19.2535215}, {"type": "node", "id": 8342902671, "lat": 46.5247824, "lon": 19.2534931}, {"type": "node", "id": 8342902672, "lat": 46.5247327, "lon": 19.2534609}, {"type": "node", "id": 8342902673, "lat": 46.5250264, "lon": 19.25389}, {"type": "node", "id": 8342902674, "lat": 46.5250777, "lon": 19.2538217}, {"type": "node", "id": 8342902675, "lat": 46.524789, "lon": 19.2533754}, {"type": "node", "id": 8656322621, "lat": 46.5510002, "lon": 19.6729517, "tags": {"addr:city": "Szank", "addr:housenumber": "22", "addr:postcode": "6131", "addr:street": "B\u00e9ke utca", "amenity": "pharmacy", "contact:phone": "+36 77 595 130", "currency:HUF": "yes", "dispensing": "yes", "healthcare": "pharmacy", "name": "Bodza Patika", "payment:cash": "yes", "payment:contactless": "yes", "payment:maestro": "yes", "payment:mastercard": "yes", "payment:visa": "yes", "payment:visa_debit": "yes", "payment:visa_electron": "yes", "wheelchair": "no"}}, {"type": "node", "id": 8850079541, "lat": 46.4865659, "lon": 19.0738615, "tags": {"addr:city": "Homokm\u00e9gy", "addr:housenumber": "53/B", "addr:postcode": "6341", "addr:street": "Kossuth Lajos utca", "amenity": "pharmacy", "contact:phone": "+36 78 367015", "healthcare": "pharmacy", "name": "Levendula Fi\u00f3kgy\u00f3gyszert\u00e1r", "opening_hours": "Mo,Fr 08:00-10:30; Tu-Th 13:30-16:00"}}, {"type": "node", "id": 9398123252, "lat": 46.5789116, "lon": 19.393683, "tags": {"addr:city": "Soltvadkert", "addr:housenumber": "4", "addr:postcode": "6230", "addr:street": "Ifj\u00fas\u00e1g \u00fatja", "amenity": "pharmacy", "dispensing": "yes", "healthcare": "pharmacy"}}, {"type": "node", "id": 12399987320, "lat": 46.1969898, "lon": 19.6059816}, {"type": "node", "id": 12399987321, "lat": 46.1968613, "lon": 19.6056639}, {"type": "node", "id": 12399987322, "lat": 46.196773, "lon": 19.6057384}, {"type": "node", "id": 12399987323, "lat": 46.1969015, "lon": 19.6060561}, {"type": "node", "id": 12871018103, "lat": 46.2782938, "lon": 19.4919367}, {"type": "node", "id": 12871018105, "lat": 46.2783053, "lon": 19.4919263}, {"type": "node", "id": 12871018106, "lat": 46.2782813, "lon": 19.4918705}, {"type": "node", "id": 12871018107, "lat": 46.278275, "lon": 19.4919537}, {"type": "node", "id": 12871018108, "lat": 46.2782509, "lon": 19.4918978}, {"type": "node", "id": 12871018109, "lat": 46.2780344, "lon": 19.4916487}, {"type": "way", "id": 420032546, "nodes": [7535471538, 4200188495, 4200188496, 7535471537, 7535471538], "tags": {"addr:city": "Homokm\u00e9gy", "addr:housenumber": "32", "addr:postcode": "6341", "addr:street": "Kossuth Lajos utca", "amenity": "pharmacy", "building": "yes", "healthcare": "pharmacy", "name": "Zs\u00e1lya gy\u00f3gyszert\u00e1r"}}, {"type": "way", "id": 543193975, "nodes": [5251167386, 12871018108, 12871018106, 12871018105, 12871018103, 12871018107, 5251167387, 5251167388, 5251167389, 12871018109, 5251167386], "tags": {"addr:city": "Kissz\u00e1ll\u00e1s", "addr:housenumber": "22/D", "addr:postcode": "6421", "addr:street": "F\u0151 utca", "amenity": "pharmacy", "building": "yes", "description": "http://kisszallas.hu/informaciok/kisokos/", "healthcare": "pharmacy", "name": "Qercus-Pharma Bt.", "opening_hours": "Mo-Fr 08:30-12:00; Sa 08:00-10:00", "operator": "Alma Gy\u00f3gyszert\u00e1rak", "phone": "+36 77 557 003;+36 30 967 7717"}}, {"type": "way", "id": 897671411, "nodes": [8342902675, 8342902674, 8342902673, 8342902671, 8342902670, 8342902672, 8342902675], "tags": {"amenity": "pharmacy", "building": "yes", "healthcare": "pharmacy"}}, {"type": "way", "id": 1340518333, "nodes": [12399987320, 12399987321, 12399987322, 12399987323, 12399987320], "tags": {"addr:city": "Kelebia", "addr:postcode": "6423", "addr:street": "Bajcsy-Zsilinszky Endre utca", "amenity": "pharmacy", "building": "yes", "healthcare": "pharmacy"}}]}