{"version": 0.6, "generator": "Overpass API 0.7.62.8 e802775f", "osm3s": {"timestamp_osm_base": "2025-10-06T08:34:14Z", "copyright": "The data included in this document is from www.openstreetmap.org. The data is made available under ODbL."}, "elements": [{"type": "node", "id": 1553070466, "lat": 52.4178147, "lon": 20.7368791, "tags": {"amenity": "pharmacy", "brand": "Zdrowie", "dispensing": "yes", "healthcare": "pharmacy", "name": "Zdrowie"}}, {"type": "node", "id": 1889591790, "lat": 52.6197484, "lon": 21.0212919, "tags": {"addr:city": "Pokrzywnica", "addr:housenumber": "1", "addr:postcode": "06-121", "addr:street": "Przemys\u0142owa", "amenity": "pharmacy", "dispensing": "yes", "name": "Iza-Med", "ref:csioz": "1091919"}}, {"type": "node", "id": 2111488467, "lat": 52.4080938, "lon": 20.914006, "tags": {"amenity": "pharmacy"}}, {"type": "node", "id": 2121586494, "lat": 52.6563554, "lon": 20.6313911, "tags": {"amenity": "pharmacy", "dispensing": "yes", "ref:csioz": "1092404", "wheelchair": "no"}}, {"type": "node", "id": 2125782084, "lat": 52.4190985, "lon": 20.7370864, "tags": {"amenity": "pharmacy", "dispensing": "yes", "healthcare": "pharmacy", "name": "Z U\u015bmiechem", "opening_hours": "Mo-Sa 08:00-21:00; Su 09:00-18:00", "ref:csioz": "1174809"}}, {"type": "node", "id": 2223272234, "lat": 52.4121987, "lon": 20.9189467, "tags": {"amenity": "pharmacy"}}, {"type": "node", "id": 2341746369, "lat": 52.5714768, "lon": 20.667354}, {"type": "node", "id": 2341746371, "lat": 52.5714828, "lon": 20.667492}, {"type": "node", "id": 2341746374, "lat": 52.5715622, "lon": 20.667344}, {"type": "node", "id": 2341746375, "lat": 52.5715681, "lon": 20.6674821}, {"type": "node", "id": 3030724797, "lat": 52.7805588, "lon": 20.6995776, "tags": {"addr:city": "So\u0144sk", "addr:housenumber": "19", "addr:postcode": "06-430", "addr:street": "Ciechanowska", "amenity": "pharmacy", "dispensing": "yes", "healthcare": "pharmacy", "name": "Apteka", "ref:csioz": "1092297"}}, {"type": "node", "id": 3190257233, "lat": 52.458553, "lon": 20.9544342}, {"type": "node", "id": 3190257234, "lat": 52.4585261, "lon": 20.9545416}, {"type": "node", "id": 3190257235, "lat": 52.4584322, "lon": 20.9544784}, {"type": "node", "id": 3190257236, "lat": 52.458454, "lon": 20.9543913}, {"type": "node", "id": 3194913065, "lat": 52.4520574, "lon": 20.9655597}, {"type": "node", "id": 3194913066, "lat": 52.4520299, "lon": 20.9657076}, {"type": "node", "id": 3194913067, "lat": 52.4519342, "lon": 20.96566}, {"type": "node", "id": 3194913068, "lat": 52.4519618, "lon": 20.9655121}, {"type": "node", "id": 3195703701, "lat": 52.4503215, "lon": 20.9714891, "tags": {"addr:city": "Wieliszew", "addr:housenumber": "61a", "addr:postcode": "05-135", "addr:street": "Modli\u0144ska", "amenity": "pharmacy", "name": "Pogodna"}}, {"type": "node", "id": 3241784365, "lat": 52.6433342, "lon": 20.944045, "tags": {"addr:city": "Winnica", "addr:city:simc": "0129484", "addr:housenumber": "2", "addr:street": "Szkolna", "addr:street:sym_ul": "21970", "amenity": "pharmacy", "dispensing": "yes", "healthcare": "pharmacy", "name": "Farm-Mag Sp. Z O.O", "ref:csioz": "1081712", "source:addr": "winnica.e-mapa.net"}}, {"type": "node", "id": 3247244079, "lat": 52.4202148, "lon": 20.9264405, "tags": {"addr:city": "Legionowo", "addr:housenumber": "9b", "addr:postcode": "05-119", "addr:street": "Suwalna", "amenity": "pharmacy", "name": "Z U\u015bmiechem", "name:signed": "no", "opening_hours": "Mo-Fr 08:00-20:00; Sa 08:00-15:00", "phone": "22 774 09 32"}}, {"type": "node", "id": 3338538630, "lat": 52.4397367, "lon": 20.9637197, "tags": {"addr:city": "Wieliszew", "addr:housenumber": "61", "addr:postcode": "05-135", "addr:street": "Ko\u015bcielna", "amenity": "pharmacy", "check_date": "2024-10-20", "name": "Z U\u015bmiechem", "opening_hours": "Mo-Fr 08:00-20:00; Sa 08:00-14:00"}}, {"type": "node", "id": 3351722288, "lat": 52.5709117, "lon": 21.0889669, "tags": {"addr:city": "Dzier\u017cenin", "addr:place": "Dzier\u017cenin", "addr:postcode": "06-121", "amenity": "pharmacy", "dispensing": "yes", "healthcare": "pharmacy", "name": "Apteka IZA-MED", "ref:csioz": "1172184"}}, {"type": "node", "id": 3782081656, "lat": 52.8616792, "lon": 21.0866159, "tags": {"addr:city": "Mak\u00f3w Mazowiecki", "addr:flats": "1A", "addr:housenumber": "2", "addr:postcode": "06-200", "addr:street": "Wincentego Witosa", "amenity": "pharmacy", "drive_through": "no", "healthcare": "pharmacy", "name": "Przyjazna", "opening_hours": "08:00-22:00", "ref:csioz": "1122284", "wheelchair": "yes"}}, {"type": "node", "id": 3783519775, "lat": 52.8648253, "lon": 21.0977375, "tags": {"addr:city": "Mak\u00f3w Mazowiecki", "addr:housenumber": "12", "addr:postcode": "06-200", "addr:street": "1 Maja", "amenity": "pharmacy", "healthcare": "pharmacy", "name": "Apteka (W. i B. Dobrosielscy)", "ref:csioz": "1116271"}}, {"type": "node", "id": 3783519776, "lat": 52.8651498, "lon": 21.096693, "tags": {"addr:city": "Mak\u00f3w Mazowiecki", "addr:housenumber": "25", "addr:postcode": "06-200", "addr:street": "Adama Mickiewicza", "amenity": "pharmacy", "brand": "Dbam o Zdrowie", "brand:wikidata": "Q62563833", "healthcare": "pharmacy", "name": "Dbam O Zdrowie (Doz)", "operator": "DOZ", "ref:csioz": "1090751", "wheelchair": "yes"}}, {"type": "node", "id": 3783519778, "lat": 52.860143, "lon": 21.0977142, "tags": {"addr:city": "Mak\u00f3w Mazowiecki", "addr:housenumber": "46", "addr:postcode": "06-200", "addr:street": "Stanis\u0142awa Moniuszki", "amenity": "pharmacy", "brand": "Dr. Max", "brand:wikidata": "Q56317371", "healthcare": "pharmacy", "name": "Dr. Max", "ref:csioz": "1091334"}}, {"type": "node", "id": 3783519779, "lat": 52.8653901, "lon": 21.1029408, "tags": {"addr:city": "Mak\u00f3w Mazowiecki", "addr:housenumber": "15", "addr:postcode": "06-200", "addr:street": "Rynek", "amenity": "pharmacy", "healthcare": "pharmacy", "name": "Przy Rynku", "ref:csioz": "1090767", "wheelchair": "yes"}}, {"type": "node", "id": 3828420709, "lat": 52.8050846, "lon": 20.8753926, "tags": {"addr:city": "Go\u0142ymin-O\u015brodek", "addr:housenumber": "7", "addr:postcode": "06-420", "addr:street": "Nowa", "amenity": "pharmacy", "dispensing": "yes", "name": "Apteka", "opening_hours": "Mo-Fr 08:00-16:30; Sa 08:00-12:00", "ref:csioz": "1092256"}}, {"type": "node", "id": 4290716278, "lat": 52.8636552, "lon": 21.092741, "tags": {"addr:city": "Mak\u00f3w Mazowiecki", "addr:housenumber": "11", "addr:postcode": "06-200", "addr:street": "Polna", "amenity": "pharmacy", "drive_through": "no", "healthcare": "pharmacy", "name": "Apteka (J. Ostrowska)", "ref:csioz": "1115812"}}, {"type": "node", "id": 5173189706, "lat": 52.5130645, "lon": 21.072113, "tags": {"addr:city": "Serock", "addr:flats": "1U", "addr:housenumber": "17", "addr:postcode": "05-140", "addr:street": "Rynek", "amenity": "pharmacy", "level": "0", "name": "Afi", "opening_hours": "Mo-Fr 08:00-20:00;Sa 08:00-15:00;PH closed"}}, {"type": "node", "id": 5173189710, "lat": 52.5112797, "lon": 21.0695952, "tags": {"amenity": "pharmacy", "level": "0", "opening_hours": "Mo-Fr 09:00-12:00,08:00-19:00;Sa 08:00-14:00;PH closed"}}, {"type": "node", "id": 5173189713, "lat": 52.5129633, "lon": 21.0702852, "tags": {"addr:city": "Serock", "addr:housenumber": "3", "addr:postcode": "05-140", "addr:street": "Tadeusza Ko\u015bciuszki", "amenity": "pharmacy", "level": "0", "opening_hours": "Mo-Fr 08:00-20:00;Sa 08:00-14:00"}}, {"type": "node", "id": 5391018356, "lat": 52.4085768, "lon": 20.9529658, "tags": {"addr:city": "Legionowo", "addr:housenumber": "115", "addr:postcode": "05-119", "addr:street": "Zegrzy\u0144ska", "amenity": "pharmacy", "brand": "Dr. Max", "brand:wikidata": "Q56317371", "healthcare": "pharmacy", "name": "Dr. Max", "opening_hours": "Mo-Fr 08:00-21:00; Sa 09:00-21:00; Su 09:00-19:00"}}, {"type": "node", "id": 5396295428, "lat": 52.5133447, "lon": 21.0686782, "tags": {"amenity": "pharmacy", "name": "Syrenka", "opening_hours": "Mo-Fr 08:00-20:15;Sa 08:00-15:00;PH closed"}}, {"type": "node", "id": 6712624224, "lat": 52.4538861, "lon": 20.8907931}, {"type": "node", "id": 6712624225, "lat": 52.4537606, "lon": 20.890775}, {"type": "node", "id": 6712624226, "lat": 52.4537552, "lon": 20.8908779}, {"type": "node", "id": 7133859767, "lat": 52.5198151, "lon": 21.0688075}, {"type": "node", "id": 7133859768, "lat": 52.5197274, "lon": 21.0692568}, {"type": "node", "id": 7133859769, "lat": 52.5198721, "lon": 21.0693932}, {"type": "node", "id": 7133859770, "lat": 52.5199665, "lon": 21.0688868}, {"type": "node", "id": 8355418881, "lat": 52.6660696, "lon": 20.6236939}, {"type": "node", "id": 8355418882, "lat": 52.6660583, "lon": 20.6238471}, {"type": "node", "id": 8355418883, "lat": 52.6660752, "lon": 20.6238506}, {"type": "node", "id": 8355418884, "lat": 52.6660731, "lon": 20.6238773}, {"type": "node", "id": 8355418885, "lat": 52.6661015, "lon": 20.6238829}, {"type": "node", "id": 8355418886, "lat": 52.6661035, "lon": 20.6238559}, {"type": "node", "id": 8355418887, "lat": 52.6661204, "lon": 20.6238596}, {"type": "node", "id": 8355418888, "lat": 52.6661254, "lon": 20.6237987}, {"type": "node", "id": 8355418889, "lat": 52.6661386, "lon": 20.6238013}, {"type": "node", "id": 8355418890, "lat": 52.6661516, "lon": 20.6237852}, {"type": "node", "id": 8355418891, "lat": 52.6661534, "lon": 20.6237584}, {"type": "node", "id": 8355418892, "lat": 52.6661432, "lon": 20.6237371}, {"type": "node", "id": 8355418893, "lat": 52.6661301, "lon": 20.6237341}, {"type": "node", "id": 8355418894, "lat": 52.6661321, "lon": 20.6237062}, {"type": "node", "id": 8355418895, "lat": 52.6661569, "lon": 20.6237108}, {"type": "node", "id": 8355418896, "lat": 52.6661685, "lon": 20.6235564}, {"type": "node", "id": 8355418897, "lat": 52.6661367, "lon": 20.6235499}, {"type": "node", "id": 8355418898, "lat": 52.6661372, "lon": 20.6235369}, {"type": "node", "id": 8355418899, "lat": 52.6660893, "lon": 20.6235273}, {"type": "node", "id": 8355418900, "lat": 52.6660884, "lon": 20.6235401}, {"type": "node", "id": 8355418901, "lat": 52.6660563, "lon": 20.6235345}, {"type": "node", "id": 8355418902, "lat": 52.6660449, "lon": 20.6236889}, {"type": "node", "id": 8841994101, "lat": 52.578954, "lon": 20.7748179, "tags": {"addr:city": "Stare Pie\u015bcirogi", "addr:housenumber": "5/18", "addr:postcode": "05-191", "addr:street": "Genera\u0142a W\u0142adys\u0142awa Sikorskiego", "amenity": "pharmacy", "dispensing": "yes", "healthcare": "pharmacy", "name": "Herba", "ref:csioz": "1116138"}}, {"type": "node", "id": 9556685148, "lat": 52.4121669, "lon": 20.8842829, "tags": {"addr:city": "Chotom\u00f3w", "addr:housenumber": "8", "addr:postcode": "05-123", "addr:street": "Stra\u017cacka", "amenity": "pharmacy", "ref:csioz": "1111436"}}, {"type": "node", "id": 9573593229, "lat": 52.3970903, "lon": 20.8962536, "tags": {"addr:city": "Chotom\u00f3w", "addr:flats": "3", "addr:housenumber": "11", "addr:postcode": "05-123", "addr:street": "Stefana Kisielewskiego", "amenity": "pharmacy", "name": "Apteka Przy Rondzie", "ref:csioz": "1230042"}}, {"type": "node", "id": 9573595577, "lat": 52.4224641, "lon": 20.9603181, "tags": {"addr:city": "Micha\u0142\u00f3w-Regin\u00f3w", "addr:housenumber": "21B", "addr:postcode": "05-119", "addr:street": "Nowodworska", "amenity": "pharmacy", "ref:csioz": "1087963"}}, {"type": "node", "id": 9587414492, "lat": 52.8221483, "lon": 21.2074049, "tags": {"addr:city": "Stary Szelk\u00f3w", "addr:housenumber": "45", "addr:postcode": "06-220", "addr:street": "Stary Szelk\u00f3w", "amenity": "pharmacy", "name": "Punkt Apteczny (A. Dobkowski)", "ref:csioz": "1225252"}}, {"type": "node", "id": 9587414498, "lat": 52.8377598, "lon": 20.9961903, "tags": {"addr:city": "Karniewo", "addr:housenumber": "29", "addr:postcode": "06-425", "addr:street": "Szkolna", "amenity": "pharmacy", "name": "Flos", "opening_hours": "Mo-Fr 08:00-17:00", "phone": "+48 29 691 1058", "ref:csioz": "1090738"}}, {"type": "node", "id": 9607530424, "lat": 52.7315029, "lon": 20.7120971, "tags": {"addr:housenumber": "36A", "addr:place": "Sobokl\u0119szcz", "addr:postcode": "06-430", "amenity": "pharmacy", "dispensing": "yes", "name": "Punkt Apteczny", "ref:csioz": "1092063"}}, {"type": "node", "id": 9607557164, "lat": 52.7386611, "lon": 20.7138124, "tags": {"addr:city": "G\u0105socin", "addr:housenumber": "19", "addr:postcode": "06-440", "addr:street": "Stra\u017cacka", "amenity": "pharmacy", "dispensing": "yes", "name": "Apteka", "ref:csioz": "1092235"}}, {"type": "node", "id": 9607598800, "lat": 52.7918518, "lon": 20.6937911, "tags": {"addr:city": "Go\u0142otczyzna", "addr:housenumber": "2", "addr:postcode": "06-440", "addr:street": "Chabrowa", "amenity": "pharmacy", "dispensing": "yes", "name": "DOZ Punkt Apteczny dbam o zdrowie", "ref:csioz": "1231119"}}, {"type": "node", "id": 9607624422, "lat": 52.7685582, "lon": 20.5447635, "tags": {"addr:city": "Ojrze\u0144", "addr:housenumber": "27", "addr:postcode": "06-456", "addr:street": "Ciechanowska", "amenity": "pharmacy", "dispensing": "yes", "name": "Apteka", "ref:csioz": "1092270"}}, {"type": "node", "id": 9642901198, "lat": 52.5902839, "lon": 20.8056615, "tags": {"addr:city": "Nasielsk", "addr:housenumber": "3", "addr:postcode": "05-190", "addr:street": "M\u0142ynarska", "amenity": "pharmacy", "dispensing": "yes", "ref:csioz": "1119833"}}, {"type": "node", "id": 9642940062, "lat": 52.5931906, "lon": 20.7989017, "tags": {"addr:city": "Nasielsk", "addr:housenumber": "4A", "addr:postcode": "05-190", "addr:street": "P\u0142o\u0144ska", "amenity": "pharmacy", "brand": "Rodzinna", "dispensing": "yes", "healthcare": "pharmacy", "name": "Rodzinna", "ref:csioz": "1090266"}}, {"type": "node", "id": 9642940428, "lat": 52.4745487, "lon": 20.742366, "tags": {"addr:city": "Pomiech\u00f3wek", "addr:housenumber": "1", "addr:postcode": "05-180", "addr:street": "Szkolna", "amenity": "pharmacy", "dispensing": "yes", "name": "Cef@Rm 36,6", "ref:csioz": "1088135"}}, {"type": "node", "id": 9642968765, "lat": 52.5899459, "lon": 20.8082791, "tags": {"addr:city": "Nasielsk", "addr:housenumber": "21", "addr:postcode": "05-190", "addr:street": "Rynek", "amenity": "pharmacy", "dispensing": "yes", "name": "Arnica", "ref:csioz": "1089691"}}, {"type": "node", "id": 9642976927, "lat": 52.4181781, "lon": 20.737246, "tags": {"addr:city": "Nowy Dw\u00f3r Mazowiecki", "addr:housenumber": "35", "addr:postcode": "05-101", "addr:street": "Wojska Polskiego", "amenity": "pharmacy", "dispensing": "yes", "healthcare": "pharmacy", "name": "Apteka Zdrowie", "ref:csioz": "1088124"}}, {"type": "node", "id": 9645561678, "lat": 52.4585335, "lon": 20.954445}, {"type": "node", "id": 9645561679, "lat": 52.4585386, "lon": 20.9544245}, {"type": "node", "id": 9655791904, "lat": 52.7020196, "lon": 21.0856947, "tags": {"addr:city": "Pu\u0142tusk", "addr:housenumber": "9D", "addr:postcode": "06-100", "addr:street": "Ignacego Daszy\u0144skiego", "amenity": "pharmacy", "dispensing": "yes", "name": "Bios", "ref:csioz": "1116504"}}, {"type": "node", "id": 9655791905, "lat": 52.705056, "lon": 21.0859375, "tags": {"addr:city": "Pu\u0142tusk", "addr:housenumber": "18", "addr:postcode": "06-100", "addr:street": "Rynek", "amenity": "pharmacy", "dispensing": "yes", "ref:csioz": "1092576"}}, {"type": "node", "id": 9655822168, "lat": 52.7146138, "lon": 21.2410209, "tags": {"addr:housenumber": "187", "addr:place": "Obryte", "addr:postcode": "07-215", "amenity": "pharmacy", "dispensing": "yes", "ref:csioz": "1092513"}}, {"type": "node", "id": 9655840184, "lat": 52.6717305, "lon": 20.764421, "tags": {"addr:city": "\u015awiercze", "addr:housenumber": "4", "addr:postcode": "06-150", "addr:street": "Szkolna", "amenity": "pharmacy", "dispensing": "yes", "ref:csioz": "1092602"}}, {"type": "node", "id": 9655844421, "lat": 52.7034095, "lon": 21.0790169, "tags": {"addr:city": "Pu\u0142tusk", "addr:housenumber": "23", "addr:postcode": "06-100", "addr:street": "Romualda Traugutta", "amenity": "pharmacy", "dispensing": "yes", "name": "Apteka Viola", "ref:csioz": "1092592"}}, {"type": "node", "id": 9655853540, "lat": 52.7023934, "lon": 21.0808823, "tags": {"addr:city": "Pu\u0142tusk", "addr:housenumber": "6", "addr:postcode": "06-100", "addr:street": "G\u00f3rna", "amenity": "pharmacy", "dispensing": "yes", "ref:csioz": "1092545"}}, {"type": "node", "id": 9655854642, "lat": 52.7003087, "lon": 21.0852185, "tags": {"addr:city": "Pu\u0142tusk", "addr:housenumber": "34", "addr:postcode": "06-100", "addr:street": "Ignacego Daszy\u0144skiego", "amenity": "pharmacy", "dispensing": "yes", "name": "Dr. Optima", "ref:csioz": "1183339"}}, {"type": "node", "id": 9655854753, "lat": 52.7011892, "lon": 21.0798672, "tags": {"addr:city": "Pu\u0142tusk", "addr:housenumber": "6", "addr:postcode": "06-100", "addr:street": "G\u00f3rna", "amenity": "pharmacy", "dispensing": "yes", "ref:csioz": "1092545"}}, {"type": "node", "id": 9655859842, "lat": 52.7055933, "lon": 21.0856272, "tags": {"addr:city": "Pu\u0142tusk", "addr:housenumber": "9", "addr:postcode": "06-100", "addr:street": "3 Maja", "amenity": "pharmacy", "dispensing": "yes", "ref:csioz": "1092521"}}, {"type": "node", "id": 9655869462, "lat": 52.7060676, "lon": 21.0903164, "tags": {"addr:city": "Pu\u0142tusk", "addr:housenumber": "18", "addr:postcode": "06-100", "addr:street": "Rynek", "amenity": "pharmacy", "dispensing": "yes", "ref:csioz": "1092576"}}, {"type": "node", "id": 9655869463, "lat": 52.7025767, "lon": 21.075854, "tags": {"addr:city": "Pu\u0142tusk", "addr:housenumber": "18", "addr:postcode": "06-100", "addr:street": "Rynek", "amenity": "pharmacy", "dispensing": "yes", "ref:csioz": "1092576"}}, {"type": "node", "id": 9655871355, "lat": 52.6931257, "lon": 21.1099458, "tags": {"addr:city": "Pu\u0142tusk", "addr:housenumber": "8", "addr:postcode": "06-102", "addr:street": "\u015awi\u0119tego Andrzeja Boboli", "amenity": "pharmacy", "dispensing": "yes", "name": "Przy Szpitalu", "ref:csioz": "1092867"}}, {"type": "node", "id": 9655875257, "lat": 52.7029775, "lon": 21.0751542, "tags": {"addr:city": "Pu\u0142tusk", "addr:housenumber": "36", "addr:postcode": "06-100", "addr:street": "Adama Mickiewicza", "amenity": "pharmacy", "dispensing": "yes", "name": "W Ogrodach", "ref:csioz": "1092846"}}, {"type": "node", "id": 9655890392, "lat": 52.6469333, "lon": 21.2534579, "tags": {"addr:city": "Pniewo", "addr:housenumber": "22", "addr:postcode": "07-214", "addr:street": "Pu\u0142tuska", "amenity": "pharmacy", "dispensing": "yes", "ref:csioz": "1179730"}}, {"type": "node", "id": 9655891600, "lat": 52.6097081, "lon": 21.1856795, "tags": {"addr:city": "Pu\u0142tusk", "addr:housenumber": "18", "addr:postcode": "06-100", "addr:street": "Rynek", "amenity": "pharmacy", "dispensing": "yes", "name": "Punkt apteczny", "ref:csioz": "1092576"}}, {"type": "node", "id": 9655891764, "lat": 52.7041824, "lon": 21.0876754, "tags": {"addr:city": "Pu\u0142tusk", "addr:housenumber": "1", "addr:postcode": "06-100", "addr:street": "Plac Teatralny", "amenity": "pharmacy", "dispensing": "yes", "ref:csioz": "1092568"}}, {"type": "node", "id": 9655893157, "lat": 52.7034588, "lon": 21.0814628, "tags": {"addr:city": "Pu\u0142tusk", "addr:housenumber": "21", "addr:postcode": "06-100", "addr:street": "Romualda Traugutta", "amenity": "pharmacy", "dispensing": "yes", "name": "Mi\u0119towa", "ref:csioz": "1222691"}}, {"type": "node", "id": 9683269491, "lat": 52.6237556, "lon": 21.3193011, "tags": {"addr:housenumber": "14", "addr:place": "Wola Mystkowska", "addr:postcode": "07-206", "amenity": "pharmacy", "dispensing": "yes", "healthcare": "pharmacy", "name": "Antidotum", "ref:csioz": "1230755"}}, {"type": "node", "id": 9683310267, "lat": 52.5609083, "lon": 21.2934743, "tags": {"addr:housenumber": "25B", "addr:place": "Somianka-Parcele", "addr:postcode": "07-203", "amenity": "pharmacy", "dispensing": "yes", "ref:csioz": "1091222"}}, {"type": "node", "id": 10624214340, "lat": 52.4520279, "lon": 20.965545}, {"type": "node", "id": 10624214341, "lat": 52.4520253, "lon": 20.9655437}, {"type": "node", "id": 10624214342, "lat": 52.4519939, "lon": 20.965528}, {"type": "node", "id": 10624214343, "lat": 52.4519913, "lon": 20.9655267}, {"type": "node", "id": 10624214344, "lat": 52.4519455, "lon": 20.9655994}, {"type": "node", "id": 10624214345, "lat": 52.4519422, "lon": 20.9656176}, {"type": "node", "id": 10624214346, "lat": 52.4519408, "lon": 20.9656246}, {"type": "node", "id": 10624214347, "lat": 52.4519395, "lon": 20.9656316}, {"type": "node", "id": 10624214348, "lat": 52.4519382, "lon": 20.9656386}, {"type": "node", "id": 10624214349, "lat": 52.4519369, "lon": 20.9656457}, {"type": "node", "id": 10624214350, "lat": 52.4519355, "lon": 20.9656527}, {"type": "node", "id": 10624214351, "lat": 52.4519343, "lon": 20.9656597}, {"type": "node", "id": 11785003686, "lat": 52.4584424, "lon": 20.9544374}, {"type": "node", "id": 11785003687, "lat": 52.458433, "lon": 20.9544311}, {"type": "node", "id": 11785003688, "lat": 52.4584269, "lon": 20.954455}, {"type": "node", "id": 11785003689, "lat": 52.4584364, "lon": 20.9544615}, {"type": "node", "id": 12066887738, "lat": 52.4538808, "lon": 20.8908961}, {"type": "node", "id": 12122839778, "lat": 52.5197905, "lon": 21.0689344}, {"type": "node", "id": 12122839779, "lat": 52.5197775, "lon": 21.0689274}, {"type": "node", "id": 12122839780, "lat": 52.5197519, "lon": 21.0690601}, {"type": "node", "id": 12122839781, "lat": 52.5197372, "lon": 21.0691219}, {"type": "node", "id": 12122839782, "lat": 52.5197517, "lon": 21.069131}, {"type": "node", "id": 12122839783, "lat": 52.5197762, "lon": 21.0692826}, {"type": "node", "id": 12122839784, "lat": 52.5197656, "lon": 21.0693372}, {"type": "node", "id": 12122839785, "lat": 52.5198833, "lon": 21.0693329}, {"type": "node", "id": 12122839786, "lat": 52.5198795, "lon": 21.0693308}, {"type": "node", "id": 12122839787, "lat": 52.519944, "lon": 21.0689989}, {"type": "way", "id": 225394240, "nodes": [2341746375, 2341746371, 2341746369, 2341746374, 2341746375], "tags": {"addr:city": "Cieksyn", "addr:city:simc": "0119899", "addr:housenumber": "6C", "addr:postcode": "05-192", "addr:street": "Marsza\u0142ka J\u00f3zefa Pi\u0142sudskiego", "addr:street:sym_ul": "16274", "amenity": "pharmacy", "building": "yes", "healthcare": "pharmacy", "ref:csioz": "1223941", "source:addr": "nasielsk.e-mapa.net"}}, {"type": "way", "id": 313112129, "nodes": [3190257233, 3190257234, 3190257235, 11785003689, 11785003688, 11785003687, 11785003686, 3190257236, 9645561678, 9645561679, 3190257233], "tags": {"addr:city": "Wieliszew", "addr:housenumber": "85", "addr:postcode": "05-135", "addr:street": "Niepodleg\u0142o\u015bci", "amenity": "pharmacy", "building": "retail", "building:levels": "1", "ref:csioz": "1088029", "source:building": "BDOT"}}, {"type": "way", "id": 313495498, "nodes": [3194913066, 3194913067, 10624214351, 10624214350, 10624214349, 10624214348, 10624214347, 10624214346, 10624214345, 10624214344, 3194913068, 10624214343, 10624214342, 10624214341, 10624214340, 3194913065, 3194913066], "tags": {"addr:city": "Wieliszew", "addr:housenumber": "2", "addr:postcode": "05-135", "addr:street": "Niepodleg\u0142o\u015bci", "amenity": "pharmacy", "building": "yes", "building:levels": "2", "source": "www.geoportal.gov.pl"}}, {"type": "way", "id": 714018368, "nodes": [6712624226, 6712624225, 6712624224, 12066887738, 6712624226], "tags": {"amenity": "pharmacy", "building": "yes", "building:levels": "1", "dispensing": "yes", "healthcare": "pharmacy", "source:building": "BDOT"}}, {"type": "way", "id": 763451668, "nodes": [7133859770, 12122839787, 12122839786, 12122839785, 7133859769, 12122839784, 12122839783, 7133859768, 12122839782, 12122839781, 12122839780, 12122839779, 12122839778, 7133859767, 7133859770], "tags": {"addr:city": "Serock", "addr:housenumber": "53D", "addr:postcode": "05-140", "addr:street": "Pu\u0142tuska", "amenity": "pharmacy", "building": "yes", "building:levels": "2", "name": "Maxfarm", "ref:csioz": "1185171", "source:addr": "EMUiA (serock.e-mapa.net)", "source:building": "BDOT"}}, {"type": "way", "id": 899245150, "nodes": [8355418902, 8355418901, 8355418900, 8355418899, 8355418898, 8355418897, 8355418896, 8355418895, 8355418894, 8355418893, 8355418892, 8355418891, 8355418890, 8355418889, 8355418888, 8355418887, 8355418886, 8355418885, 8355418884, 8355418883, 8355418882, 8355418881, 8355418902], "tags": {"addr:city": "Nowe Miasto", "addr:city:simc": "0120900", "addr:housenumber": "75B", "addr:postcode": "09-120", "addr:street": "Ciechanowska", "amenity": "pharmacy", "building": "detached", "building:levels": "1", "dispensing": "yes", "name": "Orchidea", "opening_hours": "Mo-Fr 8:00-18:00; Sa 8:00-16:00", "phone": "+48 23 652 71 96", "ref:csioz": "1092851", "source": "www.geoportal.gov.pl", "source:addr": "gugik.gov.pl"}}]}