{"version": 0.6, "generator": "Overpass API 0.7.62.8 e802775f", "osm3s": {"timestamp_osm_base": "2025-10-06T08:59:45Z", "copyright": "The data included in this document is from www.openstreetmap.org. The data is made available under ODbL."}, "elements": [{"type": "node", "id": 2347033894, "lat": 54.1074964, "lon": 22.9348272}, {"type": "node", "id": 2347666731, "lat": 54.1075206, "lon": 22.9349197}, {"type": "node", "id": 2347666746, "lat": 54.1075332, "lon": 22.9347992}, {"type": "node", "id": 2347666750, "lat": 54.1075374, "lon": 22.9349856}, {"type": "node", "id": 2347666765, "lat": 54.1075398, "lon": 22.9347435}, {"type": "node", "id": 2347666775, "lat": 54.1075527, "lon": 22.9350451}, {"type": "node", "id": 2347666800, "lat": 54.1075689, "lon": 22.9347721}, {"type": "node", "id": 2347666802, "lat": 54.1075734, "lon": 22.9351256}, {"type": "node", "id": 2347666829, "lat": 54.1075941, "lon": 22.9347788}, {"type": "node", "id": 2347666833, "lat": 54.1075956, "lon": 22.9352115}, {"type": "node", "id": 2347666846, "lat": 54.1076138, "lon": 22.9347796}, {"type": "node", "id": 2347666873, "lat": 54.1076289, "lon": 22.9348373}, {"type": "node", "id": 2347666899, "lat": 54.1076455, "lon": 22.9349024}, {"type": "node", "id": 2347666919, "lat": 54.1076614, "lon": 22.9349615}, {"type": "node", "id": 2347666942, "lat": 54.1076818, "lon": 22.935038}, {"type": "node", "id": 2347666978, "lat": 54.1077054, "lon": 22.935126}, {"type": "node", "id": 2521435849, "lat": 54.1185772, "lon": 22.9339558}, {"type": "node", "id": 2521435851, "lat": 54.1185687, "lon": 22.9339406}, {"type": "node", "id": 2521435853, "lat": 54.118576, "lon": 22.9338049}, {"type": "node", "id": 2521435861, "lat": 54.1186278, "lon": 22.9339625}, {"type": "node", "id": 2521435895, "lat": 54.1187528, "lon": 22.9337129}, {"type": "node", "id": 2521435900, "lat": 54.118714, "lon": 22.9335213}, {"type": "node", "id": 2530742418, "lat": 53.8424256, "lon": 22.9854618, "tags": {"addr:city": "August\u00f3w", "addr:housenumber": "19", "addr:postcode": "16-300", "addr:street": "Ho\u017ca", "amenity": "pharmacy", "name": "Remedium", "ref:csioz": "1020966"}}, {"type": "node", "id": 4511135094, "lat": 54.1190848, "lon": 22.9452529, "tags": {"addr:city": "Suwa\u0142ki", "addr:housenumber": "9", "addr:postcode": "16-400", "addr:street": "Emila M\u0142ynarskiego", "amenity": "pharmacy", "healthcare": "pharmacy", "name": "Cefarm", "ref:csioz": "1022845"}}, {"type": "node", "id": 5208785839, "lat": 54.0991474, "lon": 22.9334541, "tags": {"addr:city": "Suwa\u0142ki", "addr:city:simc": "0977456", "addr:housenumber": "19", "addr:postcode": "16-400", "addr:street": "Ludwika Wary\u0144skiego", "amenity": "pharmacy", "healthcare": "pharmacy", "name": "Pod Z\u0142otym Lwem", "ref:csioz": "1025086"}}, {"type": "node", "id": 7920004089, "lat": 54.1254528, "lon": 22.9434414, "tags": {"addr:city": "Suwa\u0142ki", "addr:housenumber": "2", "addr:postcode": "16-400", "addr:street": "Alfreda Wierusza-Kowalskiego", "amenity": "pharmacy", "healthcare": "pharmacy", "name": "Dbam o Zdrowie (Doz)", "opening_hours": "Mo-Sa 07:00-22:00; Su 07:00-21:00", "phone": "800110110", "ref:csioz": "1019581", "website": "https://www.doz.pl/"}}, {"type": "node", "id": 7920004987, "lat": 54.1146755, "lon": 22.942628, "tags": {"addr:city": "Suwa\u0142ki", "addr:housenumber": "4", "addr:postcode": "16-400", "addr:street": "Nowomiejska", "amenity": "pharmacy", "healthcare": "pharmacy", "name": "Dbam o Zdrowie (Doz)", "ref:csioz": "1023974"}}, {"type": "node", "id": 9552569441, "lat": 54.0407677, "lon": 23.3546889, "tags": {"addr:housenumber": "7", "addr:place": "Dziemian\u00f3wka", "addr:postcode": "16-506", "amenity": "pharmacy", "name": "Punkt Apteczny W Gibach", "ref:csioz": "1230741"}}, {"type": "node", "id": 9552569442, "lat": 54.1057965, "lon": 23.3465684, "tags": {"addr:city": "Sejny", "addr:housenumber": "19", "addr:postcode": "16-500", "addr:street": "Wac\u0142awa Zawadzkiego", "amenity": "pharmacy", "name": "Apteka Malwa", "ref:csioz": "1024980"}}, {"type": "node", "id": 9552569444, "lat": 54.1065571, "lon": 23.3487013, "tags": {"addr:city": "Sejny", "addr:housenumber": "20", "addr:postcode": "16-500", "addr:street": "J\u00f3zefa Pi\u0142sudskiego", "amenity": "pharmacy", "name": "\"\u015aw. Micha\u0142a\" Mgr Farm. Maria Aneszko", "opening_hours": "Mo-Fr 08:00-19:00; Sa 08:00-15:00", "ref:csioz": "1024967"}}, {"type": "node", "id": 9552569445, "lat": 54.1164871, "lon": 23.2056221, "tags": {"addr:city": "Krasnopol", "addr:housenumber": "3b", "addr:postcode": "16-503", "addr:street": "Henryka Sienkiewicza", "amenity": "pharmacy", "ref:csioz": "1024923"}}, {"type": "node", "id": 9552569446, "lat": 54.1043703, "lon": 23.3513116, "tags": {"addr:city": "Sejny", "addr:housenumber": "3", "addr:postcode": "16-500", "addr:street": "1 Maja", "amenity": "pharmacy", "name": "Remedium", "ref:csioz": "1019352"}}, {"type": "node", "id": 9562124710, "lat": 54.0802827, "lon": 22.9316843, "tags": {"addr:city": "Suwa\u0142ki", "addr:city:simc": "0977456", "addr:flats": "U4A", "addr:housenumber": "23ABC", "addr:postcode": "16-400", "addr:street": "Wojska Polskiego", "amenity": "pharmacy", "healthcare": "pharmacy", "name": "Wigierska", "ref:csioz": "1225741"}}, {"type": "node", "id": 9562124711, "lat": 54.1001621, "lon": 22.9322966, "tags": {"addr:city": "Suwa\u0142ki", "addr:city:simc": "0977456", "addr:housenumber": "4", "addr:postcode": "16-400", "addr:street": "Kr\u00f3tka", "amenity": "pharmacy", "healthcare": "pharmacy", "name": "Nowa Farmacja", "ref:csioz": "1221061"}}, {"type": "node", "id": 9562124712, "lat": 54.1011429, "lon": 22.9358372, "tags": {"addr:city": "Suwa\u0142ki", "addr:city:simc": "0977456", "addr:housenumber": "6", "addr:postcode": "16-400", "addr:street": "1 Maja", "amenity": "pharmacy", "healthcare": "pharmacy", "name": "Gemini", "ref:csioz": "1214458"}}, {"type": "node", "id": 9562124713, "lat": 54.107154, "lon": 22.9335799, "tags": {"addr:city": "Suwa\u0142ki", "addr:flats": "103", "addr:housenumber": "15", "addr:postcode": "16-400", "addr:street": "Genera\u0142a J\u00f3zefa Dwernickiego", "amenity": "pharmacy", "brand": "Super-Pharm", "brand:en": "Super-Pharm", "brand:he": "\u05e1\u05d5\u05e4\u05e8-\u05e4\u05d0\u05e8\u05dd", "brand:wikidata": "Q13220217", "healthcare": "pharmacy", "name": "Super-Pharm", "name:ar": "\u0633\u0648\u0628\u064a\u0631 \u0641\u0627\u0631\u0645", "name:en": "Super-Pharm", "name:he": "\u05e1\u05d5\u05e4\u05e8-\u05e4\u05d0\u05e8\u05dd", "name:ru": "\u0421\u0443\u043f\u0435\u0440-\u0424\u0430\u0440\u043c", "ref:csioz": "1200542"}}, {"type": "node", "id": 9562124714, "lat": 54.1053001, "lon": 22.9313946, "tags": {"addr:city": "Suwa\u0142ki", "addr:city:simc": "0977456", "addr:housenumber": "93A", "addr:postcode": "16-400", "addr:street": "Teofila Noniewicza", "amenity": "pharmacy", "healthcare": "pharmacy", "name": "Gemini", "ref:csioz": "1176799"}}, {"type": "node", "id": 9562124715, "lat": 54.1196244, "lon": 22.9254054, "tags": {"addr:city": "Suwa\u0142ki", "addr:housenumber": "60", "addr:postcode": "16-400", "addr:street": "Szpitalna", "amenity": "pharmacy", "healthcare": "pharmacy", "name": "Apteka ca\u0142odobowa (Muracka, Makarewicz)", "ref:csioz": "1110796"}}, {"type": "node", "id": 9562124716, "lat": 54.1235489, "lon": 22.9341235, "tags": {"addr:city": "Suwa\u0142ki", "addr:housenumber": "10", "addr:postcode": "16-400", "addr:street": "Alfreda Lity\u0144skiego", "amenity": "pharmacy", "healthcare": "pharmacy", "name": "Apteka (W. Korzeniowski)", "ref:csioz": "1025007"}}, {"type": "node", "id": 9562144617, "lat": 54.1218131, "lon": 22.9352373, "tags": {"addr:city": "Suwa\u0142ki", "addr:housenumber": "9", "addr:postcode": "16-400", "addr:street": "Aleksandra Putry", "amenity": "pharmacy", "healthcare": "pharmacy", "name": "Apteka (Samczuk i wsp\u00f3lnicy)", "ref:csioz": "1023591"}}, {"type": "node", "id": 9562144618, "lat": 54.1015849, "lon": 22.9285138, "tags": {"addr:city": "Suwa\u0142ki", "addr:city:simc": "0977456", "addr:housenumber": "78", "addr:postcode": "16-400", "addr:street": "Tadeusza Ko\u015bciuszki", "amenity": "pharmacy", "healthcare": "pharmacy", "name": "M. Suchocka", "ref:csioz": "1023569"}}, {"type": "node", "id": 9562144619, "lat": 54.105809, "lon": 22.932012, "tags": {"addr:city": "Suwa\u0142ki", "addr:city:simc": "0977456", "addr:housenumber": "48", "addr:postcode": "16-400", "addr:street": "Teofila Noniewicza", "amenity": "pharmacy", "healthcare": "pharmacy", "name": "Cefarm", "ref:csioz": "1022903"}}, {"type": "node", "id": 9562144620, "lat": 54.0996802, "lon": 22.9341075, "tags": {"addr:city": "Suwa\u0142ki", "addr:city:simc": "0977456", "addr:housenumber": "2", "addr:postcode": "16-400", "addr:street": "Marii Konopnickiej", "amenity": "pharmacy", "healthcare": "pharmacy", "name": "Cefarm", "ref:csioz": "1022868"}}, {"type": "node", "id": 9562144622, "lat": 54.1037431, "lon": 22.9312445, "tags": {"addr:city": "Suwa\u0142ki", "addr:city:simc": "0977456", "addr:housenumber": "85D", "addr:postcode": "16-400", "addr:street": "Teofila Noniewicza", "amenity": "pharmacy", "healthcare": "pharmacy", "name": "Dbam o Zdrowie (Doz)", "ref:csioz": "1019495"}}, {"type": "node", "id": 9562144623, "lat": 54.1038249, "lon": 22.933888, "tags": {"addr:city": "Suwa\u0142ki", "addr:city:simc": "0977456", "addr:housenumber": "42A", "addr:postcode": "16-400", "addr:street": "Teofila Noniewicza", "amenity": "pharmacy", "healthcare": "pharmacy", "name": "Nowa Farmacja", "ref:csioz": "1019292"}}, {"type": "node", "id": 9562144624, "lat": 54.1149433, "lon": 22.9471141, "tags": {"addr:city": "Suwa\u0142ki", "addr:housenumber": "40", "addr:postcode": "16-400", "addr:street": "Klonowa", "amenity": "pharmacy", "healthcare": "pharmacy", "name": "Apteka Z R\u00f3\u017c\u0105", "ref:csioz": "1110730"}}, {"type": "node", "id": 9562144625, "lat": 54.1042349, "lon": 22.9367282, "tags": {"addr:city": "Suwa\u0142ki", "addr:city:simc": "0977456", "addr:housenumber": "2B", "addr:postcode": "16-400", "addr:street": "Utrata", "amenity": "pharmacy", "healthcare": "pharmacy", "name": "Apteka (D. Tarasiewicz-Ku\u017amicka)", "ref:csioz": "1025064"}}, {"type": "node", "id": 9562144626, "lat": 54.1059648, "lon": 22.9244334, "tags": {"addr:city": "Suwa\u0142ki", "addr:city:simc": "0977456", "addr:housenumber": "45", "addr:postcode": "16-400", "addr:street": "Emilii Plater", "amenity": "pharmacy", "healthcare": "pharmacy", "name": "Apteka (I. Perkowska)", "ref:csioz": "1025041"}}, {"type": "node", "id": 9562144628, "lat": 54.0995357, "lon": 22.9247592, "tags": {"addr:city": "Suwa\u0142ki", "addr:city:simc": "0977456", "addr:housenumber": "4", "addr:postcode": "16-400", "addr:street": "Wawrzy\u0144ca Ga\u0142aja", "amenity": "pharmacy", "healthcare": "pharmacy", "name": "Im. \u015aw.Kosmy i Damiana", "ref:csioz": "1021082"}}, {"type": "node", "id": 9562144629, "lat": 54.1085326, "lon": 22.9270633, "tags": {"addr:city": "Suwa\u0142ki", "addr:housenumber": "103", "addr:postcode": "16-400", "addr:street": "Tadeusza Ko\u015bciuszki", "amenity": "pharmacy", "brand": "Dr. Max", "brand:wikidata": "Q56317371", "healthcare": "pharmacy", "name": "Dr. Max", "ref:csioz": "1019173"}}, {"type": "node", "id": 9562144630, "lat": 54.0992522, "lon": 22.9369336, "tags": {"addr:city": "Suwa\u0142ki", "addr:city:simc": "0977456", "addr:housenumber": "25", "addr:postcode": "16-400", "addr:street": "Ludwika Wary\u0144skiego", "amenity": "pharmacy", "healthcare": "pharmacy", "name": "Apteka (M. Wilk)", "ref:csioz": "1017600"}}, {"type": "node", "id": 9562144631, "lat": 54.0989337, "lon": 22.9366249, "tags": {"addr:city": "Suwa\u0142ki", "addr:city:simc": "0977456", "addr:housenumber": "21", "addr:postcode": "16-400", "addr:street": "1 Maja", "amenity": "pharmacy", "healthcare": "pharmacy", "name": "Nowa Farmacja", "ref:csioz": "1017226"}}, {"type": "node", "id": 9562144632, "lat": 54.1205375, "lon": 22.9230267, "tags": {"addr:city": "Suwa\u0142ki", "addr:flats": "5", "addr:housenumber": "71", "addr:postcode": "16-400", "addr:street": "Szpitalna", "amenity": "pharmacy", "name": "Apteka (Muracka, Makarewicz)", "ref:csioz": "1016217"}}, {"type": "node", "id": 9568072180, "lat": 53.8369939, "lon": 22.9902784, "tags": {"addr:city": "August\u00f3w", "addr:housenumber": "8c", "addr:postcode": "16-300", "addr:street": "Majora Henryka Sucharskiego", "amenity": "pharmacy", "name": "Apteka Przy Basenie", "ref:csioz": "1214014"}}, {"type": "node", "id": 9568072184, "lat": 53.8433812, "lon": 22.9823808, "tags": {"addr:city": "August\u00f3w", "addr:flats": "1", "addr:housenumber": "17", "addr:postcode": "16-300", "addr:street": "3 Maja", "amenity": "pharmacy", "name": "Nad Jeziorami", "ref:csioz": "1175085"}}, {"type": "node", "id": 9568072185, "lat": 53.8512967, "lon": 22.9935845, "tags": {"addr:city": "August\u00f3w", "addr:housenumber": "12", "addr:postcode": "16-300", "addr:street": "Szpitalna", "amenity": "pharmacy", "dispensing": "yes", "healthcare": "pharmacy", "name": "Melissa", "ref:csioz": "1193082"}}, {"type": "node", "id": 9568072188, "lat": 53.845424, "lon": 22.9824473, "tags": {"addr:city": "August\u00f3w", "addr:housenumber": "12C", "addr:postcode": "16-300", "addr:street": "Mostowa", "amenity": "pharmacy", "name": "Apteka (A. Harabuda-Mateuszuk)", "ref:csioz": "1024909"}}, {"type": "node", "id": 9568072190, "lat": 53.8385138, "lon": 23.0013596, "tags": {"addr:city": "August\u00f3w", "addr:housenumber": "55", "addr:postcode": "16-300", "addr:street": "Ludwika Wary\u0144skiego", "amenity": "pharmacy", "name": "Apteka (M. Otto)", "ref:csioz": "1024018"}}, {"type": "node", "id": 9568072192, "lat": 53.9051184, "lon": 23.2679799, "tags": {"addr:housenumber": "53D", "addr:place": "P\u0142aska", "addr:postcode": "16-326", "amenity": "pharmacy", "name": "Apteka (J. Krutul)", "ref:csioz": "1020641"}}, {"type": "node", "id": 9568072193, "lat": 53.8490483, "lon": 22.9952481, "tags": {"addr:city": "August\u00f3w", "addr:housenumber": "12", "addr:postcode": "16-300", "addr:street": "Marii Konopnickiej", "amenity": "pharmacy", "name": "Apteka (H. Otto)", "ref:csioz": "1019237"}}, {"type": "node", "id": 9568072194, "lat": 53.9396109, "lon": 22.9793294, "tags": {"addr:housenumber": "54", "addr:place": "Nowinka", "addr:postcode": "16-304", "amenity": "pharmacy", "name": "Punkt Apteczny (I. Winiewicz)", "ref:csioz": "1015756"}}, {"type": "node", "id": 10274200864, "lat": 54.1196223, "lon": 22.9400322, "tags": {"amenity": "pharmacy", "dispensing": "yes", "healthcare": "pharmacy", "name": "Arnika", "ref:csioz": "1016884"}}, {"type": "node", "id": 12068080903, "lat": 54.1186351, "lon": 22.9338138}, {"type": "node", "id": 12068080911, "lat": 54.1187056, "lon": 22.933708}, {"type": "node", "id": 12068080913, "lat": 54.1187584, "lon": 22.9335258}, {"type": "node", "id": 12068080914, "lat": 54.1187583, "lon": 22.9335276}, {"type": "node", "id": 12068080915, "lat": 54.1187538, "lon": 22.9336793}, {"type": "way", "id": 225926062, "nodes": [2347666833, 2347666802, 2347666775, 2347666750, 2347666731, 2347033894, 2347666746, 2347666765, 2347666800, 2347666829, 2347666846, 2347666873, 2347666899, 2347666919, 2347666942, 2347666978, 2347666833], "tags": {"amenity": "pharmacy", "brand": "Super-Pharm", "brand:en": "Super-Pharm", "brand:he": "\u05e1\u05d5\u05e4\u05e8-\u05e4\u05d0\u05e8\u05dd", "brand:wikidata": "Q13220217", "dispensing": "yes", "healthcare": "pharmacy", "indoor": "room", "level": "0", "name": "Super-Pharm", "name:ar": "\u0633\u0648\u0628\u064a\u0631 \u0641\u0627\u0631\u0645", "name:en": "Super-Pharm", "name:he": "\u05e1\u05d5\u05e4\u05e8-\u05e4\u05d0\u05e8\u05dd", "name:ru": "\u0421\u0443\u043f\u0435\u0440-\u0424\u0430\u0440\u043c", "ref": "103", "ref:csioz": "1200542"}}, {"type": "way", "id": 244871924, "nodes": [12068080903, 2521435853, 2521435851, 2521435849, 2521435861, 12068080903], "tags": {"addr:city": "Suwa\u0142ki", "addr:housenumber": "13", "addr:postcode": "16-400", "addr:street": "Wincentego Witosa", "amenity": "pharmacy", "branch": "(Doz) homeopatyczna", "brand": "Dbam o Zdrowie", "brand:wikidata": "Q62563833", "building": "yes", "building:levels": "3", "healthcare": "pharmacy", "name": "Dbam o Zdrowie", "ref:csioz": "1021183", "short_name": "DOZ", "source:building": "BDOT"}}, {"type": "way", "id": 244871989, "nodes": [12068080914, 12068080915, 2521435895, 12068080911, 2521435900, 12068080913, 12068080914], "tags": {"addr:city": "Suwa\u0142ki", "addr:housenumber": "6", "addr:postcode": "16-400", "addr:street": "Antoniego Patli", "amenity": "pharmacy", "building": "yes", "building:levels": "2", "healthcare": "pharmacy", "name": "Apteka (J. Korzeniowska)", "ref:csioz": "1025029", "source:building": "BDOT"}}]}