{"version": 0.6, "generator": "Overpass API 0.7.62.8 e802775f", "osm3s": {"timestamp_osm_base": "2025-10-06T08:23:05Z", "copyright": "The data included in this document is from www.openstreetmap.org. The data is made available under ODbL."}, "elements": [{"type": "node", "id": 597326243, "lat": 54.7941615, "lon": 18.4097379, "tags": {"addr:city": "W\u0142adys\u0142awowo", "addr:housenumber": "19", "addr:postcode": "84-120", "addr:street": "Genera\u0142a J\u00f3zefa Hallera", "amenity": "pharmacy", "dispensing": "yes", "healthcare": "pharmacy", "name": "Pod Filarami", "opening_hours": "Mo-Sa 08:00-21:00; Su 10:00-18:00", "ref:csioz": "1031414"}}, {"type": "node", "id": 597326274, "lat": 54.7903428, "lon": 18.4053131, "tags": {"addr:city": "W\u0142adys\u0142awowo", "addr:housenumber": "17", "addr:postcode": "84-120", "addr:street": "Niepodleg\u0142o\u015bci", "amenity": "pharmacy", "dispensing": "yes", "healthcare": "pharmacy", "name": "Domowa", "ref:csioz": "1175393"}}, {"type": "node", "id": 1193853702, "lat": 54.7158037, "lon": 18.4111528, "tags": {"addr:city": "Puck", "addr:housenumber": "9", "addr:postcode": "84-100", "addr:street": "Wejhera", "amenity": "pharmacy", "name": "Dy\u017curna", "phone": "+48587815130", "ref:csioz": "1032059", "wheelchair": "yes"}}, {"type": "node", "id": 1354571291, "lat": 54.794045, "lon": 18.4027675, "tags": {"addr:city": "W\u0142adys\u0142awowo", "addr:housenumber": "1A", "addr:postcode": "84-120", "addr:street": "Genera\u0142a J\u00f3zefa Hallera", "amenity": "pharmacy", "healthcare": "pharmacy", "name": "Apteka Dr. Max", "opening_hours": "Mo-Su,PH 08:00-20:00", "ref:csioz": "1033088"}}, {"type": "node", "id": 2018424894, "lat": 54.7199837, "lon": 18.4109082, "tags": {"addr:city": "Puck", "addr:housenumber": "12", "addr:postcode": "84-100", "addr:street": "Stary Rynek", "amenity": "pharmacy", "brand": "Dbam o Zdrowie", "brand:wikidata": "Q62563833", "dispensing": "yes", "healthcare": "pharmacy", "name": "Dbam o Zdrowie", "phone": "800110110", "ref:csioz": "1026732", "short_name": "DOZ"}}, {"type": "node", "id": 2188533489, "lat": 54.7555562, "lon": 18.2625352, "tags": {"addr:city": "Starzyno", "addr:housenumber": "2", "addr:postcode": "84-107", "addr:street": "D\u0142uga", "amenity": "pharmacy", "dispensing": "yes", "healthcare": "pharmacy", "name": "Medyk", "ref:csioz": "1027810"}}, {"type": "node", "id": 2983357774, "lat": 54.605181, "lon": 18.229624}, {"type": "node", "id": 2983357779, "lat": 54.6052079, "lon": 18.2294754}, {"type": "node", "id": 2983357785, "lat": 54.6052282, "lon": 18.2294852}, {"type": "node", "id": 2983357786, "lat": 54.6052304, "lon": 18.2294777}, {"type": "node", "id": 2983357791, "lat": 54.6052843, "lon": 18.229508}, {"type": "node", "id": 2983357792, "lat": 54.6053048, "lon": 18.229692}, {"type": "node", "id": 2983357793, "lat": 54.605305, "lon": 18.2295324}, {"type": "node", "id": 2983357794, "lat": 54.6053119, "lon": 18.2296652}, {"type": "node", "id": 2983357795, "lat": 54.6053155, "lon": 18.2295592}, {"type": "node", "id": 2983357796, "lat": 54.6053177, "lon": 18.2296318}, {"type": "node", "id": 2983357797, "lat": 54.6053198, "lon": 18.2295988}, {"type": "node", "id": 3433935052, "lat": 54.8324369, "lon": 18.2983358}, {"type": "node", "id": 3433935055, "lat": 54.8324671, "lon": 18.2984354}, {"type": "node", "id": 3433935056, "lat": 54.8325069, "lon": 18.2982719}, {"type": "node", "id": 3433935058, "lat": 54.8325306, "lon": 18.2983501}, {"type": "node", "id": 3433935059, "lat": 54.8325304, "lon": 18.2983662}, {"type": "node", "id": 3433935060, "lat": 54.8325247, "lon": 18.298383}, {"type": "node", "id": 3507201254, "lat": 54.5941018, "lon": 18.3575677, "tags": {"addr:city": "Reda", "addr:housenumber": "35E", "addr:postcode": "84-240", "addr:street": "Obwodowa", "amenity": "pharmacy", "dispensing": "yes", "healthcare": "pharmacy", "name": "Rodzinna", "ref:csioz": "1030587"}}, {"type": "node", "id": 3986874134, "lat": 54.6024499, "lon": 18.2256715}, {"type": "node", "id": 4185068989, "lat": 54.5959041, "lon": 18.3551232, "tags": {"addr:city": "Reda", "addr:housenumber": "14", "addr:postcode": "84-240", "addr:street": "Franciszka Fenikowskiego", "amenity": "pharmacy", "dispensing": "yes", "healthcare": "pharmacy", "name": "Starowiejska", "opening_hours": "Mo-Sa 08:00-20:00; Su 09:00-16:00", "phone": "+48 58 740 60 46", "ref:csioz": "1188027", "website": "http://aptekastarowiejska.pl/"}}, {"type": "node", "id": 4322762589, "lat": 54.7895821, "lon": 18.4072272, "tags": {"addr:city": "W\u0142adys\u0142awowo", "addr:housenumber": "2A", "addr:postcode": "84-120", "addr:street": "Gda\u0144ska", "amenity": "pharmacy", "dispensing": "yes", "email": "wladyslawowo@wdoz.pl", "healthcare": "pharmacy", "name": "Wracam Do Zdrowia", "opening_hours": "Mo-Fr 08:00-20:00; Sa 08:00-16:00; Su off", "phone": "+48 798 002 397", "ref:csioz": "1119397", "website": "https://wracamdozdrowia.pl/", "wheelchair": "yes"}}, {"type": "node", "id": 4552341145, "lat": 54.7176032, "lon": 18.4117695, "tags": {"addr:city": "Puck", "addr:housenumber": "7", "addr:postcode": "84-100", "addr:street": "Wojska Polskiego", "amenity": "pharmacy", "healthcare": "pharmacy", "name": "Pod Wie\u017c\u0105", "ref:csioz": "1029264"}}, {"type": "node", "id": 4552751589, "lat": 54.7205726, "lon": 18.4134546, "tags": {"addr:city": "Puck", "addr:housenumber": "1", "addr:postcode": "84-100", "addr:street": "Jana III Sobieskiego", "amenity": "pharmacy", "healthcare": "pharmacy", "name": "Na Zdrowie", "ref:csioz": "1033167"}}, {"type": "node", "id": 4780538169, "lat": 54.6034292, "lon": 18.350531, "tags": {"addr:city": "Reda", "addr:housenumber": "1", "addr:postcode": "84-240", "addr:street": "\u0141\u0105kowa", "amenity": "pharmacy", "dispensing": "yes", "healthcare": "pharmacy", "name": "\u0141\u0105kowa", "ref:csioz": "1026331"}}, {"type": "node", "id": 4988257518, "lat": 54.7796448, "lon": 18.1605034, "tags": {"addr:city": "Krokowa", "addr:housenumber": "4", "addr:postcode": "84-110", "addr:street": "\u017barnowiecka", "amenity": "pharmacy", "brand": "Dbam o Zdrowie", "brand:wikidata": "Q62563833", "healthcare": "pharmacy", "name": "Dbam o Zdrowie", "ref:csioz": "1223058", "short_name": "DOZ"}}, {"type": "node", "id": 4988258521, "lat": 54.7788082, "lon": 18.1612954, "tags": {"addr:city": "Krokowa", "addr:housenumber": "25", "addr:postcode": "84-110", "addr:street": "\u017barnowiecka", "amenity": "pharmacy", "name": "S\u0142oneczna", "opening_hours": "Mo-Fr 09:00-18:00, Sa 9:00-12:00", "phone": "+48 58673 7639", "ref:csioz": "1028762"}}, {"type": "node", "id": 5032377562, "lat": 54.6024426, "lon": 18.2333325, "tags": {"addr:city": "Wejherowo", "addr:housenumber": "237", "addr:postcode": "84-200", "addr:street": "Jana III Sobieskiego", "amenity": "pharmacy", "dispensing": "yes", "name": "W Pastor\u00f3wce", "ref:csioz": "1027807"}}, {"type": "node", "id": 5265548486, "lat": 54.6026243, "lon": 18.3503747, "tags": {"addr:city": "Reda", "addr:housenumber": "7", "addr:postcode": "84-240", "addr:street": "Gda\u0144ska", "amenity": "pharmacy", "dispensing": "yes", "drive_through": "no", "healthcare": "pharmacy", "name": "Wracam Do Zdrowia", "opening_hours": "Mo-Fr 08:00-20:00; Sa 08:00-15:00", "ref:csioz": "1032158", "wheelchair": "yes"}}, {"type": "node", "id": 5425462230, "lat": 54.7176994, "lon": 18.3913954, "tags": {"addr:city": "Puck", "addr:housenumber": "1", "addr:postcode": "84-100", "addr:street": "\u017barnowiecka", "amenity": "pharmacy", "healthcare": "pharmacy", "name": "Rodzinna", "phone": "+48 57 284 63 00", "ref:csioz": "1201784"}}, {"type": "node", "id": 5481052566, "lat": 54.6024422, "lon": 18.2257239}, {"type": "node", "id": 5481052567, "lat": 54.602528, "lon": 18.225761}, {"type": "node", "id": 5481052568, "lat": 54.6025529, "lon": 18.2255901}, {"type": "node", "id": 5481052569, "lat": 54.6025257, "lon": 18.2255281}, {"type": "node", "id": 5481052570, "lat": 54.60243, "lon": 18.2254867}, {"type": "node", "id": 5481052571, "lat": 54.6024059, "lon": 18.225652}, {"type": "node", "id": 5653894070, "lat": 54.6046446, "lon": 18.2521731, "tags": {"addr:city": "Wejherowo", "addr:housenumber": "28", "addr:postcode": "84-200", "addr:street": "I Brygady Pancernej Wojska Polskiego", "amenity": "pharmacy", "dispensing": "yes", "drive_through": "no", "healthcare": "pharmacy", "name": "Centrum", "ref:csioz": "1030753", "source": "Rejestr Aptek MZ", "website": "https://www.apte.pl/strony/apteka_centrum_wejherowo.html"}}, {"type": "node", "id": 5717696405, "lat": 54.6037438, "lon": 18.2278916, "tags": {"addr:city": "Wejherowo", "addr:housenumber": "3", "addr:postcode": "84-200", "addr:street": "Dworcowa", "amenity": "pharmacy", "dispensing": "yes", "drive_through": "no", "healthcare": "pharmacy", "name": "Gemini", "phone": "58 677 06 60", "ref:csioz": "1029068"}}, {"type": "node", "id": 5736839730, "lat": 54.601465, "lon": 18.2403769, "tags": {"addr:city": "Wejherowo", "addr:housenumber": "3", "addr:postcode": "84-200", "addr:street": "Plac Jakuba Wejhera", "amenity": "pharmacy", "brand": "Dbam o Zdrowie", "brand:wikidata": "Q62563833", "dispensing": "yes", "healthcare": "pharmacy", "name": "Dbam o Zdrowie", "opening_hours": "24/7", "operator": "DOZ.pl Sp. z o.o.", "ref:csioz": "1027552", "website": "https://www.doz.pl/apteki/a69860-DOZ_Apteka_Dbam_o_Zdrowie"}}, {"type": "node", "id": 5890591694, "lat": 54.719028, "lon": 18.392355, "tags": {"addr:city": "Puck", "addr:housenumber": "52", "addr:postcode": "84-100", "addr:street": "10 Lutego", "amenity": "pharmacy", "brand": "Dbam o Zdrowie", "brand:wikidata": "Q62563833", "dispensing": "yes", "healthcare": "pharmacy", "name": "Dbam o Zdrowie", "operator": "DOZ.pl Sp. z o.o.", "phone": "501865136", "ref:csioz": "1226931", "website": "https://www.doz.pl/apteki/a172554-Doz%20Apteka%20dbam%20o%20zdrowie%20Nad%20Zatok%C4%85%20Puck%C4%85"}}, {"type": "node", "id": 5908812315, "lat": 54.7998461, "lon": 18.3927926, "tags": {"addr:city": "W\u0142adys\u0142awowo", "addr:housenumber": "16A", "addr:postcode": "84-120", "addr:street": "S\u0142oneczna", "amenity": "pharmacy", "dispensing": "yes", "healthcare": "pharmacy", "name": "Klifowa", "ref:csioz": "1028959"}}, {"type": "node", "id": 6360549579, "lat": 54.6039571, "lon": 18.2421552, "tags": {"addr:city": "Wejherowo", "addr:housenumber": "20", "addr:postcode": "84-200", "addr:street": "Pucka", "amenity": "pharmacy", "dispensing": "yes", "healthcare": "pharmacy", "name": "Bursztynowa", "operator": "Apte.pl A.T. HINZ Sp\u00f3\u0142ka Jawna", "phone": "58 672 03 22", "ref:csioz": "1031161"}}, {"type": "node", "id": 6975837834, "lat": 54.6050995, "lon": 18.2533803, "tags": {"addr:city": "Wejherowo", "addr:housenumber": "10", "addr:postcode": "84-200", "addr:street": "Kociewska", "amenity": "pharmacy", "dispensing": "yes", "healthcare": "pharmacy", "name": "Gda\u0144ska", "ref:csioz": "1031173"}}, {"type": "node", "id": 9545802961, "lat": 54.7179726, "lon": 18.4056103, "tags": {"addr:city": "Puck", "addr:housenumber": "4", "addr:postcode": "84-100", "addr:street": "Miko\u0142aja Kopernika", "amenity": "pharmacy", "healthcare": "pharmacy", "name": "Wracam Do Zdrowia", "ref:csioz": "1223750"}}, {"type": "node", "id": 9545802962, "lat": 54.7160624, "lon": 18.4053732, "tags": {"addr:city": "Puck", "addr:housenumber": "16", "addr:postcode": "84-100", "addr:street": "Wejherowska", "amenity": "pharmacy", "healthcare": "pharmacy", "name": "Dy\u017curna", "ref:csioz": "1217527"}}, {"type": "node", "id": 9545802964, "lat": 54.6751698, "lon": 18.418444, "tags": {"addr:city": "\u017belistrzewo", "addr:housenumber": "1", "addr:postcode": "84-122", "addr:street": "Sportowa", "amenity": "pharmacy", "healthcare": "pharmacy", "name": "Kaszub", "ref:csioz": "1032319"}}, {"type": "node", "id": 9545802966, "lat": 54.7864354, "lon": 18.326292, "tags": {"addr:city": "Strzelno", "addr:city:simc": "0170831", "addr:housenumber": "10", "addr:postcode": "84-103", "addr:street": "Ko\u015bcielna", "amenity": "pharmacy", "name": "Rumianek", "ref:csioz": "1033817"}}, {"type": "node", "id": 9556623259, "lat": 54.6016318, "lon": 18.1543615, "tags": {"addr:city": "Go\u015bcicino", "addr:housenumber": "8A", "addr:postcode": "84-241", "addr:street": "Wiejska", "amenity": "pharmacy", "dispensing": "yes", "name": "Go\u015bcinna", "ref:csioz": "1230881"}}, {"type": "node", "id": 9556623309, "lat": 54.6073517, "lon": 18.2359105, "tags": {"addr:city": "Wejherowo", "addr:housenumber": "5", "addr:postcode": "84-200", "addr:street": "S\u0142oneczna", "amenity": "pharmacy", "dispensing": "yes", "name": "S\u0142oneczna", "ref:csioz": "1187975"}}, {"type": "node", "id": 9556623312, "lat": 54.604688, "lon": 18.2536704, "tags": {"addr:city": "Wejherowo", "addr:housenumber": "4C", "addr:postcode": "84-200", "addr:street": "Kaszubska", "amenity": "pharmacy", "dispensing": "yes", "name": "Gemini", "ref:csioz": "1031581"}}, {"type": "node", "id": 9556623315, "lat": 54.6089797, "lon": 18.2468611, "tags": {"addr:city": "Wejherowo", "addr:housenumber": "2A", "addr:postcode": "84-200", "addr:street": "Starom\u0142y\u0144ska", "amenity": "pharmacy", "brand": "Dr. Max", "brand:wikidata": "Q56317371", "brand:wikipedia": "fr:Dr.Max", "dispensing": "yes", "healthcare": "pharmacy", "name": "Dr. Max", "ref:csioz": "1030132"}}, {"type": "node", "id": 9556689718, "lat": 54.6023824, "lon": 18.3517918, "tags": {"addr:city": "Reda", "addr:housenumber": "6", "addr:postcode": "84-240", "addr:street": "Aleja Jana Paw\u0142a II", "amenity": "pharmacy", "dispensing": "yes", "healthcare": "pharmacy", "name": "Lipowa", "ref:csioz": "1122245"}}, {"type": "node", "id": 9556689720, "lat": 54.6134647, "lon": 18.1773948, "tags": {"addr:city": "Bolszewo", "addr:housenumber": "3A", "addr:postcode": "84-239", "addr:street": "Zamostna", "amenity": "pharmacy", "brand": "Dbam o Zdrowie", "brand:wikidata": "Q62563833", "dispensing": "yes", "healthcare": "pharmacy", "name": "Dbam o Zdrowie", "ref:csioz": "1033353"}}, {"type": "node", "id": 9556689721, "lat": 54.6132062, "lon": 18.1771602, "tags": {"addr:city": "Bolszewo", "addr:housenumber": "3C", "addr:postcode": "84-239", "addr:street": "Zamostna", "amenity": "pharmacy", "dispensing": "yes", "name": "Starowiejska", "ref:csioz": "1033271"}}, {"type": "node", "id": 9556689729, "lat": 54.5661042, "lon": 18.1042355, "tags": {"addr:city": "Luzino", "addr:housenumber": "1", "addr:postcode": "84-242", "addr:street": "M\u0142y\u0144ska", "amenity": "pharmacy", "dispensing": "yes", "name": "Przystanek", "opening_hours": "Mo-Fr 08:00-19:00; Sa 08:00-15:00", "ref:csioz": "1185929"}}, {"type": "node", "id": 9556689730, "lat": 54.5609975, "lon": 18.1057261, "tags": {"addr:city": "Luzino", "addr:housenumber": "4", "addr:postcode": "84-242", "addr:street": "Ko\u015bcielna", "amenity": "pharmacy", "dispensing": "yes", "fixme": "Dok\u0142adna lokalizacja do weryfikacji. Wed\u0142ug adresu w Rejestrze Aptek MZ jest to ko\u015bci\u00f3\u0142.", "name": "\u015aw. Wawrzy\u0144ca", "ref:csioz": "1028618"}}, {"type": "node", "id": 9556689733, "lat": 54.5659854, "lon": 18.1055209, "tags": {"addr:city": "Luzino", "addr:housenumber": "5A", "addr:postcode": "84-242", "addr:street": "M\u0142y\u0144ska", "amenity": "pharmacy", "dispensing": "yes", "name": "Wracam Do Zdrowia", "ref:csioz": "1032898"}}, {"type": "node", "id": 9556689734, "lat": 54.5665163, "lon": 18.1036881, "tags": {"addr:city": "Luzino", "addr:housenumber": "8", "addr:postcode": "84-242", "addr:street": "Ofiar Stutthofu", "amenity": "pharmacy", "dispensing": "yes", "healthcare": "pharmacy", "name": "Starowiejska", "ref:csioz": "1031535"}}, {"type": "node", "id": 10210551373, "lat": 54.6087674, "lon": 18.2220249, "tags": {"addr:city": "Wejherowo", "addr:housenumber": "1B", "addr:postcode": "84-200", "addr:street": "Przemys\u0142owa", "amenity": "pharmacy", "dispensing": "yes", "healthcare": "pharmacy", "name": "Gemini", "ref:csioz": "1231325"}}, {"type": "node", "id": 11358793187, "lat": 54.6197863, "lon": 18.1881998, "tags": {"addr:city": "Bolszewo", "addr:housenumber": "16A/4", "addr:postcode": "84-239", "addr:street": "S\u0142oneczna", "amenity": "pharmacy", "brand": "Dbam o Zdrowie", "brand:wikidata": "Q62563833", "healthcare": "pharmacy", "name": "Dbam o Zdrowie", "short_name": "DOZ"}}, {"type": "node", "id": 13189369437, "lat": 54.7845935, "lon": 18.3250952, "tags": {"addr:city": "Strzelno", "addr:housenumber": "6", "addr:postcode": "84-103", "addr:street": "Ba\u0142tycka", "amenity": "pharmacy", "dispensing": "yes", "healthcare": "pharmacy", "name": "+A Ba\u0142tycka", "opening_hours": "Mo-Fr 08:00-18:00; Sa 09:00-17:00", "operator": "Apteka Ba\u0142tycka"}}, {"type": "way", "id": 149092047, "nodes": [2983357795, 2983357793, 2983357791, 2983357786, 2983357785, 2983357779, 2983357774, 2983357792, 2983357794, 2983357796, 2983357797, 2983357795], "tags": {"addr:city": "Wejherowo", "addr:housenumber": "16", "addr:postcode": "84-200", "addr:street": "Dworcowa", "amenity": "pharmacy", "brand": "Dr. Max", "brand:wikidata": "Q56317371", "brand:wikipedia": "fr:Dr.Max", "building": "yes", "dispensing": "yes", "healthcare": "pharmacy", "name": "Dr. Max", "ref:csioz": "1212239", "website": "https://www.drmax.pl/"}}, {"type": "way", "id": 336348521, "nodes": [3433935055, 3433935052, 3433935056, 3433935058, 3433935059, 3433935060, 3433935055], "tags": {"addr:city": "Jastrz\u0119bia G\u00f3ra", "addr:housenumber": "9", "addr:postcode": "84-104", "addr:street": "Kr\u00f3lewska", "amenity": "pharmacy", "building": "yes", "dispensing": "yes", "healthcare": "pharmacy", "name": "Bursztynowa", "ref:csioz": "1029403"}}, {"type": "way", "id": 570049119, "nodes": [5481052566, 5481052567, 5481052568, 5481052569, 5481052570, 5481052571, 3986874134, 5481052566], "tags": {"addr:city": "Wejherowo", "addr:housenumber": "2B", "addr:postcode": "84-200", "addr:street": "Bukowa", "amenity": "pharmacy", "building": "yes", "dispensing": "yes", "drive_through": "no", "healthcare": "pharmacy", "name": "Gemini", "operator": "Gemini Hutter Sp. z o.o.", "ref:csioz": "1225069", "website": "https://www.aptekagemini.pl/"}}]}