{"version": 0.6, "generator": "Overpass API 0.7.62.8 e802775f", "osm3s": {"timestamp_osm_base": "2025-10-06T09:01:48Z", "copyright": "The data included in this document is from www.openstreetmap.org. The data is made available under ODbL."}, "elements": [{"type": "node", "id": 11659258370, "lat": 39.0365657, "lon": 28.657772, "tags": {"amenity": "pharmacy", "name": "Hastane Eczanesi", "phone": "+90 236 462 5202"}}, {"type": "node", "id": 11659267369, "lat": 39.0906596, "lon": 28.9710352, "tags": {"amenity": "pharmacy", "healthcare": "pharmacy", "name": "Simav Eczanesi", "phone": "+90 274 513 3013"}}, {"type": "node", "id": 11659267370, "lat": 39.088831, "lon": 28.9838849, "tags": {"amenity": "pharmacy", "healthcare": "pharmacy", "name": "Derman Eczanesi", "phone": "+90 274 513 1376"}}, {"type": "node", "id": 11659267371, "lat": 39.0894107, "lon": 28.9799976, "tags": {"amenity": "pharmacy", "healthcare": "pharmacy", "name": "Sayar Eczanesi", "phone": "+90 274 513 5566"}}, {"type": "node", "id": 11659267372, "lat": 39.0886873, "lon": 28.9783098, "tags": {"amenity": "pharmacy", "healthcare": "pharmacy", "name": "\u015eule Eczanesi", "phone": "+90 274 513 6839"}}, {"type": "node", "id": 11659267373, "lat": 39.0892144, "lon": 28.9784322, "tags": {"amenity": "pharmacy", "healthcare": "pharmacy", "name": "Hayat Eczanesi", "phone": "+90 274 513 1401"}}, {"type": "node", "id": 11659267374, "lat": 39.0903336, "lon": 28.9782846, "tags": {"amenity": "pharmacy", "healthcare": "pharmacy", "name": "Ali K\u00f6r\u00fck Eczanesi", "phone": "+90 274 513 1333"}}, {"type": "node", "id": 11659267469, "lat": 39.0923606, "lon": 28.9850609, "tags": {"amenity": "pharmacy", "healthcare": "pharmacy", "name": "\u015eekercio\u011flu Eczanesi", "phone": "+90 274 513 8363"}}, {"type": "node", "id": 11659267470, "lat": 39.0886093, "lon": 28.9834264, "tags": {"amenity": "pharmacy", "healthcare": "pharmacy", "name": "Ya\u011fc\u0131lar Eczanesi", "phone": "+90 274 513 9787"}}, {"type": "node", "id": 11659267471, "lat": 39.0885845, "lon": 28.9827886, "tags": {"amenity": "pharmacy", "healthcare": "pharmacy", "name": "Zafer Eczanesi", "phone": "+90 274 513 3147"}}, {"type": "node", "id": 11659267472, "lat": 39.087412, "lon": 28.9805918, "tags": {"amenity": "pharmacy", "healthcare": "pharmacy", "name": "Simav Anadolu Eczanesi", "phone": "+90 274 513 7997"}}, {"type": "node", "id": 11659267473, "lat": 39.0887258, "lon": 28.9798257, "tags": {"amenity": "pharmacy", "healthcare": "pharmacy", "name": "Halk Eczanesi", "phone": "+90 274 513 9421"}}, {"type": "node", "id": 11659267474, "lat": 39.0884128, "lon": 28.9783214, "tags": {"amenity": "pharmacy", "healthcare": "pharmacy", "name": "\u00c7\u0131nar Eczanesi", "phone": "+90 274 513 1988"}}, {"type": "node", "id": 11659267475, "lat": 39.0888833, "lon": 28.9782624, "tags": {"amenity": "pharmacy", "healthcare": "pharmacy", "name": "Sa\u011fl\u0131k Eczanesi", "phone": "+90 274 513 1037"}}, {"type": "node", "id": 11659267569, "lat": 39.0909842, "lon": 28.9881676, "tags": {"amenity": "pharmacy", "healthcare": "pharmacy", "name": "T\u00fcfek Eczanesi", "phone": "+90 274 513 2660"}}, {"type": "node", "id": 11659267669, "lat": 39.0876237, "lon": 28.9805738, "tags": {"amenity": "pharmacy", "healthcare": "pharmacy", "name": "Bahad\u0131r Eczanesi", "phone": "+90 274 513 1414"}}, {"type": "node", "id": 11659267670, "lat": 39.0885143, "lon": 28.9799555, "tags": {"amenity": "pharmacy", "healthcare": "pharmacy", "name": "Ferah Eczanesi", "phone": "+90 274 513 9119"}}, {"type": "node", "id": 11659267671, "lat": 39.0894724, "lon": 28.9803576, "tags": {"amenity": "pharmacy", "healthcare": "pharmacy", "name": "Fatih Eczanesi", "phone": "+90 274 513 3705"}}, {"type": "node", "id": 11659267672, "lat": 39.0897038, "lon": 28.9772086, "tags": {"amenity": "pharmacy", "healthcare": "pharmacy", "name": "Ozan Eczanesi", "phone": "+90 274 513 8854"}}, {"type": "node", "id": 11659267673, "lat": 39.0889582, "lon": 28.9770096, "tags": {"amenity": "pharmacy", "healthcare": "pharmacy", "name": "G\u00fcne\u015f Eczanesi", "phone": "+90 274 513 3560"}}, {"type": "node", "id": 11659267674, "lat": 39.0886365, "lon": 28.9772382, "tags": {"amenity": "pharmacy", "healthcare": "pharmacy", "name": "G\u00fclten Eczanesi", "phone": "+90 274 513 5172"}}, {"type": "node", "id": 11659267769, "lat": 39.0884064, "lon": 28.9793201, "tags": {"amenity": "pharmacy", "healthcare": "pharmacy", "name": "K\u00fcbra Ate\u015f Eczanesi", "phone": "+90 274 513 7915"}}, {"type": "node", "id": 11659267869, "lat": 39.0892767, "lon": 28.9797662, "tags": {"amenity": "pharmacy", "healthcare": "pharmacy", "name": "B\u00fcy\u00fcker Eczanesi", "phone": "+90 274 513 2419"}}, {"type": "node", "id": 11659267870, "lat": 39.0895591, "lon": 28.9782189, "tags": {"amenity": "pharmacy", "healthcare": "pharmacy", "name": "S\u0131hhat Eczanesi", "phone": "+90 274 513 1388"}}, {"type": "node", "id": 11659267871, "lat": 39.0896576, "lon": 28.9782104, "tags": {"amenity": "pharmacy", "healthcare": "pharmacy", "name": "\u0130nal Eczanesi", "phone": "+90 274 513 8286"}}, {"type": "node", "id": 11659280969, "lat": 39.052395, "lon": 28.6607315, "tags": {"amenity": "pharmacy", "healthcare": "pharmacy", "name": "Akarsu Eczanesi", "phone": "+90 236 462 2020"}}, {"type": "node", "id": 11659280970, "lat": 39.0474167, "lon": 28.6577828, "tags": {"amenity": "pharmacy", "name": "Bet\u00fcl Eczanesi", "phone": "+90 236 462 2211"}}, {"type": "node", "id": 11659280971, "lat": 39.0399368, "lon": 28.658279, "tags": {"amenity": "pharmacy", "healthcare": "pharmacy", "name": "Ege Eczanesi", "phone": "+90 236 462 4017"}}, {"type": "node", "id": 11659281169, "lat": 39.0478639, "lon": 28.6545957, "tags": {"amenity": "pharmacy", "name": "Akg\u00fcn Eczanesi", "phone": "+90 236 462 1786"}}, {"type": "node", "id": 11659281170, "lat": 39.0443974, "lon": 28.6535628, "tags": {"amenity": "pharmacy", "healthcare": "pharmacy", "name": "G\u00fcl Eczanesi", "phone": "+90 236 462 4969"}}, {"type": "node", "id": 11659281171, "lat": 39.0447806, "lon": 28.6539003, "tags": {"amenity": "pharmacy", "healthcare": "pharmacy", "name": "Merkez Eczanesi", "phone": "+90 236 462 2496"}}, {"type": "node", "id": 11659281172, "lat": 39.041538, "lon": 28.6587883, "tags": {"amenity": "pharmacy", "name": "Karahan Eczanesi", "phone": "+90 236 462 3800"}}, {"type": "node", "id": 11659281269, "lat": 39.0480071, "lon": 28.6544627, "tags": {"amenity": "pharmacy", "name": "Hekimo\u011flu Eczanesi", "phone": "+90 236 462 5555"}}, {"type": "node", "id": 11659281270, "lat": 39.0450961, "lon": 28.654431, "tags": {"amenity": "pharmacy", "name": "Yeni Hayat Eczanesi", "phone": "+90 236 462 1010"}}, {"type": "node", "id": 11659281271, "lat": 39.0398103, "lon": 28.6582278, "tags": {"amenity": "pharmacy", "healthcare": "pharmacy", "name": "Derman Eczanesi", "phone": "+90 236 462 5749"}}, {"type": "node", "id": 11659281669, "lat": 39.0445406, "lon": 28.6511089, "tags": {"amenity": "pharmacy", "healthcare": "pharmacy", "name": "Seher Eczanesi", "phone": "+90 236 462 2910"}}, {"type": "node", "id": 11659281670, "lat": 39.0366944, "lon": 28.6577496, "tags": {"amenity": "pharmacy", "name": "Ihlamu Eczanesi", "phone": "+90 236 462 4555"}}]}