{"version": 0.6, "generator": "Overpass API 0.7.62.8 e802775f", "osm3s": {"timestamp_osm_base": "2025-10-06T08:35:15Z", "copyright": "The data included in this document is from www.openstreetmap.org. The data is made available under ODbL."}, "elements": [{"type": "node", "id": 2182258038, "lat": 51.9878901, "lon": 21.197727, "tags": {"addr:city": "G\u00f3ra Kalwaria", "addr:city:simc": "0920321", "addr:housenumber": "2", "addr:postcode": "05-530", "addr:street": "Fryderyka Chopina", "amenity": "pharmacy", "dispensing": "yes", "healthcare": "pharmacy", "name": "S\u0142odka Mgr Farm. Beata S\u0142odka-Paczkowska", "ref:csioz": "1089744"}}, {"type": "node", "id": 3038897580, "lat": 51.9026748, "lon": 21.0815735, "tags": {"addr:city": "Chyn\u00f3w", "addr:housenumber": "3", "addr:street": "Wolska", "amenity": "pharmacy", "dispensing": "yes", "name": "Farmab", "ref:csioz": "1119000"}}, {"type": "node", "id": 3196430012, "lat": 51.7396003, "lon": 21.670244, "tags": {"amenity": "pharmacy", "dispensing": "yes", "healthcare": "pharmacy", "name": "Apteka", "ref:csioz": "1096682"}}, {"type": "node", "id": 3677821199, "lat": 51.9814968, "lon": 21.2148139}, {"type": "node", "id": 3677821200, "lat": 51.9814969, "lon": 21.2147663}, {"type": "node", "id": 3677821202, "lat": 51.9814964, "lon": 21.2151275}, {"type": "node", "id": 3677821218, "lat": 51.9815616, "lon": 21.2147666}, {"type": "node", "id": 3677821220, "lat": 51.9815611, "lon": 21.2151277}, {"type": "node", "id": 3713391336, "lat": 52.0621891, "lon": 21.4796813}, {"type": "node", "id": 3713391338, "lat": 52.0622163, "lon": 21.479847}, {"type": "node", "id": 4243892493, "lat": 51.8901922, "lon": 21.619639, "tags": {"addr:city": "Garwolin", "addr:city:simc": "0975285", "addr:housenumber": "1C", "addr:postcode": "08-400", "addr:street": "Targowa", "amenity": "pharmacy", "dispensing": "yes", "healthcare": "pharmacy", "name": "Orchis Ma\u0142gorzata G\u00f3rska", "opening_hours": "Mo-Sa 08:00-21:00; Su 10:00-18:00", "phone": "+48 25 681 40 57", "ref:csioz": "1177849"}}, {"type": "node", "id": 4320288607, "lat": 51.8966083, "lon": 21.6171598, "tags": {"addr:city": "Garwolin", "addr:city:simc": "0975285", "addr:housenumber": "13", "addr:postcode": "08-400", "addr:street": "Nadwodna", "amenity": "pharmacy", "dispensing": "yes", "healthcare": "pharmacy", "name": "Apteka", "phone": "+48 25 682 23 32", "ref:csioz": "1096523"}}, {"type": "node", "id": 4322757564, "lat": 51.8468112, "lon": 21.7079351, "tags": {"addr:city": "G\u00f3rzno", "addr:housenumber": "48", "addr:postcode": "08-404", "addr:street": "D\u0142uga", "amenity": "pharmacy", "dispensing": "yes", "name": "Lawendowa", "ref:csioz": "1189010"}}, {"type": "node", "id": 4444679879, "lat": 51.965781, "lon": 21.4201846, "tags": {"amenity": "pharmacy", "dispensing": "yes", "healthcare": "pharmacy", "ref:csioz": "1088269"}}, {"type": "node", "id": 4453946169, "lat": 51.7827835, "lon": 21.7320315, "tags": {"addr:housenumber": "127D", "addr:place": "Go\u0144czyce", "addr:postcode": "08-460", "amenity": "pharmacy", "dispensing": "yes", "name": "Punkt Apteczny Anna Tywanek", "opening_hours": "Mo-Fr 08:00-18:00", "ref:csioz": "1096787"}}, {"type": "node", "id": 5485095980, "lat": 51.9801067, "lon": 21.2164159, "tags": {"addr:city": "G\u00f3ra Kalwaria", "addr:city:simc": "0920321", "addr:housenumber": "7", "addr:postcode": "05-530", "addr:street": "Dominika\u0144ska", "amenity": "pharmacy", "dispensing": "yes", "healthcare": "pharmacy", "name": "Dominika\u0144ska", "opening_hours": "Mo-Fr 07:00-21:00; Sa 08:00-15:00; Su 09:00-14:00", "ref:csioz": "1089790"}}, {"type": "node", "id": 5485095981, "lat": 51.9800325, "lon": 21.2157195, "tags": {"addr:city": "G\u00f3ra Kalwaria", "addr:city:simc": "0920321", "addr:housenumber": "8", "addr:postcode": "05-530", "addr:street": "Dominika\u0144ska", "amenity": "pharmacy", "dispensing": "yes", "healthcare": "pharmacy", "name:signed": "no", "opening_hours": "Mo-Fr 08:00-20:00; Sa 08:00-16:00", "ref:csioz": "1115572"}}, {"type": "node", "id": 6040007582, "lat": 51.9334295, "lon": 21.3063448}, {"type": "node", "id": 6040007583, "lat": 51.9334435, "lon": 21.3063998}, {"type": "node", "id": 6040007584, "lat": 51.9335295, "lon": 21.3063426}, {"type": "node", "id": 6040014185, "lat": 51.9335041, "lon": 21.3062425}, {"type": "node", "id": 6370642185, "lat": 51.789757, "lon": 21.5934389, "tags": {"addr:city": "\u0141askarzew", "addr:housenumber": "10", "addr:postcode": "08-450", "addr:street": "Warszawska", "amenity": "pharmacy", "dispensing": "yes", "healthcare": "pharmacy", "name": "Mgr Farm. Klaudia Pielacka", "opening_hours": "Mo-Fr 08:00-20:00; Sa 08:00-16:00", "ref:csioz": "1185568"}}, {"type": "node", "id": 6509116342, "lat": 51.9860309, "lon": 21.2119971, "tags": {"addr:city": "G\u00f3ra Kalwaria", "addr:city:simc": "0920321", "addr:housenumber": "65", "addr:postcode": "05-530", "addr:street": "Pijarska", "amenity": "pharmacy", "dispensing": "yes", "healthcare": "pharmacy", "name": "Sieciowa", "opening_hours": "Mo-Fr 08:00-21:00; Sa 08:00-20:00; Su 10:00-20:00", "ref:csioz": "1197450"}}, {"type": "node", "id": 6509188183, "lat": 51.9864904, "lon": 21.2072652, "tags": {"addr:city": "G\u00f3ra Kalwaria", "addr:city:simc": "0920321", "addr:housenumber": "97c", "addr:postcode": "05-530", "addr:street": "Pijarska", "amenity": "pharmacy", "dispensing": "yes", "healthcare": "pharmacy", "name": "Remedium", "opening_hours": "Mo-Fr 08:00-20:00; Sa 08:00-14:00", "ref:csioz": "1090043"}}, {"type": "node", "id": 6509193285, "lat": 51.9882353, "lon": 21.2123161, "tags": {"amenity": "pharmacy", "dispensing": "yes", "healthcare": "pharmacy", "opening_hours": "Mo-Fr 09:00-17:00; Sa 09:00-14:00", "ref:csioz": "1115337"}}, {"type": "node", "id": 7738447980, "lat": 51.6949945, "lon": 21.5537579, "tags": {"addr:city": "Maciejowice", "addr:city:simc": "0680503", "addr:housenumber": "9", "addr:postcode": "08-480", "addr:street": "Sportowa", "amenity": "pharmacy", "dispensing": "yes", "healthcare": "pharmacy", "name": "Apteka Mgr Farm. Beata Pobo\u017cy", "ref:csioz": "1096658"}}, {"type": "node", "id": 8259755024, "lat": 51.7403225, "lon": 21.6696922}, {"type": "node", "id": 8259755025, "lat": 51.740351, "lon": 21.6698181}, {"type": "node", "id": 8259755026, "lat": 51.7405063, "lon": 21.6697271}, {"type": "node", "id": 8259755027, "lat": 51.7404777, "lon": 21.6695999}, {"type": "node", "id": 8373818459, "lat": 51.5977982, "lon": 21.347827, "tags": {"addr:city": "Brz\u00f3za", "addr:housenumber": "1", "addr:postcode": "26-903", "addr:street": "Radomska", "amenity": "pharmacy", "dispensing": "yes", "healthcare": "pharmacy", "name": "Punkt Apteczny", "opening_hours": "Mo-Fr 08:00-15:00", "ref:csioz": "1201240"}}, {"type": "node", "id": 8612140799, "lat": 51.8840267, "lon": 21.6279814, "tags": {"addr:city": "Garwolin", "addr:city:simc": "0975285", "addr:housenumber": "1", "addr:postcode": "08-400", "addr:street": "Dobra", "amenity": "pharmacy", "dispensing": "yes", "drive_through": "no", "healthcare": "pharmacy", "name": "Na Dobrej Mgr Farm. Pawe\u0142 G\u0142aszczka", "opening_hours": "Mo-Fr 08:00-20:00; Sa 08:00-16:00", "ref:csioz": "1096580"}}, {"type": "node", "id": 9609642275, "lat": 51.8969058, "lon": 21.6138308, "tags": {"addr:city": "Garwolin", "addr:city:simc": "0975285", "addr:housenumber": "6", "addr:postcode": "08-400", "addr:street": "D\u0142uga", "amenity": "pharmacy", "dispensing": "yes", "healthcare": "pharmacy", "name": "Dr.Optima Ceny Hurtowe", "ref:csioz": "1096466"}}, {"type": "node", "id": 9609669225, "lat": 51.8974019, "lon": 21.6164084, "tags": {"addr:city": "Garwolin", "addr:city:simc": "0975285", "addr:housenumber": "2", "addr:postcode": "08-400", "addr:street": "Ko\u015bcielna", "amenity": "pharmacy", "dispensing": "yes", "healthcare": "pharmacy", "name": "Dr. Optima", "ref:csioz": "1096477"}}, {"type": "node", "id": 9609682308, "lat": 51.8969128, "lon": 21.6149415, "tags": {"addr:city": "Garwolin", "addr:city:simc": "0975285", "addr:housenumber": "23", "addr:postcode": "08-400", "addr:street": "Tadeusza Ko\u015bciuszki", "amenity": "pharmacy", "dispensing": "yes", "healthcare": "pharmacy", "name": "Apteka", "ref:csioz": "1096490"}}, {"type": "node", "id": 9609693772, "lat": 51.896513, "lon": 21.6152775, "tags": {"addr:city": "Garwolin", "addr:city:simc": "0975285", "addr:housenumber": "19", "addr:postcode": "08-400", "addr:street": "Tadeusza Ko\u015bciuszki", "amenity": "pharmacy", "dispensing": "yes", "healthcare": "pharmacy", "name": "Apteka", "ref:csioz": "1096489"}}, {"type": "node", "id": 9609696653, "lat": 51.9045757, "lon": 21.6031889, "tags": {"addr:city": "Garwolin", "addr:city:simc": "0975285", "addr:housenumber": "35 lok. 1", "addr:postcode": "08-400", "addr:street": "Janusza Korczaka", "amenity": "pharmacy", "dispensing": "yes", "healthcare": "pharmacy", "name": "Apteka na Roman\u00f3wce", "opening_hours": "Mo-Fr 08:00-20:00, Sa 09:00-15:00", "phone": "+48 25 740 10 40", "ref:csioz": "1096572"}}, {"type": "node", "id": 9609696654, "lat": 51.8959384, "lon": 21.6089503, "tags": {"addr:city": "Garwolin", "addr:city:simc": "0975285", "addr:housenumber": "48", "addr:postcode": "08-400", "addr:street": "D\u0142uga", "amenity": "pharmacy", "dispensing": "yes", "healthcare": "pharmacy", "name": "Na Star\u00f3wce Mgr Farm. Beata Mikulska-G\u0142adysz", "ref:csioz": "1096567"}}, {"type": "node", "id": 9609696655, "lat": 51.8954506, "lon": 21.6167767, "tags": {"addr:city": "Garwolin", "addr:city:simc": "0975285", "addr:housenumber": "4A", "addr:postcode": "08-400", "addr:street": "Tadeusza Ko\u015bciuszki", "amenity": "pharmacy", "dispensing": "yes", "drive_through": "no", "healthcare": "pharmacy", "name": "Dr. Optima", "ref:csioz": "1096551"}}, {"type": "node", "id": 9609696657, "lat": 51.8970798, "lon": 21.6162864, "tags": {"addr:city": "Garwolin", "addr:city:simc": "0975285", "addr:housenumber": "4", "addr:postcode": "08-400", "addr:street": "Senatorska", "amenity": "pharmacy", "dispensing": "yes", "healthcare": "pharmacy", "name": "Apteka", "ref:csioz": "1096538"}}, {"type": "node", "id": 9609696658, "lat": 51.8998909, "lon": 21.6096742, "tags": {"addr:city": "Garwolin", "addr:city:simc": "0975285", "addr:housenumber": "17", "addr:postcode": "08-400", "addr:street": "Mazowiecka", "amenity": "pharmacy", "dispensing": "yes", "healthcare": "pharmacy", "name": "Apteka", "ref:csioz": "1096514"}}, {"type": "node", "id": 9609696659, "lat": 51.9015715, "lon": 21.6106557, "tags": {"addr:city": "Garwolin", "addr:city:simc": "0975285", "addr:housenumber": "49F", "addr:postcode": "08-400", "addr:street": "Tadeusza Ko\u015bciuszki", "amenity": "pharmacy", "branch": "Mgr Farm  Aldona Miro\u0144ska", "brand": "Dbam o Zdrowie", "brand:wikidata": "Q62563833", "dispensing": "yes", "healthcare": "pharmacy", "name": "Dbam o Zdrowie", "ref:csioz": "1096509", "short_name": "DOZ"}}, {"type": "node", "id": 9609737646, "lat": 51.9599644, "lon": 21.5298259, "tags": {"amenity": "pharmacy", "dispensing": "yes", "name": "Doz Apteka. Dbam O Zdrowie. Mgr Farm. Aldona Miro\u0144ska", "ref:csioz": "1096754"}}, {"type": "node", "id": 9609737649, "lat": 51.8537991, "lon": 21.3805424, "tags": {"addr:city": "Wilga", "addr:housenumber": "8", "addr:postcode": "08-470", "addr:street": "Wojska Polskiego", "amenity": "pharmacy", "dispensing": "yes", "name": "Apteka", "ref:csioz": "1096711"}}, {"type": "node", "id": 9609737650, "lat": 51.6935938, "lon": 21.8184364, "tags": {"addr:housenumber": "65", "addr:place": "Trojan\u00f3w", "addr:postcode": "08-445", "amenity": "pharmacy", "dispensing": "yes", "ref:csioz": "1096706"}}, {"type": "node", "id": 9609737653, "lat": 51.6936013, "lon": 21.550598, "tags": {"addr:city": "Maciejowice", "addr:city:simc": "0680503", "addr:housenumber": "2", "addr:postcode": "08-480", "addr:street": "Ko\u015bcielna", "amenity": "pharmacy", "dispensing": "yes", "healthcare": "pharmacy", "name": "Apteka", "ref:csioz": "1096649"}}, {"type": "node", "id": 9609737654, "lat": 51.790025, "lon": 21.5907391, "tags": {"addr:city": "\u0141askarzew", "addr:housenumber": "14", "addr:postcode": "08-450", "addr:street": "Szkolna", "amenity": "pharmacy", "brand": "Dbam o Zdrowie", "brand:wikidata": "Q62563833", "dispensing": "yes", "healthcare": "pharmacy", "name": "Dbam o Zdrowie", "ref:csioz": "1096625", "short_name": "DOZ"}}, {"type": "node", "id": 9609737655, "lat": 51.8470332, "lon": 21.7085181, "tags": {"addr:city": "G\u00f3rzno", "addr:housenumber": "2", "addr:postcode": "08-404", "addr:street": "D\u0142uga", "amenity": "pharmacy", "dispensing": "yes", "name": "Apteka", "ref:csioz": "1096595"}}, {"type": "node", "id": 9609737657, "lat": 51.7942865, "lon": 21.5893257, "tags": {"addr:city": "\u0141askarzew", "addr:housenumber": "70", "addr:postcode": "08-450", "addr:street": "Garwoli\u0144ska", "amenity": "pharmacy", "dispensing": "yes", "name": "Sosnowa", "ref:csioz": "1194779"}}, {"type": "node", "id": 9609737658, "lat": 51.8977144, "lon": 21.6184656, "tags": {"addr:city": "Garwolin", "addr:city:simc": "0975285", "addr:housenumber": "10", "addr:postcode": "08-400", "addr:street": "Ko\u015bcielna", "amenity": "pharmacy", "dispensing": "yes", "healthcare": "pharmacy", "name": "Serum Ko\u015bcielna", "ref:csioz": "1186178"}}, {"type": "node", "id": 9609737659, "lat": 51.9025478, "lon": 21.609935, "tags": {"addr:city": "Garwolin", "addr:city:simc": "0975285", "addr:housenumber": "49L", "addr:postcode": "08-400", "addr:street": "Tadeusza Ko\u015bciuszki", "amenity": "pharmacy", "dispensing": "yes", "healthcare": "pharmacy", "name": "Serum", "ref:csioz": "1222484"}}, {"type": "node", "id": 9609747295, "lat": 51.9749522, "lon": 21.6805442, "tags": {"addr:city": "Parys\u00f3w", "addr:housenumber": "47A", "addr:postcode": "08-441", "addr:street": "Rynek", "amenity": "pharmacy", "brand": "S\u0142oneczna", "dispensing": "yes", "healthcare": "pharmacy", "name": "S\u0142oneczna", "ref:csioz": "1171674"}}, {"type": "node", "id": 9609747297, "lat": 51.9591305, "lon": 21.5298329, "tags": {"amenity": "pharmacy", "dispensing": "yes", "name": "Anna \u0106wiek, Joanna Ka\u0142aska-Sp\u00f3\u0142ka Cywilna", "ref:csioz": "1117604"}}, {"type": "node", "id": 9609747298, "lat": 51.745667, "lon": 21.4709011, "tags": {"addr:housenumber": "58", "addr:place": "Pod\u0142\u0119\u017c", "addr:postcode": "08-480", "amenity": "pharmacy", "dispensing": "yes", "name": "Monika", "ref:csioz": "1098173"}}, {"type": "node", "id": 9609747299, "lat": 51.8531986, "lon": 21.5937486, "tags": {"addr:city": "Ruda Talubska", "addr:housenumber": "45", "addr:postcode": "08-400", "addr:street": "Akacjowa", "amenity": "pharmacy", "dispensing": "yes", "name": "Punkt Apteczny", "ref:csioz": "1210978"}}, {"type": "node", "id": 9609747300, "lat": 51.9487387, "lon": 21.594556, "tags": {"addr:city": "Tr\u0105bki", "addr:housenumber": "10", "addr:postcode": "08-440", "addr:street": "Osadnicza", "amenity": "pharmacy", "dispensing": "yes", "name": "Punkt Apteczny", "ref:csioz": "1208065"}}, {"type": "node", "id": 9609747301, "lat": 51.8964315, "lon": 21.6167632, "tags": {"addr:city": "Garwolin", "addr:city:simc": "0975285", "addr:housenumber": "15", "addr:postcode": "08-400", "addr:street": "Nadwodna", "amenity": "pharmacy", "brand": "Dr. Max", "brand:wikidata": "Q56317371", "dispensing": "yes", "healthcare": "pharmacy", "name": "Dr. Max", "ref:csioz": "1199009"}}, {"type": "node", "id": 9609804733, "lat": 51.8715032, "lon": 21.6402367, "tags": {"addr:city": "Sulbiny", "addr:housenumber": "4", "addr:postcode": "08-400", "addr:street": "G\u00f3rna", "amenity": "pharmacy", "dispensing": "yes", "healthcare": "pharmacy", "name": "BellFarm", "ref:csioz": "1230813"}}, {"type": "node", "id": 9609804734, "lat": 51.8537681, "lon": 21.3762818, "tags": {"addr:city": "Wilga", "addr:housenumber": "3", "addr:postcode": "08-470", "addr:street": "W\u0142adys\u0142awa Stanis\u0142awa Reymonta", "amenity": "pharmacy", "dispensing": "yes", "name": "Dbam O Zdrowie G\u0142\u00f3wna", "ref:csioz": "1226535"}}, {"type": "node", "id": 9609804735, "lat": 51.9014978, "lon": 21.5559188, "tags": {"addr:city": "Wola R\u0119bkowska", "addr:housenumber": "4", "addr:postcode": "08-410", "addr:street": "Dworcowa", "amenity": "pharmacy", "dispensing": "yes", "name": "Przy Stacji", "ref:csioz": "1221558"}}, {"type": "node", "id": 9616452859, "lat": 51.7834471, "lon": 21.1889037, "tags": {"addr:city": "Warka", "addr:housenumber": "6", "addr:street": "Senatorska", "amenity": "pharmacy", "dispensing": "yes", "ref:csioz": "1094719"}}, {"type": "node", "id": 9616452902, "lat": 51.7835938, "lon": 21.1865043, "tags": {"addr:city": "Warka", "addr:housenumber": "1", "addr:street": "W\u00f3jtowska", "amenity": "pharmacy", "dispensing": "yes", "name": "Farmacja I Uroda", "ref:csioz": "1212621"}}, {"type": "node", "id": 9616452904, "lat": 51.7871971, "lon": 21.1827342, "tags": {"addr:city": "Warka", "addr:housenumber": "2", "addr:street": "Go\u015bniewska", "amenity": "pharmacy", "dispensing": "yes", "fixme": "Lokalizacja do weryfikacji", "name": "Przyjazna", "ref:csioz": "1183383"}}, {"type": "node", "id": 9616452907, "lat": 51.7856184, "lon": 21.195513, "tags": {"addr:city": "Warka", "addr:housenumber": "2", "addr:street": "Kazimierza Pu\u0142askiego", "amenity": "pharmacy", "dispensing": "yes", "fixme": "Lokalizacja do weryfikacji", "ref:csioz": "1110758"}}, {"type": "node", "id": 9616452909, "lat": 51.7858231, "lon": 21.1847683, "tags": {"addr:city": "Warka", "addr:city:simc": "0973978", "addr:housenumber": "28", "addr:postcode": "05-660", "addr:street": "Warszawska", "amenity": "pharmacy", "brand": "Dbam o Zdrowie", "brand:wikidata": "Q62563833", "dispensing": "yes", "healthcare": "pharmacy", "name": "Dbam o Zdrowie", "ref:csioz": "1094735"}}, {"type": "node", "id": 9616452910, "lat": 51.7832722, "lon": 21.1868146, "tags": {"addr:city": "Warka", "addr:housenumber": "3", "addr:street": "Warszawska", "amenity": "pharmacy", "dispensing": "yes", "ref:csioz": "1094724"}}, {"type": "node", "id": 9616452911, "lat": 51.7855391, "lon": 21.1893255, "tags": {"addr:city": "Warka", "addr:housenumber": "15", "addr:street": "Piotra Wysockiego", "amenity": "pharmacy", "dispensing": "yes", "ref:csioz": "1094708"}}, {"type": "node", "id": 9621622985, "lat": 51.6550956, "lon": 21.483395, "tags": {"addr:housenumber": "55", "addr:place": "\u015awier\u017ce G\u00f3rne", "amenity": "pharmacy", "dispensing": "yes", "name": "Punkt Apteczny", "ref:csioz": "1211619"}}, {"type": "node", "id": 9621622987, "lat": 51.7234202, "lon": 21.2273545, "tags": {"addr:city": "Grab\u00f3w Nad Pilic\u0105", "addr:housenumber": "49", "addr:street": "Kazimierza Pu\u0142askiego", "amenity": "pharmacy", "dispensing": "yes", "name": "Punkt Apteczny", "ref:csioz": "1096453"}}, {"type": "node", "id": 9621622988, "lat": 51.7606968, "lon": 21.3802099, "tags": {"addr:city": "Magnuszew", "addr:city:simc": "0628833", "addr:housenumber": "14A", "addr:postcode": "26-910", "addr:street": "Klonowa", "amenity": "pharmacy", "dispensing": "yes", "ref:csioz": "1094877"}}, {"type": "node", "id": 9621622991, "lat": 51.6262838, "lon": 21.3174203, "tags": {"addr:city": "G\u0142owacz\u00f3w", "addr:housenumber": "13", "addr:street": "Warecka", "amenity": "pharmacy", "dispensing": "yes", "fixme": "Lokalizacja do weryfikacji", "ref:csioz": "1094762"}}, {"type": "node", "id": 9643135481, "lat": 51.9358376, "lon": 21.3011854, "tags": {"addr:city": "Sobienie-Jeziory", "addr:city:simc": "0687876", "addr:housenumber": "2", "addr:postcode": "08-443", "addr:street": "Wi\u015blana", "amenity": "pharmacy", "dispensing": "yes", "ref:csioz": "1088428"}}, {"type": "node", "id": 9643138607, "lat": 51.9658861, "lon": 21.4223601, "tags": {"addr:city": "Osieck", "addr:city:simc": "0683192", "addr:housenumber": "13", "addr:postcode": "08-445", "addr:street": "Rynek", "amenity": "pharmacy", "dispensing": "yes", "name": "Centrum", "ref:csioz": "1192155"}}, {"type": "node", "id": 9643147263, "lat": 51.9338513, "lon": 21.3060573, "tags": {"addr:city": "Sobienie-Jeziory", "addr:city:simc": "0687876", "addr:housenumber": "2", "addr:postcode": "08-443", "addr:street": "Tysi\u0105clecia", "amenity": "pharmacy", "dispensing": "yes", "name": "Apteka-Mgr Farm. Aldona Pielak", "ref:csioz": "1088415"}}, {"type": "node", "id": 9908926563, "lat": 51.9814965, "lon": 21.215037}, {"type": "node", "id": 9908926570, "lat": 51.9815611, "lon": 21.2150869, "tags": {"entrance": "yes"}}, {"type": "node", "id": 11190340566, "lat": 51.9334982, "lon": 21.3062195}, {"type": "node", "id": 11190340567, "lat": 51.9333999, "lon": 21.3062864}, {"type": "node", "id": 11190340568, "lat": 51.9334083, "lon": 21.3063188}, {"type": "node", "id": 11190340569, "lat": 51.9334058, "lon": 21.3063204}, {"type": "node", "id": 11190340570, "lat": 51.9334145, "lon": 21.3063548}, {"type": "node", "id": 11989145904, "lat": 52.0622564, "lon": 21.4796486}, {"type": "node", "id": 11989145905, "lat": 52.0622823, "lon": 21.4798089}, {"type": "node", "id": 12940242013, "lat": 51.9606237, "lon": 21.1364126, "tags": {"amenity": "pharmacy", "email": "aptecznyzakatek@gmail.com", "name": "Apteczny Zak\u0105tek", "opening_hours": "Mo-Fr 08:00-18:00; Sa 09:00-13:00", "phone": "+48 506 250 950"}}, {"type": "way", "id": 363612626, "nodes": [3677821200, 3677821199, 9908926563, 3677821202, 3677821220, 9908926570, 3677821218, 3677821200], "tags": {"addr:city": "G\u00f3ra Kalwaria", "addr:city:simc": "0920321", "addr:housenumber": "2/4", "addr:postcode": "05-530", "addr:street": "Dominika\u0144ska", "amenity": "pharmacy", "building": "yes", "check_date": "2024-10-09", "check_date:opening_hours": "2023-09-08", "dispensing": "yes", "email": "jadwigabaj@wp.pl", "healthcare": "pharmacy", "internet_access": "no", "name:signed": "no", "opening_hours": "Mo-Fr 08:00-20:00; Sa 08:00-14:00", "operator": "Jadwiga Baj", "payment:cash": "yes", "payment:credit_cards": "yes", "payment:debit_cards": "yes", "ref:csioz": "1088477", "wheelchair": "limited"}}, {"type": "way", "id": 367414490, "nodes": [11989145905, 3713391338, 3713391336, 11989145904, 11989145905], "tags": {"addr:city": "Ko\u0142biel", "addr:city:simc": "0674767", "addr:housenumber": "18", "addr:postcode": "05-340", "addr:street": "Rynek", "amenity": "pharmacy", "building": "yes", "building:levels": "2", "dispensing": "yes", "name": "Przy Ko\u015bciele", "phone": "+48 25 757 31 90", "ref:csioz": "1115345", "source:addr": "kolbiel.e-mapa.net", "source:building": "BDOT"}}, {"type": "way", "id": 641325729, "nodes": [11190340570, 11190340569, 11190340568, 11190340567, 11190340566, 6040014185, 6040007584, 6040007583, 6040007582, 11190340570], "tags": {"addr:city": "Sobienie-Jeziory", "addr:city:simc": "0687876", "addr:housenumber": "3", "addr:postcode": "08-443", "addr:street": "Parysowska", "amenity": "pharmacy", "building": "house", "building:levels": "1", "dispensing": "yes", "ref:csioz": "1088203", "source:addr": "emuia.gugik.gov.pl", "source:building": "BDOT"}}, {"type": "way", "id": 888414948, "nodes": [8259755027, 8259755026, 8259755025, 8259755024, 8259755027], "tags": {"addr:city": "Sobolew", "addr:city:simc": "0688427", "addr:housenumber": "3", "addr:postcode": "08-460", "addr:street": "3 Maja", "addr:street:sym_ul": "11937", "amenity": "pharmacy", "building": "yes", "dispensing": "yes", "name": "Doz Apteka. Dbam O Zdrowie", "ref:csioz": "1096696", "source": "www.geoportal.gov.pl", "source:addr": "sobolew.e-mapa.net"}}]}