{"version": 0.6, "generator": "Overpass API 0.7.62.8 e802775f", "osm3s": {"timestamp_osm_base": "2025-10-06T08:45:30Z", "copyright": "The data included in this document is from www.openstreetmap.org. The data is made available under ODbL."}, "elements": [{"type": "node", "id": 1342955748, "lat": 53.1740015, "lon": 22.0689502, "tags": {"amenity": "pharmacy", "brand": "Gemini", "dispensing": "yes", "healthcare": "pharmacy", "name": "Gemini", "ref:csioz": "1023852"}}, {"type": "node", "id": 1502812216, "lat": 53.3869805, "lon": 21.7266491, "tags": {"addr:city": "Turo\u015bl", "addr:housenumber": "1", "addr:postcode": "18-525", "addr:street": "Akacjowa", "amenity": "pharmacy", "dispensing": "yes", "healthcare": "pharmacy", "name": "Punkt Apteczny Panaceum", "ref:csioz": "1016031"}}, {"type": "node", "id": 1767969440, "lat": 53.1777696, "lon": 22.0814316, "tags": {"amenity": "pharmacy", "brand": "Cef@Rm 36,6", "dispensing": "yes", "healthcare": "pharmacy", "name": "Cef@Rm 36,6", "ref:csioz": "1023062"}}, {"type": "node", "id": 1768028967, "lat": 53.165835, "lon": 22.0776336, "tags": {"amenity": "pharmacy", "dispensing": "yes", "healthcare": "pharmacy", "ref:csioz": "1024325"}}, {"type": "node", "id": 2798507765, "lat": 53.1771601, "lon": 22.0590622, "tags": {"addr:city": "\u0141om\u017ca", "addr:housenumber": "126D", "addr:postcode": "18-400", "addr:street": "Genera\u0142a W\u0142adys\u0142awa Sikorskiego", "amenity": "pharmacy", "dispensing": "yes", "healthcare": "pharmacy", "name": "Primo Vere", "phone": "(86)2165611", "ref:csioz": "1019098"}}, {"type": "node", "id": 2813926120, "lat": 53.1786615, "lon": 22.0712604, "tags": {"amenity": "pharmacy", "dispensing": "yes", "healthcare": "pharmacy", "name": "Medica", "ref:csioz": "1019888"}}, {"type": "node", "id": 2816084274, "lat": 53.1743468, "lon": 22.0687383, "tags": {"amenity": "pharmacy", "dispensing": "yes", "healthcare": "pharmacy", "ref:csioz": "1021788"}}, {"type": "node", "id": 2823959712, "lat": 53.1680594, "lon": 22.053547, "tags": {"amenity": "pharmacy", "dispensing": "yes", "healthcare": "pharmacy", "name": "Eskulap", "ref:csioz": "1017180"}}, {"type": "node", "id": 2846951917, "lat": 53.1749413, "lon": 22.0390395, "tags": {"amenity": "pharmacy", "dispensing": "yes", "healthcare": "pharmacy", "ref:csioz": "1025269"}}, {"type": "node", "id": 2860113512, "lat": 53.1715432, "lon": 22.0662492, "tags": {"amenity": "pharmacy", "brand": "Dbam o Zdrowie", "brand:wikidata": "Q62563833", "dispensing": "yes", "healthcare": "pharmacy", "name": "Dbam o Zdrowie", "ref:csioz": "1020686", "short_name": "DOZ"}}, {"type": "node", "id": 2909549336, "lat": 53.1686824, "lon": 22.0771185, "tags": {"amenity": "pharmacy", "dispensing": "yes", "healthcare": "pharmacy", "name": "Acer", "opening_hours": "Mo-Sa 09:00-21:00; Su 10:00-20:00", "ref:csioz": "1112934", "wheelchair": "yes"}}, {"type": "node", "id": 3422541401, "lat": 53.2422013, "lon": 21.7956571, "tags": {"addr:city": "Zb\u00f3jna", "addr:housenumber": "9", "addr:postcode": "18-416", "addr:street": "\u0141om\u017cy\u0144ska", "amenity": "pharmacy", "dispensing": "yes", "healthcare": "pharmacy", "name": "Punkt Apteczny Aloes", "phone": "+48 86 214 03 21", "ref:csioz": "1231199"}}, {"type": "node", "id": 3468645846, "lat": 53.16318, "lon": 22.06811, "tags": {"amenity": "pharmacy", "brand": "Dbam o Zdrowie", "brand:wikidata": "Q62563833", "dispensing": "yes", "healthcare": "pharmacy", "name": "Dbam o Zdrowie", "ref:csioz": "1019629", "short_name": "DOZ"}}, {"type": "node", "id": 4239799597, "lat": 53.1789094, "lon": 22.0772461, "tags": {"amenity": "pharmacy", "dispensing": "yes", "healthcare": "pharmacy", "name": "Spo\u0142eczna", "ref:csioz": "1017088"}}, {"type": "node", "id": 4430416139, "lat": 53.4112708, "lon": 21.9253668, "tags": {"addr:city": "Kolno", "addr:housenumber": "67", "addr:postcode": "18-500", "addr:street": "Wojska Polskiego", "amenity": "pharmacy", "name": "Cefarm", "ref:csioz": "1023043"}}, {"type": "node", "id": 5261952122, "lat": 53.4102666, "lon": 21.9273083, "tags": {"addr:city": "Kolno", "addr:flats": "U2", "addr:housenumber": "51", "addr:postcode": "18-500", "addr:street": "Wojska Polskiego", "amenity": "pharmacy", "name": "Podlaska", "opening_hours": "Mo-Fr 07:30-21:00; Sa 08:00-20:00; Su 09:00-19:00", "ref:csioz": "1224649"}}, {"type": "node", "id": 5477372950, "lat": 53.1668487, "lon": 22.086801, "tags": {"addr:city": "\u0141om\u017ca", "addr:housenumber": "29", "addr:postcode": "18-400", "addr:street": "Ksi\u0119\u017cnej Anny", "amenity": "pharmacy", "dispensing": "yes", "drive_through": "no", "healthcare": "pharmacy", "name": "Epidauros", "opening_hours": "Mo-Fr 10:00-20:00; Sa 10:00-14:00", "ref:csioz": "1177377"}}, {"type": "node", "id": 8381285546, "lat": 53.3080663, "lon": 22.0236129}, {"type": "node", "id": 8381288855, "lat": 53.3080853, "lon": 22.0237198}, {"type": "node", "id": 8381288856, "lat": 53.3080697, "lon": 22.0236318}, {"type": "node", "id": 9549636274, "lat": 53.2855014, "lon": 22.3013581, "tags": {"addr:city": "Jedwabne", "addr:housenumber": "4", "addr:postcode": "18-420", "addr:street": "\u0141om\u017cy\u0144ska", "amenity": "pharmacy", "dispensing": "yes", "healthcare": "pharmacy", "name": "Farmacja", "ref:csioz": "1192071"}}, {"type": "node", "id": 9549636275, "lat": 53.2853516, "lon": 22.3019029, "tags": {"addr:city": "Jedwabne", "addr:housenumber": "1", "addr:postcode": "18-420", "addr:street": "\u0141om\u017cy\u0144ska", "amenity": "pharmacy", "dispensing": "yes", "healthcare": "pharmacy", "name": "Bliska", "ref:csioz": "1221660"}}, {"type": "node", "id": 9549636276, "lat": 53.1919756, "lon": 22.385538, "tags": {"addr:city": "Wizna", "addr:housenumber": "31", "addr:postcode": "18-430", "addr:street": "Plac Kapitana W\u0142adys\u0142awa Raginisa", "amenity": "pharmacy", "brand": "Cef@Rm 36,6", "dispensing": "yes", "healthcare": "pharmacy", "name": "Cef@Rm 36,6", "ref:csioz": "1022942"}}, {"type": "node", "id": 9549636277, "lat": 53.3651587, "lon": 22.3130151, "tags": {"addr:city": "Przytu\u0142y", "addr:housenumber": "7", "addr:postcode": "18-423", "addr:street": "Supska", "amenity": "pharmacy", "dispensing": "yes", "healthcare": "pharmacy", "name": "Punkt Apteczny", "ref:csioz": "1015877"}}, {"type": "node", "id": 9549636280, "lat": 53.1973844, "lon": 22.093287, "tags": {"addr:city": "Pi\u0105tnica Poduchowna", "addr:housenumber": "14", "addr:postcode": "18-421", "addr:street": "Czarnocka", "amenity": "pharmacy", "brand": "Cef@Rm 36,6", "dispensing": "yes", "healthcare": "pharmacy", "name": "Cef@Rm 36,6", "ref:csioz": "1022988"}}, {"type": "node", "id": 9549636281, "lat": 53.223048, "lon": 21.8761844, "tags": {"addr:city": "Nowogr\u00f3d", "addr:housenumber": "12", "addr:postcode": "18-414", "addr:street": "Miastkowska", "amenity": "pharmacy", "dispensing": "yes", "healthcare": "pharmacy", "ref:csioz": "1022187"}}, {"type": "node", "id": 9562151056, "lat": 53.4120876, "lon": 21.9244712, "tags": {"addr:city": "Kolno", "addr:flats": "1", "addr:housenumber": "44", "addr:postcode": "18-500", "addr:street": "Wojska Polskiego", "amenity": "pharmacy", "healthcare": "pharmacy", "name": "G\u0142\u00f3wna", "ref:csioz": "1230778"}}, {"type": "node", "id": 9562151057, "lat": 53.470808, "lon": 22.0170281, "tags": {"addr:housenumber": "11", "addr:place": "Lachowo", "addr:postcode": "18-500", "amenity": "pharmacy", "name": "Punkt Apteczny(Lachowo)", "ref:csioz": "1180474"}}, {"type": "node", "id": 9562151058, "lat": 53.4623254, "lon": 22.1528273, "tags": {"addr:city": "Grabowo", "addr:housenumber": "1", "addr:postcode": "18-507", "addr:street": "Wincentego Witosa", "amenity": "pharmacy", "name": "Apteka u Zosi", "ref:csioz": "1025203"}}, {"type": "node", "id": 9562151059, "lat": 53.4129615, "lon": 21.930331, "tags": {"addr:city": "Kolno", "addr:housenumber": "13", "addr:postcode": "18-500", "addr:street": "11 Listopada", "amenity": "pharmacy", "name": "Panaceum", "ref:csioz": "1024193"}}, {"type": "node", "id": 9562151060, "lat": 53.3810031, "lon": 22.1548845, "tags": {"addr:city": "Stawiski", "addr:housenumber": "18", "addr:postcode": "18-520", "addr:street": "Plac Wolno\u015bci", "amenity": "pharmacy", "dispensing": "yes", "healthcare": "pharmacy", "ref:csioz": "1023361"}}, {"type": "node", "id": 9562151061, "lat": 53.3800364, "lon": 22.154255, "tags": {"addr:city": "Stawiski", "addr:housenumber": "3", "addr:postcode": "18-520", "addr:street": "Plac Wolno\u015bci", "amenity": "pharmacy", "dispensing": "yes", "healthcare": "pharmacy", "ref:csioz": "1022002"}}, {"type": "node", "id": 9562151063, "lat": 53.4108106, "lon": 21.9232024, "tags": {"addr:city": "Kolno", "addr:flats": "13", "addr:housenumber": "3A", "addr:postcode": "18-500", "addr:street": "Wincentego Witosa", "amenity": "pharmacy", "name": "Mi\u0119towa", "ref:csioz": "1110850"}}, {"type": "node", "id": 9562151064, "lat": 53.412301, "lon": 21.925999, "tags": {"addr:city": "Kolno", "addr:housenumber": "36", "addr:postcode": "18-500", "addr:street": "Stanis\u0142awa Milewskiego", "amenity": "pharmacy", "dispensing": "yes", "healthcare": "pharmacy", "name": "W Przychodni", "ref:csioz": "1021689"}}, {"type": "node", "id": 9575606196, "lat": 53.5637077, "lon": 22.2854528, "tags": {"addr:city": "Szczuczyn", "addr:city:simc": "0957560", "addr:housenumber": "4", "addr:postcode": "19-230", "addr:street": "Jana Kili\u0144skiego", "amenity": "pharmacy", "name": "Apteka Tania", "ref:csioz": "1017138"}}, {"type": "node", "id": 9575606200, "lat": 53.5213179, "lon": 22.3208579, "tags": {"addr:city": "W\u0105sosz", "addr:housenumber": "11", "addr:postcode": "19-222", "addr:street": "Plac Rz\u0119dziana", "amenity": "pharmacy", "dispensing": "yes", "healthcare": "pharmacy", "name": "Punkt Apteczny", "ref:csioz": "1016053"}}, {"type": "node", "id": 9575606202, "lat": 53.4096054, "lon": 22.4097919, "tags": {"addr:city": "Radzi\u0142\u00f3w", "addr:housenumber": "16", "addr:postcode": "19-213", "addr:street": "500-lecia", "amenity": "pharmacy", "name": "Punkt Apteczny Provita", "ref:csioz": "1015890"}}, {"type": "node", "id": 10100682809, "lat": 53.3892267, "lon": 21.7259424, "tags": {"addr:city": "Turo\u015bl", "addr:housenumber": "23", "addr:postcode": "18-525", "addr:street": "Jana Paw\u0142a II", "amenity": "pharmacy", "dispensing": "yes", "healthcare": "pharmacy", "name": "Rodzinna", "ref:csioz": "1231403"}}, {"type": "node", "id": 10270043871, "lat": 53.5633003, "lon": 22.2866807, "tags": {"amenity": "pharmacy", "brand": "Cef@Rm 36,6", "dispensing": "yes", "healthcare": "pharmacy", "name": "Cef@Rm 36,6", "ref:csioz": "1023024", "wheelchair": "no"}}, {"type": "node", "id": 10270074565, "lat": 53.409347, "lon": 22.4129299, "tags": {"amenity": "pharmacy", "dispensing": "yes", "healthcare": "pharmacy", "name": "Punkt Apteczny", "ref:csioz": "1201303"}}, {"type": "node", "id": 10271995217, "lat": 53.30818, "lon": 22.0235568}, {"type": "node", "id": 10271995218, "lat": 53.3082062, "lon": 22.0237047}, {"type": "node", "id": 10271995219, "lat": 53.3080925, "lon": 22.0237609}, {"type": "node", "id": 10272049488, "lat": 53.1552212, "lon": 22.0784263, "tags": {"amenity": "pharmacy", "dispensing": "yes", "fixme": "Lokalizacja do weryfikacji", "healthcare": "pharmacy", "name": "Rodzinna", "ref:csioz": "1175048"}}, {"type": "node", "id": 10272077581, "lat": 53.1599083, "lon": 22.0701045, "tags": {"amenity": "pharmacy", "dispensing": "yes", "healthcare": "pharmacy", "name": "Abc", "ref:csioz": "1021365"}}, {"type": "node", "id": 10272077582, "lat": 53.1624983, "lon": 22.086854, "tags": {"amenity": "pharmacy", "dispensing": "yes", "healthcare": "pharmacy", "name": "Acer", "ref:csioz": "1195123"}}, {"type": "node", "id": 10272077583, "lat": 53.1596257, "lon": 22.0769924, "tags": {"amenity": "pharmacy", "brand": "Dr. Max", "brand:wikidata": "Q56317371", "dispensing": "yes", "healthcare": "pharmacy", "name": "Dr. Max", "ref:csioz": "1020749"}}, {"type": "node", "id": 10272077591, "lat": 53.1616262, "lon": 22.0766208, "tags": {"amenity": "pharmacy", "dispensing": "yes", "healthcare": "pharmacy", "name": "Acer", "ref:csioz": "1020508"}}, {"type": "node", "id": 10272077633, "lat": 53.1604292, "lon": 22.0851184, "tags": {"amenity": "pharmacy", "dispensing": "yes", "fixme": "Lokalizacja do weryfikacji", "healthcare": "pharmacy", "name": "W Szpitalu", "ref:csioz": "1217654"}}, {"type": "node", "id": 10272077634, "lat": 53.1607329, "lon": 22.0747422, "tags": {"amenity": "pharmacy", "brand": "Gemini", "dispensing": "yes", "healthcare": "pharmacy", "name": "Gemini", "ref:csioz": "1198361"}}, {"type": "node", "id": 10272077635, "lat": 53.1694088, "lon": 22.065192, "tags": {"amenity": "pharmacy", "brand": "Dr. Max", "brand:wikidata": "Q56317371", "dispensing": "yes", "healthcare": "pharmacy", "name": "Dr. Max", "ref:csioz": "1173102"}}, {"type": "node", "id": 10272077636, "lat": 53.1626469, "lon": 22.0768424, "tags": {"amenity": "pharmacy", "dispensing": "yes", "healthcare": "pharmacy", "name": "Eko", "ref:csioz": "1173072"}}, {"type": "node", "id": 10272077637, "lat": 53.1949832, "lon": 22.0976912, "tags": {"amenity": "pharmacy", "dispensing": "yes", "fixme": "Lokalizacja do weryfikacji", "healthcare": "pharmacy", "name": "Spo\u0142eczna", "ref:csioz": "1205736"}}, {"type": "node", "id": 10272077638, "lat": 53.1693071, "lon": 22.0720226, "tags": {"amenity": "pharmacy", "dispensing": "yes", "healthcare": "pharmacy", "name": "Acer", "ref:csioz": "1020664"}}, {"type": "node", "id": 10272077675, "lat": 53.1605449, "lon": 22.0814786, "tags": {"amenity": "pharmacy", "dispensing": "yes", "healthcare": "pharmacy", "name": "Acer", "ref:csioz": "1023611"}}, {"type": "node", "id": 10272077686, "lat": 53.1600605, "lon": 22.0816447, "tags": {"amenity": "pharmacy", "dispensing": "yes", "healthcare": "pharmacy", "name": "Medicines", "ref:csioz": "1022263"}}, {"type": "node", "id": 10272077754, "lat": 53.1648057, "lon": 22.0638625, "tags": {"amenity": "pharmacy", "dispensing": "yes", "healthcare": "pharmacy", "ref:csioz": "1020200"}}, {"type": "node", "id": 10272077755, "lat": 53.1797614, "lon": 22.0757118, "tags": {"amenity": "pharmacy", "brand": "Dr. Max", "brand:wikidata": "Q56317371", "dispensing": "yes", "healthcare": "pharmacy", "name": "Dr. Max", "ref:csioz": "1200569"}}, {"type": "node", "id": 10272077770, "lat": 53.1723485, "lon": 22.0680423, "tags": {"amenity": "pharmacy", "dispensing": "yes", "healthcare": "pharmacy", "name": "Acer", "ref:csioz": "1223993"}}, {"type": "node", "id": 10274092938, "lat": 53.1932161, "lon": 22.3863254, "tags": {"amenity": "pharmacy", "dispensing": "yes", "healthcare": "pharmacy", "name": "Zdrowie I Uroda", "ref:csioz": "1231096", "wheelchair": "yes"}}, {"type": "way", "id": 1123194380, "nodes": [8381285546, 8381288856, 8381288855, 10271995219, 10271995218, 10271995217, 8381285546], "tags": {"addr:city": "Ma\u0142y P\u0142ock", "addr:city:simc": "0991166", "addr:housenumber": "7A", "addr:postcode": "18-516", "addr:street": "Ignacego Potocznego", "amenity": "pharmacy", "building": "detached", "building:levels": "2", "dispensing": "yes", "healthcare": "pharmacy", "name": "Na Dobre Zdrowie", "source": "www.geoportal.gov.pl", "source:addr": "gugik.gov.pl"}}]}