{"version": 0.6, "generator": "Overpass API 0.7.62.8 e802775f", "osm3s": {"timestamp_osm_base": "2025-10-06T08:59:45Z", "copyright": "The data included in this document is from www.openstreetmap.org. The data is made available under ODbL."}, "elements": [{"type": "node", "id": 320409462, "lat": 53.70527, "lon": 23.806715, "tags": {"addr:city": "\u0413\u0440\u043e\u0434\u043d\u0430", "addr:housenumber": "45", "addr:street": "\u0432\u0443\u043b\u0456\u0446\u0430 \u0423\u0440\u0443\u0431\u043b\u0435\u045e\u0441\u043a\u0430\u0433\u0430", "amenity": "pharmacy", "check_date": "2023-03-16", "check_date:opening_hours": "2023-12-05", "dispensing": "yes", "healthcare": "pharmacy", "name": "\u0411\u0456\u044f\u0442\u044d\u0441\u0442 \u21162", "name:be": "\u0411\u0456\u044f\u0442\u044d\u0441\u0442 \u21162", "name:ru": "\u0411\u0438\u043e\u0442\u0435\u0441\u0442 \u21162", "opening_hours": "Mo-Fr 08:00-21:00, Sa-Su 09:00-20:00", "operator": "\u041e\u041e\u041e \u041d\u041f\u041a \u0411\u0438\u043e\u0442\u0435\u0441\u0442", "phone": "80152550500"}}, {"type": "node", "id": 320409506, "lat": 53.6977423, "lon": 23.8097148, "tags": {"addr:city": "\u0413\u0440\u043e\u0434\u043d\u0430", "addr:housenumber": "36\u0410", "addr:street": "\u0431\u0443\u043b\u044c\u0432\u0430\u0440 \u041b\u0435\u043d\u0456\u043d\u0441\u043a\u0430\u0433\u0430 \u041a\u0430\u043c\u0441\u0430\u043c\u043e\u043b\u0430", "amenity": "pharmacy", "check_date:opening_hours": "2021-11-05", "dispensing": "yes", "healthcare": "pharmacy", "int_name": "Farmacyja \u2116135", "name": "\u0424\u0430\u0440\u043c\u0430\u0446\u044b\u044f \u2116135", "name:be": "\u0424\u0430\u0440\u043c\u0430\u0446\u044b\u044f \u2116135", "name:ru": "\u0424\u0430\u0440\u043c\u0430\u0446\u0438\u044f \u2116135", "opening_hours": "Mo-Sa 08:00-21:00; Su 09:00-19:00", "operator": "\u0420\u0423\u041f \u0424\u0430\u0440\u043c\u0430\u0446\u0438\u044f", "payment:cash": "yes", "payment:coins": "yes", "payment:credit_cards": "yes", "payment:debit_cards": "yes", "payment:nfc": "yes", "phone": "80152445998", "website": "https://farmacia.by/"}}, {"type": "node", "id": 320409580, "lat": 53.6903649, "lon": 23.8016092, "tags": {"addr:city": "\u0413\u0440\u043e\u0434\u043d\u0430", "addr:housenumber": "75", "addr:postcode": "230030", "addr:street": "\u0432\u0443\u043b\u0456\u0446\u0430 \u041a\u0430\u043b\u0456\u043d\u043e\u045e\u0441\u043a\u0430\u0433\u0430", "amenity": "pharmacy", "brand": "\u0414\u043e\u0431\u0440\u044b\u044f \u043b\u0435\u043ai", "contact:email": "info@d-leki.by", "contact:instagram": "https://www.instagram.com/apteka_adel", "contact:phone": "+375 25 5355757;+375 29 5355757;+375 44 5355757", "contact:vk": "https://vk.com/apteka_adel", "contact:website": "https://d-leki.by/", "dispensing": "yes", "healthcare": "pharmacy", "int_name": "Dobryja Leki", "name": "\u0414\u043e\u0431\u0440\u044b\u044f \u041b\u0435\u043a\u0456 \u21162", "name:be": "\u0414\u043e\u0431\u0440\u044b\u044f \u041b\u0435\u043a\u0456 \u21162", "name:ru": "\u0414\u043e\u0431\u0440\u044b\u044f \u041b\u0435\u043a\u0438 \u21162", "opening_hours": "Mo-Fr 08:00-23:00; Sa-Su 09:00-22:00", "operator": "\"\u0412\u0418\u0412\u0410\u0422\u041e\u041d \u043f\u043b\u044e\u0441\"", "ref": "2", "source": "survey"}}, {"type": "node", "id": 320409609, "lat": 53.6835433, "lon": 23.8367528, "tags": {"addr:city": "\u0413\u0440\u043e\u0434\u043d\u0430", "addr:housenumber": "11", "addr:street": "\u0432\u0443\u043b\u0456\u0446\u0430 \u042d\u043b\u0456\u0437\u044b \u0410\u0436\u044d\u0448\u043a\u0456", "amenity": "pharmacy", "dispensing": "yes", "drive_through": "no", "healthcare": "pharmacy", "int_name": "Apteka \u21161", "name": "\u0424\u0430\u0440\u043c\u0430\u0446\u044b\u044f \u21161", "name:be": "\u0424\u0430\u0440\u043c\u0430\u0446\u044b\u044f \u21161", "name:ru": "\u0424\u0430\u0440\u043c\u0430\u0446\u0438\u044f \u21161", "opening_hours": "Mo-Fr 08:00-21:00; Sa 09:00-20:00; Su 10:00-18:00", "operator": "\u0420\u0423\u041f \u0424\u0430\u0440\u043c\u0430\u0446\u0438\u044f", "owner": "\u0424\u0430\u0440\u043c\u0430\u0446\u0438\u044f", "power": "80152744391"}}, {"type": "node", "id": 320409653, "lat": 53.6784838, "lon": 23.8311286, "tags": {"addr:city": "\u0413\u0440\u043e\u0434\u043d\u0430", "addr:housenumber": "4", "addr:street": "\u0421\u0430\u0432\u0435\u0446\u043a\u0430\u044f \u043f\u043b\u043e\u0448\u0447\u0430", "amenity": "pharmacy", "drive_through": "no", "email": "muzeum@biotest.by", "healthcare": "pharmacy", "int_name": "Apteka-muziej", "museum": "steps", "name": "\u0410\u043f\u0442\u044d\u043a\u0430-\u043c\u0443\u0437\u0435\u0439", "name:be": "\u0410\u043f\u0442\u044d\u043a\u0430-\u043c\u0443\u0437\u0435\u0439", "name:en": "Pharmacy Museum", "name:ru": "\u0410\u043f\u0442\u0435\u043a\u0430-\u043c\u0443\u0437\u0435\u0439", "opening_hours": "Mo-Su 09:00-19:00", "operator": "\u0422\u0410\u0410 \"\u041d\u0412\u041a \u0411\u0456\u044f\u0442\u044d\u0441\u0442\"", "payment:cash": "yes", "payment:coins": "yes", "payment:credit_cards": "yes", "payment:debit_cards": "yes", "payment:maestro": "yes", "payment:mastercard": "yes", "payment:visa": "yes", "phone": "+375 152 74 00 81", "start_date": "1687", "tourism": "museum", "website": "https://am.biotest.by/", "wikidata": "Q3919535", "wikipedia": "be:\u0410\u043f\u0442\u044d\u043a\u0430 \u0435\u0437\u0443\u0456\u0442\u0430\u045e (\u0413\u0440\u043e\u0434\u043d\u0430)"}}, {"type": "node", "id": 320409823, "lat": 53.665624, "lon": 23.7890474, "tags": {"entrance": "yes"}}, {"type": "node", "id": 320409846, "lat": 53.663711, "lon": 23.7907, "tags": {"amenity": "pharmacy", "healthcare": "pharmacy"}}, {"type": "node", "id": 320409899, "lat": 53.6569761, "lon": 23.8492601, "tags": {"addr:city": "\u0413\u0440\u043e\u0434\u043d\u0430", "addr:housenumber": "78", "addr:street": "\u043f\u0440\u0430\u0441\u043f\u0435\u043a\u0442 \u042f\u043d\u043a\u0456 \u041a\u0443\u043f\u0430\u043b\u044b", "amenity": "pharmacy", "dispensing": "yes", "drive_through": "no", "healthcare": "pharmacy", "int_name": "Ivafarm \u21164", "name": "\u0406\u0432\u0430\u0444\u0430\u0440\u043c \u21164", "name:be": "\u0406\u0432\u0430\u0444\u0430\u0440\u043c \u21164", "name:ru": "\u0418\u0432\u0430\u0444\u0430\u0440\u043c \u21164", "opening_hours": "Mo-Fr 09:00-21:00; Sa-Su 10:00-16:00", "operator": "\u0418\u0432\u0430\u0444\u0430\u0440\u043c \u0427\u0422\u0423\u041f", "phone": "+375152338554"}}, {"type": "node", "id": 320409900, "lat": 53.6565437, "lon": 23.8496757, "tags": {"addr:city": "\u0413\u0440\u043e\u0434\u043d\u0430", "addr:housenumber": "80/3", "addr:street": "\u043f\u0440\u0430\u0441\u043f\u0435\u043a\u0442 \u042f\u043d\u043a\u0456 \u041a\u0443\u043f\u0430\u043b\u044b", "amenity": "pharmacy", "dispensing": "yes", "drive_through": "no", "healthcare": "pharmacy", "name": "\u041a\u043e\u043c\u043f\u043e\u0432\u0438\u0434 \u21161", "name:be": "\u041a\u0430\u043c\u043f\u0430\u0432\u0456\u0434 \u21161", "name:ru": "\u041a\u043e\u043c\u043f\u043e\u0432\u0438\u0434 \u21161", "opening_hours": "Mo-Su 08:00-21:00", "operator": "\u041e\u041e\u041e \u041a\u043e\u043c\u043f\u043e\u0432\u0438\u0434", "phone": "+375152512546"}}, {"type": "node", "id": 320539404, "lat": 53.6714156, "lon": 23.8037287}, {"type": "node", "id": 320684630, "lat": 53.6657292, "lon": 23.7891576}, {"type": "node", "id": 320684633, "lat": 53.6657009, "lon": 23.789354}, {"type": "node", "id": 320684637, "lat": 53.6657052, "lon": 23.7891477}, {"type": "node", "id": 320684640, "lat": 53.6657145, "lon": 23.7890831}, {"type": "node", "id": 320684645, "lat": 53.6655195, "lon": 23.7892795}, {"type": "node", "id": 320684647, "lat": 53.6655276, "lon": 23.7892232}, {"type": "node", "id": 320684649, "lat": 53.6654952, "lon": 23.7889929}, {"type": "node", "id": 320684654, "lat": 53.6654656, "lon": 23.7891977}, {"type": "node", "id": 350190570, "lat": 53.6589896, "lon": 23.8382194, "tags": {"addr:housenumber": "22", "addr:street": "\u043f\u0440\u0430\u0441\u043f\u0435\u043a\u0442 \u042f\u043d\u043a\u0456 \u041a\u0443\u043f\u0430\u043b\u044b", "amenity": "pharmacy", "dispensing": "yes", "drive_through": "no", "healthcare": "pharmacy", "name": "\u0424\u0430\u0440\u043c\u0430\u0446\u044b\u044f \u2116147", "name:be": "\u0424\u0430\u0440\u043c\u0430\u0446\u044b\u044f \u2116147", "name:ru": "\u0424\u0430\u0440\u043c\u0430\u0446\u0438\u044f \u2116147", "opening_hours": "Mo-Fr 08:00-21:00; Sa 09:00-19:00; Su 10:00-18:00", "operator": "\u0420\u0423\u041f \u0424\u0430\u0440\u043c\u0430\u0446\u0438\u044f", "phone": "80152689710", "website": "https://farmacia.by/", "wheelchair": "yes"}}, {"type": "node", "id": 391948800, "lat": 53.692917, "lon": 23.8240285, "tags": {"addr:city": "\u0413\u0440\u043e\u0434\u043d\u0430", "addr:housenumber": "53\u0410", "addr:street": "\u0432\u0443\u043b\u0456\u0446\u0430 \u041c\u0430\u043a\u0441\u0456\u043c\u0430 \u0413\u043e\u0440\u043a\u0430\u0433\u0430", "amenity": "pharmacy", "check_date": "2023-05-09", "dispensing": "no", "healthcare": "pharmacy", "level": "0", "name": "\u041c\u0430\u044f \u0410\u043f\u0442\u044d\u043a\u0430 \u211625", "name:be": "\u041c\u0430\u044f \u0410\u043f\u0442\u044d\u043a\u0430 \u211625", "name:ru": "\u041c\u043e\u044f \u0410\u043f\u0442\u0435\u043a\u0430 \u211625", "opening_hours": "Mo-Fr 09:00-20:00; Sa-Su 09:00-19:00", "operator": "\u041c\u043e\u044f \u0410\u043f\u0442\u0435\u043a\u0430 \u041e\u041e\u041e", "phone": "80152556599"}}, {"type": "node", "id": 442917918, "lat": 53.6772023, "lon": 23.8375562, "tags": {"addr:city": "\u0413\u0440\u043e\u0434\u043d\u0430", "addr:housenumber": "30", "addr:street": "\u0432\u0443\u043b\u0456\u0446\u0430 \u041a\u0430\u0440\u043b\u0430 \u041c\u0430\u0440\u043a\u0441\u0430", "amenity": "pharmacy", "check_date:opening_hours": "2025-07-12", "drive_through": "no", "healthcare": "pharmacy", "int_name": "Apteka \u21166", "name": "\u041c\u0430\u044f \u0410\u043f\u0442\u044d\u043a\u0430 \u21166", "name:be": "\u041c\u0430\u044f \u0410\u043f\u0442\u044d\u043a\u0430 \u21166", "name:ru": "\u041c\u043e\u044f \u0410\u043f\u0442\u0435\u043a\u0430 \u21166", "opening_hours": "Mo-Fr 09:00-19:00; Sa-Su 09:00-17:00", "operator": "\u041e\u041e\u041e \"\u041c\u043e\u044f \u0430\u043f\u0442\u0435\u043a\u0430\"", "phone": "+375152723187", "ref": "6", "source": "survey", "wheelchair": "no"}}, {"type": "node", "id": 483761371, "lat": 53.6974303, "lon": 23.8209124, "tags": {"addr:city": "\u0413\u0440\u043e\u0434\u043d\u0430", "addr:housenumber": "71", "addr:street": "\u0432\u0443\u043b\u0456\u0446\u0430 \u041c\u0430\u043a\u0441\u0456\u043c\u0430 \u0413\u043e\u0440\u043a\u0430\u0433\u0430", "amenity": "pharmacy", "check_date": "2023-01-09", "dispensing": "yes", "drive_through": "no", "healthcare": "pharmacy", "level": "0", "name": "\u0424\u0430\u0440\u043c\u0430\u0446\u044b\u044f \u2116119", "name:be": "\u0424\u0430\u0440\u043c\u0430\u0446\u044b\u044f \u2116119", "name:ru": "\u0424\u0430\u0440\u043c\u0430\u0446\u0438\u044f \u2116119", "opening_hours": "Mo-Fr 08:00-21:00; Sa 09:00-18:00; PH,Su 10:00-18:00", "operator": "\u0420\u0423\u041f \u0424\u0430\u0440\u043c\u0430\u0446\u0438\u044f", "ref:vatin": "BY500059690"}}, {"type": "node", "id": 577486492, "lat": 53.6777844, "lon": 23.8438911, "tags": {"addr:city": "\u0413\u0440\u043e\u0434\u043d\u0430", "addr:housenumber": "7\u0410", "addr:street": "\u0427\u044b\u0440\u0432\u043e\u043d\u0430\u0430\u0440\u043c\u0435\u0439\u0441\u043a\u0430\u044f \u0432\u0443\u043b\u0456\u0446\u0430", "amenity": "pharmacy", "contact:phone": "+375 152 623216", "contact:website": "https://www.instagram.com/alfaapteka_by/", "dispensing": "yes", "drive_through": "no", "healthcare": "pharmacy", "location": "indoor", "name": "\u0421\u0430\u043b\u044e\u0441\u043b\u0430\u0439\u043d \u21163", "name:be": "\u0421\u0430\u043b\u044e\u0441\u043b\u0430\u0439\u043d \u21163", "name:ru": "\u0421\u0430\u043b\u044e\u0441\u043b\u0430\u0439\u043d \u21163", "opening_hours": "Fr-Sa 08:00-19:00; Mo-Th,Su 09:00-17:00", "operator": "\u0421\u0430\u043b\u044e\u0441\u041b\u0430\u0439\u043d"}}, {"type": "node", "id": 700243151, "lat": 53.6496065, "lon": 23.8424589, "tags": {"addr:city": "\u0413\u0440\u043e\u0434\u043d\u0430", "addr:floor": "0", "addr:housenumber": "34", "addr:street": "\u043f\u0440\u0430\u0441\u043f\u0435\u043a\u0442 \u041a\u043b\u044f\u0446\u043a\u043e\u0432\u0430", "amenity": "pharmacy", "dispensing": "yes", "healthcare": "pharmacy", "int_name": "Apteka \u2116159", "name": "\u0424\u0430\u0440\u043c\u0430\u0446\u044b\u044f \u2116159", "name:be": "\u0424\u0430\u0440\u043c\u0430\u0446\u044b\u044f \u2116159", "name:ru": "\u0424\u0430\u0440\u043c\u0430\u0446\u0438\u044f \u2116159", "opening_hours": "Mo-Fr 08:00-21:00; Sa 09:00-19:00; Su 09:00-17:00", "operator": "\u0420\u0423\u041f \u0424\u0430\u0440\u043c\u0430\u0446\u0438\u044f", "phone": "+375152689938", "ref": "159", "website": "https://farmacia.by/"}}, {"type": "node", "id": 703944082, "lat": 53.6508195, "lon": 23.8368767, "tags": {"addr:floor": "0", "amenity": "pharmacy", "dispensing": "no", "healthcare": "pharmacy", "int_name": "Apteka \u21163", "name": "\u0410\u043f\u0442\u0435\u043a\u0430 \u21163", "name:be": "\u0410\u043f\u0442\u044d\u043a\u0430 \u21163", "name:ru": "\u0410\u043f\u0442\u0435\u043a\u0430 \u21163", "opening_hours": "Mo-Fr 08:30-21:00; Sa-Su 10:00-17:00", "operator": "\u0427\u0422\u0423\u041f \"\u0418\u0432\u0430\u0444\u0430\u0440\u043c\"", "phone": "56-34-71"}}, {"type": "node", "id": 705980418, "lat": 53.65314, "lon": 23.84911, "tags": {"addr:city": "\u0413\u0440\u043e\u0434\u043d\u0430", "addr:housenumber": "71", "addr:street": "\u043f\u0440\u0430\u0441\u043f\u0435\u043a\u0442 \u042f\u043d\u043a\u0456 \u041a\u0443\u043f\u0430\u043b\u044b", "amenity": "pharmacy", "dispensing": "no", "drive_through": "no", "healthcare": "pharmacy", "int_name": "Farmacyja \u2116199", "name": "\u0424\u0430\u0440\u043c\u0430\u0446\u044b\u044f \u2116199", "name:be": "\u0424\u0430\u0440\u043c\u0430\u0446\u044b\u044f \u2116199", "name:ru": "\u0424\u0430\u0440\u043c\u0430\u0446\u0438\u044f \u2116199", "opening_hours": "Mo-Fr 09:00-20:00; Sa-Su 10:00-18:00", "operator": "\u0420\u0423\u041f \u0424\u0430\u0440\u043c\u0430\u0446\u0438\u044f", "phone": "+375152390068", "ref": "199"}}, {"type": "node", "id": 717837617, "lat": 53.6567476, "lon": 23.8406963, "tags": {"addr:city": "\u0413\u0440\u043e\u0434\u043d\u0430", "addr:housenumber": "49", "addr:street": "\u043f\u0440\u0430\u0441\u043f\u0435\u043a\u0442 \u042f\u043d\u043a\u0456 \u041a\u0443\u043f\u0430\u043b\u044b", "amenity": "pharmacy", "contact:phone": "80152687848", "contact:website": "https://alfaapteka.by", "dispensing": "yes", "drive_through": "no", "healthcare": "pharmacy", "int_name": "Apteka \u21163", "name": "\u0410\u043b\u044c\u0444\u0430 \u0410\u043f\u0442\u0435\u043a\u0430 \u211620", "name:be": "\u0410\u043b\u044c\u0444\u0430 \u0410\u043f\u0442\u044d\u043a\u0430 \u211620", "name:ru": "\u0410\u043b\u044c\u0444\u0430 \u0410\u043f\u0442\u0435\u043a\u0430 \u211620", "opening_hours": "Mo-Su 09:00-21:00", "operator": "\u0421\u0430\u043b\u044e\u0441\u041b\u0430\u0439\u043d"}}, {"type": "node", "id": 717859178, "lat": 53.6477511, "lon": 23.8313663, "tags": {"addr:city": "\u0413\u0440\u043e\u0434\u043d\u0430", "addr:housenumber": "5", "addr:street": "\u0432\u0443\u043b\u0456\u0446\u0430 \u0421\u043b\u0430\u0432\u0456\u043d\u0441\u043a\u0430\u0433\u0430", "amenity": "pharmacy", "contact:phone": "80152332190", "contact:website": "https://alfaapteka.by", "dispensing": "no", "healthcare": "pharmacy", "int_name": "Apteka", "name": "\u0410\u043b\u044c\u0444\u0430 \u0410\u043f\u0442\u0435\u043a\u0430 \u21167", "name:be": "\u0410\u043b\u044c\u0444\u0430 \u0410\u043f\u0442\u044d\u043a\u0430 \u21167", "name:ru": "\u0410\u043b\u044c\u0444\u0430 \u0410\u043f\u0442\u0435\u043a\u0430 \u21167", "opening_hours": "Mo-Fr 08:00-20:00; Sa 09:00-19:00; Su 10:00-18:00", "operator": "\u0421\u0430\u043b\u044e\u0441\u041b\u0430\u0439\u043d", "ref": "7"}}, {"type": "node", "id": 999455295, "lat": 53.6268831, "lon": 23.8566234, "tags": {"addr:city": "\u0413\u0440\u043e\u0434\u043d\u0430", "addr:housenumber": "15", "addr:street": "\u0432\u0443\u043b\u0456\u0446\u0430 \u0413\u0440\u044b\u0433\u0430\u0440\u043e\u0432\u0456\u0447\u0430", "amenity": "pharmacy", "dispensing": "yes", "healthcare": "pharmacy", "name": "\u0424\u0430\u0440\u043c\u0430\u0446\u044b\u044f \u2116160", "name:be": "\u0424\u0430\u0440\u043c\u0430\u0446\u044b\u044f \u2116160", "name:ru": "\u0424\u0430\u0440\u043c\u0430\u0446\u0438\u044f \u2116160", "opening_hours": "Mo-Fr 08:00-19:30; Sa 09:00-17:00; Su Off", "operator": "\u0420\u0423\u041f \u0424\u0430\u0440\u043c\u0430\u0446\u0438\u044f", "phone": "+375152339464", "website": "https://farmacia.by/"}}, {"type": "node", "id": 1101544403, "lat": 53.6618675, "lon": 23.781993, "tags": {"addr:city": "\u0413\u0440\u043e\u0434\u043d\u0430", "addr:housenumber": "15/204\u0410", "addr:street": "\u0432\u0443\u043b\u0456\u0446\u0430 \u0424\u043e\u043b\u044e\u0448", "amenity": "pharmacy", "drive_through": "no", "healthcare": "pharmacy", "name": "\u0424\u0430\u0440\u043c\u0430\u0446\u044b\u044f \u2116221", "name:be": "\u0424\u0430\u0440\u043c\u0430\u0446\u044b\u044f \u2116221", "name:ru": "\u0424\u0430\u0440\u043c\u0430\u0446\u0438\u044f \u2116221", "opening_hours": "Mo-Fr 08:00-20:00; Sa-Su 10:00-18:00", "operator": "\u0420\u0423\u041f \u0424\u0430\u0440\u043c\u0430\u0446\u0438\u044f", "phone": "+375152691423", "website": "https://farmacia.by/"}}, {"type": "node", "id": 1255373962, "lat": 53.7074627, "lon": 23.8153245, "tags": {"addr:housenumber": "90", "addr:street": "\u0432\u0443\u043b\u0456\u0446\u0430 \u041c\u0430\u043a\u0441\u0456\u043c\u0430 \u0413\u043e\u0440\u043a\u0430\u0433\u0430", "amenity": "pharmacy", "dispensing": "yes", "healthcare": "pharmacy", "name": "\u0424\u0430\u0440\u043c\u0430\u0446\u044b\u044f \u211649", "name:be": "\u0424\u0430\u0440\u043c\u0430\u0446\u044b\u044f \u211649", "name:ru": "\u0424\u0430\u0440\u043c\u0430\u0446\u0438\u044f \u211649", "opening_hours": "Mo-Su 08:00-20:00; Sa-Su 10:00-18:00", "operator": "\u0413\u0440\u043e\u0434\u043d\u0435\u043d\u0441\u043a\u043e\u0435 \u0420\u0423\u041f \u0424\u0430\u0440\u043c\u0430\u0446\u0438\u044f", "phone": "+375152643389", "website": "https://farmacia.by"}}, {"type": "node", "id": 1561249537, "lat": 53.7024805, "lon": 23.8061553, "tags": {"addr:city": "\u0413\u0440\u043e\u0434\u043d\u0430", "addr:housenumber": "46/1", "addr:street": "\u0432\u0443\u043b\u0456\u0446\u0430 \u0423\u0440\u0443\u0431\u043b\u0435\u045e\u0441\u043a\u0430\u0433\u0430", "amenity": "pharmacy", "check_date": "2024-03-11", "healthcare": "pharmacy", "name": "\u0424\u0430\u0440\u043c\u0430\u0446\u044b\u044f \u2116200", "name:be": "\u0424\u0430\u0440\u043c\u0430\u0446\u044b\u044f \u2116200", "name:ru": "\u0424\u0430\u0440\u043c\u0430\u0446\u0438\u044f \u2116200", "opening_hours": "Mo-Fr 07:30-13:00,13:30-20:30; Sa 09:00-13:00,13:30-18:00; Su 10:00-13:00,13:30-18:00; PH off", "operator": "\u0420\u0423\u041f \u0424\u0430\u0440\u043c\u0430\u0446\u0438\u044f", "phone": "80152480162", "website": "https://farmacia.by/"}}, {"type": "node", "id": 1561249571, "lat": 53.6975115, "lon": 23.8022055, "tags": {"addr:city": "\u0413\u0440\u043e\u0434\u043d\u0430", "addr:housenumber": "43\u0410", "addr:street": "\u0431\u0443\u043b\u044c\u0432\u0430\u0440 \u041b\u0435\u043d\u0456\u043d\u0441\u043a\u0430\u0433\u0430 \u041a\u0430\u043c\u0441\u0430\u043c\u043e\u043b\u0430", "amenity": "pharmacy", "dispensing": "yes", "drive_through": "no", "healthcare": "pharmacy", "name": "\u0406\u0432\u0430\u0444\u0430\u0440\u043c \u21169", "name:be": "\u0406\u0432\u0430\u0444\u0430\u0440\u043c \u21169", "name:ru": "\u0418\u0432\u0430\u0444\u0430\u0440\u043c \u21169", "opening_hours": "Mo-Su 08:00-22:00", "operator": "\u0418\u0432\u0430\u0444\u0430\u0440\u043c \u0427\u0422\u0423\u041f"}}, {"type": "node", "id": 1624561633, "lat": 53.6967972, "lon": 23.8049084, "tags": {"addr:city": "\u0413\u0440\u043e\u0434\u043d\u0430", "addr:housenumber": "44", "addr:street": "\u0431\u0443\u043b\u044c\u0432\u0430\u0440 \u041b\u0435\u043d\u0456\u043d\u0441\u043a\u0430\u0433\u0430 \u041a\u0430\u043c\u0441\u0430\u043c\u043e\u043b\u0430", "amenity": "pharmacy", "check_date": "2021-11-12", "healthcare": "pharmacy", "inscription": "\u0410\u043f\u0442\u0435\u043a\u0430", "name": "\u041c\u0430\u044f \u0430\u043f\u0442\u044d\u043a\u0430 \u211678", "name:be": "\u041c\u0430\u044f \u0430\u043f\u0442\u044d\u043a\u0430 \u211678", "name:ru": "\u041c\u043e\u044f \u0430\u043f\u0442\u0435\u043a\u0430 \u211678", "opening_hours": "Mo-Fr 09:00-21:00; Sa,Su 09:00-20:00", "operator": "\u041c\u043e\u044f \u0430\u043f\u0442\u0435\u043a\u0430", "ref": "78", "was:name": "\u0421\u043c\u0430\u0439\u043b", "was:shop": "chemist"}}, {"type": "node", "id": 1625751208, "lat": 53.7001044, "lon": 23.8200611, "tags": {"addr:city": "\u0413\u0440\u043e\u0434\u043d\u0430", "addr:housenumber": "77", "addr:street": "\u0432\u0443\u043b\u0456\u0446\u0430 \u041c\u0430\u043a\u0441\u0456\u043c\u0430 \u0413\u043e\u0440\u043a\u0430\u0433\u0430", "amenity": "pharmacy", "drive_through": "no", "healthcare": "pharmacy", "int_name": "Apteka \u2116215", "name": "\u0424\u0430\u0440\u043c\u0430\u0446\u044b\u044f \u2116215", "name:be": "\u0424\u0430\u0440\u043c\u0430\u0446\u044b\u044f \u2116215", "name:ru": "\u0424\u0430\u0440\u043c\u0430\u0446\u0438\u044f \u2116215", "opening_hours": "Mo-Fr 08:30-16:00; Sa-Su Off", "operator": "\u0420\u0423\u041f \u0424\u0430\u0440\u043c\u0430\u0446\u0438\u044f", "phone": "80152486400", "website": "https://farmacia.by/"}}, {"type": "node", "id": 1651448663, "lat": 53.6564863, "lon": 23.7807528, "tags": {"addr:city": "\u0413\u0440\u043e\u0434\u043d\u0430", "addr:housenumber": "112", "addr:street": "\u0432\u0443\u043b\u0456\u0446\u0430 \u0412\u043e\u043b\u044c\u0433\u0456 \u0421\u043e\u043b\u0430\u043c\u0430\u0432\u0430\u0439", "amenity": "pharmacy", "dispensing": "yes", "drive_through": "no", "healthcare": "pharmacy", "name": "\u0414\u043e\u043a\u0442\u043e\u0440 \u0412\u0440\u0435\u043c\u044f \u211639", "name:be": "\u0414\u043e\u043a\u0442\u0430\u0440 \u0427\u0430\u0441 \u211639", "name:ru": "\u0414\u043e\u043a\u0442\u043e\u0440 \u0412\u0440\u0435\u043c\u044f \u211639", "opening_hours": "Mo-Su 09:00-22:00", "operator": "\u0414\u043e\u043a\u0442\u043e\u0440 \u0412\u0440\u0435\u043c\u044f \u041e\u041e\u041e"}}, {"type": "node", "id": 1782387641, "lat": 53.6980442, "lon": 23.8119786, "tags": {"addr:city": "\u0413\u0440\u043e\u0434\u043d\u0430", "addr:housenumber": "26", "addr:street": "\u0431\u0443\u043b\u044c\u0432\u0430\u0440 \u041b\u0435\u043d\u0456\u043d\u0441\u043a\u0430\u0433\u0430 \u041a\u0430\u043c\u0441\u0430\u043c\u043e\u043b\u0430", "amenity": "pharmacy", "check_date": "2022-12-08", "dispensing": "yes", "drive_through": "no", "healthcare": "pharmacy", "level": "-1", "name": "\u041c\u0430\u044f \u0410\u043f\u0442\u044d\u043a\u0430 \u211624", "name:be": "\u041c\u0430\u044f \u0410\u043f\u0442\u044d\u043a\u0430 \u211624", "name:ru": "\u041c\u043e\u044f \u0410\u043f\u0442\u0435\u043a\u0430 \u211624", "opening_hours": "Mo-Fr 08:30-20:30; Sa-Su 09:00-19:00", "operator": "\u041c\u043e\u044f \u0410\u043f\u0442\u0435\u043a\u0430 \u041e\u041e\u041e", "phone": "80152445052"}}, {"type": "node", "id": 1908417717, "lat": 53.6482868, "lon": 23.8332541, "tags": {"addr:city": "\u0413\u0440\u043e\u0434\u043d\u0430", "addr:housenumber": "6\u0410", "addr:street": "\u0432\u0443\u043b\u0456\u0446\u0430 \u0422\u043e\u043c\u0456\u043d\u0430", "amenity": "pharmacy", "healthcare": "pharmacy", "int_name": "Apteka", "name": "\u0406\u0432\u0430\u0444\u0430\u0440\u043c \u21168", "name:be": "\u0406\u0432\u0430\u0444\u0430\u0440\u043c \u21168", "name:ru": "\u0418\u0432\u0430\u0444\u0430\u0440\u043c \u21168", "opening_hours": "Mo-Fr 08:30-00:00; Sa-Su 10:00-00:00", "operator": "\u0427\u0422\u0423\u041f \u0418\u0432\u0430\u0444\u0430\u0440\u043c", "phone": "+375152319094"}}, {"type": "node", "id": 2058941523, "lat": 53.6654838, "lon": 23.7890714, "tags": {"amenity": "atm", "cash_in": "no", "currency:BYN": "yes", "drive_through": "no", "opening_hours": "24/7", "operator": "\u0411\u041f\u0421-\u0421\u0431\u0435\u0440\u0431\u0430\u043d\u043a", "phone": "148", "ref": "ATM11351"}}, {"type": "node", "id": 2264592269, "lat": 53.7054641, "lon": 23.7976846, "tags": {"addr:city": "\u0413\u0440\u043e\u0434\u043d\u0430", "addr:housenumber": "47\u0410", "addr:street": "\u0432\u0443\u043b\u0456\u0446\u0430 \u0414\u0430\u043c\u0431\u0440\u043e\u045e\u0441\u043a\u0430\u0433\u0430", "alt_name": "\u0410\u043f\u0442\u044d\u043a\u0430 \u0414\u0430\u0431\u0440\u0430\u0434\u0437\u0435\u044f", "amenity": "pharmacy", "brand": "\u0410\u043f\u0442\u044d\u043a\u0430 \u0414\u0430\u0431\u0440\u0430\u0434\u0437\u0435\u044f", "check_date": "2024-05-29", "contact:phone": "+375152551716", "healthcare": "pharmacy", "int_name": "DabradziejaFarm \u21163", "name": "\u0414\u0430\u0431\u0440\u0430\u0434\u0437\u0435\u044f\u0424\u0430\u0440\u043c \u21163", "name:be": "\u0414\u0430\u0431\u0440\u0430\u0434\u0437\u0435\u044f\u0424\u0430\u0440\u043c \u21163", "opening_hours": "Mo-Fr 08:00-21:00; Sa 09:00-21:00; Su 09:00-19:00", "operator": "\u0414\u0430\u0431\u0440\u0430\u0434\u0437\u0435\u044f\u0424\u0430\u0440\u043c", "ref": "3"}}, {"type": "node", "id": 2267109763, "lat": 53.6716856, "lon": 23.7988781, "tags": {"amenity": "pharmacy", "healthcare": "pharmacy", "name": "\u0414\u043e\u043a\u0442\u0430\u0440 \u0447\u0430\u0441", "name:be": "\u0414\u043e\u043a\u0442\u0430\u0440 \u0447\u0430\u0441", "name:ru": "\u0414\u043e\u043a\u0442\u043e\u0440 \u0432\u0440\u0435\u043c\u044f", "opening_hours": "Mo-Fr 09:00-22:00; Sa-Su 09:00-21:00", "ref": "60"}}, {"type": "node", "id": 2569882248, "lat": 53.6945001, "lon": 23.7922003}, {"type": "node", "id": 2569882250, "lat": 53.6945339, "lon": 23.7924379}, {"type": "node", "id": 2569882263, "lat": 53.6946651, "lon": 23.7921334}, {"type": "node", "id": 2569882269, "lat": 53.6946936, "lon": 23.7923341}, {"type": "node", "id": 2690057476, "lat": 53.6828332, "lon": 23.8333156, "tags": {"addr:city": "\u0413\u0440\u043e\u0434\u043d\u0430", "addr:housenumber": "8", "addr:street": "\u0432\u0443\u043b\u0456\u0446\u0430 \u042d\u043b\u0456\u0437\u044b \u0410\u0436\u044d\u0448\u043a\u0456", "amenity": "pharmacy", "check_date:opening_hours": "2022-01-14", "dispensing": "yes", "healthcare": "pharmacy", "name": "\u0406\u0441\u043a\u0430\u043c\u0435\u0434 \u211686", "name:be": "\u0406\u0441\u043a\u0430\u043c\u0435\u0434 \u211686", "name:ru": "\u0418\u0441\u043a\u0430\u043c\u0435\u0434 \u211686", "opening_hours": "Mo-Fr 09:00-21:00; Sa-Su 10:00-18:00", "operator": "\u041e\u041e\u041e \u0418\u0441\u043a\u0430\u043c\u0435\u0434", "phone": "80152685550", "website": "https://iskamed.by/", "wheelchair": "yes"}}, {"type": "node", "id": 3236339916, "lat": 53.6665736, "lon": 23.7887777, "tags": {"addr:city": "\u0413\u0440\u043e\u0434\u043d\u0430", "addr:housenumber": "70", "addr:street": "\u0432\u0443\u043b\u0456\u0446\u0430 \u0412\u043e\u043b\u044c\u0433\u0456 \u0421\u043e\u043b\u0430\u043c\u0430\u0432\u0430\u0439", "amenity": "pharmacy", "dispensing": "yes", "drive_through": "no", "healthcare": "pharmacy", "name": "\u041c\u0430\u044f \u0410\u043f\u0442\u044d\u043a\u0430 \u211626", "name:be": "\u041c\u0430\u044f \u0410\u043f\u0442\u044d\u043a\u0430 \u211626", "name:ru": "\u041c\u043e\u044f \u0410\u043f\u0442\u0435\u043a\u0430 \u211626", "opening_hours": "Mo-Sa 09:00-21:00; Su 09:00-19:00", "operator": "\u041c\u043e\u044f \u0410\u043f\u0442\u0435\u043a\u0430 \u041e\u041e\u041e", "phone": "+375152532146"}}, {"type": "node", "id": 3245269901, "lat": 53.6709544, "lon": 23.8075396, "tags": {"amenity": "pharmacy", "healthcare": "pharmacy", "int_name": "Miedtechnika", "name": "\u041c\u0435\u0434\u0442\u0435\u0445\u043d\u0438\u043a\u0430", "name:be": "\u041c\u0435\u0434\u0442\u044d\u0445\u043d\u0456\u043a\u0430", "name:ru": "\u041c\u0435\u0434\u0442\u0435\u0445\u043d\u0438\u043a\u0430", "opening_hours": "Mo-Fr 10:00-19:00; Sa,Su 10:00-17:00"}}, {"type": "node", "id": 3670097197, "lat": 53.6945869, "lon": 23.7923773}, {"type": "node", "id": 3670097198, "lat": 53.6945921, "lon": 23.7924143}, {"type": "node", "id": 3770339646, "lat": 53.6603585, "lon": 23.8124969, "tags": {"addr:city": "\u0413\u0440\u043e\u0434\u043d\u0430", "addr:housenumber": "21", "addr:street": "\u0432\u0443\u043b\u0456\u0446\u0430 \u0421\u0443\u0432\u043e\u0440\u0430\u0432\u0430", "amenity": "pharmacy", "healthcare": "pharmacy", "name": "\u0424\u0430\u0440\u043c\u0430\u0446\u044b\u044f \u2116220", "name:be": "\u0424\u0430\u0440\u043c\u0430\u0446\u044b\u044f \u2116220", "name:ru": "\u0424\u0430\u0440\u043c\u0430\u0446\u0438\u044f \u2116220", "opening_hours": "Mo-Fr 09:00-18:00; Sa-Su Off", "operator": "\u0420\u0423\u041f \u0424\u0430\u0440\u043c\u0430\u0446\u0438\u044f", "phone": "+375152532764", "website": "https://farmacia.by/"}}, {"type": "node", "id": 3835343782, "lat": 53.6231134, "lon": 23.8018054, "tags": {"addr:city": "\u0413\u0440\u043e\u0434\u043d\u0430", "addr:housenumber": "43", "addr:street": "\u0432\u0443\u043b\u0456\u0446\u0430 \u0410\u0433\u0456\u043d\u0441\u043a\u0430\u0433\u0430", "amenity": "pharmacy", "dispensing": "yes", "drive_through": "no", "healthcare": "pharmacy", "name": "\u0424\u0430\u0440\u043c\u0430\u0446\u044b\u044f \u2116110", "name:be": "\u0424\u0430\u0440\u043c\u0430\u0446\u044b\u044f \u2116110", "name:ru": "\u0424\u0430\u0440\u043c\u0430\u0446\u0438\u044f \u2116110", "opening_hours": "Mo-Fr 09:00-16:25, Sa-Su off", "operator": "\u0420\u0423\u041f \u0424\u0430\u0440\u043c\u0430\u0446\u0438\u044f", "phone": "+375152674699", "ref": "110", "website": "https://farmacia.by/"}}, {"type": "node", "id": 3835343783, "lat": 53.6224602, "lon": 23.8154731, "tags": {"addr:city": "\u0413\u0440\u043e\u0434\u043d\u0430", "addr:housenumber": "13", "addr:street": "\u0432\u0443\u043b\u0456\u0446\u0430 \u0412\u044f\u043b\u0456\u043a\u0430\u044f \u0410\u043b\u044c\u0448\u0430\u043d\u043a\u0430", "amenity": "pharmacy", "drive_through": "no", "healthcare": "pharmacy", "name": "\u0424\u0430\u0440\u043c\u0430\u0446\u044b\u044f \u2116195", "name:be": "\u0424\u0430\u0440\u043c\u0430\u0446\u044b\u044f \u2116195", "name:ru": "\u0424\u0430\u0440\u043c\u0430\u0446\u0438\u044f \u2116195", "opening_hours": "Mo-Fr 09:00-21:00; Sa-Su 10:00-20:00", "operator": "\u0420\u0423\u041f \u0424\u0430\u0440\u043c\u0430\u0446\u0438\u044f", "phone": "+375152670275", "website": "https://farmacia.by/"}}, {"type": "node", "id": 3946739885, "lat": 53.6593019, "lon": 23.7809665, "tags": {"addr:city": "\u0413\u0440\u043e\u0434\u043d\u0430", "addr:housenumber": "137", "addr:street": "\u0432\u0443\u043b\u0456\u0446\u0430 \u0412\u043e\u043b\u044c\u0433\u0456 \u0421\u043e\u043b\u0430\u043c\u0430\u0432\u0430\u0439", "amenity": "pharmacy", "contact:phone": "+375152697854", "contact:website": "https://alfaapteka.by", "dispensing": "yes", "drive_through": "no", "healthcare": "pharmacy", "inscription": "\u0410\u043f\u0442\u0435\u043a\u0430 \u211622", "name": "\u0421\u0430\u043b\u044e\u0441\u043b\u0430\u0439\u043d \u211622", "name:be": "\u0421\u0430\u043b\u044e\u0441\u043b\u0430\u0439\u043d \u211622", "name:ru": "\u0421\u0430\u043b\u044e\u0441\u043b\u0430\u0439\u043d \u211622", "opening_hours": "Mo-Sa 09:00-21:00; Su 10:00-18:00", "operator": "\u0421\u0430\u043b\u044e\u0441\u041b\u0430\u0439\u043d"}}, {"type": "node", "id": 4002604534, "lat": 53.6707466, "lon": 23.8186283, "tags": {"addr:city": "\u0413\u0440\u043e\u0434\u043d\u0430", "addr:housenumber": "11", "addr:street": "\u0432\u0443\u043b\u0456\u0446\u0430 \u0426\u0456\u0442\u043e\u0432\u0430", "amenity": "pharmacy", "drive_through": "no", "healthcare": "pharmacy", "name": "\u0406\u0432\u0430\u0444\u0430\u0440\u043c \u21161", "name:be": "\u0406\u0432\u0430\u0444\u0430\u0440\u043c \u21161", "name:ru": "\u0418\u0432\u0430\u0444\u0430\u0440\u043c \u21161", "opening_hours": "Mo-Fr 08:00-21:00; Sa-Su 10:00-20:00", "operator": "\u0427\u0422\u0423\u041f \"\u0418\u0432\u0430\u0444\u0430\u0440\u043c\"", "phone": "+375152527238"}}, {"type": "node", "id": 4005669592, "lat": 53.6777281, "lon": 23.830806, "tags": {"addr:city": "\u0413\u0440\u043e\u0434\u043d\u0430", "addr:housenumber": "1", "addr:street": "\u0432\u0443\u043b\u0456\u0446\u0430 \u041a\u0430\u0440\u043b\u0430 \u041c\u0430\u0440\u043a\u0441\u0430", "amenity": "pharmacy", "dispensing": "yes", "healthcare": "pharmacy", "name": "\u0424\u0430\u0440\u043c\u0430\u0446\u044b\u044f \u211636", "name:be": "\u0424\u0430\u0440\u043c\u0430\u0446\u044b\u044f \u211636", "name:ru": "\u0424\u0430\u0440\u043c\u0430\u0446\u0438\u044f \u211636", "opening_hours": "Mo-Fr 07:30-21:00; 09:00-18:00", "operator": "\u0420\u0423\u041f \u0424\u0430\u0440\u043c\u0430\u0446\u0438\u044f", "phone": "+375152963985", "website": "https://farmacia.by/"}}, {"type": "node", "id": 4228789490, "lat": 53.6528528, "lon": 23.8342445, "tags": {"amenity": "pharmacy", "healthcare": "pharmacy", "note": "survey needed"}}, {"type": "node", "id": 4276212891, "lat": 53.6759651, "lon": 23.8452577, "tags": {"addr:city": "\u0413\u0440\u043e\u0434\u043d\u0430", "addr:housenumber": "27", "addr:street": "\u043f\u0440\u0430\u0441\u043f\u0435\u043a\u0442 \u041a\u0430\u0441\u043c\u0430\u043d\u0430\u045e\u0442\u0430\u045e", "amenity": "pharmacy", "check_date": "2024-05-26", "dispensing": "yes", "drive_through": "no", "healthcare": "pharmacy", "name": "\u0418\u0441\u043a\u0430\u043c\u0435\u0434 \u211651", "name:be": "\u0406\u0441\u043a\u0430\u043c\u0435\u0434 \u211651", "name:ru": "\u0418\u0441\u043a\u0430\u043c\u0435\u0434 \u211651", "opening_hours": "Mo-Fr 09:00-21:00; Sa-Su 09:00-18:00", "operator": "\u0418\u0441\u043a\u0430\u043c\u0435\u0434 \u041e\u041e\u041e", "phone": "80152717150", "website": "https://iskamed.by/"}}, {"type": "node", "id": 4288370590, "lat": 53.4603064, "lon": 23.8825982, "tags": {"addr:housenumber": "1", "addr:street": "\u0432\u0443\u043b\u0456\u0446\u0430 \u041d\u044f\u043a\u0440\u0430\u0441\u0430\u0432\u0430", "amenity": "pharmacy", "drive_through": "no", "healthcare": "pharmacy", "name": "\u0424\u0430\u0440\u043c\u0430\u0446\u0438\u044f \u211619", "name:be": "\u0424\u0430\u0440\u043c\u0430\u0446\u044b\u044f \u211619", "name:ru": "\u0424\u0430\u0440\u043c\u0430\u0446\u0438\u044f \u211619", "opening_hours": "Mo-Fr 09:00-17:00; Sa 09:00-14:00; Su Off", "operator": "\u0420\u0423\u041f \u0424\u0430\u0440\u043c\u0430\u0446\u0438\u044f", "phone": "80152962788", "website": "https://farmacia.by/"}}, {"type": "node", "id": 4332453689, "lat": 53.6761075, "lon": 23.8420105, "tags": {"addr:city": "\u0413\u0440\u043e\u0434\u043d\u0430", "addr:housenumber": "4", "addr:street": "\u0432\u0443\u043b\u0456\u0446\u0430 \u0410\u043d\u0442\u043e\u043d\u0430\u0432\u0430", "amenity": "pharmacy", "dispensing": "yes", "drive_through": "no", "healthcare": "pharmacy", "name": "\u0424\u0430\u0440\u043c\u0430\u0446\u044b\u044f \u21163", "name:be": "\u0424\u0430\u0440\u043c\u0430\u0446\u044b\u044f \u21163", "name:ru": "\u0424\u0430\u0440\u043c\u0430\u0446\u0438\u044f \u21163", "opening_hours": "Mo-Fr 08:00-20:00; Sa 08:00-18:00; Su 08:00-17:00", "operator": "\u0420\u0423\u041f \u0424\u0430\u0440\u043c\u0430\u0446\u0438\u044f", "phone": "+375152620123", "website": "https://farmacia.by"}}, {"type": "node", "id": 4358273496, "lat": 53.6694244, "lon": 23.8187749, "tags": {"addr:city": "\u0413\u0440\u043e\u0434\u043d\u0430", "addr:housenumber": "54", "addr:street": "\u0432\u0443\u043b\u0456\u0446\u0430 \u0421\u0430\u0432\u0435\u0446\u043a\u0456\u0445 \u041f\u0430\u0433\u0440\u0430\u043d\u0456\u0447\u043d\u0456\u043a\u0430\u045e", "amenity": "pharmacy", "drive_through": "no", "healthcare": "pharmacy", "name": "\u0424\u0430\u0440\u043c\u0430\u0446\u044b\u044f \u2116230", "name:be": "\u0424\u0430\u0440\u043c\u0430\u0446\u044b\u044f \u2116230", "name:ru": "\u0424\u0430\u0440\u043c\u0430\u0446\u0438\u044f \u2116230", "opening_hours": "Mo-Fr 08:30-20:00; Sa-Su 10:00-18:00", "operator": "\u0420\u0423\u041f \u0424\u0430\u0440\u043c\u0430\u0446\u0438\u044f", "phone": "+375152658826", "ref": "230", "website": "https://farmacia.by/"}}, {"type": "node", "id": 4358273891, "lat": 53.670235, "lon": 23.8221081, "tags": {"addr:city": "\u0413\u0440\u043e\u0434\u043d\u0430", "addr:housenumber": "3", "addr:street": "\u0422\u0440\u0430\u043d\u0441\u043f\u0430\u0440\u0442\u043d\u0430\u044f \u0432\u0443\u043b\u0456\u0446\u0430", "amenity": "pharmacy", "dispensing": "yes", "drive_through": "no", "healthcare": "pharmacy", "name": "\u0424\u0430\u0440\u043c\u0430\u0446\u044b\u044f \u2116150", "name:be": "\u0424\u0430\u0440\u043c\u0430\u0446\u044b\u044f \u2116150", "name:ru": "\u0424\u0430\u0440\u043c\u0430\u0446\u0438\u044f \u2116150", "opening_hours": "Mo-Fr 07:30-20:00; Sa 08:30-16:00; Su Off", "operator": "\u0420\u0423\u041f \u0424\u0430\u0440\u043c\u0430\u0446\u0438\u044f", "phone": "+375152651080", "website": "https://farmacia.by/"}}, {"type": "node", "id": 4497022570, "lat": 53.6806465, "lon": 23.8308594, "tags": {"amenity": "pharmacy", "contact:phone": "+375 152 621544", "contact:website": "https://www.instagram.com/alfaapteka_by/", "dispensing": "yes", "drive_through": "no", "healthcare": "pharmacy", "name": "\u0421\u0430\u043b\u044e\u0441\u043b\u0430\u0439\u043d \u0410\u043f\u0442\u0435\u043a\u0430 \u21161", "name:be": "\u0421\u0430\u043b\u044e\u0441\u043b\u0430\u0439\u043d \u0410\u043f\u0442\u044d\u043a\u0430 \u21161", "name:ru": "\u0421\u0430\u043b\u044e\u0441\u043b\u0430\u0439\u043d \u0410\u043f\u0442\u0435\u043a\u0430 \u21161", "old_name": "\u0421\u0430\u043b\u044e\u0441\u043b\u0430\u0439\u043d \u21161", "opening_hours": "Mo-Fr 08:00-20:00; Sa 09:00-20:00; Su 10:00-19:00", "operator": "\u0421\u0430\u043b\u044e\u0441\u043b\u0430\u0439\u043d \u041e\u0414\u041e"}}, {"type": "node", "id": 4502329593, "lat": 53.689816, "lon": 23.8057685, "tags": {"addr:city": "\u0413\u0440\u043e\u0434\u043d\u0430", "addr:housenumber": "50", "addr:street": "\u0432\u0443\u043b\u0456\u0446\u0430 \u041a\u0430\u043b\u0456\u043d\u043e\u045e\u0441\u043a\u0430\u0433\u0430", "amenity": "pharmacy", "drive_through": "no", "healthcare": "pharmacy", "name": "\u0410\u043b\u044c\u0444\u0430 \u0430\u043f\u0442\u044d\u043a\u0430 \u211613", "name:be": "\u0410\u043b\u044c\u0444\u0430 \u0430\u043f\u0442\u044d\u043a\u0430 \u211613", "name:ru": "\u0410\u043b\u044c\u0444\u0430 \u0430\u043f\u0442\u0435\u043a\u0430 \u211613", "opening_hours": "Mo-Fr 09:00-21:00; Sa 10:00-20:00; Su 10:00-19:00", "operator": "\u041e\u0414\u041e \u0421\u0430\u043b\u044e\u0441\u043b\u0430\u0439\u043d", "phone": "+375152552290", "ref": "13"}}, {"type": "node", "id": 4504178494, "lat": 53.6622831, "lon": 23.8143173, "tags": {"addr:city": "\u0413\u0440\u043e\u0434\u043d\u0430", "addr:housenumber": "13", "addr:street": "\u0432\u0443\u043b\u0456\u0446\u0430 \u0421\u0443\u0432\u043e\u0440\u0430\u0432\u0430", "amenity": "pharmacy", "brand": "\u0410\u043b\u044c\u0444\u0430 \u0410\u043f\u0442\u0435\u043a\u0430", "check_date": "2022-10-10", "contact:instagram": "alfaapteka_by", "contact:phone": "+375 152 397906", "contact:website": "https://alfaapteka.by", "dispensing": "yes", "drive_through": "no", "healthcare": "pharmacy", "name": "\u0421\u0430\u043b\u044e\u0441\u043b\u0430\u0439\u043d \u21165", "name:be": "\u0421\u0430\u043b\u044e\u0441\u043b\u0430\u0439\u043d \u21165", "name:ru": "\u0421\u0430\u043b\u044e\u0441\u043b\u0430\u0439\u043d \u21165", "opening_hours": "Mo-Fr 09:00-19:30; Sa-Su 10:00-18:00", "operator": "\u0421\u0430\u043b\u044e\u0441\u043b\u0430\u0439\u043d \u041e\u0414\u041e"}}, {"type": "node", "id": 4663175890, "lat": 53.6762457, "lon": 23.8427253, "tags": {"addr:housenumber": "9", "addr:street": "\u043f\u0440\u0430\u0441\u043f\u0435\u043a\u0442 \u041a\u0430\u0441\u043c\u0430\u043d\u0430\u045e\u0442\u0430\u045e", "amenity": "pharmacy", "dispensing": "yes", "drive_through": "no", "healthcare": "pharmacy", "name": "\u0424\u0430\u0440\u043c\u043c\u0435\u0434 \u041f\u0440\u044d\u043f\u0430\u0440\u0430\u0442\u044b \u21164", "name:be": "\u0424\u0430\u0440\u043c\u043c\u0435\u0434 \u041f\u0440\u044d\u043f\u0430\u0440\u0430\u0442\u044b \u21164", "name:ru": "\u0424\u0430\u0440\u043c\u043c\u0435\u0434 \u041f\u0440\u0435\u043f\u0430\u0440\u0430\u0442\u044b \u21164", "opening_hours": "Mo-Fr 09:00-21:00; Sa-Su 09:00-19:00", "operator": "\u0424\u0430\u0440\u043c\u043c\u0435\u0434 \u041f\u0440\u0435\u043f\u0430\u0440\u0430\u0442\u044b \u041e\u041e\u041e", "phone": "80152610392"}}, {"type": "node", "id": 4692363991, "lat": 53.6735716, "lon": 23.8046848, "tags": {"addr:city": "\u0413\u0440\u043e\u0434\u043d\u0430", "addr:housenumber": "4", "addr:street": "\u0432\u0443\u043b\u0456\u0446\u0430 \u041f\u0430\u043f\u043e\u0432\u0456\u0447\u0430", "amenity": "pharmacy", "contact:email": "info@d-leki.by", "contact:instagram": "https://www.instagram.com/apteka_adel", "contact:phone": "+375 25 5355757;+375 29 5355757;+375 44 5355757", "contact:vk": "https://vk.com/apteka_adel", "contact:website": "https://d-leki.by/", "dispensing": "yes", "drive_through": "no", "healthcare": "pharmacy", "name": "\u0414\u043e\u0431\u0440\u044b\u044f \u041b\u0435\u043a\u0456 \u21166", "name:be": "\u0414\u043e\u0431\u0440\u044b\u044f \u041b\u0435\u043a\u0456 \u21166", "name:ru": "\u0414\u043e\u0431\u0440\u044b\u0435 \u041b\u0435\u043a\u0438 \u21166", "opening_hours": "Mo-Fr 09:00-19:00; Sa-Su 10:00-17:00", "operator": "\"\u0412\u0418\u0412\u0410\u0422\u041e\u041d \u043f\u043b\u044e\u0441\"", "ref": "6", "wheelchair": "yes"}}, {"type": "node", "id": 4796696522, "lat": 53.6754203, "lon": 23.8412804, "tags": {"addr:city": "\u0413\u0440\u043e\u0434\u043d\u0430", "addr:housenumber": "11/1", "addr:street": "\u0432\u0443\u043b\u0456\u0446\u0430 \u0410\u043d\u0442\u043e\u043d\u0430\u0432\u0430", "amenity": "pharmacy", "contact:email": "info@apteka-adel.by", "contact:instagram": "https://www.instagram.com/apteka_adel", "contact:phone": "+375 25 6838787;+375 29 6838787;+375 33 6838787", "contact:vk": "https://vk.com/apteka_adel", "contact:website": "https://apteka-adel.by/", "dispensing": "yes", "drive_through": "no", "healthcare": "pharmacy", "name": "ADEL", "name:be": "\u0410\u0434\u044d\u043b\u044c", "name:ru": "\u0410\u0434\u0435\u043b\u044c", "old_name": "\u0417\u0430\u0431\u043e\u0442\u043b\u0438\u0432\u0430\u044f \u0430\u043f\u0442\u0435\u043a\u0430 \u21169", "opening_hours": "Mo-Fr 09:00-20:00;Sa-Su 09:00-17:00", "operator": "\"\u0412\u0418\u0412\u0410\u0422\u041e\u041d \u043f\u043b\u044e\u0441\""}}, {"type": "node", "id": 4799303130, "lat": 53.674933, "lon": 23.8328762, "tags": {"addr:city": "\u0413\u0440\u043e\u0434\u043d\u0430", "addr:housenumber": "12", "addr:street": "\u0432\u0443\u043b\u0456\u0446\u0430 \u041f\u0430\u0440\u044b\u0436\u0441\u043a\u0430\u0439 \u041a\u0430\u043c\u0443\u043d\u044b", "amenity": "pharmacy", "contact:email": "info@apteka-adel.by", "contact:instagram": "https://www.instagram.com/apteka_adel", "contact:phone": "+375 25 6838787;+375 29 6838787;+375 33 6838787", "contact:vk": "https://vk.com/apteka_adel", "contact:website": "https://apteka-adel.by/", "dispensing": "yes", "healthcare": "pharmacy", "name": "ADEL", "name:be": "\u0410\u0434\u044d\u043b\u044c", "name:en": "ADEL \u211623", "name:ru": "\u0410\u0434\u0435\u043b\u044c", "opening_hours": "Mo-Fr 11:00-22:00", "operator": "\"\u0412\u0418\u0412\u0410\u0422\u041e\u041d \u043f\u043b\u044e\u0441\"", "ref": "23"}}, {"type": "node", "id": 4925641629, "lat": 53.674753, "lon": 23.8032845, "tags": {"addr:city": "\u0413\u0440\u043e\u0434\u043d\u0430", "addr:housenumber": "10", "addr:street": "\u0437\u0430\u0432\u0443\u043b\u0430\u043a \u041f\u0430\u043f\u043e\u0432\u0456\u0447\u0430", "amenity": "pharmacy", "dispensing": "yes", "drive_through": "no", "healthcare": "pharmacy", "name": "\u041a\u043e\u043c\u043f\u043e\u0432\u0438\u0434 \u21169", "name:be": "\u041a\u0430\u043c\u043f\u0430\u0432\u0456\u0434 \u21169", "name:ru": "\u041a\u043e\u043c\u043f\u043e\u0432\u0438\u0434 \u21169", "opening_hours": "Mo-Fr 09:00-19:30; Sa 10:00-18:00; Su Off", "operator": "\u041e\u041e\u041e \u041a\u043e\u043c\u043f\u043e\u0432\u0438\u0434", "phone": "+375152646539", "website": "https://l-a.by/", "wheelchair": "no"}}, {"type": "node", "id": 4933675125, "lat": 53.6946507, "lon": 23.7901873, "tags": {"addr:city": "\u0413\u0440\u043e\u0434\u043d\u0430", "addr:housenumber": "52/5", "addr:street": "\u0431\u0443\u043b\u044c\u0432\u0430\u0440 \u041b\u0435\u043d\u0456\u043d\u0441\u043a\u0430\u0433\u0430 \u041a\u0430\u043c\u0441\u0430\u043c\u043e\u043b\u0430", "amenity": "pharmacy", "dispensing": "yes", "drive_through": "no", "healthcare": "pharmacy", "name": "\u0424\u0430\u0440\u043c\u0430\u0446\u044b\u044f \u211663", "name:be": "\u0424\u0430\u0440\u043c\u0430\u0446\u044b\u044f \u211663", "name:ru": "\u0424\u0430\u0440\u043c\u0430\u0446\u0438\u044f \u211663", "opening_hours": "Mo-Fr 08:00-15:30, Sa-Su Off", "operator": "\u0420\u0423\u041f \u0424\u0430\u0440\u043c\u0430\u0446\u0438\u044f", "phone": "+375152960384", "website": "https://farmacia.by/"}}, {"type": "node", "id": 4945294337, "lat": 53.6815837, "lon": 23.8285785, "tags": {"addr:city": "\u0413\u0440\u043e\u0434\u043d\u0430", "addr:housenumber": "17", "addr:street": "\u0414\u0430\u043c\u0456\u043d\u0456\u043a\u0430\u043d\u0441\u043a\u0430\u044f \u0432\u0443\u043b\u0456\u0446\u0430", "amenity": "pharmacy", "contact:email": "info@d-leki.by", "contact:instagram": "https://www.instagram.com/apteka_adel", "contact:phone": "+375 25 5355757;+375 29 5355757;+375 44 5355757", "contact:vk": "https://vk.com/apteka_adel", "contact:website": "https://d-leki.by/", "dispensing": "yes", "drive_through": "no", "healthcare": "pharmacy", "name": "\u0414\u043e\u0431\u0440\u044b\u044f \u041b\u0435\u043a\u0456 \u211610", "name:be": "\u0414\u043e\u0431\u0440\u044b\u044f \u041b\u0435\u043a\u0456 \u211610", "name:ru": "\u0414\u043e\u0431\u0440\u044b\u044f \u041b\u0435\u043a\u0438 \u211610", "opening_hours": "Mo-Fr 10:00-19:00; Sa 11:00-17:00", "operator": "\"\u0412\u0418\u0412\u0410\u0422\u041e\u041d \u043f\u043b\u044e\u0441\"", "ref": "10"}}, {"type": "node", "id": 4956365116, "lat": 53.6976136, "lon": 23.8288695, "tags": {"addr:city": "\u0413\u0440\u043e\u0434\u043d\u0430", "addr:housenumber": "39\u0410", "addr:street": "\u0432\u0443\u043b\u0456\u0446\u0430 \u041f\u0443\u0448\u043a\u0456\u043d\u0430", "amenity": "pharmacy", "contact:email": "info@apteka-adel.by", "contact:instagram": "https://www.instagram.com/apteka_adel", "contact:phone": "+375 25 6838787;+375 29 6838787;+375 33 6838787", "contact:vk": "https://vk.com/apteka_adel", "contact:website": "https://apteka-adel.by/", "dispensing": "yes", "drive_through": "no", "healthcare": "pharmacy", "name": "ADEL", "name:be": "\u0410\u0434\u044d\u043b\u044c", "name:ru": "\u0410\u0434\u0435\u043b\u044c", "old_name": "\u0417\u0430\u0431\u043e\u0442\u043b\u0438\u0432\u0430\u044f \u0410\u043f\u0442\u0435\u043a\u0430 \u211615", "opening_hours": "Mo-Fr 09:00-21:00;Sa-Su 10:00-21:00", "operator": "\"\u0412\u0418\u0412\u0410\u0422\u041e\u041d \u043f\u043b\u044e\u0441\"", "ref": "15"}}, {"type": "node", "id": 4959592939, "lat": 53.6824886, "lon": 23.8320124, "tags": {"addr:city": "\u0413\u0440\u043e\u0434\u043d\u0430", "addr:housenumber": "2", "addr:street": "\u0412\u0456\u043b\u0435\u043d\u0441\u043a\u0430\u044f \u0432\u0443\u043b\u0456\u0446\u0430", "amenity": "pharmacy", "contact:email": "info@d-leki.by", "contact:instagram": "https://www.instagram.com/apteka_adel", "contact:phone": "+375 25 5355757;+375 29 5355757;+375 44 5355757", "contact:vk": "https://vk.com/apteka_adel", "contact:website": "https://d-leki.by/", "description": "\u0410\u043f\u0442\u0435\u043a\u0430-\u0434\u0438\u0441\u043a\u0430\u0443\u043d\u0442\u0435\u0440", "dispensing": "yes", "healthcare": "pharmacy", "level": "0", "name": "\u0414\u043e\u0431\u0440\u044b\u044f \u043b\u0435\u043a\u0456 \u211624", "name:be": "\u0414\u043e\u0431\u0440\u044b\u044f \u043b\u0435\u043a\u0456 \u211624", "name:ru": "\u0414\u043e\u0431\u0440\u044b\u044f \u043b\u0435\u043a\u0438 \u211624", "opening_hours": "Mo-Fr 09:00-20:00; Sa 11:00-18:00", "operator": "\"\u0412\u0418\u0412\u0410\u0422\u041e\u041d \u043f\u043b\u044e\u0441\"", "payment:credit_cards": "yes", "payment:notes": "yes", "wheelchair": "yes"}}, {"type": "node", "id": 5022309356, "lat": 53.6362682, "lon": 23.8532567, "tags": {"addr:city": "\u0413\u0440\u043e\u0434\u043d\u0430", "addr:housenumber": "25", "addr:street": "\u041f\u0430\u045e\u0434\u043d\u0451\u0432\u0430\u044f \u0432\u0443\u043b\u0456\u0446\u0430", "amenity": "pharmacy", "dispensing": "yes", "drive_through": "no", "healthcare": "pharmacy", "name": "\u0406\u0432\u0430\u0444\u0430\u0440\u043c \u211611", "name:be": "\u0406\u0432\u0430\u0444\u0430\u0440\u043c \u211611", "name:ru": "\u0418\u0432\u0430\u0444\u0430\u0440\u043c \u211611", "opening_hours": "Mo-Fr 09:00-21:00; Sa-Su 10:00-21:00", "operator": "\u0418\u0432\u0430\u0444\u0430\u0440\u043c \u0427\u0422\u0423\u041f", "phone": "+375152581778"}}, {"type": "node", "id": 5022309916, "lat": 53.6408163, "lon": 23.8447572, "tags": {"addr:city": "\u0413\u0440\u043e\u0434\u043d\u0430", "addr:housenumber": "1", "addr:street": "\u0432\u0443\u043b\u0456\u0446\u0430 \u041a\u0430\u0431\u044f\u043a\u0430", "amenity": "pharmacy", "contact:email": "info@apteka-adel.by", "contact:instagram": "https://www.instagram.com/apteka_adel/", "contact:phone": "+375 25 6838787;+375 29 6838787;+375 33 6838787", "contact:vk": "https://vk.com/apteka_adel", "contact:website": "https://apteka-adel.by/", "dispensing": "yes", "drive_through": "no", "healthcare": "pharmacy", "name": "ADEL", "name:be": "\u0410\u0434\u044d\u043b\u044c", "name:ru": "\u0410\u0434\u0435\u043b\u044c", "opening_hours": "Fr-Sa 09:00-21:00; Mo-Th,Su 08:00-22:00", "operator": "\"\u0412\u0418\u0412\u0410\u0422\u041e\u041d \u043f\u043b\u044e\u0441\"", "ref": "9"}}, {"type": "node", "id": 5024614022, "lat": 53.6473283, "lon": 23.8459888, "tags": {"amenity": "pharmacy", "contact:phone": "80152331492", "contact:website": "https://alfaapteka.by", "drive_through": "no", "healthcare": "pharmacy", "name": "\u0410\u043b\u044c\u0444\u0430 \u0410\u043f\u0442\u0435\u043a\u0430 \u211612", "name:be": "\u0410\u043b\u044c\u0444\u0430 \u0410\u043f\u0442\u044d\u043a\u0430 \u211612", "name:ru": "\u0410\u043b\u044c\u0444\u0430 \u0410\u043f\u0442\u0435\u043a\u0430 \u211612", "opening_hours": "Mo-Fr 09:00-21:00; Sa 10:00-19:00; Su 10:00-17:00", "operator": "\u0421\u0430\u043b\u044e\u0441\u041b\u0430\u0439\u043d", "ref": "12"}}, {"type": "node", "id": 5024614035, "lat": 53.6461687, "lon": 23.8461119, "tags": {"addr:city": "\u0413\u0440\u043e\u0434\u043d\u0430", "addr:housenumber": "13\u0411", "addr:street": "\u0432\u0443\u043b\u0456\u0446\u0430 \u041a\u0430\u0431\u044f\u043a\u0430", "amenity": "pharmacy", "contact:email": "info@d-leki.by", "contact:instagram": "https://www.instagram.com/apteka_adel", "contact:phone": "+375 25 5355757;+375 29 5355757;+375 44 5355757", "contact:vk": "https://vk.com/apteka_adel", "contact:website": "https://d-leki.by/", "dispensing": "yes", "drive_through": "no", "healthcare": "pharmacy", "name": "\u0414\u043e\u0431\u0440\u044b\u044f \u041b\u0435\u043a\u0456 \u21163", "name:be": "\u0414\u043e\u0431\u0440\u044b\u044f \u041b\u0435\u043a\u0456 \u21163", "name:ru": "\u0414\u043e\u0431\u0440\u044b\u044f \u041b\u0435\u043a\u0438 \u21163", "opening_hours": "Mo-Fr 08:00-22:00; Sa-Su 09:00-22:00", "operator": "\"\u0412\u0418\u0412\u0410\u0422\u041e\u041d \u043f\u043b\u044e\u0441\"", "ref": "3"}}, {"type": "node", "id": 5030217111, "lat": 53.6191398, "lon": 23.8147195, "tags": {"amenity": "pharmacy", "dispensing": "yes", "drive_through": "no", "healthcare": "pharmacy", "name": "\u0406\u0432\u0430\u0444\u0430\u0440\u043c \u211612", "name:be": "\u0406\u0432\u0430\u0444\u0430\u0440\u043c \u211612", "name:ru": "\u0418\u0432\u0430\u0444\u0430\u0440\u043c \u211612", "operator": "\u0427\u0422\u0423\u041f \"\u0418\u0432\u0430\u0444\u0430\u0440\u043c", "ramp": "yes", "wheelchair": "yes"}}, {"type": "node", "id": 5030217336, "lat": 53.6214404, "lon": 23.8180171, "tags": {"addr:city": "\u0413\u0440\u043e\u0434\u043d\u0430", "addr:housenumber": "7\u0410", "addr:street": "\u0432\u0443\u043b\u0456\u0446\u0430 \u0412\u044f\u043b\u0456\u043a\u0430\u044f \u0410\u043b\u044c\u0448\u0430\u043d\u043a\u0430", "amenity": "pharmacy", "dispensing": "yes", "drive_through": "no", "healthcare": "pharmacy", "name": "\u041c\u0430\u044f \u0410\u043f\u0442\u044d\u043a\u0430 \u211630", "name:be": "\u041c\u0430\u044f \u0410\u043f\u0442\u044d\u043a\u0430 \u211630", "name:ru": "\u041c\u043e\u044f \u0410\u043f\u0442\u0435\u043a\u0430 \u211630", "opening_hours": "Mo-Fr 09:00-20:00; Sa-Su 10:00-20:00", "operator": "\u041c\u043e\u044f \u0410\u043f\u0442\u0435\u043a\u0430 \u041e\u041e\u041e", "phone": "+375152675919", "ref": "30"}}, {"type": "node", "id": 5032173131, "lat": 53.6506048, "lon": 23.8323659, "tags": {"addr:city": "\u0413\u0440\u043e\u0434\u043d\u0430", "addr:housenumber": "47", "addr:street": "\u0432\u0443\u043b\u0456\u0446\u0430 \u041f\u0435\u0440\u0430\u043c\u043e\u0433\u0456", "amenity": "pharmacy", "contact:phone": "80152692098", "contact:website": "https://alfaapteka.by", "healthcare": "pharmacy", "name": "\u0410\u043b\u044c\u0444\u0430 \u0410\u043f\u0442\u0435\u043a\u0430 \u21166", "name:be": "\u0410\u043b\u044c\u0444\u0430 \u0410\u043f\u0442\u044d\u043a\u0430 \u21166", "name:ru": "\u0410\u043b\u044c\u0444\u0430 \u0410\u043f\u0442\u0435\u043a\u0430 \u21166", "opening_hours": "Mo-Su 09:00-22:00", "operator": "\u0421\u0430\u043b\u044e\u0441\u041b\u0430\u0439\u043d", "ref": "6"}}, {"type": "node", "id": 5033013024, "lat": 53.6398989, "lon": 23.8648642, "tags": {"addr:city": "\u0413\u0440\u043e\u0434\u043d\u0430", "addr:housenumber": "10", "addr:street": "\u0432\u0443\u043b\u0456\u0446\u0430 \u041a\u0440\u0430\u043c\u043a\u043e", "amenity": "pharmacy", "check_date": "2022-12-11", "dispensing": "yes", "drive_through": "no", "healthcare": "pharmacy", "name": "\u0424\u0430\u0440\u043c\u0430\u0446\u044b\u044f \u211685", "name:be": "\u0424\u0430\u0440\u043c\u0430\u0446\u044b\u044f \u211685", "name:en": "Pharmacy \u211685", "name:ru": "\u0424\u0430\u0440\u043c\u0430\u0446\u0438\u044f \u211685", "opening_hours": "Mo-Su 10:30-22:00", "operator": "\u0413\u0440\u043e\u0434\u043d\u0435\u043d\u0441\u043a\u043e\u0435 \u0420\u0423\u041f \u0424\u0430\u0440\u043c\u0430\u0446\u0438\u044f", "phone": "+375152684807", "website": "https://farmacia.by"}}, {"type": "node", "id": 5039367704, "lat": 53.6546931, "lon": 23.849283, "tags": {"addr:city": "\u0413\u0440\u043e\u0434\u043d\u0430", "addr:housenumber": "82\u0410", "addr:street": "\u043f\u0440\u0430\u0441\u043f\u0435\u043a\u0442 \u042f\u043d\u043a\u0456 \u041a\u0443\u043f\u0430\u043b\u044b", "amenity": "pharmacy", "dispensing": "yes", "drive_through": "no", "healthcare": "pharmacy", "name": "\u041f\u043b\u0430\u043d\u0435\u0442\u0430 \u0437\u0434\u0430\u0440\u043e\u045e\u044f \u211623", "name:be": "\u041f\u043b\u0430\u043d\u0435\u0442\u0430 \u0437\u0434\u0430\u0440\u043e\u045e\u044f \u211623", "name:ru": "\u041f\u043b\u0430\u043d\u0435\u0442\u0430 \u0437\u0434\u043e\u0440\u043e\u0432\u044c\u044f \u211623", "opening_hours": "Mo-Su 09:00-22:00", "operator": "\u041e\u041e\u041e \u041a\u043e\u0441\u043c\u043e\u0444\u0430\u0440\u043c\u0430", "phone": "+375293808600;+375152660117", "website": "https://healthplanet.by/"}}, {"type": "node", "id": 5133651081, "lat": 53.671512, "lon": 23.8035926, "tags": {"entrance": "main"}}, {"type": "node", "id": 5133651082, "lat": 53.6713332, "lon": 23.8035263}, {"type": "node", "id": 5133651083, "lat": 53.6713228, "lon": 23.8036061}, {"type": "node", "id": 5133651084, "lat": 53.6713524, "lon": 23.8037053}, {"type": "node", "id": 5133651085, "lat": 53.6713633, "lon": 23.8036211}, {"type": "node", "id": 5308226796, "lat": 53.6605935, "lon": 23.7814848, "tags": {"addr:city": "\u0413\u0440\u043e\u0434\u043d\u0430", "addr:housenumber": "131", "addr:street": "\u0432\u0443\u043b\u0456\u0446\u0430 \u0412\u043e\u043b\u044c\u0433\u0456 \u0421\u043e\u043b\u0430\u043c\u0430\u0432\u0430\u0439", "amenity": "pharmacy", "dispensing": "yes", "drive_through": "no", "healthcare": "pharmacy", "name": "\u041f\u043b\u0430\u043d\u0435\u0442\u0430 \u0417\u0434\u0430\u0440\u043e\u045e\u044f", "name:be": "\u041f\u043b\u0430\u043d\u0435\u0442\u0430 \u0417\u0434\u0430\u0440\u043e\u045e\u044f", "name:ru": "\u041f\u043b\u0430\u043d\u0435\u0442\u0430 \u0437\u0434\u043e\u0440\u043e\u0432\u044c\u044f \u21166", "opening_hours": "Mo-Su 09:00-21:00", "operator": "\u041e\u041e\u041e \u0424\u0430\u0440\u043c\u0442\u0435\u0445\u0438\u043d\u0432\u0435\u0441\u0442", "website": "https://healthplanet.by/"}}, {"type": "node", "id": 5326417811, "lat": 53.6823665, "lon": 23.8315531, "tags": {"addr:city": "\u0413\u0440\u043e\u0434\u043d\u0430", "addr:housenumber": "18", "addr:street": "\u0421\u0430\u0432\u0435\u0446\u043a\u0430\u044f \u0432\u0443\u043b\u0456\u0446\u0430", "amenity": "pharmacy", "healthcare": "pharmacy", "level": "1", "name": "\u0424\u0430\u0440\u043c\u0430\u0446\u044b\u044f \u2116238", "name:be": "\u0424\u0430\u0440\u043c\u0430\u0446\u044b\u044f \u2116238", "name:ru": "\u0424\u0430\u0440\u043c\u0430\u0446\u0438\u044f \u2116238", "opening_hours": "Tu-Sa 11:00-19:00", "operator": "\u0420\u0423\u041f \u0424\u0430\u0440\u043c\u0430\u0446\u0438\u044f", "phone": "80152684157", "website": "https://farmacia.by/"}}, {"type": "node", "id": 5357880570, "lat": 53.6425046, "lon": 23.8592575, "tags": {"addr:city": "\u0413\u0440\u043e\u0434\u043d\u0430", "addr:housenumber": "5", "addr:street": "\u0432\u0443\u043b\u0456\u0446\u0430 \u0425\u0456\u043c\u0456\u043a\u0430\u045e", "amenity": "pharmacy", "healthcare": "pharmacy", "name": "\u0424\u0430\u0440\u043c\u0430\u0446\u044b\u044f \u2116250", "name:be": "\u0424\u0430\u0440\u043c\u0430\u0446\u044b\u044f \u2116250", "name:ru": "\u0424\u0430\u0440\u043c\u0430\u0446\u0438\u044f \u2116250", "opening_hours": "Mo-Fr 07:30-21:00; Sa 07:30-19:00", "operator": "\u0413\u0440\u043e\u0434\u043d\u0435\u043d\u0441\u043a\u043e\u0435 \u0420\u0423\u041f \u0424\u0430\u0440\u043c\u0430\u0446\u0438\u044f", "phone": "80152634301"}}, {"type": "node", "id": 5390527722, "lat": 53.5113797, "lon": 23.6444763, "tags": {"amenity": "pharmacy", "dispensing": "yes", "healthcare": "pharmacy", "name": "Punkt Apteczny Aspirynka", "ref:csioz": "1112736"}}, {"type": "node", "id": 5574416223, "lat": 53.6256823, "lon": 23.8556217, "tags": {"addr:city": "\u0413\u0440\u043e\u0434\u043d\u0430", "addr:housenumber": "12", "addr:street": "\u0426\u044d\u043d\u0442\u0440\u0430\u043b\u044c\u043d\u0430\u044f \u0432\u0443\u043b\u0456\u0446\u0430", "amenity": "pharmacy", "contact:email": "info@d-leki.by", "contact:instagram": "https://www.instagram.com/apteka_adel", "contact:phone": "+375 25 5355757;+375 29 5355757;+375 44 5355757", "contact:vk": "https://vk.com/apteka_adel", "contact:website": "https://d-leki.by/", "dispensing": "yes", "healthcare": "pharmacy", "name": "\u0414\u043e\u0431\u0440\u044b\u044f \u043b\u0435\u043a\u0456 \u211639", "name:be": "\u0414\u043e\u0431\u0440\u044b\u044f \u043b\u0435\u043a\u0456 \u211639", "name:ru": "\u0414\u043e\u0431\u0440\u044b\u0435 \u043b\u0435\u043a\u0438 \u211639", "opening_hours": "Mo-Su 09:00-19:00", "operator": "\u041e\u041e\u041e \u0412\u0418\u0412\u0410\u0422\u041e\u041d \u043f\u043b\u044e\u0441", "payment:cash": "yes", "payment:contactless": "yes", "ref": "39", "ref:vatin": "BY590004353"}}, {"type": "node", "id": 5777537965, "lat": 53.6464145, "lon": 23.845958, "tags": {"addr:city": "\u0413\u0440\u043e\u0434\u043d\u0430", "addr:housenumber": "13", "addr:street": "\u043f\u0440\u0430\u0441\u043f\u0435\u043a\u0442 \u041a\u043b\u044f\u0446\u043a\u043e\u0432\u0430", "amenity": "pharmacy", "contact:phone": "+375 152 315121", "contact:website": "https://alfaapteka.by", "drive_through": "no", "healthcare": "pharmacy", "name": "\u0410\u043b\u044c\u0444\u0430 \u0410\u043f\u0442\u0435\u043a\u0430 \u21168", "name:be": "\u0410\u043b\u044c\u0444\u0430 \u0410\u043f\u0442\u044d\u043a\u0430 \u21168", "name:ru": "\u0410\u043b\u044c\u0444\u0430 \u0410\u043f\u0442\u0435\u043a\u0430 \u21168", "opening_hours": "Mo-Fr 08:00-22:00; Sa-Su 09:00-21:00", "operator": "\u0421\u0430\u043b\u044e\u0441\u041b\u0430\u0439\u043d", "ref": "8"}}, {"type": "node", "id": 5784283353, "lat": 53.6943567, "lon": 23.8217631, "tags": {"amenity": "pharmacy", "brand": "\u0410\u043b\u044c\u0444\u0430 \u0430\u043f\u0442\u0435\u043a\u0430", "check_date": "2023-04-16", "contact:phone": "+375152442972", "contact:website": "https://alfaapteka.by", "dispensing": "yes", "drive_through": "no", "healthcare": "pharmacy", "name": "\u0421\u0430\u043b\u044e\u0441\u043b\u0430\u0439\u043d \u211615", "name:be": "\u0421\u0430\u043b\u044e\u0441\u043b\u0430\u0439\u043d \u211615", "name:ru": "\u0421\u0430\u043b\u044e\u0441\u043b\u0430\u0439\u043d \u211615", "opening_hours": "Mo-Fr 08:00-21:00; Sa 09:00-19:00; Su 09:00-17:00", "operator": "\u0421\u0430\u043b\u044e\u0441\u043b\u0430\u0439\u043d", "ref": "15"}}, {"type": "node", "id": 5853444085, "lat": 53.6446677, "lon": 23.8588051, "tags": {"addr:city": "\u0413\u0440\u043e\u0434\u043d\u0430", "addr:housenumber": "23", "addr:street": "\u0432\u0443\u043b\u0456\u0446\u0430 \u041a\u0430\u0431\u044f\u043a\u0430", "amenity": "pharmacy", "dispensing": "yes", "healthcare": "pharmacy", "level": "0", "name": "\u0424\u0430\u0440\u043c\u0430\u0446\u044b\u044f \u2116125", "name:be": "\u0424\u0430\u0440\u043c\u0430\u0446\u044b\u044f \u2116125", "name:ru": "\u0424\u0430\u0440\u043c\u0430\u0446\u0438\u044f \u2116125", "opening_hours": "Mo-Fr 09:00-21:00; Sa-Su  10:00-21:00", "operator": "\u0413\u0440\u043e\u0434\u043d\u0435\u043d\u0441\u043a\u043e\u0435 \u0420\u0423\u041f \u0424\u0430\u0440\u043c\u0430\u0446\u0438\u044f", "payment:cash": "yes", "payment:coins": "yes", "payment:credit_cards": "yes", "phone": "80152662567", "start_date": "2018-08-20"}}, {"type": "node", "id": 5911010286, "lat": 53.7086676, "lon": 23.8055577, "tags": {"addr:city": "\u0413\u0440\u043e\u0434\u043d\u0430", "addr:housenumber": "26\u0410", "addr:street": "\u0432\u0443\u043b\u0456\u0446\u0430 \u041a\u0430\u043c\u0430\u0440\u043e\u0432\u0430", "alt_name": "Adel \u21167", "amenity": "pharmacy", "check_date": "2022-11-20", "contact:email": "info@apteka-adel.by", "contact:instagram": "https://www.instagram.com/apteka_adel/", "contact:phone": "+375 25 6838787;+375 29 6838787;+375 33 6838787", "contact:vk": "https://vk.com/apteka_adel", "contact:website": "https://apteka-adel.by/", "healthcare": "pharmacy", "name": "Adel", "name:be": "\u0410\u0434\u044d\u043b\u044c", "name:en": "Adel", "name:ru": "\u0410\u0434\u0435\u043b\u044c", "opening_hours": "Mo-Fr 10:00-20:00;Sa-Su 10:00-17:00", "operator": "\u0412\u0418\u0412\u0410\u0422\u041e\u041d \u043f\u043b\u044e\u0441", "owner": "\u041e\u041e\u041e \u00ab\u0423\u043f\u0440\u0430\u0432\u043b\u044f\u044e\u0449\u0430\u044f \u043a\u043e\u043c\u043f\u0430\u043d\u0438\u044f \u0445\u043e\u043b\u0434\u0438\u043d\u0433\u0430 \u00ab\u0410\u043f\u0442\u0435\u043a\u0430 \u0433\u0440\u0443\u043f\u043f\u00bb", "payment:cash": "yes", "payment:contactless": "yes", "ref": "7", "ref:vatin": "BY590004353"}}, {"type": "node", "id": 5929557776, "lat": 53.6714907, "lon": 23.8037565}, {"type": "node", "id": 6028161890, "lat": 53.6634308, "lon": 23.7848511, "tags": {"addr:city": "\u0413\u0440\u043e\u0434\u043d\u0430", "addr:housenumber": "82", "addr:street": "\u0432\u0443\u043b\u0456\u0446\u0430 \u0412\u043e\u043b\u044c\u0433\u0456 \u0421\u043e\u043b\u0430\u043c\u0430\u0432\u0430\u0439", "amenity": "pharmacy", "contact:phone": "80152602023", "contact:website": "https://alfaapteka.by", "dispensing": "yes", "drive_through": "no", "healthcare": "pharmacy", "name": "\u0410\u043b\u044c\u0444\u0430 \u0410\u043f\u0442\u0435\u043a\u0430 \u211610", "name:be": "\u0410\u043b\u044c\u0444\u0430 \u0410\u043f\u0442\u044d\u043a\u0430 \u211610", "name:ru": "\u0410\u043b\u044c\u0444\u0430 \u0410\u043f\u0442\u0435\u043a\u0430 \u211610", "opening_hours": "Mo-Su 09:00-21:00", "operator": "\u0421\u0430\u043b\u044e\u0441\u041b\u0430\u0439\u043d"}}, {"type": "node", "id": 6044243286, "lat": 53.6627518, "lon": 23.8349379, "tags": {"addr:city": "\u0413\u0440\u043e\u0434\u043d\u0430", "addr:housenumber": "16\u0410", "addr:street": "\u043f\u0440\u0430\u0441\u043f\u0435\u043a\u0442 \u042f\u043d\u043a\u0456 \u041a\u0443\u043f\u0430\u043b\u044b", "amenity": "pharmacy", "contact:email": "apteka10@ligmaton.com", "contact:phone": "+375 152 660426;+375 152 660453", "contact:website": "https://ligmaton.by", "dispensing": "yes", "drive_through": "no", "healthcare": "pharmacy", "name": "\u0410\u043f\u0442\u0435\u043a\u0430 \u211610 \u041b\u0438\u0433\u043c\u0430\u0442\u043e\u043d", "name:be": "\u041b\u0456\u0433\u043c\u0430\u0442\u043e\u043d \u211610", "name:ru": "\u0410\u043f\u0442\u0435\u043a\u0430 \u211610 \u041b\u0438\u0433\u043c\u0430\u0442\u043e\u043d", "opening_hours": "Mo-Su 09:00-22:00", "operator": "\u041e\u041e\u041e \u041b\u0438\u0433\u043c\u0430\u0442\u043e\u043d"}}, {"type": "node", "id": 6048362358, "lat": 53.710645, "lon": 23.8155898, "tags": {"addr:city": "\u0413\u0440\u043e\u0434\u043d\u0430", "addr:housenumber": "91", "addr:street": "\u0432\u0443\u043b\u0456\u0446\u0430 \u041c\u0430\u043a\u0441\u0456\u043c\u0430 \u0413\u043e\u0440\u043a\u0430\u0433\u0430", "amenity": "pharmacy", "dispensing": "yes", "drive_through": "no", "healthcare": "pharmacy", "name": "\u0414\u043e\u043a\u0442\u0430\u0440 \u0427\u0430\u0441 \u211612", "name:be": "\u0414\u043e\u043a\u0442\u0430\u0440 \u0427\u0430\u0441 \u211612", "name:ru": "\u0414\u043e\u043a\u0442\u043e\u0440 \u0412\u0440\u0435\u043c\u044f \u211612", "opening_hours": "Mo-Su 09:00-20:00", "phone": "80152799503", "ref": "12"}}, {"type": "node", "id": 6109885894, "lat": 53.6968189, "lon": 23.8036288, "tags": {"addr:city": "\u0413\u0440\u043e\u0434\u043d\u0430", "addr:housenumber": "44\u0411", "addr:street": "\u0431\u0443\u043b\u044c\u0432\u0430\u0440 \u041b\u0435\u043d\u0456\u043d\u0441\u043a\u0430\u0433\u0430 \u041a\u0430\u043c\u0441\u0430\u043c\u043e\u043b\u0430", "amenity": "pharmacy", "contact:email": "info@apteka-adel.by", "contact:instagram": "https://www.instagram.com/apteka_adel", "contact:phone": "+375 25 6838787;+375 29 6838787;+375 33 6838787", "contact:vk": "https://vk.com/apteka_adel", "contact:website": "https://apteka-adel.by/", "dispensing": "yes", "drive_through": "no", "healthcare": "pharmacy", "name": "ADEL", "name:be": "\u0410\u0434\u044d\u043b\u044c", "name:ru": "\u0410\u0434\u0435\u043b\u044c", "opening_hours": "Mo-Su 09:00-20:00", "operator": "\"\u0412\u0418\u0412\u0410\u0422\u041e\u041d \u043f\u043b\u044e\u0441\"", "ref": "1"}}, {"type": "node", "id": 6109963467, "lat": 53.675326, "lon": 23.8355161, "tags": {"addr:city": "\u0413\u0440\u043e\u0434\u043d\u0430", "addr:housenumber": "16", "addr:street": "\u0432\u0443\u043b\u0456\u0446\u0430 \u0421\u0432\u044f\u0440\u0434\u043b\u043e\u0432\u0430", "amenity": "pharmacy", "contact:email": "info@apteka-adel.by", "contact:instagram": "https://www.instagram.com/apteka_adel", "contact:phone": "+375 25 6838787;+375 29 6838787;+375 33 6838787", "contact:vk": "https://vk.com/apteka_adel", "contact:website": "https://apteka-adel.by/", "dispensing": "yes", "healthcare": "pharmacy", "name": "ADEL", "name:be": "\u0410\u0434\u044d\u043b\u044c", "name:en": "ADEL \u211663", "name:ru": "\u0410\u0434\u0435\u043b\u044c", "opening_hours": "Mo-Fr 09:00-20:00;Sa 10:00-17:00", "operator": "\"\u0412\u0418\u0412\u0410\u0422\u041e\u041d \u043f\u043b\u044e\u0441\"", "ref": "63"}}, {"type": "node", "id": 6111057147, "lat": 53.6479533, "lon": 23.839843, "tags": {"amenity": "pharmacy", "dispensing": "yes", "healthcare": "pharmacy", "name": "\u0410\u0434\u0432\u0430\u043d\u0442\u0444\u0430\u0440\u043c\u0430", "name:be": "\u0410\u0434\u0432\u0430\u043d\u0442\u0444\u0430\u0440\u043c\u0430", "name:ru": "\u0410\u0434\u0432\u0430\u043d\u0442\u0444\u0430\u0440\u043c\u0430", "opening_hours": "Mo-Su 10:00-21:00", "operator": "\u041e\u041e\u041e \u0410\u0434\u0432\u0430\u043d\u0442\u0444\u0430\u0440\u043c\u0430", "phone": "80152966906"}}, {"type": "node", "id": 6111088663, "lat": 53.6949793, "lon": 23.7944971, "tags": {"addr:city": "\u0413\u0440\u043e\u0434\u043d\u0430", "addr:housenumber": "52/5", "addr:street": "\u0431\u0443\u043b\u044c\u0432\u0430\u0440 \u041b\u0435\u043d\u0456\u043d\u0441\u043a\u0430\u0433\u0430 \u041a\u0430\u043c\u0441\u0430\u043c\u043e\u043b\u0430", "amenity": "pharmacy", "dispensing": "yes", "drive_through": "no", "healthcare": "pharmacy", "name": "\u0424\u0430\u0440\u043c\u0430\u0446\u044b\u044f \u2116106", "name:be": "\u0424\u0430\u0440\u043c\u0430\u0446\u044b\u044f \u2116106", "name:ru": "\u0424\u0430\u0440\u043c\u0430\u0446\u0438\u044f \u2116106", "opening_hours": "Mo-Fr 08:00-19:00, Sa 09:00-15:00, Su Off", "operator": "\u0420\u0423\u041f \u0424\u0430\u0440\u043c\u0430\u0446\u0438\u044f", "phone": "+375152435827", "website": "https://farmacia.by/"}}, {"type": "node", "id": 6119858763, "lat": 53.7050343, "lon": 23.8000087, "tags": {"addr:city": "\u0413\u0440\u043e\u0434\u043d\u0430", "addr:door": "28", "addr:housenumber": "41", "addr:street": "\u0432\u0443\u043b\u0456\u0446\u0430 \u0414\u0430\u043c\u0431\u0440\u043e\u045e\u0441\u043a\u0430\u0433\u0430", "amenity": "pharmacy", "check_date": "2023-04-07", "dispensing": "yes", "healthcare": "pharmacy", "level": "1", "level:ref": "2", "name": "\u0424\u0430\u0440\u043c\u0430\u0446\u044b\u044f \u2116124", "name:be": "\u0424\u0430\u0440\u043c\u0430\u0446\u044b\u044f \u2116124", "name:ru": "\u0424\u0430\u0440\u043c\u0430\u0446\u0438\u044f \u2116124", "opening_hours": "Mo-We,Fr 08:30-16:20; Th 08:30-16:00; Sa-Su off", "operator": "\u0420\u0423\u041f \u0424\u0430\u0440\u043c\u0430\u0446\u0438\u044f", "phone": "+375152964157"}}, {"type": "node", "id": 6125062902, "lat": 53.8381147, "lon": 23.6610361, "tags": {"addr:city": "\u0421\u0430\u043f\u043e\u0446\u043a\u0456\u043d", "addr:housenumber": "69", "addr:street": "\u0432\u0443\u043b\u0456\u0446\u0430 \u042f\u043d\u0430 \u041f\u0430\u045e\u043b\u0430 II", "amenity": "pharmacy", "dispensing": "yes", "healthcare": "pharmacy", "name": "\u0424\u0430\u0440\u043c\u0430\u0446\u044b\u044f \u211614", "name:be": "\u0424\u0430\u0440\u043c\u0430\u0446\u044b\u044f \u211614", "name:ru": "\u0424\u0430\u0440\u043c\u0430\u0446\u0438\u044f \u211614", "opening_hours": "Mo-Fr 09:00-16:00; Sa 10:00-15:00; Su Off", "operator": "\u0420\u0423\u041f \u0424\u0430\u0440\u043c\u0430\u0446\u0438\u044f", "payment:cash": "yes", "payment:coins": "yes", "payment:credit_cards": "yes", "payment:debit_cards": "yes", "payment:nfc": "yes", "phone": "80152960720", "website": "https://farmacia.by/"}}, {"type": "node", "id": 6125092635, "lat": 53.6862567, "lon": 23.8262744, "tags": {"addr:city": "\u0413\u0440\u043e\u0434\u043d\u0430", "addr:housenumber": "13", "addr:street": "\u0432\u0443\u043b\u0456\u0446\u0430 \u041b\u0435\u0440\u043c\u0430\u043d\u0442\u0430\u0432\u0430", "amenity": "pharmacy", "dispensing": "yes", "healthcare": "pharmacy", "name": "\u0424\u0430\u0440\u043c\u0430\u0446\u044b\u044f \u2116145", "name:be": "\u0424\u0430\u0440\u043c\u0430\u0446\u044b\u044f \u2116145", "name:ru": "\u0424\u0430\u0440\u043c\u0430\u0446\u0438\u044f \u2116145", "opening_hours": "Mo-Fr 07:30-20:00; Sa 09:00-15:00; Su Off", "operator": "\u0420\u0423\u041f \u0424\u0430\u0440\u043c\u0430\u0446\u0438\u044f", "phone": "+375152623835", "website": "https://farmacia.by/"}}, {"type": "node", "id": 6125118511, "lat": 53.6909252, "lon": 23.7996808, "tags": {"addr:city": "\u0413\u0440\u043e\u0434\u043d\u0430", "addr:housenumber": "11", "addr:street": "\u0432\u0443\u043b\u0456\u0446\u0430 \u0411\u043e\u043b\u0434\u0437\u0456\u043d\u0430", "amenity": "pharmacy", "dispensing": "yes", "healthcare": "pharmacy", "name": "\u0424\u0430\u0440\u043c\u0430\u0446\u044b\u044f \u2116149", "name:be": "\u0424\u0430\u0440\u043c\u0430\u0446\u044b\u044f \u2116149", "name:ru": "\u0424\u0430\u0440\u043c\u0430\u0446\u0438\u044f \u2116149", "opening_hours": "Mo-Fr 08:30-16:00; Sa-Su Off", "operator": "\u0420\u0423\u041f \u0424\u0430\u0440\u043c\u0430\u0446\u0438\u044f", "payment:cash": "yes", "payment:coins": "yes", "payment:credit_cards": "yes", "payment:debit_cards": "yes", "payment:nfc": "yes", "phone": "80152447405", "website": "https://farmacia.by/"}}, {"type": "node", "id": 6126796221, "lat": 53.6938477, "lon": 23.8278362, "tags": {"addr:city": "\u0413\u0440\u043e\u0434\u043d\u0430", "addr:housenumber": "23", "addr:street": "\u0432\u0443\u043b\u0456\u0446\u0430 \u0414\u0430\u0432\u0430\u0442\u0430\u0440\u0430", "amenity": "pharmacy", "dispensing": "yes", "healthcare": "pharmacy", "name": "\u0424\u0430\u0440\u043c\u0430\u0446\u044b\u044f \u2116152", "name:be": "\u0424\u0430\u0440\u043c\u0430\u0446\u044b\u044f \u2116152", "name:ru": "\u0424\u0430\u0440\u043c\u0430\u0446\u0438\u044f \u2116152", "opening_hours": "Mo-Fr 08:30-18:00; Sa-Su Off", "operator": "\u0420\u0423\u041f \u0424\u0430\u0440\u043c\u0430\u0446\u0438\u044f", "phone": "80152960661", "website": "https://farmacia.by/"}}, {"type": "node", "id": 6126864152, "lat": 53.6580984, "lon": 23.8355333, "tags": {"addr:city": "\u0413\u0440\u043e\u0434\u043d\u0430", "addr:floor": "0", "addr:housenumber": "4", "addr:street": "\u0432\u0443\u043b\u0456\u0446\u0430 \u041f\u0435\u0441\u0442\u0440\u0430\u043a\u0430", "amenity": "pharmacy", "dispensing": "yes", "healthcare": "pharmacy", "name": "\u0424\u0430\u0440\u043c\u0430\u0446\u044b\u044f \u2116170", "name:be": "\u0424\u0430\u0440\u043c\u0430\u0446\u044b\u044f \u2116170", "name:ru": "\u0424\u0430\u0440\u043c\u0430\u0446\u0438\u044f \u2116170", "opening_hours": "Mo-Fr 07:30-20:00; Sa 09:00-15:30; Su Off", "operator": "\u0420\u0423\u041f \u0424\u0430\u0440\u043c\u0430\u0446\u0438\u044f", "phone": "+375152663677", "ref": "170", "website": "https://farmacia.by/"}}, {"type": "node", "id": 6126864153, "lat": 53.6995182, "lon": 23.788984, "tags": {"amenity": "pharmacy", "dispensing": "yes", "healthcare": "pharmacy", "name": "\u0424\u0430\u0440\u043c\u0430\u0446\u044b\u044f \u2116175", "name:be": "\u0424\u0430\u0440\u043c\u0430\u0446\u044b\u044f \u2116175", "name:ru": "\u0424\u0430\u0440\u043c\u0430\u0446\u0438\u044f \u2116175", "opening_hours": "Mo-Fr 08:00-16:00", "operator": "\u0420\u0423\u041f \u0424\u0430\u0440\u043c\u0430\u0446\u0438\u044f", "phone": "+375152960634", "website": "https://farmacia.by/"}}, {"type": "node", "id": 6126980902, "lat": 53.6735239, "lon": 23.7972171, "tags": {"addr:city": "\u0413\u0440\u043e\u0434\u043d\u0430", "addr:housenumber": "115", "addr:street": "\u0432\u0443\u043b\u0456\u0446\u0430 \u0421\u0430\u0432\u0435\u0446\u043a\u0456\u0445 \u041f\u0430\u0433\u0440\u0430\u043d\u0456\u0447\u043d\u0456\u043a\u0430\u045e", "amenity": "pharmacy", "dispensing": "yes", "healthcare": "pharmacy", "name": "\u0424\u0430\u0440\u043c\u0430\u0446\u044b\u044f \u2116186", "name:be": "\u0424\u0430\u0440\u043c\u0430\u0446\u044b\u044f \u2116186", "name:ru": "\u0424\u0430\u0440\u043c\u0430\u0446\u0438\u044f \u2116186", "opening_hours": "Mo-Fr 09:00-17:00; Sa-Su Off", "operator": "\u0420\u0423\u041f \u0424\u0430\u0440\u043c\u0430\u0446\u0438\u044f", "phone": "+375152534523", "website": "https://farmacia.by/"}}, {"type": "node", "id": 6165664291, "lat": 53.7124212, "lon": 23.8155699, "tags": {"addr:city": "\u0413\u0440\u043e\u0434\u043d\u0430", "addr:housenumber": "91", "addr:street": "\u0432\u0443\u043b\u0456\u0446\u0430 \u041c\u0430\u043a\u0441\u0456\u043c\u0430 \u0413\u043e\u0440\u043a\u0430\u0433\u0430", "amenity": "pharmacy", "dispensing": "yes", "drive_through": "no", "healthcare": "pharmacy", "name": "\u0424\u0430\u0440\u043c\u0430\u0446\u044b\u044f \u2116203", "name:be": "\u0424\u0430\u0440\u043c\u0430\u0446\u044b\u044f \u2116203", "name:ru": "\u0424\u0430\u0440\u043c\u0430\u0446\u0438\u044f \u2116203", "opening_hours": "Mo-Fr 10:00-20:00; Sa-Su,PH 10:00-20:00", "operator": "\u0420\u0423\u041f \u0424\u0430\u0440\u043c\u0430\u0446\u0438\u044f", "phone": "80152607577", "website": "https://farmacia.by/"}}, {"type": "node", "id": 6166893595, "lat": 53.6489508, "lon": 23.8580189, "tags": {"addr:city": "\u0413\u0440\u043e\u0434\u043d\u0430", "addr:housenumber": "89", "addr:street": "\u043f\u0440\u0430\u0441\u043f\u0435\u043a\u0442 \u042f\u043d\u043a\u0456 \u041a\u0443\u043f\u0430\u043b\u044b", "amenity": "pharmacy", "drive_through": "no", "healthcare": "pharmacy", "name": "\u0424\u0430\u0440\u043c\u0430\u0446\u044b\u044f \u2116190", "name:be": "\u0424\u0430\u0440\u043c\u0430\u0446\u044b\u044f \u2116190", "name:ru": "\u0424\u0430\u0440\u043c\u0430\u0446\u0438\u044f \u2116190", "opening_hours": "Mo-Th 08:00-16:00; Fr-Su Off", "operator": "\u0420\u0423\u041f \u0424\u0430\u0440\u043c\u0430\u0446\u0438\u044f", "phone": "+375152951413", "ref": "190", "website": "https://farmacia.by/"}}, {"type": "node", "id": 6204167383, "lat": 53.6199666, "lon": 23.8126345, "tags": {"addr:city": "\u0413\u0440\u043e\u0434\u043d\u0430", "addr:housenumber": "22", "addr:street": "\u0432\u0443\u043b\u0456\u0446\u0430 \u0410\u0433\u0456\u043d\u0441\u043a\u0430\u0433\u0430", "amenity": "pharmacy", "dispensing": "yes", "healthcare": "pharmacy", "name": "\u0424\u0430\u0440\u043c\u0430\u0446\u044b\u044f \u2116232", "name:be": "\u0424\u0430\u0440\u043c\u0430\u0446\u044b\u044f \u2116232", "name:ru": "\u0424\u0430\u0440\u043c\u0430\u0446\u0438\u044f \u2116232", "opening_hours": "Mo-Fr 09:00-21:30; Sa-Su 10:00-21:00", "operator": "\u0420\u0423\u041f \u0424\u0430\u0440\u043c\u0430\u0446\u0438\u044f", "phone": "+375152675647;", "website": "https://farmacia.by"}}, {"type": "node", "id": 6204177735, "lat": 53.6799654, "lon": 23.8348512, "tags": {"addr:city": "\u0413\u0440\u043e\u0434\u043d\u0430", "addr:housenumber": "21", "addr:street": "\u0421\u0430\u0446\u044b\u044f\u043b\u0456\u0441\u0442\u044b\u0447\u043d\u0430\u044f \u0432\u0443\u043b\u0456\u0446\u0430", "amenity": "pharmacy", "dispensing": "yes", "healthcare": "pharmacy", "name": "\u0424\u0430\u0440\u043c\u0430\u0446\u044b\u044f \u2116235", "name:be": "\u0424\u0430\u0440\u043c\u0430\u0446\u044b\u044f \u2116235", "name:ru": "\u0424\u0430\u0440\u043c\u0430\u0446\u0438\u044f \u2116235", "opening_hours": "Mo-Fr 09:00-20:00; Sa 10:00-17:00; Su Off", "operator": "\u0420\u0423\u041f \u0424\u0430\u0440\u043c\u0430\u0446\u0438\u044f", "phone": "+375152771764;", "website": "https://farmacia.by"}}, {"type": "node", "id": 6208433544, "lat": 53.62959, "lon": 23.8552105, "tags": {"addr:city": "\u0413\u0440\u043e\u0434\u043d\u0430", "addr:housenumber": "1", "addr:street": "\u0432\u0443\u043b\u0456\u0446\u0430 \u0421\u0430\u0434\u0430\u043a\u043e\u0432\u0430", "amenity": "pharmacy", "dispensing": "yes", "healthcare": "pharmacy", "name": "\u0424\u0430\u0440\u043c\u0430\u0446\u044b\u044f \u2116248", "name:be": "\u0424\u0430\u0440\u043c\u0430\u0446\u044b\u044f \u2116248", "name:ru": "\u0424\u0430\u0440\u043c\u0430\u0446\u0438\u044f \u2116248", "opening_hours": "Mo-Sa 09:30-21:00; Su 09:30-19:00", "operator": "\u0420\u0423\u041f \u0424\u0430\u0440\u043c\u0430\u0446\u0438\u044f", "phone": "80152688168", "website": "https://farmacia.by/"}}, {"type": "node", "id": 6208480507, "lat": 53.6967667, "lon": 23.8045914, "tags": {"addr:city": "\u0413\u0440\u043e\u0434\u043d\u0430", "addr:door": "2", "addr:housenumber": "44", "addr:street": "\u0431\u0443\u043b\u044c\u0432\u0430\u0440 \u041b\u0435\u043d\u0456\u043d\u0441\u043a\u0430\u0433\u0430 \u041a\u0430\u043c\u0441\u0430\u043c\u043e\u043b\u0430", "amenity": "pharmacy", "check_date:opening_hours": "2021-11-12", "healthcare": "pharmacy", "level": "0", "level:ref": "1", "name": "\u0424\u0430\u0440\u043c\u0430\u0446\u044b\u044f \u2116249", "name:be": "\u0424\u0430\u0440\u043c\u0430\u0446\u044b\u044f \u2116249", "name:ru": "\u0424\u0430\u0440\u043c\u0430\u0446\u0438\u044f \u2116249", "opening_hours": "Mo-Fr 09:00-22:00; Sa-Su 10:00-20:00", "operator": "\u0420\u0423\u041f \u0424\u0430\u0440\u043c\u0430\u0446\u0438\u044f", "phone": "+375152688247;+375292809087", "ref": "249", "ref:vatin": "BY500059690", "website": "https://farmacia.by/"}}, {"type": "node", "id": 6208521258, "lat": 53.6350192, "lon": 23.8529994, "tags": {"addr:city": "\u0413\u0440\u043e\u0434\u043d\u0430", "addr:housenumber": "30", "addr:street": "\u041f\u0430\u045e\u0434\u043d\u0451\u0432\u0430\u044f \u0432\u0443\u043b\u0456\u0446\u0430", "amenity": "pharmacy", "dispensing": "yes", "drive_through": "no", "healthcare": "pharmacy", "name": "\u0424\u0430\u0440\u043c\u0430\u0446\u044b\u044f \u2116253", "name:be": "\u0424\u0430\u0440\u043c\u0430\u0446\u044b\u044f \u2116253", "name:ru": "\u0424\u0430\u0440\u043c\u0430\u0446\u0438\u044f \u2116253", "opening_hours": "Mo-Su 10:00-20:00; Sa-Su 10:00-17:00", "operator": "\u0420\u0423\u041f \u0424\u0430\u0440\u043c\u0430\u0446\u0438\u044f", "phone": "80152632607", "website": "https://farmacia.by/"}}, {"type": "node", "id": 6208581997, "lat": 53.6456436, "lon": 23.7784867, "tags": {"addr:city": "\u0413\u0440\u043e\u0434\u043d\u0430", "addr:housenumber": "318", "addr:street": "\u0432\u0443\u043b\u0456\u0446\u0430 \u0421\u0443\u0432\u043e\u0440\u0430\u0432\u0430", "amenity": "pharmacy", "healthcare": "pharmacy", "name": "\u0424\u0430\u0440\u043c\u0430\u0446\u044b\u044f \u2116255", "name:be": "\u0424\u0430\u0440\u043c\u0430\u0446\u044b\u044f \u2116255", "name:ru": "\u0424\u0430\u0440\u043c\u0430\u0446\u0438\u044f \u2116255", "opening_hours": "Mo-Fr 11:00-20:00; Sa 09:00-18:00; Su Off", "operator": "\u0420\u0423\u041f \u0424\u0430\u0440\u043c\u0430\u0446\u0438\u044f", "phone": "+375152390920", "start_date": "2019-01-11", "website": "https://farmacia.by/"}}, {"type": "node", "id": 6208643641, "lat": 53.6720792, "lon": 23.8096869, "tags": {"addr:city": "\u0413\u0440\u043e\u0434\u043d\u0430", "addr:housenumber": "18", "addr:street": "\u0432\u0443\u043b\u0456\u0446\u0430 \u0413\u0430\u0433\u0430\u0440\u044b\u043d\u0430", "amenity": "pharmacy", "healthcare": "pharmacy", "name": "\u0424\u0430\u0440\u043c\u0430\u0446\u044b\u044f \u211679", "name:be": "\u0424\u0430\u0440\u043c\u0430\u0446\u044b\u044f \u211679", "name:ru": "\u0424\u0430\u0440\u043c\u0430\u0446\u0438\u044f \u211679", "opening_hours": "Mo-Su 08:00-17:30; Sa-Su Off", "operator": "\u0420\u0423\u041f \u0424\u0430\u0440\u043c\u0430\u0446\u0438\u044f", "phone": "80152522924", "website": "https://farmacia.by/"}}, {"type": "node", "id": 6208657623, "lat": 53.6902367, "lon": 23.8336868, "tags": {"addr:city": "\u0413\u0440\u043e\u0434\u043d\u0430", "addr:housenumber": "17", "addr:street": "\u0432\u0443\u043b\u0456\u0446\u0430 \u0410\u0441\u0442\u0440\u043e\u045e\u0441\u043a\u0430\u0433\u0430", "amenity": "pharmacy", "healthcare": "pharmacy", "name": "\u0424\u0430\u0440\u043c\u0430\u0446\u044b\u044f \u211684", "name:be": "\u0424\u0430\u0440\u043c\u0430\u0446\u044b\u044f \u211684", "name:ru": "\u0424\u0430\u0440\u043c\u0430\u0446\u0438\u044f \u211684", "opening_hours": "Mo-Su 10:00-21:00; Sa-Su 10:00-19:00", "operator": "\u0420\u0423\u041f \u0424\u0430\u0440\u043c\u0430\u0446\u0438\u044f", "phone": "+375152621454", "website": "https://farmacia.by/"}}, {"type": "node", "id": 6245473290, "lat": 53.6760035, "lon": 23.841974, "tags": {"addr:city": "\u0413\u0440\u043e\u0434\u043d\u0430", "addr:housenumber": "4\u0410", "addr:street": "\u0432\u0443\u043b\u0456\u0446\u0430 \u0410\u043d\u0442\u043e\u043d\u0430\u0432\u0430", "alt_name": "\u0414\u043e\u0431\u0440\u044b\u044f \u041b\u0435\u043a\u0438", "amenity": "pharmacy", "contact:email": "info@d-leki.by", "contact:instagram": "https://www.instagram.com/apteka_adel", "contact:phone": "+375 25 5355757;+375 29 5355757;+375 44 5355757", "contact:vk": "https://vk.com/apteka_adel", "contact:website": "https://d-leki.by/", "dispensing": "yes", "drive_through": "no", "healthcare": "pharmacy", "name": "\u0414\u043e\u0431\u0440\u044b\u044f \u041b\u0435\u043a\u0456 \u21168", "name:be": "\u0414\u043e\u0431\u0440\u044b\u044f \u041b\u0435\u043a\u0456 \u21168", "name:ru": "\u0414\u043e\u0431\u0440\u044b\u0435 \u041b\u0435\u043a\u0438 \u21168", "opening_hours": "Mo-Fr 08:00-22:00; Sa-Su 08:00-20:00", "operator": "\"\u0412\u0418\u0412\u0410\u0422\u041e\u041d \u043f\u043b\u044e\u0441\""}}, {"type": "node", "id": 6245526489, "lat": 53.6714051, "lon": 23.809935, "tags": {"addr:city": "\u0413\u0440\u043e\u0434\u043d\u0430", "addr:housenumber": "91", "addr:street": "\u0432\u0443\u043b\u0456\u0446\u0430 \u0421\u0430\u0432\u0435\u0446\u043a\u0456\u0445 \u041f\u0430\u0433\u0440\u0430\u043d\u0456\u0447\u043d\u0456\u043a\u0430\u045e", "amenity": "pharmacy", "dispensing": "yes", "healthcare": "pharmacy", "name": "\u0414\u043e\u043a\u0442\u0430\u0440 \u0427\u0430\u0441 \u211657", "name:be": "\u0414\u043e\u043a\u0442\u0430\u0440 \u0427\u0430\u0441 \u211657", "name:ru": "\u0414\u043e\u043a\u0442\u043e\u0440 \u0412\u0440\u0435\u043c\u044f \u211657", "opening_hours": "Mo-Fr 09:00-20:00; Sa-Su 10:00-18:00", "operator": "\u0414\u043e\u043a\u0442\u043e\u0440 \u0412\u0440\u0435\u043c\u044f \u041e\u041e\u041e"}}, {"type": "node", "id": 6248004592, "lat": 53.6433412, "lon": 23.8516146, "tags": {"addr:city": "\u0413\u0440\u043e\u0434\u043d\u0430", "addr:housenumber": "13", "addr:street": "\u0432\u0443\u043b\u0456\u0446\u0430 \u041a\u0430\u0431\u044f\u043a\u0430", "amenity": "pharmacy", "contact:email": "apteka25@inlek.by", "contact:phone": "80152688654", "contact:website": "https://www.inlek.by/", "dispensing": "yes", "drive_through": "no", "healthcare": "pharmacy", "name": "InLek \u211625", "name:be": "\u0406\u043d\u041b\u0435\u043a \u211625", "name:ru": "\u0418\u043d\u041b\u0435\u043a \u211625", "opening_hours": "Mo-Su 09:00-21:00", "operator": "\u041e\u0414\u041e \u0414\u041a\u041c-\u0424\u0430\u0440\u043c", "ref": "25"}}, {"type": "node", "id": 6248006757, "lat": 53.6965788, "lon": 23.8339381, "tags": {"amenity": "pharmacy", "contact:email": "apteka11@inlek.by", "contact:phone": "80152643669", "contact:website": "https://www.inlek.by/", "dispensing": "yes", "drive_through": "no", "healthcare": "pharmacy", "name": "\u0417\u0435\u043b\u0435\u043d\u044b\u0439 \u043b\u0438\u0441\u0442 \u211611", "name:be": "\u0417\u044f\u043b\u0451\u043d\u044b \u043b\u0456\u0441\u0442 \u211611", "name:ru": "\u0417\u0435\u043b\u0435\u043d\u044b\u0439 \u043b\u0438\u0441\u0442 \u211611", "opening_hours": "Mo-Su 09:00-21:00", "operator": "\u041e\u0414\u041e \u0414\u041a\u041c-\u0424\u0430\u0440\u043c", "ref": "11"}}, {"type": "node", "id": 6258508846, "lat": 53.6661895, "lon": 23.7777387, "tags": {"addr:city": "\u0413\u0440\u043e\u0434\u043d\u0430", "addr:housenumber": "192", "addr:street": "\u0432\u0443\u043b\u0456\u0446\u0430 \u0424\u043e\u043b\u044e\u0448", "amenity": "pharmacy", "dispensing": "yes", "drive_through": "no", "healthcare": "pharmacy", "name": "\u0406\u0432\u0430\u0444\u0430\u0440\u043c \u211610", "name:be": "\u0406\u0432\u0430\u0444\u0430\u0440\u043c \u211610", "name:ru": "\u0418\u0432\u0430\u0444\u0430\u0440\u043c \u211610", "opening_hours": "Mo-Fr 09:00-19:00; Sa 10:00-16:00; Su Off", "operator": "\u0418\u0432\u0430\u0444\u0430\u0440\u043c \u0427\u0422\u0423\u041f", "phone": "80152650176"}}, {"type": "node", "id": 6258521133, "lat": 53.6440311, "lon": 23.8412893, "tags": {"addr:city": "\u0413\u0440\u043e\u0434\u043d\u0430", "addr:housenumber": "8", "addr:street": "\u0406\u043d\u0434\u0443\u0440\u0441\u043a\u0430\u044f \u0448\u0430\u0448\u0430", "amenity": "pharmacy", "dispensing": "yes", "drive_through": "no", "healthcare": "pharmacy", "name": "\u0406\u0432\u0430\u0444\u0430\u0440\u043c \u211612", "name:be": "\u0406\u0432\u0430\u0444\u0430\u0440\u043c \u211612", "name:ru": "\u0418\u0432\u0430\u0444\u0430\u0440\u043c \u211612", "opening_hours": "Mo-Su 09:00-20:00", "operator": "\u0418\u0432\u0430\u0444\u0430\u0440\u043c \u0427\u0422\u0423\u041f", "phone": "80152661579"}}, {"type": "node", "id": 6258527958, "lat": 53.645239, "lon": 23.8483178, "tags": {"addr:city": "\u0413\u0440\u043e\u0434\u043d\u0430", "addr:housenumber": "10\u0411", "addr:street": "\u0432\u0443\u043b\u0456\u0446\u0430 \u041a\u0430\u0431\u044f\u043a\u0430", "amenity": "pharmacy", "dispensing": "yes", "drive_through": "no", "healthcare": "pharmacy", "name": "\u0406\u0432\u0430\u0444\u0430\u0440\u043c \u211613", "name:be": "\u0406\u0432\u0430\u0444\u0430\u0440\u043c \u211613", "name:ru": "\u0418\u0432\u0430\u0444\u0430\u0440\u043c \u211613", "opening_hours": "Mo-Fr 10:00-20:00; Sa-Su 10:00-18:00", "operator": "\u0418\u0432\u0430\u0444\u0430\u0440\u043c \u0427\u0422\u0423\u041f", "phone": "80152601859"}}, {"type": "node", "id": 6258545674, "lat": 53.6724978, "lon": 23.7626064, "tags": {"addr:city": "\u0413\u0440\u043e\u0434\u043d\u0430", "addr:housenumber": "19", "addr:street": "\u0417\u0430\u043b\u0430\u0446\u0456\u0441\u0442\u0430\u044f \u0432\u0443\u043b\u0456\u0446\u0430", "amenity": "pharmacy", "dispensing": "yes", "drive_through": "no", "healthcare": "pharmacy", "name": "\u0406\u0432\u0430\u0444\u0430\u0440\u043c \u211615", "name:be": "\u0406\u0432\u0430\u0444\u0430\u0440\u043c \u211615", "name:ru": "\u0418\u0432\u0430\u0444\u0430\u0440\u043c \u211615", "opening_hours": "Mo-Fr 10:00-20:00; Sa-Su 10:00-17:45", "operator": "\u0418\u0432\u0430\u0444\u0430\u0440\u043c \u0427\u0422\u0423\u041f", "phone": "80152967331"}}, {"type": "node", "id": 6260364352, "lat": 53.6577772, "lon": 23.8426589, "tags": {"addr:city": "\u0413\u0440\u043e\u0434\u043d\u0430", "addr:housenumber": "2", "addr:street": "\u0432\u0443\u043b\u0456\u0446\u0430 \u0424\u0430\u043c\u0456\u0447\u043e\u0432\u0430", "amenity": "pharmacy", "dispensing": "yes", "drive_through": "no", "healthcare": "pharmacy", "name": "\u041c\u0430\u044f \u0410\u043f\u0442\u044d\u043a\u0430 \u211622", "name:be": "\u041c\u0430\u044f \u0410\u043f\u0442\u044d\u043a\u0430 \u211622", "name:ru": "\u041c\u043e\u044f \u0410\u043f\u0442\u0435\u043a\u0430 \u211622", "opening_hours": "Mo-Fr 10:00-21:00; Sa-Su 10:00-18:00", "operator": "\u041c\u043e\u044f \u0410\u043f\u0442\u0435\u043a\u0430 \u041e\u041e\u041e", "phone": "80152660330"}}, {"type": "node", "id": 6260440165, "lat": 53.62221, "lon": 23.8096218, "tags": {"addr:city": "\u0413\u0440\u043e\u0434\u043d\u0430", "addr:housenumber": "12", "addr:street": "\u0432\u0443\u043b\u0456\u0446\u0430 \u041d\u0430\u043f\u0430\u043b\u0435\u043e\u043d\u0430 \u041e\u0440\u0434\u044b", "amenity": "pharmacy", "dispensing": "yes", "drive_through": "no", "healthcare": "pharmacy", "int_name": "Apteka \u21166", "name": "\u041c\u0430\u044f \u0410\u043f\u0442\u044d\u043a\u0430 \u211662", "name:be": "\u041c\u0430\u044f \u0410\u043f\u0442\u044d\u043a\u0430 \u211662", "name:ru": "\u041c\u043e\u044f \u0410\u043f\u0442\u0435\u043a\u0430 \u211662", "opening_hours": "Mo-Su 09:00-21:00", "operator": "\u041e\u041e\u041e \u041c\u043e\u044f \u0430\u043f\u0442\u0435\u043a\u0430", "phone": "+375152671594"}}, {"type": "node", "id": 6262633573, "lat": 53.6752804, "lon": 23.8402662, "tags": {"addr:city": "\u0413\u0440\u043e\u0434\u043d\u0430", "addr:housenumber": "2\u0411", "addr:street": "\u0432\u0443\u043b\u0456\u0446\u0430 \u041f\u0430\u043b\u0456\u0433\u0440\u0430\u0444\u0456\u0441\u0442\u0430\u045e", "amenity": "pharmacy", "dispensing": "yes", "drive_through": "no", "healthcare": "pharmacy", "name": "\u0421\u0430\u043b\u044e\u0441\u043b\u0430\u0439\u043d \u211617", "name:be": "\u0421\u0430\u043b\u044e\u0441\u043b\u0430\u0439\u043d \u211617", "name:ru": "\u0421\u0430\u043b\u044e\u0441\u043b\u0430\u0439\u043d \u211617", "opening_hours": "Mo Off; Tu-Su 09:00-16:00", "operator": "\u0421\u0430\u043b\u044e\u0441\u043b\u0430\u0439\u043d \u041e\u0414\u041e", "phone": "80152758122"}}, {"type": "node", "id": 6262656789, "lat": 53.6884497, "lon": 23.8360537, "tags": {"addr:city": "\u0413\u0440\u043e\u0434\u043d\u0430", "addr:housenumber": "7", "addr:street": "\u0432\u0443\u043b\u0456\u0446\u0430 \u0414\u0437\u044f\u0440\u0436\u044b\u043d\u0441\u043a\u0430\u0433\u0430", "amenity": "pharmacy", "dispensing": "yes", "drive_through": "no", "healthcare": "pharmacy", "name": "\u0411\u0456\u044f\u0442\u044d\u0441\u0442 \u21165", "name:be": "\u0411\u0456\u044f\u0442\u044d\u0441\u0442 \u21165", "name:ru": "\u0411\u0438\u043e\u0442\u0435\u0441\u0442 \u21165", "opening_hours": "Mo-Sa 09:00-20:00; Su 10:00-16:00", "operator": "\u0411\u0438\u043e\u0442\u0435\u0441\u0442 \u041e\u041e\u041e \u041d\u041f\u041a", "phone": "+375152620450", "ref:vatin": "BY500059568"}}, {"type": "node", "id": 6262668885, "lat": 53.6809917, "lon": 23.8428287, "tags": {"addr:housenumber": "28", "addr:street": "\u0432\u0443\u043b\u0456\u0446\u0430 \u0411\u0443\u0434\u0437\u0451\u043d\u043d\u0430\u0433\u0430", "amenity": "pharmacy", "dispensing": "yes", "drive_through": "no", "healthcare": "pharmacy", "name": "\u0411\u0456\u044f\u0442\u044d\u0441\u0442 \u21166", "name:be": "\u0411\u0456\u044f\u0442\u044d\u0441\u0442 \u21166", "name:en": "Biotest", "name:ru": "\u0411\u0438\u043e\u0442\u0435\u0441\u0442 \u21166", "opening_hours": "Mo-Sa 09:00-20:00; Su 10:00-16:00", "operator": "\u0411\u0438\u043e\u0442\u0435\u0441\u0442 \u041e\u041e\u041e \u041d\u041f\u041a", "phone": "+375152719735", "ref": "6", "ref:vatin": "BY500059568", "website": "https://www.biotest.by/"}}, {"type": "node", "id": 6332481969, "lat": 53.7355842, "lon": 23.4032566}, {"type": "node", "id": 6332481970, "lat": 53.7356997, "lon": 23.4033543}, {"type": "node", "id": 6332481971, "lat": 53.7356532, "lon": 23.4035115}, {"type": "node", "id": 6332481972, "lat": 53.7355377, "lon": 23.4034138}, {"type": "node", "id": 6660281985, "lat": 53.4597385, "lon": 23.8825874, "tags": {"amenity": "pharmacy", "healthcare": "pharmacy"}}, {"type": "node", "id": 6929750761, "lat": 53.6913983, "lon": 23.8353223, "tags": {"amenity": "pharmacy", "dispensing": "yes", "drive_through": "no", "fixme": "survey", "healthcare": "pharmacy", "name": "\u0424\u0430\u0440\u043c\u0430\u0446\u044b\u044f \u2116 94", "name:be": "\u0424\u0430\u0440\u043c\u0430\u0446\u044b\u044f \u2116 94", "name:ru": "\u0424\u0430\u0440\u043c\u0430\u0446\u0438\u044f \u2116 94", "opening_hours": "Mo-Fr 09:00-19:00; Sa 10:00-16:00"}}, {"type": "node", "id": 6979706418, "lat": 53.6181841, "lon": 23.8157269, "tags": {"alt_name": "\u0410\u043b\u044c\u0444\u0430 \u0430\u043f\u0442\u0435\u043a\u0430 \u211619", "amenity": "pharmacy", "contact:phone": "+375152677609", "contact:website": "https://alfaapteka.by", "dispensing": "yes", "drive_through": "no", "healthcare": "pharmacy", "name": "\u0410\u043b\u044c\u0444\u0430 \u0410\u043f\u0442\u0435\u043a\u0430 \u211619", "name:be": "\u0410\u043b\u044c\u0444\u0430 \u0410\u043f\u0442\u044d\u043a\u0430 \u211619", "name:ru": "\u0410\u043b\u044c\u0444\u0430 \u0410\u043f\u0442\u0435\u043a\u0430 \u211619", "opening_hours": "Mo-Su 10:00-22:00", "operator": "\u0421\u0430\u043b\u044e\u0441\u041b\u0430\u0439\u043d", "ref": "19"}}, {"type": "node", "id": 7024436999, "lat": 53.6172994, "lon": 23.8123106, "tags": {"amenity": "pharmacy", "dispensing": "yes", "healthcare": "pharmacy", "name": "\u0424\u0430\u0440\u043c\u0430\u0446\u044b\u044f 259", "name:be": "\u0424\u0430\u0440\u043c\u0430\u0446\u044b\u044f 259", "name:ru": "\u0424\u0430\u0440\u043c\u0430\u0446\u0438\u044f 259", "opening_hours": "Mo-Fr 07:30-21:00; Sa 09:00-19:00; Su 10:00-18:00", "ref": "259"}}, {"type": "node", "id": 7024438315, "lat": 53.6712234, "lon": 23.7979311, "tags": {"amenity": "pharmacy", "dispensing": "yes", "drive_through": "no", "healthcare": "pharmacy", "name": "\u0424\u0430\u0440\u043c\u0430\u0446\u044b\u044f 261", "name:be": "\u0424\u0430\u0440\u043c\u0430\u0446\u044b\u044f 261", "name:ru": "\u0424\u0430\u0440\u043c\u0430\u0446\u0438\u044f 261", "opening_hours": "Mo-Fr 09:00-20:00; Sa 10:00-18:00; Su, PH 10:00-17:00", "ref": "261", "wheelchair": "no"}}, {"type": "node", "id": 7042316958, "lat": 53.6508598, "lon": 23.8292312, "tags": {"amenity": "pharmacy", "dispensing": "yes", "drive_through": "no", "healthcare": "pharmacy", "name": "\u0424\u0430\u0440\u043c\u0430\u0446\u044b\u044f \u2116262", "name:be": "\u0424\u0430\u0440\u043c\u0430\u0446\u044b\u044f \u2116262", "name:ru": "\u0424\u0430\u0440\u043c\u0430\u0446\u0438\u044f \u2116262", "opening_hours": "Mo-Fr 10:00-20:00; Sa-Su 10:00-18:00; PH off", "operator": "\u0413\u0440\u043e\u0434\u043d\u0435\u043d\u0441\u043a\u043e\u0435 \u0420\u0423\u041f \u0424\u0430\u0440\u043c\u0430\u0446\u0438\u044f", "ref": "262"}}, {"type": "node", "id": 7265878584, "lat": 53.6760484, "lon": 23.8436711, "tags": {"addr:city": "\u0413\u0440\u043e\u0434\u043d\u0430", "addr:housenumber": "11", "addr:street": "\u043f\u0440\u0430\u0441\u043f\u0435\u043a\u0442 \u041a\u0430\u0441\u043c\u0430\u043d\u0430\u045e\u0442\u0430\u045e", "amenity": "pharmacy", "contact:phone": "+375 152 625304", "dispensing": "yes", "drive_through": "no", "healthcare": "pharmacy", "name": "\u0410\u043b\u044c\u0444\u0430 \u0430\u043f\u0442\u044d\u043a\u0430 \u211626", "name:be": "\u0410\u043b\u044c\u0444\u0430 \u0430\u043f\u0442\u044d\u043a\u0430 \u211626", "name:ru": "\u0410\u043b\u044c\u0444\u0430 \u0430\u043f\u0442\u0435\u043a\u0430 \u211626", "opening_hours": "\"\u0421\u0430\u043d\u0434\u0435\u043d\u044c \u043f\u0435\u0440\u0432\u0430\u044f \u0441\u0440\u0435\u0434\u0430 \u043c\u0435\u0441\u044f\u0446\u0430: 09:00 - 11:00\";Mo-Su 09:00-21:00", "operator": "\u0421\u0430\u043b\u044e\u0441\u041b\u0430\u0439\u043d"}}, {"type": "node", "id": 7320586727, "lat": 53.6501122, "lon": 23.8557115, "tags": {"addr:city": "\u0413\u0440\u043e\u0434\u043d\u0430", "addr:housenumber": "87", "addr:street": "\u043f\u0440\u0430\u0441\u043f\u0435\u043a\u0442 \u042f\u043d\u043a\u0456 \u041a\u0443\u043f\u0430\u043b\u044b", "amenity": "pharmacy", "contact:email": "apteka7@inlek.by", "contact:phone": "80152337517", "contact:website": "https://www.inlek.by/", "dispensing": "yes", "healthcare": "pharmacy", "level": "1", "name": "InLek \u21167", "name:be": "\u0406\u043d\u041b\u0435\u043a \u21167", "name:ru": "\u0418\u043d\u041b\u0435\u043a \u21167", "opening_hours": "Mo-Su 09:00-22:00", "operator": "\u041e\u0414\u041e \u0414\u041a\u041c-\u0424\u0430\u0440\u043c"}}, {"type": "node", "id": 7362088168, "lat": 53.6153902, "lon": 23.8199118, "tags": {"addr:city": "\u0413\u0440\u043e\u0434\u043d\u0430", "addr:housenumber": "2", "addr:street": "\u0432\u0443\u043b\u0456\u0446\u0430 \u0410\u0433\u0456\u043d\u0441\u043a\u0430\u0433\u0430", "amenity": "pharmacy", "branch": "\u211630", "brand": "\u041f\u043b\u0430\u043d\u0435\u0442\u0430 \u0437\u0434\u043e\u0440\u043e\u0432\u044c\u044f", "brand:wikidata": "Q109732844", "contact:phone": "80152676646", "dispensing": "yes", "healthcare": "pharmacy", "name": "\u041f\u043b\u0430\u043d\u0435\u0442\u0430 \u0437\u0434\u0430\u0440\u043e\u045e\u044f \u211630", "name:be": "\u041f\u043b\u0430\u043d\u0435\u0442\u0430 \u0437\u0434\u0430\u0440\u043e\u045e\u044f \u211630", "name:ru": "\u041f\u043b\u0430\u043d\u0435\u0442\u0430 \u0437\u0434\u043e\u0440\u043e\u0432\u044c\u044f \u211630", "opening_hours": "Mo-Su 09:00-21:00", "operator": "\u041e\u041e\u041e \u041a\u043e\u0441\u043c\u043e\u0444\u0430\u0440\u043c\u0430", "start_date": "2020-04-03"}}, {"type": "node", "id": 7471960628, "lat": 53.6695935, "lon": 23.8198619, "tags": {"amenity": "pharmacy", "dispensing": "yes", "healthcare": "pharmacy", "name": "\u0420\u044d\u043c\u0435\u0434\u044b\u043a\u0430 \u041b\u041a\u041b \u21167", "name:be": "\u0420\u044d\u043c\u0435\u0434\u044b\u043a\u0430 \u041b\u041a\u041b \u21167", "name:ru": "\u0420\u0435\u043c\u0435\u0434\u0438\u043a\u0430 \u041b\u041a\u041b \u21167", "opening_hours": "Mo-Fr 09:00-20:00; Sa-Su 10:00-18:00"}}, {"type": "node", "id": 7660927959, "lat": 53.64042, "lon": 23.8423279, "tags": {"amenity": "pharmacy", "dispensing": "yes", "healthcare": "pharmacy", "name": "\u041b\u044e\u0431\u0456\u043c\u0430\u044f \u0410\u043f\u0442\u044d\u043a\u0430", "name:be": "\u041b\u044e\u0431\u0456\u043c\u0430\u044f \u0410\u043f\u0442\u044d\u043a\u0430", "name:ru": "\u041b\u044e\u0431\u0438\u043c\u0430\u044f \u0410\u043f\u0442\u0435\u043a\u0430", "website": "https://l-a.by/"}}, {"type": "node", "id": 7775523986, "lat": 53.6595496, "lon": 23.8099193, "tags": {"amenity": "pharmacy", "brand": "\u0410\u043b\u044c\u0444\u0430 \u0430\u043f\u0442\u0435\u043a\u0430", "check_date": "2022-05-29", "contact:instagram": "https://www.instagram.com/alfaapteka_by/", "contact:phone": "+375 152 683901", "contact:website": "https://alfaapteka.by", "dispensing": "yes", "healthcare": "pharmacy", "name": "\u0410\u043b\u044c\u0444\u0430 \u0410\u043f\u0442\u0435\u043a\u0430 \u211617", "name:be": "\u0410\u043b\u044c\u0444\u0430 \u0410\u043f\u0442\u044d\u043a\u0430 \u211617", "name:ru": "\u0410\u043b\u044c\u0444\u0430 \u0410\u043f\u0442\u0435\u043a\u0430 \u211617", "opening_hours": "Mo-Fr 09:00-21:00; Sa 09:00-20:00; Su 10:00-19:00", "operator": "\u0421\u0430\u043b\u044e\u0441\u041b\u0430\u0439\u043d", "ref": "17", "was:name": "\u041a\u0440\u044b\u043d\u0456\u0447\u043a\u0430;\u041e\u0432\u043e\u0449\u043d\u043e\u0439;\u041f\u043b\u043e\u0434\u043e\u043e\u0432\u043e\u0449\u0441\u0435\u0440\u0432\u0438\u0441", "was:shop": "convenience"}}, {"type": "node", "id": 7903531279, "lat": 53.6473765, "lon": 23.7808412, "tags": {"amenity": "pharmacy", "dispensing": "yes", "drive_through": "no", "healthcare": "pharmacy", "opening_hours": "Mo-Fr 10:00-20:00; Sa-Su 10:00-18:00; PH 10:00-18:00"}}, {"type": "node", "id": 8018804197, "lat": 53.647631, "lon": 23.7817033, "tags": {"addr:city": "\u0413\u0440\u043e\u0434\u043d\u0430", "addr:housenumber": "306", "addr:street": "\u0432\u0443\u043b\u0456\u0446\u0430 \u0421\u0443\u0432\u043e\u0440\u0430\u0432\u0430", "amenity": "pharmacy", "contact:phone": "80152390791", "dispensing": "yes", "healthcare": "pharmacy", "name": "\u0406\u0441\u043a\u0430\u043c\u0435\u0434 \u2116101", "name:be": "\u0406\u0441\u043a\u0430\u043c\u0435\u0434 \u2116101", "name:ru": "\u0418\u0441\u043a\u0430\u043c\u0435\u0434 \u2116101", "opening_hours": "Mo-Fr 10:00-21:00; Sa-Su 09:00-18:00"}}, {"type": "node", "id": 8018804198, "lat": 53.6465617, "lon": 23.7801236, "tags": {"addr:city": "\u0413\u0440\u043e\u0434\u043d\u0430", "addr:housenumber": "312", "addr:street": "\u0432\u0443\u043b\u0456\u0446\u0430 \u0421\u0443\u0432\u043e\u0440\u0430\u0432\u0430", "amenity": "pharmacy", "healthcare": "pharmacy", "name": "\u0424\u0430\u0440\u043c\u0430\u0446\u044b\u044f \u2116260", "name:be": "\u0424\u0430\u0440\u043c\u0430\u0446\u044b\u044f \u2116260", "name:ru": "\u0424\u0430\u0440\u043c\u0430\u0446\u0438\u044f \u2116260", "opening_hours": "Mo-Fr 10:00-20:00; Sa-Su 10:00-18:00", "operator": "\u0420\u0423\u041f \u0424\u0430\u0440\u043c\u0430\u0446\u0438\u044f", "phone": "+375152677515", "start_date": "2019-01-11", "website": "https://farmacia.by/"}}, {"type": "node", "id": 8749138799, "lat": 53.6158925, "lon": 23.8108561, "tags": {"amenity": "pharmacy", "contact:phone": "+375 152 670579", "contact:website": "https://alfaapteka.by", "healthcare": "pharmacy", "name": "\u0410\u043b\u044c\u0444\u0430 \u0410\u043f\u0442\u0435\u043a\u0430 \u21169", "name:be": "\u0410\u043b\u044c\u0444\u0430 \u0410\u043f\u0442\u044d\u043a\u0430 \u21169", "name:ru": "\u0410\u043b\u044c\u0444\u0430 \u0410\u043f\u0442\u0435\u043a\u0430 \u21169", "opening_hours": "Mo-Sa 10:00-21:00"}}, {"type": "node", "id": 8749138800, "lat": 53.6768499, "lon": 23.8451734, "tags": {"amenity": "pharmacy", "contact:phone": "+375 152 716053", "contact:website": "https://alfaapteka.by", "healthcare": "pharmacy", "name": "\u0410\u043b\u044c\u0444\u0430 \u0410\u043f\u0442\u0435\u043a\u0430 \u211611", "name:be": "\u0410\u043b\u044c\u0444\u0430 \u0410\u043f\u0442\u044d\u043a\u0430 \u211611", "name:ru": "\u0410\u043b\u044c\u0444\u0430 \u0410\u043f\u0442\u0435\u043a\u0430 \u211611", "opening_hours": "Mo-Su 08:00-20:00"}}, {"type": "node", "id": 8841786257, "lat": 53.6896137, "lon": 23.8359735, "tags": {"amenity": "pharmacy", "healthcare": "pharmacy", "name": "\u0424\u0430\u0440\u043c\u0412\u043e\u0441\u0442\u0440\u0430\u045e", "name:be": "\u0424\u0430\u0440\u043c\u0412\u043e\u0441\u0442\u0440\u0430\u045e", "name:ru": "\u0424\u0430\u0440\u043c\u041e\u0441\u0442\u0440\u043e\u0432", "opening_hours": "Mo-Su 08:00-20:00", "phone": "+375152624041;+375293172118", "website": "https://www.\u0444\u0430\u0440\u043c\u043e\u0441\u0442\u0440\u043e\u0432.\u0431\u0435\u043b/"}}, {"type": "node", "id": 8939074845, "lat": 53.6443151, "lon": 23.8416329, "tags": {"amenity": "pharmacy", "contact:phone": "+375 44 7949395", "contact:website": "http://ostrovzdorovya.by/", "healthcare": "pharmacy", "name": "\u041e\u0441\u0442\u0440\u043e\u0432 \u0437\u0434\u043e\u0440\u043e\u0432\u044c\u044f", "name:be": "\u0412\u043e\u0441\u0442\u0440\u0430\u045e \u0437\u0434\u0430\u0440\u043e\u045e\u044f", "name:ru": "\u041e\u0441\u0442\u0440\u043e\u0432 \u0437\u0434\u043e\u0440\u043e\u0432\u044c\u044f", "opening_hours": "Mo-Su 08:00-21:00"}}, {"type": "node", "id": 9044291905, "lat": 53.6789154, "lon": 23.8297505, "tags": {"amenity": "pharmacy", "check_date": "2024-12-25", "dispensing": "yes", "healthcare": "pharmacy", "name": "\u0424\u0430\u0440\u043c\u0430\u0446\u044b\u044f \u211636", "name:be": "\u0424\u0430\u0440\u043c\u0430\u0446\u044b\u044f \u211636", "name:ru": "\u0424\u0430\u0440\u043c\u0430\u0446\u0438\u044f \u211636", "opening_hours": "Mo-Fr 09:00-20:00; Sa-Su,PH 10:00-18:00", "operator": "\u0420\u0423\u041f \u0424\u0430\u0440\u043c\u0430\u0446\u0438\u044f", "website": "https://farmacia.by/", "wheelchair": "no"}}, {"type": "node", "id": 9170532595, "lat": 53.6304592, "lon": 23.7452613, "tags": {"addr:city": "\u041a\u0430\u0440\u043e\u0431\u0447\u044b\u0446\u044b", "addr:housenumber": "1", "addr:street": "\u0417\u0430\u0440\u0430\u043d\u043a\u0430\u0432\u0430\u044f \u0432\u0443\u043b\u0456\u0446\u0430", "amenity": "pharmacy", "contact:phone": "+375 152 621284", "contact:website": "https://alfaapteka.by", "dispensing": "yes", "healthcare": "pharmacy", "name": "\u0410\u043b\u044c\u0444\u0430 \u0410\u043f\u0442\u0435\u043a\u0430 \u211613", "name:be": "\u0410\u043b\u044c\u0444\u0430 \u0410\u043f\u0442\u044d\u043a\u0430 \u211613", "name:ru": "\u0410\u043b\u044c\u0444\u0430 \u0410\u043f\u0442\u0435\u043a\u0430 \u211613", "opening_hours": "Mo-Su 10:00-21:00", "ref": "13"}}, {"type": "node", "id": 9381352620, "lat": 53.6207705, "lon": 23.8203949, "tags": {"amenity": "pharmacy", "healthcare": "pharmacy"}}, {"type": "node", "id": 9533444134, "lat": 53.6727183, "lon": 23.808303, "tags": {"amenity": "pharmacy", "dispensing": "yes", "healthcare": "pharmacy", "name": "\u0424\u0430\u0440\u043c\u0430\u0446\u044b\u044f \u2116 266", "name:be": "\u0424\u0430\u0440\u043c\u0430\u0446\u044b\u044f \u2116 266", "name:ru": "\u0424\u0430\u0440\u043c\u0430\u0446\u0438\u044f \u2116 266", "opening_hours": "Mo-Fr 09:00-21:00; Sa-Su, PH 10:00-19:00", "ref": "266"}}, {"type": "node", "id": 9533446696, "lat": 53.623151, "lon": 23.8134623, "tags": {"amenity": "pharmacy", "dispensing": "yes", "healthcare": "pharmacy", "level": "0", "name": "ADEL-\u042d\u043a\u0430\u043d\u043e\u043c \u211653", "name:be": "\u0410\u0434\u044d\u043b\u044c-\u042d\u043a\u0430\u043d\u043e\u043c \u211653", "name:ru": "\u0410\u0434\u0435\u043b\u044c-\u042d\u043a\u043e\u043d\u043e\u043c \u211653", "opening_hours": "Mo-Fr 09:00-21:00; Sa-Su 10:00-20:00", "ref": "53"}}, {"type": "node", "id": 9551615217, "lat": 53.4075815, "lon": 23.4838854, "tags": {"addr:city": "Sok\u00f3\u0142ka", "addr:housenumber": "40", "addr:postcode": "16-100", "addr:street": "Genera\u0142a W\u0142adys\u0142awa Sikorskiego", "amenity": "pharmacy", "name": "Melissa", "ref:csioz": "1171321"}}, {"type": "node", "id": 9551615219, "lat": 53.408946, "lon": 23.4944182, "tags": {"addr:city": "Sok\u00f3\u0142ka", "addr:housenumber": "9A", "addr:postcode": "16-100", "addr:street": "Marsza\u0142ka J\u00f3zefa Pi\u0142sudskiego", "amenity": "pharmacy", "name": "Melissa", "ref:csioz": "1021929"}}, {"type": "node", "id": 9551615221, "lat": 53.6317248, "lon": 23.5412251, "tags": {"addr:city": "Nowy Dw\u00f3r", "addr:housenumber": "1", "addr:postcode": "16-205", "addr:street": "Ko\u015bcielna", "amenity": "pharmacy", "name": "Tw\u00f3j Punkt Apteczny", "ref:csioz": "1221639"}}, {"type": "node", "id": 9551615223, "lat": 53.3977957, "lon": 23.5214947, "tags": {"addr:city": "Sok\u00f3\u0142ka", "addr:housenumber": "3", "addr:postcode": "16-100", "addr:street": "Osiedle Zielone", "amenity": "pharmacy", "name": "Arnika", "ref:csioz": "1212016"}}, {"type": "node", "id": 9551615224, "lat": 53.6559713, "lon": 23.3479517, "tags": {"addr:city": "D\u0105browa Bia\u0142ostocka", "addr:housenumber": "5", "addr:postcode": "16-200", "addr:street": "Hugona Ko\u0142\u0142\u0105taja", "amenity": "pharmacy", "name": "Twoja Apteka", "ref:csioz": "1192204"}}, {"type": "node", "id": 9551615225, "lat": 53.4706428, "lon": 23.2293304, "tags": {"addr:city": "Jan\u00f3w", "addr:housenumber": "9A", "addr:postcode": "16-130", "addr:street": "Parkowa", "amenity": "pharmacy", "name": "Aloes", "ref:csioz": "1122749"}}, {"type": "node", "id": 9551615226, "lat": 53.5526816, "lon": 23.4492181, "tags": {"addr:city": "Sidra", "addr:flats": "4", "addr:housenumber": "1", "addr:postcode": "16-124", "addr:street": "Rynek", "amenity": "pharmacy", "name": "Aspirynka Plus", "ref:csioz": "1112757"}}, {"type": "node", "id": 9551615228, "lat": 53.4096309, "lon": 23.5004667, "tags": {"addr:city": "Sok\u00f3\u0142ka", "addr:housenumber": "3", "addr:postcode": "16-100", "addr:street": "Genera\u0142a W\u0142adys\u0142awa Sikorskiego", "amenity": "pharmacy", "name": "Apteka prywatna (Gra\u017cyna Jurgielaniec)", "ref:csioz": "1024789"}}, {"type": "node", "id": 9551615229, "lat": 53.4055413, "lon": 23.4980922, "tags": {"addr:city": "Sok\u00f3\u0142ka", "addr:housenumber": "6A", "addr:postcode": "16-100", "addr:street": "Grodzie\u0144ska", "amenity": "pharmacy", "name": "Dr. Max", "ref:csioz": "1024400"}}, {"type": "node", "id": 9551615231, "lat": 53.6542942, "lon": 23.3499531, "tags": {"addr:city": "D\u0105browa Bia\u0142ostocka", "addr:housenumber": "6", "addr:postcode": "16-200", "addr:street": "Plac Tadeusza Ko\u015bciuszki", "amenity": "pharmacy", "name": "Cefarm", "ref:csioz": "1022748"}}, {"type": "node", "id": 9551615232, "lat": 53.4040825, "lon": 23.4947766, "tags": {"addr:city": "Sok\u00f3\u0142ka", "addr:housenumber": "17", "addr:postcode": "16-100", "addr:street": "1 Maja", "amenity": "pharmacy", "name": "Cefarm", "ref:csioz": "1022720"}}, {"type": "node", "id": 9551615234, "lat": 53.6537891, "lon": 23.3496333, "tags": {"addr:city": "D\u0105browa Bia\u0142ostocka", "addr:housenumber": "3", "addr:postcode": "16-200", "addr:street": "Plac Tadeusza Ko\u015bciuszki", "amenity": "pharmacy", "name": "Dr. Max", "ref:csioz": "1195692"}}, {"type": "node", "id": 9551615235, "lat": 53.4020792, "lon": 23.4869911, "tags": {"addr:city": "Sok\u00f3\u0142ka", "addr:housenumber": "128", "addr:postcode": "16-100", "addr:street": "Bia\u0142ostocka", "amenity": "pharmacy", "name": "Pharmacia", "ref:csioz": "1187179"}}, {"type": "node", "id": 9551615236, "lat": 53.404688, "lon": 23.494253, "tags": {"addr:city": "Sok\u00f3\u0142ka", "addr:flats": "10", "addr:housenumber": "8", "addr:postcode": "16-100", "addr:street": "Bia\u0142ostocka", "amenity": "pharmacy", "name": "Nowa Farmacja (apteka)", "ref:csioz": "1020268"}}, {"type": "node", "id": 9551615237, "lat": 53.4065383, "lon": 23.5053932, "tags": {"addr:city": "Sok\u00f3\u0142ka", "addr:housenumber": "78", "addr:postcode": "16-100", "addr:street": "Grodzie\u0144ska", "amenity": "pharmacy", "name": "Melissa", "ref:csioz": "1020120"}}, {"type": "node", "id": 9551615238, "lat": 53.4052044, "lon": 23.4944677, "tags": {"addr:city": "Sok\u00f3\u0142ka", "addr:housenumber": "17", "addr:postcode": "16-100", "addr:street": "Plac Tadeusza Ko\u015bciuszki", "amenity": "pharmacy", "name": "Dbam O Zdrowie (Doz)", "ref:csioz": "1019451"}}, {"type": "node", "id": 9551615239, "lat": 53.509771, "lon": 23.6431027, "tags": {"addr:city": "Ku\u017anica", "addr:housenumber": "41", "addr:postcode": "16-123", "addr:street": "Sok\u00f3lska", "amenity": "pharmacy", "name": "Punkt apteczny (Barbara Siemie\u0144czuk)", "ref:csioz": "1015393"}}, {"type": "node", "id": 9551615240, "lat": 53.4687857, "lon": 23.2298583, "tags": {"addr:city": "Jan\u00f3w", "addr:housenumber": "2", "addr:postcode": "16-130", "addr:street": "Parkowa", "amenity": "pharmacy", "name": "Melisa", "ref:csioz": "1015142"}}, {"type": "node", "id": 9568072178, "lat": 53.7353309, "lon": 23.4042666, "tags": {"addr:city": "Lipsk", "addr:housenumber": "7", "addr:postcode": "16-315", "addr:street": "Pusta", "amenity": "pharmacy", "name": "Twoja Apteka", "ref:csioz": "1230777"}}, {"type": "node", "id": 9568072183, "lat": 53.6834116, "lon": 23.0967175, "tags": {"addr:city": "Sztabin", "addr:housenumber": "43", "addr:postcode": "16-310", "addr:street": "Augustowska", "amenity": "pharmacy", "name": "Apteka (E. Trojanowska)", "ref:csioz": "1184780"}}, {"type": "node", "id": 9568072187, "lat": 53.731969, "lon": 23.4063449, "tags": {"addr:city": "Lipsk", "addr:housenumber": "7A", "addr:postcode": "16-315", "addr:street": "Rynek", "amenity": "pharmacy", "name": "Chaber", "ref:csioz": "1024946"}}, {"type": "node", "id": 9624009942, "lat": 53.6714591, "lon": 23.8040985, "tags": {"amenity": "pharmacy", "contact:phone": "+375 152 621267", "contact:website": "https://alfaapteka.by", "healthcare": "pharmacy", "name": "\u0410\u043b\u044c\u0444\u0430 \u0410\u043f\u0442\u0435\u043a\u0430 \u211618", "name:be": "\u0410\u043b\u044c\u0444\u0430 \u0410\u043f\u0442\u044d\u043a\u0430 \u211618", "name:ru": "\u0410\u043b\u044c\u0444\u0430 \u0410\u043f\u0442\u0435\u043a\u0430 \u211618", "opening_hours": "Mo-Sa 09:00-21:00; Su 09:00-20:00"}}, {"type": "node", "id": 9851097296, "lat": 53.6480148, "lon": 23.8397875, "tags": {"amenity": "pharmacy", "contact:phone": "+375 44 5806013", "contact:website": "http://ostrovzdorovya.by/", "healthcare": "pharmacy", "name": "\u041e\u0441\u0442\u0440\u043e\u0432 \u0437\u0434\u043e\u0440\u043e\u0432\u044c\u044f", "name:be": "\u0412\u043e\u0441\u0442\u0440\u0430\u045e \u0437\u0434\u0430\u0440\u043e\u045e\u044f", "name:ru": "\u041e\u0441\u0442\u0440\u043e\u0432 \u0437\u0434\u043e\u0440\u043e\u0432\u044c\u044f", "opening_hours": "Mo-Su 09:00-20:00"}}, {"type": "node", "id": 10100655501, "lat": 53.6944991, "lon": 23.8017994, "tags": {"amenity": "pharmacy", "contact:phone": "+375 29 1924356", "contact:website": "http://ostrovzdorovya.by/", "healthcare": "pharmacy", "name": "\u041e\u0441\u0442\u0440\u043e\u0432 \u0437\u0434\u043e\u0440\u043e\u0432\u044c\u044f", "name:be": "\u0412\u043e\u0441\u0442\u0440\u0430\u045e \u0437\u0434\u0430\u0440\u043e\u045e\u044f", "name:ru": "\u041e\u0441\u0442\u0440\u043e\u0432 \u0437\u0434\u043e\u0440\u043e\u0432\u044c\u044f", "opening_hours": "Mo-Su 09:00-21:00"}}, {"type": "node", "id": 10245339883, "lat": 53.7014042, "lon": 23.8063058, "tags": {"amenity": "pharmacy", "check_date": "2025-03-03", "healthcare": "pharmacy", "name": "\u0414\u0430\u043c\u0456\u043d\u0430\u043d\u0442\u0430\u0444\u0430\u0440\u043c", "name:be": "\u0414\u0430\u043c\u0456\u043d\u0430\u043d\u0442\u0430\u0444\u0430\u0440\u043c", "name:ru": "\u0414\u043e\u043c\u0438\u043d\u0430\u043d\u0442\u0430\u0444\u0430\u0440\u043c", "opening_hours": "Mo-Fr 09:00-21:00; Sa 10:00-20:00; Su,PH 10:00-18:00; Fr[4] 13:00-21:00", "operator": "\u0414\u043e\u043c\u0438\u043d\u0430\u043d\u0442\u0430\u0444\u0430\u0440\u043c"}}, {"type": "node", "id": 10693851510, "lat": 53.643597, "lon": 23.8539388, "tags": {"amenity": "pharmacy", "healthcare": "pharmacy", "level": "1", "name": "\u0414\u0437\u044f\u0440\u0436\u0430\u045e\u043d\u0430\u044f \u0430\u043f\u0442\u044d\u043a\u0430 \u211642", "name:be": "\u0414\u0437\u044f\u0440\u0436\u0430\u045e\u043d\u0430\u044f \u0430\u043f\u0442\u044d\u043a\u0430 \u211642", "name:ru": "\u0413\u043e\u0441\u0443\u0434\u0430\u0440\u0441\u0442\u0432\u0435\u043d\u043d\u0430\u044f \u0430\u043f\u0442\u0435\u043a\u0430 N42", "opening_hours": "Mo-Fr 08:00-21:00; Sa-Su 09:00-21:00", "operator": "\u0411\u0435\u043b\u041b\u0435\u043a\u043e\u0426\u0435\u043d\u0442\u0440", "ref": "42"}}, {"type": "node", "id": 10731719370, "lat": 53.6938788, "lon": 23.8232772, "tags": {"amenity": "pharmacy", "drive_through": "no", "healthcare": "pharmacy", "name": "Adel \u211658", "opening_hours": "Mo-Su 09:00-21:00", "start_date": "2023-03"}}, {"type": "node", "id": 10847175003, "lat": 53.6980226, "lon": 23.8011477, "tags": {"amenity": "pharmacy", "check_date": "2023-10-23", "healthcare": "pharmacy", "name": "\u0414\u043e\u0431\u0440\u044b\u044f \u043b\u0435\u043a\u0456", "name:be": "\u0414\u043e\u0431\u0440\u044b\u044f \u043b\u0435\u043a\u0456", "opening_hours": "Mo-Su 09:00-21:00"}}, {"type": "node", "id": 11139384835, "lat": 53.6578361, "lon": 23.8411035, "tags": {"amenity": "pharmacy", "healthcare": "pharmacy", "wheelchair": "limited"}}, {"type": "node", "id": 11158988598, "lat": 53.6964155, "lon": 23.8342295, "tags": {"amenity": "pharmacy", "healthcare": "pharmacy", "opening_hours": "11:00-19:00"}}, {"type": "node", "id": 12015137966, "lat": 53.6498997, "lon": 23.8508858, "tags": {"amenity": "pharmacy", "brand": "\u0414\u043e\u0431\u0440\u044b\u044f \u043b\u0435\u043a\u0456", "brand:be": "\u0414\u043e\u0431\u0440\u044b\u044f \u043b\u0435\u043a\u0456", "brand:ru": "\u0414\u043e\u0431\u0440\u044b\u044f \u043b\u0435\u043a\u0438", "check_date": "2024-06-27", "healthcare": "pharmacy", "name": "\u0414\u043e\u0431\u0440\u044b\u044f \u043b\u0435\u043a\u0456", "name:be": "\u0414\u043e\u0431\u0440\u044b\u044f \u043b\u0435\u043a\u0456", "name:ru": "\u0414\u043e\u0431\u0440\u044b\u044f \u043b\u0435\u043a\u0438"}}, {"type": "node", "id": 12115147040, "lat": 53.6932218, "lon": 23.8321907, "tags": {"amenity": "pharmacy", "check_date": "2024-08-16", "dispensing": "yes", "healthcare": "pharmacy", "name": "\u0424\u0430\u0440\u043c\u0430\u0446\u044b\u044f \u211684", "name:be": "\u0424\u0430\u0440\u043c\u0430\u0446\u044b\u044f \u211684", "name:ru": "\u0424\u0430\u0440\u043c\u0430\u0446\u0438\u044f \u211684", "opening_hours": "Mo-Fr 09:30-20:30; Sa-Su 10:00-17:00; PH off"}}, {"type": "node", "id": 12623288335, "lat": 53.6498088, "lon": 23.835326, "tags": {"amenity": "pharmacy", "contact:phone": "+375 44 5073514", "contact:website": "https://arnica.by", "healthcare": "pharmacy", "name": "\u0410\u0440\u043d\u0438\u043a\u0430-\u041b\u044e\u043a\u0441", "name:be": "\u0410\u0440\u043d\u0456\u043a\u0430-\u041b\u044e\u043a\u0441", "name:ru": "\u0410\u0440\u043d\u0438\u043a\u0430-\u041b\u044e\u043a\u0441", "opening_hours": "Mo-Fr 09:00-21:00; Sa-Su 10:00-18:00"}}, {"type": "way", "id": 29155576, "nodes": [320684647, 320684654, 2058941523, 320684649, 320409823, 320684640, 320684637, 320684630, 320684633, 320684645, 320684647], "tags": {"addr:city": "\u0413\u0440\u043e\u0434\u043d\u0430", "addr:housenumber": "45", "addr:street": "\u0432\u0443\u043b\u0456\u0446\u0430 \u041b\u0456\u0437\u044b \u0427\u0430\u0439\u043a\u0456\u043d\u0430\u0439", "amenity": "pharmacy", "building": "yes", "building:levels": "1", "description": "\u041f\u043e \u043f\u0440\u0430\u0437\u0434\u043d\u0438\u043a\u0430\u043c \u0440\u0430\u0431\u043e\u0442\u0430\u0435\u0442 \u0441 10:00 \u0434\u043e 18:00", "dispensing": "yes", "healthcare": "pharmacy", "name": "\u0424\u0430\u0440\u043c\u0430\u0446\u044b\u044f \u2116134", "name:be": "\u0424\u0430\u0440\u043c\u0430\u0446\u044b\u044f \u2116134", "name:ru": "\u0424\u0430\u0440\u043c\u0430\u0446\u0438\u044f \u2116134", "opening_hours": "Mo-Fr 08:00-21:00; Sa 09:00-19:00; Su 10:00-18:00", "operator": "\u0413\u0440\u043e\u0434\u043d\u0435\u043d\u0441\u043a\u043e\u0435 \u0420\u0423\u041f \u0424\u0430\u0440\u043c\u0430\u0446\u0438\u044f", "phone": "+375152503369", "website": "https://farmacia.by/"}}, {"type": "way", "id": 250561663, "nodes": [2569882263, 2569882269, 3670097197, 3670097198, 2569882250, 2569882248, 2569882263], "tags": {"addr:housenumber": "52/3", "addr:street": "\u0431\u0443\u043b\u044c\u0432\u0430\u0440 \u041b\u0435\u043d\u0456\u043d\u0441\u043a\u0430\u0433\u0430 \u041a\u0430\u043c\u0441\u0430\u043c\u043e\u043b\u0430", "amenity": "pharmacy", "building": "hospital", "healthcare": "pharmacy", "name": "\u0410\u043f\u0442\u044d\u043a\u0430 \u043a\u043e\u0440\u043f\u0443\u0441 \u2116 3", "name:be": "\u0410\u043f\u0442\u044d\u043a\u0430 \u043a\u043e\u0440\u043f\u0443\u0441 \u2116 3", "name:ru": "\u0410\u043f\u0442\u0435\u043a\u0430 \u043a\u043e\u0440\u043f\u0443\u0441 \u2116\u00a03", "ref": "3"}}, {"type": "way", "id": 528202063, "nodes": [5929557776, 5133651081, 5133651082, 5133651083, 5133651085, 5133651084, 320539404, 5929557776], "tags": {"addr:city": "\u0413\u0440\u043e\u0434\u043d\u0430", "addr:housenumber": "10", "addr:street": "\u0432\u0443\u043b\u0456\u0446\u0430 \u041f\u0430\u043f\u043e\u0432\u0456\u0447\u0430", "amenity": "pharmacy", "building": "yes", "healthcare": "pharmacy", "name": "\u0424\u0430\u0440\u043c\u0430\u0446\u044b\u044f \u2116114", "name:be": "\u0424\u0430\u0440\u043c\u0430\u0446\u044b\u044f \u2116114", "name:ru": "\u0424\u0430\u0440\u043c\u0430\u0446\u0438\u044f \u2116114", "opening_hours": "24/7", "operator": "\u0413\u0440\u043e\u0434\u043d\u0435\u043d\u0441\u043a\u043e\u0435 \u0420\u0423\u041f \u0424\u0430\u0440\u043c\u0430\u0446\u0438\u044f", "phone": "+375152652957"}}, {"type": "way", "id": 676183719, "nodes": [6332481972, 6332481969, 6332481970, 6332481971, 6332481972], "tags": {"amenity": "pharmacy", "building": "yes", "healthcare": "pharmacy"}}]}