{"version": 0.6, "generator": "Overpass API 0.7.62.8 e802775f", "osm3s": {"timestamp_osm_base": "2025-10-06T08:24:06Z", "copyright": "The data included in this document is from www.openstreetmap.org. The data is made available under ODbL."}, "elements": [{"type": "node", "id": 1081234373, "lat": 47.6799287, "lon": 22.4588413, "tags": {"addr:city": "Carei", "amenity": "pharmacy", "healthcare": "pharmacy", "name": "Cynara"}}, {"type": "node", "id": 3468060847, "lat": 47.5495, "lon": 22.021533, "tags": {"amenity": "pharmacy", "healthcare": "pharmacy", "name": "\u00cdrisz gy\u00f3gyszert\u00e1r", "source": "turistautak.hu", "source:date": "2011-05-03", "url": "http://turistautak.hu/poi.php?id=42886"}}, {"type": "node", "id": 4031240183, "lat": 47.636667, "lon": 22.3253744, "tags": {"amenity": "pharmacy"}}, {"type": "node", "id": 4163491380, "lat": 47.6001418, "lon": 22.0551532}, {"type": "node", "id": 4163491381, "lat": 47.6000298, "lon": 22.0550974}, {"type": "node", "id": 4163491382, "lat": 47.5999911, "lon": 22.0552686}, {"type": "node", "id": 4163491383, "lat": 47.6001031, "lon": 22.0553243}, {"type": "node", "id": 4278011209, "lat": 47.5270436, "lon": 21.8958967}, {"type": "node", "id": 4278011210, "lat": 47.5269137, "lon": 21.8958232}, {"type": "node", "id": 4278011211, "lat": 47.5269482, "lon": 21.8956894}, {"type": "node", "id": 4278011212, "lat": 47.5270781, "lon": 21.8957629}, {"type": "node", "id": 4476550488, "lat": 47.6020431, "lon": 21.9716348}, {"type": "node", "id": 4476551189, "lat": 47.6020291, "lon": 21.9717877}, {"type": "node", "id": 4476551190, "lat": 47.6018519, "lon": 21.9717519}, {"type": "node", "id": 4476551191, "lat": 47.6018659, "lon": 21.971599}, {"type": "node", "id": 4579274790, "lat": 47.2169822, "lon": 22.0321705, "tags": {"amenity": "pharmacy"}}, {"type": "node", "id": 4579274791, "lat": 47.2244725, "lon": 22.0284285, "tags": {"amenity": "pharmacy"}}, {"type": "node", "id": 4865770631, "lat": 47.6413815, "lon": 22.3256502, "tags": {"amenity": "pharmacy"}}, {"type": "node", "id": 5254254956, "lat": 47.4625678, "lon": 22.3698132}, {"type": "node", "id": 5254254957, "lat": 47.462653, "lon": 22.3700033}, {"type": "node", "id": 5254254958, "lat": 47.4625836, "lon": 22.3700714}, {"type": "node", "id": 5254254959, "lat": 47.4625351, "lon": 22.369963}, {"type": "node", "id": 5254254960, "lat": 47.4625004, "lon": 22.369997}, {"type": "node", "id": 5254254961, "lat": 47.4624638, "lon": 22.3699152}, {"type": "node", "id": 5848137086, "lat": 47.2202697, "lon": 22.0308103, "tags": {"amenity": "pharmacy", "healthcare": "pharmacy"}}, {"type": "node", "id": 6208683094, "lat": 47.5183083, "lon": 22.1352774, "tags": {"addr:city": "Valea lui Mihai", "addr:housenumber": "4", "addr:street": "Strada Republicii", "amenity": "pharmacy", "dispensing": "yes", "name": "Vitalogy", "operator": "Vitalogy SRL"}}, {"type": "node", "id": 7609996231, "lat": 47.5409641, "lon": 22.2056062}, {"type": "node", "id": 7609996232, "lat": 47.5409561, "lon": 22.2056658}, {"type": "node", "id": 7609996233, "lat": 47.5409717, "lon": 22.2055606}, {"type": "node", "id": 7609996234, "lat": 47.5410291, "lon": 22.2055775}, {"type": "node", "id": 7609996235, "lat": 47.5410953, "lon": 22.205597}, {"type": "node", "id": 7609996236, "lat": 47.5411695, "lon": 22.2056188}, {"type": "node", "id": 7609996237, "lat": 47.5410791, "lon": 22.2057173}, {"type": "node", "id": 7609996238, "lat": 47.5411534, "lon": 22.2057392}, {"type": "node", "id": 7609996239, "lat": 47.5409032, "lon": 22.2055882}, {"type": "node", "id": 7609996240, "lat": 47.5408952, "lon": 22.2056479}, {"type": "node", "id": 7609996241, "lat": 47.540977, "lon": 22.2055307}, {"type": "node", "id": 7609996242, "lat": 47.5410335, "lon": 22.2055524}, {"type": "node", "id": 7609996243, "lat": 47.5410982, "lon": 22.2055748}, {"type": "node", "id": 7609996244, "lat": 47.5410765, "lon": 22.2057371}, {"type": "node", "id": 7609996245, "lat": 47.5411507, "lon": 22.2057589}, {"type": "node", "id": 7609996246, "lat": 47.5411725, "lon": 22.2055967}, {"type": "node", "id": 7609996247, "lat": 47.5411876, "lon": 22.2057492}, {"type": "node", "id": 7609996248, "lat": 47.5409541, "lon": 22.2056806}, {"type": "node", "id": 7609996249, "lat": 47.5409702, "lon": 22.2055602}, {"type": "node", "id": 7609996250, "lat": 47.5412037, "lon": 22.2056289}, {"type": "node", "id": 7610130473, "lat": 47.5413422, "lon": 22.205183}, {"type": "node", "id": 7610130474, "lat": 47.541255, "lon": 22.205162}, {"type": "node", "id": 7610130475, "lat": 47.5414033, "lon": 22.2050662}, {"type": "node", "id": 7610130476, "lat": 47.5413967, "lon": 22.2051263}, {"type": "node", "id": 7610130477, "lat": 47.541296, "lon": 22.2049634}, {"type": "node", "id": 7610130478, "lat": 47.5412412, "lon": 22.204988}, {"type": "node", "id": 7610130479, "lat": 47.5412255, "lon": 22.2047811}, {"type": "node", "id": 7610130480, "lat": 47.5412235, "lon": 22.2049876}, {"type": "node", "id": 7610130481, "lat": 47.5412978, "lon": 22.2047827}, {"type": "node", "id": 7610130482, "lat": 47.5412516, "lon": 22.2052273}, {"type": "node", "id": 7610130483, "lat": 47.5413394, "lon": 22.2052373}, {"type": "node", "id": 7610130484, "lat": 47.541428, "lon": 22.2051326}, {"type": "node", "id": 7610175985, "lat": 47.5414336, "lon": 22.2050723}, {"type": "node", "id": 7610175986, "lat": 47.5414115, "lon": 22.2049913}, {"type": "node", "id": 7610175987, "lat": 47.5412229, "lon": 22.2051542}, {"type": "node", "id": 7610175988, "lat": 47.5413892, "lon": 22.2051944}, {"type": "node", "id": 8518989875, "lat": 47.4488512, "lon": 21.9901973, "tags": {"addr:city": "Bagam\u00e9r", "addr:housenumber": "3", "addr:postcode": "4286", "addr:street": "Bocskai utca", "amenity": "pharmacy", "healthcare": "pharmacy", "name": "Galenika Gy\u00f3gyszert\u00e1r", "phone": "+3652388140"}}, {"type": "way", "id": 415306820, "nodes": [4163491380, 4163491381, 4163491382, 4163491383, 4163491380], "tags": {"amenity": "pharmacy", "building": "yes", "healthcare": "pharmacy", "name": "Gy\u00f3gyszert\u00e1r"}}, {"type": "way", "id": 428707547, "nodes": [4278011209, 4278011210, 4278011211, 4278011212, 4278011209], "tags": {"addr:city": "V\u00e1mosp\u00e9rcs", "addr:housenumber": "5", "addr:postcode": "4287", "addr:street": "Debreceni utca", "amenity": "pharmacy", "building": "commercial", "name": "Pajzs Gy\u00f3gyszert\u00e1r"}}, {"type": "way", "id": 450751299, "nodes": [4476550488, 4476551189, 4476551190, 4476551191, 4476550488], "tags": {"addr:city": "Ny\u00edracs\u00e1d", "addr:housenumber": "2", "addr:postcode": "4262", "addr:street": "Pet\u0151fi t\u00e9r", "amenity": "pharmacy", "building": "yes", "name": "Arany Oroszl\u00e1n Gy\u00f3gyszert\u00e1r", "phone": "+36 52 206 014", "toilets": "no", "wheelchair": "yes"}}, {"type": "way", "id": 543517949, "nodes": [5254254956, 5254254957, 5254254958, 5254254959, 5254254960, 5254254961, 5254254956], "tags": {"addr:housenumber": "60", "amenity": "pharmacy", "building": "yes", "healthcare": "pharmacy", "name": "Farmacie", "name:hu": "Gy\u00f3gyszert\u00e1r", "source": "Bing"}}, {"type": "way", "id": 814689004, "nodes": [7609996242, 7609996234, 7609996235, 7609996243, 7609996246, 7609996236, 7609996250, 7609996247, 7609996238, 7609996245, 7609996244, 7609996237, 7609996248, 7609996232, 7609996240, 7609996239, 7609996231, 7609996249, 7609996233, 7609996241, 7609996242], "tags": {"amenity": "pharmacy", "building": "yes", "name": "Farmacie"}}, {"type": "way", "id": 814719856, "nodes": [7610130476, 7610175988, 7610130473, 7610130483, 7610130482, 7610130474, 7610175987, 7610130478, 7610130480, 7610130479, 7610130481, 7610130477, 7610175986, 7610130475, 7610175985, 7610130484, 7610130476], "tags": {"amenity": "pharmacy", "building": "yes", "name": "Farmacie", "wheelchair": "no"}}]}