{"version": 0.6, "generator": "Overpass API 0.7.62.8 e802775f", "osm3s": {"timestamp_osm_base": "2025-10-06T08:24:06Z", "copyright": "The data included in this document is from www.openstreetmap.org. The data is made available under ODbL."}, "elements": [{"type": "node", "id": 283205269, "lat": 49.2042999, "lon": 21.6506503, "tags": {"amenity": "pharmacy"}}, {"type": "node", "id": 283219454, "lat": 49.2013892, "lon": 21.6514994, "tags": {"amenity": "pharmacy", "healthcare": "pharmacy"}}, {"type": "node", "id": 384721961, "lat": 49.005362, "lon": 21.237813, "tags": {"amenity": "pharmacy", "dispensing": "yes", "name": "Amuletum (non-stop)"}}, {"type": "node", "id": 385154422, "lat": 48.9949661, "lon": 21.2429488, "tags": {"amenity": "pharmacy", "brand": "Va\u0161a Lek\u00e1re\u0148", "brand:wikidata": "Q108368884", "dispensing": "yes", "healthcare": "pharmacy", "name": "Va\u0161a Lek\u00e1re\u0148", "opening_hours": "Mo-Fr 08:00-17:00; Sa 08:00-12:00", "phone": "+421475632668", "website": "https://www.vasalekaren.sk/"}}, {"type": "node", "id": 385154473, "lat": 48.9994534, "lon": 21.2390114, "tags": {"amenity": "pharmacy", "dispensing": "no", "healthcare": "pharmacy", "name": "Arnika"}}, {"type": "node", "id": 385154506, "lat": 48.9939924, "lon": 21.2432221, "tags": {"amenity": "pharmacy", "dispensing": "no", "healthcare": "pharmacy", "name": "Lek\u00e1re\u0148 sv. Kozmu a Dami\u00e1na", "opening_hours": "Mo-Fr 08:00-16:00"}}, {"type": "node", "id": 385154577, "lat": 49.0001168, "lon": 21.2428335, "tags": {"amenity": "pharmacy", "dispensing": "yes", "healthcare": "pharmacy", "name": "Mima", "opening_hours": "Mo 7:30-16:00; Tu 07:30-17:30; We-Th 07:00-16:00; Fr 07:30-14:30"}}, {"type": "node", "id": 385154587, "lat": 49.0005426, "lon": 21.2421053, "tags": {"alt_name:sk": "Lek\u00e1re\u0148 Esencia", "amenity": "pharmacy", "branch": "Esencia", "brand": "PLUS LEK\u00c1RE\u0147", "brand:wikidata": "Q108369059", "dispensing": "yes", "healthcare": "pharmacy", "name": "PLUS LEK\u00c1RE\u0147", "opening_hours": "Mo-Fr 07:00-16:00"}}, {"type": "node", "id": 387194989, "lat": 49.0116659, "lon": 21.2232041, "tags": {"amenity": "pharmacy", "brand": "Benu", "brand:wikidata": "Q62562792", "dispensing": "yes", "healthcare": "pharmacy", "name": "Benu", "opening_hours": "Mo-Fr 07:30-17:30", "website": "https://www.benulekaren.sk/"}}, {"type": "node", "id": 388481121, "lat": 49.0009476, "lon": 21.2329313, "tags": {"amenity": "pharmacy", "dispensing": "yes", "healthcare": "pharmacy", "name": "Lek\u00e1re\u0148 Media"}}, {"type": "node", "id": 388506562, "lat": 48.9900703, "lon": 21.2360111, "tags": {"amenity": "pharmacy", "brand": "Dr. Max", "brand:wikidata": "Q56317371", "brand:wikipedia": "fr:Dr.Max", "healthcare": "pharmacy", "name": "Dr. Max", "opening_hours": "Mo-Fr 07:30-18:00", "operator": "Dr.Max"}}, {"type": "node", "id": 415897196, "lat": 49.00858, "lon": 21.2198344, "tags": {"addr:city": "Pre\u0161ov", "addr:housenumber": "7A", "addr:postcode": "08001", "addr:street": "Volgogradsk\u00e1", "amenity": "pharmacy", "brand": "Dr. Max", "brand:wikidata": "Q56317371", "brand:wikipedia": "fr:Dr.Max", "dispensing": "yes", "healthcare": "pharmacy", "name": "Dr. Max", "opening_hours": "Mo-Su 08:00-20:00", "operator": "Dr.Max"}}, {"type": "node", "id": 755131374, "lat": 49.109939, "lon": 21.2386585, "tags": {"amenity": "pharmacy", "dispensing": "yes", "healthcare": "pharmacy", "name": "Lek\u00e1re\u0148 Ter\u0148a", "opening_hours": "Mo-Fr 07:30-12:30"}}, {"type": "node", "id": 767660413, "lat": 49.0395363, "lon": 21.1906851}, {"type": "node", "id": 767660881, "lat": 49.0394173, "lon": 21.1904496}, {"type": "node", "id": 767662926, "lat": 49.0394706, "lon": 21.190419}, {"type": "node", "id": 767666511, "lat": 49.040387, "lon": 21.1915177}, {"type": "node", "id": 767667770, "lat": 49.0403213, "lon": 21.1915717}, {"type": "node", "id": 767668857, "lat": 49.0403469, "lon": 21.1912366}, {"type": "node", "id": 767669779, "lat": 49.0404329, "lon": 21.1914799}, {"type": "node", "id": 767670984, "lat": 49.0402353, "lon": 21.1913284}, {"type": "node", "id": 767671504, "lat": 49.039483, "lon": 21.1907157}, {"type": "node", "id": 947335956, "lat": 48.9954004, "lon": 21.2542069}, {"type": "node", "id": 947336444, "lat": 48.997817, "lon": 21.2525462}, {"type": "node", "id": 947336741, "lat": 48.9976375, "lon": 21.2520523}, {"type": "node", "id": 947337006, "lat": 48.9971419, "lon": 21.2538719}, {"type": "node", "id": 947337383, "lat": 48.9976771, "lon": 21.2519487}, {"type": "node", "id": 947338218, "lat": 48.9981037, "lon": 21.2523187}, {"type": "node", "id": 947338315, "lat": 48.998577, "lon": 21.2510251}, {"type": "node", "id": 947338553, "lat": 48.9987368, "lon": 21.2510581}, {"type": "node", "id": 947338652, "lat": 48.9975154, "lon": 21.2535697}, {"type": "node", "id": 947339119, "lat": 48.9958191, "lon": 21.2538098}, {"type": "node", "id": 947339334, "lat": 48.9976403, "lon": 21.251961}, {"type": "node", "id": 947339619, "lat": 48.9970887, "lon": 21.2537194}, {"type": "node", "id": 947339736, "lat": 48.9958463, "lon": 21.2538928}, {"type": "node", "id": 947339948, "lat": 48.9959786, "lon": 21.2539827}, {"type": "node", "id": 947340492, "lat": 48.9958561, "lon": 21.2537678}, {"type": "node", "id": 947340503, "lat": 48.9980154, "lon": 21.2516792}, {"type": "node", "id": 947340545, "lat": 48.9954772, "lon": 21.2538813}, {"type": "node", "id": 947340772, "lat": 48.9976568, "lon": 21.2519484}, {"type": "node", "id": 947340988, "lat": 48.9958424, "lon": 21.2539114}, {"type": "node", "id": 947341017, "lat": 48.9976674, "lon": 21.2521089}, {"type": "node", "id": 947341189, "lat": 48.9958574, "lon": 21.2539576}, {"type": "node", "id": 947341212, "lat": 48.9976277, "lon": 21.252025}, {"type": "node", "id": 947342181, "lat": 48.9953529, "lon": 21.2540681}, {"type": "node", "id": 947342238, "lat": 48.9958699, "lon": 21.2539621}, {"type": "node", "id": 947342247, "lat": 48.9986203, "lon": 21.2511503}, {"type": "node", "id": 947342663, "lat": 48.9981408, "lon": 21.2524272}, {"type": "node", "id": 947342685, "lat": 48.9974623, "lon": 21.2534172}, {"type": "node", "id": 947342773, "lat": 48.9959005, "lon": 21.2537474}, {"type": "node", "id": 947343547, "lat": 48.9976288, "lon": 21.2519884}, {"type": "node", "id": 947343826, "lat": 48.9958983, "lon": 21.254045}, {"type": "node", "id": 947344139, "lat": 48.9982452, "lon": 21.2523452}, {"type": "node", "id": 947344798, "lat": 48.9986935, "lon": 21.2509333}, {"type": "node", "id": 947345216, "lat": 48.9976526, "lon": 21.2520677}, {"type": "node", "id": 947345783, "lat": 48.9958531, "lon": 21.2537837}, {"type": "node", "id": 947346212, "lat": 48.9958674, "lon": 21.2537727}, {"type": "node", "id": 956494569, "lat": 48.9887876, "lon": 21.2501991}, {"type": "node", "id": 956495140, "lat": 48.9886535, "lon": 21.2502719}, {"type": "node", "id": 956495777, "lat": 48.9888218, "lon": 21.2503453}, {"type": "node", "id": 956496613, "lat": 48.9886877, "lon": 21.2504181}, {"type": "node", "id": 1289384221, "lat": 48.9910458, "lon": 21.2710781, "tags": {"amenity": "pharmacy", "brand": "Schneider", "brand:wikidata": "Q93514377", "dispensing": "yes", "healthcare": "pharmacy", "name": "Schneider", "opening_hours": "Mo-Fr 07:30-15:30"}}, {"type": "node", "id": 1560393979, "lat": 49.0457715, "lon": 21.3291346}, {"type": "node", "id": 1560394390, "lat": 49.0458405, "lon": 21.3292215}, {"type": "node", "id": 1560394487, "lat": 49.0458591, "lon": 21.3289766}, {"type": "node", "id": 1560394678, "lat": 49.0459269, "lon": 21.3290648}, {"type": "node", "id": 1778161881, "lat": 48.9833154, "lon": 21.2495251, "tags": {"amenity": "pharmacy", "dispensing": "yes", "healthcare": "pharmacy", "name": "Galenos", "opening_hours": "Mo-Fr 07:30-16:00", "phone": "+421 51/759 78 10", "website": "https://lekarengalenos.sk/"}}, {"type": "node", "id": 2129421488, "lat": 48.9887327, "lon": 21.2491661, "tags": {"amenity": "pharmacy", "dispensing": "yes", "healthcare": "pharmacy", "name": "Millenium", "opening_hours": "Mo-Fr 07:30-16:00", "phone": "+421 51 772 32 22"}}, {"type": "node", "id": 2129421490, "lat": 48.9940788, "lon": 21.2485971, "tags": {"addr:city": "Pre\u0161ov", "addr:housenumber": "5674/1", "addr:postcode": "08001", "addr:street": "Vajansk\u00e9ho", "amenity": "pharmacy", "healthcare": "pharmacy", "name": "Safira"}}, {"type": "node", "id": 2241705460, "lat": 49.1495742, "lon": 21.3201064, "tags": {"amenity": "pharmacy", "name": "Lek\u00e1re\u0148 u Raka"}}, {"type": "node", "id": 2241705467, "lat": 49.1494664, "lon": 21.3194439, "tags": {"amenity": "pharmacy", "name": "Dr. Max"}}, {"type": "node", "id": 2332285420, "lat": 49.2001674, "lon": 21.6516271, "tags": {"amenity": "pharmacy", "fixme": "estimated position", "healthcare": "pharmacy", "level": "1"}}, {"type": "node", "id": 2419971727, "lat": 49.1149948, "lon": 21.5186364, "tags": {"amenity": "pharmacy", "healthcare": "pharmacy", "name": "Lipa"}}, {"type": "node", "id": 2780107602, "lat": 49.0012083, "lon": 21.2285883, "tags": {"addr:city": "Pre\u0161ov", "addr:conscriptionnumber": "11358", "addr:housenumber": "40", "addr:postcode": "08001", "addr:street": "Levo\u010dsk\u00e1", "addr:streetnumber": "42", "amenity": "pharmacy", "brand": "Dr. Max", "brand:wikidata": "Q56317371", "brand:wikipedia": "fr:Dr.Max", "dispensing": "yes", "healthcare": "pharmacy", "name": "Super Dr. Max", "opening_hours": "Mo-Su 08:00-20:00", "phone": "+421 901 961 039", "website": "https://www.drmax.sk/super-drmax"}}, {"type": "node", "id": 2933392348, "lat": 48.9942362, "lon": 21.266994, "tags": {"amenity": "pharmacy", "brand": "Dr. Max", "brand:wikidata": "Q56317371", "brand:wikipedia": "fr:Dr.Max", "healthcare": "pharmacy", "name": "Dr. Max"}}, {"type": "node", "id": 2944127150, "lat": 49.1016177, "lon": 21.1014325, "tags": {"amenity": "pharmacy", "brand": "Dr. Max", "brand:wikidata": "Q56317371", "brand:wikipedia": "fr:Dr.Max", "dispensing": "no", "healthcare": "pharmacy", "name": "Dr. Max"}}, {"type": "node", "id": 2944127159, "lat": 49.0045791, "lon": 21.2383429, "tags": {"amenity": "pharmacy", "brand": "Schneider", "brand:wikidata": "Q93514377", "healthcare": "pharmacy", "name": "Schneider", "opening_hours": "24/7"}}, {"type": "node", "id": 3254137656, "lat": 48.9801481, "lon": 21.2757445}, {"type": "node", "id": 3254137697, "lat": 48.9801825, "lon": 21.2758282}, {"type": "node", "id": 3254137830, "lat": 48.9802599, "lon": 21.2756303}, {"type": "node", "id": 3254137874, "lat": 48.9802977, "lon": 21.2757277}, {"type": "node", "id": 4442607392, "lat": 49.0217178, "lon": 21.2253661, "tags": {"amenity": "pharmacy", "dispensing": "yes", "healthcare": "pharmacy", "name": "Lek\u00e1re\u0148 sv. Dami\u00e1na", "opening_hours": "Mo-Th 08:00-18:00; Fr 08:00-17:00", "operator": "Lek\u00e1re\u0148 PLUS"}}, {"type": "node", "id": 5058142169, "lat": 49.0165625, "lon": 21.225067, "tags": {"amenity": "pharmacy", "brand": "Schneider", "brand:wikidata": "Q93514377", "contact:email": "pharmacentrum@schneider-lekaren.sk", "contact:phone": "+421 902 954 945", "healthcare": "pharmacy", "name": "Schneider", "opening_hours": "Mo-Fr 07:30-17:00; Sa 08:00-12:00", "operator": "Schneider", "website": "https://www.schneider-lekaren.sk/"}}, {"type": "node", "id": 5058142170, "lat": 49.0167092, "lon": 21.2252977, "tags": {"amenity": "pharmacy", "healthcare": "pharmacy", "name": "Kostihoj", "opening_hours": "Mo-Fr 07:00-15:30", "operator": "Farmakol"}}, {"type": "node", "id": 5822829772, "lat": 49.2258886, "lon": 21.4551051, "tags": {"amenity": "pharmacy", "dispensing": "yes", "mobile": "+421 903 627 589", "name": "Verejn\u00e1 lek\u00e1re\u0148 KURIMA", "opening_hours": "Mo-Fr 08:00-16:00", "phone": "+421 54 778 1245"}}, {"type": "node", "id": 5825563645, "lat": 49.1117503, "lon": 21.5154019, "tags": {"addr:conscriptionnumber": "337", "addr:housenumber": "337/18", "addr:street": "Kukorelliho", "addr:streetnumber": "18", "amenity": "pharmacy", "name": "Damila", "opening_hours": "Mo-Fr 07:30-16:00"}}, {"type": "node", "id": 6210156119, "lat": 48.9893897, "lon": 21.2627613, "tags": {"amenity": "pharmacy", "brand": "Dr. Max", "brand:wikidata": "Q56317371", "dispensing": "yes", "healthcare": "pharmacy", "level": "0", "name": "Dr. Max", "opening_hours": "Mo-Su 09:00-21:00", "website": "https://www.drmax.sk/", "wheelchair": "yes"}}, {"type": "node", "id": 7920253994, "lat": 48.992598, "lon": 21.2415364, "tags": {"amenity": "pharmacy", "brand": "Benu", "brand:wikidata": "Q62562792", "dispensing": "yes", "healthcare": "pharmacy", "name": "Benu", "opening_hours": "Mo-Su 08:00-20:00"}}, {"type": "node", "id": 8012517242, "lat": 48.9961869, "lon": 21.2707679, "tags": {"amenity": "pharmacy", "brand": "Dr. Max", "brand:wikidata": "Q56317371", "email": "drmax@drmax.sk", "healthcare": "pharmacy", "name": "Dr. Max", "opening_hours": "Mo-Fr 07:30-18:30", "phone": "+421901961224", "website": "https://www.drmax.sk"}}, {"type": "node", "id": 8810347143, "lat": 49.0028073, "lon": 21.2275166, "tags": {"addr:city": "Pre\u0161ov", "addr:housenumber": "2A", "addr:postcode": "08001", "addr:street": "Matice slovenskej", "amenity": "pharmacy", "dispensing": "yes", "healthcare": "pharmacy", "name": "Balsamum", "opening_hours": "Mo-Fr 07:30-16:00"}}, {"type": "node", "id": 8986729391, "lat": 49.1974165, "lon": 21.6523744, "tags": {"amenity": "pharmacy", "dispensing": "yes", "healthcare": "pharmacy", "name": "Lek\u00e1re\u0148 Zdravie"}}, {"type": "node", "id": 9071754279, "lat": 49.0165819, "lon": 21.2245849, "tags": {"amenity": "pharmacy", "brand": "Dr. Max", "brand:wikidata": "Q56317371", "dispensing": "yes", "healthcare": "pharmacy", "name": "Dr. Max", "opening_hours": "Mo-Fr 07:30-18:00; Sa 08:00-12:00"}}, {"type": "node", "id": 9077915253, "lat": 49.0016207, "lon": 21.237454, "tags": {"amenity": "pharmacy", "dispensing": "yes", "healthcare": "pharmacy", "name": "Vital"}}, {"type": "node", "id": 9094376632, "lat": 49.0159442, "lon": 21.2245702, "tags": {"alt_name:sk": "Lek\u00e1re\u0148 Vital", "amenity": "pharmacy", "brand": "Va\u0161a Lek\u00e1re\u0148", "brand:wikidata": "Q108368884", "dispensing": "yes", "healthcare": "pharmacy", "name": "Va\u0161a Lek\u00e1re\u0148", "opening_hours": "Mo-Fr 07:30-16:00"}}, {"type": "node", "id": 9094376643, "lat": 48.9739712, "lon": 21.2626462, "tags": {"amenity": "pharmacy", "brand": "Schneider", "brand:wikidata": "Q93514377", "dispensing": "yes", "healthcare": "pharmacy", "name": "Schneider", "opening_hours": "Mo-Fr 07:30-18:00"}}, {"type": "node", "id": 9094376646, "lat": 48.972719, "lon": 21.2611379, "tags": {"amenity": "pharmacy", "brand": "Va\u0161a Lek\u00e1re\u0148", "brand:wikidata": "Q108368884", "dispensing": "yes", "healthcare": "pharmacy", "name": "Va\u0161a Lek\u00e1re\u0148"}}, {"type": "node", "id": 9094868562, "lat": 48.9940928, "lon": 21.2668734, "tags": {"amenity": "pharmacy", "dispensing": "yes", "healthcare": "pharmacy", "name": "AVICENNA"}}, {"type": "node", "id": 9130840745, "lat": 48.9891323, "lon": 21.2673142, "tags": {"amenity": "pharmacy", "dispensing": "yes", "healthcare": "pharmacy", "name": "Medicus"}}, {"type": "node", "id": 9130840752, "lat": 48.9866364, "lon": 21.2664344, "tags": {"amenity": "pharmacy", "dispensing": "yes", "healthcare": "pharmacy", "name": "Pediatric Bio Pharma", "phone": "+421517707313"}}, {"type": "node", "id": 9130840755, "lat": 48.9848774, "lon": 21.2501628, "tags": {"amenity": "pharmacy", "branch": "Lek\u00e1re\u0148 pri stanici", "brand": "PLUS LEK\u00c1RE\u0147", "brand:wikidata": "Q108369059", "dispensing": "yes", "healthcare": "pharmacy", "name": "PLUS LEK\u00c1RE\u0147", "opening_hours": "Mo-Fr 07:00-18:00"}}, {"type": "node", "id": 9130840786, "lat": 48.9808066, "lon": 21.2513672, "tags": {"amenity": "pharmacy", "brand": "Dr. Max", "brand:wikidata": "Q56317371", "brand:wikipedia": "fr:Dr.Max", "dispensing": "yes", "healthcare": "pharmacy", "name": "Dr. Max"}}, {"type": "node", "id": 9140805198, "lat": 49.0064237, "lon": 21.2232831, "tags": {"amenity": "pharmacy", "brand": "Va\u0161a Lek\u00e1re\u0148", "brand:wikidata": "Q108368884", "dispensing": "yes", "healthcare": "pharmacy", "name": "Va\u0161a Lek\u00e1re\u0148 TaJ Dru\u017eba", "opening_hours": "Mo-Fr 08:00-17:00", "phone": "+421 948 851 355"}}, {"type": "node", "id": 9169382845, "lat": 48.9911031, "lon": 21.2454044, "tags": {"amenity": "pharmacy", "brand": "Benu", "brand:wikidata": "Q62562792", "dispensing": "yes", "healthcare": "pharmacy", "name": "Benu", "opening_hours": "Mo-Fr 08:00-16:30"}}, {"type": "node", "id": 9196077397, "lat": 48.9915214, "lon": 21.272133, "tags": {"amenity": "pharmacy", "brand": "Dr. Max", "brand:wikidata": "Q56317371", "dispensing": "yes", "healthcare": "pharmacy", "name": "Dr. Max", "opening_hours": "Mo-Fr 07:30-17:00", "phone": "+421 901 961 424", "website": "https://www.drmax.sk/lekarne/presov-justicna-13"}}, {"type": "node", "id": 9415169087, "lat": 49.0418501, "lon": 21.2059469}, {"type": "node", "id": 9415169088, "lat": 49.041877, "lon": 21.2060445}, {"type": "node", "id": 9415169089, "lat": 49.0416209, "lon": 21.2062096}, {"type": "node", "id": 9415169090, "lat": 49.0415946, "lon": 21.2061117}, {"type": "node", "id": 9662774784, "lat": 48.9992349, "lon": 21.2515805, "tags": {"amenity": "pharmacy", "dispensing": "yes", "healthcare": "pharmacy", "name": "Lek\u00e1re\u0148 PRI NEMOCNICI", "opening_hours": "Mo-Fr 07:00-16:00", "website": "https://www.lekarenprinemocnici.sk/"}}, {"type": "node", "id": 9675845993, "lat": 49.0007315, "lon": 21.2414947, "tags": {"amenity": "pharmacy", "branch": "Calia", "brand": "Va\u0161a Lek\u00e1re\u0148", "brand:wikidata": "Q108368884", "dispensing": "yes", "healthcare": "pharmacy", "name": "Va\u0161a Lek\u00e1re\u0148", "opening_hours": "Mo-Fr 07:30-15:30"}}, {"type": "node", "id": 9864808408, "lat": 49.0005412, "lon": 21.2356647, "tags": {"amenity": "pharmacy", "dispensing": "yes", "healthcare": "pharmacy", "name": "Lek\u00e1re\u0148 Partner Levo\u010dsk\u00e1", "opening_hours": "Mo-Fr 07:00-18:00"}}, {"type": "node", "id": 9864830430, "lat": 48.997543, "lon": 21.2707293, "tags": {"amenity": "pharmacy", "brand": "Benu", "brand:wikidata": "Q62562792", "dispensing": "yes", "healthcare": "pharmacy", "name": "Benu", "opening_hours": "Mo-Su 09:00-21:00"}}, {"type": "node", "id": 9870539508, "lat": 48.9968289, "lon": 21.2414915, "tags": {"amenity": "pharmacy", "dispensing": "yes", "healthcare": "pharmacy", "name": "Lek\u00e1re\u0148 u Zlat\u00e9ho orla", "opening_hours": "Mo-Fr 07:00-17:00", "phone": "+42151/773 33 36"}}, {"type": "node", "id": 9870576222, "lat": 48.9857997, "lon": 21.2541795, "tags": {"amenity": "pharmacy", "brand": "Dr. Max", "brand:wikidata": "Q56317371", "dispensing": "yes", "healthcare": "pharmacy", "name": "Dr. Max", "opening_hours": "Mo-Fr 08:00-16:30", "phone": "+421 901 961 489", "website": "https://www.drmax.sk/lekarne/presov-oc-solivaria-solivarska-14839-1c"}}, {"type": "node", "id": 9882605038, "lat": 48.9743247, "lon": 21.262565, "tags": {"amenity": "pharmacy", "brand": "Dr. Max", "brand:wikidata": "Q56317371", "dispensing": "yes", "healthcare": "pharmacy", "name": "Dr. Max", "opening_hours": "Mo-Fr 08:00-18:00; Sa 08:00-12:00"}}, {"type": "node", "id": 9892768249, "lat": 48.9928725, "lon": 21.2431097, "tags": {"amenity": "pharmacy", "brand": "Schneider", "brand:wikidata": "Q93514377", "dispensing": "yes", "healthcare": "pharmacy", "name": "Schneider", "opening_hours": "Mo-Fr 08:00-21:00; Sa-Su 09:00-21:00"}}, {"type": "node", "id": 9939571068, "lat": 48.9881493, "lon": 21.2655856, "tags": {"amenity": "pharmacy", "dispensing": "yes", "email": "sekcov@lekarentaj.sk", "healthcare": "pharmacy", "name": "Pohotovostn\u00e1 lek\u00e1re\u0148 TAJ Sek\u010dov", "opening_hours": "Mo-Su 07:00-22:00", "phone": "+421 948 506 177", "website": "https://www.lekarentaj.sk/"}}, {"type": "node", "id": 9972402432, "lat": 48.9877878, "lon": 21.2637582, "tags": {"amenity": "pharmacy", "brand": "Dr. Max", "brand:wikidata": "Q56317371", "dispensing": "yes", "healthcare": "pharmacy", "name": "Dr. Max", "opening_hours": "Mo-Su 08:00-20:00", "website": "https://www.drmax.sk/"}}, {"type": "node", "id": 9972402433, "lat": 48.9879239, "lon": 21.2638541, "tags": {"amenity": "pharmacy", "brand": "Schneider", "brand:wikidata": "Q93514377", "dispensing": "yes", "healthcare": "pharmacy", "name": "Schneider", "opening_hours": "Mo-Su 08:00-20:00", "website": "https://www.schneider-lekaren.sk/"}}, {"type": "node", "id": 9986947841, "lat": 49.018751, "lon": 21.2768189, "tags": {"amenity": "pharmacy", "brand": "Va\u0161a Lek\u00e1re\u0148", "brand:wikidata": "Q108368884", "contact:email": "lekarensebastova@gmail.com", "contact:phone": "+421517764004", "dispensing": "yes", "healthcare": "pharmacy", "name": "Lek\u00e1re\u0148 Pharm\u00e1cia", "opening_hours": "Mo-Fr 07:00-17:00", "phone": "+42151/776 40 04", "website": "https://www.vasalekaren.sk/lekaren/7248/lekaren-pharmacia-presov-sebastovska-4"}}, {"type": "node", "id": 10016858727, "lat": 48.9980145, "lon": 21.2407437, "tags": {"amenity": "pharmacy", "brand": "Dr. Max", "brand:wikidata": "Q56317371", "dispensing": "yes", "healthcare": "pharmacy", "name": "Dr. Max", "opening_hours": "Mo-Fr 08:00-18:00"}}, {"type": "node", "id": 10072440092, "lat": 48.9931472, "lon": 21.2678886, "tags": {"amenity": "pharmacy", "dispensing": "yes", "healthcare": "pharmacy", "name": "Galia", "opening_hours": "Mo-Fr 07:30-16:00"}}, {"type": "node", "id": 10138181188, "lat": 48.9972663, "lon": 21.2535757}, {"type": "node", "id": 10138181190, "lat": 48.997117, "lon": 21.2538004}, {"type": "node", "id": 10138181231, "lat": 48.9955484, "lon": 21.2540893}, {"type": "node", "id": 10210711244, "lat": 49.0009522, "lon": 21.2338785, "tags": {"amenity": "pharmacy", "brand": "Schneider", "brand:wikidata": "Q93514377", "healthcare": "pharmacy", "name": "Schneider", "opening_hours": "Mo-Th 07:00-16:00; Fr 07:00-15:00"}}, {"type": "node", "id": 10564531174, "lat": 48.9801755, "lon": 21.2757168}, {"type": "node", "id": 10576186272, "lat": 48.9858033, "lon": 21.2487499, "tags": {"addr:city": "Pre\u0161ov", "addr:housenumber": "26", "addr:postcode": "080 01", "addr:street": "Masarykova", "amenity": "pharmacy", "brand": "Va\u0161a Lek\u00e1re\u0148", "brand:wikidata": "Q108368884", "dispensing": "yes", "email": "zdravie.presov@gmail.com", "healthcare": "pharmacy", "name": "Va\u0161a Lek\u00e1re\u0148", "opening_hours": "Mo-Fr 08:00-17:00", "phone": "+421517721010", "website": "https://www.vasalekaren.sk/"}}, {"type": "node", "id": 10597302011, "lat": 48.9830708, "lon": 21.2438212, "tags": {"amenity": "pharmacy", "dispensing": "yes", "healthcare": "pharmacy", "name": "Lek\u00e1re\u0148 Partner Budovate\u013esk\u00e1", "opening_hours": "Mo-Fr 07:30-17:00", "phone": "+421 948 425 525"}}, {"type": "node", "id": 10647288252, "lat": 48.9987151, "lon": 21.2509954}, {"type": "node", "id": 10819686389, "lat": 49.0283384, "lon": 21.5056352, "tags": {"amenity": "pharmacy", "email": "lekarencentrum1@gmail.com", "healthcare": "pharmacy", "name": "Centrum", "opening_hours": "Mo-Fr 07:30-16:00", "phone": "+421 57 3815517", "website": "https://pluslekaren.sk/"}}, {"type": "node", "id": 10861384837, "lat": 48.9890251, "lon": 21.2430385, "tags": {"amenity": "pharmacy", "dispensing": "yes", "healthcare": "pharmacy", "name": "Rodinn\u00e1 lek\u00e1re\u0148", "opening_hours": "Mo-Fr 08:00-16:30"}}, {"type": "node", "id": 10863671990, "lat": 48.9881146, "lon": 21.2655772, "tags": {"amenity": "pharmacy", "dispensing": "yes", "healthcare": "pharmacy", "name": "Modr\u00e1 lek\u00e1re\u0148 - Veterin\u00e1rna lek\u00e1re\u0148", "opening_hours": "Mo-Fr 08:00-16:00", "phone": "+421 948 276 124", "website": "https://www.modralekaren.sk/"}}, {"type": "node", "id": 10878037707, "lat": 48.9802386, "lon": 21.2756521}, {"type": "node", "id": 10947607285, "lat": 49.0013877, "lon": 21.5353502, "tags": {"amenity": "pharmacy", "healthcare": "pharmacy"}}, {"type": "node", "id": 11188944054, "lat": 48.9888074, "lon": 21.250284}, {"type": "node", "id": 11207762798, "lat": 48.9929732, "lon": 21.2472885, "tags": {"amenity": "pharmacy", "dispensing": "yes", "healthcare": "pharmacy", "name": "Lek\u00e1re\u0148 Spiritus", "opening_hours": "Mo-Fr 07:30-16:00", "operator": "Farmakol Group", "phone": "+421 51/775 42 15", "website": "http://www.farmakol.eu/lekaren/lekaren-spiritus"}}, {"type": "node", "id": 11552531737, "lat": 48.9984316, "lon": 21.2244913, "tags": {"amenity": "pharmacy", "brand": "Va\u0161a Lek\u00e1re\u0148", "brand:wikidata": "Q108368884", "dispensing": "yes", "healthcare": "pharmacy", "name": "Va\u0161a Lek\u00e1re\u0148 TaJ Centr\u00e1l", "opening_hours": "Mo-Fr 07:30-18:00", "operator": "Va\u0161a Lek\u00e1re\u0148"}}, {"type": "node", "id": 11739682959, "lat": 48.995475, "lon": 21.253875}, {"type": "node", "id": 11739682960, "lat": 48.9953271, "lon": 21.2539927}, {"type": "node", "id": 12033328889, "lat": 49.1161044, "lon": 21.521113, "tags": {"amenity": "pharmacy", "brand": "Dr. Max", "brand:wikidata": "Q56317371", "check_date": "2024-07-04", "dispensing": "yes", "drive_through": "no", "healthcare": "pharmacy", "level": "0", "name": "Dr. Max", "opening_hours": "Mo-Fr 08:00-18:00; Sa 08:00-12:00; Su,PH off", "payment:cash": "yes", "payment:credit_cards": "yes", "payment:debit_cards": "yes", "source": "survey", "wheelchair": "yes"}}, {"type": "node", "id": 12115926686, "lat": 49.0129872, "lon": 21.2565538, "tags": {"amenity": "pharmacy", "brand": "Dr. Max", "brand:wikidata": "Q56317371", "dispensing": "yes", "healthcare": "pharmacy", "name": "Dr. Max", "opening_hours": "Mo-Su 08:00-20:00"}}, {"type": "node", "id": 12441362596, "lat": 48.9830049, "lon": 21.2548036, "tags": {"amenity": "pharmacy", "brand": "Benu", "brand:wikidata": "Q62562792", "dispensing": "yes", "healthcare": "pharmacy", "name": "Benu", "opening_hours": "Mo-Sa 07:00-21:00; Su 08:00-20:00", "start_date": "2025-02"}}, {"type": "node", "id": 12697079737, "lat": 49.0003397, "lon": 21.2390495, "tags": {"amenity": "pharmacy", "dispensing": "yes", "healthcare": "pharmacy", "name": "Lek\u00e1re\u0148 sv\u00e4t\u00e9ho Mikul\u00e1\u0161a", "opening_hours": "Mo-Fr 08:00-16:00", "website": "https://www.lekarensvmikulas.sk/"}}, {"type": "node", "id": 12791901310, "lat": 49.3039778, "lon": 21.5743295, "tags": {"amenity": "pharmacy", "brand": "Benu", "brand:wikidata": "Q62562792", "healthcare": "pharmacy", "name": "Benu"}}, {"type": "node", "id": 12848457494, "lat": 48.8720836, "lon": 21.2706972, "tags": {"amenity": "pharmacy", "healthcare": "pharmacy", "name": "Lek\u00e1re\u0148 TaJ"}}, {"type": "node", "id": 12893382016, "lat": 49.3111734, "lon": 21.5704338, "tags": {"amenity": "pharmacy", "healthcare": "pharmacy", "name": "LeMedic"}}, {"type": "node", "id": 13120195389, "lat": 49.0458761, "lon": 21.329157, "tags": {"entrance": "main", "image": "https://backend.freemap.sk/gallery/pictures/682047/image", "wheelchair": "yes"}}, {"type": "way", "id": 61522004, "nodes": [767660881, 767662926, 767660413, 767671504, 767660881], "tags": {"addr:city": "Ve\u013ek\u00fd \u0160ari\u0161", "addr:conscriptionnumber": "99", "addr:country": "SK", "addr:housenumber": "99/2", "addr:postcode": "08221", "addr:street": "Hlavn\u00e1", "addr:streetnumber": "2", "addr:suburb": "Ve\u013ek\u00fd \u0160ari\u0161", "amenity": "pharmacy", "building": "yes", "dispensing": "yes", "healthcare": "pharmacy", "import": "budovy201004", "name": "Lek\u00e1re\u0148 Benu", "opening_hours": "Mo-Fr 07:00-17:00, Sa 09:00-13:00", "ref:minvskaddress": "25653155", "source": "kapor2;https://www.benulekaren.sk/lekarne", "source:addr": "minvskaddress 2022-12", "website": "https://www.benulekaren.sk"}}, {"type": "way", "id": 61522122, "nodes": [767669779, 767666511, 767667770, 767670984, 767668857, 767669779], "tags": {"amenity": "pharmacy", "building": "yes", "dispensing": "yes", "healthcare": "pharmacy", "import": "budovy201004", "name": "Lek\u00e1re\u0148 Dr. Max", "opening_hours": "Mo-Fr 07:00-16:00", "source": "kapor2", "website": "https://www.drmax.sk/"}}, {"type": "way", "id": 81326807, "nodes": [947339619, 10138181188, 947342685, 947338652, 947337006, 10138181190, 947339619], "tags": {"addr:city": "Pre\u0161ov", "addr:conscriptionnumber": "11255", "addr:country": "SK", "addr:housenumber": "11255", "addr:place": "Pre\u0161ov", "addr:postcode": "08001", "amenity": "pharmacy", "building": "yes", "dispensing": "yes", "healthcare": "pharmacy", "name": "Reimanova lek\u00e1re\u0148", "opening_hours": "Mo-Fr 07:00-16:00", "operator": "FNsP J. A. Reimana", "ref:minvskaddress": "6701040566", "source": "kapor2", "source:addr": "minvskaddress 2024-02"}}, {"type": "way", "id": 81327468, "nodes": [947338315, 947344798, 10647288252, 947338553, 947342247, 947338315], "tags": {"addr:city": "Pre\u0161ov", "addr:conscriptionnumber": "8244", "addr:country": "SK", "addr:housenumber": "8244/27", "addr:postcode": "08001", "addr:street": "Sl\u00e1dkovi\u010dova", "addr:streetnumber": "27", "addr:suburb": "Pre\u0161ov", "amenity": "pharmacy", "building": "yes", "dispensing": "yes", "healthcare": "pharmacy", "name": "Lek\u00e1re\u0148 Silvia", "opening_hours": "Mo-Fr 07:30-16:00", "phone": "+42151/773 42 39", "ref:minvskaddress": "6701011306", "source": "kapor2", "source:addr": "minvskaddress 2024-02"}}, {"type": "way", "id": 81327516, "nodes": [947346212, 947342773, 947339948, 947343826, 947342238, 947341189, 947340988, 947339736, 947339119, 947345783, 947340492, 947346212], "tags": {"addr:city": "Pre\u0161ov", "addr:conscriptionnumber": "7592", "addr:country": "SK", "addr:housenumber": "7592/14A", "addr:postcode": "08001", "addr:street": "J\u00e1na Holl\u00e9ho", "addr:streetnumber": "14A", "addr:suburb": "Pre\u0161ov", "amenity": "pharmacy", "building": "yes", "dispensing": "yes", "healthcare": "pharmacy", "name": "Farmakol - Lek\u00e1re\u0148 Zuzana", "opening_hours": "Mo-Fr 07:00-22:00; Sa 08:00-13:00", "phone": "+421 51 758 1346", "ref:minvskaddress": "540702755A", "source": "kapor2", "source:addr": "minvskaddress 2024-02"}}, {"type": "way", "id": 81328176, "nodes": [947341017, 947345216, 947336741, 947341212, 947343547, 947339334, 947340772, 947337383, 947340503, 947344139, 947342663, 947338218, 947336444, 947341017], "tags": {"addr:city": "Pre\u0161ov", "addr:conscriptionnumber": "12288", "addr:country": "SK", "addr:housenumber": "12288/2A", "addr:postcode": "08001", "addr:street": "\u0160af\u00e1rikova", "addr:streetnumber": "2A", "addr:suburb": "Pre\u0161ov", "amenity": "pharmacy", "building": "yes", "dispensing": "yes", "healthcare": "pharmacy", "name": "Unipharma", "ref:minvskaddress": "6701076470", "source": "kapor2", "source:addr": "minvskaddress 2024-02"}}, {"type": "way", "id": 82143095, "nodes": [956495140, 956494569, 11188944054, 956495777, 956496613, 956495140], "tags": {"addr:city": "Pre\u0161ov", "addr:conscriptionnumber": "8541", "addr:country": "SK", "addr:housenumber": "8541/6", "addr:postcode": "08001", "addr:street": "Raymanova", "addr:streetnumber": "6", "addr:suburb": "Pre\u0161ov", "amenity": "pharmacy", "building": "yes", "dispensing": "yes", "healthcare": "pharmacy", "name": "Simiza", "opening_hours": "Mo-Fr 07:00-15:30", "ref:minvskaddress": "6701020579", "source": "kapor2", "source:addr": "minvskaddress 2024-02"}}, {"type": "way", "id": 142583438, "nodes": [1560394678, 13120195389, 1560394390, 1560393979, 1560394487, 1560394678], "tags": {"addr:city": "Kapu\u0161any", "addr:conscriptionnumber": "677", "addr:country": "SK", "addr:housenumber": "677/5", "addr:postcode": "08212", "addr:street": "Na r\u00ednku", "addr:streetnumber": "5", "amenity": "pharmacy", "building": "yes", "healthcare": "pharmacy", "image": "https://backend.freemap.sk/gallery/pictures/682048/image", "name": "Lek\u00e1re\u0148 u Martina", "ref:minvskaddress": "7001098643", "source": "kapor2", "source:addr": "minvskaddress 2022-09"}}, {"type": "way", "id": 319001864, "nodes": [3254137697, 3254137656, 10564531174, 10878037707, 3254137830, 3254137874, 3254137697], "tags": {"addr:city": "Pre\u0161ov", "addr:conscriptionnumber": "13140", "addr:country": "SK", "addr:housenumber": "13140/1", "addr:postcode": "08005", "addr:street": "So\u013enobansk\u00e1", "addr:streetnumber": "1", "addr:suburb": "Solivar", "amenity": "pharmacy", "building": "yes", "dispensing": "yes", "healthcare": "pharmacy", "name": "Lek\u00e1re\u0148 IRIS Solivar", "opening_hours": "Mo-Fr 07:00-16:00", "phone": "+421 51 775 6482", "ref:minvskaddress": "7000705679", "source": "kapor2", "source:addr": "minvskaddress 2024-02", "website": "https://pluslekaren.sk/lekaren/iris-solivar/"}}, {"type": "way", "id": 1020810630, "nodes": [9415169090, 9415169087, 9415169088, 9415169089, 9415169090], "tags": {"amenity": "pharmacy", "branch": "Pri Pivovare", "brand": "PLUS LEK\u00c1RE\u0147", "brand:wikidata": "Q108369059", "building": "yes", "dispensing": "yes", "email": "lekarenpripivovare@gmail.com", "healthcare": "pharmacy", "name": "PLUS LEK\u00c1RE\u0147", "opening_hours": "Mo-Fr 08:30-17:00", "source": "\u00daGKK SR AKO", "website": "https://www.pluslekaren.sk/"}}, {"type": "way", "id": 1263570073, "nodes": [947340545, 10138181231, 947335956, 947342181, 11739682960, 11739682959, 947340545], "tags": {"addr:city": "Pre\u0161ov", "addr:conscriptionnumber": "5901", "addr:country": "SK", "addr:housenumber": "5901/3", "addr:postcode": "08001", "addr:street": "J\u00e1na Holl\u00e9ho", "addr:streetnumber": "3", "addr:suburb": "Pre\u0161ov", "amenity": "pharmacy", "building": "yes", "healthcare": "pharmacy", "name": "Farmakol", "ref:minvskaddress": "25580467", "source": "kapor2", "source:addr": "minvskaddress 2024-02", "website": "https://www.farmakol.eu/"}}]}