{"version": 0.6, "generator": "Overpass API 0.7.62.8 e802775f", "osm3s": {"timestamp_osm_base": "2025-10-06T07:48:26Z", "copyright": "The data included in this document is from www.openstreetmap.org. The data is made available under ODbL."}, "elements": [{"type": "node", "id": 3158230548, "lat": 41.1106926, "lon": 20.0790625, "tags": {"amenity": "pharmacy", "dispensing": "yes", "healthcare": "pharmacy", "name": "Ada", "opening_hours": "Mo-Su 08:00-20:00"}}, {"type": "node", "id": 3605755417, "lat": 41.1207871, "lon": 20.0818155, "tags": {"addr:city": "Elbasan", "addr:street": "Petrit Gace", "amenity": "pharmacy", "healthcare": "pharmacy", "name": "Farmaci Bled", "opening_hours": "Mo-Su 07:30-00:00", "phone": "003550694040455"}}, {"type": "node", "id": 3613059771, "lat": 41.1113608, "lon": 20.0805283, "tags": {"addr:city": "Elbasan", "amenity": "pharmacy", "healthcare": "pharmacy", "name": "Roma", "opening_hours": "Mo-Su 08:30-21:30", "phone": "0693637216", "toilets:wheelchair": "no", "wheelchair": "no"}}, {"type": "node", "id": 3615628102, "lat": 41.1213173, "lon": 20.083761, "tags": {"addr:city": "Elbasan", "amenity": "pharmacy", "healthcare": "pharmacy", "name": "German Farmacy", "opening_hours": "Mo-Su 08:00-21:30", "phone": "003550693556278"}}, {"type": "node", "id": 4551375176, "lat": 41.301351, "lon": 19.8318717}, {"type": "node", "id": 4551375177, "lat": 41.3013163, "lon": 19.8319127}, {"type": "node", "id": 4551375178, "lat": 41.3012656, "lon": 19.8318367}, {"type": "node", "id": 4551375179, "lat": 41.3013002, "lon": 19.8317957}, {"type": "node", "id": 4560382196, "lat": 41.2391491, "lon": 19.7996569, "tags": {"amenity": "pharmacy"}}, {"type": "node", "id": 4596881155, "lat": 41.3036566, "lon": 19.8449864}, {"type": "node", "id": 4596881158, "lat": 41.3036086, "lon": 19.8450241}, {"type": "node", "id": 4616413893, "lat": 41.2636667, "lon": 19.865952, "tags": {"amenity": "pharmacy", "healthcare": "pharmacy"}}, {"type": "node", "id": 5260402983, "lat": 41.1143291, "lon": 20.0847597, "tags": {"amenity": "pharmacy", "healthcare": "pharmacy", "name": "Farmaci Milano"}}, {"type": "node", "id": 5359738224, "lat": 41.1176656, "lon": 20.092837, "tags": {"addr:city": "Elbasan", "addr:street": "Rruga Kozma Naska", "amenity": "pharmacy", "healthcare": "pharmacy", "name": "Embi Pharma", "phone": "003550692540210"}}, {"type": "node", "id": 5359818321, "lat": 41.11687, "lon": 20.0835354, "tags": {"addr:city": "Elbasan", "addr:street": "28 Nentori", "amenity": "pharmacy", "healthcare": "pharmacy", "name": "Farmaci BIO Farma", "opening_hours": "Mo-Sa 08:00-21:00", "phone": "003550683436995", "toilets:wheelchair": "no", "wheelchair": "no"}}, {"type": "node", "id": 5416658627, "lat": 41.1116323, "lon": 20.0910892, "tags": {"amenity": "pharmacy", "healthcare": "pharmacy", "name": "Farmaci Viena"}}, {"type": "node", "id": 6806186571, "lat": 41.3005642, "lon": 19.8484567, "tags": {"addr:city": "Tirana", "addr:street": "Rruga e Elbasanit", "amenity": "pharmacy", "healthcare": "pharmacy"}}, {"type": "node", "id": 6806275976, "lat": 41.3048082, "lon": 19.8444877, "tags": {"addr:street": "Rruga e Elbasanit", "amenity": "pharmacy", "name": "Farmaci Snuku"}}, {"type": "node", "id": 6810405449, "lat": 41.3012593, "lon": 19.8649643, "tags": {"addr:street": "Rruga e Daxhit", "amenity": "pharmacy"}}, {"type": "node", "id": 6812317599, "lat": 41.2994641, "lon": 19.8465432}, {"type": "node", "id": 6812317600, "lat": 41.299513, "lon": 19.846611}, {"type": "node", "id": 6812317601, "lat": 41.2996045, "lon": 19.846494}, {"type": "node", "id": 6812317602, "lat": 41.2995556, "lon": 19.8464262}, {"type": "node", "id": 6820408345, "lat": 41.2997702, "lon": 19.8499158, "tags": {"addr:street": "Rruga e Elbasanit", "amenity": "pharmacy", "healthcare": "pharmacy"}}, {"type": "node", "id": 6821429906, "lat": 41.3002765, "lon": 19.8492446, "tags": {"addr:street": "Rruga e Elbasanit", "amenity": "pharmacy", "healthcare": "pharmacy", "name": "Farmaci Sauku"}}, {"type": "node", "id": 6822888742, "lat": 41.3127432, "lon": 19.8439698, "tags": {"addr:city": "Tirana", "addr:street": "Rruga Dr. Shefqet Ndroqi", "amenity": "pharmacy", "healthcare": "pharmacy"}}, {"type": "node", "id": 6822888751, "lat": 41.3122714, "lon": 19.8435415, "tags": {"addr:city": "Tirana", "addr:street": "Rruga Dr. Shefqet Ndroqi", "amenity": "pharmacy", "healthcare": "pharmacy", "name": "Farmaci Dori & Klara"}}, {"type": "node", "id": 6823352956, "lat": 41.3133811, "lon": 19.8448149}, {"type": "node", "id": 6823352957, "lat": 41.3133267, "lon": 19.84478}, {"type": "node", "id": 6823352958, "lat": 41.3133745, "lon": 19.8446479}, {"type": "node", "id": 6823352959, "lat": 41.3134289, "lon": 19.8446828}, {"type": "node", "id": 6848837938, "lat": 41.264592, "lon": 19.6535855, "tags": {"amenity": "pharmacy"}}, {"type": "node", "id": 6867485847, "lat": 41.3009208, "lon": 19.8314944, "tags": {"addr:street": "Rruga Selim Brahja", "amenity": "pharmacy", "name": "Erilda"}}, {"type": "node", "id": 7921018985, "lat": 41.0462048, "lon": 19.750456, "tags": {"addr:housenumber": "22", "addr:postcode": "0000", "addr:street": "Rruga Mahmud Kaziu", "amenity": "pharmacy", "email": "farmacialan@hotmail.com", "name": "Farmaci Alan", "opening_hours": "24/7", "operator": "Lytfije Hallulli", "phone": "+35551222270"}}, {"type": "node", "id": 9097198020, "lat": 41.1213578, "lon": 20.0847373, "tags": {"amenity": "pharmacy", "healthcare": "pharmacy"}}, {"type": "node", "id": 9153938284, "lat": 40.869723, "lon": 19.7832423, "tags": {"amenity": "pharmacy"}}, {"type": "node", "id": 9153938292, "lat": 41.1121673, "lon": 20.0858887, "tags": {"amenity": "pharmacy", "healthcare": "pharmacy"}}, {"type": "node", "id": 9153938293, "lat": 41.112038, "lon": 20.0859634, "tags": {"amenity": "pharmacy", "healthcare": "pharmacy"}}, {"type": "node", "id": 9153938308, "lat": 41.1157996, "lon": 20.084414, "tags": {"amenity": "pharmacy", "healthcare": "pharmacy"}}, {"type": "node", "id": 9153942952, "lat": 41.1120456, "lon": 20.0806043, "tags": {"amenity": "pharmacy", "healthcare": "pharmacy", "name": "Blend", "opening_hours": "Mo-Su 08:00-21:00"}}, {"type": "node", "id": 9153942962, "lat": 41.1151421, "lon": 20.0847104, "tags": {"amenity": "pharmacy", "healthcare": "pharmacy"}}, {"type": "node", "id": 9153942964, "lat": 41.1150912, "lon": 20.0833468, "tags": {"amenity": "pharmacy", "healthcare": "pharmacy", "name": "Berlin"}}, {"type": "node", "id": 9153949116, "lat": 41.1112885, "lon": 20.0825422, "tags": {"amenity": "pharmacy", "healthcare": "pharmacy", "name": "German Pharmacy"}}, {"type": "node", "id": 9153950554, "lat": 41.1127465, "lon": 20.0873992, "tags": {"amenity": "pharmacy", "healthcare": "pharmacy"}}, {"type": "node", "id": 9153950562, "lat": 41.1134706, "lon": 20.0791846, "tags": {"amenity": "pharmacy", "healthcare": "pharmacy"}}, {"type": "node", "id": 9153950570, "lat": 41.1157392, "lon": 20.0886204, "tags": {"amenity": "pharmacy", "healthcare": "pharmacy"}}, {"type": "node", "id": 9153950581, "lat": 41.115519, "lon": 20.0839076, "tags": {"amenity": "pharmacy", "healthcare": "pharmacy"}}, {"type": "node", "id": 9153950584, "lat": 41.1154559, "lon": 20.0837195, "tags": {"amenity": "pharmacy", "healthcare": "pharmacy"}}, {"type": "node", "id": 9153958628, "lat": 41.1146424, "lon": 20.086586, "tags": {"amenity": "pharmacy", "contact:facebook": "https://www.facebook.com/farmaci.dite.e.nate/", "dispensing": "yes", "drive_through": "no", "email": "info@ditenate.al", "healthcare": "pharmacy", "name": "Dite e Nate", "opening_hours": "Mo-Sa 09:00-19:00", "phone": "067 733 3777", "website": "https://www.ditenate.al/", "wheelchair": "yes"}}, {"type": "node", "id": 9161046925, "lat": 41.1143205, "lon": 20.0876314, "tags": {"amenity": "pharmacy", "healthcare": "pharmacy"}}, {"type": "node", "id": 9161047217, "lat": 41.1074511, "lon": 20.0822888, "tags": {"amenity": "pharmacy", "healthcare": "pharmacy"}}, {"type": "node", "id": 9161047218, "lat": 41.1061147, "lon": 20.0816931, "tags": {"amenity": "pharmacy", "healthcare": "pharmacy", "name": "Kristaq Plumbi"}}, {"type": "node", "id": 9161047219, "lat": 41.1052849, "lon": 20.0821733, "tags": {"amenity": "pharmacy", "healthcare": "pharmacy"}}, {"type": "node", "id": 9161308220, "lat": 41.1183376, "lon": 20.0808643, "tags": {"amenity": "pharmacy", "dispensing": "yes", "healthcare": "pharmacy"}}, {"type": "node", "id": 9161308417, "lat": 41.1156727, "lon": 20.078201, "tags": {"amenity": "pharmacy", "healthcare": "pharmacy", "name": "Gurabardhi"}}, {"type": "node", "id": 9164490197, "lat": 41.0376589, "lon": 20.0699288, "tags": {"amenity": "pharmacy"}}, {"type": "node", "id": 9822397917, "lat": 41.0263907, "lon": 19.9899792, "tags": {"amenity": "pharmacy"}}, {"type": "node", "id": 10049605763, "lat": 41.0097897, "lon": 20.0102545, "tags": {"amenity": "pharmacy", "name": "Ana2"}}, {"type": "node", "id": 10051854717, "lat": 41.3042747, "lon": 19.844597, "tags": {"addr:city": "Tirana", "addr:street": "Rruga e Elbasanit", "amenity": "pharmacy", "email": "farmacialan@hotmail.com", "healthcare": "pharmacy", "name": "Farmaci Alan3", "phone": "02168534"}}, {"type": "node", "id": 11965377522, "lat": 41.3026809, "lon": 19.846165, "tags": {"addr:city": "Tirana", "addr:street": "Rruga e Elbasanit", "amenity": "pharmacy", "healthcare": "pharmacy", "name": "Farmaci Veterinare Behari"}}, {"type": "node", "id": 12349579068, "lat": 41.3036368, "lon": 19.8450879}, {"type": "node", "id": 12349579069, "lat": 41.3036848, "lon": 19.8450502}, {"type": "node", "id": 12453469602, "lat": 41.110415, "lon": 20.0778431, "tags": {"addr:city": "Elbasan", "addr:street": "Rruga Qemal Stafa", "amenity": "pharmacy", "contact:facebook": "https://www.facebook.com/italpharmaalbania#", "dispensing": "yes", "drive_through": "no", "healthcare": "pharmacy", "name": "Italpharma", "opening_hours": "Mo-Su 08:00-20:00", "phone": "+355695125967"}}, {"type": "node", "id": 12468880519, "lat": 41.1103556, "lon": 20.0794603, "tags": {"amenity": "pharmacy", "healthcare": "pharmacy", "name": "Farmacia qendrore"}}, {"type": "node", "id": 12470982384, "lat": 41.1158804, "lon": 20.0840459, "tags": {"amenity": "pharmacy", "healthcare": "pharmacy", "name": "Alla"}}, {"type": "node", "id": 12610224081, "lat": 41.1119742, "lon": 20.0761953, "tags": {"addr:city": "Elbasan", "addr:street": "Rruga Kadri Hoxha", "amenity": "pharmacy", "dispensing": "yes", "healthcare": "pharmacy", "name": "Farmaci Gent", "opening_hours": "Mo-Sa 08:00-20:30", "phone": "+355696125060", "wheelchair": "yes"}}, {"type": "node", "id": 12634580630, "lat": 41.1120201, "lon": 20.0758456, "tags": {"addr:city": "Elbasan", "addr:street": "Rruga Kadri Hoxha", "amenity": "pharmacy", "healthcare": "pharmacy", "name": "Farmaci Flora"}}, {"type": "node", "id": 12677076080, "lat": 41.1082808, "lon": 20.0768357, "tags": {"amenity": "pharmacy", "healthcare": "pharmacy"}}, {"type": "node", "id": 12699371981, "lat": 41.1121259, "lon": 20.0780094, "tags": {"amenity": "pharmacy", "healthcare": "pharmacy"}}, {"type": "node", "id": 12985375040, "lat": 41.0991757, "lon": 20.0391059, "tags": {"amenity": "pharmacy", "healthcare": "pharmacy"}}, {"type": "way", "id": 459234794, "nodes": [4551375176, 4551375177, 4551375178, 4551375179, 4551375176], "tags": {"addr:housenumber": "87", "addr:street": "Rruga Selim Brahja", "amenity": "pharmacy", "building": "yes", "email": "alansauk@hotmail.com", "name": "Farmacia Alan", "opening_hours": "Mo-Su 07:30-21:00", "operator": "Andi Hallulli", "phone": "+355698810838", "source": "bing;mapbox;digitalglobe-satellite", "source_ref:url": "https://www.flickr.com/photos/openstreetmap-albania/"}}, {"type": "way", "id": 464594712, "nodes": [4596881155, 12349579069, 12349579068, 4596881158, 4596881155], "tags": {"addr:city": "Tirana", "addr:street": "Rruga e Elbasanit", "amenity": "pharmacy", "building": "yes", "healthcare": "pharmacy", "source": "bing;mapbox;digitalglobe-satellite", "source_ref:url": "https://www.flickr.com/photos/openstreetmap-albania/"}}, {"type": "way", "id": 726871752, "nodes": [6812317602, 6812317601, 6812317600, 6812317599, 6812317602], "tags": {"addr:street": "Hamid Dalipi", "amenity": "pharmacy", "building": "retail", "healthcare": "pharmacy", "name": "Farmaci"}}, {"type": "way", "id": 728138845, "nodes": [6823352959, 6823352956, 6823352957, 6823352958, 6823352959], "tags": {"addr:city": "Tirana", "addr:street": "Rruga Dr. Shefqet Ndroqi", "amenity": "pharmacy", "building": "yes", "healthcare": "pharmacy", "name": "Farma Vitta"}}]}