{"version": 0.6, "generator": "Overpass API 0.7.62.8 e802775f", "osm3s": {"timestamp_osm_base": "2025-10-06T08:46:29Z", "copyright": "The data included in this document is from www.openstreetmap.org. The data is made available under ODbL."}, "elements": [{"type": "node", "id": 1526037458, "lat": 49.8661347, "lon": 24.0144374, "tags": {"amenity": "pharmacy", "brand": "\u041f\u0443\u043b\u044c\u0441", "brand:wikidata": "Q121898637", "healthcare": "pharmacy", "name": "\u041f\u0443\u043b\u044c\u0441", "name:uk": "\u041f\u0443\u043b\u044c\u0441", "opening_hours": "24/7"}}, {"type": "node", "id": 1641727402, "lat": 49.8727802, "lon": 24.0393518}, {"type": "node", "id": 1641727411, "lat": 49.8728793, "lon": 24.0393195}, {"type": "node", "id": 1945772427, "lat": 49.8426497, "lon": 24.0187803, "tags": {"amenity": "pharmacy", "healthcare": "pharmacy", "name": "\u0421\u0430\u043b\u044c\u0432\u0435", "name:en": "Salve", "name:uk": "\u0421\u0430\u043b\u044c\u0432\u0435", "opening_hours": "24/7", "phone": "+380 67 672 9477", "website": "http://www.salve.com.ua"}}, {"type": "node", "id": 1945772428, "lat": 49.8428805, "lon": 24.0183856, "tags": {"amenity": "pharmacy", "healthcare": "pharmacy"}}, {"type": "node", "id": 2053925732, "lat": 49.8767114, "lon": 23.9352071, "tags": {"amenity": "pharmacy", "brand": "3\u0456", "brand:wikidata": "Q117705687", "healthcare": "pharmacy", "name": "3\u0456", "name:uk": "3\u0456", "operator": "\u0422\u0437\u041e\u0412 \u00ab3\u0406\u00bb"}}, {"type": "node", "id": 2053935307, "lat": 49.8711903, "lon": 23.9541381, "tags": {"amenity": "pharmacy"}}, {"type": "node", "id": 2061558513, "lat": 49.8475065, "lon": 24.0022819, "tags": {"addr:housenumber": "96", "addr:street": "\u0432\u0443\u043b\u0438\u0446\u044f \u0422\u0430\u0440\u0430\u0441\u0430 \u0428\u0435\u0432\u0447\u0435\u043d\u043a\u0430", "amenity": "pharmacy", "brand": "3\u0456", "brand:wikidata": "Q117705687", "email": "office@3i.ua", "healthcare": "pharmacy", "name": "3\u0456", "name:uk": "3\u0456", "opening_hours": "Mo-Su 08:00-19:30", "operator": "\u041b\u0456\u043b\u0435\u044f", "phone:UA": "0 800 509 595", "website": "https://3i.ua/", "wheelchair": "yes"}}, {"type": "node", "id": 2061644569, "lat": 49.8697657, "lon": 23.9522096, "tags": {"addr:housenumber": "364", "addr:street": "\u0432\u0443\u043b\u0438\u0446\u044f \u0422\u0430\u0440\u0430\u0441\u0430 \u0428\u0435\u0432\u0447\u0435\u043d\u043a\u0430", "amenity": "pharmacy", "name": "\u041f\u043e\u0434\u043e\u0440\u043e\u0436\u043d\u0438\u043a", "opening_hours": "Mo-Su 00:00-23:59"}}, {"type": "node", "id": 2248283428, "lat": 49.7846176, "lon": 23.6445991}, {"type": "node", "id": 2248283430, "lat": 49.7846627, "lon": 23.6447176}, {"type": "node", "id": 2248283432, "lat": 49.7846987, "lon": 23.644525}, {"type": "node", "id": 2248283434, "lat": 49.7847439, "lon": 23.6446434}, {"type": "node", "id": 2248603988, "lat": 49.7845637, "lon": 23.6444509, "tags": {"addr:housenumber": "3\u0430", "addr:postcode": "81500", "addr:street": "\u041f\u0435\u0440\u0435\u043c\u0438\u0448\u043b\u044c\u0441\u044c\u043a\u0430 \u0432\u0443\u043b\u0438\u0446\u044f", "addr:unit": "3\u0430", "amenity": "pharmacy", "dispensing": "yes", "healthcare": "pharmacy", "name": "\u0424\u0456\u0442\u043e\u0430\u043f\u0442\u0435\u043a\u0430", "name:uk": "\u0424\u0456\u0442\u043e\u0430\u043f\u0442\u0435\u043a\u0430", "note": "\u041d\u0435 \u0446\u0435\u043f\u043b\u044f\u0439\u0442\u0435 \u0442\u043e\u0447\u043a\u0438 \u0441 \u0442\u0435\u0433\u0430\u043c\u0438 \u043e\u0431\u044a\u0435\u043a\u0442\u043e\u0432 \u0438\u043d\u0444\u0440\u0430\u0441\u0442\u0440\u0443\u043a\u0442\u0443\u0440\u044b \u043d\u0430 \u043b\u0438\u043d\u0438\u0438 \u0437\u0434\u0430\u043d\u0438\u0439 - \u044d\u0442\u043e \u0432\u044b\u0437\u044b\u0432\u0430\u0435\u0442 \u043e\u0448\u0438\u0431\u043a\u0443. \u0415\u0441\u043b\u0438 \u043e\u0447\u0435\u043d\u044c \u0445\u043e\u0447\u0435\u0442\u0441\u044f \u0442\u043e\u0447\u043d\u043e \u0443\u043a\u0430\u0437\u0430\u0442\u044c \u043c\u0435\u0441\u0442\u043e \u0440\u0430\u0441\u043f\u043e\u043b\u043e\u0436\u0435\u043d\u0438\u044f \u0432\u0445\u043e\u0434\u0430, \u0438\u0441\u043f\u043e\u043b\u044c\u0437\u0443\u0439\u0442\u0435 \u0434\u043b\u044f \u044d\u0442\u043e\u0433\u043e \u043e\u0442\u0434\u0435\u043b\u044c\u043d\u0443\u044e \u0442\u043e\u0447\u043a\u0443 \u0412\u0445\u043e\u0434/\u0412\u044b\u0445\u043e\u0434."}}, {"type": "node", "id": 2249875676, "lat": 49.7847963, "lon": 23.64428, "tags": {"amenity": "pharmacy", "healthcare": "pharmacy", "name": "\u0411\u043b\u0438\u0437\u044c\u043a\u0430 \u0441\u0435\u0440\u0446\u044e", "name:uk": "\u0411\u043b\u0438\u0437\u044c\u043a\u0430 \u0441\u0435\u0440\u0446\u044e", "note": "\u041d\u0435 \u0446\u0435\u043f\u043b\u044f\u0439\u0442\u0435 \u0442\u043e\u0447\u043a\u0438 \u0441 \u0442\u0435\u0433\u0430\u043c\u0438 \u043e\u0431\u044a\u0435\u043a\u0442\u043e\u0432 \u0438\u043d\u0444\u0440\u0430\u0441\u0442\u0440\u0443\u043a\u0442\u0443\u0440\u044b \u043d\u0430 \u043b\u0438\u043d\u0438\u0438 \u0437\u0434\u0430\u043d\u0438\u0439 - \u044d\u0442\u043e \u0432\u044b\u0437\u044b\u0432\u0430\u0435\u0442 \u043e\u0448\u0438\u0431\u043a\u0443. \u0415\u0441\u043b\u0438 \u043e\u0447\u0435\u043d\u044c \u0445\u043e\u0447\u0435\u0442\u0441\u044f \u0442\u043e\u0447\u043d\u043e \u0443\u043a\u0430\u0437\u0430\u0442\u044c \u043c\u0435\u0441\u0442\u043e \u0440\u0430\u0441\u043f\u043e\u043b\u043e\u0436\u0435\u043d\u0438\u044f \u0432\u0445\u043e\u0434\u0430, \u0438\u0441\u043f\u043e\u043b\u044c\u0437\u0443\u0439\u0442\u0435 \u0434\u043b\u044f \u044d\u0442\u043e\u0433\u043e \u043e\u0442\u0434\u0435\u043b\u044c\u043d\u0443\u044e \u0442\u043e\u0447\u043a\u0443 \u0412\u0445\u043e\u0434/\u0412\u044b\u0445\u043e\u0434."}}, {"type": "node", "id": 2251145929, "lat": 49.7839593, "lon": 23.6429029, "tags": {"amenity": "pharmacy", "healthcare": "pharmacy"}}, {"type": "node", "id": 2254662262, "lat": 49.7851104, "lon": 23.6454506, "tags": {"amenity": "pharmacy", "healthcare": "pharmacy", "name": "\u0410\u043f\u0442\u0435\u043a\u0430 \u211657", "name:ru": "\u0410\u043f\u0442\u0435\u043a\u0430 \u211657", "name:uk": "\u0410\u043f\u0442\u0435\u043a\u0430 \u211657"}}, {"type": "node", "id": 2255448310, "lat": 49.7851585, "lon": 23.647717, "tags": {"amenity": "pharmacy", "healthcare": "pharmacy", "note": "\u041d\u0435 \u0446\u0435\u043f\u043b\u044f\u0439\u0442\u0435 \u0442\u043e\u0447\u043a\u0438 \u0441 \u0442\u0435\u0433\u0430\u043c\u0438 \u043e\u0431\u044a\u0435\u043a\u0442\u043e\u0432 \u0438\u043d\u0444\u0440\u0430\u0441\u0442\u0440\u0443\u043a\u0442\u0443\u0440\u044b \u043d\u0430 \u043b\u0438\u043d\u0438\u0438 \u0437\u0434\u0430\u043d\u0438\u0439 - \u044d\u0442\u043e \u0432\u044b\u0437\u044b\u0432\u0430\u0435\u0442 \u043e\u0448\u0438\u0431\u043a\u0443. \u0415\u0441\u043b\u0438 \u043e\u0447\u0435\u043d\u044c \u0445\u043e\u0447\u0435\u0442\u0441\u044f \u0442\u043e\u0447\u043d\u043e \u0443\u043a\u0430\u0437\u0430\u0442\u044c \u043c\u0435\u0441\u0442\u043e \u0440\u0430\u0441\u043f\u043e\u043b\u043e\u0436\u0435\u043d\u0438\u044f \u0432\u0445\u043e\u0434\u0430, \u0438\u0441\u043f\u043e\u043b\u044c\u0437\u0443\u0439\u0442\u0435 \u0434\u043b\u044f \u044d\u0442\u043e\u0433\u043e \u043e\u0442\u0434\u0435\u043b\u044c\u043d\u0443\u044e \u0442\u043e\u0447\u043a\u0443 \u0412\u0445\u043e\u0434/\u0412\u044b\u0445\u043e\u0434."}}, {"type": "node", "id": 2255871532, "lat": 49.7847358, "lon": 23.6476108, "tags": {"amenity": "pharmacy", "healthcare": "pharmacy"}}, {"type": "node", "id": 2255903868, "lat": 49.7843145, "lon": 23.6439072, "tags": {"amenity": "pharmacy", "healthcare": "pharmacy"}}, {"type": "node", "id": 2324191907, "lat": 49.8726719, "lon": 24.0392161}, {"type": "node", "id": 2324191909, "lat": 49.8727159, "lon": 24.0395477}, {"type": "node", "id": 2324191910, "lat": 49.8728029, "lon": 24.0395198}, {"type": "node", "id": 2324191912, "lat": 49.8728569, "lon": 24.039157}, {"type": "node", "id": 2349440982, "lat": 49.8293962, "lon": 23.9603064, "tags": {"addr:housenumber": "212", "addr:street": "\u0413\u043e\u0440\u043e\u0434\u043e\u0446\u044c\u043a\u0430 \u0432\u0443\u043b\u0438\u0446\u044f", "amenity": "pharmacy", "brand": "3\u0456", "brand:wikidata": "Q117705687", "healthcare": "pharmacy", "name": "3\u0456", "name:uk": "3\u0456", "opening_hours": "24/7", "payment:cash": "yes", "payment:contactless": "yes", "payment:mastercard": "yes", "payment:visa": "yes", "wheelchair": "yes"}}, {"type": "node", "id": 2407668833, "lat": 49.8359387, "lon": 23.8435957}, {"type": "node", "id": 2427563851, "lat": 49.8363234, "lon": 23.8779594}, {"type": "node", "id": 2427563852, "lat": 49.8363244, "lon": 23.8778648}, {"type": "node", "id": 2427563866, "lat": 49.8363914, "lon": 23.878001}, {"type": "node", "id": 2427563867, "lat": 49.8363918, "lon": 23.8779611}, {"type": "node", "id": 2427563902, "lat": 49.8364941, "lon": 23.8780035}, {"type": "node", "id": 2427563904, "lat": 49.8364955, "lon": 23.877869}, {"type": "node", "id": 2427615119, "lat": 49.8348918, "lon": 23.8784552}, {"type": "node", "id": 2505542707, "lat": 49.8726024, "lon": 24.0504734, "tags": {"amenity": "pharmacy", "healthcare": "pharmacy"}}, {"type": "node", "id": 3025777703, "lat": 49.8541054, "lon": 24.0225898, "tags": {"amenity": "pharmacy", "check_date": "2025-09-04", "check_date:opening_hours": "2022-05-14", "dispensing": "no", "healthcare": "pharmacy", "name": "\u0421\u043e\u0446\u0456\u0430\u043b\u044c\u043d\u0430 \u0430\u043f\u0442\u0435\u043a\u0430", "name:ru": "\u0421\u043e\u0446\u0438\u0430\u043b\u044c\u043d\u0430\u044f \u0410\u043f\u0442\u0435\u043a\u0430", "name:uk": "\u0421\u043e\u0446\u0456\u0430\u043b\u044c\u043d\u0430 \u0430\u043f\u0442\u0435\u043a\u0430", "opening_hours": "Mo-Fr 08:00-21:00; Sa-Su 09:00-21:00", "survey:date": "2022-05-17", "wheelchair": "yes"}}, {"type": "node", "id": 3168209872, "lat": 49.8422307, "lon": 23.9693633, "tags": {"addr:city": "\u041b\u044c\u0432\u0456\u0432", "addr:postcode": "79000", "addr:street": "\u0432\u0443\u043b\u0438\u0446\u044f \u0428\u0438\u0440\u043e\u043a\u0430, 64", "amenity": "pharmacy", "contact:phone": "+380800303111", "description": "\u0410\u043f\u0442\u0435\u043a\u0430 \"\u0411\u0430\u043c\" \u2013 \u0446\u0435 \u043c\u0435\u0440\u0435\u0436\u0430 \u0430\u043f\u0442\u0435\u043a \u0437 \u0434\u043e\u0441\u0442\u0443\u043f\u043d\u0438\u043c\u0438 \u043b\u0456\u043a\u0430\u043c\u0438 \u043f\u043e \u0432\u0441\u0456\u0439 \u0423\u043a\u0440\u0430\u0457\u043d\u0456. \u0410\u0441\u043e\u0440\u0442\u0438\u043c\u0435\u043d\u0442 \u043d\u0430\u043b\u0456\u0447\u0443\u0454 \u0431\u043b\u0438\u0437\u044c\u043a\u043e 20 000 \u0442\u043e\u0432\u0430\u0440\u0456\u0432. \u0423 \u0430\u043f\u0442\u0435\u0446\u0456 \u0432\u0438 \u043c\u043e\u0436\u0435\u0442\u0435 \u043f\u0440\u0438\u0434\u0431\u0430\u0442\u0438 \u043f\u043e\u0442\u0440\u0456\u0431\u043d\u0456 \u043b\u0456\u043a\u0438, \u043a\u043e\u0441\u043c\u0435\u0442\u0438\u043a\u0443 \u0442\u0430 \u0456\u043d\u0448\u0456 \u043c\u0435\u0434\u0437\u0430\u0441\u043e\u0431\u0438.", "name": "\u0410\u043f\u0442\u0435\u043a\u0430 \u0411\u0410\u041c", "name:uk": "\u0410\u043f\u0442\u0435\u043a\u0430 \u0411\u0410\u041c", "opening_hours": "Mo-Fr 10:00-18:00; Sa 10:00-15:00", "website": "https://asbam.com.ua"}}, {"type": "node", "id": 3207427986, "lat": 49.9797633, "lon": 24.0779884}, {"type": "node", "id": 3214299467, "lat": 49.8424329, "lon": 23.9706146, "tags": {"amenity": "pharmacy", "healthcare": "pharmacy", "name": "\u0410\u043f\u0442\u0435\u043a\u0430 \u041d\u0438\u0437\u044c\u043a\u0438\u0445 \u0426\u0456\u043d", "name:uk": "\u0410\u043f\u0442\u0435\u043a\u0430 \u041d\u0438\u0437\u044c\u043a\u0438\u0445 \u0426\u0456\u043d"}}, {"type": "node", "id": 3214299476, "lat": 49.8414374, "lon": 23.9694358, "tags": {"amenity": "pharmacy", "healthcare": "pharmacy", "name": "\u0410\u043f\u0442\u0435\u043a\u0430 \u0411\u043b\u0430\u0433\u043e\u0434\u0430\u0442\u044c", "name:uk": "\u0410\u043f\u0442\u0435\u043a\u0430 \u0411\u043b\u0430\u0433\u043e\u0434\u0430\u0442\u044c"}}, {"type": "node", "id": 3227261424, "lat": 49.8422383, "lon": 23.9693635, "tags": {"addr:city": "\u041b\u044c\u0432\u0456\u0432", "addr:postcode": "79052", "addr:street": "\u041b\u044c\u0432\u0456\u0432, \u0432\u0443\u043b\u0438\u0446\u044f \u0428\u0438\u0440\u043e\u043a\u0430, 64", "amenity": "pharmacy", "contact:phone": "+380800303111", "description": "\u041f\u043e\u0434\u043e\u0440\u043e\u0436\u043d\u0438\u043a \u2013 \u043d\u0430\u0439\u0431\u0456\u043b\u044c\u0448\u0430 \u043c\u0435\u0440\u0435\u0436\u0430 \u0430\u043f\u0442\u0435\u043a \u0423\u043a\u0440\u0430\u0457\u043d\u0438. \u0410\u0441\u043e\u0440\u0442\u0438\u043c\u0435\u043d\u0442 \u043d\u0430\u043b\u0456\u0447\u0443\u0454 \u043f\u043e\u043d\u0430\u0434 20 000 \u0442\u043e\u0432\u0430\u0440\u0456\u0432. \u0423 \u0430\u043f\u0442\u0435\u0446\u0456 \u0432\u0438 \u043c\u043e\u0436\u0435\u0442\u0435 \u043f\u0440\u0438\u0434\u0431\u0430\u0442\u0438 \u043f\u043e\u0442\u0440\u0456\u0431\u043d\u0456 \u043b\u0456\u043a\u0438, \u043a\u043e\u0441\u043c\u0435\u0442\u0438\u043a\u0443 \u0442\u0430 \u0456\u043d\u0448\u0456 \u043c\u0435\u0434\u0437\u0430\u0441\u043e\u0431\u0438.", "name": "\u0410\u043f\u0442\u0435\u043a\u0430 \u041f\u043e\u0434\u043e\u0440\u043e\u0436\u043d\u0438\u043a", "name:uk": "\u0410\u043f\u0442\u0435\u043a\u0430 \u041f\u043e\u0434\u043e\u0440\u043e\u0436\u043d\u0438\u043a", "opening_hours": "Mo-Fr 10:00-18:00; Sa 10:00-15:00", "website": "https://podorozhnyk.com"}}, {"type": "node", "id": 3234371421, "lat": 49.8383385, "lon": 24.0069475, "tags": {"amenity": "pharmacy", "healthcare": "pharmacy", "name": "\u0417\u043d\u0430\u0445\u0430\u0440", "name:uk": "\u0417\u043d\u0430\u0445\u0430\u0440", "owner": "\u0422\u041e\u0412 \u201e\u0412\u0456\u0437\u0430\u0440\u0434-\u041b\u201c", "phone": "+380 322 97 5589;+380 322 64 5337", "website": "http://apteka-znahar.com.ua/"}}, {"type": "node", "id": 3435590885, "lat": 49.8348902, "lon": 23.8785205}, {"type": "node", "id": 3463297201, "lat": 49.8349587, "lon": 23.8784589}, {"type": "node", "id": 3463297202, "lat": 49.8349572, "lon": 23.8785242}, {"type": "node", "id": 3529262865, "lat": 49.8416257, "lon": 23.9630221, "tags": {"amenity": "pharmacy", "healthcare": "pharmacy", "name": "DS", "name:uk": "DS", "opening_hours": "Mo-Sa 09:30-21:30; Su 09:30-20:00"}}, {"type": "node", "id": 3536788882, "lat": 49.8409582, "lon": 24.006286, "tags": {"amenity": "pharmacy", "healthcare": "pharmacy", "opening_hours": "Mo-Fr 09:00-19:00; Sa 10:00-16:00"}}, {"type": "node", "id": 3545438162, "lat": 49.8231818, "lon": 23.9166604, "tags": {"amenity": "pharmacy", "brand": "D.S.", "brand:wikidata": "Q117706829", "healthcare": "pharmacy", "name": "D.S.", "name:uk": "DS", "opening_hours": "Mo-Fr 09:30-20:30; Sa 09:00-20:00; Su 09:00-21:00"}}, {"type": "node", "id": 3552410077, "lat": 49.8428153, "lon": 24.0262734, "tags": {"amenity": "pharmacy", "brand": "D.S.", "brand:wikidata": "Q117706829", "check_date:opening_hours": "2021-03-15", "healthcare": "pharmacy", "name": "D.S.", "opening_hours": "Mo-Fr 08:00-22:00; Sa 09:00-21:00; Su 10:00-20:00"}}, {"type": "node", "id": 3563768509, "lat": 49.8448201, "lon": 24.0236074, "tags": {"amenity": "pharmacy", "check_date": "2025-06-27", "healthcare": "pharmacy"}}, {"type": "node", "id": 3623782973, "lat": 49.8453315, "lon": 24.0205364, "tags": {"amenity": "pharmacy", "brand": "D.S.", "brand:wikidata": "Q117706829", "healthcare": "pharmacy", "name": "D.S.", "name:uk": "D.S.", "opening_hours": "08:00-20:30", "operator": "D.S.", "wheelchair": "limited"}}, {"type": "node", "id": 3623800836, "lat": 49.8413571, "lon": 24.019052, "tags": {"amenity": "pharmacy", "brand": "D.S.", "healthcare": "pharmacy", "name": "D.S.", "name:uk": "D.S.", "opening_hours": "08:00-21:00", "operator": "D.S."}}, {"type": "node", "id": 3623891867, "lat": 49.8598219, "lon": 24.0167677, "tags": {"amenity": "pharmacy", "brand": "D.S.", "brand:wikidata": "Q117706829", "healthcare": "pharmacy", "name": "D.S.", "name:uk": "D.S.", "opening_hours": "08:00-21:00", "phone": "+380 322 24 7152", "website": "http://www.ds.lviv.ua/"}}, {"type": "node", "id": 3623892577, "lat": 49.8712747, "lon": 24.0531084, "tags": {"amenity": "pharmacy", "brand": "D.S.", "brand:wikidata": "Q117706829", "healthcare": "pharmacy", "name": "D.S.", "name:uk": "D.S.", "opening_hours": "08:00-21:00", "phone": "+380 322 93 5440", "website": "http://www.ds.lviv.ua/"}}, {"type": "node", "id": 3623894736, "lat": 49.8713152, "lon": 24.0345022, "tags": {"amenity": "pharmacy", "brand": "D.S.", "brand:wikidata": "Q117706829", "healthcare": "pharmacy", "name": "D.S.", "name:uk": "D.S.", "opening_hours": "08:00-21:00", "phone": "+380 322 94 0915", "website": "http://www.ds.lviv.ua/"}}, {"type": "node", "id": 3623903285, "lat": 49.8453553, "lon": 24.0290726, "tags": {"addr:housenumber": "1", "addr:postcode": "79000", "addr:street": "\u0432\u0443\u043b\u0438\u0446\u044f \u0411\u043e\u0433\u0434\u0430\u043d\u0430 \u0425\u043c\u0435\u043b\u044c\u043d\u0438\u0446\u044c\u043a\u043e\u0433\u043e", "amenity": "pharmacy", "healthcare": "pharmacy", "name": "\u0417\u043d\u0430\u0445\u0430\u0440", "name:en": "Znahar", "name:uk": "\u0417\u043d\u0430\u0445\u0430\u0440", "opening_hours": "08:00-21:00", "phone": "+380 322 97 5589;+380 322 64 5337", "ref": "1", "website": "http://apteka-znahar.com.ua/"}}, {"type": "node", "id": 3698366245, "lat": 49.8379712, "lon": 24.0059475, "tags": {"amenity": "pharmacy", "healthcare": "pharmacy", "name": "\u0410\u043f\u0442\u0435\u043a\u0430 6", "name:uk": "\u0410\u043f\u0442\u0435\u043a\u0430 6", "operator": "\u0422\u041e\u0412 \"\u0406.\u041a.\u0412\u0415\u041b\""}}, {"type": "node", "id": 3700959958, "lat": 49.8358768, "lon": 23.8436162}, {"type": "node", "id": 3700959959, "lat": 49.8358645, "lon": 23.843527}, {"type": "node", "id": 3700959960, "lat": 49.8359265, "lon": 23.8435065}, {"type": "node", "id": 3751391353, "lat": 49.8583273, "lon": 24.0183854, "tags": {"amenity": "pharmacy", "check_date": "2025-09-04", "healthcare": "pharmacy", "level": "0", "name": "\u0410\u043f\u0442\u0435\u043a\u0430 \u041f\u0443\u043b\u044c\u0441", "name:uk": "\u0410\u043f\u0442\u0435\u043a\u0430 \u041f\u0443\u043b\u044c\u0441", "opening_hours": "24/7", "payment:mastercard": "yes", "payment:visa": "yes", "wheelchair": "yes"}}, {"type": "node", "id": 3782330045, "lat": 49.8463412, "lon": 24.0242952, "tags": {"amenity": "pharmacy", "brand": "Watsons", "brand:wikidata": "Q7974785", "brand:wikipedia": "en:Watsons", "healthcare": "pharmacy", "name": "Watsons", "name:uk": "Watsons", "opening_hours": "Mo-Fr 09:00-20:30; Sa 09:00-20:00; Su 10:00-19:00"}}, {"type": "node", "id": 3782330046, "lat": 49.8425458, "lon": 24.0260151, "tags": {"amenity": "pharmacy", "healthcare": "pharmacy", "opening_hours": "24/7"}}, {"type": "node", "id": 3782330049, "lat": 49.851225, "lon": 24.0270699, "tags": {"amenity": "pharmacy", "brand": "\u0417\u0434\u043e\u0440\u043e\u0432\u0430 \u0420\u043e\u0434\u0438\u043d\u0430", "brand:wikidata": "Q117706848", "healthcare": "pharmacy", "name": "\u0417\u0434\u043e\u0440\u043e\u0432\u0430 \u0420\u043e\u0434\u0438\u043d\u0430", "name:ru": "\u0417\u0434\u043e\u0440\u043e\u0432\u0430\u044f \u0441\u0435\u043c\u044c\u044f", "name:uk": "\u0417\u0434\u043e\u0440\u043e\u0432\u0430 \u0420\u043e\u0434\u0438\u043d\u0430", "opening_hours": "Mo-Su 08:00-21:00"}}, {"type": "node", "id": 3782330050, "lat": 49.8541932, "lon": 24.0233172, "tags": {"amenity": "pharmacy", "check_date": "2024-09-21", "healthcare": "pharmacy", "name": "\u0417\u043d\u0430\u0445\u0430\u0440", "name:uk": "\u0417\u043d\u0430\u0445\u0430\u0440", "opening_hours": "Mo-Fr 08:00-21:00; Sa 08:00-19:00; Su 09:00-18:00", "payment:mastercard": "yes", "payment:visa": "yes", "phone": "+380 322 97 5589;+380 322 64 5337", "ref": "8", "website": "http://apteka-znahar.com.ua/", "wheelchair": "yes"}}, {"type": "node", "id": 3868149444, "lat": 49.8382545, "lon": 24.0067433, "tags": {"addr:city": "\u041b\u044c\u0432\u0456\u0432", "addr:street": "\u0432\u0443\u043b\u0438\u0446\u044f \u0413\u043e\u0440\u043e\u0434\u043e\u0446\u044c\u043a\u0430, 82", "amenity": "pharmacy", "brand": "\u0411\u0410\u041c", "brand:wikidata": "Q118244235", "contact:phone": "+380800303111", "description": "\u0410\u043f\u0442\u0435\u043a\u0430 \"\u0411\u0430\u043c\" \u2013 \u0446\u0435 \u043c\u0435\u0440\u0435\u0436\u0430 \u0430\u043f\u0442\u0435\u043a \u0437 \u0434\u043e\u0441\u0442\u0443\u043f\u043d\u0438\u043c\u0438 \u043b\u0456\u043a\u0430\u043c\u0438 \u043f\u043e \u0432\u0441\u0456\u0439 \u0423\u043a\u0440\u0430\u0457\u043d\u0456. \u0410\u0441\u043e\u0440\u0442\u0438\u043c\u0435\u043d\u0442 \u043d\u0430\u043b\u0456\u0447\u0443\u0454 \u0431\u043b\u0438\u0437\u044c\u043a\u043e 20 000 \u0442\u043e\u0432\u0430\u0440\u0456\u0432. \u0423 \u0430\u043f\u0442\u0435\u0446\u0456 \u0432\u0438 \u043c\u043e\u0436\u0435\u0442\u0435 \u043f\u0440\u0438\u0434\u0431\u0430\u0442\u0438 \u043f\u043e\u0442\u0440\u0456\u0431\u043d\u0456 \u043b\u0456\u043a\u0438, \u043a\u043e\u0441\u043c\u0435\u0442\u0438\u043a\u0443 \u0442\u0430 \u0456\u043d\u0448\u0456 \u043c\u0435\u0434\u0437\u0430\u0441\u043e\u0431\u0438.", "healthcare": "pharmacy", "name": "\u0411\u0410\u041c", "name:uk": "\u0410\u043f\u0442\u0435\u043a\u0430 \u0411\u0410\u041c", "opening_hours": "Mo-Fr 10:00-18:00; Sa 10:00-15:00", "website": "https://asbam.com.ua"}}, {"type": "node", "id": 3868154472, "lat": 49.8409245, "lon": 24.0142699, "tags": {"amenity": "pharmacy", "healthcare": "pharmacy", "opening_hours": "Mo-Fr 08:00-20:00; Sa 09:00-18:00; Su 10:00-17:00"}}, {"type": "node", "id": 3868154482, "lat": 49.8426916, "lon": 24.0191174, "tags": {"amenity": "pharmacy", "brand": "\u041a\u043e\u043f\u0456\u0439\u043a\u0430", "brand:wikidata": "Q118245952", "healthcare": "pharmacy", "name": "\u041a\u043e\u043f\u0456\u0439\u043a\u0430", "name:uk": "\u041a\u043e\u043f\u0456\u0439\u043a\u0430", "opening_hours": "Mo-Su,PH 08:00-21:00", "operator": "\u0410\u043f\u0442\u0435\u043a\u0430 \u043d\u0438\u0437\u044c\u043a\u0438\u0445 \u0446\u0456\u043d", "owner": "\u0422\u041e\u0412 \u201e\u0410\u043f\u0442\u0435\u043a\u0430 \u043d\u0438\u0437\u044c\u043a\u0438\u0445 \u0446\u0456\u043d \u041b\u044c\u0432\u0456\u0432\u201c", "phone": "+380 322 55 3455", "ref": "12"}}, {"type": "node", "id": 3873664006, "lat": 49.8539009, "lon": 24.0421646, "tags": {"amenity": "pharmacy", "healthcare": "pharmacy", "name": "\u0417\u0435\u043b\u0435\u043d\u0430 \u0410\u043f\u0442\u0435\u043a\u0430", "name:uk": "\u0417\u0435\u043b\u0435\u043d\u0430 \u0410\u043f\u0442\u0435\u043a\u0430"}}, {"type": "node", "id": 3964797843, "lat": 50.0553775, "lon": 23.9807796, "tags": {"amenity": "pharmacy", "healthcare": "pharmacy"}}, {"type": "node", "id": 3964811296, "lat": 50.0553425, "lon": 23.9801766, "tags": {"amenity": "pharmacy", "healthcare": "pharmacy"}}, {"type": "node", "id": 3965699260, "lat": 50.0585357, "lon": 23.9740143, "tags": {"amenity": "pharmacy", "healthcare": "pharmacy"}}, {"type": "node", "id": 3967690978, "lat": 49.8495984, "lon": 24.0208423, "tags": {"amenity": "pharmacy", "brand": "\u0410\u043f\u0442\u0435\u043a\u0430 \u0414\u043e\u0431\u0440\u043e\u0433\u043e \u0414\u043d\u044f", "brand:en": "Pharmacy Good Day", "brand:ru": "\u0410\u043f\u0442\u0435\u043a\u0430 \u0414\u043e\u0431\u0440\u043e\u0433\u043e \u0414\u043d\u044f", "brand:uk": "\u0410\u043f\u0442\u0435\u043a\u0430 \u0414\u043e\u0431\u0440\u043e\u0433\u043e \u0414\u043d\u044f", "brand:wikidata": "Q102174228", "healthcare": "pharmacy", "level": "1", "name": "\u0410\u043f\u0442\u0435\u043a\u0430 \u0414\u043e\u0431\u0440\u043e\u0433\u043e \u0414\u043d\u044f", "name:en": "Pharmacy Good Day", "name:ru": "\u0410\u043f\u0442\u0435\u043a\u0430 \u0414\u043e\u0431\u0440\u043e\u0433\u043e \u0414\u043d\u044f", "name:uk": "\u0410\u043f\u0442\u0435\u043a\u0430 \u0414\u043e\u0431\u0440\u043e\u0433\u043e \u0414\u043d\u044f", "opening_hours": "Mo-Su 09:00-18:00", "wheelchair": "yes"}}, {"type": "node", "id": 3967857876, "lat": 49.8505884, "lon": 24.0237234, "tags": {"amenity": "pharmacy", "brand": "3\u0456", "brand:wikidata": "Q117705687", "healthcare": "pharmacy", "name": "3\u0456", "name:uk": "3\u0456", "opening_hours": "Mo-Fr 08:00-20:00; Sa 09:00-18:00; Su 10:00-16:00", "survey:date": "2022-05-18"}}, {"type": "node", "id": 3982400357, "lat": 49.8449777, "lon": 24.0272248, "tags": {"addr:housenumber": "1", "addr:street": "\u0421\u0442\u0430\u0440\u0430 \u0432\u0443\u043b\u0438\u0446\u044f", "amenity": "pharmacy", "brand": "D.S.", "brand:wikidata": "Q117706829", "check_date": "2023-05-19", "healthcare": "pharmacy", "name": "D.S.", "opening_hours": "Mo-Fr 08:00-21:00; Sa 09:00-21:00; Su 10:00-20:00", "survey:date": "2022-05-18", "wheelchair": "yes"}}, {"type": "node", "id": 4141698414, "lat": 49.852512, "lon": 24.0279403, "tags": {"amenity": "pharmacy", "brand": "D.S.", "brand:wikidata": "Q117706829", "healthcare": "pharmacy", "name": "D.S.", "name:uk": "D.S.", "opening_hours": "Mo-Fr 08:00-21:00; Sa 08:00-20:00; Su 09:00-19:00"}}, {"type": "node", "id": 4141698419, "lat": 49.8451456, "lon": 24.020403, "tags": {"amenity": "pharmacy", "name": "\u0410\u043f\u0442\u0435\u043a\u0430 \u041d\u0438\u0437\u044c\u043a\u0438\u0445 \u0426\u0456\u043d", "name:uk": "\u0410\u043f\u0442\u0435\u043a\u0430 \u041d\u0438\u0437\u044c\u043a\u0438\u0445 \u0426\u0456\u043d"}}, {"type": "node", "id": 4141698422, "lat": 49.8453942, "lon": 24.0202432, "tags": {"amenity": "pharmacy", "healthcare": "pharmacy", "name": "\u0421\u0456\u043c\u0435\u0439\u043d\u0430 \u0410\u043f\u0442\u0435\u043a\u0430", "name:uk": "\u0421\u0456\u043c\u0435\u0439\u043d\u0430 \u0410\u043f\u0442\u0435\u043a\u0430"}}, {"type": "node", "id": 4147251295, "lat": 49.8444692, "lon": 24.0249748, "tags": {"amenity": "pharmacy", "brand": "3\u0456", "brand:en": "3i", "brand:uk": "3\u0456", "brand:wikidata": "Q117705687", "healthcare": "pharmacy", "name": "3\u0456", "name:en": "3i", "name:uk": "3\u0456"}}, {"type": "node", "id": 4148738189, "lat": 49.8439274, "lon": 24.0243296, "tags": {"amenity": "pharmacy", "healthcare": "pharmacy", "name": "\u0420\u0435\u0446\u0435\u043f\u0442\u0456\u043a\u0430", "name:ru": "\u0410\u043f\u0442\u0435\u043a\u0430 \u00ab\u0420\u0435\u0446\u0435\u043f\u0442\u0438\u043a\u0430\u00bb", "name:uk": "\u0420\u0435\u0446\u0435\u043f\u0442\u0456\u043a\u0430", "opening_hours": "Mo-Su 08:00-21:00"}}, {"type": "node", "id": 4153838989, "lat": 49.8657727, "lon": 24.0156534, "tags": {"amenity": "pharmacy", "brand": "\u041a\u043e\u043f\u0456\u0439\u043a\u0430", "brand:wikidata": "Q118245952", "healthcare": "pharmacy", "name": "\u041a\u043e\u043f\u0456\u0439\u043a\u0430", "name:uk": "\u041a\u043e\u043f\u0456\u0439\u043a\u0430", "opening_hours": "Mo-Fr 08:00-21:00; Sa-Su 09:00-19:00", "survey:date": "2020-08-31"}}, {"type": "node", "id": 4153840490, "lat": 49.8622354, "lon": 24.0175401, "tags": {"amenity": "pharmacy", "healthcare": "pharmacy", "name": "\u0421\u0456\u043c\u0435\u0439\u043d\u0430 \u0430\u043f\u0442\u0435\u043a\u0430", "name:uk": "\u0421\u0456\u043c\u0435\u0439\u043d\u0430 \u0430\u043f\u0442\u0435\u043a\u0430", "opening_hours": "Mo-Sa 08:00-23:00; Su 09:00-22:00"}}, {"type": "node", "id": 4185290395, "lat": 49.8547176, "lon": 24.0267646, "tags": {"amenity": "pharmacy", "brand": "\u0417\u0434\u043e\u0440\u043e\u0432\u0430 \u0420\u043e\u0434\u0438\u043d\u0430", "brand:wikidata": "Q117706848", "check_date": "2023-01-18", "healthcare": "pharmacy", "level": "0", "name": "\u0417\u0434\u043e\u0440\u043e\u0432\u0430 \u0420\u043e\u0434\u0438\u043d\u0430", "name:uk": "\u0417\u0434\u043e\u0440\u043e\u0432\u0430 \u0420\u043e\u0434\u0438\u043d\u0430", "opening_hours": "Mo-Su 08:00-21:00", "payment:mastercard": "yes", "payment:visa": "yes", "survey:date": "2020-07-08"}}, {"type": "node", "id": 4185301890, "lat": 49.8546825, "lon": 24.0273909, "tags": {"addr:housenumber": "4", "addr:street": "\u0425\u0456\u043c\u0456\u0447\u043d\u0430 \u0432\u0443\u043b\u0438\u0446\u044f", "amenity": "pharmacy", "brand": "\u041f\u043e\u0434\u043e\u0440\u043e\u0436\u043d\u0438\u043a", "brand:wikidata": "Q117706903", "check_date": "2022-07-28", "healthcare": "pharmacy", "name": "\u041f\u043e\u0434\u043e\u0440\u043e\u0436\u043d\u0438\u043a", "name:uk": "\u041f\u043e\u0434\u043e\u0440\u043e\u0436\u043d\u0438\u043a", "opening_hours": "Mo-Fr 08:00-21:00; Sa 08:00-20:00; Su 10:00-18:00", "survey:date": "2020-07-08"}}, {"type": "node", "id": 4250022199, "lat": 49.8554581, "lon": 24.0449166, "tags": {"amenity": "pharmacy", "healthcare": "pharmacy", "name": "\u0415\u0442\u0430\u043b\u043e\u043d", "name:uk": "\u0415\u0442\u0430\u043b\u043e\u043d", "opening_hours": "Mo-Fr 08:00-20:00; Sa-Su 09:00-18:00"}}, {"type": "node", "id": 4250043289, "lat": 49.8548476, "lon": 24.0443654, "tags": {"amenity": "pharmacy", "healthcare": "pharmacy", "opening_hours": "Mo-Fr 08:00-21:00; Sa-Su 09:00-20:00"}}, {"type": "node", "id": 4258133490, "lat": 49.8505601, "lon": 23.9922004, "tags": {"amenity": "pharmacy", "healthcare": "pharmacy", "name": "\u0421\u0430\u043b\u044c\u0432\u0435", "name:uk": "\u0421\u0430\u043b\u044c\u0432\u0435"}}, {"type": "node", "id": 4275470489, "lat": 49.8599231, "lon": 24.0190702, "tags": {"addr:housenumber": "67\u0430", "addr:street": "\u043f\u0440\u043e\u0441\u043f\u0435\u043a\u0442 \u0412\u02bc\u044f\u0447\u0435\u0441\u043b\u0430\u0432\u0430 \u0427\u043e\u0440\u043d\u043e\u0432\u043e\u043b\u0430", "amenity": "pharmacy", "brand": "D.S.", "brand:wikidata": "Q117706829", "healthcare": "pharmacy", "name": "D.S.", "name:uk": "D.S.", "opening_hours": "Mo-Fr 08:00-21:00; Sa 08:30-20:00; Su 09:00-19:00", "survey:date": "2020-08-31"}}, {"type": "node", "id": 4329384207, "lat": 49.8393579, "lon": 24.0110059, "tags": {"amenity": "pharmacy", "healthcare": "pharmacy"}}, {"type": "node", "id": 4406466892, "lat": 49.9012315, "lon": 23.9439271, "tags": {"amenity": "pharmacy", "healthcare": "pharmacy", "name": "\u0421\u0456\u043c\u0435\u0439\u043d\u0430 \u0430\u043f\u0442\u0435\u043a\u0430", "name:uk": "\u0421\u0456\u043c\u0435\u0439\u043d\u0430 \u0430\u043f\u0442\u0435\u043a\u0430"}}, {"type": "node", "id": 4446244354, "lat": 49.9805836, "lon": 24.0763599, "tags": {"amenity": "pharmacy", "healthcare": "pharmacy"}}, {"type": "node", "id": 4511145658, "lat": 49.8423144, "lon": 23.968731, "tags": {"amenity": "pharmacy", "healthcare": "pharmacy", "name": "\u0414\u0435\u0440\u0436\u0430\u0432\u043d\u0430 \u0430\u043f\u0442\u0435\u043a\u0430", "name:uk": "\u0414\u0435\u0440\u0436\u0430\u0432\u043d\u0430 \u0430\u043f\u0442\u0435\u043a\u0430", "opening_hours": "24/7", "operator": "\u041f\u041f \u201e\u0421\u043e\u043b\u043e\u043c\u0456\u044f-\u0421\u0435\u0440\u0432\u0456\u0441\u201c"}}, {"type": "node", "id": 4538645500, "lat": 49.8684193, "lon": 23.9528398, "tags": {"amenity": "pharmacy", "name": "\u041f\u0443\u043b\u044c\u0441", "name:uk": "\u041f\u0443\u043b\u044c\u0441", "opening_hours": "24/7", "operator": "\u041f\u0443\u043b\u044c\u0441"}}, {"type": "node", "id": 4697935294, "lat": 49.8292403, "lon": 23.9593297, "tags": {"addr:housenumber": "218", "addr:street": "\u0413\u043e\u0440\u043e\u0434\u043e\u0446\u044c\u043a\u0430 \u0432\u0443\u043b\u0438\u0446\u044f", "amenity": "pharmacy", "drive_through": "no", "name": "DS", "name:uk": "DS", "opening_hours": "Mo-Su 00:00-24:00", "phone": "+380 322 62 0071", "wheelchair": "yes"}}, {"type": "node", "id": 4702167691, "lat": 49.9046736, "lon": 23.9601152, "tags": {"amenity": "pharmacy", "healthcare": "pharmacy"}}, {"type": "node", "id": 4703370837, "lat": 49.8449272, "lon": 23.9674677, "tags": {"amenity": "pharmacy", "healthcare": "pharmacy", "level": "1", "loc_name": "\u0410\u043f\u0442\u0435\u0447\u043d\u0438\u0439 \u043f\u0443\u043d\u043a\u0442 \u2116 15", "name": "\u0410\u043f\u0442\u0435\u043a\u0430 \u041f\u0443\u043b\u044c\u0441", "name:uk": "\u0410\u043f\u0442\u0435\u043a\u0430 \u041f\u0443\u043b\u044c\u0441", "operator": "\u0422\u041e\u0412 \u201e\u0414\u0435\u043a\u0430\u0434\u0430-2000\u201c", "phone": "+380 322 41 8888;+380 95 241 8888;+380 97 241 8888", "ref": "15", "website": "http://www.apteka-puls.com"}}, {"type": "node", "id": 4703370838, "lat": 49.8449454, "lon": 23.967335, "tags": {"amenity": "pharmacy", "brand": "3\u0456", "brand:wikidata": "Q117705687", "healthcare": "pharmacy", "level": "1", "loc_name": "\u0410\u043f\u0442\u0435\u0447\u043d\u0438\u0439 \u043f\u0443\u043d\u043a\u0442 \u2116 7", "name": "3\u0456", "name:uk": "3\u0456", "opening_hours": "Mo-Fr 08:00-19:00; Sa 08:00-18:00", "phone": "+380 50 432 8350", "ref": "7", "website": "https://3i.ua/"}}, {"type": "node", "id": 4721804372, "lat": 49.8422211, "lon": 23.9648265, "tags": {"amenity": "pharmacy", "level": "1", "name": "\u0410\u043f\u0442\u0435\u043a\u0430 \u041a\u043e\u043f\u0456\u0439\u043a\u0430", "name:uk": "\u0410\u043f\u0442\u0435\u043a\u0430 \u041a\u043e\u043f\u0456\u0439\u043a\u0430"}}, {"type": "node", "id": 4732142321, "lat": 49.8477023, "lon": 24.020232, "tags": {"amenity": "pharmacy", "healthcare": "pharmacy", "name": "\u0412\u0435\u0442\u0430\u043f\u0442\u0435\u043a\u0430", "name:uk": "\u0412\u0435\u0442\u0430\u043f\u0442\u0435\u043a\u0430"}}, {"type": "node", "id": 4733418132, "lat": 49.8464493, "lon": 24.026045, "tags": {"amenity": "pharmacy", "healthcare": "pharmacy"}}, {"type": "node", "id": 4739429225, "lat": 49.862394, "lon": 24.0170494, "tags": {"amenity": "pharmacy", "healthcare": "pharmacy", "name": "\u0421\u0456\u043c\u0435\u0439\u043d\u0430", "name:uk": "\u0421\u0456\u043c\u0435\u0439\u043d\u0430"}}, {"type": "node", "id": 4753281026, "lat": 49.9802613, "lon": 23.5564222, "tags": {"amenity": "pharmacy", "healthcare": "pharmacy"}}, {"type": "node", "id": 4753319990, "lat": 49.8447019, "lon": 23.9674346, "tags": {"amenity": "pharmacy", "healthcare": "pharmacy", "level": "1", "loc_name": "\u0410\u043f\u0442\u0435\u0447\u043d\u0438\u0439 \u043f\u0443\u043d\u043a\u0442 \u2116 6", "name": "\u0410\u043f\u0442\u0435\u043a\u0430 \u0414\u043e\u0432\u0456\u0440\u0438", "name:uk": "\u0410\u043f\u0442\u0435\u043a\u0430 \u0414\u043e\u0432\u0456\u0440\u0438", "operator": "\u0422\u0437\u041e\u0412 \u201e\u0410\u043f\u0442\u0435\u043a\u0430 \u0414\u043e\u0432\u0456\u0440\u0438\u201c", "ref": "6"}}, {"type": "node", "id": 4753319991, "lat": 49.8446041, "lon": 23.9675266, "tags": {"amenity": "pharmacy", "healthcare": "pharmacy", "level": "1", "loc_name": "\u0410\u043f\u0442\u0435\u0447\u043d\u0438\u0439 \u043f\u0443\u043d\u043a\u0442 \u2116 18", "name": "\u0410\u043f\u0442\u0435\u043a\u0430 \u201e\u041f\u0456\u0434 \u0432\u043e\u0437\u043d\u0435\u0441\u0456\u043d\u043d\u044f\u043c\u201c", "name:uk": "\u0410\u043f\u0442\u0435\u043a\u0430 \u201e\u041f\u0456\u0434 \u0432\u043e\u0437\u043d\u0435\u0441\u0456\u043d\u043d\u044f\u043c\u201c", "ref": "18"}}, {"type": "node", "id": 4968806121, "lat": 49.9347334, "lon": 23.5673854, "tags": {"amenity": "pharmacy"}}, {"type": "node", "id": 5021345621, "lat": 49.8336647, "lon": 23.8786289, "tags": {"addr:street": "\u041b\u044c\u0432\u0456\u0432\u0441\u044c\u043a\u0430 \u0432\u0443\u043b\u0438\u0446\u044f", "amenity": "pharmacy", "healthcare": "pharmacy", "opening_hours": "24/7"}}, {"type": "node", "id": 5047945792, "lat": 49.8715591, "lon": 24.0523758, "tags": {"addr:housenumber": "11\u0431", "addr:street": "\u0432\u0443\u043b\u0438\u0446\u044f \u0411\u043e\u0440\u0438\u0441\u0430 \u0413\u0440\u0456\u043d\u0447\u0435\u043d\u043a\u0430", "amenity": "pharmacy", "healthcare": "pharmacy", "name": "\u0412\u0435\u0442\u0435\u0440\u0438\u043d\u0430\u0440\u043d\u0430 \u0430\u043f\u0442\u0435\u043a\u0430", "name:uk": "\u0412\u0435\u0442\u0435\u0440\u0438\u043d\u0430\u0440\u043d\u0430 \u0430\u043f\u0442\u0435\u043a\u0430", "opening_hours": "Mo-Su 08:00-20:00", "veterinary": "yes"}}, {"type": "node", "id": 5047950513, "lat": 49.8462563, "lon": 24.0270576, "tags": {"addr:housenumber": "1", "addr:street": "\u0412\u0435\u0441\u0435\u043b\u0430 \u0432\u0443\u043b\u0438\u0446\u044f", "amenity": "pharmacy", "healthcare": "pharmacy", "name": "\u0412\u0435\u0442\u0435\u0440\u0438\u043d\u0430\u0440\u043d\u0430 \u0430\u043f\u0442\u0435\u043a\u0430", "name:uk": "\u0412\u0435\u0442\u0435\u0440\u0438\u043d\u0430\u0440\u043d\u0430 \u0430\u043f\u0442\u0435\u043a\u0430", "opening_hours": "Mo-Su 08:00-20:00", "veterinary": "yes", "website": "https://vetap.com.ua/"}}, {"type": "node", "id": 5047979883, "lat": 49.8699225, "lon": 23.9522429, "tags": {"amenity": "pharmacy", "name": "\u0412\u0435\u0442\u0435\u0440\u0438\u043d\u0430\u0440\u043d\u0430 \u0430\u043f\u0442\u0435\u043a\u0430", "name:uk": "\u0412\u0435\u0442\u0435\u0440\u0438\u043d\u0430\u0440\u043d\u0430 \u0430\u043f\u0442\u0435\u043a\u0430", "opening_hours": "Mo-Su 08:00-20:00", "veterinary": "yes", "website": "https://vetap.com.ua/"}}, {"type": "node", "id": 5168064031, "lat": 49.9372953, "lon": 23.5639441, "tags": {"amenity": "pharmacy", "healthcare": "pharmacy"}}, {"type": "node", "id": 5168064032, "lat": 49.9360355, "lon": 23.5644089, "tags": {"amenity": "pharmacy"}}, {"type": "node", "id": 5376570589, "lat": 49.871351, "lon": 24.0323809, "tags": {"amenity": "pharmacy", "healthcare": "pharmacy", "name": "\u0417\u043d\u0430\u0445\u0430\u0440", "name:uk": "\u0417\u043d\u0430\u0445\u0430\u0440", "phone": "+380 322 97 5589;+380 322 64 5337", "website": "http://apteka-znahar.com.ua/"}}, {"type": "node", "id": 5376637350, "lat": 49.8692514, "lon": 23.9517336, "tags": {"addr:housenumber": "366\u0432", "addr:street": "\u0432\u0443\u043b\u0438\u0446\u044f \u0422\u0430\u0440\u0430\u0441\u0430 \u0428\u0435\u0432\u0447\u0435\u043d\u043a\u0430", "amenity": "pharmacy", "name": "\u0417\u043d\u0430\u0445\u0430\u0440", "name:uk": "\u0417\u043d\u0430\u0445\u0430\u0440", "phone": "+380 322 97 5589;+380 322 64 5337", "website": "http://apteka-znahar.com.ua/"}}, {"type": "node", "id": 5550490438, "lat": 49.8640135, "lon": 24.0506876, "tags": {"amenity": "pharmacy", "healthcare": "pharmacy"}}, {"type": "node", "id": 5559708639, "lat": 49.8376374, "lon": 23.9759425, "tags": {"amenity": "pharmacy", "healthcare": "pharmacy"}}, {"type": "node", "id": 5585756050, "lat": 49.8392561, "lon": 24.0092017, "tags": {"amenity": "pharmacy", "healthcare": "pharmacy", "name": "\u0417\u0435\u043b\u0435\u043d\u0430 \u0430\u043f\u0442\u0435\u043a\u0430", "name:uk": "\u0417\u0435\u043b\u0435\u043d\u0430 \u0430\u043f\u0442\u0435\u043a\u0430", "survey:date": "2020-07-04"}}, {"type": "node", "id": 5694146958, "lat": 49.8561519, "lon": 24.021309, "tags": {"amenity": "pharmacy", "brand": "D.S.", "brand:wikidata": "Q117706829", "check_date": "2024-04-25", "healthcare": "pharmacy", "name": "D.S.", "name:en": "D.S.", "name:uk": "D.S.", "opening_hours": "Mo-Fr 09:00-20:30; Sa 09:00-19:00; Su 09:00-18:00", "survey:date": "2022-04-28"}}, {"type": "node", "id": 5751624515, "lat": 49.8493889, "lon": 24.0245587, "tags": {"amenity": "pharmacy", "healthcare": "pharmacy"}}, {"type": "node", "id": 6051180252, "lat": 49.8447668, "lon": 24.0091569, "tags": {"amenity": "pharmacy", "brand": "D.S.", "brand:wikidata": "Q117706829", "healthcare": "pharmacy", "name": "D.S.", "name:uk": "D.S."}}, {"type": "node", "id": 6389587773, "lat": 49.8510583, "lon": 24.0266852, "tags": {"amenity": "pharmacy", "brand": "\u0410\u043f\u0442\u0435\u043a\u0430 \u0414\u043e\u0431\u0440\u043e\u0433\u043e \u0414\u043d\u044f", "brand:en": "Pharmacy Good Day", "brand:ru": "\u0410\u043f\u0442\u0435\u043a\u0430 \u0414\u043e\u0431\u0440\u043e\u0433\u043e \u0414\u043d\u044f", "brand:uk": "\u0410\u043f\u0442\u0435\u043a\u0430 \u0414\u043e\u0431\u0440\u043e\u0433\u043e \u0414\u043d\u044f", "brand:wikidata": "Q102174228", "healthcare": "pharmacy", "name": "\u0410\u043f\u0442\u0435\u043a\u0430 \u0414\u043e\u0431\u0440\u043e\u0433\u043e \u0414\u043d\u044f", "name:en": "Pharmacy Good Day", "name:ru": "\u0410\u043f\u0442\u0435\u043a\u0430 \u0414\u043e\u0431\u0440\u043e\u0433\u043e \u0414\u043d\u044f", "name:uk": "\u0410\u043f\u0442\u0435\u043a\u0430 \u0414\u043e\u0431\u0440\u043e\u0433\u043e \u0414\u043d\u044f", "opening_hours": "Mo-Sa 08:00-20:00; Su 09:00-19:00", "survey:date": "2020-10-07"}}, {"type": "node", "id": 6615737086, "lat": 49.9308516, "lon": 23.574036, "tags": {"addr:city": "\u041d\u043e\u0432\u043e\u044f\u0432\u043e\u0440\u043e\u0432\u0441\u043a", "addr:postcode": "81054", "addr:street": "\u041d\u043e\u0432\u043e\u044f\u0432\u043e\u0440\u043e\u0432\u0441\u043a, \u0432\u0443\u043b\u0438\u0446\u044f \u0421\u0442\u0435\u043f\u0430\u043d\u0430 \u0411\u0430\u043d\u0434\u0435\u0440\u0438, 18", "amenity": "pharmacy", "brand": "\u041f\u043e\u0434\u043e\u0440\u043e\u0436\u043d\u0438\u043a", "brand:wikidata": "Q117706903", "contact:phone": "+380800303111", "description": "\u041f\u043e\u0434\u043e\u0440\u043e\u0436\u043d\u0438\u043a \u2013 \u043d\u0430\u0439\u0431\u0456\u043b\u044c\u0448\u0430 \u043c\u0435\u0440\u0435\u0436\u0430 \u0430\u043f\u0442\u0435\u043a \u0423\u043a\u0440\u0430\u0457\u043d\u0438. \u0410\u0441\u043e\u0440\u0442\u0438\u043c\u0435\u043d\u0442 \u043d\u0430\u043b\u0456\u0447\u0443\u0454 \u043f\u043e\u043d\u0430\u0434 20 000 \u0442\u043e\u0432\u0430\u0440\u0456\u0432. \u0423 \u0430\u043f\u0442\u0435\u0446\u0456 \u0432\u0438 \u043c\u043e\u0436\u0435\u0442\u0435 \u043f\u0440\u0438\u0434\u0431\u0430\u0442\u0438 \u043f\u043e\u0442\u0440\u0456\u0431\u043d\u0456 \u043b\u0456\u043a\u0438, \u043a\u043e\u0441\u043c\u0435\u0442\u0438\u043a\u0443 \u0442\u0430 \u0456\u043d\u0448\u0456 \u043c\u0435\u0434\u0437\u0430\u0441\u043e\u0431\u0438.", "healthcare": "pharmacy", "name": "\u041f\u043e\u0434\u043e\u0440\u043e\u0436\u043d\u0438\u043a", "name:uk": "\u0410\u043f\u0442\u0435\u043a\u0430 \u041f\u043e\u0434\u043e\u0440\u043e\u0436\u043d\u0438\u043a", "opening_hours": "Mo-Fr 10:00-18:00; Sa 10:00-15:00", "website": "https://podorozhnyk.com"}}, {"type": "node", "id": 6694465097, "lat": 49.8461679, "lon": 24.0239708, "tags": {"addr:city": "\u041b\u044c\u0432\u0456\u0432", "addr:postcode": "79019", "addr:street": "\u041b\u044c\u0432\u0456\u0432, \u0432\u0443\u043b\u0438\u0446\u044f \u041f\u0430\u043d\u0442\u0435\u043b\u0435\u0439\u043c\u043e\u043d\u0430 \u041a\u0443\u043b\u0456\u0448\u0430, 15", "amenity": "pharmacy", "brand": "\u041f\u043e\u0434\u043e\u0440\u043e\u0436\u043d\u0438\u043a", "brand:wikidata": "Q117706903", "contact:phone": "+380800303111", "description": "\u041f\u043e\u0434\u043e\u0440\u043e\u0436\u043d\u0438\u043a \u2013 \u043d\u0430\u0439\u0431\u0456\u043b\u044c\u0448\u0430 \u043c\u0435\u0440\u0435\u0436\u0430 \u0430\u043f\u0442\u0435\u043a \u0423\u043a\u0440\u0430\u0457\u043d\u0438. \u0410\u0441\u043e\u0440\u0442\u0438\u043c\u0435\u043d\u0442 \u043d\u0430\u043b\u0456\u0447\u0443\u0454 \u043f\u043e\u043d\u0430\u0434 20 000 \u0442\u043e\u0432\u0430\u0440\u0456\u0432. \u0423 \u0430\u043f\u0442\u0435\u0446\u0456 \u0432\u0438 \u043c\u043e\u0436\u0435\u0442\u0435 \u043f\u0440\u0438\u0434\u0431\u0430\u0442\u0438 \u043f\u043e\u0442\u0440\u0456\u0431\u043d\u0456 \u043b\u0456\u043a\u0438, \u043a\u043e\u0441\u043c\u0435\u0442\u0438\u043a\u0443 \u0442\u0430 \u0456\u043d\u0448\u0456 \u043c\u0435\u0434\u0437\u0430\u0441\u043e\u0431\u0438.", "healthcare": "pharmacy", "name": "\u041f\u043e\u0434\u043e\u0440\u043e\u0436\u043d\u0438\u043a", "name:uk": "\u0410\u043f\u0442\u0435\u043a\u0430 \u041f\u043e\u0434\u043e\u0440\u043e\u0436\u043d\u0438\u043a", "opening_hours": "Mo-Fr 10:00-18:00; Sa 10:00-15:00", "website": "https://podorozhnyk.com"}}, {"type": "node", "id": 6697396985, "lat": 49.8454399, "lon": 24.020041, "tags": {"addr:city": "\u041b\u044c\u0432\u0456\u0432", "addr:postcode": "79019", "addr:street": "\u041b\u044c\u0432\u0456\u0432, \u0432\u0443\u043b\u0438\u0446\u044f \u0414\u0436\u0435\u0440\u0435\u043b\u044c\u043d\u0430, 1", "amenity": "pharmacy", "brand": "\u041f\u043e\u0434\u043e\u0440\u043e\u0436\u043d\u0438\u043a", "brand:wikidata": "Q117706903", "contact:phone": "+380800303111", "description": "\u041f\u043e\u0434\u043e\u0440\u043e\u0436\u043d\u0438\u043a \u2013 \u043d\u0430\u0439\u0431\u0456\u043b\u044c\u0448\u0430 \u043c\u0435\u0440\u0435\u0436\u0430 \u0430\u043f\u0442\u0435\u043a \u0423\u043a\u0440\u0430\u0457\u043d\u0438. \u0410\u0441\u043e\u0440\u0442\u0438\u043c\u0435\u043d\u0442 \u043d\u0430\u043b\u0456\u0447\u0443\u0454 \u043f\u043e\u043d\u0430\u0434 20 000 \u0442\u043e\u0432\u0430\u0440\u0456\u0432. \u0423 \u0430\u043f\u0442\u0435\u0446\u0456 \u0432\u0438 \u043c\u043e\u0436\u0435\u0442\u0435 \u043f\u0440\u0438\u0434\u0431\u0430\u0442\u0438 \u043f\u043e\u0442\u0440\u0456\u0431\u043d\u0456 \u043b\u0456\u043a\u0438, \u043a\u043e\u0441\u043c\u0435\u0442\u0438\u043a\u0443 \u0442\u0430 \u0456\u043d\u0448\u0456 \u043c\u0435\u0434\u0437\u0430\u0441\u043e\u0431\u0438.", "healthcare": "pharmacy", "name": "\u041f\u043e\u0434\u043e\u0440\u043e\u0436\u043d\u0438\u043a", "name:uk": "\u0410\u043f\u0442\u0435\u043a\u0430 \u041f\u043e\u0434\u043e\u0440\u043e\u0436\u043d\u0438\u043a", "opening_hours": "Mo-Fr 10:00-18:00; Sa 10:00-15:00", "website": "https://podorozhnyk.com"}}, {"type": "node", "id": 6744531694, "lat": 49.8703286, "lon": 24.0324047, "tags": {"amenity": "pharmacy", "brand": "\u0410\u041d\u0426", "brand:wikidata": "Q100148965", "healthcare": "pharmacy", "name": "\u0410\u041d\u0426", "name:uk": "\u0410\u041d\u0426", "opening_hours": "24/7"}}, {"type": "node", "id": 6744560747, "lat": 49.8703285, "lon": 24.0328841, "tags": {"addr:city": "\u041b\u044c\u0432\u0456\u0432", "addr:street": "\u0432\u0443\u043b\u0438\u0446\u044f \u0413\u0435\u0442\u044c\u043c\u0430\u043d\u0430 \u041c\u0430\u0437\u0435\u043f\u0438, 12", "amenity": "pharmacy", "brand": "\u041f\u043e\u0434\u043e\u0440\u043e\u0436\u043d\u0438\u043a", "brand:wikidata": "Q117706903", "contact:phone": "+380800303111", "description": "\u041f\u043e\u0434\u043e\u0440\u043e\u0436\u043d\u0438\u043a \u2013 \u043d\u0430\u0439\u0431\u0456\u043b\u044c\u0448\u0430 \u043c\u0435\u0440\u0435\u0436\u0430 \u0430\u043f\u0442\u0435\u043a \u0423\u043a\u0440\u0430\u0457\u043d\u0438. \u0410\u0441\u043e\u0440\u0442\u0438\u043c\u0435\u043d\u0442 \u043d\u0430\u043b\u0456\u0447\u0443\u0454 \u043f\u043e\u043d\u0430\u0434 20 000 \u0442\u043e\u0432\u0430\u0440\u0456\u0432. \u0423 \u0430\u043f\u0442\u0435\u0446\u0456 \u0432\u0438 \u043c\u043e\u0436\u0435\u0442\u0435 \u043f\u0440\u0438\u0434\u0431\u0430\u0442\u0438 \u043f\u043e\u0442\u0440\u0456\u0431\u043d\u0456 \u043b\u0456\u043a\u0438, \u043a\u043e\u0441\u043c\u0435\u0442\u0438\u043a\u0443 \u0442\u0430 \u0456\u043d\u0448\u0456 \u043c\u0435\u0434\u0437\u0430\u0441\u043e\u0431\u0438.", "healthcare": "pharmacy", "name": "\u041f\u043e\u0434\u043e\u0440\u043e\u0436\u043d\u0438\u043a", "name:uk": "\u0410\u043f\u0442\u0435\u043a\u0430 \u041f\u043e\u0434\u043e\u0440\u043e\u0436\u043d\u0438\u043a", "opening_hours": "Mo-Fr 10:00-18:00; Sa 10:00-15:00", "website": "https://podorozhnyk.com"}}, {"type": "node", "id": 6765098185, "lat": 49.8468338, "lon": 24.0036231, "tags": {"amenity": "pharmacy", "brand": "D.S.", "brand:wikidata": "Q117706829", "check_date": "2025-05-31", "drive_through": "no", "healthcare": "pharmacy", "level": "1", "name": "D.S.", "name:uk": "\u0410\u043f\u0442\u0435\u043a\u0430 D.S.", "opening_hours:drive_through": "Mo-Fr 09:00-21:00", "payment:apple_pay": "yes", "payment:cards": "yes", "payment:cash": "yes", "payment:contactless": "yes", "payment:credit_cards": "yes", "payment:debit_cards": "yes", "payment:google_pay": "yes", "payment:maestro": "yes", "payment:mastercard": "yes", "payment:mobile_app": "yes", "payment:visa": "yes", "payment:visa_electron": "yes", "wheelchair": "no"}}, {"type": "node", "id": 7009908286, "lat": 49.8748526, "lon": 23.9324313, "tags": {"addr:city": "\u041b\u044c\u0432\u0456\u0432", "addr:country": "UA", "addr:street": "\u0432\u0443\u043b\u0438\u0446\u044f \u0406\u0432\u0430\u043d\u0430 \u0412\u0435\u043b\u0438\u0447\u043a\u043e\u0432\u0441\u044c\u043a\u043e\u0433\u043e, 1\u0431", "amenity": "pharmacy", "contact:phone": "+380800303111", "description": "\u041f\u043e\u0434\u043e\u0440\u043e\u0436\u043d\u0438\u043a \u2013 \u043d\u0430\u0439\u0431\u0456\u043b\u044c\u0448\u0430 \u043c\u0435\u0440\u0435\u0436\u0430 \u0430\u043f\u0442\u0435\u043a \u0423\u043a\u0440\u0430\u0457\u043d\u0438. \u0410\u0441\u043e\u0440\u0442\u0438\u043c\u0435\u043d\u0442 \u043d\u0430\u043b\u0456\u0447\u0443\u0454 \u043f\u043e\u043d\u0430\u0434 20 000 \u0442\u043e\u0432\u0430\u0440\u0456\u0432. \u0423 \u0430\u043f\u0442\u0435\u0446\u0456 \u0432\u0438 \u043c\u043e\u0436\u0435\u0442\u0435 \u043f\u0440\u0438\u0434\u0431\u0430\u0442\u0438 \u043f\u043e\u0442\u0440\u0456\u0431\u043d\u0456 \u043b\u0456\u043a\u0438, \u043a\u043e\u0441\u043c\u0435\u0442\u0438\u043a\u0443 \u0442\u0430 \u0456\u043d\u0448\u0456 \u043c\u0435\u0434\u0437\u0430\u0441\u043e\u0431\u0438.", "name": "\u0410\u043f\u0442\u0435\u043a\u0430 \u041f\u043e\u0434\u043e\u0440\u043e\u0436\u043d\u0438\u043a", "name:uk": "\u0410\u043f\u0442\u0435\u043a\u0430 \u041f\u043e\u0434\u043e\u0440\u043e\u0436\u043d\u0438\u043a", "opening_hours": "Mo-Fr 10:00-18:00; Sa 10:00-15:00", "website": "https://podorozhnyk.com"}}, {"type": "node", "id": 7108063763, "lat": 49.9363183, "lon": 23.5640246, "tags": {"amenity": "pharmacy", "healthcare": "pharmacy"}}, {"type": "node", "id": 7108063764, "lat": 49.9361319, "lon": 23.5642955, "tags": {"amenity": "pharmacy", "healthcare": "pharmacy"}}, {"type": "node", "id": 7108063765, "lat": 49.9367361, "lon": 23.5634785, "tags": {"amenity": "pharmacy", "healthcare": "pharmacy"}}, {"type": "node", "id": 7108063766, "lat": 49.9383145, "lon": 23.563306, "tags": {"amenity": "pharmacy", "healthcare": "pharmacy"}}, {"type": "node", "id": 7108063767, "lat": 49.9346187, "lon": 23.5644446, "tags": {"amenity": "pharmacy"}}, {"type": "node", "id": 7108063768, "lat": 49.9324239, "lon": 23.5673869, "tags": {"amenity": "pharmacy", "healthcare": "pharmacy"}}, {"type": "node", "id": 7135754431, "lat": 49.9311242, "lon": 23.5704334, "tags": {"amenity": "pharmacy", "healthcare": "pharmacy", "name": "\u0410\u0440\u0442\u0430", "name:uk": "\u0410\u0440\u0442\u0430"}}, {"type": "node", "id": 7135754432, "lat": 49.9313091, "lon": 23.5685701, "tags": {"amenity": "pharmacy", "healthcare": "pharmacy"}}, {"type": "node", "id": 7135754433, "lat": 49.9313702, "lon": 23.575685, "tags": {"amenity": "pharmacy"}}, {"type": "node", "id": 7208699764, "lat": 49.8627617, "lon": 24.0171257, "tags": {"addr:city": "\u041b\u044c\u0432\u0456\u0432", "addr:postcode": "79020", "addr:street": "\u041b\u044c\u0432\u0456\u0432, \u043f\u0440\u043e\u0441\u043f\u0435\u043a\u0442 \u0412'\u044f\u0447\u0435\u0441\u043b\u0430\u0432\u0430 \u0427\u043e\u0440\u043d\u043e\u0432\u043e\u043b\u0430, 95", "amenity": "pharmacy", "brand": "\u041f\u043e\u0434\u043e\u0440\u043e\u0436\u043d\u0438\u043a", "brand:wikidata": "Q117706903", "contact:phone": "+380800303111", "description": "\u041f\u043e\u0434\u043e\u0440\u043e\u0436\u043d\u0438\u043a \u2013 \u043d\u0430\u0439\u0431\u0456\u043b\u044c\u0448\u0430 \u043c\u0435\u0440\u0435\u0436\u0430 \u0430\u043f\u0442\u0435\u043a \u0423\u043a\u0440\u0430\u0457\u043d\u0438. \u0410\u0441\u043e\u0440\u0442\u0438\u043c\u0435\u043d\u0442 \u043d\u0430\u043b\u0456\u0447\u0443\u0454 \u043f\u043e\u043d\u0430\u0434 20 000 \u0442\u043e\u0432\u0430\u0440\u0456\u0432. \u0423 \u0430\u043f\u0442\u0435\u0446\u0456 \u0432\u0438 \u043c\u043e\u0436\u0435\u0442\u0435 \u043f\u0440\u0438\u0434\u0431\u0430\u0442\u0438 \u043f\u043e\u0442\u0440\u0456\u0431\u043d\u0456 \u043b\u0456\u043a\u0438, \u043a\u043e\u0441\u043c\u0435\u0442\u0438\u043a\u0443 \u0442\u0430 \u0456\u043d\u0448\u0456 \u043c\u0435\u0434\u0437\u0430\u0441\u043e\u0431\u0438.", "healthcare": "pharmacy", "name": "\u041f\u043e\u0434\u043e\u0440\u043e\u0436\u043d\u0438\u043a", "name:uk": "\u0410\u043f\u0442\u0435\u043a\u0430 \u041f\u043e\u0434\u043e\u0440\u043e\u0436\u043d\u0438\u043a", "opening_hours": "Mo-Fr 10:00-18:00; Sa 10:00-15:00", "website": "https://podorozhnyk.com"}}, {"type": "node", "id": 7681090394, "lat": 49.8546202, "lon": 24.0221747, "tags": {"addr:city": "\u041b\u044c\u0432\u043e\u0432", "addr:postcode": "79058", "addr:street": "\u041b\u044c\u0432\u043e\u0432, \u043f\u0440\u043e\u0441\u043f\u0435\u043a\u0442 \u0412\u044f\u0447\u0435\u0441\u043b\u0430\u0432\u0430 \u0427\u0435\u0440\u043d\u043e\u0432\u043e\u043b\u0430, 45", "amenity": "pharmacy", "brand": "\u0411\u0410\u041c", "brand:wikidata": "Q118244235", "contact:phone": "+380800303111", "description": "\u0410\u043f\u0442\u0435\u043a\u0430 \"\u0411\u0430\u043c\" \u2013 \u0446\u0435 \u043c\u0435\u0440\u0435\u0436\u0430 \u0430\u043f\u0442\u0435\u043a \u0437 \u0434\u043e\u0441\u0442\u0443\u043f\u043d\u0438\u043c\u0438 \u043b\u0456\u043a\u0430\u043c\u0438 \u043f\u043e \u0432\u0441\u0456\u0439 \u0423\u043a\u0440\u0430\u0457\u043d\u0456. \u0410\u0441\u043e\u0440\u0442\u0438\u043c\u0435\u043d\u0442 \u043d\u0430\u043b\u0456\u0447\u0443\u0454 \u0431\u043b\u0438\u0437\u044c\u043a\u043e 20 000 \u0442\u043e\u0432\u0430\u0440\u0456\u0432. \u0423 \u0430\u043f\u0442\u0435\u0446\u0456 \u0432\u0438 \u043c\u043e\u0436\u0435\u0442\u0435 \u043f\u0440\u0438\u0434\u0431\u0430\u0442\u0438 \u043f\u043e\u0442\u0440\u0456\u0431\u043d\u0456 \u043b\u0456\u043a\u0438, \u043a\u043e\u0441\u043c\u0435\u0442\u0438\u043a\u0443 \u0442\u0430 \u0456\u043d\u0448\u0456 \u043c\u0435\u0434\u0437\u0430\u0441\u043e\u0431\u0438.", "healthcare": "pharmacy", "name": "\u0411\u0410\u041c", "name:uk": "\u0410\u043f\u0442\u0435\u043a\u0430 \u0411\u0410\u041c", "opening_hours": "Mo-Fr 10:00-18:00; Sa 10:00-15:00", "website": "https://asbam.com.ua"}}, {"type": "node", "id": 7682627988, "lat": 49.8594833, "lon": 24.0192217, "tags": {"amenity": "pharmacy", "brand": "\u041a\u043e\u043f\u0456\u0439\u043a\u0430", "brand:wikidata": "Q118245952", "check_date": "2022-07-22", "healthcare": "pharmacy", "name": "\u041a\u043e\u043f\u0456\u0439\u043a\u0430", "name:uk": "\u041a\u043e\u043f\u0456\u0439\u043a\u0430", "survey:date": "2022-05-02"}}, {"type": "node", "id": 7770959469, "lat": 49.7846639, "lon": 23.6445568}, {"type": "node", "id": 7772337971, "lat": 49.7847213, "lon": 23.6445842, "tags": {"entrance": "yes", "level": "1"}}, {"type": "node", "id": 7812902237, "lat": 49.9307229, "lon": 23.5749382, "tags": {"amenity": "pharmacy", "brand": "\u0410\u043f\u0442\u0435\u043a\u0430 \u043e\u043f\u0442\u043e\u0432\u0438\u0445 \u0446\u2025", "brand:wikidata": "Q117617038", "contact:email": "admin@apteka911.com.ua", "contact:facebook": "https://www.facebook.com/apteki911", "contact:website": "https://apteka911.com.ua/", "contact:youtube": "https://www.youtube.com/channel/UCgft8X02aVC-B8WwpKiFEIg", "healthcare": "pharmacy", "name": "\u0410\u043f\u0442\u0435\u043a\u0430 \u043e\u043f\u0442\u043e\u0432\u0438\u0445 \u0446\u2025", "name:ru": "\u0410\u043f\u0442\u0435\u043a\u0430 \u043e\u043f\u0442\u043e\u0432\u044b\u0445 \u0446\u0435\u043d", "name:uk": "\u0410\u043f\u0442\u0435\u043a\u0430 \u043e\u043f\u0442\u043e\u0432\u0438\u0445 \u0446\u0456\u043d", "opening_hours": "Mo-Su 08:00-21:00", "operator": "\u0424\u0410\u0420\u041c\u0410\u0426\u0406\u042f \u041b\u042c\u0412\u0406\u0412\u0429\u0418\u041d\u0418 \u0422\u041e\u0412", "phone:UA": "0 800 505 911"}}, {"type": "node", "id": 7812902273, "lat": 49.7843009, "lon": 23.6439037, "tags": {"addr:city": "\u0413\u043e\u0440\u043e\u0434\u043e\u043a", "addr:postcode": "81500", "addr:street": "\u0413\u043e\u0440\u043e\u0434\u043e\u043a, \u041f\u0435\u0440\u0435\u043c\u0438\u0448\u043b\u044c\u0441\u044c\u043a\u0430 \u0432\u0443\u043b\u0438\u0446\u044f, 5", "amenity": "pharmacy", "contact:phone": "+380800303111", "description": "\u041f\u043e\u0434\u043e\u0440\u043e\u0436\u043d\u0438\u043a \u2013 \u043d\u0430\u0439\u0431\u0456\u043b\u044c\u0448\u0430 \u043c\u0435\u0440\u0435\u0436\u0430 \u0430\u043f\u0442\u0435\u043a \u0423\u043a\u0440\u0430\u0457\u043d\u0438. \u0410\u0441\u043e\u0440\u0442\u0438\u043c\u0435\u043d\u0442 \u043d\u0430\u043b\u0456\u0447\u0443\u0454 \u043f\u043e\u043d\u0430\u0434 20 000 \u0442\u043e\u0432\u0430\u0440\u0456\u0432. \u0423 \u0430\u043f\u0442\u0435\u0446\u0456 \u0432\u0438 \u043c\u043e\u0436\u0435\u0442\u0435 \u043f\u0440\u0438\u0434\u0431\u0430\u0442\u0438 \u043f\u043e\u0442\u0440\u0456\u0431\u043d\u0456 \u043b\u0456\u043a\u0438, \u043a\u043e\u0441\u043c\u0435\u0442\u0438\u043a\u0443 \u0442\u0430 \u0456\u043d\u0448\u0456 \u043c\u0435\u0434\u0437\u0430\u0441\u043e\u0431\u0438.", "name": "\u0410\u043f\u0442\u0435\u043a\u0430 \u041f\u043e\u0434\u043e\u0440\u043e\u0436\u043d\u0438\u043a", "name:uk": "\u0410\u043f\u0442\u0435\u043a\u0430 \u041f\u043e\u0434\u043e\u0440\u043e\u0436\u043d\u0438\u043a", "opening_hours": "Mo-Fr 10:00-18:00; Sa 10:00-15:00", "website": "https://podorozhnyk.com"}}, {"type": "node", "id": 7985284383, "lat": 49.8537167, "lon": 24.0289798, "tags": {"addr:housenumber": "8", "addr:street": "\u0432\u0443\u043b\u0438\u0446\u044f \u0421\u043e\u0444\u0456\u0457 \u042f\u0431\u043b\u043e\u043d\u0441\u044c\u043a\u043e\u0457", "amenity": "pharmacy", "name": "\u041f\u043e\u0434\u043e\u0440\u043e\u0436\u043d\u0438\u043a", "opening_hours": "Mo-Sa 08:00-20:00; Su 09:00-19:00"}}, {"type": "node", "id": 8003063785, "lat": 49.8466104, "lon": 24.0258014, "tags": {"addr:housenumber": "2-\u0411", "addr:street": "\u043f\u0440\u043e\u0441\u043f\u0435\u043a\u0442 \u0412'\u044f\u0447\u0435\u0441\u043b\u0430\u0432\u0430 \u0427\u043e\u0440\u043d\u043e\u0432\u043e\u043b\u0430", "amenity": "pharmacy", "name": "\u041f\u043e\u0434\u043e\u0440\u043e\u0436\u043d\u0438\u043a", "opening_hours": "Mo-Su 00:00-23:59"}}, {"type": "node", "id": 8035303278, "lat": 49.9797643, "lon": 24.0779787}, {"type": "node", "id": 8035303279, "lat": 49.9797511, "lon": 24.078099}, {"type": "node", "id": 8035303280, "lat": 49.9797192, "lon": 24.0780905}, {"type": "node", "id": 8035303281, "lat": 49.9797324, "lon": 24.0779702}, {"type": "node", "id": 8259940003, "lat": 49.8423048, "lon": 23.9703119, "tags": {"amenity": "pharmacy", "name": "\u0421\u043e\u0446\u0456\u0430\u043b\u044c\u043d\u0430 \u0430\u043f\u0442\u0435\u043a\u0430", "name:uk": "\u0421\u043e\u0446\u0456\u0430\u043b\u044c\u043d\u0430 \u0430\u043f\u0442\u0435\u043a\u0430"}}, {"type": "node", "id": 8559320072, "lat": 49.9040711, "lon": 24.0940341, "tags": {"amenity": "pharmacy", "name": "\u0417\u0434\u043e\u0440\u043e\u0432\u0430 \u0440\u043e\u0434\u0438\u043d\u0430", "name:uk": "\u0417\u0434\u043e\u0440\u043e\u0432\u0430 \u0440\u043e\u0434\u0438\u043d\u0430"}}, {"type": "node", "id": 8693021100, "lat": 49.8721319, "lon": 24.0330805, "tags": {"amenity": "pharmacy", "contact:email": "admin@apteka911.com.ua", "contact:facebook": "https://www.facebook.com/apteki911", "contact:website": "https://apteka911.ua/", "contact:youtube": "https://www.youtube.com/channel/UCgft8X02aVC-B8WwpKiFEIg", "name": "\u0410\u043f\u0442\u0435\u043a\u0430 \u043e\u043f\u0442\u043e\u0432\u0438\u0445 \u0446\u0456\u043d", "name:uk": "\u0410\u043f\u0442\u0435\u043a\u0430 \u043e\u043f\u0442\u043e\u0432\u0438\u0445 \u0446\u0456\u043d", "opening_hours": "Mo-Su 08:00-21:00", "operator": "\u0424\u0410\u0420\u041c\u0410\u0426\u0406\u042f \u041b\u042c\u0412\u0406\u0412\u0429\u0418\u041d\u0418 \u0422\u041e\u0412", "phone:UA": "0 800 505 911"}}, {"type": "node", "id": 8827008670, "lat": 49.8410789, "lon": 24.0034968, "tags": {"amenity": "pharmacy", "brand": "\u041f\u0443\u043b\u044c\u0441", "brand:wikidata": "Q121898637", "healthcare": "pharmacy", "name": "\u041f\u0443\u043b\u044c\u0441", "name:uk": "\u041a\u0443\u0440\u0441\u0438 \u0432\u0456\u0437\u0430\u0436\u0443", "opening_hours": "24/7"}}, {"type": "node", "id": 8829366904, "lat": 49.8431711, "lon": 24.0168354, "tags": {"addr:city": "\u041b\u044c\u0432\u0456\u0432", "addr:postcode": "79007", "addr:street": "\u041a\u043b\u0435\u043f\u0430\u0440\u0456\u0432\u0441\u044c\u043a\u0430,4", "amenity": "pharmacy", "contact:phone": "+380800303111", "description": "\u0410\u043f\u0442\u0435\u043a\u0430 \"\u0411\u0430\u043c\" \u2013 \u0446\u0435 \u043c\u0435\u0440\u0435\u0436\u0430 \u0430\u043f\u0442\u0435\u043a \u0437 \u0434\u043e\u0441\u0442\u0443\u043f\u043d\u0438\u043c\u0438 \u043b\u0456\u043a\u0430\u043c\u0438 \u043f\u043e \u0432\u0441\u0456\u0439 \u0423\u043a\u0440\u0430\u0457\u043d\u0456. \u0410\u0441\u043e\u0440\u0442\u0438\u043c\u0435\u043d\u0442 \u043d\u0430\u043b\u0456\u0447\u0443\u0454 \u0431\u043b\u0438\u0437\u044c\u043a\u043e 20 000 \u0442\u043e\u0432\u0430\u0440\u0456\u0432. \u0423 \u0430\u043f\u0442\u0435\u0446\u0456 \u0432\u0438 \u043c\u043e\u0436\u0435\u0442\u0435 \u043f\u0440\u0438\u0434\u0431\u0430\u0442\u0438 \u043f\u043e\u0442\u0440\u0456\u0431\u043d\u0456 \u043b\u0456\u043a\u0438, \u043a\u043e\u0441\u043c\u0435\u0442\u0438\u043a\u0443 \u0442\u0430 \u0456\u043d\u0448\u0456 \u043c\u0435\u0434\u0437\u0430\u0441\u043e\u0431\u0438.", "name": "\u0410\u043f\u0442\u0435\u043a\u0430 \u0411\u0410\u041c", "name:uk": "\u0410\u043f\u0442\u0435\u043a\u0430 \u0411\u0410\u041c", "opening_hours": "Mo-Fr 10:00-18:00; Sa 10:00-15:00", "website": "https://asbam.com.ua"}}, {"type": "node", "id": 9169074276, "lat": 49.8444739, "lon": 23.9664549, "tags": {"amenity": "pharmacy", "name": "\u0410\u043f\u0442\u0435\u043a\u0430 \u041f\u0443\u043b\u044c\u0441", "name:uk": "\u0410\u043f\u0442\u0435\u043a\u0430 \u041f\u0443\u043b\u044c\u0441"}}, {"type": "node", "id": 9378883313, "lat": 49.904626, "lon": 24.0869014, "tags": {"amenity": "pharmacy", "dispensing": "yes", "healthcare": "pharmacy"}}, {"type": "node", "id": 9696792682, "lat": 49.8200579, "lon": 23.9085615, "tags": {"addr:city": "\u0441\u0435\u043b\u043e \u0417\u0438\u043c\u043d\u0430 \u0412\u043e\u0434\u0430", "addr:postcode": "81110", "addr:street": "\u0441\u0435\u043b\u043e \u0417\u0438\u043c\u043d\u0430 \u0412\u043e\u0434\u0430, \u0432\u0443\u043b\u0438\u0446\u044f \u0413\u043e\u0440\u043e\u0434\u043e\u0446\u044c\u043a\u0430, 4", "amenity": "pharmacy", "contact:phone": "+380800303111", "description": "\u041f\u043e\u0434\u043e\u0440\u043e\u0436\u043d\u0438\u043a \u2013 \u043d\u0430\u0439\u0431\u0456\u043b\u044c\u0448\u0430 \u043c\u0435\u0440\u0435\u0436\u0430 \u0430\u043f\u0442\u0435\u043a \u0423\u043a\u0440\u0430\u0457\u043d\u0438. \u0410\u0441\u043e\u0440\u0442\u0438\u043c\u0435\u043d\u0442 \u043d\u0430\u043b\u0456\u0447\u0443\u0454 \u043f\u043e\u043d\u0430\u0434 20 000 \u0442\u043e\u0432\u0430\u0440\u0456\u0432. \u0423 \u0430\u043f\u0442\u0435\u0446\u0456 \u0432\u0438 \u043c\u043e\u0436\u0435\u0442\u0435 \u043f\u0440\u0438\u0434\u0431\u0430\u0442\u0438 \u043f\u043e\u0442\u0440\u0456\u0431\u043d\u0456 \u043b\u0456\u043a\u0438, \u043a\u043e\u0441\u043c\u0435\u0442\u0438\u043a\u0443 \u0442\u0430 \u0456\u043d\u0448\u0456 \u043c\u0435\u0434\u0437\u0430\u0441\u043e\u0431\u0438.", "name": "\u0410\u043f\u0442\u0435\u043a\u0430 \u041f\u043e\u0434\u043e\u0440\u043e\u0436\u043d\u0438\u043a", "name:uk": "\u0410\u043f\u0442\u0435\u043a\u0430 \u041f\u043e\u0434\u043e\u0440\u043e\u0436\u043d\u0438\u043a", "opening_hours": "Mo-Fr 10:00-18:00; Sa 10:00-15:00", "website": "https://podorozhnyk.com"}}, {"type": "node", "id": 9701157618, "lat": 49.8619641, "lon": 24.026354, "tags": {"amenity": "pharmacy", "brand": "3\u0456", "brand:en": "3i", "brand:uk": "3\u0456", "brand:wikidata": "Q117705687", "check_date": "2024-04-25", "healthcare": "pharmacy", "level": "0", "name": "3\u0456", "name:en": "3i", "name:uk": "3\u0456", "opening_hours": "Mo-Su 08:00-22:00", "payment:cash": "yes", "payment:mastercard": "yes", "payment:visa": "yes", "survey:date": "2022-04-28"}}, {"type": "node", "id": 9709024017, "lat": 49.8606395, "lon": 24.0188718, "tags": {"amenity": "pharmacy", "brand": "\u0411\u0456\u043b\u0430 \u0440\u043e\u043c\u0430\u0448\u043a\u0430", "brand:wikidata": "Q118128506", "check_date": "2022-07-19", "healthcare": "pharmacy", "name": "\u0411\u0456\u043b\u0430 \u0440\u043e\u043c\u0430\u0448\u043a\u0430", "name:uk": "\u0411\u0456\u043b\u0430 \u0440\u043e\u043c\u0430\u0448\u043a\u0430", "opening_hours": "08:00-22:00", "payment:mastercard": "yes", "payment:visa": "yes", "survey:date": "2022-05-02"}}, {"type": "node", "id": 9721191816, "lat": 49.8432766, "lon": 24.0259975, "tags": {"amenity": "pharmacy", "healthcare": "pharmacy", "name": "Biomed", "name:ru": "\u0411\u0438\u043e\u043c\u0435\u0434", "name:uk": "\u0411\u0456\u043e\u043c\u0435\u0434"}}, {"type": "node", "id": 9735510516, "lat": 49.8485587, "lon": 24.0241846, "tags": {"amenity": "pharmacy", "description": "\u0412\u0456\u0442\u0430\u043c\u0456\u043d\u0438", "healthcare": "pharmacy", "name": "Mega Vits", "name:uk": "Mega Vits"}}, {"type": "node", "id": 9811186678, "lat": 49.845633, "lon": 24.0292619, "tags": {"amenity": "pharmacy", "healthcare": "pharmacy"}}, {"type": "node", "id": 9831315375, "lat": 49.8299482, "lon": 23.9630565, "tags": {"amenity": "pharmacy", "name": "D.S.", "name:uk": "D.S.", "opening_hours": "Mo-Fr 09:00-21:00; Sa, Su 09:00-18:00", "wheelchair": "yes"}}, {"type": "node", "id": 9918961331, "lat": 49.8545801, "lon": 24.0235477, "tags": {"amenity": "pharmacy", "check_date": "2024-07-23", "healthcare": "pharmacy", "level": "0", "name": "\u0410\u043f\u0442\u0435\u043a\u0430 #3", "name:uk": "\u0410\u043f\u0442\u0435\u043a\u0430 #3", "opening_hours": "Mo-Fr 08:00-20:00; Sa 09:00-16:00", "wheelchair": "yes"}}, {"type": "node", "id": 10167799175, "lat": 49.845449, "lon": 24.0024917, "tags": {"amenity": "pharmacy", "brand": "\u041f\u043e\u0434\u043e\u0440\u043e\u0436\u043d\u0438\u043a", "brand:wikidata": "Q117706903", "healthcare": "pharmacy", "name": "\u041f\u043e\u0434\u043e\u0440\u043e\u0436\u043d\u0438\u043a", "name:uk": "\u041f\u043e\u0434\u043e\u0440\u043e\u0436\u043d\u0438\u043a", "opening_hours": "Mo-Sa 08:00-21:00; Su 09:00-20:00"}}, {"type": "node", "id": 10308411646, "lat": 49.8613534, "lon": 24.0269125, "tags": {"addr:housenumber": "122", "addr:street": "\u0417\u0430\u043c\u0430\u0440\u0441\u0442\u0438\u043d\u0456\u0432\u0441\u044c\u043a\u0430 \u0432\u0443\u043b\u0438\u0446\u044f", "amenity": "pharmacy", "brand": "\u041f\u0443\u043b\u044c\u0441", "brand:wikidata": "Q121898637", "check_date": "2024-04-25", "healthcare": "pharmacy", "name": "\u041f\u0443\u043b\u044c\u0441", "name:uk": "\u041f\u0443\u043b\u044c\u0441", "opening_hours": "24/7", "operator": "\u0422\u041e\u0412 \"\u0414\u0435\u043a\u0430\u0434\u0430-2000\""}}, {"type": "node", "id": 10608877786, "lat": 49.8455254, "lon": 23.9963781, "tags": {"addr:housenumber": "7", "addr:postcode": "79068", "addr:street": "\u0417\u0430\u043b\u0456\u0437\u043d\u0438\u0447\u043d\u0430 \u0432\u0443\u043b\u0438\u0446\u044f", "amenity": "pharmacy", "brand": "\u041f\u043e\u0434\u043e\u0440\u043e\u0436\u043d\u0438\u043a", "brand:wikidata": "Q117706903", "contact:instagram": "aptekapodorozhnyk", "healthcare": "pharmacy", "name": "\u041f\u043e\u0434\u043e\u0440\u043e\u0436\u043d\u0438\u043a", "name:en": "Podorozhnyk", "name:uk": "\u041f\u043e\u0434\u043e\u0440\u043e\u0436\u043d\u0438\u043a", "operator": "\u041f\u043e\u0434\u043e\u0440\u043e\u0436\u043d\u0438\u043a", "phone": "+380800303111", "website": "https://podorozhnyk.com/"}}, {"type": "node", "id": 10634492738, "lat": 49.8476953, "lon": 23.9960995, "tags": {"addr:housenumber": "21", "addr:postcode": "79039", "addr:street": "\u0417\u0430\u043b\u0456\u0437\u043d\u0438\u0447\u043d\u0430 \u0432\u0443\u043b\u0438\u0446\u044f", "amenity": "pharmacy", "brand": "3\u0456", "brand:en": "3i", "brand:uk": "3\u0456", "brand:wikidata": "Q117705687", "check_date": "2025-06-27", "healthcare": "pharmacy", "name": "3\u0456", "name:en": "3i", "name:uk": "3\u0456", "opening_hours": "Mo-Sa 08:00-20:00; Su 10:00-17:00", "operator": "\u041b\u0456\u043b\u0435\u044f", "phone": "+380 95 190 4733", "website": "https://3i.ua/"}}, {"type": "node", "id": 10750196813, "lat": 49.8461282, "lon": 24.0067688, "tags": {"access": "customers", "amenity": "pharmacy", "check_date": "2025-06-08", "door": "yes", "entrance": "main", "opening_hours": "24/7", "wheelchair": "no"}}, {"type": "node", "id": 10879132605, "lat": 49.8221801, "lon": 23.8871611, "tags": {"addr:city": "\u041b\u044c\u0432\u0456\u0432", "addr:postcode": "79000", "addr:street": "\u0432\u0443\u043b\u0438\u0446\u044f \u0413\u0435\u0442\u044c\u043c\u0430\u043d\u0430 \u041c\u0430\u0437\u0435\u043f\u0438, 10", "amenity": "pharmacy", "contact:phone": "+380800303111", "description": "\u0410\u043f\u0442\u0435\u043a\u0430 \"\u0411\u0430\u043c\" \u2013 \u0446\u0435 \u043c\u0435\u0440\u0435\u0436\u0430 \u0430\u043f\u0442\u0435\u043a \u0437 \u0434\u043e\u0441\u0442\u0443\u043f\u043d\u0438\u043c\u0438 \u043b\u0456\u043a\u0430\u043c\u0438 \u043f\u043e \u0432\u0441\u0456\u0439 \u0423\u043a\u0440\u0430\u0457\u043d\u0456. \u0410\u0441\u043e\u0440\u0442\u0438\u043c\u0435\u043d\u0442 \u043d\u0430\u043b\u0456\u0447\u0443\u0454 \u0431\u043b\u0438\u0437\u044c\u043a\u043e 20 000 \u0442\u043e\u0432\u0430\u0440\u0456\u0432. \u0423 \u0430\u043f\u0442\u0435\u0446\u0456 \u0432\u0438 \u043c\u043e\u0436\u0435\u0442\u0435 \u043f\u0440\u0438\u0434\u0431\u0430\u0442\u0438 \u043f\u043e\u0442\u0440\u0456\u0431\u043d\u0456 \u043b\u0456\u043a\u0438, \u043a\u043e\u0441\u043c\u0435\u0442\u0438\u043a\u0443 \u0442\u0430 \u0456\u043d\u0448\u0456 \u043c\u0435\u0434\u0437\u0430\u0441\u043e\u0431\u0438.", "name": "\u0410\u043f\u0442\u0435\u043a\u0430 \u0411\u0410\u041c", "name:uk": "\u0410\u043f\u0442\u0435\u043a\u0430 \u0411\u0410\u041c", "opening_hours": "Mo-Fr 10:00-18:00; Sa 10:00-15:00", "website": "https://asbam.com.ua"}}, {"type": "node", "id": 10881049607, "lat": 49.9310089, "lon": 23.5790029, "tags": {"addr:city": "\u041d\u043e\u0432\u043e\u044f\u0432\u043e\u0440\u0456\u0432\u0441\u044c\u043a", "addr:postcode": "81054", "addr:street": "\u0432\u0443\u043b\u0438\u0446\u044f \u0421\u0442\u0435\u043f\u0430\u043d\u0430 \u0411\u0430\u043d\u0434\u0435\u0440\u0438, 21\u0430", "amenity": "pharmacy", "contact:phone": "+380800303111", "description": "\u0410\u043f\u0442\u0435\u043a\u0430 \"\u0411\u0430\u043c\" \u2013 \u0446\u0435 \u043c\u0435\u0440\u0435\u0436\u0430 \u0430\u043f\u0442\u0435\u043a \u0437 \u0434\u043e\u0441\u0442\u0443\u043f\u043d\u0438\u043c\u0438 \u043b\u0456\u043a\u0430\u043c\u0438 \u043f\u043e \u0432\u0441\u0456\u0439 \u0423\u043a\u0440\u0430\u0457\u043d\u0456. \u0410\u0441\u043e\u0440\u0442\u0438\u043c\u0435\u043d\u0442 \u043d\u0430\u043b\u0456\u0447\u0443\u0454 \u0431\u043b\u0438\u0437\u044c\u043a\u043e 20 000 \u0442\u043e\u0432\u0430\u0440\u0456\u0432. \u0423 \u0430\u043f\u0442\u0435\u0446\u0456 \u0432\u0438 \u043c\u043e\u0436\u0435\u0442\u0435 \u043f\u0440\u0438\u0434\u0431\u0430\u0442\u0438 \u043f\u043e\u0442\u0440\u0456\u0431\u043d\u0456 \u043b\u0456\u043a\u0438, \u043a\u043e\u0441\u043c\u0435\u0442\u0438\u043a\u0443 \u0442\u0430 \u0456\u043d\u0448\u0456 \u043c\u0435\u0434\u0437\u0430\u0441\u043e\u0431\u0438.", "name": "\u0410\u043f\u0442\u0435\u043a\u0430 \u0411\u0410\u041c", "name:uk": "\u0410\u043f\u0442\u0435\u043a\u0430 \u0411\u0410\u041c", "opening_hours": "Mo-Fr 10:00-18:00; Sa 10:00-15:00", "website": "https://asbam.com.ua"}}, {"type": "node", "id": 10881066809, "lat": 49.9017185, "lon": 23.9407981, "tags": {"addr:city": "\u0441\u0435\u043b\u0438\u0449\u0435 \u043c\u0456\u0441\u044c\u043a\u043e\u0433\u043e \u0442\u0438\u043f\u0443 \u0411\u0440\u044e\u0445\u043e\u0432\u0438\u0447\u0456", "addr:postcode": "79491", "addr:street": "\u0441\u0435\u043b\u0438\u0449\u0435 \u043c\u0456\u0441\u044c\u043a\u043e\u0433\u043e \u0442\u0438\u043f\u0443 \u0411\u0440\u044e\u0445\u043e\u0432\u0438\u0447\u0456, \u0432\u0443\u043b\u0438\u0446\u044f \u0406\u0432\u0430\u0441\u044e\u043a\u0430, 1", "amenity": "pharmacy", "brand": "\u041f\u043e\u0434\u043e\u0440\u043e\u0436\u043d\u0438\u043a", "brand:wikidata": "Q117706903", "contact:phone": "+380800303111", "description": "\u041f\u043e\u0434\u043e\u0440\u043e\u0436\u043d\u0438\u043a \u2013 \u043d\u0430\u0439\u0431\u0456\u043b\u044c\u0448\u0430 \u043c\u0435\u0440\u0435\u0436\u0430 \u0430\u043f\u0442\u0435\u043a \u0423\u043a\u0440\u0430\u0457\u043d\u0438. \u0410\u0441\u043e\u0440\u0442\u0438\u043c\u0435\u043d\u0442 \u043d\u0430\u043b\u0456\u0447\u0443\u0454 \u043f\u043e\u043d\u0430\u0434 20 000 \u0442\u043e\u0432\u0430\u0440\u0456\u0432. \u0423 \u0430\u043f\u0442\u0435\u0446\u0456 \u0432\u0438 \u043c\u043e\u0436\u0435\u0442\u0435 \u043f\u0440\u0438\u0434\u0431\u0430\u0442\u0438 \u043f\u043e\u0442\u0440\u0456\u0431\u043d\u0456 \u043b\u0456\u043a\u0438, \u043a\u043e\u0441\u043c\u0435\u0442\u0438\u043a\u0443 \u0442\u0430 \u0456\u043d\u0448\u0456 \u043c\u0435\u0434\u0437\u0430\u0441\u043e\u0431\u0438.", "healthcare": "pharmacy", "name": "\u041f\u043e\u0434\u043e\u0440\u043e\u0436\u043d\u0438\u043a", "name:uk": "\u0410\u043f\u0442\u0435\u043a\u0430 \u041f\u043e\u0434\u043e\u0440\u043e\u0436\u043d\u0438\u043a", "opening_hours": "Mo-Fr 10:00-18:00; Sa 10:00-15:00", "website": "https://podorozhnyk.com"}}, {"type": "node", "id": 10881073807, "lat": 49.8553073, "lon": 24.0447322, "tags": {"addr:city": "\u041b\u044c\u0432\u0456\u0432", "addr:postcode": "79000", "addr:street": "\u0432\u0443\u043b\u0438\u0446\u044f \u0411\u043e\u0433\u0434\u0430\u043d\u0430 \u0425\u043c\u0435\u043b\u044c\u043d\u0438\u0446\u044c\u043a\u043e\u0433\u043e, 171", "amenity": "pharmacy", "brand": "\u041f\u043e\u0434\u043e\u0440\u043e\u0436\u043d\u0438\u043a", "brand:wikidata": "Q117706903", "contact:phone": "+380800303111", "description": "\u041f\u043e\u0434\u043e\u0440\u043e\u0436\u043d\u0438\u043a \u2013 \u043d\u0430\u0439\u0431\u0456\u043b\u044c\u0448\u0430 \u043c\u0435\u0440\u0435\u0436\u0430 \u0430\u043f\u0442\u0435\u043a \u0423\u043a\u0440\u0430\u0457\u043d\u0438. \u0410\u0441\u043e\u0440\u0442\u0438\u043c\u0435\u043d\u0442 \u043d\u0430\u043b\u0456\u0447\u0443\u0454 \u043f\u043e\u043d\u0430\u0434 20 000 \u0442\u043e\u0432\u0430\u0440\u0456\u0432. \u0423 \u0430\u043f\u0442\u0435\u0446\u0456 \u0432\u0438 \u043c\u043e\u0436\u0435\u0442\u0435 \u043f\u0440\u0438\u0434\u0431\u0430\u0442\u0438 \u043f\u043e\u0442\u0440\u0456\u0431\u043d\u0456 \u043b\u0456\u043a\u0438, \u043a\u043e\u0441\u043c\u0435\u0442\u0438\u043a\u0443 \u0442\u0430 \u0456\u043d\u0448\u0456 \u043c\u0435\u0434\u0437\u0430\u0441\u043e\u0431\u0438.", "healthcare": "pharmacy", "name": "\u041f\u043e\u0434\u043e\u0440\u043e\u0436\u043d\u0438\u043a", "name:uk": "\u041f\u043e\u0434\u043e\u0440\u043e\u0436\u043d\u0438\u043a", "opening_hours": "Mo-Fr 10:00-18:00; Sa 10:00-15:00", "website": "https://podorozhnyk.com"}}, {"type": "node", "id": 10881073810, "lat": 49.8745188, "lon": 24.0396966, "tags": {"addr:city": "\u041b\u044c\u0432\u0456\u0432", "addr:postcode": "79059", "addr:street": "\u0432\u0443\u043b. \u041c\u0438\u043a\u043e\u043b\u0430\u0439\u0447\u0443\u043a\u0430, 9", "amenity": "pharmacy", "brand": "\u041f\u043e\u0434\u043e\u0440\u043e\u0436\u043d\u0438\u043a", "brand:wikidata": "Q117706903", "contact:phone": "+380800303111", "description": "\u041f\u043e\u0434\u043e\u0440\u043e\u0436\u043d\u0438\u043a \u2013 \u043d\u0430\u0439\u0431\u0456\u043b\u044c\u0448\u0430 \u043c\u0435\u0440\u0435\u0436\u0430 \u0430\u043f\u0442\u0435\u043a \u0423\u043a\u0440\u0430\u0457\u043d\u0438. \u0410\u0441\u043e\u0440\u0442\u0438\u043c\u0435\u043d\u0442 \u043d\u0430\u043b\u0456\u0447\u0443\u0454 \u043f\u043e\u043d\u0430\u0434 20 000 \u0442\u043e\u0432\u0430\u0440\u0456\u0432. \u0423 \u0430\u043f\u0442\u0435\u0446\u0456 \u0432\u0438 \u043c\u043e\u0436\u0435\u0442\u0435 \u043f\u0440\u0438\u0434\u0431\u0430\u0442\u0438 \u043f\u043e\u0442\u0440\u0456\u0431\u043d\u0456 \u043b\u0456\u043a\u0438, \u043a\u043e\u0441\u043c\u0435\u0442\u0438\u043a\u0443 \u0442\u0430 \u0456\u043d\u0448\u0456 \u043c\u0435\u0434\u0437\u0430\u0441\u043e\u0431\u0438.", "healthcare": "pharmacy", "name": "\u041f\u043e\u0434\u043e\u0440\u043e\u0436\u043d\u0438\u043a", "name:uk": "\u041f\u043e\u0434\u043e\u0440\u043e\u0436\u043d\u0438\u043a", "opening_hours": "Mo-Fr 10:00-18:00; Sa 10:00-15:00", "website": "https://podorozhnyk.com/"}}, {"type": "node", "id": 10881075007, "lat": 49.9308629, "lon": 23.5739625, "tags": {"addr:city": "\u041d\u043e\u0432\u043e\u044f\u0432\u043e\u0440\u0456\u0432\u0441\u044c\u043a", "addr:postcode": "81054", "addr:street": "\u041d\u043e\u0432\u043e\u044f\u0432\u043e\u0440\u0456\u0432\u0441\u044c\u043a, \u0432\u0443\u043b\u0438\u0446\u044f \u0421\u0442\u0435\u043f\u0430\u043d\u0430 \u0411\u0430\u043d\u0434\u0435\u0440\u0438, 18", "amenity": "pharmacy", "contact:phone": "+380800303111", "name": "\u041e\u0449\u0430\u0434 \u0410\u043f\u0442\u0435\u043a\u0430", "name:uk": "\u041e\u0449\u0430\u0434 \u0410\u043f\u0442\u0435\u043a\u0430", "opening_hours": "Mo-Fr 10:00-18:00; Sa 10:00-15:00"}}, {"type": "node", "id": 10881075909, "lat": 49.8719949, "lon": 24.0530157, "tags": {"addr:city": "\u041b\u044c\u0432\u0456\u0432", "addr:postcode": "79037", "addr:street": "\u041b\u044c\u0432\u0456\u0432, \u0432\u0443\u043b\u0438\u0446\u044f \u0413\u0440\u0456\u043d\u0447\u0435\u043d\u043a\u0430, 4\u0411", "amenity": "pharmacy", "brand": "\u041f\u043e\u0434\u043e\u0440\u043e\u0436\u043d\u0438\u043a", "brand:wikidata": "Q117706903", "contact:phone": "+380800303111", "description": "\u041f\u043e\u0434\u043e\u0440\u043e\u0436\u043d\u0438\u043a \u2013 \u043d\u0430\u0439\u0431\u0456\u043b\u044c\u0448\u0430 \u043c\u0435\u0440\u0435\u0436\u0430 \u0430\u043f\u0442\u0435\u043a \u0423\u043a\u0440\u0430\u0457\u043d\u0438. \u0410\u0441\u043e\u0440\u0442\u0438\u043c\u0435\u043d\u0442 \u043d\u0430\u043b\u0456\u0447\u0443\u0454 \u043f\u043e\u043d\u0430\u0434 20 000 \u0442\u043e\u0432\u0430\u0440\u0456\u0432. \u0423 \u0430\u043f\u0442\u0435\u0446\u0456 \u0432\u0438 \u043c\u043e\u0436\u0435\u0442\u0435 \u043f\u0440\u0438\u0434\u0431\u0430\u0442\u0438 \u043f\u043e\u0442\u0440\u0456\u0431\u043d\u0456 \u043b\u0456\u043a\u0438, \u043a\u043e\u0441\u043c\u0435\u0442\u0438\u043a\u0443 \u0442\u0430 \u0456\u043d\u0448\u0456 \u043c\u0435\u0434\u0437\u0430\u0441\u043e\u0431\u0438.", "healthcare": "pharmacy", "name": "\u041f\u043e\u0434\u043e\u0440\u043e\u0436\u043d\u0438\u043a", "name:uk": "\u041f\u043e\u0434\u043e\u0440\u043e\u0436\u043d\u0438\u043a", "opening_hours": "Mo-Fr 10:00-18:00; Sa 10:00-15:00", "website": "https://podorozhnyk.com"}}, {"type": "node", "id": 10881076005, "lat": 49.8740979, "lon": 24.0397511, "tags": {"addr:city": "\u041b\u044c\u0432\u0456\u0432", "addr:postcode": "79000", "addr:street": "\u0432\u0443\u043b\u0438\u0446\u044f \u0406\u0432\u0430\u043d\u0430 \u041c\u0438\u043a\u043e\u043b\u0430\u0439\u0447\u0443\u043a\u0430, 9", "amenity": "pharmacy", "brand": "\u041e\u0449\u0430\u0434 \u0410\u043f\u0442\u0435\u043a\u0430", "brand:wikidata": "Q123012679", "contact:phone": "+380800303111", "healthcare": "pharmacy", "name": "\u041e\u0449\u0430\u0434 \u0410\u043f\u0442\u0435\u043a\u0430", "name:uk": "\u041e\u0449\u0430\u0434 \u0430\u043f\u0442\u0435\u043a\u0430", "opening_hours": "Mo-Fr 10:00-18:00; Sa 10:00-15:00"}}, {"type": "node", "id": 10881076909, "lat": 49.8546356, "lon": 24.0221688, "tags": {"addr:city": "\u041b\u044c\u0432\u0456\u0432", "addr:postcode": "79000", "addr:street": "\u043f\u0440\u043e\u0441\u043f. \u0427\u043e\u0440\u043d\u043e\u0432\u043e\u043b\u0430, 45", "amenity": "pharmacy", "brand": "\u041f\u043e\u0434\u043e\u0440\u043e\u0436\u043d\u0438\u043a", "brand:wikidata": "Q117706903", "check_date": "2024-04-25", "contact:phone": "+380800303111", "description": "\u041f\u043e\u0434\u043e\u0440\u043e\u0436\u043d\u0438\u043a \u2013 \u043d\u0430\u0439\u0431\u0456\u043b\u044c\u0448\u0430 \u043c\u0435\u0440\u0435\u0436\u0430 \u0430\u043f\u0442\u0435\u043a \u0423\u043a\u0440\u0430\u0457\u043d\u0438. \u0410\u0441\u043e\u0440\u0442\u0438\u043c\u0435\u043d\u0442 \u043d\u0430\u043b\u0456\u0447\u0443\u0454 \u043f\u043e\u043d\u0430\u0434 20 000 \u0442\u043e\u0432\u0430\u0440\u0456\u0432. \u0423 \u0430\u043f\u0442\u0435\u0446\u0456 \u0432\u0438 \u043c\u043e\u0436\u0435\u0442\u0435 \u043f\u0440\u0438\u0434\u0431\u0430\u0442\u0438 \u043f\u043e\u0442\u0440\u0456\u0431\u043d\u0456 \u043b\u0456\u043a\u0438, \u043a\u043e\u0441\u043c\u0435\u0442\u0438\u043a\u0443 \u0442\u0430 \u0456\u043d\u0448\u0456 \u043c\u0435\u0434\u0437\u0430\u0441\u043e\u0431\u0438.", "healthcare": "pharmacy", "name": "\u041f\u043e\u0434\u043e\u0440\u043e\u0436\u043d\u0438\u043a", "name:uk": "\u0410\u043f\u0442\u0435\u043a\u0430 \u041f\u043e\u0434\u043e\u0440\u043e\u0436\u043d\u0438\u043a", "opening_hours": "Mo-Fr 10:00-18:00; Sa 10:00-15:00", "website": "https://podorozhnyk.com"}}, {"type": "node", "id": 10881076910, "lat": 50.0560125, "lon": 23.9732569, "tags": {"addr:city": "\u0416\u043e\u043b\u043a\u0432\u0430", "addr:postcode": "80300", "addr:street": "\u0416\u043e\u043b\u043a\u0432\u0430, \u0432\u0443\u043b\u0438\u0446\u044f \u041b\u044c\u0432\u0456\u0432\u0441\u044c\u043a\u0430, 22", "amenity": "pharmacy", "contact:phone": "+380800303111", "description": "\u041f\u043e\u0434\u043e\u0440\u043e\u0436\u043d\u0438\u043a \u2013 \u043d\u0430\u0439\u0431\u0456\u043b\u044c\u0448\u0430 \u043c\u0435\u0440\u0435\u0436\u0430 \u0430\u043f\u0442\u0435\u043a \u0423\u043a\u0440\u0430\u0457\u043d\u0438. \u0410\u0441\u043e\u0440\u0442\u0438\u043c\u0435\u043d\u0442 \u043d\u0430\u043b\u0456\u0447\u0443\u0454 \u043f\u043e\u043d\u0430\u0434 20 000 \u0442\u043e\u0432\u0430\u0440\u0456\u0432. \u0423 \u0430\u043f\u0442\u0435\u0446\u0456 \u0432\u0438 \u043c\u043e\u0436\u0435\u0442\u0435 \u043f\u0440\u0438\u0434\u0431\u0430\u0442\u0438 \u043f\u043e\u0442\u0440\u0456\u0431\u043d\u0456 \u043b\u0456\u043a\u0438, \u043a\u043e\u0441\u043c\u0435\u0442\u0438\u043a\u0443 \u0442\u0430 \u0456\u043d\u0448\u0456 \u043c\u0435\u0434\u0437\u0430\u0441\u043e\u0431\u0438.", "name": "\u0410\u043f\u0442\u0435\u043a\u0430 \u041f\u043e\u0434\u043e\u0440\u043e\u0436\u043d\u0438\u043a", "name:uk": "\u0410\u043f\u0442\u0435\u043a\u0430 \u041f\u043e\u0434\u043e\u0440\u043e\u0436\u043d\u0438\u043a", "opening_hours": "Mo-Fr 10:00-18:00; Sa 10:00-15:00", "website": "https://podorozhnyk.com"}}, {"type": "node", "id": 10881077005, "lat": 49.8647171, "lon": 24.0502992, "tags": {"addr:city": "\u041b\u044c\u0432\u0456\u0432", "addr:postcode": "79000", "addr:street": "\u0432\u0443\u043b\u0438\u0446\u044f \u041b\u0438\u043f\u0438\u043d\u0441\u044c\u043a\u043e\u0433\u043e, 60", "amenity": "pharmacy", "contact:phone": "+380800303111", "description": "\u041f\u043e\u0434\u043e\u0440\u043e\u0436\u043d\u0438\u043a \u2013 \u043d\u0430\u0439\u0431\u0456\u043b\u044c\u0448\u0430 \u043c\u0435\u0440\u0435\u0436\u0430 \u0430\u043f\u0442\u0435\u043a \u0423\u043a\u0440\u0430\u0457\u043d\u0438. \u0410\u0441\u043e\u0440\u0442\u0438\u043c\u0435\u043d\u0442 \u043d\u0430\u043b\u0456\u0447\u0443\u0454 \u043f\u043e\u043d\u0430\u0434 20 000 \u0442\u043e\u0432\u0430\u0440\u0456\u0432. \u0423 \u0430\u043f\u0442\u0435\u0446\u0456 \u0432\u0438 \u043c\u043e\u0436\u0435\u0442\u0435 \u043f\u0440\u0438\u0434\u0431\u0430\u0442\u0438 \u043f\u043e\u0442\u0440\u0456\u0431\u043d\u0456 \u043b\u0456\u043a\u0438, \u043a\u043e\u0441\u043c\u0435\u0442\u0438\u043a\u0443 \u0442\u0430 \u0456\u043d\u0448\u0456 \u043c\u0435\u0434\u0437\u0430\u0441\u043e\u0431\u0438.", "name": "\u0410\u043f\u0442\u0435\u043a\u0430 \u041f\u043e\u0434\u043e\u0440\u043e\u0436\u043d\u0438\u043a", "name:uk": "\u0410\u043f\u0442\u0435\u043a\u0430 \u041f\u043e\u0434\u043e\u0440\u043e\u0436\u043d\u0438\u043a", "opening_hours": "Mo-Fr 10:00-18:00; Sa 10:00-15:00", "website": "https://podorozhnyk.com"}}, {"type": "node", "id": 10881078807, "lat": 49.8360391, "lon": 23.8685517, "tags": {"addr:city": "\u0441\u0435\u043b\u043e \u0417\u0438\u043c\u043d\u0430 \u0412\u043e\u0434\u0430", "addr:postcode": "81110", "addr:street": "\u0441\u0435\u043b\u043e \u0417\u0438\u043c\u043d\u0430 \u0412\u043e\u0434\u0430, \u0432\u0443\u043b\u0438\u0446\u044f \u041c\u0438\u0440\u0443, 38", "amenity": "pharmacy", "contact:phone": "+380800303111", "description": "\u041f\u043e\u0434\u043e\u0440\u043e\u0436\u043d\u0438\u043a \u2013 \u043d\u0430\u0439\u0431\u0456\u043b\u044c\u0448\u0430 \u043c\u0435\u0440\u0435\u0436\u0430 \u0430\u043f\u0442\u0435\u043a \u0423\u043a\u0440\u0430\u0457\u043d\u0438. \u0410\u0441\u043e\u0440\u0442\u0438\u043c\u0435\u043d\u0442 \u043d\u0430\u043b\u0456\u0447\u0443\u0454 \u043f\u043e\u043d\u0430\u0434 20 000 \u0442\u043e\u0432\u0430\u0440\u0456\u0432. \u0423 \u0430\u043f\u0442\u0435\u0446\u0456 \u0432\u0438 \u043c\u043e\u0436\u0435\u0442\u0435 \u043f\u0440\u0438\u0434\u0431\u0430\u0442\u0438 \u043f\u043e\u0442\u0440\u0456\u0431\u043d\u0456 \u043b\u0456\u043a\u0438, \u043a\u043e\u0441\u043c\u0435\u0442\u0438\u043a\u0443 \u0442\u0430 \u0456\u043d\u0448\u0456 \u043c\u0435\u0434\u0437\u0430\u0441\u043e\u0431\u0438.", "name": "\u0410\u043f\u0442\u0435\u043a\u0430 \u041f\u043e\u0434\u043e\u0440\u043e\u0436\u043d\u0438\u043a", "name:uk": "\u0410\u043f\u0442\u0435\u043a\u0430 \u041f\u043e\u0434\u043e\u0440\u043e\u0436\u043d\u0438\u043a", "opening_hours": "Mo-Fr 10:00-18:00; Sa 10:00-15:00", "website": "https://podorozhnyk.com"}}, {"type": "node", "id": 10886207707, "lat": 49.9334839, "lon": 23.5658194, "tags": {"addr:housenumber": "10", "addr:street": "\u0432\u0443\u043b. \u0428\u0435\u0432\u0447\u0435\u043d\u043a\u0430", "amenity": "pharmacy", "contact:phone": "0800303111", "description": "\u041f\u043e\u0434\u043e\u0440\u043e\u0436\u043d\u0438\u043a \u2013 \u043d\u0430\u0439\u0431\u0456\u043b\u044c\u0448\u0430 \u043c\u0435\u0440\u0435\u0436\u0430 \u0430\u043f\u0442\u0435\u043a \u0423\u043a\u0440\u0430\u0457\u043d\u0438. \u0410\u0441\u043e\u0440\u0442\u0438\u043c\u0435\u043d\u0442 \u043d\u0430\u043b\u0456\u0447\u0443\u0454 \u043f\u043e\u043d\u0430\u0434 20 000 \u0442\u043e\u0432\u0430\u0440\u0456\u0432. \u0423 \u0430\u043f\u0442\u0435\u0446\u0456 \u0432\u0438 \u043c\u043e\u0436\u0435\u0442\u0435 \u043f\u0440\u0438\u0434\u0431\u0430\u0442\u0438 \u043f\u043e\u0442\u0440\u0456\u0431\u043d\u0456 \u043b\u0456\u043a\u0438, \u043a\u043e\u0441\u043c\u0435\u0442\u0438\u043a\u0443 \u0442\u0430 \u0456\u043d\u0448\u0456 \u043c\u0435\u0434\u0437\u0430\u0441\u043e\u0431\u0438.", "name": "\u0410\u043f\u0442\u0435\u043a\u0430 \u041f\u043e\u0434\u043e\u0440\u043e\u0436\u043d\u0438\u043a", "name:uk": "\u0410\u043f\u0442\u0435\u043a\u0430 \u041f\u043e\u0434\u043e\u0440\u043e\u0436\u043d\u0438\u043a", "opening_hours": "Mo-Fr 10:00-18:00; Sa 10:00-15:00", "website": "https://podorozhnyk.com"}}, {"type": "node", "id": 10886248505, "lat": 49.8440818, "lon": 24.0253596, "tags": {"addr:city": "\u041b\u044c\u0432\u0456\u0432", "addr:street": "\u043f\u0440\u043e\u0441\u043f\u0435\u043a\u0442 \u0421\u0432\u043e\u0431\u043e\u0434\u0438, 49", "amenity": "pharmacy", "brand": "\u041f\u043e\u0434\u043e\u0440\u043e\u0436\u043d\u0438\u043a", "brand:wikidata": "Q117706903", "contact:phone": "+380800303111", "description": "\u041f\u043e\u0434\u043e\u0440\u043e\u0436\u043d\u0438\u043a \u2013 \u043d\u0430\u0439\u0431\u0456\u043b\u044c\u0448\u0430 \u043c\u0435\u0440\u0435\u0436\u0430 \u0430\u043f\u0442\u0435\u043a \u0423\u043a\u0440\u0430\u0457\u043d\u0438. \u0410\u0441\u043e\u0440\u0442\u0438\u043c\u0435\u043d\u0442 \u043d\u0430\u043b\u0456\u0447\u0443\u0454 \u043f\u043e\u043d\u0430\u0434 20 000 \u0442\u043e\u0432\u0430\u0440\u0456\u0432. \u0423 \u0430\u043f\u0442\u0435\u0446\u0456 \u0432\u0438 \u043c\u043e\u0436\u0435\u0442\u0435 \u043f\u0440\u0438\u0434\u0431\u0430\u0442\u0438 \u043f\u043e\u0442\u0440\u0456\u0431\u043d\u0456 \u043b\u0456\u043a\u0438, \u043a\u043e\u0441\u043c\u0435\u0442\u0438\u043a\u0443 \u0442\u0430 \u0456\u043d\u0448\u0456 \u043c\u0435\u0434\u0437\u0430\u0441\u043e\u0431\u0438.", "healthcare": "pharmacy", "name": "\u041f\u043e\u0434\u043e\u0440\u043e\u0436\u043d\u0438\u043a", "name:uk": "\u041f\u043e\u0434\u043e\u0440\u043e\u0436\u043d\u0438\u043a", "opening_hours": "Mo-Fr 10:00-18:00; Sa 10:00-15:00", "website": "https://podorozhnyk.com"}}, {"type": "node", "id": 10886250207, "lat": 49.9209426, "lon": 23.7351519, "tags": {"addr:housenumber": "33", "addr:street": "\u043f\u043b\u043e\u0449\u0430 \u0420\u0438\u043d\u043e\u043a", "amenity": "pharmacy", "name": "\u041f\u043e\u0434\u043e\u0440\u043e\u0436\u043d\u0438\u043a", "opening_hours": "Mo-Su 00:00-23:59"}}, {"type": "node", "id": 10886251805, "lat": 49.8760172, "lon": 23.8785483, "tags": {"addr:housenumber": "19", "addr:street": "\u0432\u0443\u043b. \u0428\u0435\u0432\u0447\u0435\u043d\u043a\u0430", "amenity": "pharmacy", "brand": "\u041f\u043e\u0434\u043e\u0440\u043e\u0436\u043d\u0438\u043a", "brand:wikidata": "Q117706903", "contact:phone": "0800303111", "description": "\u041f\u043e\u0434\u043e\u0440\u043e\u0436\u043d\u0438\u043a \u2013 \u043d\u0430\u0439\u0431\u0456\u043b\u044c\u0448\u0430 \u043c\u0435\u0440\u0435\u0436\u0430 \u0430\u043f\u0442\u0435\u043a \u0423\u043a\u0440\u0430\u0457\u043d\u0438. \u0410\u0441\u043e\u0440\u0442\u0438\u043c\u0435\u043d\u0442 \u043d\u0430\u043b\u0456\u0447\u0443\u0454 \u043f\u043e\u043d\u0430\u0434 20 000 \u0442\u043e\u0432\u0430\u0440\u0456\u0432. \u0423 \u0430\u043f\u0442\u0435\u0446\u0456 \u0432\u0438 \u043c\u043e\u0436\u0435\u0442\u0435 \u043f\u0440\u0438\u0434\u0431\u0430\u0442\u0438 \u043f\u043e\u0442\u0440\u0456\u0431\u043d\u0456 \u043b\u0456\u043a\u0438, \u043a\u043e\u0441\u043c\u0435\u0442\u0438\u043a\u0443 \u0442\u0430 \u0456\u043d\u0448\u0456 \u043c\u0435\u0434\u0437\u0430\u0441\u043e\u0431\u0438.", "healthcare": "pharmacy", "name": "\u041f\u043e\u0434\u043e\u0440\u043e\u0436\u043d\u0438\u043a", "name:uk": "\u0410\u043f\u0442\u0435\u043a\u0430 \u041f\u043e\u0434\u043e\u0440\u043e\u0436\u043d\u0438\u043a", "opening_hours": "Mo-Fr 10:00-18:00; Sa 10:00-15:00", "website": "https://podorozhnyk.com"}}, {"type": "node", "id": 11030293356, "lat": 49.8726134, "lon": 24.0417495, "tags": {"addr:housenumber": "25\u0430", "addr:postcode": "79059", "addr:street": "\u0432\u0443\u043b\u0438\u0446\u044f \u0413\u0435\u0442\u044c\u043c\u0430\u043d\u0430 \u0406\u0432\u0430\u043d\u0430 \u041c\u0430\u0437\u0435\u043f\u0438", "amenity": "pharmacy", "brand": "\u041f\u043e\u0434\u043e\u0440\u043e\u0436\u043d\u0438\u043a", "brand:wikidata": "Q117706903", "healthcare": "pharmacy", "name": "\u041f\u043e\u0434\u043e\u0440\u043e\u0436\u043d\u0438\u043a", "name:uk": "\u041f\u043e\u0434\u043e\u0440\u043e\u0436\u043d\u0438\u043a", "opening_hours": "Mo-Sa 08:00-21:00", "website": "https://podorozhnyk.com"}}, {"type": "node", "id": 11230593306, "lat": 49.916956, "lon": 24.2006876, "tags": {"amenity": "pharmacy", "healthcare": "pharmacy", "operator": "\u041f\u041f \u0412\u041a\u0424 \"\u0421\u043a\u0430\u0439\u0456\u043d\u0432\u0435\u0441\u0442\""}}, {"type": "node", "id": 11282698940, "lat": 49.8691096, "lon": 24.0262616, "tags": {"addr:housenumber": "170-\u041c", "addr:street": "\u0417\u0430\u043c\u0430\u0440\u0441\u0442\u0438\u043d\u0456\u0432\u0441\u044c\u043a\u0430 \u0432\u0443\u043b\u0438\u0446\u044f", "amenity": "pharmacy", "healthcare": "pharmacy"}}, {"type": "node", "id": 11282698941, "lat": 49.8690387, "lon": 24.0258499, "tags": {"addr:housenumber": "170-\u041b", "addr:street": "\u0417\u0430\u043c\u0430\u0440\u0441\u0442\u0438\u043d\u0456\u0432\u0441\u044c\u043a\u0430 \u0432\u0443\u043b\u0438\u0446\u044f", "amenity": "pharmacy", "healthcare": "pharmacy"}}, {"type": "node", "id": 11391683650, "lat": 49.8753906, "lon": 23.9331688, "tags": {"addr:housenumber": "40", "addr:street": "\u0432\u0443\u043b\u0438\u0446\u044f \u0406\u0432\u0430\u043d\u0430 \u0412\u0435\u043b\u0438\u0447\u043a\u043e\u0432\u0441\u044c\u043a\u043e\u0433\u043e", "amenity": "pharmacy", "brand": "\u0411\u0430\u0436\u0430\u0454\u043c\u043e \u0437\u0434\u043e\u0440\u043e\u0432\u02bc\u044f", "brand:wikidata": "Q117404902", "healthcare": "pharmacy", "name": "\u0411\u0430\u0436\u0430\u0454\u043c\u043e \u0437\u0434\u043e\u0440\u043e\u0432\u02bc\u044f", "name:uk": "\u0411\u0430\u0436\u0430\u0454\u043c\u043e \u0437\u0434\u043e\u0440\u043e\u0432\u02bc\u044f", "opening_hours": "Mo-Su 08:00-21:00", "phone": "+380 67 337 0546"}}, {"type": "node", "id": 11847166418, "lat": 49.8569631, "lon": 24.0205838, "tags": {"addr:housenumber": "59", "addr:street": "\u043f\u0440\u043e\u0441\u043f\u0435\u043a\u0442 \u0412\u02bc\u044f\u0447\u0435\u0441\u043b\u0430\u0432\u0430 \u0427\u043e\u0440\u043d\u043e\u0432\u043e\u043b\u0430", "amenity": "pharmacy", "brand": "\u041f\u043e\u0434\u043e\u0440\u043e\u0436\u043d\u0438\u043a", "brand:wikidata": "Q117706903", "check_date": "2025-09-04", "healthcare": "pharmacy", "internet_access": "wlan", "internet_access:fee": "no", "level": "0", "name": "\u041f\u043e\u0434\u043e\u0440\u043e\u0436\u043d\u0438\u043a", "name:uk": "\u041f\u043e\u0434\u043e\u0440\u043e\u0436\u043d\u0438\u043a", "payment:cash": "yes", "payment:mastercard": "yes", "payment:visa": "yes"}}, {"type": "node", "id": 12122707110, "lat": 49.855512, "lon": 24.0250289, "tags": {"amenity": "pharmacy", "name": "Anri-Pharm", "opening_hours": "24/7"}}, {"type": "node", "id": 12712837546, "lat": 49.8724185, "lon": 24.0418141, "tags": {"amenity": "pharmacy", "brand": "\u041e\u0449\u0430\u0434 \u0410\u043f\u0442\u0435\u043a\u0430", "brand:wikidata": "Q123012679", "healthcare": "pharmacy", "name": "\u041e\u0449\u0430\u0434 \u0410\u043f\u0442\u0435\u043a\u0430"}}, {"type": "node", "id": 12977679858, "lat": 49.8701339, "lon": 24.0319115, "tags": {"addr:housenumber": "10", "addr:street": "\u0432\u0443\u043b\u0438\u0446\u044f \u0413\u0435\u0442\u044c\u043c\u0430\u043d\u0430 \u0406\u0432\u0430\u043d\u0430 \u041c\u0430\u0437\u0435\u043f\u0438", "amenity": "pharmacy", "name": "\u0410\u043f\u0442\u0435\u043a\u0430 \u0411\u0430\u043c", "opening_hours": "Mo-Su 08:00-21:00", "phone:UA": "0 800 303 111"}}, {"type": "node", "id": 12997853886, "lat": 49.8421791, "lon": 23.9663813, "tags": {"addr:housenumber": "68\u0430", "addr:street": "\u0428\u0438\u0440\u043e\u043a\u0430 \u0432\u0443\u043b\u0438\u0446\u044f", "amenity": "pharmacy", "brand": "\u041f\u043e\u0434\u043e\u0440\u043e\u0436\u043d\u0438\u043a", "brand:wikidata": "Q117706903", "healthcare": "pharmacy", "name": "\u041f\u043e\u0434\u043e\u0440\u043e\u0436\u043d\u0438\u043a", "opening_hours": "Mo-Su 09:00-20:00"}}, {"type": "node", "id": 12997853890, "lat": 49.8441731, "lon": 24.0122535, "tags": {"addr:street": "\u0432\u0443\u043b\u0438\u0446\u044f \u0422\u0430\u0440\u0430\u0441\u0430 \u0428\u0435\u0432\u0447\u0435\u043d\u043a\u0430", "amenity": "pharmacy", "brand": "Anri-Pharm", "brand:wikidata": "Q125670620", "healthcare": "pharmacy", "name": "Anri-Pharm", "opening_hours": "24/7"}}, {"type": "node", "id": 12998780619, "lat": 49.9797448, "lon": 24.0776405, "tags": {"addr:housenumber": "6", "addr:street": "\u043f\u043b\u043e\u0449\u0430 \u041d\u0435\u0437\u0430\u043b\u0435\u0436\u043d\u043e\u0441\u0442\u0456", "amenity": "pharmacy", "name": "\u041f\u043e\u0434\u043e\u0440\u043e\u0436\u043d\u0438\u043a", "opening_hours": "Mo-Fr 08:00-20:00; Sa 08:00-18:00; Su 09:00-18:00"}}, {"type": "node", "id": 13074110648, "lat": 49.8667215, "lon": 24.0353189, "tags": {"addr:housenumber": "29", "addr:street": "\u0432\u0443\u043b\u0438\u0446\u044f \u0410\u0432\u0440\u0430\u0430\u043c\u0430 \u041b\u0456\u043d\u043a\u043e\u043b\u044c\u043d\u0430", "amenity": "pharmacy", "healthcare": "pharmacy", "name": "\u2116224", "opening_hours": "Mo-Su 08:00-21:00", "operator": "\u0422\u041e\u0412 \"\u0410\u0439 \u041f\u0456 \u041c\u0435\u0434\"", "wheelchair": "yes"}}, {"type": "node", "id": 13075764423, "lat": 49.8627397, "lon": 24.0267534, "tags": {"addr:housenumber": "132", "addr:street": "\u0417\u0430\u043c\u0430\u0440\u0441\u0442\u0438\u043d\u0456\u0432\u0441\u044c\u043a\u0430 \u0432\u0443\u043b\u0438\u0446\u044f", "amenity": "pharmacy", "healthcare": "pharmacy", "name": "\u0410\u043f\u0442\u0435\u043a\u0430 \u211628", "opening_hours": "Mo-Su 08:00-21:00", "operator": "\u0422\u041e\u0412 \"\u0422\u0440\u043e\u044f \u0424\u0430\u0440\u043c\"", "phone": "+380 80 050 0512"}}, {"type": "node", "id": 13114133986, "lat": 49.8472049, "lon": 23.9666547, "tags": {"amenity": "pharmacy"}}, {"type": "way", "id": 215404674, "nodes": [2248283428, 7770959469, 2248283432, 7772337971, 2248283434, 2248283430, 2248283428], "tags": {"amenity": "pharmacy", "brand": "3\u0456", "brand:en": "3i", "brand:uk": "3\u0456", "brand:wikidata": "Q117705687", "building": "yes", "healthcare": "pharmacy", "name": "3\u0456", "name:en": "3i", "name:uk": "3\u0456"}}, {"type": "way", "id": 223529664, "nodes": [1641727411, 2324191912, 2324191907, 2324191909, 2324191910, 1641727402, 1641727411], "tags": {"amenity": "pharmacy", "building": "pharmacy", "dispensing": "yes", "healthcare": "pharmacy"}}, {"type": "way", "id": 234513276, "nodes": [2427563904, 2427563902, 2427563866, 2427563867, 2427563851, 2427563852, 2427563904], "tags": {"amenity": "pharmacy", "building": "yes"}}, {"type": "way", "id": 339141984, "nodes": [3463297201, 2427615119, 3435590885, 3463297202, 3463297201], "tags": {"amenity": "pharmacy", "building:part": "yes", "healthcare": "pharmacy", "name": "\u0417\u0435\u043b\u0435\u043d\u0430 \u0430\u043f\u0442\u0435\u043a\u0430", "name:uk": "\u0417\u0435\u043b\u0435\u043d\u0430 \u0430\u043f\u0442\u0435\u043a\u0430"}}, {"type": "way", "id": 366108269, "nodes": [3700959958, 3700959959, 3700959960, 2407668833, 3700959958], "tags": {"amenity": "pharmacy", "building": "yes", "name": "\u0410\u0442\u0435\u043a\u0430", "name:uk": "\u0410\u0442\u0435\u043a\u0430"}}, {"type": "way", "id": 862465476, "nodes": [8035303278, 3207427986, 8035303279, 8035303280, 8035303281, 8035303278], "tags": {"amenity": "pharmacy", "building": "yes", "dispensing": "yes", "healthcare": "pharmacy", "name": "\u0410\u043f\u0442\u0435\u043a\u0430", "name:uk": "\u0410\u043f\u0442\u0435\u043a\u0430"}}]}