{"version": 0.6, "generator": "Overpass API 0.7.62.8 e802775f", "osm3s": {"timestamp_osm_base": "2025-10-06T08:41:25Z", "copyright": "The data included in this document is from www.openstreetmap.org. The data is made available under ODbL."}, "elements": [{"type": "node", "id": 4875346921, "lat": 40.8532503, "lon": 26.6334038, "tags": {"amenity": "pharmacy", "healthcare": "pharmacy", "name": "Kan\u0131k Eczanesi", "name:en": "Kan\u0131k Pharmacy", "opening_hours": "Mo-Su 08:00-17:00"}}, {"type": "node", "id": 5172144967, "lat": 40.8531538, "lon": 26.6324869, "tags": {"addr:city": "Edirne", "addr:district": "Ke\u015fan", "addr:housenumber": "25", "addr:neighbourhood": "B\u00fcy\u00fck Cami Mah.", "addr:postcode": "22800", "addr:street": "Demirciler Caddesi", "amenity": "pharmacy", "healthcare": "pharmacy", "name": "Eczane G\u00f6lemen"}}, {"type": "node", "id": 5509608171, "lat": 40.8499762, "lon": 26.6364982, "tags": {"amenity": "pharmacy", "healthcare": "pharmacy", "name": "Akar Eczanesi"}}, {"type": "node", "id": 5509608173, "lat": 40.8504172, "lon": 26.6374535, "tags": {"amenity": "pharmacy", "healthcare": "pharmacy", "name": "Toker Eczanesi"}}, {"type": "node", "id": 5509608175, "lat": 40.8487779, "lon": 26.6375475, "tags": {"amenity": "pharmacy", "healthcare": "pharmacy", "name": "\u00d6zt\u00fcrk Eczanesi"}}, {"type": "node", "id": 5509608176, "lat": 40.8486379, "lon": 26.6378532, "tags": {"amenity": "pharmacy", "healthcare": "pharmacy", "name": "T\u00fcrkkal Eczanesi"}}, {"type": "node", "id": 5509608178, "lat": 40.8487363, "lon": 26.6376427, "tags": {"amenity": "pharmacy", "healthcare": "pharmacy", "name": "Sayan Eczanesi"}}, {"type": "node", "id": 5509608179, "lat": 40.8487099, "lon": 26.6377285, "tags": {"amenity": "pharmacy", "healthcare": "pharmacy", "name": "Uysal Eczanesi"}}, {"type": "node", "id": 5881332813, "lat": 40.8608095, "lon": 26.6299616, "tags": {"amenity": "pharmacy", "healthcare": "pharmacy", "name": "P\u0131nar Eczanesi"}}, {"type": "node", "id": 5881332814, "lat": 40.8606031, "lon": 26.6300179, "tags": {"amenity": "pharmacy", "healthcare": "pharmacy", "name": "Simge Eczanesi"}}, {"type": "node", "id": 5881994921, "lat": 40.8551873, "lon": 26.6323908, "tags": {"addr:city": "Edirne", "addr:district": "Ke\u015fan", "addr:housenumber": "32", "addr:neighbourhood": "B\u00fcy\u00fck Cami Mah.", "addr:postcode": "22800", "addr:street": "Fevzi \u00c7akmak Caddesi", "amenity": "pharmacy", "healthcare": "pharmacy", "name": "Merkez Eczane", "phone": "(0284) 714 55 79"}}, {"type": "node", "id": 6068598533, "lat": 40.8522263, "lon": 26.6312737, "tags": {"amenity": "pharmacy", "healthcare": "pharmacy", "name": "Meri\u00e7 Eczanesi", "name:en": "Meri\u00e7 Pharmacy", "opening_hours": "Mo-Su 08:00-17:00", "phone": "+90 284 714 2556"}}, {"type": "node", "id": 6068598534, "lat": 40.8516991, "lon": 26.6321282, "tags": {"amenity": "pharmacy", "healthcare": "pharmacy", "name": "Ebru Eczanesi", "name:en": "Kan\u0131k Pharmacy", "opening_hours": "Mo-Su 08:00-17:00", "phone": "+90 284 715 4004"}}, {"type": "node", "id": 6391303385, "lat": 40.8494162, "lon": 26.627796, "tags": {"addr:city": "Edirne", "addr:district": "Ke\u015fan", "addr:housenumber": "25/A", "addr:neighbourhood": "A\u015fa\u011f\u0131 Zaferiye Mahallesi", "addr:postcode": "22800", "addr:street": "Mithat G\u00fcc\u00fcyeter Caddesi", "amenity": "pharmacy", "healthcare": "pharmacy", "name": "Deniz Eczanesi", "name:en": "Deniz Pharmacy", "opening_hours": "Mo-Su 08:30-18:00", "phone": "(0284) 714 00 13"}}, {"type": "node", "id": 6393639158, "lat": 40.8536927, "lon": 26.6311535, "tags": {"addr:city": "Edirne", "addr:district": "Ke\u015fan", "addr:housenumber": "31", "addr:neighbourhood": "B\u00fcy\u00fck Cami Mah.", "addr:postcode": "22800", "addr:street": "\u0130smet \u0130n\u00f6n\u00fc Caddesi", "amenity": "pharmacy", "healthcare": "pharmacy", "name": "Yeni Eczane", "name:en": "Yeni Pharmacy", "opening_hours": "Mo-Su 08:00-17:00", "phone": "(0284) 714 44 30"}}, {"type": "node", "id": 6393639159, "lat": 40.8540227, "lon": 26.6320652, "tags": {"addr:city": "Edirne", "addr:district": "Ke\u015fan", "addr:housenumber": "31", "addr:neighbourhood": "B\u00fcy\u00fck Cami Mah.", "addr:postcode": "22800", "addr:street": "Bak\u0131rc\u0131lar Sokak", "amenity": "pharmacy", "healthcare": "pharmacy", "name": "Murat Eczanesi", "name:en": "Murat Pharmacy", "opening_hours": "Mo-Su 08:00-17:00", "phone": "+90 284 714 10 44"}}, {"type": "node", "id": 6393639160, "lat": 40.8548501, "lon": 26.6315563, "tags": {"addr:city": "Edirne", "addr:district": "Ke\u015fan", "addr:housenumber": "1", "addr:neighbourhood": "B\u00fcy\u00fck Cami Mah.", "addr:postcode": "22800", "addr:street": "Fevzi \u00c7akmak Caddesi", "amenity": "pharmacy", "healthcare": "pharmacy", "name": "U\u011fur Eczanesi", "name:en": "U\u011fur Pharmacy", "opening_hours": "Mo-Su 08:00-17:00", "phone": "(0284) 714 74 92"}}, {"type": "node", "id": 6393847005, "lat": 40.8528036, "lon": 26.6318913, "tags": {"addr:city": "Edirne", "addr:district": "Ke\u015fan", "addr:housenumber": "2", "addr:neighbourhood": "B\u00fcy\u00fck Cami Mah.", "addr:postcode": "22800", "addr:street": "Demirciler Caddesi", "amenity": "pharmacy", "healthcare": "pharmacy", "name": "\u00d6m\u00fcr Eczanesi", "name:en": "\u00d6m\u00fcr Pharmacy", "opening_hours": "Mo-Su 08:00-17:00"}}, {"type": "node", "id": 6393847006, "lat": 40.8529376, "lon": 26.6321162, "tags": {"addr:city": "Edirne", "addr:district": "Ke\u015fan", "addr:housenumber": "11", "addr:neighbourhood": "B\u00fcy\u00fck Cami Mah.", "addr:postcode": "22800", "addr:street": "Demirciler Caddesi", "amenity": "pharmacy", "healthcare": "pharmacy", "name": "G\u00fcven Eczanesi", "name:en": "G\u00fcven Pharmacy", "opening_hours": "Mo-Su 08:00-17:00", "phone": "(0284) 714 20 74"}}, {"type": "node", "id": 6394214892, "lat": 40.8531191, "lon": 26.6324045, "tags": {"addr:city": "Edirne", "addr:district": "Ke\u015fan", "addr:housenumber": "24", "addr:neighbourhood": "B\u00fcy\u00fck Cami Mah.", "addr:postcode": "22800", "addr:street": "Demirciler Caddesi", "amenity": "pharmacy", "healthcare": "pharmacy", "name": "Birg\u00fcl Eczanesi", "name:en": "Birg\u00fcl Pharmacy", "opening_hours": "Mo-Su 08:00-17:00", "phone": "+90 284 714 84 20"}}, {"type": "node", "id": 8684982181, "lat": 40.8490455, "lon": 26.627839, "tags": {"addr:city": "Edirne", "addr:district": "Ke\u015fan", "addr:housenumber": "31", "addr:neighbourhood": "A\u015fa\u011f\u0131 Zaferiye Mahallesi", "addr:postcode": "22800", "addr:street": "Mithat G\u00fcc\u00fcyeter Caddesi", "amenity": "pharmacy", "healthcare": "pharmacy", "name": "Kuran Eczanesi", "phone": "+90 284 715 1550"}}, {"type": "node", "id": 11518272771, "lat": 40.8333888, "lon": 26.2941959, "tags": {"amenity": "pharmacy", "name": "Karpuzlu Eczanesi", "phone": "+90 284 696 6488"}}, {"type": "node", "id": 11518272775, "lat": 40.8595021, "lon": 26.6190109, "tags": {"amenity": "pharmacy", "healthcare": "pharmacy", "name": "\u0130rem Eczanesi", "phone": "+90 284 714 5949"}}, {"type": "node", "id": 11518272871, "lat": 40.8410033, "lon": 26.6293917, "tags": {"amenity": "pharmacy", "healthcare": "pharmacy", "name": "T\u00fcrkkal Eczanesi", "phone": "+90 284 714 9344"}}, {"type": "node", "id": 11518272872, "lat": 40.8522626, "lon": 26.6308608, "tags": {"amenity": "pharmacy", "healthcare": "pharmacy", "name": "Hayat Eczanesi", "phone": "+90 284 714 5548"}}]}