{"version": 0.6, "generator": "Overpass API 0.7.62.8 e802775f", "osm3s": {"timestamp_osm_base": "2025-10-06T08:53:43Z", "copyright": "The data included in this document is from www.openstreetmap.org. The data is made available under ODbL."}, "elements": [{"type": "node", "id": 4464017089, "lat": 41.7363283, "lon": 27.2208663, "tags": {"addr:postcode": "39100", "addr:street": "Karaka\u015f Bey Sokak", "amenity": "pharmacy", "healthcare": "pharmacy", "name": "Sa\u011fl\u0131k Eczanesi", "opening_hours": "Mo-Sa 08:30-18:00", "operator": "Adnan B\u0131y\u0131kl\u0131", "phone": "+90 288 214 3168"}}, {"type": "node", "id": 5509607730, "lat": 41.5742409, "lon": 27.7610886, "tags": {"amenity": "pharmacy", "healthcare": "pharmacy", "name": "Ayd\u0131n Eczanesi"}}, {"type": "node", "id": 8017182329, "lat": 41.5731576, "lon": 27.7666476, "tags": {"amenity": "pharmacy", "healthcare": "pharmacy", "name": "Eczane"}}, {"type": "node", "id": 8017211421, "lat": 41.5716697, "lon": 27.7689358, "tags": {"amenity": "pharmacy", "healthcare": "pharmacy", "name": "Eski Eczane"}}, {"type": "node", "id": 10023855823, "lat": 41.7432276, "lon": 27.2253476, "tags": {"amenity": "pharmacy", "dispensing": "yes", "healthcare": "pharmacy", "name": "An\u0131l Eczanesi", "phone": "+90 288 212 4646"}}, {"type": "node", "id": 11096602313, "lat": 41.7375583, "lon": 27.2260077, "tags": {"addr:neighbourhood": "AKALAR", "addr:street": "Yah\u015fi Bey Sokak", "amenity": "pharmacy", "dispensing": "yes", "drive_through": "yes", "healthcare": "pharmacy", "name": "Alkan Eczanesi", "opening_hours": "Mo-Sa 08:00-18:00", "phone": "+90 288 212 3111"}}, {"type": "node", "id": 11096602314, "lat": 41.7365634, "lon": 27.2255337, "tags": {"addr:neighbourhood": "AKALAR", "addr:street": "T\u0131rnova Caddesi", "amenity": "pharmacy", "healthcare": "pharmacy", "name": "Selda Eczanesi", "opening_hours": "Mo-Sa 08:00-18:00", "phone": "+90 288 212 5210"}}, {"type": "node", "id": 11337051855, "lat": 41.7339681, "lon": 27.2213568, "tags": {"amenity": "pharmacy", "healthcare": "pharmacy", "name": "Bar\u0131\u015f Eczanesi", "phone": "+90 288 214 7406"}}, {"type": "node", "id": 11601268469, "lat": 41.6243982, "lon": 27.5178412, "tags": {"addr:city": "K\u0131rklareli", "addr:district": "P\u0131narhisar", "addr:housenumber": "2G", "addr:neighbourhood": "Camiikebir", "addr:postcode": "39300", "addr:street": "Erol Olga\u00e7l\u0131 Caddesi", "amenity": "pharmacy", "healthcare": "pharmacy", "name": "Dalca Eczanesi", "phone": "+90 288 615 1007"}}, {"type": "node", "id": 11773733370, "lat": 41.7305964, "lon": 27.2230458, "tags": {"amenity": "pharmacy", "healthcare": "pharmacy", "name": "Y\u0131lmaz Eczanesi", "phone": "+90 288 212 1059"}}, {"type": "node", "id": 11773733371, "lat": 41.7321283, "lon": 27.2154755, "tags": {"amenity": "pharmacy", "healthcare": "pharmacy", "name": "\u00d6zlem Eczanesi", "phone": "+90 288 212 2030"}}, {"type": "node", "id": 11773733372, "lat": 41.7326052, "lon": 27.2285475, "tags": {"amenity": "pharmacy", "name": "Duygu Eczanesi", "phone": "+90 288 212 1166"}}, {"type": "node", "id": 11773733373, "lat": 41.736041, "lon": 27.2246923, "tags": {"amenity": "pharmacy", "healthcare": "pharmacy", "name": "Trakya Eczanesi", "phone": "+90 288 214 1568"}}, {"type": "node", "id": 11773733374, "lat": 41.7365565, "lon": 27.219882, "tags": {"amenity": "pharmacy", "healthcare": "pharmacy", "name": "Okumu\u015f Eczanesi", "phone": "+90 288 212 4420"}}, {"type": "node", "id": 11773733375, "lat": 41.7366745, "lon": 27.2196026, "tags": {"amenity": "pharmacy", "healthcare": "pharmacy", "name": "Damla Eczanesi", "phone": "+90 288 212 6978"}}, {"type": "node", "id": 11773733376, "lat": 41.7367088, "lon": 27.2194842, "tags": {"amenity": "pharmacy", "healthcare": "pharmacy", "name": "Ar\u0131 Eczanesi", "phone": "+90 288 214 2029"}}, {"type": "node", "id": 11773733377, "lat": 41.7369881, "lon": 27.2166732, "tags": {"amenity": "pharmacy", "healthcare": "pharmacy", "name": "Ba\u015fak Eczanesi", "phone": "+90 288 214 3229"}}, {"type": "node", "id": 11773733378, "lat": 41.7370105, "lon": 27.2164518, "tags": {"amenity": "pharmacy", "healthcare": "pharmacy", "name": "\u0130kizler Eczanesi"}}, {"type": "node", "id": 11773733379, "lat": 41.7434956, "lon": 27.2250238, "tags": {"amenity": "pharmacy", "healthcare": "pharmacy", "name": "Serkan Eczanesi", "phone": "+90 288 212 4962"}}, {"type": "node", "id": 11773736369, "lat": 41.7269231, "lon": 27.222024, "tags": {"amenity": "pharmacy", "healthcare": "pharmacy", "name": "Demet Dalca Eczanesi", "phone": "+90 288 214 1002"}}, {"type": "node", "id": 11773736370, "lat": 41.7292498, "lon": 27.2207901, "tags": {"addr:housenumber": "149/A", "addr:street": "Cumhuriyet Caddesi", "amenity": "pharmacy", "healthcare": "pharmacy", "name": "Tunca Eczanesi", "phone": "+90 288 212 8645"}}, {"type": "node", "id": 11773736371, "lat": 41.7294426, "lon": 27.220749, "tags": {"addr:housenumber": "154/G", "amenity": "pharmacy", "healthcare": "pharmacy", "name": "G\u00f6n\u00fcl Eczanesi", "phone": "+90 288 214 6066"}}, {"type": "node", "id": 11773736372, "lat": 41.732061, "lon": 27.2151811, "tags": {"amenity": "pharmacy", "healthcare": "pharmacy", "name": "Bulvar Eczanesi", "phone": "+90 288 212 3546"}}, {"type": "node", "id": 11773736373, "lat": 41.7358674, "lon": 27.2243476, "tags": {"amenity": "pharmacy", "healthcare": "pharmacy", "name": "Meydan Eczanesi", "phone": "+90 288 214 3334"}}, {"type": "node", "id": 11773736374, "lat": 41.7350823, "lon": 27.2235974, "tags": {"amenity": "pharmacy", "healthcare": "pharmacy", "name": "G\u00fcne\u015f Eczanesi", "phone": "+90 288 212 2277"}}, {"type": "node", "id": 11773736375, "lat": 41.7360849, "lon": 27.2226993, "tags": {"amenity": "pharmacy", "healthcare": "pharmacy", "name": "Balkan Eczanesi", "phone": "+90 288 212 5458"}}, {"type": "node", "id": 11773736376, "lat": 41.7359107, "lon": 27.2189811, "tags": {"amenity": "pharmacy", "healthcare": "pharmacy", "name": "\u00c7isem", "name:tr": "\u00c7isem Arslan Eczanesi", "phone": "+90 288 212 4400"}}, {"type": "node", "id": 11773736377, "lat": 41.7366368, "lon": 27.219406, "tags": {"amenity": "pharmacy", "healthcare": "pharmacy", "name": "Sema Eczanesi", "phone": "+90 288 214 7314"}}, {"type": "node", "id": 11773736378, "lat": 41.7370291, "lon": 27.2186792, "tags": {"amenity": "pharmacy", "healthcare": "pharmacy", "name": "Deniz Eczanesi", "phone": "+90 288 214 6030"}}, {"type": "node", "id": 11773736379, "lat": 41.7477311, "lon": 27.2183136, "tags": {"amenity": "pharmacy", "healthcare": "pharmacy", "name": "Bask\u0131n Eczanesi", "phone": "+90 288 212 9145"}}, {"type": "node", "id": 11773736380, "lat": 41.743186, "lon": 27.2254548, "tags": {"amenity": "pharmacy", "healthcare": "pharmacy", "name": "Onur Eczanesi", "phone": "+90 288 212 3156"}}, {"type": "node", "id": 11773736381, "lat": 41.743413, "lon": 27.2252721, "tags": {"amenity": "pharmacy", "healthcare": "pharmacy", "name": "Atlas Eczanesi", "phone": "+90 288 214 0071"}}, {"type": "node", "id": 11773736469, "lat": 41.7295349, "lon": 27.2208258, "tags": {"addr:housenumber": "154", "addr:street": "Cumhuriyet Caddesi", "amenity": "pharmacy", "healthcare": "pharmacy", "name": "Zorlu Eczanesi", "phone": "+90 288 212 2768"}}, {"type": "node", "id": 11773736470, "lat": 41.7345277, "lon": 27.2246355, "tags": {"amenity": "pharmacy", "healthcare": "pharmacy", "name": "Esin Eczanesi", "phone": "+90 288 214 4480"}}, {"type": "node", "id": 11773737669, "lat": 41.7302212, "lon": 27.2124712, "tags": {"amenity": "pharmacy", "name": "\u015eifa Eczanesi", "phone": "+90 288 214 2535"}}, {"type": "node", "id": 11773737670, "lat": 41.732488, "lon": 27.2287993, "tags": {"amenity": "pharmacy", "name": "Esra Eczanesi", "phone": "+90 288 212 2044"}}, {"type": "node", "id": 11773737671, "lat": 41.735725, "lon": 27.218451, "tags": {"amenity": "pharmacy", "name": "Jale Eczanesi", "phone": "+90 288 212 7993"}}, {"type": "node", "id": 11773737769, "lat": 41.7371253, "lon": 27.2184766, "tags": {"amenity": "pharmacy", "healthcare": "pharmacy", "name": "\u0130nci Eczanesi", "phone": "+90 288 214 3249"}}, {"type": "node", "id": 11773741571, "lat": 41.659274, "lon": 27.4722328, "tags": {"amenity": "pharmacy", "healthcare": "pharmacy", "name": "Kaynarca Eczanesi", "phone": "+90 288 645 7956"}}, {"type": "node", "id": 11773741770, "lat": 41.6258659, "lon": 27.51578, "tags": {"amenity": "pharmacy", "healthcare": "pharmacy", "name": "Yeni \u00d6zen Eczanesi", "phone": "+90 288 615 2606"}}, {"type": "node", "id": 11773753369, "lat": 41.7362035, "lon": 27.4007303, "tags": {"amenity": "pharmacy", "healthcare": "pharmacy", "name": "Hakan Eczanesi", "phone": "+90 288 273 1515"}}, {"type": "node", "id": 11773757369, "lat": 41.6250106, "lon": 27.5156456, "tags": {"amenity": "pharmacy", "healthcare": "pharmacy", "name": "Ayten Eczanesi", "phone": "+90 288 615 3033"}}, {"type": "node", "id": 11773757370, "lat": 41.6251255, "lon": 27.5168459, "tags": {"amenity": "pharmacy", "healthcare": "pharmacy", "name": "Merkez Eczanesi", "phone": "+90 288 615 1206"}}, {"type": "node", "id": 11773757469, "lat": 41.6252395, "lon": 27.516727, "tags": {"amenity": "pharmacy", "healthcare": "pharmacy", "name": "\u00d6zgiray Eczanesi", "phone": "+90 288 615 2221"}}, {"type": "node", "id": 12015970828, "lat": 41.5744621, "lon": 27.7613697, "tags": {"amenity": "pharmacy", "healthcare": "pharmacy", "name": "Alp Eczanesi"}}, {"type": "node", "id": 13057796818, "lat": 41.7231528, "lon": 27.2089324, "tags": {"amenity": "pharmacy", "name": "Hakan Eczanesi"}}]}