{"version": 0.6, "generator": "Overpass API 0.7.62.8 e802775f", "osm3s": {"timestamp_osm_base": "2025-10-06T08:59:45Z", "copyright": "The data included in this document is from www.openstreetmap.org. The data is made available under ODbL."}, "elements": [{"type": "node", "id": 823389239, "lat": 54.6494438, "lon": 23.0361409, "tags": {"addr:city": "Vilkavi\u0161kis", "addr:contact": "yes", "addr:housenumber": "1", "addr:postcode": "70101", "addr:street": "J. Basanavi\u010diaus a.", "amenity": "pharmacy", "name": "Eurovaistin\u0117", "opening_hours": "08:00-22:00"}}, {"type": "node", "id": 1342036749, "lat": 54.3635438, "lon": 22.8683403, "tags": {"addr:city": "Wi\u017cajny", "addr:housenumber": "14", "addr:postcode": "16-407", "addr:street": "Sejne\u0144ska", "amenity": "pharmacy", "dispensing": "yes", "drive_through": "no", "healthcare": "pharmacy", "name": "Apteka (J. Ga\u0142a\u017cyn)", "opening_hours": "Mo-Fr 08:30-16:00", "ref:csioz": "1025162"}}, {"type": "node", "id": 1509720817, "lat": 54.4146601, "lon": 23.2237761, "tags": {"addr:city": "Kalvarija", "addr:contact": "yes", "addr:housenumber": "14", "addr:street": "Vytauto g.", "amenity": "pharmacy", "brand": "Eurovaistin\u0117", "brand:wikidata": "Q267205", "healthcare": "pharmacy", "name": "Eurovaistin\u0117", "opening_hours": "Mo-Fr 08:00-19:00; Sa 08:00-15:00; Su 08:00-14:00"}}, {"type": "node", "id": 1612961046, "lat": 54.4130206, "lon": 23.2283022, "tags": {"addr:city": "Kalvarija", "addr:contact": "yes", "addr:housenumber": "41", "addr:postcode": "69214", "addr:street": "Vasario 16-osios g.", "amenity": "pharmacy", "healthcare": "pharmacy", "name": "UAB Venclovien\u0117s vaistin\u0117", "website": "https://www.100metu.lt/"}}, {"type": "node", "id": 1625459281, "lat": 54.6525417, "lon": 23.0358895, "tags": {"addr:city": "Vilkavi\u0161kis", "addr:contact": "yes", "addr:housenumber": "15", "addr:postcode": "70190", "addr:street": "K\u0119stu\u010dio g.", "amenity": "pharmacy", "name": "Camelia", "opening_hours": "Mo-Fr 08:00-19:00; Sa 08:00-13:00"}}, {"type": "node", "id": 1625459282, "lat": 54.6513788, "lon": 23.0376113, "tags": {"addr:city": "Vilkavi\u0161kis", "addr:contact": "yes", "addr:door": "28", "addr:housenumber": "13", "addr:street": "Gedimino g.", "amenity": "pharmacy", "email": "vilkaviskis@gintarine.lt", "name": "Gintarin\u0117 vaistin\u0117", "opening_hours": "Mo-Fr 07:30-19:30; Sa-Su 08:00-15:00", "phone": "+370 342 20093", "website": "https://www.gintarine.lt/"}}, {"type": "node", "id": 1625459283, "lat": 54.6585087, "lon": 23.0294607, "tags": {"addr:city": "Vilkavi\u0161kis", "addr:contact": "yes", "addr:housenumber": "61", "addr:postcode": "70111", "addr:street": "Nepriklausomyb\u0117s g.", "amenity": "pharmacy", "email": "vilkaviskis2@nvaistine.lt", "name": "Norfos vaistin\u0117", "opening_hours": "Mo-Sa 08:00-20:00; Su 09:00-16:00", "phone": "+370 686 11593", "website": "https://www.nvaistine.lt/"}}, {"type": "node", "id": 1625483323, "lat": 54.6466137, "lon": 23.0398661, "tags": {"addr:city": "Vilkavi\u0161kis", "addr:contact": "yes", "addr:housenumber": "2", "addr:street": "J. Basanavi\u010diaus g.", "amenity": "pharmacy", "name": "Camelia"}}, {"type": "node", "id": 1625545275, "lat": 54.656834, "lon": 23.0351553, "tags": {"addr:city": "Vilkavi\u0161kis", "addr:contact": "yes", "addr:housenumber": "47", "addr:postcode": "70158", "addr:street": "Vienyb\u0117s g.", "amenity": "pharmacy", "name": "Eurovaistin\u0117", "opening_hours": "Mo-Fr 09:30-17:30; Sa 09:00-14:00"}}, {"type": "node", "id": 1662208859, "lat": 54.4143336, "lon": 23.2256185, "tags": {"addr:city": "Kalvarija", "addr:contact": "yes", "addr:housenumber": "2", "addr:postcode": "69217", "addr:street": "Vytauto g.", "amenity": "pharmacy", "brand": "Camelia", "brand:wikidata": "Q15867413", "healthcare": "pharmacy", "name": "Camelia"}}, {"type": "node", "id": 3663032311, "lat": 54.6486556, "lon": 23.034433, "tags": {"addr:city": "Vilkavi\u0161kis", "addr:contact": "yes", "addr:housenumber": "20", "addr:postcode": "70125", "addr:street": "Vytauto g.", "amenity": "pharmacy", "healthcare": "pharmacy", "name": "Vilj\u016bris", "opening_hours": "Mo-Fr 08:00-17:00; Sa 08:00-14:00"}}, {"type": "node", "id": 3914398820, "lat": 54.6506746, "lon": 23.0317102, "tags": {"addr:city": "Vilkavi\u0161kis", "addr:contact": "yes", "addr:housenumber": "2", "addr:postcode": "70103", "addr:street": "P. Ja\u0161insko g.", "amenity": "pharmacy", "name": "Camelia", "opening_hours": "Mo-Fr 07:30-17:00; Sa 08:00-13:00; Su off", "operator": "UAB \"Nemuno vaistin\u0117\""}}, {"type": "node", "id": 5022728264, "lat": 54.5608773, "lon": 23.3555864, "tags": {"addr:city": "Marijampol\u0117", "addr:contact": "yes", "addr:housenumber": "3A", "addr:postcode": "68256", "addr:street": "Dariaus ir Gir\u0117no g.", "amenity": "pharmacy", "contact:facebook": "https://www.facebook.com/BENUvaistine", "contact:instagram": "https://www.instagram.com/benu_vaistine/", "email": "benu.7259@benu.lt", "name": "Benu", "opening_hours": "Mo-Fr 10:00-20:00; Sa 09:00-20:00; Su 10:00-18:00", "operator": "BENU Vaistin\u0117 UAB", "phone": "+370 687 32810", "website": "https://www.benu.lt"}}, {"type": "node", "id": 6131352244, "lat": 54.5598142, "lon": 23.3550943, "tags": {"addr:city": "Marijampol\u0117", "addr:contact": "yes", "addr:housenumber": "6", "addr:postcode": "68176", "addr:street": "Dariaus ir Gir\u0117no g.", "amenity": "pharmacy", "brand": "Eurovaistin\u0117", "brand:wikidata": "Q267205", "brand:wikipedia": "en:Euroapotheca", "dispensing": "yes", "healthcare": "pharmacy", "name": "Eurovaistin\u0117", "opening_hours": "Mo-Fr 08:00-08:00, 22:00-22:00; Sa-Su 08:00-21:00", "website": "https://www.eurovaistine.lt/"}}, {"type": "node", "id": 7744258985, "lat": 54.5457302, "lon": 23.3459396, "tags": {"addr:postcode": "68296", "amenity": "pharmacy", "brand": "Camelia", "brand:wikidata": "Q15867413", "brand:wikipedia": "lt:Nemuno vaistin\u0117", "email": "evaistine@camelia.lt", "name": "Camelia", "opening_hours": "Mo-Fr 08:00-19:00; Sa 09:00-17:00; Su 09:00-15:00", "phone": "+370 343 91105", "website": "https://camelia.lt/"}}, {"type": "node", "id": 7801688285, "lat": 54.5550154, "lon": 23.3464321, "tags": {"addr:postcode": "68298", "amenity": "pharmacy", "name": "Gintarin\u0117 vaistin\u0117", "opening_hours": "Mo-Fr 08:00-19:00; Sa 09:00-15:00", "phone": "834392223"}}, {"type": "node", "id": 7801694585, "lat": 54.5559566, "lon": 23.3463224, "tags": {"addr:postcode": "68309", "amenity": "pharmacy", "brand": "Eurovaistin\u0117", "brand:wikidata": "Q267205", "brand:wikipedia": "en:Euroapotheca", "dispensing": "yes", "healthcare": "pharmacy", "name": "Eurovaistin\u0117", "opening_hours": "Mo-Fr 08:00-21:00; Sa-Su 08:00-20:00", "website": "https://www.eurovaistine.lt/"}}, {"type": "node", "id": 7804370085, "lat": 54.5548679, "lon": 23.3487607, "tags": {"addr:postcode": "68298", "amenity": "pharmacy", "brand": "Camelia", "brand:wikidata": "Q15867413", "brand:wikipedia": "lt:Nemuno vaistin\u0117", "name": "Camelia", "opening_hours": "Mo-Fr 08:00-19:00; Sa 08:00-14:00"}}, {"type": "node", "id": 7832123985, "lat": 54.555002, "lon": 23.3470965, "tags": {"addr:postcode": "68298", "amenity": "pharmacy", "brand": "Camelia", "brand:wikidata": "Q15867413", "brand:wikipedia": "lt:Nemuno vaistin\u0117", "dispensing": "yes", "healthcare": "pharmacy", "name": "Camelia"}}, {"type": "node", "id": 7887544587, "lat": 54.5618634, "lon": 23.3543226, "tags": {"addr:postcode": "68256", "amenity": "pharmacy", "brand": "Camelia", "brand:wikidata": "Q15867413", "brand:wikipedia": "lt:Nemuno vaistin\u0117", "name": "Camelia"}}, {"type": "node", "id": 7941578790, "lat": 54.5632486, "lon": 23.3327049, "tags": {"addr:city": "Marijampol\u0117", "addr:contact": "yes", "addr:housenumber": "72A", "addr:postcode": "68171", "addr:street": "Vilkavi\u0161kio g.", "amenity": "pharmacy", "brand": "Camelia", "brand:wikidata": "Q15867413", "brand:wikipedia": "lt:Nemuno vaistin\u0117", "dispensing": "yes", "healthcare": "pharmacy", "name": "Camelia"}}, {"type": "node", "id": 7941578791, "lat": 54.5632327, "lon": 23.3325345, "tags": {"addr:city": "Marijampol\u0117", "addr:contact": "yes", "addr:flat": "2", "addr:housenumber": "72A", "addr:postcode": "68171", "addr:street": "Vilkavi\u0161kio g.", "amenity": "pharmacy", "brand": "Eurovaistin\u0117", "brand:wikidata": "Q267205", "healthcare": "pharmacy", "name": "Eurovaistin\u0117", "opening_hours": "Mo-Fr 08:00-19:00; Sa 09:00-16:00; Su 09:00-15:00", "phone": "+370 698 09559"}}, {"type": "node", "id": 8012378186, "lat": 54.5670725, "lon": 23.349289, "tags": {"addr:city": "Marijampol\u0117", "addr:contact": "yes", "addr:housenumber": "37", "addr:postcode": "68188", "addr:street": "\u0160auli\u0173 g.", "amenity": "pharmacy", "brand": "Camelia", "brand:wikidata": "Q15867413", "brand:wikipedia": "lt:Nemuno vaistin\u0117", "name": "Camelia"}}, {"type": "node", "id": 8015731985, "lat": 54.5678367, "lon": 23.3491097, "tags": {"addr:postcode": "68197", "amenity": "pharmacy", "name": "Vaistin\u0117"}}, {"type": "node", "id": 9552569443, "lat": 54.2487438, "lon": 23.1867186, "tags": {"addr:city": "Pu\u0144sk", "addr:housenumber": "26", "addr:postcode": "16-515", "addr:street": "Szkolna", "amenity": "pharmacy", "name": "Radix Zyta Wens\u0142awska", "ref:csioz": "1021986"}}, {"type": "node", "id": 9554323072, "lat": 54.205613, "lon": 22.9128089, "tags": {"addr:city": "Jeleniewo", "addr:city:simc": "0759280", "addr:housenumber": "2", "addr:postcode": "16-404", "addr:street": "Sportowa", "amenity": "pharmacy", "name": "Punkt apteczny (M. Suchocka)", "ref:csioz": "1227771"}}, {"type": "node", "id": 9554323073, "lat": 54.3214013, "lon": 22.9709458, "tags": {"addr:city": "Rutka-Tartak", "addr:housenumber": "1", "addr:postcode": "16-406", "addr:street": "Le\u015bna", "amenity": "pharmacy", "name": "Punkt apteczny (M. Suchocka)", "ref:csioz": "1227760"}}, {"type": "node", "id": 9554323075, "lat": 54.2519376, "lon": 23.0743692, "tags": {"addr:city": "Szypliszki", "addr:housenumber": "21", "addr:postcode": "16-411", "addr:street": "Suwalska", "amenity": "pharmacy", "name": "Apteka (P. Korejwo)", "ref:csioz": "1025143"}}, {"type": "node", "id": 11702043150, "lat": 54.4136806, "lon": 23.225394, "tags": {"amenity": "pharmacy", "brand": "Eurovaistin\u0117", "brand:wikidata": "Q267205", "healthcare": "pharmacy", "name": "Eurovaistin\u0117", "opening_hours": "Mo-Fr 09:00-18:00; Sa 09:00-14:00; Su 09:00-13:00"}}]}