{"version": 0.6, "generator": "Overpass API 0.7.62.8 e802775f", "osm3s": {"timestamp_osm_base": "2025-10-06T08:45:30Z", "copyright": "The data included in this document is from www.openstreetmap.org. The data is made available under ODbL."}, "elements": [{"type": "node", "id": 692848394, "lat": 52.0334202, "lon": 23.1195974, "tags": {"amenity": "pharmacy", "brand": "Gemini", "brand:wikidata": "Q130243797", "dispensing": "yes", "healthcare": "pharmacy", "name": "Gemini", "ref:csioz": "1155556"}}, {"type": "node", "id": 692848404, "lat": 52.0318536, "lon": 23.1085352, "tags": {"amenity": "pharmacy", "brand": "Dbam o Zdrowie", "brand:wikidata": "Q62563833", "dispensing": "yes", "healthcare": "pharmacy", "name": "Dbam o Zdrowie", "opening_hours": "Mo-Fr 08:00-20:00; Sa 08:00-16:00; Su off", "ref:csioz": "1156319", "short_name": "DOZ"}}, {"type": "node", "id": 2521896813, "lat": 51.98358, "lon": 22.78623, "tags": {"addr:city": "Mi\u0119dzyrzec Podlaski", "addr:housenumber": "12", "addr:postcode": "21-560", "addr:street": "Rymarska", "amenity": "pharmacy", "dispensing": "yes", "healthcare": "pharmacy", "name": "Rodzinna", "opening_hours": "Mo-Fr 08:00-19:00; Sa 08:00-15:00", "phone": "+48833712238", "ref:csioz": "1216961", "source:addr": "mmiedzyrzecpodlaski.e-mapa.net"}}, {"type": "node", "id": 2521897329, "lat": 51.9849333, "lon": 22.7855235, "tags": {"addr:city": "Mi\u0119dzyrzec Podlaski", "addr:housenumber": "17", "addr:postcode": "21-560", "addr:street": "Warszawska", "amenity": "pharmacy", "brand": "Dr. Max", "brand:wikidata": "Q56317371", "dispensing": "yes", "email": "miedzyrzec@naszeapteki.pl", "healthcare": "pharmacy", "name": "Dr. Max", "opening_hours": "24/7", "phone": "+48833712523", "ref:csioz": "1156241", "source:addr": "mmiedzyrzecpodlaski.e-mapa.net", "website": "http://info.naszeapteki.pl/pl/strona/163/184/189/nasze.apteki.-.miedzyrzec.podlaski/"}}, {"type": "node", "id": 3053848461, "lat": 52.0353722, "lon": 23.1190776, "tags": {"addr:city": "Bia\u0142a Podlaska", "addr:country": "PL", "addr:housenumber": "9", "addr:postcode": "21-500", "addr:street": "Janowska", "amenity": "pharmacy", "brand": "Dr. Max", "brand:wikidata": "Q56317371", "dispensing": "yes", "healthcare": "pharmacy", "name": "Dr. Max", "opening_hours": "24/7", "phone": "+48814634895", "ref:csioz": "1156255", "website": "https://www.naszeapteki.pl/"}}, {"type": "node", "id": 3200280324, "lat": 52.0237004, "lon": 23.1240241, "tags": {"addr:city": "Bia\u0142a Podlaska", "addr:housenumber": "2k", "addr:postcode": "21-500", "addr:street": "Sidorska", "amenity": "pharmacy", "brand": "Dr. Max", "brand:wikidata": "Q56317371", "dispensing": "yes", "healthcare": "pharmacy", "name": "Dr. Max", "opening_hours": "24/7", "ref:csioz": "1156117"}}, {"type": "node", "id": 3207066396, "lat": 52.0353223, "lon": 23.1254584, "tags": {"addr:city": "Bia\u0142a Podlaska", "addr:housenumber": "37", "addr:postcode": "21-500", "addr:street": "Brzeska", "amenity": "pharmacy", "brand": "Dbam o Zdrowie", "brand:wikidata": "Q62563833", "dispensing": "yes", "healthcare": "pharmacy", "name": "Dbam o Zdrowie", "ref:csioz": "1155467", "short_name": "DOZ"}}, {"type": "node", "id": 3209037827, "lat": 51.9014217, "lon": 22.7040034, "tags": {"amenity": "pharmacy", "dispensing": "yes", "healthcare": "pharmacy", "ref:csioz": "1155953"}}, {"type": "node", "id": 3377654912, "lat": 52.1304744, "lon": 23.0301717, "tags": {"amenity": "pharmacy", "dispensing": "yes", "healthcare": "pharmacy", "opening_hours": "Mo-Fr 07:45-18:30; Sa 07:45-13:00; Su 08:30-13:00", "phone": "+48 83 345 00 21", "ref:csioz": "1155977"}}, {"type": "node", "id": 3404646970, "lat": 51.911453, "lon": 22.8675672, "tags": {"amenity": "pharmacy", "dispensing": "yes", "healthcare": "pharmacy", "ref:csioz": "1156021"}}, {"type": "node", "id": 3413792053, "lat": 52.0238649, "lon": 23.1298164, "tags": {"amenity": "pharmacy", "dispensing": "yes", "healthcare": "pharmacy", "ref:csioz": "1155570"}}, {"type": "node", "id": 4344216562, "lat": 52.029475, "lon": 22.7061441, "tags": {"addr:housenumber": "8", "addr:place": "T\u0142u\u015bciec", "addr:postcode": "21-564", "amenity": "pharmacy", "dispensing": "yes", "healthcare": "pharmacy", "name": "Punkt Apteczny", "phone": "+48 83 355 47 42", "ref:csioz": "1197084", "source": "https://gsl.nfz.gov.pl/GSL/GSL/Apteki"}}, {"type": "node", "id": 4361453131, "lat": 51.978336, "lon": 22.7829766, "tags": {"addr:city": "Mi\u0119dzyrzec Podlaski", "addr:housenumber": "47", "addr:postcode": "21-560", "addr:street": "Partyzant\u00f3w", "amenity": "pharmacy", "dispensing": "yes", "healthcare": "pharmacy", "name": "Centrum", "opening_hours": "Mo-Fr 08:00-19:00, Su 08:00-15:00", "ref:csioz": "1194170"}}, {"type": "node", "id": 4380689400, "lat": 52.0343344, "lon": 23.1234066, "tags": {"amenity": "pharmacy", "brand": "Dbam o Zdrowie", "brand:wikidata": "Q62563833", "dispensing": "yes", "healthcare": "pharmacy", "name": "Dbam o Zdrowie", "ref:csioz": "1187697", "short_name": "DOZ"}}, {"type": "node", "id": 4477394390, "lat": 52.0317093, "lon": 23.1196577, "tags": {"addr:postcode": "21-500", "amenity": "pharmacy", "brand": "Dbam o Zdrowie", "brand:wikidata": "Q62563833", "dispensing": "yes", "healthcare": "pharmacy", "name": "Dbam o Zdrowie", "ref:csioz": "1156308", "short_name": "DOZ"}}, {"type": "node", "id": 4527881297, "lat": 52.0483256, "lon": 23.1143546, "tags": {"addr:city": "Bia\u0142a Podlaska", "addr:country": "PL", "addr:housenumber": "8", "addr:postcode": "21-500", "addr:street": "Jana III Sobieskiego", "amenity": "pharmacy", "dispensing": "yes", "healthcare": "pharmacy", "name": "Podlaska", "ref:csioz": "1193473"}}, {"type": "node", "id": 4527881298, "lat": 52.0474977, "lon": 23.1092878, "tags": {"addr:postcode": "21-500", "amenity": "pharmacy", "brand": "Gemini", "dispensing": "yes", "healthcare": "pharmacy", "name": "Gemini", "ref:csioz": "1155446"}}, {"type": "node", "id": 4550506175, "lat": 51.9842343, "lon": 22.7856387, "tags": {"addr:city": "Mi\u0119dzyrzec Podlaski", "addr:housenumber": "1c", "addr:postcode": "21-560", "addr:street": "\u017belazna", "amenity": "pharmacy", "brand": "Dbam o Zdrowie", "brand:wikidata": "Q62563833", "dispensing": "yes", "healthcare": "pharmacy", "name": "Dbam o Zdrowie", "opening_hours": "Mo-Fr 08:00-19:00; Sa 08:00-15:00", "phone": "+48 83 371 65 58", "ref:csioz": "1155495", "short_name": "DOZ"}}, {"type": "node", "id": 5164622737, "lat": 52.21174, "lon": 22.7182999, "tags": {"addr:city": "\u0141osice", "addr:city:simc": "0922120", "addr:housenumber": "12", "addr:postcode": "08-200", "addr:street": "Rynek", "amenity": "pharmacy", "brand": "Prima", "healthcare": "pharmacy", "name": "Prima", "ref:csioz": "1096848"}}, {"type": "node", "id": 5164622738, "lat": 52.2117065, "lon": 22.7163862, "tags": {"addr:city": "\u0141osice", "addr:city:simc": "0922120", "addr:housenumber": "1", "addr:postcode": "08-200", "addr:street": "Rynek", "amenity": "pharmacy", "healthcare": "pharmacy", "name": "Centrum", "opening_hours": "Mo-Su 07:00-22:00", "ref:csioz": "1096820"}}, {"type": "node", "id": 5164622739, "lat": 52.2113608, "lon": 22.7162207, "tags": {"addr:city": "\u0141osice", "addr:city:simc": "0922120", "addr:housenumber": "29", "addr:postcode": "08-200", "addr:street": "Rynek", "amenity": "pharmacy", "healthcare": "pharmacy", "name": "Apteka (J. i Z. \u017bo\u0142\u0105dkowscy)", "ref:csioz": "1096812"}}, {"type": "node", "id": 5164622740, "lat": 52.2151203, "lon": 22.7099086, "tags": {"addr:city": "\u0141osice", "addr:city:simc": "0922120", "addr:housenumber": "1B", "addr:postcode": "08-200", "addr:street": "Kolejowa", "amenity": "pharmacy", "healthcare": "pharmacy", "name": "Apteka (A. Stefaniuk)", "ref:csioz": "1096804"}}, {"type": "node", "id": 5183791430, "lat": 52.2106646, "lon": 22.7161964, "tags": {"amenity": "pharmacy"}}, {"type": "node", "id": 5714566004, "lat": 52.3020885, "lon": 22.8189372, "tags": {"addr:city": "Plater\u00f3w", "addr:housenumber": "1", "addr:postcode": "08-210", "addr:street": "3 Maja", "amenity": "pharmacy", "dispensing": "yes", "healthcare": "pharmacy", "name": "Pod Lip\u0105", "opening_hours": "Mo-Fr 08:00-16:00; Sa 08:00-12:00", "ref:csioz": "1096857"}}, {"type": "node", "id": 5717157943, "lat": 52.0329742, "lon": 23.1186136, "tags": {"amenity": "pharmacy", "dispensing": "yes", "healthcare": "pharmacy", "name": "Podlaska", "ref:csioz": "1155438"}}, {"type": "node", "id": 7464360485, "lat": 51.9886393, "lon": 22.7805281, "tags": {"amenity": "pharmacy", "brand": "Dr. Max", "brand:wikidata": "Q56317371", "dispensing": "yes", "healthcare": "pharmacy", "name": "Dr. Max", "opening_hours": "Mo-Sa 07:00-20:00", "ref:csioz": "1210986"}}, {"type": "node", "id": 7660952703, "lat": 52.0275107, "lon": 23.1355099, "tags": {"amenity": "pharmacy", "brand": "Dr. Max", "brand:wikidata": "Q56317371", "dispensing": "yes", "healthcare": "pharmacy", "name": "Dr. Max", "ref:csioz": "1155641"}}, {"type": "node", "id": 7969516885, "lat": 51.9877065, "lon": 22.5457714, "tags": {"amenity": "pharmacy", "check_date": "2023-01-03", "dispensing": "yes", "healthcare": "pharmacy", "name": "Punkt Apteczny", "opening_hours": "Mo-Fr 08:00-16:00; Sa 08:00-13:00", "payment:cash": "yes", "payment:mastercard": "yes", "payment:visa": "yes", "ref:csioz": "1230982"}}, {"type": "node", "id": 9416754602, "lat": 52.2108849, "lon": 22.7148836, "tags": {"addr:city": "\u0141osice", "addr:city:simc": "0922120", "addr:housenumber": "13", "addr:postcode": "08-200", "addr:street": "Berka Joselewicza", "amenity": "pharmacy", "dispensing": "yes", "healthcare": "pharmacy", "name": "Dbam O Zdrowie (Doz)", "ref:csioz": "1096798"}}, {"type": "node", "id": 9580156026, "lat": 52.1868828, "lon": 22.9339158, "tags": {"addr:city": "Nowa Kornica", "addr:housenumber": "23A", "addr:postcode": "08-205", "addr:street": "Nowa Kornica", "amenity": "pharmacy", "name": "Dbam O Zdrowie (Doz)", "ref:csioz": "1195069"}}, {"type": "node", "id": 9580156027, "lat": 52.1858633, "lon": 22.9385712, "tags": {"addr:city": "Stara Kornica", "addr:housenumber": "284", "addr:postcode": "08-205", "addr:street": "Stara Kornica", "amenity": "pharmacy", "healthcare": "pharmacy", "name": "Apteka (Grzesiuk i wsp\u00f3lnik)", "ref:csioz": "1096873"}}, {"type": "node", "id": 9580156028, "lat": 52.3129423, "lon": 22.8895763, "tags": {"addr:city": "Sarnaki", "addr:housenumber": "4A", "addr:postcode": "08-220", "addr:street": "Jana Kili\u0144skiego", "amenity": "pharmacy", "name": "Apteka (Nowakiewicz I Wsp\u00f3lnicy)", "ref:csioz": "1096861"}}, {"type": "node", "id": 9580156029, "lat": 52.2093016, "lon": 22.7151177, "tags": {"addr:city": "\u0141osice", "addr:city:simc": "0922120", "addr:housenumber": "5", "addr:postcode": "08-200", "addr:street": "Gabriela Narutowicza", "amenity": "pharmacy", "brand": "Rodzinna", "healthcare": "pharmacy", "name": "Rodzinna", "ref:csioz": "1096836"}}, {"type": "node", "id": 9580156030, "lat": 52.2118285, "lon": 22.7180237, "tags": {"addr:city": "\u0141osice", "addr:city:simc": "0922120", "addr:housenumber": "10", "addr:postcode": "08-200", "addr:street": "Rynek", "amenity": "pharmacy", "brand": "Dr. Max", "brand:wikidata": "Q56317371", "healthcare": "pharmacy", "name": "Dr. Max", "ref:csioz": "1181207"}}, {"type": "node", "id": 9580156031, "lat": 52.1473134, "lon": 22.6644988, "tags": {"addr:city": "Olszanka", "addr:housenumber": "30A", "addr:postcode": "08-207", "addr:street": "Olszanka", "amenity": "pharmacy", "name": "Punkt Apteczny (E. Pud\u0142owska)", "ref:csioz": "1098120"}}, {"type": "node", "id": 9580156032, "lat": 52.1374605, "lon": 22.8398808, "tags": {"addr:city": "Huszlew", "addr:housenumber": "76A", "addr:postcode": "08-206", "addr:street": "Huszlew", "amenity": "pharmacy", "name": "Apteka (K. Romanowska)", "ref:csioz": "1096779"}}, {"type": "node", "id": 9659211177, "lat": 52.2108593, "lon": 22.5220017, "tags": {"addr:city": "Mordy", "addr:housenumber": "28/30", "addr:street": "11 Listopada", "amenity": "pharmacy", "brand": "S\u0142oneczna", "dispensing": "yes", "healthcare": "pharmacy", "name": "S\u0142oneczna", "ref:csioz": "1226360"}}, {"type": "node", "id": 9659211181, "lat": 52.0885852, "lon": 22.4416843, "tags": {"addr:city": "Zbuczyn", "addr:housenumber": "2", "addr:street": "D\u0119bowa", "amenity": "pharmacy", "dispensing": "yes", "ref:csioz": "1117552"}}, {"type": "node", "id": 9659211183, "lat": 52.0582903, "lon": 22.6159545, "tags": {"addr:housenumber": "33", "addr:place": "Krzesk-Kr\u00f3lowa Niwa", "amenity": "pharmacy", "dispensing": "yes", "ref:csioz": "1097688"}}, {"type": "node", "id": 9659211186, "lat": 52.2718609, "lon": 22.583004, "tags": {"addr:city": "Przesmyki", "addr:housenumber": "13", "addr:street": "11 Listopada", "amenity": "pharmacy", "dispensing": "yes", "fixme": "Lokalizacja do weryfikacji", "ref:csioz": "1097627"}}, {"type": "node", "id": 10591490547, "lat": 52.0368934, "lon": 23.1031966, "tags": {"amenity": "pharmacy", "dispensing": "yes", "healthcare": "pharmacy", "ref:csioz": "1156084"}}, {"type": "node", "id": 10591518511, "lat": 52.0219219, "lon": 23.1306149, "tags": {"amenity": "pharmacy", "dispensing": "yes", "healthcare": "pharmacy", "ref:csioz": "1156232"}}, {"type": "node", "id": 10591564701, "lat": 52.0253886, "lon": 23.1569792, "tags": {"amenity": "pharmacy", "dispensing": "yes", "healthcare": "pharmacy", "ref:csioz": "1203806"}}, {"type": "node", "id": 10591564702, "lat": 52.0286233, "lon": 23.1484134, "tags": {"amenity": "pharmacy", "dispensing": "yes", "healthcare": "pharmacy", "ref:csioz": "1203811"}}, {"type": "node", "id": 10591564703, "lat": 52.050076, "lon": 23.1111815, "tags": {"amenity": "pharmacy", "dispensing": "yes", "healthcare": "pharmacy", "name": "Farmacja 24", "ref:csioz": "1188283"}}, {"type": "node", "id": 10591604373, "lat": 52.0238652, "lon": 23.143401, "tags": {"amenity": "pharmacy", "dispensing": "yes", "healthcare": "pharmacy", "name": "Viola", "ref:csioz": "1155543"}}, {"type": "node", "id": 10591604388, "lat": 52.0472915, "lon": 23.1113995, "tags": {"amenity": "pharmacy", "dispensing": "yes", "healthcare": "pharmacy", "name": "Medica", "ref:csioz": "1156488"}}, {"type": "node", "id": 10591604389, "lat": 52.0443416, "lon": 23.1113754, "tags": {"amenity": "pharmacy", "dispensing": "yes", "healthcare": "pharmacy", "name": "Sana", "ref:csioz": "1155989"}}, {"type": "node", "id": 10591604390, "lat": 52.0448554, "lon": 23.1108454, "tags": {"amenity": "pharmacy", "dispensing": "yes", "healthcare": "pharmacy", "name": "Sana", "ref:csioz": "1155990", "wheelchair": "no"}}, {"type": "node", "id": 10591604393, "lat": 52.0447937, "lon": 23.1101929, "tags": {"amenity": "pharmacy", "dispensing": "yes", "healthcare": "pharmacy", "name": "Vita", "ref:csioz": "1155796"}}, {"type": "node", "id": 10591841319, "lat": 51.9919412, "lon": 22.7946766, "tags": {"amenity": "pharmacy", "dispensing": "yes", "healthcare": "pharmacy", "name": "Centrum", "ref:csioz": "1117673"}}, {"type": "node", "id": 10591841379, "lat": 51.9821445, "lon": 22.7850931, "tags": {"amenity": "pharmacy", "dispensing": "yes", "healthcare": "pharmacy", "name": "Dr. Optima", "ref:csioz": "1221626"}}, {"type": "node", "id": 10591841395, "lat": 51.9849956, "lon": 22.7845915, "tags": {"amenity": "pharmacy", "dispensing": "yes", "healthcare": "pharmacy", "name": "Centrum", "ref:csioz": "1156335"}}, {"type": "node", "id": 10591841396, "lat": 51.9834058, "lon": 22.7842395, "tags": {"amenity": "pharmacy", "dispensing": "yes", "healthcare": "pharmacy", "name": "Pharmacon", "ref:csioz": "1156196"}}, {"type": "node", "id": 10591841397, "lat": 51.984011, "lon": 22.7878688, "tags": {"amenity": "pharmacy", "dispensing": "yes", "healthcare": "pharmacy", "name": "Od Serca", "ref:csioz": "1231037"}}, {"type": "node", "id": 10591968573, "lat": 52.0283349, "lon": 22.8683983, "tags": {"amenity": "pharmacy", "dispensing": "yes", "healthcare": "pharmacy", "name": "Punkt Apteczny U Tomka", "ref:csioz": "1207492"}}, {"type": "node", "id": 10599869661, "lat": 51.9324893, "lon": 22.6567354, "tags": {"amenity": "pharmacy", "dispensing": "yes", "healthcare": "pharmacy", "name": "Punkt Apteczny Rodzinny", "ref:csioz": "1225585"}}, {"type": "node", "id": 10602366141, "lat": 52.20676, "lon": 23.0891605, "tags": {"amenity": "pharmacy", "dispensing": "yes", "healthcare": "pharmacy", "ref:csioz": "1155902"}}]}