{"version": 0.6, "generator": "Overpass API 0.7.62.8 e802775f", "osm3s": {"timestamp_osm_base": "2025-10-06T08:41:25Z", "copyright": "The data included in this document is from www.openstreetmap.org. The data is made available under ODbL."}, "elements": [{"type": "node", "id": 278582986, "lat": 37.0087731, "lon": 27.2634564, "tags": {"amenity": "pharmacy", "healthcare": "pharmacy", "name": "Amiral Eczanesi", "phone": "+90 252 382 8081"}}, {"type": "node", "id": 278582988, "lat": 37.0073154, "lon": 27.2587239, "tags": {"amenity": "pharmacy", "healthcare": "pharmacy", "name": "De\u011fer Eczanesi", "phone": "+90 252 382 8815"}}, {"type": "node", "id": 747550817, "lat": 37.0111227, "lon": 27.2705658, "tags": {"amenity": "pharmacy", "healthcare": "pharmacy", "name": "Cansel Eczanesi", "phone": "+90 252 382 4137"}}, {"type": "node", "id": 856796476, "lat": 37.043122, "lon": 27.3790988, "tags": {"amenity": "pharmacy", "dispensing": "yes", "healthcare": "pharmacy", "name": "Bitez Eczanesi", "phone": "+90 252 363 0993"}}, {"type": "node", "id": 892618429, "lat": 37.0073045, "lon": 27.2588691, "tags": {"amenity": "pharmacy", "healthcare": "pharmacy", "name": "Keskin Eczanesi", "phone": "+90 252 382 6171"}}, {"type": "node", "id": 892619364, "lat": 37.0049507, "lon": 27.258304, "tags": {"amenity": "pharmacy", "healthcare": "pharmacy", "name": "Marina Eczanesi", "phone": "+90 252 382 6226"}}, {"type": "node", "id": 915533664, "lat": 37.0532694, "lon": 27.350382, "tags": {"amenity": "pharmacy", "dispensing": "no", "healthcare": "pharmacy"}}, {"type": "node", "id": 3730497417, "lat": 37.3717855, "lon": 27.2737021, "tags": {"addr:city": "Didim/Ayd\u0131n", "amenity": "pharmacy", "healthcare": "pharmacy", "name": "Seda Eczanesi"}}, {"type": "node", "id": 4257052173, "lat": 37.1058039, "lon": 27.2930053, "tags": {"amenity": "pharmacy", "healthcare": "pharmacy", "name": "Yal\u0131kavak Eczanesi", "phone": "+90 252 385 4100"}}, {"type": "node", "id": 4288045094, "lat": 37.3880778, "lon": 27.4328852, "tags": {"addr:city": "Akb\u00fck", "addr:street": "1001. Cadde", "amenity": "pharmacy", "healthcare": "pharmacy", "name": "Akb\u00fck Eczanesi", "name:de": "Akb\u00fck Apoteker", "name:en": "Akb\u00fck Pharmacy", "name:tr": "Akb\u00fck Eczanesi", "opening_hours": "Mo-Sa 08:00-18:00", "phone": "+90 256 856 4258"}}, {"type": "node", "id": 4412293428, "lat": 37.0029142, "lon": 27.2589294, "tags": {"amenity": "pharmacy", "healthcare": "pharmacy", "name": "Begonvil Eczanesi", "phone": "+90 252 382 09 86"}}, {"type": "node", "id": 4853531639, "lat": 37.1038519, "lon": 27.2925384, "tags": {"amenity": "pharmacy", "healthcare": "pharmacy", "name": "Erdem Eczanesi", "phone": "+90 252 385 3638"}}, {"type": "node", "id": 4877566331, "lat": 37.3718556, "lon": 27.2738828, "tags": {"addr:city": "Ayd\u0131n", "addr:district": "Didim", "amenity": "pharmacy", "healthcare": "pharmacy", "name": "\u00dcnl\u00fc Eczanesi"}}, {"type": "node", "id": 4878434028, "lat": 37.3775826, "lon": 27.2688625, "tags": {"amenity": "pharmacy", "healthcare": "pharmacy", "name": "Ankara Eczanesi", "wheelchair": "limited"}}, {"type": "node", "id": 4878434087, "lat": 37.3771615, "lon": 27.267766, "tags": {"addr:city": "Ayd\u0131n", "addr:district": "Didim", "amenity": "pharmacy", "healthcare": "pharmacy", "name": "Y\u00fckselen Eczanesi"}}, {"type": "node", "id": 4878504805, "lat": 37.3791111, "lon": 27.269509, "tags": {"amenity": "pharmacy", "healthcare": "pharmacy", "name": "Ba\u015fak Eczanesi"}}, {"type": "node", "id": 4878504945, "lat": 37.3771321, "lon": 27.2667819, "tags": {"addr:city": "Ayd\u0131n", "addr:district": "Didim", "amenity": "pharmacy", "healthcare": "pharmacy", "name": "Ege Eczanesi"}}, {"type": "node", "id": 4878504951, "lat": 37.3765905, "lon": 27.2661206, "tags": {"addr:city": "Ayd\u0131n", "addr:district": "Didim", "amenity": "pharmacy", "healthcare": "pharmacy", "name": "Tolga Eczanesi"}}, {"type": "node", "id": 4878504964, "lat": 37.3766911, "lon": 27.2655896, "tags": {"addr:city": "Ayd\u0131n", "addr:district": "Didim", "amenity": "pharmacy", "healthcare": "pharmacy", "name": "Didim Eczanesi", "wheelchair": "yes"}}, {"type": "node", "id": 4937420729, "lat": 37.0517629, "lon": 27.3822883, "tags": {"amenity": "pharmacy", "healthcare": "pharmacy", "name": "Damla Eczanesi", "phone": "+90 252 363 8404"}}, {"type": "node", "id": 4951595507, "lat": 37.099925, "lon": 27.3058587, "tags": {"amenity": "pharmacy", "healthcare": "pharmacy", "name": "\u00d6zer Eczanesi", "phone": "+90 252 385 5220"}}, {"type": "node", "id": 4953574913, "lat": 37.1293709, "lon": 27.3443001, "tags": {"amenity": "pharmacy", "healthcare": "pharmacy", "name": "G\u00fcndo\u011fan Eczanesi", "phone": "+90 252 387 7533"}}, {"type": "node", "id": 4964752346, "lat": 37.1039104, "lon": 27.3010308, "tags": {"amenity": "pharmacy", "healthcare": "pharmacy", "name": "Turkuaz Eczanesi", "phone": "+90 252 385 3240"}}, {"type": "node", "id": 5896319086, "lat": 37.3764189, "lon": 27.2681954, "tags": {"amenity": "pharmacy", "healthcare": "pharmacy", "name": "\u00c7\u0131lga Eczanesi", "wheelchair": "limited"}}, {"type": "node", "id": 6354278556, "lat": 37.3910039, "lon": 27.4380363, "tags": {"amenity": "pharmacy", "healthcare": "pharmacy", "name": "Y\u0131ld\u0131r\u0131m Eczanesi", "phone": "+90 256 856 4912"}}, {"type": "node", "id": 6380270481, "lat": 37.3912752, "lon": 27.4330467, "tags": {"amenity": "pharmacy", "healthcare": "pharmacy", "name": "Onur Eczanesi", "phone": "+90 256 856 5505"}}, {"type": "node", "id": 6432857328, "lat": 37.2379169, "lon": 27.5990396, "tags": {"amenity": "pharmacy", "healthcare": "pharmacy", "name": "Eczane Can"}}, {"type": "node", "id": 6434137942, "lat": 37.2376914, "lon": 27.5983778, "tags": {"amenity": "pharmacy", "healthcare": "pharmacy", "name": "Hayal Eczanesi", "opening_hours": "Mo-Su 08:00-23:00"}}, {"type": "node", "id": 6557556987, "lat": 37.0286425, "lon": 27.3767096, "tags": {"amenity": "pharmacy", "healthcare": "pharmacy", "name": "Yal\u0131 Eczanesi", "phone": "+90 252 363 8335"}}, {"type": "node", "id": 7313642871, "lat": 37.0351303, "lon": 27.4314277, "tags": {"amenity": "pharmacy", "healthcare": "pharmacy"}}, {"type": "node", "id": 8228499939, "lat": 37.0112239, "lon": 27.2705278, "tags": {"amenity": "pharmacy", "dispensing": "yes", "healthcare": "pharmacy", "name": "\u015eafak Eczanesi", "phone": "+90 252 382 6136"}}, {"type": "node", "id": 8228499941, "lat": 37.0079868, "lon": 27.2617627, "tags": {"amenity": "pharmacy", "dispensing": "yes", "healthcare": "pharmacy", "name": "Natura Eczanesi", "phone": "+90 252 382 7784"}}, {"type": "node", "id": 8692618017, "lat": 37.0332532, "lon": 27.4194124, "tags": {"amenity": "pharmacy", "healthcare": "pharmacy", "name:en": "Eczane"}}, {"type": "node", "id": 9018784154, "lat": 37.0330762, "lon": 27.4393075, "tags": {"addr:city": "Mu\u011fla", "addr:district": "Bodrum", "addr:neighbourhood": "Umur\u00e7a", "addr:postcode": "48000", "addr:street": "Dr. M\u00fcmtaz Ataman Caddesi", "amenity": "pharmacy", "healthcare": "pharmacy", "name": "K\u0131van\u00e7 Eczane", "wheelchair": "yes"}}, {"type": "node", "id": 10219871828, "lat": 37.0334434, "lon": 27.4192593, "tags": {"amenity": "pharmacy", "healthcare": "pharmacy"}}, {"type": "node", "id": 10729799306, "lat": 37.0530097, "lon": 27.2490029, "tags": {"amenity": "pharmacy", "name": "G\u00fcm\u00fc\u015fl\u00fck Eczanesi", "phone": "+90 252 394 4245"}}, {"type": "node", "id": 10729799307, "lat": 37.0425948, "lon": 27.3787653, "tags": {"amenity": "pharmacy", "name": "Saylan Eczanesi", "opening_hours": "Mo-Su 08:30-20:30", "phone": "+90 252 363 7667"}}, {"type": "node", "id": 10729799308, "lat": 37.0500187, "lon": 27.3865055, "tags": {"amenity": "pharmacy", "healthcare": "pharmacy", "name": "Su Eczanesi", "phone": "+90 252 319 7613"}}, {"type": "node", "id": 10729799309, "lat": 37.0347903, "lon": 27.4002238, "tags": {"amenity": "pharmacy", "name": "S\u00f6nmez Eczanesi", "phone": "+90 252 319 5501"}}, {"type": "node", "id": 10729799310, "lat": 37.0324846, "lon": 27.4062476, "tags": {"amenity": "pharmacy", "name": "Turan Eczanesi", "phone": "+90 252 319 4321"}}, {"type": "node", "id": 10729801206, "lat": 37.00752, "lon": 27.2595473, "tags": {"amenity": "pharmacy", "name:en": "Nalbant Eczanesi", "phone": "+90 252 382 7936"}}, {"type": "node", "id": 10729801207, "lat": 37.0108554, "lon": 27.270888, "tags": {"amenity": "pharmacy", "healthcare": "pharmacy", "name": "\u00dcnsa\u00e7 Eczanesi", "phone": "+90 252 382 5759"}}, {"type": "node", "id": 10729801208, "lat": 37.0116784, "lon": 27.2755609, "tags": {"amenity": "pharmacy", "name": "Ak\u00e7aalan Eczanesi", "phone": "+90 252 382 3007"}}, {"type": "node", "id": 10729801209, "lat": 37.0422682, "lon": 27.2843884, "tags": {"amenity": "pharmacy", "healthcare": "pharmacy", "name": "Portakal Eczanesi", "phone": "+90 252 382 3007"}}, {"type": "node", "id": 10729801210, "lat": 37.0530201, "lon": 27.2471785, "tags": {"amenity": "pharmacy", "name": "\u00d6ner Eczanesi", "phone": "+90 252 394 4280"}}, {"type": "node", "id": 10729801211, "lat": 37.0218349, "lon": 27.3382737, "tags": {"amenity": "pharmacy", "healthcare": "pharmacy", "name": "Defne Eczanesi", "phone": "+90 252 348 4491"}}, {"type": "node", "id": 10729801212, "lat": 37.0483678, "lon": 27.3820488, "tags": {"amenity": "pharmacy", "name": "Khalkedon Eczanesi", "phone": "+90 252 363 0118"}}, {"type": "node", "id": 10729801213, "lat": 37.0555, "lon": 27.3703184, "tags": {"amenity": "pharmacy", "healthcare": "pharmacy", "name": "Ya\u011fmur Eczanesi", "phone": "+90 252 363 0464"}}, {"type": "node", "id": 10729801214, "lat": 37.0367117, "lon": 27.4071683, "tags": {"amenity": "pharmacy", "name": "Karya Eczanesi", "phone": "+90 252 316 0000"}}, {"type": "node", "id": 10729801215, "lat": 37.0377625, "lon": 27.4102806, "tags": {"amenity": "pharmacy", "name": "Akdeniz Eczanesi", "phone": "+90 252 319 2153"}}, {"type": "node", "id": 10729801905, "lat": 37.0044018, "lon": 27.2596321, "tags": {"amenity": "pharmacy", "name": "\u015eifa Eczanesi", "phone": "+90 252 382 2288"}}, {"type": "node", "id": 10729801906, "lat": 37.0044138, "lon": 27.2585604, "tags": {"amenity": "pharmacy", "name": "Vitamin Eczanesi", "phone": "+90 252 382 7260"}}, {"type": "node", "id": 10729801907, "lat": 37.0453709, "lon": 27.3808778, "tags": {"amenity": "pharmacy", "name": "\u00d6zlem Eczanesi", "phone": "+90 252 363 8107"}}, {"type": "node", "id": 10729801908, "lat": 37.0479405, "lon": 27.3835715, "tags": {"amenity": "pharmacy", "name": "\u00d6ngen Eczanesi", "phone": "+90 252 319 7613"}}, {"type": "node", "id": 10729802005, "lat": 37.008264, "lon": 27.2580465, "tags": {"amenity": "pharmacy", "name": "Turgutreis Eczanesi", "phone": "+90 252 382 3147"}}, {"type": "node", "id": 10729802006, "lat": 37.0320483, "lon": 27.3975004, "tags": {"amenity": "pharmacy", "name": "Mandarin Eczanesi", "phone": "+90 252 319 0008"}}, {"type": "node", "id": 10729802105, "lat": 37.038209, "lon": 27.4048706, "tags": {"amenity": "pharmacy", "name": "U\u011fur Eczanesi", "phone": "+90 252 319 3863"}}, {"type": "node", "id": 10731999906, "lat": 37.0761452, "lon": 27.456829, "tags": {"amenity": "pharmacy", "name": "Benal Eczanesi", "phone": "+90 252 367 1920"}}, {"type": "node", "id": 10731999907, "lat": 37.1280156, "lon": 27.3452831, "tags": {"amenity": "pharmacy", "healthcare": "pharmacy", "name": "Far\u0131lya Eczanesi", "phone": "+90 252 387 7397"}}, {"type": "node", "id": 10731999908, "lat": 37.0998082, "lon": 27.3058887, "tags": {"amenity": "pharmacy", "name": "Gonca Eczanesi", "phone": "+90 252 385 2226"}}, {"type": "node", "id": 10731999909, "lat": 37.1053058, "lon": 27.2929926, "tags": {"amenity": "pharmacy", "name": "Berkay Birol Eczanesi", "phone": "+90 252 385 4989"}}, {"type": "node", "id": 10731999910, "lat": 37.0310021, "lon": 27.4411996, "tags": {"amenity": "pharmacy", "name": "Kumbah\u00e7e Eczanesi", "phone": "+90 252 313 2343"}}, {"type": "node", "id": 10732000005, "lat": 37.0662497, "lon": 27.4638793, "tags": {"amenity": "pharmacy", "healthcare": "pharmacy", "name": "Torba Eczanesi", "phone": "+90 252 368 9517"}}, {"type": "node", "id": 10732000006, "lat": 37.1162024, "lon": 27.387298, "tags": {"amenity": "pharmacy", "healthcare": "pharmacy", "name": "G\u00f6lk\u00f6y Eczanesi", "phone": "+90 252 357 7112"}}, {"type": "node", "id": 10732000007, "lat": 37.1293004, "lon": 27.3458843, "tags": {"amenity": "pharmacy", "name": "Bur\u00e7in Eczanesi", "phone": "+90 252 387 7286"}}, {"type": "node", "id": 10732000008, "lat": 37.1039542, "lon": 27.2886949, "tags": {"amenity": "pharmacy", "healthcare": "pharmacy", "name": "Yal\u0131kavak Port Eczanesi", "phone": "+90 252 385 5054"}}, {"type": "node", "id": 10732000105, "lat": 37.1179137, "lon": 27.3851562, "tags": {"amenity": "pharmacy", "healthcare": "pharmacy", "name": "Burcu Eczanesi", "phone": "+90 252 357 7960"}}, {"type": "node", "id": 10732000205, "lat": 37.1276695, "lon": 27.3777574, "tags": {"amenity": "pharmacy", "name": "Orfoz Eczanesi", "phone": "+90 252 377 5315"}}, {"type": "node", "id": 10732000305, "lat": 37.1163117, "lon": 27.3465074, "tags": {"amenity": "pharmacy", "healthcare": "pharmacy", "name": "Can Eczanesi", "phone": "+90 252 387 9823"}}, {"type": "node", "id": 10732000306, "lat": 37.1296685, "lon": 27.3461341, "tags": {"amenity": "pharmacy", "healthcare": "pharmacy", "name": "G\u00f6zde Eczanesi", "phone": "+90 252 387 9898"}}, {"type": "node", "id": 10732000307, "lat": 37.1050444, "lon": 27.2914068, "tags": {"amenity": "pharmacy", "name": "Terapi Eczanesi", "phone": "+90 252 385 2818"}}, {"type": "node", "id": 10732000308, "lat": 37.1021579, "lon": 27.2841538, "tags": {"amenity": "pharmacy", "name": "Yal\u0131kavak Marina Eczanesi", "phone": "+90 252 385 5811"}}, {"type": "node", "id": 10732000309, "lat": 37.0979968, "lon": 27.2742649, "tags": {"amenity": "pharmacy", "name": "Durusu Eczanesi", "phone": "+90 252 368 9060"}}, {"type": "node", "id": 11176687743, "lat": 37.0364257, "lon": 27.4270849, "tags": {"amenity": "pharmacy", "name": "Watsons"}}, {"type": "node", "id": 11195814049, "lat": 37.0441261, "lon": 27.4261499, "tags": {"amenity": "pharmacy"}}, {"type": "node", "id": 11197468115, "lat": 37.0399209, "lon": 27.4099217, "tags": {"amenity": "pharmacy", "check_date": "2023-09-17", "healthcare": "pharmacy", "level": "0"}}, {"type": "node", "id": 11210157102, "lat": 37.0384055, "lon": 27.428051, "tags": {"amenity": "pharmacy"}}, {"type": "node", "id": 12000607285, "lat": 37.2380916, "lon": 27.5982658, "tags": {"amenity": "pharmacy", "healthcare": "pharmacy", "name": "Can Eczanesi", "opening_hours": "Mo-Su 08:30-23:00"}}]}