{"version": 0.6, "generator": "Overpass API 0.7.62.8 e802775f", "osm3s": {"timestamp_osm_base": "2025-10-06T07:54:35Z", "copyright": "The data included in this document is from www.openstreetmap.org. The data is made available under ODbL."}, "elements": [{"type": "node", "id": 850060906, "lat": 47.1651703, "lon": 18.4047766, "tags": {"addr:city": "Sz\u00e9kesfeh\u00e9rv\u00e1r", "addr:housenumber": "44-46", "addr:postcode": "8000", "addr:street": "Balatoni \u00fat", "amenity": "pharmacy", "brand": "Alma Gy\u00f3gyszert\u00e1r", "brand:website": "https://almapatika.hu", "brand:wikidata": "Q105626221", "contact:phone": "+36 22 500 293", "contact:website": "https://almapatika.hu/patika/spar-patika-szekesfehervar", "drive_through": "no", "healthcare": "pharmacy", "name": "Alma Gy\u00f3gyszert\u00e1r", "opening_hours": "Mo-Sa 09:00-19:00", "operator": "Patika Management Kft.", "payment:american_express": "yes", "payment:mastercard": "yes", "payment:visa": "yes"}}, {"type": "node", "id": 869640406, "lat": 47.1934846, "lon": 18.4251257, "tags": {"amenity": "pharmacy", "healthcare": "pharmacy", "name": "Szent Istv\u00e1n Patika", "opening_hours": "Mo-Fr 08:00-18:00", "wheelchair": "no"}}, {"type": "node", "id": 973821233, "lat": 47.1908485, "lon": 18.4141953, "tags": {"addr:city": "Sz\u00e9kesfeh\u00e9rv\u00e1r", "addr:housenumber": "8", "addr:postcode": "8000", "addr:street": "T\u00e1virda utca", "amenity": "pharmacy", "contact:phone": "+36 22 329 289", "contact:website": "http://www.benu.hu/patika/73/orsz%C3%A1galma_gy%C3%B3gyszert%C3%A1r", "healthcare": "pharmacy", "name": "Orsz\u00e1galma Gy\u00f3gyszert\u00e1r", "opening_hours": "Mo-Fr 07:30-18:00; Sa 09:00-12:00", "wheelchair": "yes"}}, {"type": "node", "id": 973821234, "lat": 47.1973604, "lon": 18.4138679, "tags": {"addr:city": "Sz\u00e9kesfeh\u00e9rv\u00e1r", "addr:postcode": "8000", "addr:street": "Szekf\u0171 Gyula utca", "amenity": "pharmacy", "dispensing": "yes", "drive_through": "yes", "healthcare": "pharmacy", "name": "Szekf\u0171 Gy\u00f3gyszert\u00e1r", "wheelchair": "yes"}}, {"type": "node", "id": 1228318947, "lat": 47.20654, "lon": 18.628115, "tags": {"amenity": "pharmacy", "dispensing": "yes", "healthcare": "pharmacy", "name": "Balzsam Patika", "opening_hours": "Mo-Fr 08:00-20:00; Sa 08:00-12:00"}}, {"type": "node", "id": 1228321099, "lat": 47.1961396, "lon": 18.6061362, "tags": {"amenity": "pharmacy", "dispensing": "yes", "name": "Aranys\u00e1rk\u00e1ny Patika", "opening_hours": "Mo-Fr 08:00-17:00; Sa 08:00-12:00"}}, {"type": "node", "id": 1390715786, "lat": 47.1862138, "lon": 18.4156124, "tags": {"amenity": "pharmacy", "healthcare": "pharmacy", "name": "Ez\u00fcstkehely Gy\u00f3gyszert\u00e1r"}}, {"type": "node", "id": 1585325974, "lat": 47.1974093, "lon": 18.4057485, "tags": {"addr:city": "Sz\u00e9kesfeh\u00e9rv\u00e1r", "addr:housenumber": "5", "addr:postcode": "8000", "addr:street": "M\u00e9sz\u00f6ly G\u00e9za utca", "amenity": "pharmacy", "contact:phone": "+36 22 505 102", "dispensing": "no", "healthcare": "pharmacy", "name": "Patika Plus Gy\u00f3gyszert\u00e1r", "opening_hours": "Mo-Fr 07:30-18:30", "wheelchair": "yes"}}, {"type": "node", "id": 1939213789, "lat": 47.2059406, "lon": 18.6295052, "tags": {"amenity": "pharmacy", "healthcare": "pharmacy", "name": "B\u00f3n\u00e9 K\u00e1lm\u00e1n Patika", "wheelchair": "yes"}}, {"type": "node", "id": 2063467658, "lat": 47.2376134, "lon": 18.6562155, "tags": {"amenity": "pharmacy", "healthcare": "pharmacy"}}, {"type": "node", "id": 2112857077, "lat": 47.1875794, "lon": 18.4028302, "tags": {"addr:postcode": "8000", "addr:street": "Selyem utca", "amenity": "pharmacy", "dispensing": "yes", "healthcare": "pharmacy", "name": "Szent Rita gy\u00f3gyszert\u00e1r", "wheelchair": "no"}}, {"type": "node", "id": 2112857118, "lat": 47.1941537, "lon": 18.4093551, "tags": {"addr:city": "Sz\u00e9kesfeh\u00e9rv\u00e1r", "addr:housenumber": "1", "addr:postcode": "8000", "addr:street": "Orsz\u00e1gz\u00e1szl\u00f3 t\u00e9r", "amenity": "pharmacy", "drive_through": "no", "healthcare": "pharmacy", "name": "Orsz\u00e1gz\u00e1szl\u00f3 Patika"}}, {"type": "node", "id": 2114336716, "lat": 47.1937376, "lon": 18.4155664, "tags": {"amenity": "pharmacy", "healthcare": "pharmacy", "name": "Victoria gy\u00f3gyszert\u00e1r"}}, {"type": "node", "id": 2114336720, "lat": 47.2052708, "lon": 18.4601688, "tags": {"amenity": "pharmacy", "healthcare": "pharmacy", "name": "\u00d6reghegyi gy\u00f3gyszert\u00e1r", "wheelchair": "no"}}, {"type": "node", "id": 2114485529, "lat": 47.2007086, "lon": 18.3790669, "tags": {"amenity": "pharmacy", "healthcare": "pharmacy", "name": "Vir\u00e1g Patika", "wheelchair": "yes"}}, {"type": "node", "id": 2114659237, "lat": 47.1901365, "lon": 18.4046289, "tags": {"addr:city": "Sz\u00e9kesfeh\u00e9rv\u00e1r", "addr:housenumber": "6", "addr:postcode": "8000", "addr:street": "Palotai \u00fat", "amenity": "pharmacy", "dispensing": "yes", "drive_through": "no", "healthcare": "pharmacy", "name": "Feh\u00e9r Palota gy\u00f3gyszert\u00e1r", "phone": "+36 22 501 670", "website": "http://patikaprofi.hu", "wheelchair": "yes"}}, {"type": "node", "id": 2159789767, "lat": 47.1829351, "lon": 18.4159077, "tags": {"addr:postcode": "8000", "addr:street": "Sz\u00e9chenyi utca", "amenity": "pharmacy", "healthcare": "pharmacy", "internet_access:ssid": "patika", "name": "Kerti \u00e9s Fekete Gy\u00f3gyszer\u00e9sz Bt. Sz\u00e9chenyi Gy\u00f3gyszert\u00e1r", "opening_hours": "Mo-Fr 07:30-18:30; Sa 08:00-12:00", "phone": "+36 22 316 367", "wheelchair": "yes"}}, {"type": "node", "id": 2171416614, "lat": 47.0432237, "lon": 18.6472794, "tags": {"addr:city": "S\u00e1rosd", "addr:housename": "Gy\u00f3gyszert\u00e1r", "addr:housenumber": "3", "addr:postcode": "2433", "addr:street": "Szabads\u00e1g t\u00e9r", "amenity": "pharmacy", "dispensing": "no", "healthcare": "pharmacy"}}, {"type": "node", "id": 2210356200, "lat": 47.2023622, "lon": 18.4461695}, {"type": "node", "id": 2210356205, "lat": 47.2023459, "lon": 18.446036}, {"type": "node", "id": 2210356225, "lat": 47.2024861, "lon": 18.4459989}, {"type": "node", "id": 2287948592, "lat": 47.204306, "lon": 18.2568657, "tags": {"addr:city": "Cs\u00f3r", "addr:postcode": "8041", "addr:street": "F\u0151 t\u00e9r", "amenity": "pharmacy", "healthcare": "pharmacy"}}, {"type": "node", "id": 2329338334, "lat": 47.1491134, "lon": 18.4335992, "tags": {"addr:city": "Sz\u00e9kesfeh\u00e9rv\u00e1r", "addr:postcode": "8000", "addr:street": "Holland fasor", "amenity": "pharmacy", "brand": "Benu", "brand:wikidata": "Q62562792", "check_date": "2024-02-03", "healthcare": "pharmacy", "name": "Benu", "opening_hours": "Mo-Sa 08:00-20:00; Su 09:00-18:00", "wheelchair": "yes"}}, {"type": "node", "id": 2334673408, "lat": 47.1899709, "lon": 18.4353291, "tags": {"addr:city": "Sz\u00e9kesfeh\u00e9rv\u00e1r", "addr:postcode": "8000", "addr:street": "Hunyadi utca", "amenity": "pharmacy", "brand": "Benu", "brand:wikidata": "Q62562792", "dispensing": "yes", "drive_through": "no", "healthcare": "pharmacy", "name": "Benu", "opening_hours": "Mo-Fr 08:00-17:30"}}, {"type": "node", "id": 2335763218, "lat": 47.1895696, "lon": 18.4073486, "tags": {"addr:city": "Sz\u00e9kesfeh\u00e9rv\u00e1r", "addr:housenumber": "3", "addr:postcode": "8000", "addr:street": "Palotai \u00fat", "amenity": "pharmacy", "dispensing": "yes", "drive_through": "no", "healthcare": "pharmacy", "name": "Alba Plaza Gy\u00f3gyszert\u00e1r", "phone": "+36 22 501 194", "website": "http://www.almapatika.com/", "wheelchair": "yes"}}, {"type": "node", "id": 2340755357, "lat": 47.0584621, "lon": 18.2956227, "tags": {"addr:city": "Polg\u00e1rdi", "addr:housenumber": "11", "addr:postcode": "8154", "addr:street": "Munk\u00e1csy Mih\u00e1ly lak\u00f3telep", "amenity": "pharmacy", "healthcare": "pharmacy", "name": "Feh\u00e9r Galamb1875 Gy\u00f3gyszert\u00e1r", "phone": "+36 22 576 036", "website": "http://fehergalambpatika.hu/"}}, {"type": "node", "id": 2406651608, "lat": 46.995276, "lon": 18.2434504, "tags": {"amenity": "pharmacy", "dispensing": "yes", "name": "Turul gy\u00f3gyszert\u00e1r"}}, {"type": "node", "id": 2780884419, "lat": 47.2226731, "lon": 18.6572777, "tags": {"amenity": "pharmacy", "name": "Velence Gy\u00f3gyszert\u00e1r", "toilets:wheelchair": "yes", "wheelchair": "yes"}}, {"type": "node", "id": 2990139035, "lat": 47.0727591, "lon": 18.6856751}, {"type": "node", "id": 2990139036, "lat": 47.0728083, "lon": 18.6857621}, {"type": "node", "id": 2990139037, "lat": 47.0727865, "lon": 18.6857888}, {"type": "node", "id": 2990139038, "lat": 47.0728234, "lon": 18.685854}, {"type": "node", "id": 2990139039, "lat": 47.0727603, "lon": 18.685931}, {"type": "node", "id": 2990139040, "lat": 47.0727261, "lon": 18.6858706}, {"type": "node", "id": 2990139041, "lat": 47.0726843, "lon": 18.6859217}, {"type": "node", "id": 2990139042, "lat": 47.0726313, "lon": 18.685828}, {"type": "node", "id": 2990139043, "lat": 47.0726508, "lon": 18.6858042}, {"type": "node", "id": 2990139044, "lat": 47.0726142, "lon": 18.6857395}, {"type": "node", "id": 2990139045, "lat": 47.0726754, "lon": 18.6856648}, {"type": "node", "id": 2990139046, "lat": 47.072713, "lon": 18.6857313}, {"type": "node", "id": 3459826727, "lat": 47.15473, "lon": 18.3323, "tags": {"addr:city": "S\u00e1rszentmih\u00e1ly", "addr:postcode": "8143", "addr:street": "F\u0151 \u00fat", "amenity": "pharmacy", "healthcare": "pharmacy", "name": "M\u00e1lyva Patika", "source": "turistautak.hu", "source:date": "2012-11-15", "url": "http://turistautak.hu/poi.php?id=147107"}}, {"type": "node", "id": 3463077441, "lat": 47.1911479, "lon": 18.4241803, "tags": {"addr:city": "Sz\u00e9kesfeh\u00e9rv\u00e1r", "addr:housenumber": "41", "addr:postcode": "8000", "addr:street": "Budai \u00fat", "amenity": "pharmacy", "description": "Az InterSpar oldal\u00e1ban", "fixme": "resurvey (source was old)", "healthcare": "pharmacy", "name": "Budai gy\u00f3gyszert\u00e1r", "opening_hours": "Mo-Sa 08:00-20:00; PH off", "source": "turistautak.hu", "source:date": "2009-08-05", "toilets:wheelchair": "no", "url": "http://turistautak.hu/poi.php?id=17330", "wheelchair": "yes"}}, {"type": "node", "id": 3463077716, "lat": 47.190696, "lon": 18.417532, "tags": {"amenity": "pharmacy", "healthcare": "pharmacy", "source": "turistautak.hu", "source:date": "2011-06-25", "url": "http://turistautak.hu/poi.php?id=96656"}}, {"type": "node", "id": 3465128449, "lat": 46.8570633, "lon": 18.6313574, "tags": {"amenity": "pharmacy", "fixme": "resurvey", "healthcare": "pharmacy"}}, {"type": "node", "id": 3465128470, "lat": 46.8850093, "lon": 18.620445, "tags": {"amenity": "pharmacy", "healthcare": "pharmacy", "name": "Korona Gy\u00f3gyszert\u00e1r", "opening_hours": "Mo-Fr 07:30-18:30; Sa 07:30-12:30", "source": "turistautak.hu", "source:date": "2012-01-01", "url": "http://turistautak.hu/poi.php?id=125855"}}, {"type": "node", "id": 3469211081, "lat": 47.1683813, "lon": 18.4077696, "tags": {"amenity": "pharmacy", "healthcare": "pharmacy", "name": "S\u00f3st\u00f3 Gy\u00f3gyszert\u00e1r", "source": "survey", "wheelchair": "yes"}}, {"type": "node", "id": 3489663054, "lat": 46.8412852, "lon": 18.3367524, "tags": {"amenity": "pharmacy", "healthcare": "pharmacy", "source": "turistautak.hu", "source:date": "2012-10-14", "url": "http://turistautak.hu/poi.php?id=37488"}}, {"type": "node", "id": 4170281664, "lat": 47.1907466, "lon": 18.4086366, "tags": {"addr:city": "Sz\u00e9kesfeh\u00e9rv\u00e1r", "addr:housenumber": "1", "addr:postcode": "8000", "addr:street": "Liszt Ferenc utca", "amenity": "pharmacy", "dispensing": "yes", "drive_through": "no", "healthcare": "pharmacy", "name": "Szent Anna Gy\u00f3gyszert\u00e1r", "opening_hours": "Mo-Fr 07:30-18:30; Sa 07:30-12:00"}}, {"type": "node", "id": 4170281668, "lat": 47.1902441, "lon": 18.4086212, "tags": {"addr:city": "Sz\u00e9kesfeh\u00e9rv\u00e1r", "addr:housenumber": "7", "addr:postcode": "8000", "addr:street": "Liszt Ferenc utca", "amenity": "pharmacy", "brand": "Benu", "brand:wikidata": "Q62562792", "dispensing": "yes", "drive_through": "no", "healthcare": "pharmacy", "name": "Vital Plusz Patika", "opening_hours": "Mo-Fr 07:30-18:30; Sa 08:00-13:00", "website": "https://benu.hu/vital-plusz-patika-szekesfehervar"}}, {"type": "node", "id": 4200188544, "lat": 47.0022394, "lon": 18.5466064, "tags": {"addr:city": "S\u00e1rkereszt\u00far", "addr:housenumber": "21", "addr:postcode": "8125", "addr:street": "Szent Istv\u00e1n \u00fat", "amenity": "pharmacy", "name": "Kis Gy\u00f3gyszert\u00e1r S\u00e1rkereszt\u00far"}}, {"type": "node", "id": 4334168423, "lat": 47.1381558, "lon": 18.2358738, "tags": {"amenity": "pharmacy", "healthcare": "pharmacy"}}, {"type": "node", "id": 4460780854, "lat": 47.2165545, "lon": 18.5413462}, {"type": "node", "id": 4460780855, "lat": 47.2165296, "lon": 18.5412239}, {"type": "node", "id": 4460780856, "lat": 47.2164148, "lon": 18.5412745}, {"type": "node", "id": 4460780857, "lat": 47.2164397, "lon": 18.5413968}, {"type": "node", "id": 4460780868, "lat": 47.2165175, "lon": 18.5412296}, {"type": "node", "id": 5087809591, "lat": 47.1586457, "lon": 18.1217009, "tags": {"addr:city": "P\u00e9tf\u00fcrd\u0151", "addr:housenumber": "3", "addr:postcode": "8105", "addr:street": "Iskola utca", "amenity": "pharmacy", "healthcare": "pharmacy", "name": "Perfect gy\u00f3gyszert\u00e1r", "opening_hours": "Mo-Fr 08:00-17:00; Sa 08:00-11:00; PH off", "phone": "+36 88 476 640", "website": "https://www.petipatika.hu/", "wheelchair": "yes"}}, {"type": "node", "id": 5827852107, "lat": 47.0304616, "lon": 18.5225896}, {"type": "node", "id": 5827852108, "lat": 47.0303543, "lon": 18.5223769}, {"type": "node", "id": 5827852109, "lat": 47.0303399, "lon": 18.5223571}, {"type": "node", "id": 5827852110, "lat": 47.0303497, "lon": 18.5223434}, {"type": "node", "id": 5827852111, "lat": 47.0302697, "lon": 18.5223788}, {"type": "node", "id": 5827852112, "lat": 47.0302963, "lon": 18.5224105}, {"type": "node", "id": 5827852113, "lat": 47.0302374, "lon": 18.5224536}, {"type": "node", "id": 5827852114, "lat": 47.0303758, "lon": 18.5226767}, {"type": "node", "id": 5921097220, "lat": 46.813909, "lon": 18.4816441, "tags": {"amenity": "pharmacy", "brand": "Benu", "brand:wikidata": "Q62562792", "dispensing": "yes", "healthcare": "pharmacy", "name": "Benu", "operator": "Benu"}}, {"type": "node", "id": 6627732343, "lat": 47.1126576, "lon": 18.1312257, "tags": {"amenity": "pharmacy", "healthcare": "pharmacy"}}, {"type": "node", "id": 6800276798, "lat": 47.0303298, "lon": 18.5223148}, {"type": "node", "id": 8438542817, "lat": 47.1984941, "lon": 18.4155895, "tags": {"amenity": "pharmacy", "healthcare": "pharmacy", "name": "Kir\u00e1lyk\u00fat Gy\u00f3gyn\u00f6v\u00e9ny Szak\u00fczlet", "opening_hours": "Mo-Fr 08:30-17:30; Sa 08:30-12:00"}}, {"type": "node", "id": 8463685147, "lat": 47.1922941, "lon": 18.3971527, "tags": {"addr:city": "Sz\u00e9kesfeh\u00e9rv\u00e1r", "addr:postcode": "8000", "addr:street": "Besz\u00e9des J\u00f3zsef t\u00e9r", "amenity": "pharmacy", "dispensing": "yes", "healthcare": "pharmacy", "name": "Skorpi\u00f3 Patika", "opening_hours": "Mo-Fr 07:30-18:30; Sa 08:00-12:00", "payment:american_express": "yes", "payment:cash": "yes", "payment:mastercard": "yes", "payment:visa": "yes", "phone": "+36 22 504 778"}}, {"type": "node", "id": 10695799478, "lat": 47.1970308, "lon": 18.6073823, "tags": {"amenity": "pharmacy", "healthcare": "pharmacy", "name": "Zaf\u00edr Gy\u00f3gyszert\u00e1r"}}, {"type": "node", "id": 11163155488, "lat": 47.1613473, "lon": 18.071063, "tags": {"addr:city": "\u00d6sk\u00fc", "addr:housenumber": "1", "addr:postcode": "8191", "addr:street": "Iskola utca", "amenity": "pharmacy", "contact:phone": "+36 88 497 270", "healthcare": "pharmacy", "wheelchair": "yes"}}, {"type": "node", "id": 11164713980, "lat": 46.8709318, "lon": 18.4431713, "tags": {"amenity": "pharmacy", "brand": "Benu", "brand:wikidata": "Q62562792", "healthcare": "pharmacy", "name": "Korona Gy\u00f3gyszert\u00e1r", "wheelchair": "yes"}}, {"type": "node", "id": 12463426053, "lat": 47.2025088, "lon": 18.4461849}, {"type": "node", "id": 12463426054, "lat": 47.2023686, "lon": 18.446222}, {"type": "node", "id": 12541845668, "lat": 47.1894604, "lon": 18.4257915, "tags": {"amenity": "pharmacy", "healthcare": "pharmacy", "name": "Medicover", "opening_hours": "Mo-Fr 07:00-20:00; Sa 08:00-18:00"}}, {"type": "way", "id": 295304893, "nodes": [2990139035, 2990139036, 2990139037, 2990139038, 2990139039, 2990139040, 2990139041, 2990139042, 2990139043, 2990139044, 2990139045, 2990139046, 2990139035], "tags": {"addr:city": "Szabadegyh\u00e1za", "addr:street": "S\u00e1rosdi utca", "amenity": "pharmacy", "building": "yes"}}, {"type": "way", "id": 449112612, "nodes": [4460780854, 4460780855, 4460780868, 4460780856, 4460780857, 4460780854], "tags": {"addr:city": "P\u00e1kozd", "addr:housenumber": "12", "addr:postcode": "8095", "addr:street": "H\u0151s\u00f6k tere", "amenity": "pharmacy", "building": "yes", "dispensing": "no", "healthcare": "pharmacy", "name": "Bella Gy\u00f3gyszert\u00e1r", "opening_hours": "Mo-Fr 07:30-17:00", "phone": "+36 22 458 520", "wheelchair": "yes"}}, {"type": "way", "id": 616389227, "nodes": [5827852107, 5827852108, 5827852109, 5827852110, 6800276798, 5827852111, 5827852112, 5827852113, 5827852114, 5827852107], "tags": {"addr:postcode": "8127", "addr:street": "R\u00e1k\u00f3czi Ferenc utca", "amenity": "pharmacy", "building": "yes", "dispensing": "yes", "healthcare": "pharmacy", "name": "Aranyes\u0151 Patika"}}, {"type": "way", "id": 1347373528, "nodes": [2210356200, 2210356205, 2210356225, 12463426053, 12463426054, 2210356200], "tags": {"addr:city": "Sz\u00e9kesfeh\u00e9rv\u00e1r", "addr:housenumber": "65", "addr:postcode": "8000", "addr:street": "Fisk\u00e1lis \u00fat", "amenity": "pharmacy", "building": "yes", "contact:phone": "+36 22 503 715", "dispensing": "yes", "healthcare": "pharmacy", "name": "Patika Plus Gy\u00f3gyszert\u00e1r", "opening_hours": "Mo-Fr 07:30-18:30; PH off", "source": "website", "source:date": "2024-12-30", "source:url": "http://patikaplusz.hu/patikakereso"}}]}