{"version": 0.6, "generator": "Overpass API 0.7.62.8 e802775f", "osm3s": {"timestamp_osm_base": "2025-10-06T08:40:23Z", "copyright": "The data included in this document is from www.openstreetmap.org. The data is made available under ODbL."}, "elements": [{"type": "node", "id": 804064754, "lat": 54.7326159, "lon": 20.4810871, "tags": {"amenity": "pharmacy", "name": "\u0424\u043e\u0440\u043c\u0443\u043b\u0430 \u0437\u0434\u043e\u0440\u043e\u0432\u044c\u044f"}}, {"type": "node", "id": 893435160, "lat": 54.6821524, "lon": 20.5734783, "tags": {"amenity": "pharmacy", "dispensing": "no", "healthcare": "pharmacy"}}, {"type": "node", "id": 950326637, "lat": 54.7206268, "lon": 20.4837651, "tags": {"amenity": "pharmacy", "operator": "\u0421\u0435\u043c\u0435\u0439\u043d\u0430\u044f"}}, {"type": "node", "id": 950326743, "lat": 54.7208413, "lon": 20.4739648, "tags": {"amenity": "pharmacy", "healthcare": "pharmacy", "name": "\u041d\u043e\u0432\u0410\u044f", "opening_hours": "24/7"}}, {"type": "node", "id": 1035546990, "lat": 54.7247652, "lon": 20.4977825, "tags": {"amenity": "pharmacy", "name": "\u041f\u043b\u0430\u043d\u0435\u0442\u0430 \u0417\u0434\u043e\u0440\u043e\u0432\u044c\u044f"}}, {"type": "node", "id": 1035547271, "lat": 54.7246778, "lon": 20.4964856, "tags": {"amenity": "pharmacy", "healthcare": "pharmacy", "name": "\u0411\u0438\u043e\u0434\u0430\u0440", "opening_hours": "Mo-Sa 08:00-22:00; Su 09:00-21:00"}}, {"type": "node", "id": 1035547779, "lat": 54.7243085, "lon": 20.4977328, "tags": {"amenity": "pharmacy", "healthcare": "pharmacy"}}, {"type": "node", "id": 1051991999, "lat": 54.7354387, "lon": 20.5233767}, {"type": "node", "id": 1051992923, "lat": 54.7355396, "lon": 20.5234874}, {"type": "node", "id": 1051993548, "lat": 54.7354577, "lon": 20.5237115}, {"type": "node", "id": 1051994581, "lat": 54.7353568, "lon": 20.5236009}, {"type": "node", "id": 1052281407, "lat": 54.742357, "lon": 20.5089551, "tags": {"amenity": "pharmacy", "entrance": "main", "name": "\u0410\u043f\u0442\u0435\u043a\u0430 \u041f\u043b\u044e\u0441", "opening_hours": "09:00-21:00"}}, {"type": "node", "id": 1121638407, "lat": 54.6811173, "lon": 20.4737804, "tags": {"addr:city": "\u041a\u0430\u043b\u0438\u043d\u0438\u043d\u0433\u0440\u0430\u0434", "addr:housenumber": "103", "addr:street": "\u041a\u0438\u0435\u0432\u0441\u043a\u0430\u044f \u0443\u043b\u0438\u0446\u0430", "amenity": "pharmacy", "drive_through": "no", "healthcare": "pharmacy", "name": "\u042d\u043a\u043e \u0410\u043f\u0442\u0435\u043a\u0430", "opening_hours": "Mo-Su 09:00-21:00"}}, {"type": "node", "id": 1123121666, "lat": 54.6818105, "lon": 20.4811133, "tags": {"addr:housenumber": "54-56", "addr:postcode": "236005", "addr:street": "\u041a\u0438\u0435\u0432\u0441\u043a\u0430\u044f \u0443\u043b\u0438\u0446\u0430", "amenity": "pharmacy", "healthcare": "pharmacy", "name": "\u0424\u0430\u0440\u043c\u0430-\u0412\u0438\u0442\u0430", "opening_hours": "24/7"}}, {"type": "node", "id": 1123367272, "lat": 54.6813164, "lon": 20.476147, "tags": {"amenity": "pharmacy", "dispensing": "no", "healthcare": "pharmacy"}}, {"type": "node", "id": 1129289693, "lat": 54.7683445, "lon": 20.4468791, "tags": {"amenity": "pharmacy", "opening_hours": "Mo-Su 09:00-14:00,15:00-21:00"}}, {"type": "node", "id": 1129289694, "lat": 54.7715613, "lon": 20.4477734, "tags": {"amenity": "pharmacy", "name": "\u0410\u043f\u0442\u0435\u0447\u043d\u044b\u0439 \u043f\u0443\u043d\u043a\u0442", "opening_hours": "Mo-Fr 09:00-20:00; Sa,Su 10:00-19:00"}}, {"type": "node", "id": 1184791933, "lat": 54.7246079, "lon": 20.4904976, "tags": {"amenity": "pharmacy", "dispensing": "no"}}, {"type": "node", "id": 1188129782, "lat": 54.7252081, "lon": 20.5517986, "tags": {"amenity": "pharmacy", "dispensing": "no"}}, {"type": "node", "id": 1193398802, "lat": 54.6734518, "lon": 20.5009864, "tags": {"amenity": "pharmacy"}}, {"type": "node", "id": 1193401196, "lat": 54.6722751, "lon": 20.5015696, "tags": {"addr:postcode": "236011", "amenity": "pharmacy", "name": "\u041f\u0430\u043d\u0430\u0446\u0435\u044f-\u0424\u0430\u0440\u043c", "opening_hours": "Mo-Su 09:00-23:00"}}, {"type": "node", "id": 1199967529, "lat": 54.741598, "lon": 20.5825004, "tags": {"amenity": "pharmacy", "healthcare": "pharmacy", "level": "2", "name": "\u042d\u043a\u043e\u0410\u043f\u0442\u0435\u043a\u0430"}}, {"type": "node", "id": 1230574017, "lat": 54.7431351, "lon": 20.493317, "tags": {"amenity": "pharmacy", "name:ru": "\u0410\u043f\u0442\u0435\u043a\u0430 \u0441\u0442\u043e\u043c\u0430\u0442\u043e\u043b\u043e\u0433\u0438\u044f", "opening_hours": "24/7"}}, {"type": "node", "id": 1256623396, "lat": 54.7708277, "lon": 20.447806, "tags": {"amenity": "pharmacy", "name": "\u0414\u043e\u043c\u0430\u0448\u043d\u044f\u044f \u0430\u043f\u0442\u0435\u0447\u043a\u0430", "opening_hours": "Mo-Su 10:00-20:00"}}, {"type": "node", "id": 1283664668, "lat": 54.7244977, "lon": 20.5090814, "tags": {"amenity": "pharmacy", "healthcare": "pharmacy", "name": "\u042d\u041a\u041e"}}, {"type": "node", "id": 1320827770, "lat": 54.6936089, "lon": 20.472885, "tags": {"amenity": "pharmacy", "healthcare": "pharmacy", "name": "\u041f\u0440\u043e\u0434\u0443\u043a\u0442\u043e\u0432\u044b\u0439 \u043c\u0430\u0433\u0430\u0437\u0438\u043d \"SPAR\""}}, {"type": "node", "id": 1359939540, "lat": 54.7357188, "lon": 20.5267977, "tags": {"amenity": "pharmacy", "healthcare": "pharmacy", "name": "\u041d\u043e\u0432\u0430\u044f \u0430\u043f\u0442\u0435\u043a\u0430"}}, {"type": "node", "id": 1415712769, "lat": 54.7197387, "lon": 20.4857428, "tags": {"amenity": "pharmacy", "dispensing": "no", "healthcare": "pharmacy", "name": "\u0424\u043e\u0440\u043c\u0443\u043b\u0430 \u0437\u0434\u043e\u0440\u043e\u0432\u044c\u044f", "opening_hours": "24/7"}}, {"type": "node", "id": 1419118458, "lat": 54.7267624, "lon": 20.5279692, "tags": {"amenity": "pharmacy", "name": "\u0424\u043e\u0440\u043c\u0443\u043b\u0430 \u0417\u0434\u043e\u0440\u043e\u0432\u044c\u044f"}}, {"type": "node", "id": 1422366959, "lat": 54.7418216, "lon": 20.5318781, "tags": {"amenity": "pharmacy"}}, {"type": "node", "id": 1512683282, "lat": 54.6992695, "lon": 20.5107026, "tags": {"amenity": "pharmacy", "dispensing": "no", "healthcare": "pharmacy"}}, {"type": "node", "id": 1523124092, "lat": 54.7131556, "lon": 20.5074901, "tags": {"amenity": "pharmacy", "dispensing": "no", "healthcare": "pharmacy", "name": "\u0424\u043e\u0440\u043c\u0443\u043b\u0430 \u0437\u0434\u043e\u0440\u043e\u0432\u044c\u044f"}}, {"type": "node", "id": 1576702703, "lat": 54.717797, "lon": 20.5003331, "tags": {"amenity": "pharmacy", "healthcare": "pharmacy", "opening_hours": "10:00-21:00"}}, {"type": "node", "id": 1621237933, "lat": 54.7200748, "lon": 20.5138834, "tags": {"amenity": "pharmacy", "dispensing": "yes", "name": "\u0424\u043e\u0440\u043c\u0443\u043b\u0430 \u0437\u0434\u043e\u0440\u043e\u0432\u044c\u044f"}}, {"type": "node", "id": 1633664093, "lat": 54.7242061, "lon": 20.4976748, "tags": {"amenity": "pharmacy", "brand": "\u0420\u0438\u0433\u043b\u0430", "brand:wikidata": "Q4394431", "contact:email": "msk@rigla.ru", "contact:facebook": "https://www.facebook.com/rigla.ru", "contact:instagram": "https://www.instagram.com/rigla.ru/", "contact:ok": "https://ok.ru/rigla.ru", "contact:vk": "https://vk.com/rigla_ru", "contact:website": "http://www.rigla.ru", "dispensing": "no", "healthcare": "pharmacy", "name": "\u0420\u0438\u0433\u043b\u0430", "name:ru": "\u0420\u0438\u0433\u043b\u0430", "operator:wikidata": "Q4394431", "operator:wikipedia": "ru:\u0420\u0438\u0433\u043b\u0430"}}, {"type": "node", "id": 1636237225, "lat": 54.7379401, "lon": 20.4738288, "tags": {"addr:postcode": "236023", "amenity": "pharmacy", "dispensing": "no", "email": "mail@farmed39.ru", "healthcare": "pharmacy", "name": "\u0424\u0430\u0440\u043c\u0435\u0434", "opening_hours": "Mo-Su 10:00-22:00", "phone": "+7 4012 512696"}}, {"type": "node", "id": 1636249639, "lat": 54.6955385, "lon": 20.5190584}, {"type": "node", "id": 1636249640, "lat": 54.6955564, "lon": 20.5196531}, {"type": "node", "id": 1636249646, "lat": 54.6957329, "lon": 20.5190409}, {"type": "node", "id": 1636249647, "lat": 54.6957508, "lon": 20.5196355}, {"type": "node", "id": 1637098735, "lat": 54.7347945, "lon": 20.4729196, "tags": {"addr:housenumber": "109", "addr:postcode": "236023", "addr:street": "\u041a\u0440\u0430\u0441\u043d\u0430\u044f \u0443\u043b\u0438\u0446\u0430", "amenity": "pharmacy", "dispensing": "no", "name": "\u0424\u0430\u0440\u043c\u0430 \u041a\u044d\u0448", "opening_hours": "Mo-Su 08:00-22:00", "phone": "+7 4012 777003"}}, {"type": "node", "id": 1651431238, "lat": 54.7130041, "lon": 20.527787, "tags": {"amenity": "pharmacy", "dispensing": "no", "name": "\u041d\u043e\u0432\u0430\u044f \u0410\u043f\u0442\u0435\u043a\u0430", "opening_hours": "24/7"}}, {"type": "node", "id": 1671647371, "lat": 54.7270498, "lon": 20.5560155, "tags": {"amenity": "pharmacy", "dispensing": "no"}}, {"type": "node", "id": 1674425870, "lat": 54.7363985, "lon": 20.5083182, "tags": {"amenity": "pharmacy", "dispensing": "no", "name": "\u0421\u0435\u043c\u0435\u0439\u043d\u0430\u044f \u0430\u043f\u0442\u0435\u043a\u0430", "opening_hours": "24/7"}}, {"type": "node", "id": 1728574046, "lat": 54.7430279, "lon": 20.5094839, "tags": {"amenity": "pharmacy", "dispensing": "no", "name": "\u041d\u043e\u0432\u0430\u044f \u0430\u043f\u0442\u0435\u043a\u0430"}}, {"type": "node", "id": 1730356163, "lat": 54.7111985, "lon": 20.4435997, "tags": {"amenity": "pharmacy", "dispensing": "no"}}, {"type": "node", "id": 2038154922, "lat": 54.675192, "lon": 20.133785, "tags": {"amenity": "pharmacy", "dispensing": "yes", "name": "\u0410\u043f\u0442\u0435\u043a\u0430"}}, {"type": "node", "id": 2211555854, "lat": 54.7098908, "lon": 20.5285843, "tags": {"amenity": "pharmacy", "brand": "36,6", "brand:wikidata": "Q226889", "brand:wikipedia": "ru:36,6 (\u0430\u043f\u0442\u0435\u0447\u043d\u0430\u044f \u0441\u0435\u0442\u044c)", "healthcare": "pharmacy", "name": "36,6"}}, {"type": "node", "id": 2280569751, "lat": 54.7307053, "lon": 20.5321674, "tags": {"addr:housenumber": "5\u0411", "addr:street": "\u0443\u043b\u0438\u0446\u0430 \u0421\u0442\u0430\u0440\u0448\u0438\u043d\u044b \u0414\u0430\u0434\u0430\u0435\u0432\u0430", "amenity": "pharmacy", "name": "\u0413\u0435\u0434\u0435\u043e\u043d", "website": "http://www.gedeon39.ru"}}, {"type": "node", "id": 2280977484, "lat": 54.7261842, "lon": 20.5368239, "tags": {"amenity": "pharmacy"}}, {"type": "node", "id": 2280977491, "lat": 54.7262694, "lon": 20.5371161, "tags": {"amenity": "pharmacy"}}, {"type": "node", "id": 2280977495, "lat": 54.7259457, "lon": 20.5374487, "tags": {"amenity": "pharmacy", "name": "\u041f\u0430\u043d\u0430\u0446\u0435\u044f"}}, {"type": "node", "id": 2295533014, "lat": 54.7285209, "lon": 20.5380744, "tags": {"amenity": "pharmacy", "dispensing": "yes", "name": "\u041d\u043e\u0432\u0430\u044f \u0430\u043f\u0442\u0435\u043a\u0430"}}, {"type": "node", "id": 2307468325, "lat": 54.7134257, "lon": 20.5320096, "tags": {"addr:street": "\u0443\u043b\u0438\u0446\u0430 \u0424\u0440\u0443\u043d\u0437\u0435", "amenity": "pharmacy", "dispensing": "yes", "name": "\u0421\u043e\u0446\u0438\u0430\u043b\u044c\u043d\u0430\u044f \u0430\u043f\u0442\u0435\u043a\u0430"}}, {"type": "node", "id": 2321571040, "lat": 54.7255299, "lon": 20.5438142}, {"type": "node", "id": 2321571042, "lat": 54.7255313, "lon": 20.5433882}, {"type": "node", "id": 2321571043, "lat": 54.7256459, "lon": 20.5438154}, {"type": "node", "id": 2321571045, "lat": 54.7256474, "lon": 20.5433894}, {"type": "node", "id": 2380347859, "lat": 54.7690787, "lon": 20.4473115, "tags": {"amenity": "pharmacy", "name": "\u0424\u043e\u0440\u043c\u0430\u0442 \"\u042d\u041a\u041e\" \u211638", "opening_hours": "Mo-Su 09:00-21:00"}}, {"type": "node", "id": 2408664930, "lat": 54.7286102, "lon": 20.492165, "tags": {"amenity": "pharmacy", "dispensing": "no"}}, {"type": "node", "id": 2427753111, "lat": 54.7285142, "lon": 20.461525, "tags": {"amenity": "pharmacy", "dispensing": "no"}}, {"type": "node", "id": 2596302085, "lat": 54.681315, "lon": 20.4683264, "tags": {"amenity": "pharmacy", "dispensing": "no", "healthcare": "pharmacy"}}, {"type": "node", "id": 2621958473, "lat": 54.6809549, "lon": 20.4983069, "tags": {"amenity": "pharmacy", "dispensing": "no"}}, {"type": "node", "id": 2657192139, "lat": 54.7168301, "lon": 20.5116597, "tags": {"amenity": "pharmacy", "dispensing": "no", "healthcare": "pharmacy", "name": "\u041d\u043e\u0432\u0430\u044f \u0430\u043f\u0442\u0435\u043a\u0430", "opening_hours": "24/7"}}, {"type": "node", "id": 2664625217, "lat": 54.7292182, "lon": 20.4818362, "tags": {"amenity": "pharmacy", "dispensing": "no", "healthcare": "pharmacy", "opening_hours": "Mo-Su 09:00-21:00"}}, {"type": "node", "id": 2684243599, "lat": 54.6761715, "lon": 20.1367531, "tags": {"amenity": "pharmacy", "name": "\u0421\u0430\u0432\u0430\u0440", "opening_hours": "Mo-Sa 09:00-21:00; Su 09:00-19:00"}}, {"type": "node", "id": 2697593487, "lat": 54.7424665, "lon": 20.5105814, "tags": {"amenity": "pharmacy", "dispensing": "no", "entrance": "main", "name": "\u0410\u043b\u043e\u044d", "opening_hours": "09:00-21:00"}}, {"type": "node", "id": 3158281994, "lat": 54.6998857, "lon": 20.5130111, "tags": {"amenity": "pharmacy", "healthcare": "pharmacy", "name": "\u041d\u043e\u0432\u0430\u044f \u0410\u043f\u0442\u0435\u043a\u0430"}}, {"type": "node", "id": 3158993992, "lat": 54.7221801, "lon": 20.4962192, "tags": {"amenity": "pharmacy", "healthcare": "pharmacy"}}, {"type": "node", "id": 3158999338, "lat": 54.7251507, "lon": 20.5096985, "tags": {"amenity": "pharmacy", "healthcare": "pharmacy", "name": "\u0424\u043e\u0440\u043c\u0443\u043b\u0430 \u0417\u0434\u043e\u0440\u043e\u0432\u044c\u044f", "opening_hours": "Mo-Su 09:00-21:00", "phone": "+7 4012 387746", "source": "survey", "website": "https://aptekafz.ru/"}}, {"type": "node", "id": 3218109196, "lat": 54.7276719, "lon": 20.3533723, "tags": {"amenity": "pharmacy", "name": "\u0424\u043e\u0440\u043c\u0443\u043b\u0430 \u0417\u0434\u043e\u0440\u043e\u0432\u044c\u044f", "opening_hours": "Mo-Su 08:00-21:00"}}, {"type": "node", "id": 3415535254, "lat": 54.7129725, "lon": 20.512997, "tags": {"addr:city": "\u041a\u0430\u043b\u0438\u043d\u0438\u043d\u0433\u0440\u0430\u0434", "addr:housenumber": "15", "addr:postcode": "236040", "addr:street": "\u041f\u0440\u043e\u043b\u0435\u0442\u0430\u0440\u0441\u043a\u0430\u044f \u0443\u043b\u0438\u0446\u0430", "amenity": "pharmacy", "healthcare": "pharmacy", "name": "\u0410\u043f\u0442\u0435\u043a\u0430 \u0424\u043e\u0440\u0442\u0435", "opening_hours": "09:00-21:00", "wheelchair": "yes"}}, {"type": "node", "id": 3572609413, "lat": 54.949705, "lon": 20.2258139, "tags": {"amenity": "pharmacy", "healthcare": "pharmacy"}}, {"type": "node", "id": 3625949048, "lat": 54.6777736, "lon": 20.1379301, "tags": {"amenity": "pharmacy", "name": "\u0410\u043f\u0442\u0435\u043a\u0430 \u043f\u043b\u044e\u0441"}}, {"type": "node", "id": 4133319554, "lat": 54.6958621, "lon": 20.4826632, "tags": {"amenity": "pharmacy", "healthcare": "pharmacy", "name": "\u041f\u0440\u043e\u0434\u0443\u043a\u0442\u043e\u0432\u044b\u0439 \u043c\u0430\u0433\u0430\u0437\u0438\u043d"}}, {"type": "node", "id": 4168327370, "lat": 54.6709201, "lon": 20.5009782, "tags": {"amenity": "pharmacy", "entrance": "yes"}}, {"type": "node", "id": 4195690754, "lat": 54.6757876, "lon": 20.6208403, "tags": {"amenity": "pharmacy", "wheelchair": "no"}}, {"type": "node", "id": 4241733934, "lat": 54.6781601, "lon": 20.4962989, "tags": {"addr:city": "\u041a\u0430\u043b\u0438\u043d\u0438\u043d\u0433\u0440\u0430\u0434", "addr:housenumber": "17\u0411", "addr:postcode": "236011", "addr:street": "\u0411\u0430\u0442\u0430\u043b\u044c\u043d\u0430\u044f \u0443\u043b\u0438\u0446\u0430", "amenity": "pharmacy", "drive_through": "no", "healthcare": "pharmacy", "name": "\u0417\u0434\u0440\u0430\u0432\u0441\u0438\u0442\u0438", "name:en": "Zdravcity"}}, {"type": "node", "id": 4241786390, "lat": 54.6783381, "lon": 20.4957267, "tags": {"amenity": "pharmacy"}}, {"type": "node", "id": 4270697489, "lat": 54.7261498, "lon": 20.3538234, "tags": {"addr:postcode": "236013", "amenity": "pharmacy", "contact:phone": "+7 800 7009300", "contact:website": "https://gorzdrav.org", "healthcare": "pharmacy", "name": "\u0413\u043e\u0440\u0437\u0434\u0440\u0430\u0432", "opening_hours": "Mo-Su 09:00-20:00"}}, {"type": "node", "id": 4356487297, "lat": 54.7188872, "lon": 20.5130737, "tags": {"amenity": "pharmacy", "brand": "\u041f\u0435\u0440\u0432\u0430\u044f \u043f\u043e\u043c\u043e\u0449\u044c", "brand:wikidata": "Q110253609", "healthcare": "pharmacy", "name": "\u041f\u0435\u0440\u0432\u0430\u044f \u043f\u043e\u043c\u043e\u0449\u044c"}}, {"type": "node", "id": 4356875194, "lat": 54.6748533, "lon": 20.5120869, "tags": {"addr:housenumber": "15", "addr:postcode": "236011", "addr:street": "\u0443\u043b\u0438\u0446\u0430 \u041e\u043b\u0435\u0433\u0430 \u041a\u043e\u0448\u0435\u0432\u043e\u0433\u043e", "amenity": "pharmacy", "email": "askoreyko@aloe39.ru", "healthcare": "pharmacy", "name": "\u0411\u0443\u0434\u044c \u0437\u0434\u043e\u0440\u043e\u0432", "name:en": "Bud\u2019 zdorov", "opening_hours": "Mo-Su 08:00-21:00", "phone": "+7 4012 988045", "website": "https://www.rigla.ru/about/bud_zdorov/"}}, {"type": "node", "id": 4368447589, "lat": 54.7469463, "lon": 20.4832909, "tags": {"amenity": "pharmacy", "name": "\u0414\u043b\u044f \u0431\u0435\u0440\u0435\u0436\u043b\u0438\u0432\u044b\u0445", "name:ru": "\u0414\u043b\u044f \u0431\u0435\u0440\u0435\u0436\u043b\u0438\u0432\u044b\u0445"}}, {"type": "node", "id": 4372056005, "lat": 54.6742881, "lon": 20.4903223, "tags": {"addr:postcode": "236011", "amenity": "pharmacy", "name": "\u042d\u043a\u043e\u0410\u043f\u0442\u0435\u043a\u0430", "opening_hours": "Mo-Su 09:00-21:00", "phone": "+7 4012 386621", "website": "https://aptekafz.ru/"}}, {"type": "node", "id": 4372073993, "lat": 54.7353216, "lon": 20.4809078, "tags": {"addr:housenumber": "87\u201389", "addr:postcode": "236023", "addr:street": "\u0443\u043b\u0438\u0446\u0430 \u041a\u043e\u0441\u043c\u043e\u043d\u0430\u0432\u0442\u0430 \u041b\u0435\u043e\u043d\u043e\u0432\u0430", "amenity": "pharmacy", "healthcare": "pharmacy", "name": "\u0421-\u0424\u0430\u0440\u043c", "opening_hours": "Mo-Su 09:00-21:00", "phone": "+7 906 2375638"}}, {"type": "node", "id": 4404462289, "lat": 54.735613, "lon": 20.4736797, "tags": {"addr:housenumber": "138", "addr:postcode": "236023", "addr:street": "\u041a\u0440\u0430\u0441\u043d\u0430\u044f \u0443\u043b\u0438\u0446\u0430", "amenity": "pharmacy", "healthcare": "pharmacy", "name": "\u042d\u043a\u043e\u043d\u043e\u043c", "opening_hours": "Mo-Su 08:00-21:00", "phone": "+7 4012 914404"}}, {"type": "node", "id": 4405436708, "lat": 54.7151595, "lon": 20.3722733, "tags": {"addr:postcode": "236013", "amenity": "pharmacy", "email": "office@aptekafz.ru", "name": "\u0424\u043e\u0440\u043c\u0443\u043b\u0430 \u0437\u0434\u043e\u0440\u043e\u0432\u044c\u044f", "opening_hours": "Mo-Su 09:00-21:00", "phone": "+7 4012 777003", "website": "https://aptekafz.ru/"}}, {"type": "node", "id": 4405436709, "lat": 54.7488942, "lon": 20.4587486, "tags": {"addr:postcode": "236023", "amenity": "pharmacy", "email": "office@aptekafz.ru", "name": "\u0424\u043e\u0440\u043c\u0443\u043b\u0430 \u0437\u0434\u043e\u0440\u043e\u0432\u044c\u044f", "opening_hours": "Mo-Su 09:00-21:00", "phone": "+7 4012 777003", "website": "https://aptekafz.ru/"}}, {"type": "node", "id": 4411711494, "lat": 54.7244133, "lon": 20.4816096, "tags": {"addr:postcode": "236022", "amenity": "pharmacy", "healthcare": "pharmacy", "name": "\u041d\u043e\u0432\u0435\u043b\u044c-\u041f\u043b\u044e\u0441", "opening_hours": "Mo-Su 09:00-14:30,15:00-21:00", "phone": "+7 4012 215252"}}, {"type": "node", "id": 4422762092, "lat": 54.7470651, "lon": 20.5257148, "tags": {"amenity": "pharmacy"}}, {"type": "node", "id": 4431609690, "lat": 54.7216161, "lon": 20.4992625, "tags": {"amenity": "pharmacy", "brand": "\u0420\u0438\u0433\u043b\u0430", "brand:wikidata": "Q4394431", "contact:email": "msk@rigla.ru", "contact:facebook": "https://www.facebook.com/rigla.ru", "contact:instagram": "https://www.instagram.com/rigla.ru/", "contact:ok": "https://ok.ru/rigla.ru", "contact:vk": "https://vk.com/rigla_ru", "contact:website": "http://www.rigla.ru", "healthcare": "pharmacy", "name": "\u0420\u0438\u0433\u043b\u0430", "name:ru": "\u0420\u0438\u0433\u043b\u0430", "opening_hours": "Mo-Su 08:00-20:00", "operator:wikidata": "Q4394431", "operator:wikipedia": "ru:\u0420\u0438\u0433\u043b\u0430"}}, {"type": "node", "id": 4431609992, "lat": 54.7208407, "lon": 20.5009709, "tags": {"amenity": "pharmacy", "brand": "\u0420\u0438\u0433\u043b\u0430", "brand:wikidata": "Q4394431", "contact:email": "msk@rigla.ru", "contact:facebook": "https://www.facebook.com/rigla.ru", "contact:instagram": "https://www.instagram.com/rigla.ru/", "contact:ok": "https://ok.ru/rigla.ru", "contact:vk": "https://vk.com/rigla_ru", "contact:website": "http://www.rigla.ru", "healthcare": "pharmacy", "name": "\u0420\u0438\u0433\u043b\u0430", "name:ru": "\u0420\u0438\u0433\u043b\u0430", "opening_hours": "Mo-Su 08:00-20:00", "operator:wikidata": "Q4394431", "operator:wikipedia": "ru:\u0420\u0438\u0433\u043b\u0430"}}, {"type": "node", "id": 4433070192, "lat": 54.7355389, "lon": 20.5059102, "tags": {"amenity": "pharmacy", "name": "\u0424\u043e\u0440\u043c\u0443\u043b\u0430 \u0437\u0434\u043e\u0440\u043e\u0432\u044c\u044f", "name:ru": "\u0424\u043e\u0440\u043c\u0443\u043b\u0430 \u0437\u0434\u043e\u0440\u043e\u0432\u044c\u044f", "opening_hours": "Mo-Su 09:00-21:00"}}, {"type": "node", "id": 4434466092, "lat": 54.9616193, "lon": 20.4818382, "tags": {"amenity": "pharmacy", "check_date": "2024-10-05", "check_date:opening_hours": "2024-10-01", "healthcare": "pharmacy", "name": "\u0426\u0435\u043b\u0438\u0442\u0435\u043b\u044c", "name:ru": "\u0426\u0435\u043b\u0438\u0442\u0435\u043b\u044c", "opening_hours": "Mo-Su 09:00-20:00"}}, {"type": "node", "id": 4434725695, "lat": 54.7326584, "lon": 20.4811109, "tags": {"addr:housenumber": "61\u0410", "addr:postcode": "236023", "addr:street": "\u0443\u043b\u0438\u0446\u0430 \u041a\u043e\u0441\u043c\u043e\u043d\u0430\u0432\u0442\u0430 \u041b\u0435\u043e\u043d\u043e\u0432\u0430", "amenity": "pharmacy", "name": "\u041c\u0435\u0434\u0422\u043e\u0440\u0433", "name:ru": "\u041c\u0435\u0434\u0422\u043e\u0440\u0433, \u0441\u0435\u0442\u044c \u0430\u043f\u0442\u0435\u043a", "opening_hours": "Mo-Su 08:00-22:00", "operator": "\u041c\u0435\u0434\u0422\u043e\u0440\u0433", "phone": "+7 4012 373343"}}, {"type": "node", "id": 4434799989, "lat": 54.7323532, "lon": 20.4816241, "tags": {"addr:housenumber": "58-60", "addr:postcode": "236023", "addr:street": "\u0443\u043b\u0438\u0446\u0430 \u041a\u043e\u0441\u043c\u043e\u043d\u0430\u0432\u0442\u0430 \u041b\u0435\u043e\u043d\u043e\u0432\u0430", "amenity": "pharmacy", "healthcare": "pharmacy", "name": "\u0414\u043e\u043c\u0430\u0448\u043d\u044f\u044f \u0430\u043f\u0442\u0435\u043a\u0430", "name:en": "Home pharmacy", "name:ru": "\u0414\u043e\u043c\u0430\u0448\u043d\u044f\u044f \u0430\u043f\u0442\u0435\u043a\u0430", "opening_hours": "Mo-Su 08:30-20:30", "phone": "+7 4012 750230"}}, {"type": "node", "id": 4435711290, "lat": 54.7024152, "lon": 20.5167701, "tags": {"amenity": "pharmacy", "healthcare": "pharmacy", "name": "\u042d\u0432\u0430\u043b\u0430\u0440", "name:ru": "\u042d\u0432\u0430\u043b\u0430\u0440", "opening_hours": "Mo-Su 09:00-21:00"}}, {"type": "node", "id": 4439523393, "lat": 54.7115623, "lon": 20.581094, "tags": {"addr:housenumber": "129", "addr:street": "\u0443\u043b\u0438\u0446\u0430 \u0410\u043a\u0441\u0430\u043a\u043e\u0432\u0430", "amenity": "pharmacy", "healthcare": "pharmacy"}}, {"type": "node", "id": 4467251689, "lat": 54.711897, "lon": 20.5827818, "tags": {"amenity": "pharmacy", "name": "\u0410\u043b\u043e\u044d", "website": "http://aloe39.ru"}}, {"type": "node", "id": 4806667621, "lat": 54.6723392, "lon": 20.1310848, "tags": {"addr:postcode": "238340", "amenity": "pharmacy", "name": "\u041f\u0435\u0440\u0432\u0430\u044f \u043f\u043e\u043c\u043e\u0449\u044c +", "name:en": "\u041f\u0435\u0440\u0432\u0430\u044f \u043f\u043e\u043c\u043e\u0449\u044c +", "name:ru": "\u041f\u0435\u0440\u0432\u0430\u044f \u043f\u043e\u043c\u043e\u0449\u044c +", "opening_hours": "Mo-Sa 08:00-20:00; Su 09:00-20:00", "phone": "+74015230393"}}, {"type": "node", "id": 5035510636, "lat": 54.7693753, "lon": 20.4502451, "tags": {"amenity": "pharmacy", "opening_hours": "24/7"}}, {"type": "node", "id": 5057856895, "lat": 54.7431579, "lon": 20.4667701, "tags": {"amenity": "pharmacy", "name": "\u0411\u0443\u0434\u044c \u0437\u0434\u043e\u0440\u043e\u0432!"}}, {"type": "node", "id": 5218219521, "lat": 54.953506, "lon": 20.4653611, "tags": {"amenity": "pharmacy"}}, {"type": "node", "id": 5219512521, "lat": 54.9535511, "lon": 20.228961, "tags": {"amenity": "pharmacy", "check_date:opening_hours": "2024-09-30", "healthcare": "pharmacy", "name": "\u041c\u0438\u043d\u0438\u043c\u0443\u043c", "opening_hours": "Mo-Su 09:00-21:00", "wheelchair": "yes"}}, {"type": "node", "id": 5347190122, "lat": 54.9509755, "lon": 20.2259766, "tags": {"addr:postcode": "238590", "amenity": "pharmacy", "healthcare": "pharmacy", "name": "\u042d\u043a\u043e\u043d\u043e\u043c\u043d\u0430\u044f", "name:en": "Thirty parmacy", "opening_hours": "Mo-Su 08:30-20:00; Sa-Su 8:30-19:00"}}, {"type": "node", "id": 5347193721, "lat": 54.9519284, "lon": 20.2250209, "tags": {"addr:postcode": "238590", "amenity": "pharmacy", "healthcare": "pharmacy", "name": "\u042d\u043a\u043e\u043d\u043e\u043c\u043d\u0430\u044f", "name:en": "Thrifty pharmacy", "opening_hours": "Mo-Fr 08:30-20:00; Sa-Su 8:30-19:00"}}, {"type": "node", "id": 5407813626, "lat": 54.7351149, "lon": 20.4720196, "tags": {"addr:postcode": "236023", "amenity": "pharmacy", "name": "\u0411\u0443\u0434\u044c \u0417\u0434\u043e\u0440\u043e\u0432", "name:en": "Be healthy", "opening_hours": "Mo-Su 09:00-21:00", "operator": "Rigla", "phone": "+7 4012 911030", "website": "https://www.budzdorov.ru/"}}, {"type": "node", "id": 5576298115, "lat": 54.7381309, "lon": 20.4712294, "tags": {"amenity": "pharmacy", "healthcare": "pharmacy", "name": "\u041d\u043e\u0432\u0430\u044f \u0410\u043f\u0442\u0435\u043a\u0430", "opening_hours": "24/7"}}, {"type": "node", "id": 5594615923, "lat": 54.6687746, "lon": 20.5126879, "tags": {"addr:postcode": "236011", "amenity": "pharmacy", "email": "office@aptekafz.ru", "name": "\u0424\u043e\u0440\u043c\u0443\u043b\u0430 \u0437\u0434\u043e\u0440\u043e\u0432\u044c\u044f", "name:en": "Health formula", "opening_hours": "Mo-Su 09:00-21:00", "phone": "+7 4012 777003", "website": "https://aptekafz.ru/"}}, {"type": "node", "id": 5812310402, "lat": 54.7315813, "lon": 20.5518036, "tags": {"addr:city": "\u041a\u0430\u043b\u0438\u043d\u0438\u043d\u0433\u0440\u0430\u0434", "addr:housenumber": "58", "addr:postcode": "236038", "addr:street": "\u0410\u0440\u0442\u0438\u043b\u043b\u0435\u0440\u0438\u0439\u0441\u043a\u0430\u044f \u0443\u043b\u0438\u0446\u0430", "amenity": "pharmacy", "drive_through": "no", "healthcare": "pharmacy", "name": "\u0411\u043e\u0442\u043a\u0438\u043d\u0441\u043a\u0430\u044f \u0410\u043f\u0442\u0435\u043a\u0430", "opening_hours": "Mo-Su 09:00-21:00", "payment:cash": "yes", "payment:coins": "yes", "payment:credit_cards": "yes"}}, {"type": "node", "id": 5834112191, "lat": 54.9555511, "lon": 20.486923, "tags": {"amenity": "pharmacy", "name": "\u0421\u043e\u0446\u0438\u0430\u043b\u044c\u043d\u0430\u044f \u0430\u043f\u0442\u0435\u043a\u0430", "opening_hours": "Mo-Su 09:00-21:00"}}, {"type": "node", "id": 5956685603, "lat": 54.7981512, "lon": 20.5335289, "tags": {"amenity": "pharmacy"}}, {"type": "node", "id": 6574929486, "lat": 54.6968358, "lon": 20.6875519, "tags": {"amenity": "pharmacy", "name": "1"}}, {"type": "node", "id": 6574942885, "lat": 54.6966469, "lon": 20.6878234, "tags": {"amenity": "pharmacy", "name": "2"}}, {"type": "node", "id": 6655065473, "lat": 54.7207123, "lon": 20.5257217, "tags": {"amenity": "pharmacy", "healthcare": "pharmacy", "name": "\u0410\u043f\u0442\u0435\u0447\u043d\u044b\u0439 \u043f\u0443\u043d\u043a\u0442", "opening_hours": "Mo-Su 09:00-21:00"}}, {"type": "node", "id": 6655072355, "lat": 54.7202139, "lon": 20.5227809, "tags": {"amenity": "pharmacy", "healthcare": "pharmacy", "name": "\u041b\u0438\u043d\u0438\u044f \u0436\u0438\u0437\u043d\u0438", "opening_hours": "Mo-Fr 08:00-20:00; Sa, Su 09:00-19:00"}}, {"type": "node", "id": 6820809485, "lat": 54.7742793, "lon": 20.4492716, "tags": {"addr:housenumber": "3", "addr:postcode": "236019", "addr:street": "\u0443\u043b\u0438\u0446\u0430 \u0413\u043e\u0440\u0431\u0443\u043d\u043e\u0432\u0430", "amenity": "pharmacy", "name": "\u042d\u043a\u043e\u043d\u043e\u043c", "phone": "+74012389243"}}, {"type": "node", "id": 7547344786, "lat": 54.9271498, "lon": 20.1638982, "tags": {"addr:postcode": "238563", "amenity": "pharmacy", "name": "\u041c\u043e\u044f \u0410\u043f\u0442\u0435\u043a\u0430", "opening_hours": "Mo-Fr 08:00-20:00; Sa-Su 09:00-20:00"}}, {"type": "node", "id": 7547400985, "lat": 54.9280482, "lon": 20.1584006, "tags": {"addr:postcode": "238563", "amenity": "pharmacy", "name": "\u041f\u0435\u0440\u0432\u0430\u044f \u043f\u043e\u043c\u043e\u0449\u044c +"}}, {"type": "node", "id": 7752626017, "lat": 54.7318988, "lon": 20.5505872, "tags": {"amenity": "pharmacy", "name": "\u0411\u0443\u0434\u044c \u0437\u0434\u043e\u0440\u043e\u0432!", "opening_hours": "24/7"}}, {"type": "node", "id": 7849133128, "lat": 54.6992359, "lon": 20.5036027, "tags": {"amenity": "pharmacy", "brand": "\u041f\u043b\u0430\u043d\u0435\u0442\u0430 \u0437\u0434\u043e\u0440\u043e\u0432\u044c\u044f", "brand:wikidata": "Q109732844", "dispensing": "yes", "healthcare": "pharmacy", "name": "\u041f\u043b\u0430\u043d\u0435\u0442\u0430 \u0437\u0434\u043e\u0440\u043e\u0432\u044c\u044f"}}, {"type": "node", "id": 7849133129, "lat": 54.7028029, "lon": 20.5038639, "tags": {"amenity": "pharmacy", "dispensing": "yes", "healthcare": "pharmacy"}}, {"type": "node", "id": 7859705963, "lat": 54.9498732, "lon": 20.2252145, "tags": {"amenity": "pharmacy", "entrance": "yes", "name": "\u0424\u043e\u0440\u043c\u0443\u043b\u0430 \u0437\u0434\u043e\u0440\u043e\u0432\u044c\u044f", "opening_hours": "09:00-21:00", "wheelchair": "yes"}}, {"type": "node", "id": 8805251512, "lat": 54.8826801, "lon": 20.5853005, "tags": {"amenity": "pharmacy", "payment:cash": "yes", "payment:maestro": "yes", "payment:mastercard": "yes", "payment:visa": "yes", "payment:visa_electron": "yes", "wheelchair": "yes"}}, {"type": "node", "id": 8810645109, "lat": 54.9440453, "lon": 20.151018, "tags": {"amenity": "pharmacy", "brand": "\u0420\u0438\u0433\u043b\u0430", "brand:wikidata": "Q4394431", "check_date": "2025-07-17", "contact:facebook": "rigla.ru", "contact:instagram": "rigla.ru", "contact:vk": "rigla_ru", "contact:youtube": "https://www.youtube.com/channel/UCLaTkI019XrhFBTsr1_lbOA", "entrance": "yes", "healthcare": "pharmacy", "name": "\u0420\u0438\u0433\u043b\u0430", "opening_hours": "24/7", "operator": "\u0420\u0438\u0433\u043b\u0430", "payment:cash": "yes", "payment:maestro": "yes", "payment:mastercard": "yes", "payment:visa": "yes", "payment:visa_electron": "yes", "phone": "+7 40153 21030; +7 800 7770303", "ref": "39045", "website": "https://kaliningrad.rigla.ru/", "wheelchair": "yes"}}, {"type": "node", "id": 9307393717, "lat": 54.726178, "lon": 20.3528086, "tags": {"addr:postcode": "236013", "amenity": "pharmacy", "name": "\u0411\u0443\u0434\u044c \u0437\u0434\u043e\u0440\u043e\u0432", "name:en": "Bud' zdorov", "opening_hours": "Mo-Su 08:00-20:00", "phone": "+74012938012", "website": "https://www.budzdorov.ru/"}}, {"type": "node", "id": 9749121171, "lat": 54.7348918, "lon": 20.5449781, "tags": {"amenity": "pharmacy", "contact:email": "info@eapteka.ru", "contact:phone": "+7 800 7007711", "contact:website": "https://www.eapteka.ru/", "healthcare": "pharmacy", "name": "\u0415\u0430\u043f\u0442\u0435\u043a\u0430", "opening_hours": "Mo-Su 09:00-21:00"}}, {"type": "node", "id": 9933919017, "lat": 54.71491, "lon": 20.4565203, "tags": {"amenity": "pharmacy"}}, {"type": "node", "id": 10576340641, "lat": 54.7201789, "lon": 20.5089962, "tags": {"addr:city": "\u041a\u0430\u043b\u0438\u043d\u0438\u043d\u0433\u0440\u0430\u0434", "addr:country": "RU", "addr:postcode": "238151", "addr:street": "\u0443\u043b\u0438\u0446\u0430 \u0427\u0435\u0440\u043d\u044f\u0445\u043e\u0432\u0441\u043a\u043e\u0433\u043e", "amenity": "pharmacy", "contact:email": "info@budgetapteka.ru", "contact:phone": "+7 401 2270330;+7 401 2709201", "contact:website": "https://www.budgetapteka.ru/", "healthcare": "pharmacy", "name": "\u0411\u044e\u0434\u0436\u0435\u0442\u043d\u0430\u044f \u0410\u043f\u0442\u0435\u043a\u0430", "opening_hours": "Mo-Su 08:00-19:00"}}, {"type": "node", "id": 10576340642, "lat": 54.7203959, "lon": 20.5109408, "tags": {"amenity": "pharmacy", "contact:email": "info@budgetapteka.ru", "contact:phone": "+7 401 2270330;+7 401 2709202", "contact:website": "https://www.budgetapteka.ru/", "healthcare": "pharmacy", "name": "\u0411\u044e\u0434\u0436\u0435\u0442\u043d\u0430\u044f \u0410\u043f\u0442\u0435\u043a\u0430", "opening_hours": "Mo-Fr 08:00-21:00; Sa-Su 08:00-20:00"}}, {"type": "node", "id": 10576340643, "lat": 54.7385989, "lon": 20.4856449, "tags": {"amenity": "pharmacy", "contact:email": "info@budgetapteka.ru", "contact:phone": "+7 401 2270330;+7 401 2709212", "contact:website": "https://www.budgetapteka.ru/", "healthcare": "pharmacy", "name": "\u0411\u044e\u0434\u0436\u0435\u0442\u043d\u0430\u044f \u0410\u043f\u0442\u0435\u043a\u0430", "opening_hours": "Mo-Su 08:00-20:00"}}, {"type": "node", "id": 10576340644, "lat": 54.6993389, "lon": 20.5052948, "tags": {"amenity": "pharmacy", "contact:email": "info@budgetapteka.ru", "contact:phone": "+7 401 2270330;+7 401 2709203", "contact:website": "https://www.budgetapteka.ru/", "healthcare": "pharmacy", "name": "\u0411\u044e\u0434\u0436\u0435\u0442\u043d\u0430\u044f \u0410\u043f\u0442\u0435\u043a\u0430", "opening_hours": "Mo-Fr 08:00-22:00; Sa-Su 09:00-21:00"}}, {"type": "node", "id": 10576340645, "lat": 54.733114, "lon": 20.5313605, "tags": {"amenity": "pharmacy", "contact:email": "info@budgetapteka.ru", "contact:phone": "+7 401 2270330;+7 401 2709204", "contact:website": "https://www.budgetapteka.ru/", "healthcare": "pharmacy", "name": "\u0411\u044e\u0434\u0436\u0435\u0442\u043d\u0430\u044f \u0410\u043f\u0442\u0435\u043a\u0430", "opening_hours": "Mo-Fr 08:00-21:00; Sa-Su 09:00-21:00"}}, {"type": "node", "id": 10576340646, "lat": 54.7256661, "lon": 20.4692768, "tags": {"amenity": "pharmacy", "contact:email": "info@budgetapteka.ru", "contact:phone": "+7 401 2270330;+7 401 2709205", "contact:website": "https://www.budgetapteka.ru/", "healthcare": "pharmacy", "name": "\u0411\u044e\u0434\u0436\u0435\u0442\u043d\u0430\u044f \u0410\u043f\u0442\u0435\u043a\u0430", "opening_hours": "Mo-Fr 08:00-21:00; Sa-Su 09:00-21:00"}}, {"type": "node", "id": 10576340647, "lat": 54.7117741, "lon": 20.5846292, "tags": {"amenity": "pharmacy", "contact:email": "info@budgetapteka.ru", "contact:phone": "+7 401 2270330;+7 401 2709211", "contact:website": "https://www.budgetapteka.ru/", "healthcare": "pharmacy", "name": "\u0411\u044e\u0434\u0436\u0435\u0442\u043d\u0430\u044f \u0410\u043f\u0442\u0435\u043a\u0430", "opening_hours": "Mo-Fr 08:00-21:00; Sa-Su 09:00-21:00"}}, {"type": "node", "id": 10576340648, "lat": 54.7272224, "lon": 20.4769761, "tags": {"amenity": "pharmacy", "contact:email": "info@budgetapteka.ru", "contact:phone": "+7 401 2270330;+7 401 2709206", "contact:website": "https://www.budgetapteka.ru/", "healthcare": "pharmacy", "name": "\u0411\u044e\u0434\u0436\u0435\u0442\u043d\u0430\u044f \u0410\u043f\u0442\u0435\u043a\u0430", "opening_hours": "Mo-Fr 08:00-21:00; Sa-Su 09:00-21:00"}}, {"type": "node", "id": 10576340649, "lat": 54.7093411, "lon": 20.5732888, "tags": {"amenity": "pharmacy", "contact:email": "info@budgetapteka.ru", "contact:phone": "+7 401 2270330;+7 401 2709214", "contact:website": "https://www.budgetapteka.ru/", "healthcare": "pharmacy", "name": "\u0411\u044e\u0434\u0436\u0435\u0442\u043d\u0430\u044f \u0410\u043f\u0442\u0435\u043a\u0430", "opening_hours": "Mo-Fr 08:00-21:00; Sa-Su 09:00-21:00"}}, {"type": "node", "id": 10576340650, "lat": 54.7207785, "lon": 20.5081165, "tags": {"amenity": "pharmacy", "contact:email": "info@budgetapteka.ru", "contact:phone": "+7 401 2270330;+7 401 2709208", "contact:website": "https://www.budgetapteka.ru/", "healthcare": "pharmacy", "name": "\u0411\u044e\u0434\u0436\u0435\u0442\u043d\u0430\u044f \u0410\u043f\u0442\u0435\u043a\u0430", "opening_hours": "Mo-Su 08:00-21:00"}}, {"type": "node", "id": 10576340651, "lat": 54.6661113, "lon": 20.5090096, "tags": {"amenity": "pharmacy", "contact:email": "info@budgetapteka.ru", "contact:phone": "+7 401 2270330;+7 401 2709210", "contact:website": "https://www.budgetapteka.ru/", "healthcare": "pharmacy", "name": "\u0411\u044e\u0434\u0436\u0435\u0442\u043d\u0430\u044f \u0410\u043f\u0442\u0435\u043a\u0430", "opening_hours": "Mo-Fr 08:00-21:00; Sa-Su 09:00-21:00"}}, {"type": "node", "id": 10576340652, "lat": 54.7109185, "lon": 20.4425311, "tags": {"amenity": "pharmacy", "contact:email": "info@budgetapteka.ru", "contact:phone": "+7 401 2270330;+7 401 2709209", "contact:website": "https://www.budgetapteka.ru/", "healthcare": "pharmacy", "name": "\u0411\u044e\u0434\u0436\u0435\u0442\u043d\u0430\u044f \u0410\u043f\u0442\u0435\u043a\u0430", "opening_hours": "Mo-Fr 08:00-21:00; Sa-Su 09:00-21:00"}}, {"type": "node", "id": 10576340653, "lat": 54.6750935, "lon": 20.494279, "tags": {"amenity": "pharmacy", "contact:email": "info@budgetapteka.ru", "contact:phone": "+7 401 2270330;+7 401 2709213", "contact:website": "https://www.budgetapteka.ru/", "healthcare": "pharmacy", "name": "\u0411\u044e\u0434\u0436\u0435\u0442\u043d\u0430\u044f \u0410\u043f\u0442\u0435\u043a\u0430", "opening_hours": "Mo-Fr 08:00-21:00; Sa-Su 09:00-21:00"}}, {"type": "node", "id": 10576340654, "lat": 54.6749726, "lon": 20.5000967, "tags": {"amenity": "pharmacy", "contact:email": "info@budgetapteka.ru", "contact:phone": "+7 401 2270330;+7 401 2709215", "contact:website": "https://www.budgetapteka.ru/", "healthcare": "pharmacy", "name": "\u0411\u044e\u0434\u0436\u0435\u0442\u043d\u0430\u044f \u0410\u043f\u0442\u0435\u043a\u0430", "opening_hours": "Mo-Fr 08:00-21:00; Sa-Su 09:00-21:00"}}, {"type": "node", "id": 10576340655, "lat": 54.728821, "lon": 20.482132, "tags": {"amenity": "pharmacy", "contact:email": "info@budgetapteka.ru", "contact:phone": "+7 401 2270330;+7 401 2709216", "contact:website": "https://www.budgetapteka.ru/", "healthcare": "pharmacy", "name": "\u0411\u044e\u0434\u0436\u0435\u0442\u043d\u0430\u044f \u0410\u043f\u0442\u0435\u043a\u0430", "opening_hours": "Mo-Fr 08:00-21:00; Sa-Su 09:00-21:00"}}, {"type": "node", "id": 10899063122, "lat": 54.7135703, "lon": 20.4545918, "tags": {"amenity": "pharmacy", "healthcare": "pharmacy"}}, {"type": "node", "id": 11164569788, "lat": 54.9650151, "lon": 20.4956478, "tags": {"addr:housenumber": "74", "addr:street": "\u041c\u043e\u0441\u043a\u043e\u0432\u0441\u043a\u0430\u044f \u0443\u043b\u0438\u0446\u0430", "amenity": "pharmacy", "check_date": "2025-07-12", "check_date:opening_hours": "2025-07-12", "healthcare": "pharmacy", "name": "\u0410\u043f\u0442\u0435\u043a\u0430 \u041a\u0440\u0430\u043d\u0446", "opening_hours": "09:00-21:00", "payment:mastercard": "yes", "payment:mir": "yes", "payment:visa": "yes", "phone": "+7 401 252-00-03"}}, {"type": "node", "id": 11164727652, "lat": 54.9600861, "lon": 20.4758493, "tags": {"amenity": "pharmacy", "check_date": "2025-07-07", "healthcare": "pharmacy", "name": "\u0420\u0438\u0433\u043b\u0430", "opening_hours": "PH,Mo-Su 09:00-21:00"}}, {"type": "node", "id": 11266346069, "lat": 54.7262462, "lon": 20.4941173, "tags": {"amenity": "pharmacy", "name": "\u0414\u043b\u044f \u0431\u0435\u0440\u0435\u0436\u043b\u0438\u0432\u044b\u0445"}}, {"type": "node", "id": 11364169369, "lat": 54.7466623, "lon": 20.4879067, "tags": {"amenity": "pharmacy", "name": "\u0414\u043b\u044f \u0431\u0435\u0440\u0435\u0436\u043b\u0438\u0432\u044b\u0445"}}, {"type": "node", "id": 11694284213, "lat": 54.7400948, "lon": 20.5056059, "tags": {"amenity": "pharmacy", "name": "\u041f\u043b\u0430\u043d\u0435\u0442\u0430 \u0437\u0434\u043e\u0440\u043e\u0432\u044c\u044f"}}, {"type": "node", "id": 11873885569, "lat": 54.6934688, "lon": 20.4720775, "tags": {"amenity": "pharmacy", "name": "\u0410\u0440\u043c\u0444\u0430\u0440\u043c"}}, {"type": "node", "id": 11875751269, "lat": 54.7084537, "lon": 20.4992698, "tags": {"amenity": "pharmacy"}}, {"type": "node", "id": 12039386669, "lat": 54.7864033, "lon": 20.4228652, "tags": {"amenity": "pharmacy", "name": "\u041f\u0440\u043e\u0410\u043f\u0442\u0435\u043a\u0430"}}, {"type": "node", "id": 12078799370, "lat": 54.6810933, "lon": 20.486883, "tags": {"amenity": "pharmacy", "healthcare": "pharmacy"}}, {"type": "node", "id": 12231418216, "lat": 54.9441657, "lon": 20.1474802, "tags": {"addr:housenumber": "33\u0410", "addr:street": "\u0443\u043b\u0438\u0446\u0430 \u041b\u0435\u043d\u0438\u043d\u0430", "amenity": "pharmacy", "brand": "\u0420\u0438\u0433\u043b\u0430", "brand:wikidata": "Q4394431", "check_date": "2025-07-17", "healthcare": "pharmacy", "name": "\u0420\u0438\u0433\u043b\u0430", "opening_hours": "09:00-21:00", "payment:cash": "yes", "payment:credit_cards": "yes", "payment:debit_cards": "yes", "wheelchair": "yes"}}, {"type": "node", "id": 12231733065, "lat": 54.9588089, "lon": 20.4743749, "tags": {"addr:housenumber": "1\u0411", "addr:street": "\u0443\u043b\u0438\u0446\u0430 \u0422\u0443\u0440\u0433\u0435\u043d\u0435\u0432\u0430", "amenity": "pharmacy", "brand": "\u0411\u0443\u0434\u044c \u0437\u0434\u043e\u0440\u043e\u0432", "check_date": "2024-10-07", "healthcare": "pharmacy", "name": "\u0411\u0443\u0434\u044c \u0437\u0434\u043e\u0440\u043e\u0432", "opening_hours": "09:00-21:00"}}, {"type": "node", "id": 12237611297, "lat": 54.7144081, "lon": 20.5047997, "tags": {"amenity": "pharmacy", "healthcare": "pharmacy"}}, {"type": "node", "id": 12361784825, "lat": 54.9590515, "lon": 20.4749939, "tags": {"amenity": "pharmacy", "name": "\u041f\u0435\u0440\u0432\u0430\u044f \u043f\u043e\u043c\u043e\u0449\u044c \u043f\u043b\u044e\u0441"}}, {"type": "node", "id": 12598452333, "lat": 54.6803736, "lon": 20.4931178}, {"type": "node", "id": 12598452335, "lat": 54.6802713, "lon": 20.4929774}, {"type": "node", "id": 12598452336, "lat": 54.6802999, "lon": 20.4929302}, {"type": "node", "id": 12598452337, "lat": 54.680347, "lon": 20.4928901}, {"type": "node", "id": 12598452338, "lat": 54.6804036, "lon": 20.4928783}, {"type": "node", "id": 12598452339, "lat": 54.6804595, "lon": 20.4928948}, {"type": "node", "id": 12598452340, "lat": 54.6805086, "lon": 20.4929703}, {"type": "node", "id": 12598452341, "lat": 54.6805339, "lon": 20.4930576}, {"type": "node", "id": 12598452342, "lat": 54.6805455, "lon": 20.4931449}, {"type": "node", "id": 12598452343, "lat": 54.6804977, "lon": 20.493152}, {"type": "node", "id": 12598452344, "lat": 54.6804984, "lon": 20.4931909}, {"type": "node", "id": 12598452345, "lat": 54.6804734, "lon": 20.4932539}, {"type": "node", "id": 12598452354, "lat": 54.680459, "lon": 20.4932342}, {"type": "node", "id": 12799693292, "lat": 54.742727, "lon": 20.4983157, "tags": {"amenity": "pharmacy", "contact:phone": "+7 800 7009300", "contact:website": "https://gorzdrav.org", "healthcare": "pharmacy", "name": "\u0413\u043e\u0440\u0437\u0434\u0440\u0430\u0432", "opening_hours": "Mo-Su 09:00-21:00"}}, {"type": "node", "id": 12799693293, "lat": 54.7450447, "lon": 20.5453053, "tags": {"amenity": "pharmacy", "contact:phone": "+7 800 7009300", "contact:website": "https://gorzdrav.org", "healthcare": "pharmacy", "name": "\u0413\u043e\u0440\u0437\u0434\u0440\u0430\u0432", "opening_hours": "Mo-Su 09:00-21:00"}}, {"type": "node", "id": 12799693294, "lat": 54.7160719, "lon": 20.5382591, "tags": {"amenity": "pharmacy", "contact:phone": "+7 800 7009300", "contact:website": "https://gorzdrav.org", "healthcare": "pharmacy", "name": "\u0413\u043e\u0440\u0437\u0434\u0440\u0430\u0432", "opening_hours": "Mo-Su 09:00-21:00"}}, {"type": "node", "id": 12799693295, "lat": 54.7469707, "lon": 20.4834107, "tags": {"amenity": "pharmacy", "contact:phone": "+7 800 7009300", "contact:website": "https://gorzdrav.org", "healthcare": "pharmacy", "name": "\u0413\u043e\u0440\u0437\u0434\u0440\u0430\u0432", "opening_hours": "Mo-Su 08:00-21:00"}}, {"type": "node", "id": 12799693296, "lat": 54.7141244, "lon": 20.4577956, "tags": {"addr:floor": "1", "addr:housenumber": "65", "addr:street": "\u043f\u0440\u043e\u0441\u043f\u0435\u043a\u0442 \u041f\u043e\u0431\u0435\u0434\u044b", "amenity": "pharmacy", "check_date": "2025-07-09", "contact:phone": "+7 800 7009300", "contact:website": "https://gorzdrav.org", "healthcare": "pharmacy", "level": "0", "name": "\u0413\u043e\u0440\u0437\u0434\u0440\u0430\u0432", "name:ru": "\u0413\u043e\u0440\u0437\u0434\u0440\u0430\u0432", "opening_hours": "Mo-Su 09:00-21:00"}}, {"type": "node", "id": 12799693297, "lat": 54.7095472, "lon": 20.5316475, "tags": {"amenity": "pharmacy", "contact:phone": "+7 800 7009300", "contact:website": "https://gorzdrav.org", "healthcare": "pharmacy", "name": "\u0413\u043e\u0440\u0437\u0434\u0440\u0430\u0432", "opening_hours": "Mo-Su 09:00-21:00"}}, {"type": "node", "id": 12799693298, "lat": 54.7249222, "lon": 20.5496184, "tags": {"amenity": "pharmacy", "contact:phone": "+7 800 7009300", "contact:website": "https://gorzdrav.org", "healthcare": "pharmacy", "name": "\u0413\u043e\u0440\u0437\u0434\u0440\u0430\u0432", "opening_hours": "Mo-Su 09:00-21:00"}}, {"type": "node", "id": 12799693299, "lat": 54.7263163, "lon": 20.494161, "tags": {"amenity": "pharmacy", "contact:phone": "+7 800 7009300", "contact:website": "https://gorzdrav.org", "healthcare": "pharmacy", "name": "\u0413\u043e\u0440\u0437\u0434\u0440\u0430\u0432", "opening_hours": "Mo-Su 08:00-21:00"}}, {"type": "node", "id": 12799693300, "lat": 54.7011244, "lon": 20.4980635, "tags": {"amenity": "pharmacy", "contact:phone": "+7 800 7009300", "contact:website": "https://gorzdrav.org", "healthcare": "pharmacy", "name": "\u0413\u043e\u0440\u0437\u0434\u0440\u0430\u0432", "opening_hours": "Mo-Su 08:00-18:00"}}, {"type": "node", "id": 12799752201, "lat": 54.6689995, "lon": 20.4874823, "tags": {"amenity": "pharmacy", "contact:phone": "+7 800 7009300", "contact:website": "https://gorzdrav.org", "healthcare": "pharmacy", "name": "\u0413\u043e\u0440\u0437\u0434\u0440\u0430\u0432", "opening_hours": "Mo-Su 09:00-21:00"}}, {"type": "node", "id": 12799752202, "lat": 54.7466316, "lon": 20.4875573, "tags": {"amenity": "pharmacy", "contact:phone": "+7 800 7009300", "contact:website": "https://gorzdrav.org", "healthcare": "pharmacy", "name": "\u0413\u043e\u0440\u0437\u0434\u0440\u0430\u0432", "opening_hours": "Mo-Su 08:00-21:00"}}, {"type": "node", "id": 12799752203, "lat": 54.7089584, "lon": 20.5876279, "tags": {"amenity": "pharmacy", "contact:phone": "+7 800 7009300", "contact:website": "https://gorzdrav.org", "healthcare": "pharmacy", "name": "\u0413\u043e\u0440\u0437\u0434\u0440\u0430\u0432", "opening_hours": "Mo-Su 09:00-21:00"}}, {"type": "node", "id": 12799752204, "lat": 54.717643, "lon": 20.521265, "tags": {"amenity": "pharmacy", "contact:phone": "+7 800 7009300", "contact:website": "https://gorzdrav.org", "healthcare": "pharmacy", "name": "\u0413\u043e\u0440\u0437\u0434\u0440\u0430\u0432", "opening_hours": "Mo-Su 08:00-19:00"}}, {"type": "node", "id": 12799752205, "lat": 54.7211286, "lon": 20.510831, "tags": {"amenity": "pharmacy", "contact:phone": "+7 800 7009300", "contact:website": "https://gorzdrav.org", "healthcare": "pharmacy", "name": "\u0413\u043e\u0440\u0437\u0434\u0440\u0430\u0432", "opening_hours": "Mo-Su 08:00-22:00"}}, {"type": "node", "id": 12799752206, "lat": 54.7211999, "lon": 20.5130356, "tags": {"amenity": "pharmacy", "contact:phone": "+7 800 7009300", "contact:website": "https://gorzdrav.org", "healthcare": "pharmacy", "name": "\u0413\u043e\u0440\u0437\u0434\u0440\u0430\u0432", "opening_hours": "Mo-Su 09:00-21:00"}}, {"type": "node", "id": 12799752207, "lat": 54.7301017, "lon": 20.4805514, "tags": {"amenity": "pharmacy", "contact:phone": "+7 800 7009300", "contact:website": "https://gorzdrav.org", "healthcare": "pharmacy", "name": "\u0413\u043e\u0440\u0437\u0434\u0440\u0430\u0432", "opening_hours": "Mo-Su 09:00-21:00"}}, {"type": "node", "id": 12799752208, "lat": 54.6731842, "lon": 20.489164, "tags": {"amenity": "pharmacy", "contact:phone": "+7 800 7009300", "contact:website": "https://gorzdrav.org", "healthcare": "pharmacy", "name": "\u0413\u043e\u0440\u0437\u0434\u0440\u0430\u0432", "opening_hours": "Mo-Su 08:00-21:00"}}, {"type": "node", "id": 12953517660, "lat": 54.7623907, "lon": 20.6057395, "tags": {"amenity": "pharmacy"}}, {"type": "node", "id": 12980236220, "lat": 54.7163016, "lon": 20.5017789, "tags": {"amenity": "pharmacy", "brand": "\u041f\u043b\u0430\u043d\u0435\u0442\u0430 \u0437\u0434\u043e\u0440\u043e\u0432\u044c\u044f", "brand:wikidata": "Q109732844", "check_date": "2025-07-05", "healthcare": "pharmacy", "name": "\u041f\u043b\u0430\u043d\u0435\u0442\u0430 \u0437\u0434\u043e\u0440\u043e\u0432\u044c\u044f", "opening_hours": "08:00-22:00"}}, {"type": "node", "id": 12980648408, "lat": 54.7125454, "lon": 20.508473, "tags": {"amenity": "pharmacy", "brand": "\u041f\u043b\u0430\u043d\u0435\u0442\u0430 \u0437\u0434\u043e\u0440\u043e\u0432\u044c\u044f", "brand:wikidata": "Q109732844", "check_date": "2025-07-05", "healthcare": "pharmacy", "name": "\u041f\u043b\u0430\u043d\u0435\u0442\u0430 \u0437\u0434\u043e\u0440\u043e\u0432\u044c\u044f", "opening_hours": "24/7"}}, {"type": "node", "id": 13013870612, "lat": 54.9500032, "lon": 20.4715964, "tags": {"addr:housenumber": "40", "addr:street": "\u0416\u0435\u043b\u0435\u0437\u043d\u043e\u0434\u043e\u0440\u043e\u0436\u043d\u0430\u044f \u0443\u043b\u0438\u0446\u0430", "amenity": "pharmacy", "brand": "\u0417\u0434\u0440\u0430\u0432\u0441\u0438\u0442\u0438", "check_date": "2025-07-20", "healthcare": "pharmacy", "name": "\u0417\u0434\u0440\u0430\u0432\u0441\u0438\u0442\u0438", "opening_hours": "09:00-21:00", "payment:cash": "yes", "payment:credit_cards": "yes", "payment:debit_cards": "yes", "wheelchair": "yes"}}, {"type": "node", "id": 13034169904, "lat": 54.7844429, "lon": 20.4186763, "tags": {"addr:housenumber": "10 \u04411", "addr:street": "\u042e\u0436\u043d\u0430\u044f \u0443\u043b\u0438\u0446\u0430", "amenity": "pharmacy", "name": "\u0410\u043f\u0442\u0435\u043a\u0430 \u0410\u043f\u0440\u0435\u043b\u044c"}}, {"type": "node", "id": 13052086705, "lat": 54.7844547, "lon": 20.4186833, "tags": {"addr:housenumber": "10 \u04411", "addr:street": "\u042e\u0436\u043d\u0430\u044f \u0443\u043b\u0438\u0446\u0430", "amenity": "pharmacy", "name": "\u0410\u043f\u0442\u0435\u043a\u0430 \u0410\u043f\u0440\u0435\u043b\u044c"}}, {"type": "node", "id": 13084638901, "lat": 54.7398456, "lon": 20.4956816, "tags": {"addr:housenumber": "97", "addr:street": "\u0443\u043b\u0438\u0446\u0430 \u0413\u0430\u0439\u0434\u0430\u0440\u0430", "amenity": "pharmacy", "name": "\u0430\u043f\u0442\u0435\u043a\u0430 \u041f\u043b\u0430\u043d\u0435\u0442\u0430 \u0417\u0434\u043e\u0440\u043e\u0432\u044c\u044f", "opening_hours": "Mo-Su 08:00-22:00", "website": "https://planetazdorovo.ru/"}}, {"type": "node", "id": 13088708701, "lat": 54.9428741, "lon": 20.151135, "tags": {"addr:housenumber": "13\u0431, \u043f\u043e\u043c 4", "addr:street": "\u0443\u043b\u0438\u0446\u0430 \u041a\u0430\u0440\u043b\u0430 \u041c\u0430\u0440\u043a\u0441\u0430", "amenity": "pharmacy", "name": "\u0410\u043f\u0440\u0435\u043b\u044c", "opening_hours": "Mo-Su 08:00-20:00"}}, {"type": "way", "id": 90640971, "nodes": [1051991999, 1051992923, 1051993548, 1051994581, 1051991999], "tags": {"addr:city": "\u041a\u0430\u043b\u0438\u043d\u0438\u043d\u0433\u0440\u0430\u0434", "addr:country": "RU", "addr:housenumber": "36", "addr:street": "\u0443\u043b\u0438\u0446\u0430 \u0422\u0435\u043b\u044c\u043c\u0430\u043d\u0430", "amenity": "pharmacy", "building": "yes", "healthcare": "pharmacy", "name": "\u0424\u043e\u0440\u043c\u0443\u043b\u0430 \u0437\u0434\u043e\u0440\u043e\u0432\u044c\u044f"}}, {"type": "way", "id": 150736129, "nodes": [1636249646, 1636249647, 1636249640, 1636249639, 1636249646], "tags": {"addr:city": "\u041a\u0430\u043b\u0438\u043d\u0438\u043d\u0433\u0440\u0430\u0434", "addr:country": "RU", "addr:housenumber": "115", "addr:street": "\u043f\u0440\u043e\u0441\u043f\u0435\u043a\u0442 \u041a\u0430\u043b\u0438\u043d\u0438\u043d\u0430", "amenity": "pharmacy", "building": "yes", "building:levels": "2", "dispensing": "no", "healthcare": "pharmacy", "name": "\u0424\u0430\u0440\u043c\u0430 \u041a\u042d\u0428"}}, {"type": "way", "id": 223240529, "nodes": [2321571042, 2321571040, 2321571043, 2321571045, 2321571042], "tags": {"addr:housenumber": "181\u0410", "addr:street": "\u0443\u043b\u0438\u0446\u0430 \u041a\u0443\u0439\u0431\u044b\u0448\u0435\u0432\u0430", "amenity": "pharmacy", "building": "yes", "name": "\u041d\u0430\u0448\u0430 \u0410\u043f\u0442\u0435\u043a\u0430"}}, {"type": "way", "id": 1360902234, "nodes": [12598452335, 12598452336, 12598452337, 12598452338, 12598452339, 12598452340, 12598452341, 12598452342, 12598452343, 12598452344, 12598452345, 12598452354, 12598452333, 12598452335], "tags": {"amenity": "pharmacy", "building": "abandoned", "building:levels": "1", "healthcare": "pharmacy"}}]}