{"version": 0.6, "generator": "Overpass API 0.7.62.8 e802775f", "osm3s": {"timestamp_osm_base": "2025-10-06T08:51:34Z", "copyright": "The data included in this document is from www.openstreetmap.org. The data is made available under ODbL."}, "elements": [{"type": "node", "id": 1147835702, "lat": 55.3432235, "lon": 21.4738525, "tags": {"addr:city": "\u0160ilut\u0117", "addr:contact": "yes", "addr:housenumber": "58", "addr:postcode": "99176", "addr:street": "Lietuvinink\u0173 g.", "amenity": "pharmacy", "brand": "Eurovaistin\u0117", "brand:wikidata": "Q267205", "healthcare": "pharmacy", "name": "Eurovaistin\u0117", "opening_hours": "Mo-Fr 09:00-19:00; Sa 09:00-16:00"}}, {"type": "node", "id": 1168429790, "lat": 55.671844, "lon": 21.1714171, "tags": {"addr:city": "Klaip\u0117da", "addr:contact": "yes", "addr:housenumber": "115", "addr:street": "Taikos pr.", "amenity": "pharmacy", "name": "Gintarin\u0117 vaistin\u0117"}}, {"type": "node", "id": 1253844581, "lat": 55.5777993, "lon": 21.2738349, "tags": {"addr:city": "Dercekliai", "addr:contact": "yes", "addr:housenumber": "79", "addr:street": "Pavasario g.", "amenity": "pharmacy"}}, {"type": "node", "id": 1409089619, "lat": 55.3498824, "lon": 21.4738159, "tags": {"addr:city": "\u0160ilut\u0117", "addr:contact": "yes", "addr:housenumber": "13", "addr:street": "Cintjoni\u0161ki\u0173 g.", "amenity": "pharmacy", "check_date": "2025-01-17", "dispensing": "yes", "healthcare": "pharmacy", "level": "0", "name": "Norfos vaistin\u0117", "opening_hours": "Mo-Fr 08:00-20:00; Sa 08:00-16:00; Su 10:00-15:00; 2025 Sep 12-30 off; 2025 Oct off", "wheelchair": "yes"}}, {"type": "node", "id": 1721479779, "lat": 55.2963617, "lon": 21.3770245, "tags": {"addr:city": "Rusn\u0117", "addr:contact": "yes", "addr:housenumber": "7", "addr:postcode": "99350", "addr:street": "Neringos g.", "amenity": "pharmacy", "name": "Mari\u0173 vaistin\u0117", "opening_hours": "Mo-Fr 08:00-15:00"}}, {"type": "node", "id": 3570228099, "lat": 55.5538146, "lon": 21.3199471, "tags": {"addr:city": "Priekul\u0117", "addr:contact": "yes", "addr:housenumber": "3", "addr:street": "Turgaus g.", "amenity": "pharmacy", "brand": "Eurovaistin\u0117", "brand:wikidata": "Q267205", "brand:wikipedia": "en:Euroapotheca", "dispensing": "yes", "healthcare": "pharmacy", "name": "Eurovaistin\u0117"}}, {"type": "node", "id": 3570246457, "lat": 55.5545514, "lon": 21.3198185, "tags": {"addr:city": "Priekul\u0117", "addr:contact": "yes", "addr:housenumber": "5", "addr:street": "Klaip\u0117dos g.", "amenity": "pharmacy", "name": "\u0160eimos Vaistin\u0117"}}, {"type": "node", "id": 3570396158, "lat": 55.5562213, "lon": 21.3191643, "tags": {"addr:city": "Priekul\u0117", "addr:contact": "yes", "addr:housenumber": "14", "addr:street": "Klaip\u0117dos g.", "amenity": "pharmacy", "name": "Camelia"}}, {"type": "node", "id": 4297492441, "lat": 55.5167994, "lon": 21.6223654, "tags": {"addr:city": "\u0160v\u0117k\u0161na", "addr:contact": "yes", "addr:housenumber": "8", "addr:street": "Liep\u0173 a.", "amenity": "pharmacy", "name": "Camelia"}}, {"type": "node", "id": 4297520177, "lat": 55.515548, "lon": 21.6221218, "tags": {"amenity": "pharmacy", "name": "Ginkmed\u017eio Vaistin\u0117"}}, {"type": "node", "id": 4373592897, "lat": 55.6741773, "lon": 21.1678819, "tags": {"amenity": "pharmacy", "name": "Camelia"}}, {"type": "node", "id": 4792821210, "lat": 55.6646255, "lon": 21.1929741, "tags": {"addr:city": "Klaip\u0117da", "addr:contact": "yes", "addr:housenumber": "15B", "addr:postcode": "95146", "addr:street": "Laukinink\u0173 g.", "amenity": "pharmacy", "name": "Eurovaistin\u0117", "website": "https://www.eurovaistine.lt/"}}, {"type": "node", "id": 5661002821, "lat": 55.663767, "lon": 21.1928359, "tags": {"amenity": "pharmacy", "name": "Camelia"}}, {"type": "node", "id": 5764379642, "lat": 55.6636301, "lon": 21.1775452, "tags": {"addr:city": "Klaip\u0117da", "addr:contact": "yes", "addr:housenumber": "141", "addr:street": "Taikos pr.", "amenity": "pharmacy", "dispensing": "yes", "healthcare": "pharmacy", "name": "Eurovaistin\u0117"}}, {"type": "node", "id": 7755780563, "lat": 55.6657382, "lon": 21.1771613, "tags": {"addr:city": "Klaip\u0117da", "addr:contact": "yes", "addr:housenumber": "139", "addr:postcode": "94284", "addr:street": "Taikos pr.", "amenity": "pharmacy", "contact:facebook": "https://www.facebook.com/BENUvaistine", "contact:instagram": "https://www.instagram.com/benu_vaistine/", "email": "benu.7285@benu.lt", "name": "Benu", "opening_hours": "Mo-Sa 09:00-20:00; Su 09:00-19:00", "operator": "BENU Vaistin\u0117 UAB", "phone": "+370 694 91948", "website": "https://www.benu.lt"}}, {"type": "node", "id": 7755809454, "lat": 55.3429298, "lon": 21.4720259, "tags": {"addr:city": "\u0160ilut\u0117", "addr:contact": "yes", "addr:housenumber": "48", "addr:postcode": "99176", "addr:street": "Lietuvinink\u0173 g.", "amenity": "pharmacy", "brand": "Benu", "brand:wikidata": "Q62562792", "contact:facebook": "https://www.facebook.com/BENUvaistine", "contact:instagram": "https://www.instagram.com/benu_vaistine/", "dispensing": "yes", "dog": "no", "drive_through": "no", "email": "benu.7106@benu.lt", "healthcare": "pharmacy", "inline_skates": "no", "name": "Benu", "opening_hours": "Mo-Fr 08:00-18:00", "operator": "BENU Vaistin\u0117 UAB", "payment:cash": "yes", "payment:contactless": "yes", "payment:maestro": "yes", "payment:mastercard": "yes", "payment:mastercard_debit": "yes", "payment:visa": "yes", "payment:visa_debit": "yes", "phone": "+370 620 80604", "photography": "no", "website": "https://www.benu.lt", "wheelchair": "yes"}}, {"type": "node", "id": 7755814692, "lat": 55.3420321, "lon": 21.4680095, "tags": {"addr:city": "\u0160ilut\u0117", "addr:contact": "yes", "addr:housenumber": "30", "addr:postcode": "99179", "addr:street": "Lietuvinink\u0173 g.", "amenity": "pharmacy", "brand": "Benu", "brand:wikidata": "Q62562792", "contact:facebook": "https://www.facebook.com/BENUvaistine", "contact:instagram": "https://www.instagram.com/benu_vaistine/", "dispensing": "yes", "dog": "no", "drive_through": "no", "email": "benu.7128@benu.lt", "healthcare": "pharmacy", "inline_skates": "no", "name": "Benu", "opening_hours": "Mo-Fr 09:00-19:00; Sa, Su 09:00-17:00", "operator": "BENU Vaistin\u0117 UAB", "payment:cash": "yes", "payment:contactless": "yes", "payment:maestro": "yes", "payment:mastercard": "yes", "payment:mastercard_debit": "yes", "payment:visa": "yes", "payment:visa_debit": "yes", "phone": "+370 614 18637", "photography": "no", "website": "https://www.benu.lt"}}, {"type": "node", "id": 8303217926, "lat": 55.3445555, "lon": 21.4775434, "tags": {"addr:city": "\u0160ilut\u0117", "addr:contact": "yes", "addr:housenumber": "1", "addr:postcode": "99137", "addr:street": "M. Jankaus g.", "amenity": "pharmacy", "dispensing": "yes", "drive_through": "no", "healthcare": "pharmacy", "name": "Mari\u0173 vaistin\u0117", "opening_hours": "Mo-Fr 07:30-18:00; Sa 08:30-14:00", "operator": "Nigra vaistin\u0117", "payment:cash": "yes", "payment:contactless": "yes", "payment:maestro": "yes", "payment:mastercard": "yes", "payment:mastercard_debit": "yes", "payment:visa": "yes", "payment:visa_debit": "yes"}}, {"type": "node", "id": 11927983870, "lat": 55.3588308, "lon": 21.7024398, "tags": {"amenity": "pharmacy"}}, {"type": "node", "id": 12112598606, "lat": 55.6637359, "lon": 21.2001797, "tags": {"amenity": "pharmacy", "healthcare": "pharmacy", "name": "Camelia vaistin\u0117"}}, {"type": "node", "id": 12484407134, "lat": 55.6757341, "lon": 21.1782805, "tags": {"addr:city": "Klaip\u0117da", "addr:housenumber": "7B", "addr:street": "Gedmin\u0173 g.", "amenity": "pharmacy", "dispensing": "yes", "drive_through": "no", "healthcare": "pharmacy", "name": "Norfa vaistin\u0117", "opening_hours": "Mo-Fr 09:00-19:00; Sa 09:00-16:00"}}, {"type": "node", "id": 12529983764, "lat": 55.3506599, "lon": 21.4628342, "tags": {"addr:city": "\u0160ilut\u0117", "addr:contact": "yes", "addr:housenumber": "11", "addr:postcode": "99129", "addr:street": "Dariaus ir Gir\u0117no g.", "amenity": "pharmacy", "brand": "Gintarin\u0117 vaistin\u0117", "brand:wikidata": "Q15857801", "check_date": "2025-05-04", "contact:website": "https://www.gintarine.lt", "dispensing": "yes", "healthcare": "pharmacy", "indoor": "yes", "name": "Gintarin\u0117 vaistin\u0117", "opening_hours": "Mo-Fr 08:00-20:00; Sa 09:00-18:00; Su 10:00-16:00", "wheelchair": "yes"}}, {"type": "node", "id": 12529994701, "lat": 55.3458166, "lon": 21.4843801, "tags": {"addr:city": "\u0160ilut\u0117", "addr:contact": "yes", "addr:housenumber": "1A", "addr:street": "Gele\u017einkelio g.", "amenity": "pharmacy", "contact:website": "https://nvaistine.lt", "dispensing": "yes", "healthcare": "pharmacy", "indoor": "yes", "name": "Norfos vaistin\u0117", "opening_hours": "Mo-Fr 08:00-19:00; Sa 09:00-16:00; Su 09:00-15:00", "wheelchair": "yes"}}, {"type": "node", "id": 12648438530, "lat": 55.3433522, "lon": 21.4749905, "tags": {"addr:city": "\u0160ilut\u0117", "addr:contact": "yes", "addr:housenumber": "62", "addr:postcode": "99172", "addr:street": "Lietuvinink\u0173 g.", "amenity": "pharmacy", "brand": "Camelia", "brand:wikidata": "Q15867413", "dispensing": "yes", "drive_through": "no", "healthcare": "pharmacy", "name": "Camelia", "opening_hours": "Mo-Fr 08:00-18:00; Sa 08:00-14:00; PH off", "wheelchair": "no"}}, {"type": "node", "id": 12669067219, "lat": 55.3401456, "lon": 21.4581827, "tags": {"addr:city": "\u0160ilut\u0117", "addr:contact": "yes", "addr:housenumber": "6", "addr:postcode": "99185", "addr:street": "Rusn\u0117s g.", "amenity": "pharmacy", "dispensing": "yes", "drive_through": "no", "healthcare": "pharmacy", "name": "Mari\u0173 vaistin\u0117", "opening_hours": "Mo-Fr 08:00-15:00"}}, {"type": "node", "id": 12782282409, "lat": 55.3508076, "lon": 21.4792435, "tags": {"addr:city": "\u0160ilut\u0117", "addr:contact": "yes", "addr:housenumber": "24", "addr:postcode": "99148", "addr:street": "Cintjoni\u0161ki\u0173 g.", "amenity": "pharmacy", "brand": "Eurovaistin\u0117", "brand:wikidata": "Q267205", "dispensing": "yes", "drive_through": "no", "healthcare": "pharmacy", "indoor": "yes", "name": "Eurovaistin\u0117", "opening_hours": "Mo-Fr 09:00-20:00; Sa 09:00-19:00; Su 09:00-18:00"}}, {"type": "node", "id": 12804311490, "lat": 55.7174549, "lon": 21.3850908, "tags": {"addr:city": "Garg\u017edai", "addr:contact": "yes", "addr:housenumber": "1", "addr:street": "Pasienio g.", "amenity": "pharmacy", "brand": "Benu", "brand:wikidata": "Q62562792", "dispensing": "yes", "dog": "no", "drive_through": "no", "healthcare": "pharmacy", "indoor": "yes", "inline_skates": "no", "name": "Benu", "opening_hours": "Mo-Fr 10:00-19:00; Sa 10:00-17:00", "payment:cash": "yes", "payment:contactless": "yes", "payment:maestro": "yes", "payment:mastercard": "yes", "payment:mastercard_debit": "yes", "payment:visa": "yes", "payment:visa_debit": "yes", "photography": "no", "wheelchair": "yes"}}, {"type": "node", "id": 12804311515, "lat": 55.7124538, "lon": 21.3838518, "tags": {"addr:city": "Garg\u017edai", "addr:contact": "yes", "addr:housenumber": "37", "addr:postcode": "96143", "addr:street": "Klaip\u0117dos g.", "amenity": "pharmacy", "brand": "Eurovaistin\u0117", "brand:wikidata": "Q267205", "dispensing": "yes", "drive_through": "no", "healthcare": "pharmacy", "indoor": "yes", "name": "Eurovaistin\u0117", "opening_hours": "Mo-Fr 08:00-21:00; Sa 09:00-20:00; Su 09:00-19:00; PH off", "payment:cash": "yes", "payment:contactless": "yes", "payment:maestro": "yes", "payment:mastercard": "yes", "payment:mastercard_debit": "yes", "payment:operator": "Worldline", "payment:v_pay": "yes", "payment:visa": "yes", "payment:visa_debit": "yes", "payment:visa_electron": "yes", "photography": "no", "smoking": "no", "wheelchair": "yes"}}, {"type": "node", "id": 12810534730, "lat": 55.3436428, "lon": 21.4703396, "tags": {"addr:city": "\u0160ilut\u0117", "addr:contact": "yes", "addr:housenumber": "3", "addr:street": "Saul\u0117s aklg.", "amenity": "pharmacy", "brand": "Camelia", "brand:wikidata": "Q15867413", "check_date": "2025-08-01", "dispensing": "yes", "drive_through": "no", "healthcare": "pharmacy", "name": "Camelia", "opening_hours": "Mo-Fr 08:00-18:00; Sa 08:30-13:30; PH off", "payment:cash": "yes", "payment:contactless": "yes", "payment:credit_cards": "yes", "payment:debit_cards": "yes", "wheelchair": "no"}}, {"type": "node", "id": 12812921909, "lat": 55.3487602, "lon": 21.4698435, "tags": {"addr:city": "\u0160ilut\u0117", "addr:contact": "yes", "addr:housenumber": "4", "addr:postcode": "99126", "addr:street": "Gluosni\u0173 g.", "amenity": "pharmacy", "dispensing": "yes", "drive_through": "no", "healthcare": "pharmacy", "indoor": "yes", "level": "0", "name": "Mari\u0173 vaistin\u0117", "opening_hours": "Mo-Fr 08:00-17:00", "operator": "Nigra vaistin\u0117", "wheelchair": "yes"}}, {"type": "node", "id": 12945403206, "lat": 55.3445448, "lon": 21.4847429, "tags": {"addr:city": "\u0160ilut\u0117", "addr:contact": "yes", "addr:housenumber": "31", "addr:postcode": "99144", "addr:street": "Til\u017e\u0117s g.", "amenity": "pharmacy", "brand": "Eurovaistin\u0117", "brand:wikidata": "Q267205", "dispensing": "yes", "drive_through": "no", "healthcare": "pharmacy", "name": "Eurovaistin\u0117", "opening_hours": "Mo-Fr 09:00-18:00", "payment:apple_pay": "yes", "payment:cash": "yes", "payment:contactless": "yes", "payment:maestro": "yes", "payment:mastercard": "yes", "payment:mastercard_debit": "yes", "payment:v_pay": "yes", "payment:visa": "yes", "payment:visa_debit": "yes", "payment:visa_electron": "yes", "photography": "no", "smoking": "no", "wheelchair": "yes"}}, {"type": "node", "id": 12966843318, "lat": 55.3438415, "lon": 21.4702693, "tags": {"addr:city": "\u0160ilut\u0117", "addr:contact": "yes", "addr:housenumber": "2D", "addr:street": "H. \u0160ojaus g.", "amenity": "pharmacy", "brand": "Eurovaistin\u0117", "brand:wikidata": "Q267205", "dispensing": "yes", "healthcare": "pharmacy", "indoor": "yes", "level": "0", "name": "Eurovaistin\u0117", "opening_hours": "Mo-Fr 09:00-17:00; Sa 09:00-14:00", "payment:cash": "yes", "payment:contactless": "yes", "payment:maestro": "yes", "payment:mastercard": "yes", "payment:mastercard_debit": "yes", "payment:operator": "Worldline", "payment:v_pay": "yes", "payment:visa": "yes", "payment:visa_debit": "yes", "payment:visa_electron": "yes", "photography": "no", "smoking": "no", "surveillance": "yes"}}, {"type": "node", "id": 13016168304, "lat": 55.3433874, "lon": 21.4721278, "tags": {"addr:city": "\u0160ilut\u0117", "addr:contact": "yes", "addr:housenumber": "39", "addr:postcode": "99134", "addr:street": "Lietuvinink\u0173 g.", "amenity": "pharmacy", "brand": "Gintarin\u0117 vaistin\u0117", "brand:wikidata": "Q15857801", "dispensing": "yes", "drive_through": "no", "healthcare": "pharmacy", "level": "0", "name": "Gintarin\u0117 vaistin\u0117", "opening_hours": "Mo-Fr 08:00-19:00; Sa 09:00-14:00", "wheelchair": "yes"}}, {"type": "node", "id": 13042107667, "lat": 55.3601254, "lon": 21.700557, "tags": {"addr:city": "\u017demai\u010di\u0173 Naumiestis", "addr:contact": "yes", "addr:housenumber": "32", "addr:street": "Laisv\u0117s g.", "amenity": "pharmacy", "brand": "Camelia", "brand:wikidata": "Q15867413", "dispensing": "yes", "drive_through": "no", "healthcare": "pharmacy", "name": "Camelia", "opening_hours": "Mo-Fr 08:00-17:00; Sa 09:00-14:00; PH off", "wheelchair": "limited"}}]}