{"version": 0.6, "generator": "Overpass API 0.7.62.8 e802775f", "osm3s": {"timestamp_osm_base": "2025-10-06T08:53:43Z", "copyright": "The data included in this document is from www.openstreetmap.org. The data is made available under ODbL."}, "elements": [{"type": "node", "id": 11599154169, "lat": 38.0851846, "lon": 28.2093493, "tags": {"amenity": "pharmacy", "healthcare": "pharmacy", "name": "\u0130ncir Eczanesi", "phone": "+90 232 592 9810"}}, {"type": "node", "id": 11599154170, "lat": 38.221145, "lon": 28.2820087, "tags": {"amenity": "pharmacy", "name": "Akka\u015f Eczanesi", "phone": "+90 232 576 5690"}}, {"type": "node", "id": 11599154171, "lat": 38.2202394, "lon": 28.3894222, "tags": {"amenity": "pharmacy", "name": "G\u00fcnayd\u0131n Eczanesi", "phone": "+90 232 575 7075"}}, {"type": "node", "id": 11599154172, "lat": 38.2309411, "lon": 28.2044228, "tags": {"amenity": "pharmacy", "healthcare": "pharmacy", "name": "\u00c7atalo\u011flu Eczanesi", "phone": "+90 232 572 3278"}}, {"type": "node", "id": 11599154173, "lat": 38.230977, "lon": 28.2050651, "tags": {"amenity": "pharmacy", "healthcare": "pharmacy", "name": "Buse Eczanesi", "phone": "+90 232 572 3242"}}, {"type": "node", "id": 11599154174, "lat": 38.2311041, "lon": 28.2052838, "tags": {"amenity": "pharmacy", "healthcare": "pharmacy", "name": "\u015eifa Eczanesi", "phone": "+90 232 572 3086"}}, {"type": "node", "id": 11599154175, "lat": 38.2317491, "lon": 28.2077529, "tags": {"amenity": "pharmacy", "healthcare": "pharmacy", "name": "Deva Eczanesi", "phone": "+90 232 572 3162"}}, {"type": "node", "id": 11599154176, "lat": 38.1653382, "lon": 28.1139531, "tags": {"amenity": "pharmacy", "name": "Ece Eczanesi", "phone": "+90 232 557 2040"}}, {"type": "node", "id": 11599154269, "lat": 38.0850252, "lon": 28.2088675, "tags": {"amenity": "pharmacy", "healthcare": "pharmacy", "name": "G\u00f6nen Eczanesi", "phone": "+90 232 592 6868"}}, {"type": "node", "id": 11599154369, "lat": 38.0851234, "lon": 28.2086194, "tags": {"amenity": "pharmacy", "healthcare": "pharmacy", "name": "Beyda\u011f \u015eifa Eczanesi", "phone": "+90 232 592 6018"}}, {"type": "node", "id": 11599154370, "lat": 38.0852928, "lon": 28.2083681, "tags": {"amenity": "pharmacy", "healthcare": "pharmacy", "name": "Aktepe Eczanesi", "phone": "+90 232 592 7649"}}, {"type": "node", "id": 11599154371, "lat": 38.2313784, "lon": 28.2068647, "tags": {"amenity": "pharmacy", "healthcare": "pharmacy", "name": "Orhanlar Eczanesi", "phone": "+90 232 572 4366"}}, {"type": "node", "id": 11599154372, "lat": 38.231601, "lon": 28.2071368, "tags": {"amenity": "pharmacy", "healthcare": "pharmacy", "name": "\u00d6zy\u0131lmaz Eczanesi", "phone": "+90 232 572 2081"}}, {"type": "node", "id": 11599154469, "lat": 38.1849031, "lon": 28.2885344, "tags": {"amenity": "pharmacy", "name": "Kolpar Eczanesi", "phone": "+90 232 574 0040"}}, {"type": "node", "id": 11599154470, "lat": 38.2312634, "lon": 28.20518, "tags": {"amenity": "pharmacy", "healthcare": "pharmacy", "name": "Kiraz Eczanesi", "phone": "+90 232 572 3018"}}, {"type": "node", "id": 11599154471, "lat": 38.2316573, "lon": 28.2073702, "tags": {"amenity": "pharmacy", "healthcare": "pharmacy", "name": "Bir Eyl\u00fcl Eczanesi", "phone": "+90 232 572 2697"}}, {"type": "node", "id": 11599154472, "lat": 38.2315638, "lon": 28.2077063, "tags": {"amenity": "pharmacy", "healthcare": "pharmacy", "name": "Ya\u015fam Eczanesi", "phone": "+90 232 572 4430"}}, {"type": "node", "id": 11599154473, "lat": 38.2521211, "lon": 28.0645623, "tags": {"amenity": "pharmacy", "name": "Birgi Eczanesi", "phone": "+90 232 531 5084"}}, {"type": "node", "id": 11599154669, "lat": 38.1654356, "lon": 28.1143894, "tags": {"amenity": "pharmacy", "name": "Nihal Eczanesi", "phone": "+90 232 557 2007"}}, {"type": "node", "id": 11610524569, "lat": 38.418735, "lon": 28.350177, "tags": {"amenity": "pharmacy", "name": "G\u00fcl Eczanesi", "phone": "+90 236 674 8238"}}, {"type": "node", "id": 11610524571, "lat": 38.3466671, "lon": 28.5327272, "tags": {"amenity": "pharmacy", "name": "Selin Eczanesi", "phone": "+90 236 654 0424"}}, {"type": "node", "id": 11610524572, "lat": 38.3423481, "lon": 28.5267098, "tags": {"amenity": "pharmacy", "name": "Ulu\u00e7am Eczanesi", "phone": "+90 236 653 8088"}}, {"type": "node", "id": 11610524573, "lat": 38.3430823, "lon": 28.5258553, "tags": {"amenity": "pharmacy", "name": "B\u00fc\u015fra Eczanesi", "phone": "+90 501 260 1594"}}, {"type": "node", "id": 11610524574, "lat": 38.3557358, "lon": 28.5252617, "tags": {"amenity": "pharmacy", "name": "Ege Eczanesi", "phone": "+90 236 654 0292"}}, {"type": "node", "id": 11610524575, "lat": 38.3509553, "lon": 28.5176848, "tags": {"amenity": "pharmacy", "name": "Do\u011fa Eczanesi", "phone": "+90 236 653 8281"}}, {"type": "node", "id": 11610524576, "lat": 38.3535958, "lon": 28.516121, "tags": {"amenity": "pharmacy", "name": "Sevgi Eczanesi", "phone": "+90 236 654 3323"}}, {"type": "node", "id": 11610524577, "lat": 38.3545507, "lon": 28.5148693, "tags": {"amenity": "pharmacy", "name": "K\u0131rm\u0131z\u0131o\u011flu Eczanesi", "phone": "+90 236 653 1358"}}, {"type": "node", "id": 11610524578, "lat": 38.3546484, "lon": 28.5146877, "tags": {"amenity": "pharmacy", "name": "S\u0131hhat Eczanesi", "phone": "+90 236 653 2054"}}, {"type": "node", "id": 11610524579, "lat": 38.3511983, "lon": 28.5150433, "tags": {"amenity": "pharmacy", "name": "Sa\u011fl\u0131k Eczanesi", "phone": "+90 236 653 1568"}}, {"type": "node", "id": 11610524580, "lat": 38.3488681, "lon": 28.5150136, "tags": {"amenity": "pharmacy", "name": "Emine Eczanesi", "phone": "+90 236 653 8650"}}, {"type": "node", "id": 11610524581, "lat": 38.3489442, "lon": 28.5148621, "tags": {"amenity": "pharmacy", "name": "Hayat Eczanesi", "phone": "+90 236 654 4554"}}, {"type": "node", "id": 11610524582, "lat": 38.349049, "lon": 28.5146538, "tags": {"amenity": "pharmacy", "name": "G\u00fcnay Eczanesi", "phone": "+90 236 653 4797"}}, {"type": "node", "id": 11610524583, "lat": 38.3618356, "lon": 28.513224, "tags": {"amenity": "pharmacy", "name": "G\u00fclperi Eczanesi", "phone": "+90 506 708 7758"}}, {"type": "node", "id": 11610524669, "lat": 38.4252057, "lon": 28.3581035, "tags": {"amenity": "pharmacy", "name": "Yeni Hayat Eczanesi", "phone": "+90 236 674 8098"}}, {"type": "node", "id": 11610524670, "lat": 38.357274, "lon": 28.5184596, "tags": {"amenity": "pharmacy", "name": "Ya\u015fam Eczanesi", "phone": "+90 236 654 4343"}}, {"type": "node", "id": 11610524671, "lat": 38.3489966, "lon": 28.5147513, "tags": {"amenity": "pharmacy", "name": "Cansu Eczanesi", "phone": "+90 236 653 1247"}}, {"type": "node", "id": 11610524672, "lat": 38.3561112, "lon": 28.5129648, "tags": {"amenity": "pharmacy", "name": "Do\u011fan Eczanesi", "phone": "+90 236 654 3000"}}, {"type": "node", "id": 11610524769, "lat": 38.4253886, "lon": 28.358957, "tags": {"amenity": "pharmacy", "name": "Zeybek Eczanesi", "phone": "+90 236 674 9090"}}, {"type": "node", "id": 11610524770, "lat": 38.4625418, "lon": 28.4271729, "tags": {"amenity": "pharmacy", "name": "Sand\u0131ko\u011flu Eczanesi", "phone": "+90 236 684 1670"}}, {"type": "node", "id": 11610524771, "lat": 38.414169, "lon": 28.5580644, "tags": {"amenity": "pharmacy", "name": "K\u00fcbra Eczanesi", "phone": "+90 505 506 4540"}}, {"type": "node", "id": 11610524772, "lat": 38.2722539, "lon": 28.6106373, "tags": {"amenity": "pharmacy", "name": "Hekimo\u011flu Eczanesi", "phone": "+90 236 675 8099"}}, {"type": "node", "id": 11610524774, "lat": 38.346437, "lon": 28.5326281, "tags": {"amenity": "pharmacy", "name": "Yeni Defne Eczanesi", "phone": "+90 236 654 4030"}}, {"type": "node", "id": 11610524775, "lat": 38.3423939, "lon": 28.52658, "tags": {"amenity": "pharmacy", "name": "O\u011fuz Zeybek Eczanesi", "phone": "+90 236 653 2711"}}, {"type": "node", "id": 11610524776, "lat": 38.3426249, "lon": 28.525571, "tags": {"amenity": "pharmacy", "name": "Be\u015f Eyl\u00fcl Eczanesi", "phone": "+90 236 654 1966"}}, {"type": "node", "id": 11610524777, "lat": 38.3564049, "lon": 28.5181687, "tags": {"amenity": "pharmacy", "name": "\u015eener Eczanesi", "phone": "+90 236 653 3434"}}, {"type": "node", "id": 11610524778, "lat": 38.3518761, "lon": 28.5161863, "tags": {"amenity": "pharmacy", "name": "Derman Eczanesi", "phone": "+90 236 653 1758"}}, {"type": "node", "id": 11610524779, "lat": 38.3510686, "lon": 28.5153137, "tags": {"amenity": "pharmacy", "name": "Y\u0131ld\u0131z Eczanesi", "phone": "+90 236 653 6565"}}, {"type": "node", "id": 11610524780, "lat": 38.3503848, "lon": 28.5140937, "tags": {"amenity": "pharmacy", "name": "Y\u00fcksel Eczanesi", "phone": "+90 236 653 4430"}}, {"type": "node", "id": 11610524781, "lat": 38.3494642, "lon": 28.5144054, "tags": {"amenity": "pharmacy", "name": "P\u0131nar Eczanesi", "phone": "+90 236 654 1414"}}, {"type": "node", "id": 11610524782, "lat": 38.3491036, "lon": 28.5145495, "tags": {"amenity": "pharmacy", "name": "\u00c7ar\u015f\u0131 Eczanesi", "phone": "+90 236 654 1484"}}, {"type": "node", "id": 11610524783, "lat": 38.3560206, "lon": 28.5128909, "tags": {"amenity": "pharmacy", "name": "Cengiz Eczanesi", "phone": "+90 236 654 1234"}}, {"type": "node", "id": 11610524784, "lat": 38.3562215, "lon": 28.5130391, "tags": {"amenity": "pharmacy", "name": "Gizem Eczanesi", "phone": "+90 236 653 8383"}}, {"type": "node", "id": 11610524785, "lat": 38.3617348, "lon": 28.5133472, "tags": {"amenity": "pharmacy", "name": "Meydan Eczanesi", "phone": "+90 236 654 2424"}}, {"type": "node", "id": 11610525969, "lat": 38.4061961, "lon": 28.4389641, "tags": {"amenity": "pharmacy", "name": "Se\u00e7kin Eczanesi", "phone": "+90 236 653 2693"}}, {"type": "node", "id": 11610525971, "lat": 38.3442529, "lon": 28.5207717, "tags": {"amenity": "pharmacy", "name": "Elif Eczanesi", "phone": "+90 236 653 1991"}}, {"type": "node", "id": 11610525972, "lat": 38.3507, "lon": 28.5158239, "tags": {"amenity": "pharmacy", "name": "Pelin Eczanesi", "phone": "+90 236 653 1636"}}, {"type": "node", "id": 11610641469, "lat": 38.1805698, "lon": 28.5412394, "tags": {"amenity": "pharmacy", "name": "Veresli \u015eifa Eczanesi", "phone": "+90 236 654 3218"}}]}