{"version": 0.6, "generator": "Overpass API 0.7.62.8 e802775f", "osm3s": {"timestamp_osm_base": "2025-10-06T08:52:35Z", "copyright": "The data included in this document is from www.openstreetmap.org. The data is made available under ODbL."}, "elements": [{"type": "node", "id": 697078354, "lat": 48.5270597, "lon": 25.0423251, "tags": {"amenity": "pharmacy", "healthcare": "pharmacy"}}, {"type": "node", "id": 697088316, "lat": 48.5298431, "lon": 25.0408637, "tags": {"amenity": "pharmacy"}}, {"type": "node", "id": 697094806, "lat": 48.5294908, "lon": 25.0381111, "tags": {"amenity": "pharmacy"}}, {"type": "node", "id": 697094828, "lat": 48.5271738, "lon": 25.0397002, "tags": {"amenity": "pharmacy"}}, {"type": "node", "id": 763551922, "lat": 48.5322221, "lon": 25.0463744, "tags": {"amenity": "pharmacy", "name": "\u0426\u0435\u043d\u0442\u0440\u0430\u043b\u044c\u043d\u0430 \u0440\u0430\u0439\u043e\u043d\u043d\u0430 \u0430\u043f\u0442\u0435\u043a\u0430", "name:uk": "\u0426\u0435\u043d\u0442\u0440\u0430\u043b\u044c\u043d\u0430 \u0440\u0430\u0439\u043e\u043d\u043d\u0430 \u0430\u043f\u0442\u0435\u043a\u0430"}}, {"type": "node", "id": 1295727662, "lat": 48.5243256, "lon": 25.0397954, "tags": {"amenity": "pharmacy"}}, {"type": "node", "id": 1802413249, "lat": 48.5717942, "lon": 24.8113239, "tags": {"amenity": "pharmacy", "dispensing": "no"}}, {"type": "node", "id": 1802817118, "lat": 48.4696986, "lon": 25.2953164, "tags": {"amenity": "pharmacy", "dispensing": "no", "name": "\u041f\u043e\u043bi\u0441", "name:uk": "\u041f\u043e\u043bi\u0441", "opening_hours": "Mo-Su 08:30-19:00"}}, {"type": "node", "id": 1802817786, "lat": 48.4726675, "lon": 25.3065878, "tags": {"amenity": "pharmacy", "dispensing": "no"}}, {"type": "node", "id": 2388378855, "lat": 48.3645692, "lon": 25.2281379, "tags": {"amenity": "pharmacy", "dispensing": "yes", "healthcare": "pharmacy"}}, {"type": "node", "id": 2388378890, "lat": 48.3651398, "lon": 25.2291124}, {"type": "node", "id": 2388378892, "lat": 48.3651436, "lon": 25.2292546}, {"type": "node", "id": 2388378905, "lat": 48.365207, "lon": 25.2291085}, {"type": "node", "id": 2388378907, "lat": 48.3652107, "lon": 25.2292506}, {"type": "node", "id": 2388875853, "lat": 48.3638021, "lon": 25.2251594}, {"type": "node", "id": 2388875854, "lat": 48.3638701, "lon": 25.2253468}, {"type": "node", "id": 2388875855, "lat": 48.3638861, "lon": 25.2250905}, {"type": "node", "id": 2388875856, "lat": 48.363954, "lon": 25.225278}, {"type": "node", "id": 2389325796, "lat": 48.3735065, "lon": 25.2256003}, {"type": "node", "id": 2389325801, "lat": 48.3735486, "lon": 25.2256945}, {"type": "node", "id": 2389325805, "lat": 48.3735979, "lon": 25.2255078}, {"type": "node", "id": 2389325821, "lat": 48.37364, "lon": 25.2256021}, {"type": "node", "id": 2411371675, "lat": 48.5336005, "lon": 25.0588763, "tags": {"addr:city": "\u041a\u043e\u043b\u043e\u043c\u0438\u044f", "addr:street": "\u0432\u0443\u043b\u0438\u0446\u044f \u0411\u0430\u043d\u0434\u0435\u0440\u0438", "amenity": "pharmacy", "name": "\u041a\u0430\u043b\u0438\u043d\u0430", "name:uk": "\u041a\u0430\u043b\u0438\u043d\u0430"}}, {"type": "node", "id": 2448393581, "lat": 48.5347398, "lon": 25.0533288, "tags": {"amenity": "pharmacy"}}, {"type": "node", "id": 2573353500, "lat": 48.359066, "lon": 25.425504}, {"type": "node", "id": 2573353502, "lat": 48.3590399, "lon": 25.4256907}, {"type": "node", "id": 2573353505, "lat": 48.3589209, "lon": 25.4256529}, {"type": "node", "id": 2573353508, "lat": 48.358947, "lon": 25.4254663}, {"type": "node", "id": 3059093800, "lat": 48.5786804, "lon": 25.2809859, "tags": {"addr:housenumber": "73", "addr:postcode": "78260", "addr:street": "\u0432\u0443\u043b\u0438\u0446\u044f \u0406\u0432\u0430\u043d\u0430 \u0424\u0440\u0430\u043d\u043a\u0430", "amenity": "pharmacy", "drive_through": "yes", "opening_hours": "08:00-20:00", "phone": "+380 3433 61 137"}}, {"type": "node", "id": 3127798070, "lat": 48.5980833, "lon": 25.4320266, "tags": {"amenity": "pharmacy", "dispensing": "no", "name": "\u041a\u043e\u043b\u0435\u043a\u0442\u0438\u0432\u043d\u0430 \u0430\u043f\u0442\u0435\u043a\u0430 \u2116 113", "name:uk": "\u041a\u043e\u043b\u0435\u043a\u0442\u0438\u0432\u043d\u0430 \u0430\u043f\u0442\u0435\u043a\u0430 \u2116 113", "opening_hours": "09:00-18:00"}}, {"type": "node", "id": 4292192094, "lat": 48.3156984, "lon": 25.0892633, "tags": {"amenity": "pharmacy"}}, {"type": "node", "id": 4292212489, "lat": 48.3123454, "lon": 25.0810184, "tags": {"amenity": "pharmacy", "name": "\u0410\u043f\u0442\u0435\u043a\u0430", "name:uk": "\u0410\u043f\u0442\u0435\u043a\u0430"}}, {"type": "node", "id": 4331122001, "lat": 48.2661974, "lon": 25.1805456, "tags": {"addr:city": "\u041a\u0443\u0442\u0438", "amenity": "pharmacy"}}, {"type": "node", "id": 4378083595, "lat": 48.2628737, "lon": 25.179799, "tags": {"amenity": "pharmacy", "name": "\u0410\u043f\u0442\u0435\u043a\u0430 \u0426\u0435\u043d\u0442\u0440\u0430\u043b\u044c\u043d\u0430", "name:uk": "\u0410\u043f\u0442\u0435\u043a\u0430 \u0426\u0435\u043d\u0442\u0440\u0430\u043b\u044c\u043d\u0430", "opening_hours": "24/7"}}, {"type": "node", "id": 4378701289, "lat": 48.3205558, "lon": 25.108094, "tags": {"amenity": "pharmacy"}}, {"type": "node", "id": 4378735194, "lat": 48.3207162, "lon": 25.1098351, "tags": {"amenity": "pharmacy"}}, {"type": "node", "id": 4378744291, "lat": 48.3207684, "lon": 25.1087706, "tags": {"amenity": "pharmacy"}}, {"type": "node", "id": 4378773389, "lat": 48.3208069, "lon": 25.1100176, "tags": {"amenity": "pharmacy"}}, {"type": "node", "id": 4378946589, "lat": 48.2624328, "lon": 25.1797143, "tags": {"amenity": "pharmacy"}}, {"type": "node", "id": 4380681689, "lat": 48.2539641, "lon": 25.1678034, "tags": {"amenity": "pharmacy"}}, {"type": "node", "id": 4381900391, "lat": 48.3164162, "lon": 25.0896506, "tags": {"amenity": "pharmacy", "contact:housenumber": "11", "contact:street": "\u0432\u0443\u043b\u0438\u0446\u044f \u041d\u0435\u0431\u0435\u0441\u043d\u043e\u0457 \u0421\u043e\u0442\u043d\u0456", "description": "\u041f\u043e\u0434\u043e\u0440\u043e\u0436\u043d\u0438\u043a \u2013 \u043d\u0430\u0439\u0431\u0456\u043b\u044c\u0448\u0430 \u043c\u0435\u0440\u0435\u0436\u0430 \u0430\u043f\u0442\u0435\u043a \u0423\u043a\u0440\u0430\u0457\u043d\u0438. \u0410\u0441\u043e\u0440\u0442\u0438\u043c\u0435\u043d\u0442 \u043d\u0430\u043b\u0456\u0447\u0443\u0454 \u043f\u043e\u043d\u0430\u0434 20 000 \u0442\u043e\u0432\u0430\u0440\u0456\u0432. \u0423 \u0430\u043f\u0442\u0435\u0446\u0456 \u0432\u0438 \u043c\u043e\u0436\u0435\u0442\u0435 \u043f\u0440\u0438\u0434\u0431\u0430\u0442\u0438 \u043f\u043e\u0442\u0440\u0456\u0431\u043d\u0456 \u043b\u0456\u043a\u0438, \u043a\u043e\u0441\u043c\u0435\u0442\u0438\u043a\u0443 \u0442\u0430 \u0456\u043d\u0448\u0456 \u043c\u0435\u0434\u0437\u0430\u0441\u043e\u0431\u0438.", "name": "\u0410\u043f\u0442\u0435\u043a\u0430 \u041f\u043e\u0434\u043e\u0440\u043e\u0436\u043d\u0438\u043a", "opening_hours": "Mo-Fr 10:00-18:00; Sa 10:00-15:00", "phone:UA": "0 800 303 111", "website": "https://podorozhnyk.com"}}, {"type": "node", "id": 4381909993, "lat": 48.3184364, "lon": 25.0909004, "tags": {"amenity": "pharmacy"}}, {"type": "node", "id": 4381912190, "lat": 48.318441, "lon": 25.0905405, "tags": {"amenity": "pharmacy"}}, {"type": "node", "id": 4388454984, "lat": 48.2621671, "lon": 25.1793195, "tags": {"amenity": "pharmacy"}}, {"type": "node", "id": 4401008297, "lat": 48.3870621, "lon": 25.3452835, "tags": {"addr:street": "\u0432\u0443\u043b\u0438\u0446\u044f \u0428\u0435\u0432\u0447\u0435\u043d\u043a\u0430", "amenity": "pharmacy", "name": "\u0410\u043f\u0442\u0435\u043a\u0430", "name:uk": "\u0410\u043f\u0442\u0435\u043a\u0430"}}, {"type": "node", "id": 4816646330, "lat": 48.4486306, "lon": 24.9906993, "tags": {"amenity": "pharmacy"}}, {"type": "node", "id": 4922526253, "lat": 48.249037, "lon": 25.1897348, "tags": {"amenity": "pharmacy", "healthcare": "pharmacy"}}, {"type": "node", "id": 5274237127, "lat": 48.5252795, "lon": 25.0383358, "tags": {"addr:housenumber": "2", "addr:street": "\u043f\u043b. \u0428\u0435\u0432\u0447\u0435\u043d\u043a\u0430", "amenity": "pharmacy", "contact:phone": "0800303111", "description": "\u041f\u043e\u0434\u043e\u0440\u043e\u0436\u043d\u0438\u043a \u2013 \u043d\u0430\u0439\u0431\u0456\u043b\u044c\u0448\u0430 \u043c\u0435\u0440\u0435\u0436\u0430 \u0430\u043f\u0442\u0435\u043a \u0423\u043a\u0440\u0430\u0457\u043d\u0438. \u0410\u0441\u043e\u0440\u0442\u0438\u043c\u0435\u043d\u0442 \u043d\u0430\u043b\u0456\u0447\u0443\u0454 \u043f\u043e\u043d\u0430\u0434 20 000 \u0442\u043e\u0432\u0430\u0440\u0456\u0432. \u0423 \u0430\u043f\u0442\u0435\u0446\u0456 \u0432\u0438 \u043c\u043e\u0436\u0435\u0442\u0435 \u043f\u0440\u0438\u0434\u0431\u0430\u0442\u0438 \u043f\u043e\u0442\u0440\u0456\u0431\u043d\u0456 \u043b\u0456\u043a\u0438, \u043a\u043e\u0441\u043c\u0435\u0442\u0438\u043a\u0443 \u0442\u0430 \u0456\u043d\u0448\u0456 \u043c\u0435\u0434\u0437\u0430\u0441\u043e\u0431\u0438.", "name": "\u0410\u043f\u0442\u0435\u043a\u0430 \u041f\u043e\u0434\u043e\u0440\u043e\u0436\u043d\u0438\u043a", "name:uk": "\u0410\u043f\u0442\u0435\u043a\u0430 \u041f\u043e\u0434\u043e\u0440\u043e\u0436\u043d\u0438\u043a", "opening_hours": "Mo-Fr 10:00-18:00; Sa 10:00-15:00", "website": "https://podorozhnyk.com"}}, {"type": "node", "id": 5274237129, "lat": 48.5248969, "lon": 25.0374877, "tags": {"amenity": "pharmacy", "name": "\u041a\u043e\u043f\u0456\u0439\u043e\u0447\u043a\u0430", "name:uk": "\u041a\u043e\u043f\u0456\u0439\u043e\u0447\u043a\u0430"}}, {"type": "node", "id": 5274251425, "lat": 48.5247712, "lon": 25.0447556, "tags": {"amenity": "pharmacy", "name": "D.S.", "name:uk": "D.S."}}, {"type": "node", "id": 5276251725, "lat": 48.525134, "lon": 25.035028, "tags": {"amenity": "pharmacy", "name": "\u0417\u0434\u043e\u0440\u043e\u0432\u0430 \u0440\u043e\u0434\u0438\u043d\u0430", "name:uk": "\u0417\u0434\u043e\u0440\u043e\u0432\u0430 \u0440\u043e\u0434\u0438\u043d\u0430"}}, {"type": "node", "id": 5276254021, "lat": 48.5285207, "lon": 25.0400848, "tags": {"amenity": "pharmacy", "name": "D.S.", "name:uk": "D.S."}}, {"type": "node", "id": 5687751723, "lat": 48.5320326, "lon": 25.045801, "tags": {"amenity": "pharmacy", "name": "\u0426\u0435\u043d\u0442\u0440\u0430\u043b\u044c\u043d\u0430 \u0440\u0430\u0439\u043e\u043d\u043d\u0430 \u0430\u043f\u0442\u0435\u043a\u0430", "name:uk": "\u0426\u0435\u043d\u0442\u0440\u0430\u043b\u044c\u043d\u0430 \u0440\u0430\u0439\u043e\u043d\u043d\u0430 \u0430\u043f\u0442\u0435\u043a\u0430"}}, {"type": "node", "id": 5804685154, "lat": 48.5261609, "lon": 25.053689, "tags": {"amenity": "pharmacy"}}, {"type": "node", "id": 6228516916, "lat": 48.2988072, "lon": 25.2646261, "tags": {"amenity": "pharmacy", "dispensing": "yes", "healthcare": "pharmacy", "payment:cash": "yes"}}, {"type": "node", "id": 6312934922, "lat": 48.2968369, "lon": 25.263496, "tags": {"amenity": "pharmacy", "dispensing": "yes", "healthcare": "pharmacy", "name": "\u0410\u043f\u0442\u0435\u043a\u0430 (\u0414\u043e\u0441\u0442\u0443\u043f\u043d\u0456 \u043b\u0456\u043a\u0438)", "name:uk": "\u0410\u043f\u0442\u0435\u043a\u0430 (\u0414\u043e\u0441\u0442\u0443\u043f\u043d\u0456 \u043b\u0456\u043a\u0438)", "opening_hours": "Mo-Sa 09:00-20:00; Su 10:00-16:00; PH 10:00-16:00", "operator": "\u0424\u041e\u041f \u0414\u0430\u0440\u0456\u0439 \u041e.\u0412.", "payment:cash": "yes"}}, {"type": "node", "id": 6312934923, "lat": 48.3018224, "lon": 25.2685196, "tags": {"amenity": "pharmacy", "dispensing": "yes", "healthcare": "pharmacy", "name": "\u0410\u043f\u0442\u0435\u043a\u0430 \u21161", "name:uk": "\u0410\u043f\u0442\u0435\u043a\u0430 \u21161", "opening_hours": "Mo-Sa 09:00-20:00; Su 10:00-17:00; PH 10:00-17:00", "operator": "\u0424\u041e\u041f \u0413\u0430\u043a\u043c\u0430\u043d \u0414. \u0422.", "payment:cash": "yes", "payment:debit_cards": "yes", "payment:mastercard": "yes", "payment:visa": "yes"}}, {"type": "node", "id": 6574795414, "lat": 48.2623009, "lon": 25.179531, "tags": {"amenity": "pharmacy"}}, {"type": "node", "id": 6688279285, "lat": 48.3153924, "lon": 25.0891123, "tags": {"addr:street": "\u0432\u0443\u043b\u0438\u0446\u044f \u041d\u0435\u0431\u0435\u0441\u043d\u043e\u0457 \u0421\u043e\u0442\u043d\u0456", "amenity": "pharmacy", "name": "\u041d\u043e\u0432\u0430", "name:uk": "\u0410\u043f\u0442\u0435\u043a\u0430 \u041d\u043e\u0432\u0430"}}, {"type": "node", "id": 7036296696, "lat": 48.3196101, "lon": 25.0917703, "tags": {"amenity": "pharmacy"}}, {"type": "node", "id": 7402703395, "lat": 48.5222255, "lon": 25.0128812, "tags": {"amenity": "pharmacy", "name": "\u0410\u0441\u043a\u043e\u0440\u0431\u0456\u043d\u043a\u0430", "name:uk": "\u0410\u0441\u043a\u043e\u0440\u0431\u0456\u043d\u043a\u0430"}}, {"type": "node", "id": 7865992769, "lat": 48.5453052, "lon": 25.4190207, "tags": {"amenity": "pharmacy", "dispensing": "yes", "healthcare": "pharmacy"}}, {"type": "node", "id": 8869769534, "lat": 48.3338707, "lon": 25.3850269, "tags": {"amenity": "pharmacy", "healthcare": "pharmacy"}}, {"type": "node", "id": 9079578143, "lat": 48.5261247, "lon": 25.0389898, "tags": {"amenity": "pharmacy", "contact:email": "admin@apteka911.com.ua", "contact:facebook": "https://www.facebook.com/apteki911", "contact:website": "https://apteka911.ua/", "contact:youtube": "https://www.youtube.com/channel/UCgft8X02aVC-B8WwpKiFEIg", "name": "\u0410\u043f\u0442\u0435\u043a\u0430 \u043e\u043f\u0442\u043e\u0432\u0438\u0445 \u0446\u0456\u043d", "name:uk": "\u0410\u043f\u0442\u0435\u043a\u0430 \u043e\u043f\u0442\u043e\u0432\u0438\u0445 \u0446\u0456\u043d", "opening_hours": "Mo-Su 08:00-21:00", "operator": "\u0424\u0410\u0420\u041c\u0410\u0426\u0406\u042f \u0406\u0412\u0410\u041d\u041e\u0424\u0420\u0410\u041d\u041a\u0406\u0412\u0429\u0418\u041d\u0418", "phone:UA": "0 800 505 911"}}, {"type": "node", "id": 9355141608, "lat": 48.3266342, "lon": 25.2847293, "tags": {"amenity": "pharmacy", "healthcare": "pharmacy"}}, {"type": "node", "id": 9561143261, "lat": 48.5143665, "lon": 24.8802831, "tags": {"addr:housenumber": "1", "addr:postcode": "78274", "addr:street": "\u0432\u0443\u043b\u0438\u0446\u044f \u041b\u0435\u0441\u0456 \u0423\u043a\u0440\u0430\u0457\u043d\u043a\u0438", "amenity": "pharmacy", "healthcare": "pharmacy"}}, {"type": "node", "id": 10899491808, "lat": 48.32072, "lon": 25.1095826, "tags": {"addr:housenumber": "12", "addr:street": "\u0432\u0443\u043b\u0438\u0446\u044f \u041b\u0435\u0441\u0456 \u0423\u043a\u0440\u0430\u0457\u043d\u043a\u0438", "amenity": "pharmacy", "contact:phone": "0800303111", "description": "\u041f\u043e\u0434\u043e\u0440\u043e\u0436\u043d\u0438\u043a \u2013 \u043d\u0430\u0439\u0431\u0456\u043b\u044c\u0448\u0430 \u043c\u0435\u0440\u0435\u0436\u0430 \u0430\u043f\u0442\u0435\u043a \u0423\u043a\u0440\u0430\u0457\u043d\u0438. \u0410\u0441\u043e\u0440\u0442\u0438\u043c\u0435\u043d\u0442 \u043d\u0430\u043b\u0456\u0447\u0443\u0454 \u043f\u043e\u043d\u0430\u0434 20 000 \u0442\u043e\u0432\u0430\u0440\u0456\u0432. \u0423 \u0430\u043f\u0442\u0435\u0446\u0456 \u0432\u0438 \u043c\u043e\u0436\u0435\u0442\u0435 \u043f\u0440\u0438\u0434\u0431\u0430\u0442\u0438 \u043f\u043e\u0442\u0440\u0456\u0431\u043d\u0456 \u043b\u0456\u043a\u0438, \u043a\u043e\u0441\u043c\u0435\u0442\u0438\u043a\u0443 \u0442\u0430 \u0456\u043d\u0448\u0456 \u043c\u0435\u0434\u0437\u0430\u0441\u043e\u0431\u0438.", "name": "\u0410\u043f\u0442\u0435\u043a\u0430 \u041f\u043e\u0434\u043e\u0440\u043e\u0436\u043d\u0438\u043a", "name:uk": "\u0410\u043f\u0442\u0435\u043a\u0430 \u041f\u043e\u0434\u043e\u0440\u043e\u0436\u043d\u0438\u043a", "opening_hours": "Mo-Fr 10:00-18:00; Sa 10:00-15:00", "website": "https://podorozhnyk.com"}}, {"type": "node", "id": 11032772356, "lat": 48.5265855, "lon": 25.0388271, "tags": {"addr:housenumber": "1", "addr:postcode": "78203", "addr:street": "\u043f\u0440\u043e\u0441\u043f\u0435\u043a\u0442 \u0412\u02bc\u044f\u0447\u0435\u0441\u043b\u0430\u0432\u0430 \u0427\u043e\u0440\u043d\u043e\u0432\u043e\u043b\u0430", "amenity": "pharmacy", "healthcare": "pharmacy", "name": "\u0410\u043f\u0442\u0435\u043a\u0430 \u041f\u043e\u0434\u043e\u0440\u043e\u0436\u043d\u0438\u043a", "name:uk": "\u0410\u043f\u0442\u0435\u043a\u0430 \u041f\u043e\u0434\u043e\u0440\u043e\u0436\u043d\u0438\u043a", "opening_hours": "Mo-Sa 08:00-21:00; Su 09:00-20:00", "website": "https://podorozhnyk.com"}}, {"type": "node", "id": 11592872306, "lat": 48.526009, "lon": 25.0269708, "tags": {"addr:housenumber": "86", "addr:street": "\u043f\u0440\u043e\u0441\u043f\u0435\u043a\u0442 \u041c\u0438\u0445\u0430\u0439\u043b\u0430 \u0413\u0440\u0443\u0448\u0435\u0432\u0441\u044c\u043a\u043e\u0433\u043e", "amenity": "pharmacy", "brand": "\u0410\u043f\u0442\u0435\u043a\u0430 \u043e\u043f\u0442\u043e\u0432\u0438\u0445 \u0446\u2025", "brand:wikidata": "Q117617038", "healthcare": "pharmacy", "name": "\u0410\u043f\u0442\u0435\u043a\u0430 \u043e\u043f\u0442\u043e\u0432\u0438\u0445 \u0446\u2025", "name:uk": "\u0410\u043f\u0442\u0435\u043a\u0430 \u043e\u043f\u0442\u043e\u0432\u0438\u0445 \u0446\u2025", "website": "https://apteka911.ua/"}}, {"type": "node", "id": 11595033266, "lat": 48.5251695, "lon": 25.0372956, "tags": {"addr:housenumber": "1/1", "addr:place": "\u043f\u043b\u043e\u0449\u0430 \u0412\u0456\u0434\u0440\u043e\u0434\u0436\u0435\u043d\u043d\u044f", "amenity": "pharmacy", "brand": "\u0411\u0430\u0436\u0430\u0454\u043c\u043e \u0437\u0434\u043e\u0440\u043e\u0432\u02bc\u044f", "brand:wikidata": "Q117404902", "healthcare": "pharmacy", "name": "\u0411\u0430\u0436\u0430\u0454\u043c\u043e \u0437\u0434\u043e\u0440\u043e\u0432\u02bc\u044f", "name:uk": "\u0411\u0430\u0436\u0430\u0454\u043c\u043e \u0437\u0434\u043e\u0440\u043e\u0432\u02bc\u044f"}}, {"type": "node", "id": 12977386699, "lat": 48.5266417, "lon": 25.0432679, "tags": {"addr:housenumber": "48", "addr:street": "\u0412\u0430\u043b\u043e\u0432\u0430 \u0432\u0443\u043b\u0438\u0446\u044f", "amenity": "pharmacy", "contact:facebook": "https://www.facebook.com/166537580616592", "contact:instagram": "https://instagram.com/zdorovarodyna_apteka", "name": "\u0417\u0434\u043e\u0440\u043e\u0432\u0430 \u0420\u043e\u0434\u0438\u043d\u0430", "opening_hours": "Mo-Su 00:00-23:59", "phone": "+380 95 714 1520", "website": "https://zr.in.ua/"}}, {"type": "node", "id": 12977386700, "lat": 48.2629681, "lon": 25.1832926, "tags": {"addr:housenumber": "1-\u0411", "addr:street": "\u0432\u0443\u043b\u0438\u0446\u044f \u041c\u0438\u0445\u0430\u0439\u043b\u0430 \u041f\u0430\u0432\u043b\u0438\u043a\u0430", "amenity": "pharmacy", "contact:facebook": "https://www.facebook.com/166537580616592", "contact:instagram": "https://instagram.com/zdorovarodyna_apteka", "name": "\u0421\u0456\u043c\u0435\u0439\u043d\u0430 \u0410\u043f\u0442\u0435\u043a\u0430", "phone": "+380 95 912 7866", "website": "https://zr.in.ua/"}}, {"type": "node", "id": 13041254460, "lat": 48.3809585, "lon": 25.5158329, "tags": {"addr:housenumber": "2", "addr:street": "\u0432\u0443\u043b\u0438\u0446\u044f \u041b\u044e\u0442\u0438\u0442\u043a\u0430", "amenity": "pharmacy", "contact:facebook": "https://www.facebook.com/166537580616592", "contact:instagram": "https://instagram.com/zdorovarodyna_apteka", "name": "\u0417\u0434\u043e\u0440\u043e\u0432\u0430 \u0420\u043e\u0434\u0438\u043d\u0430", "opening_hours": "Mo-Fr 08:00-21:00; Sa 08:00-18:00; Su 09:00-18:00"}}, {"type": "node", "id": 13041254462, "lat": 48.5255972, "lon": 25.0286499, "tags": {"addr:housenumber": "61", "addr:street": "\u043f\u0440\u043e\u0441\u043f\u0435\u043a\u0442 \u041c\u0438\u0445\u0430\u0439\u043b\u0430 \u0413\u0440\u0443\u0448\u0435\u0432\u0441\u044c\u043a\u043e\u0433\u043e", "amenity": "pharmacy", "contact:facebook": "https://www.facebook.com/166537580616592", "contact:instagram": "https://instagram.com/zdorovarodyna_apteka", "name": "\u0417\u0434\u043e\u0440\u043e\u0432\u0430 \u0420\u043e\u0434\u0438\u043d\u0430", "opening_hours": "Mo-Fr 08:00-21:00; Sa-Su 08:00-18:00"}}, {"type": "node", "id": 13041254468, "lat": 48.2626466, "lon": 25.1800633, "tags": {"addr:housenumber": "8", "addr:street": "\u043f\u043b\u043e\u0449\u0430 \u0428\u0435\u0432\u0447\u0435\u043d\u043a\u0430", "amenity": "pharmacy", "contact:facebook": "https://www.facebook.com/166537580616592", "contact:instagram": "https://instagram.com/zdorovarodyna_apteka", "name": "\u0421\u0456\u043c\u0435\u0439\u043d\u0430 \u0410\u043f\u0442\u0435\u043a\u0430"}}, {"type": "node", "id": 13041254469, "lat": 48.5347785, "lon": 25.0574571, "tags": {"addr:housenumber": "70", "addr:street": "\u0432\u0443\u043b\u0438\u0446\u044f \u0421\u0456\u0447\u043e\u0432\u0438\u0445 \u0421\u0442\u0440\u0456\u043b\u044c\u0446\u0456\u0432", "amenity": "pharmacy", "contact:facebook": "https://www.facebook.com/166537580616592", "contact:instagram": "https://instagram.com/zdorovarodyna_apteka", "name": "\u0417\u0434\u043e\u0440\u043e\u0432\u0430 \u0420\u043e\u0434\u0438\u043d\u0430", "opening_hours": "Mo-Fr 08:00-21:00; Sa-Su 08:00-18:00"}}, {"type": "node", "id": 13041254474, "lat": 48.4669621, "lon": 25.2840714, "tags": {"addr:housenumber": "2", "addr:street": "\u0432\u0443\u043b\u0438\u0446\u044f \u0421\u0442\u0435\u043f\u0430\u043d\u0430 \u0411\u0430\u043d\u0434\u0435\u0440\u0438", "amenity": "pharmacy", "contact:facebook": "https://www.facebook.com/166537580616592", "contact:instagram": "https://instagram.com/zdorovarodyna_apteka", "name": "\u0421\u0456\u043c\u0435\u0439\u043d\u0430 \u0410\u043f\u0442\u0435\u043a\u0430", "opening_hours": "Mo-Fr 08:00-21:00; Sa-Su 08:00-18:00"}}, {"type": "node", "id": 13041297926, "lat": 48.5319918, "lon": 25.0373724, "tags": {"addr:housenumber": "18-\u0411", "addr:street": "\u0432\u0443\u043b\u0438\u0446\u044f \u0406\u0432\u0430\u043d\u0430 \u0424\u0440\u0430\u043d\u043a\u0430", "amenity": "pharmacy", "contact:facebook": "https://www.facebook.com/166537580616592", "contact:instagram": "https://instagram.com/zdorovarodyna_apteka", "name": "\u0417\u0434\u043e\u0440\u043e\u0432\u0430 \u0420\u043e\u0434\u0438\u043d\u0430"}}, {"type": "way", "id": 230320205, "nodes": [2388378905, 2388378907, 2388378892, 2388378890, 2388378905], "tags": {"addr:housenumber": "151", "addr:street": "\u0432\u0443\u043b\u0438\u0446\u044f \u0422\u0430\u0440\u0430\u0441\u0430 \u0428\u0435\u0432\u0447\u0435\u043d\u043a\u0430", "amenity": "pharmacy", "building": "yes"}}, {"type": "way", "id": 230377393, "nodes": [2388875855, 2388875856, 2388875854, 2388875853, 2388875855], "tags": {"amenity": "pharmacy", "building": "yes", "name": "\u0410\u043f\u0442\u0435\u043a\u0430 \u2116 1", "name:uk": "\u0410\u043f\u0442\u0435\u043a\u0430 \u2116 1", "opening_hours": "Mo-Fr 08:00-20:00"}}, {"type": "way", "id": 230427834, "nodes": [2389325805, 2389325821, 2389325801, 2389325796, 2389325805], "tags": {"amenity": "pharmacy", "building": "yes", "opening_hours": "Mo-Fr 08:00-20:00"}}, {"type": "way", "id": 251040034, "nodes": [2573353500, 2573353502, 2573353505, 2573353508, 2573353500], "tags": {"amenity": "pharmacy", "building": "yes"}}]}