{"version": 0.6, "generator": "Overpass API 0.7.62.8 e802775f", "osm3s": {"timestamp_osm_base": "2025-10-06T07:45:26Z", "copyright": "The data included in this document is from www.openstreetmap.org. The data is made available under ODbL."}, "elements": [{"type": "node", "id": 1781442544, "lat": 41.3253941, "lon": 19.4451485}, {"type": "node", "id": 1781442546, "lat": 41.3254003, "lon": 19.4452544}, {"type": "node", "id": 1781442548, "lat": 41.3255404, "lon": 19.4451333}, {"type": "node", "id": 1781442550, "lat": 41.3255466, "lon": 19.4452392}, {"type": "node", "id": 1800847160, "lat": 41.3109442, "lon": 19.446839, "tags": {"amenity": "pharmacy", "healthcare": "pharmacy"}}, {"type": "node", "id": 1800937023, "lat": 41.31149, "lon": 19.4385, "tags": {"amenity": "pharmacy", "healthcare": "pharmacy"}}, {"type": "node", "id": 1800948235, "lat": 41.3125216, "lon": 19.4481037, "tags": {"amenity": "pharmacy", "healthcare": "pharmacy"}}, {"type": "node", "id": 1821613436, "lat": 41.3253851, "lon": 19.44418}, {"type": "node", "id": 1821613437, "lat": 41.3253894, "lon": 19.4443156}, {"type": "node", "id": 1821613438, "lat": 41.3255047, "lon": 19.4441732}, {"type": "node", "id": 1821613439, "lat": 41.325509, "lon": 19.4443088}, {"type": "node", "id": 1827963747, "lat": 41.3193519, "lon": 19.4447794}, {"type": "node", "id": 1827963750, "lat": 41.3193479, "lon": 19.4450248}, {"type": "node", "id": 1827963751, "lat": 41.3194759, "lon": 19.444905}, {"type": "node", "id": 1946625725, "lat": 41.3245294, "lon": 19.4511234, "tags": {"amenity": "pharmacy", "building": "yes", "dispensing": "no", "healthcare": "pharmacy"}}, {"type": "node", "id": 1952953813, "lat": 41.3178303, "lon": 19.4500909, "tags": {"addr:city": "Durres", "amenity": "pharmacy", "healthcare": "pharmacy", "name": "Farmacia Babamusta"}}, {"type": "node", "id": 3703447935, "lat": 41.3194441, "lon": 19.444782}, {"type": "node", "id": 3703447936, "lat": 41.3194422, "lon": 19.4449041}, {"type": "node", "id": 3703447937, "lat": 41.3194739, "lon": 19.4450284}, {"type": "node", "id": 5083279237, "lat": 41.307085, "lon": 19.4907224, "tags": {"amenity": "pharmacy"}}, {"type": "node", "id": 5207005321, "lat": 41.3069868, "lon": 19.4905741, "tags": {"amenity": "pharmacy", "name": "Farmacia Mishel"}}, {"type": "node", "id": 5568374504, "lat": 41.3090959, "lon": 19.4866882, "tags": {"amenity": "pharmacy", "name": "Farmci Elda"}}, {"type": "node", "id": 5587702423, "lat": 41.3225295, "lon": 19.4804609, "tags": {"addr:street": "Rruga Bajram Tusha", "amenity": "pharmacy", "name": "Laerti"}}, {"type": "node", "id": 5587703623, "lat": 41.3208038, "lon": 19.4774899, "tags": {"amenity": "pharmacy"}}, {"type": "node", "id": 6763905185, "lat": 41.2926173, "lon": 19.5085596, "tags": {"addr:street": "Rruga Shk\u00ebmbi i Kavaj\u00ebs", "amenity": "pharmacy", "name": "Farmaci Kela", "name:en": "Kela", "opening_hours": "Mo-Su 08:00-23:00"}}, {"type": "node", "id": 6769514987, "lat": 41.3145039, "lon": 19.4478142, "tags": {"amenity": "pharmacy", "healthcare": "pharmacy"}}, {"type": "node", "id": 6769576385, "lat": 41.3142982, "lon": 19.4489468, "tags": {"amenity": "pharmacy", "healthcare": "pharmacy"}}, {"type": "node", "id": 6823209807, "lat": 41.3428384, "lon": 19.4425151, "tags": {"addr:street": "Rruga Aleksander Goga", "amenity": "pharmacy", "name": "Farmaci Igli"}}, {"type": "node", "id": 6823827989, "lat": 41.3244452, "lon": 19.4652155, "tags": {"addr:street": "Rruga Adem Jashari", "amenity": "pharmacy", "healthcare": "pharmacy"}}, {"type": "node", "id": 6828015993, "lat": 41.3433342, "lon": 19.5476637, "tags": {"amenity": "pharmacy"}}, {"type": "node", "id": 6828015999, "lat": 41.343513, "lon": 19.5483101, "tags": {"amenity": "pharmacy"}}, {"type": "node", "id": 6828200099, "lat": 41.3229272, "lon": 19.4812086, "tags": {"addr:street": "Rruga Bajram Tusha", "amenity": "pharmacy"}}, {"type": "node", "id": 6838135087, "lat": 41.3328511, "lon": 19.4514006, "tags": {"addr:street": "Rruga Petrit Llaftiu", "amenity": "pharmacy", "healthcare": "pharmacy", "name": "Farmaci Joens"}}, {"type": "node", "id": 6838230354, "lat": 41.2928638, "lon": 19.5139309, "tags": {"amenity": "pharmacy", "name": "Pharmaci Veternari"}}, {"type": "node", "id": 6838724463, "lat": 41.3267835, "lon": 19.4883137}, {"type": "node", "id": 6838724464, "lat": 41.3266582, "lon": 19.4884265}, {"type": "node", "id": 6838724465, "lat": 41.3267142, "lon": 19.4885366}, {"type": "node", "id": 6838724466, "lat": 41.3268394, "lon": 19.4884238}, {"type": "node", "id": 6838953014, "lat": 41.3322672, "lon": 19.4992347}, {"type": "node", "id": 6838953015, "lat": 41.332237, "lon": 19.4990847}, {"type": "node", "id": 6838953016, "lat": 41.3321299, "lon": 19.4991229}, {"type": "node", "id": 6838953017, "lat": 41.33216, "lon": 19.4992729}, {"type": "node", "id": 6838978111, "lat": 41.3253533, "lon": 19.4572994, "tags": {"addr:street": "Rruga V\u00ebllaz\u00ebrimi", "amenity": "pharmacy", "healthcare": "pharmacy", "name": "Kasa"}}, {"type": "node", "id": 6838979893, "lat": 41.3257552, "lon": 19.4582811, "tags": {"addr:street": "Rruga V\u00ebllaz\u00ebrimi", "amenity": "pharmacy", "healthcare": "pharmacy", "name": "Liel", "shop": "garden_centre"}}, {"type": "node", "id": 6839019557, "lat": 41.328846, "lon": 19.4914319, "tags": {"addr:street": "Rruga Bajram Tusha", "amenity": "pharmacy"}}, {"type": "node", "id": 6841320716, "lat": 41.290626, "lon": 19.5158255}, {"type": "node", "id": 6841320717, "lat": 41.2905862, "lon": 19.5158489}, {"type": "node", "id": 6841320718, "lat": 41.2905542, "lon": 19.5157528}, {"type": "node", "id": 6841320719, "lat": 41.290594, "lon": 19.5157293}, {"type": "node", "id": 6841351608, "lat": 41.3589416, "lon": 19.4826779}, {"type": "node", "id": 6841351609, "lat": 41.3589713, "lon": 19.4828053}, {"type": "node", "id": 6841351610, "lat": 41.3590428, "lon": 19.4827757}, {"type": "node", "id": 6841351611, "lat": 41.3590131, "lon": 19.4826483}, {"type": "node", "id": 6844791151, "lat": 41.3245215, "lon": 19.4564059, "tags": {"addr:street": "Rruga Glaukia", "amenity": "pharmacy", "healthcare": "pharmacy", "name": "Farmaci Bujqesore"}}, {"type": "node", "id": 6845006584, "lat": 41.3291793, "lon": 19.461715, "tags": {"addr:street": "Rruga Juba", "amenity": "pharmacy", "healthcare": "pharmacy"}}, {"type": "node", "id": 6845068960, "lat": 41.3186637, "lon": 19.4499139, "tags": {"addr:street": "Rruga E D\u00ebshmor\u00ebve", "amenity": "pharmacy", "healthcare": "pharmacy"}}, {"type": "node", "id": 6845079592, "lat": 41.3202762, "lon": 19.4526927, "tags": {"addr:street": "Rruga Abaz \u00c7elkupa", "amenity": "pharmacy", "healthcare": "pharmacy", "name": "Farmaci Egnatia 2014"}}, {"type": "node", "id": 6845079604, "lat": 41.3214708, "lon": 19.4530709, "tags": {"addr:street": "Rruga Abaz \u00c7elkupa", "amenity": "pharmacy", "healthcare": "pharmacy", "name": "Farmaci Shaba"}}, {"type": "node", "id": 6845168363, "lat": 41.3146859, "lon": 19.4455909, "tags": {"addr:street": "Rruga Aleksander Goga", "amenity": "pharmacy", "healthcare": "pharmacy", "name": "Orange Farmaci"}}, {"type": "node", "id": 6845292948, "lat": 41.357934, "lon": 19.4812019, "tags": {"amenity": "pharmacy", "name": "Farmaci Shabani"}}, {"type": "node", "id": 6851510717, "lat": 41.3200373, "lon": 19.4465326, "tags": {"addr:street": "Rruga Shoqeria Bashkimi", "amenity": "pharmacy", "healthcare": "pharmacy", "name": "Farmaci Enika"}}, {"type": "node", "id": 6851519697, "lat": 41.3163999, "lon": 19.4485746, "tags": {"amenity": "pharmacy", "healthcare": "pharmacy"}}, {"type": "node", "id": 6851519803, "lat": 41.318611, "lon": 19.4499232, "tags": {"amenity": "pharmacy", "healthcare": "pharmacy"}}, {"type": "node", "id": 6851519822, "lat": 41.3124891, "lon": 19.4465664, "tags": {"amenity": "pharmacy", "healthcare": "pharmacy"}}, {"type": "node", "id": 6851519827, "lat": 41.312283, "lon": 19.4482026, "tags": {"amenity": "pharmacy", "healthcare": "pharmacy"}}, {"type": "node", "id": 6853143479, "lat": 41.3189208, "lon": 19.4551903, "tags": {"amenity": "pharmacy", "healthcare": "pharmacy", "name": "Domi"}}, {"type": "node", "id": 6853145797, "lat": 41.3180366, "lon": 19.4502333, "tags": {"amenity": "pharmacy", "healthcare": "pharmacy"}}, {"type": "node", "id": 6853146486, "lat": 41.3219891, "lon": 19.4541525, "tags": {"amenity": "pharmacy", "healthcare": "pharmacy"}}, {"type": "node", "id": 6853147286, "lat": 41.3216971, "lon": 19.4506475, "tags": {"amenity": "pharmacy", "healthcare": "pharmacy", "name": "Orange"}}, {"type": "node", "id": 6853148790, "lat": 41.3203204, "lon": 19.4504605, "tags": {"amenity": "pharmacy", "healthcare": "pharmacy"}}, {"type": "node", "id": 6853928447, "lat": 41.3168978, "lon": 19.4517723, "tags": {"amenity": "pharmacy", "healthcare": "pharmacy", "name": "Hyra"}}, {"type": "node", "id": 6853944304, "lat": 41.3163908, "lon": 19.450794, "tags": {"amenity": "pharmacy", "healthcare": "pharmacy"}}, {"type": "node", "id": 6855093993, "lat": 41.3144636, "lon": 19.4748795, "tags": {"amenity": "pharmacy", "check_date": "2024-04-24", "healthcare": "pharmacy", "name": "Ansi Farma"}}, {"type": "node", "id": 6855603788, "lat": 41.3165542, "lon": 19.4449159, "tags": {"addr:street": "Rruga Aleksander Goga", "amenity": "pharmacy", "healthcare": "pharmacy"}}, {"type": "node", "id": 6855603888, "lat": 41.3142802, "lon": 19.4489451, "tags": {"amenity": "pharmacy", "healthcare": "pharmacy", "name": "Nr5"}}, {"type": "node", "id": 6855604285, "lat": 41.3144286, "lon": 19.4480561, "tags": {"amenity": "pharmacy", "healthcare": "pharmacy", "name": "Farmacia Babamusta"}}, {"type": "node", "id": 6857509191, "lat": 41.3009676, "lon": 19.500055, "tags": {"amenity": "pharmacy"}}, {"type": "node", "id": 6857509203, "lat": 41.3108895, "lon": 19.4828325, "tags": {"amenity": "pharmacy"}}, {"type": "node", "id": 6857510985, "lat": 41.3007992, "lon": 19.5008197, "tags": {"amenity": "pharmacy", "name": "Salus plus"}}, {"type": "node", "id": 6857511086, "lat": 41.3019187, "lon": 19.4982979, "tags": {"amenity": "pharmacy", "name": "Isaku"}}, {"type": "node", "id": 6858171688, "lat": 41.3174829, "lon": 19.449356, "tags": {"amenity": "pharmacy", "healthcare": "pharmacy", "name": "Italfarma"}}, {"type": "node", "id": 6858770415, "lat": 41.2498574, "lon": 19.5208745, "tags": {"addr:street": "Bulevardi i Pishave", "amenity": "pharmacy"}}, {"type": "node", "id": 6858833156, "lat": 41.2512231, "lon": 19.5210817, "tags": {"addr:street": "Bulevardi i Pishave", "amenity": "pharmacy"}}, {"type": "node", "id": 6861224002, "lat": 41.3488304, "lon": 19.4401199, "tags": {"addr:street": "Rruga Aleksander Goga", "amenity": "pharmacy", "name": "Bujqesore"}}, {"type": "node", "id": 6861503386, "lat": 41.327504, "lon": 19.4439923, "tags": {"addr:street": "Rruga Kastrioti", "amenity": "pharmacy", "healthcare": "pharmacy", "name": "Farmaci Sh\u00ebrbim", "opening_hours": "24/7"}}, {"type": "node", "id": 6861766744, "lat": 41.2655497, "lon": 19.51998, "tags": {"addr:street": "Rruga Xixa", "amenity": "pharmacy", "healthcare": "pharmacy"}}, {"type": "node", "id": 6864369468, "lat": 41.3443632, "lon": 19.5637523, "tags": {"amenity": "pharmacy", "name": "Farmaci Bujoesore Farera"}}, {"type": "node", "id": 6864798835, "lat": 41.3114907, "lon": 19.4444342, "tags": {"addr:street": "Rruga Kont Urani", "amenity": "pharmacy", "healthcare": "pharmacy"}}, {"type": "node", "id": 6868022270, "lat": 41.3115059, "lon": 19.4990064, "tags": {"addr:street": "Rruga Bajram Curri", "amenity": "pharmacy", "name": "Farmaci Gerti"}}, {"type": "node", "id": 6868164966, "lat": 41.3070759, "lon": 19.492209, "tags": {"addr:street": "Rruga Bajram Curri", "amenity": "pharmacy"}}, {"type": "node", "id": 6868194712, "lat": 41.3075001, "lon": 19.4906748, "tags": {"addr:street": "Rruga Pavar\u00ebsia", "amenity": "pharmacy"}}, {"type": "node", "id": 6868361947, "lat": 41.3460215, "lon": 19.5623253, "tags": {"amenity": "pharmacy"}}, {"type": "node", "id": 6868361948, "lat": 41.3459807, "lon": 19.5622201, "tags": {"amenity": "pharmacy"}}, {"type": "node", "id": 6868366094, "lat": 41.3069369, "lon": 19.4893652, "tags": {"addr:street": "Lule Bore", "amenity": "pharmacy"}}, {"type": "node", "id": 6871922364, "lat": 41.3545597, "lon": 19.5449527}, {"type": "node", "id": 6871922365, "lat": 41.3544783, "lon": 19.544889}, {"type": "node", "id": 6871922366, "lat": 41.3545045, "lon": 19.5449788}, {"type": "node", "id": 6871922367, "lat": 41.3546251, "lon": 19.5449164}, {"type": "node", "id": 6871922368, "lat": 41.354599, "lon": 19.5448266}, {"type": "node", "id": 6872053821, "lat": 41.3285711, "lon": 19.4466993, "tags": {"addr:street": "Rruga Blerimi", "amenity": "pharmacy", "healthcare": "pharmacy", "name": "Farmaci Nael"}}, {"type": "node", "id": 6872093184, "lat": 41.3233512, "lon": 19.4506583, "tags": {"addr:street": "Rruga Mujo Ulqinaku", "amenity": "pharmacy", "healthcare": "pharmacy"}}, {"type": "node", "id": 6872100702, "lat": 41.3272931, "lon": 19.4466537, "tags": {"addr:street": "Rruga Kristo Sotiri", "amenity": "pharmacy", "healthcare": "pharmacy", "name": "Farmaci J. Cullhaj"}}, {"type": "node", "id": 6872128428, "lat": 41.322137, "lon": 19.4478138, "tags": {"addr:street": "Rruga Hysen Myshketa", "amenity": "pharmacy", "healthcare": "pharmacy"}}, {"type": "node", "id": 6872128433, "lat": 41.3244903, "lon": 19.446474, "tags": {"addr:street": "Rruga Kristaq Boshnjaku", "amenity": "pharmacy", "healthcare": "pharmacy", "name": "Eda Farma Farmaci"}}, {"type": "node", "id": 6872144789, "lat": 41.3216299, "lon": 19.4504678, "tags": {"addr:street": "Rruga Mujo Ulqinaku", "amenity": "pharmacy", "healthcare": "pharmacy", "name": "Farmaci Sh\u00ebngjergji"}}, {"type": "node", "id": 6879060312, "lat": 41.3430637, "lon": 19.5670098}, {"type": "node", "id": 6879060313, "lat": 41.343061, "lon": 19.5670829}, {"type": "node", "id": 6879060314, "lat": 41.3431443, "lon": 19.5670882}, {"type": "node", "id": 6879060315, "lat": 41.343147, "lon": 19.5670152}, {"type": "node", "id": 6879328864, "lat": 41.3433655, "lon": 19.5634358, "tags": {"amenity": "pharmacy", "name": "Farmaci Nejon"}}, {"type": "node", "id": 6879906201, "lat": 41.3239454, "lon": 19.4481423, "tags": {"addr:street": "Rruga Teodor Rupi", "amenity": "pharmacy", "healthcare": "pharmacy"}}, {"type": "node", "id": 6879940872, "lat": 41.3258086, "lon": 19.4455942, "tags": {"addr:street": "Rruga Ahmet Ramzoti", "amenity": "pharmacy", "healthcare": "pharmacy", "name": "Farmaci Sagel"}}, {"type": "node", "id": 6879940877, "lat": 41.3258106, "lon": 19.4457901, "tags": {"addr:street": "Rruga Ahmet Ramzoti", "amenity": "pharmacy", "healthcare": "pharmacy", "name": "Farmaci Vital"}}, {"type": "node", "id": 6879948723, "lat": 41.320241, "lon": 19.4479707, "tags": {"addr:street": "Rruga Kasem Durr\u00ebsi", "amenity": "pharmacy", "healthcare": "pharmacy"}}, {"type": "node", "id": 6879955289, "lat": 41.3195813, "lon": 19.4478795, "tags": {"addr:street": "Rruga Kasem Durr\u00ebsi", "amenity": "pharmacy", "healthcare": "pharmacy", "name": "Farmaci Iris"}}, {"type": "node", "id": 6882230857, "lat": 41.3215524, "lon": 19.4452268, "tags": {"addr:street": "Rruga Aleksander Goga", "amenity": "pharmacy", "healthcare": "pharmacy", "name": "Farmaci Megi"}}, {"type": "node", "id": 6883096137, "lat": 41.3247541, "lon": 19.453315, "tags": {"addr:street": "Rruga Abaz \u00c7elkupa", "amenity": "pharmacy", "healthcare": "pharmacy"}}, {"type": "node", "id": 8557162717, "lat": 41.3018557, "lon": 19.5024013, "tags": {"amenity": "pharmacy", "name": "Farmaci bujq\u00ebsore"}}, {"type": "node", "id": 8656561917, "lat": 41.3018846, "lon": 19.5024111, "tags": {"amenity": "pharmacy", "name": "Farmaci bujq\u00ebsore", "phone": "0694223332"}}, {"type": "node", "id": 8656562017, "lat": 41.3245299, "lon": 19.4564139, "tags": {"amenity": "pharmacy", "healthcare": "pharmacy", "name": "Farmaci bujq\u00ebsore"}}, {"type": "node", "id": 9138114236, "lat": 41.3248342, "lon": 19.4455599, "tags": {"amenity": "pharmacy", "healthcare": "pharmacy"}}, {"type": "node", "id": 9138114337, "lat": 41.3221327, "lon": 19.4451843, "tags": {"amenity": "pharmacy", "healthcare": "pharmacy"}}, {"type": "node", "id": 9138114340, "lat": 41.3195203, "lon": 19.444984, "tags": {"amenity": "pharmacy", "healthcare": "pharmacy"}}, {"type": "node", "id": 9138114431, "lat": 41.3204435, "lon": 19.4453716, "tags": {"amenity": "pharmacy", "healthcare": "pharmacy"}}, {"type": "node", "id": 9138114436, "lat": 41.3119793, "lon": 19.4355819, "tags": {"amenity": "pharmacy", "healthcare": "pharmacy", "name": "Farmaci Tefa"}}, {"type": "node", "id": 9138114439, "lat": 41.3113712, "lon": 19.443584, "tags": {"amenity": "pharmacy", "healthcare": "pharmacy"}}, {"type": "node", "id": 9138114817, "lat": 41.3241926, "lon": 19.4452657, "tags": {"amenity": "pharmacy", "healthcare": "pharmacy"}}, {"type": "node", "id": 9153931152, "lat": 41.3126377, "lon": 19.4491545, "tags": {"amenity": "pharmacy", "healthcare": "pharmacy"}}, {"type": "node", "id": 9153938228, "lat": 41.311241, "lon": 19.4819555, "tags": {"amenity": "pharmacy"}}, {"type": "node", "id": 10577728857, "lat": 41.3173563, "lon": 19.4451393, "tags": {"amenity": "pharmacy", "contact:facebook": "https://www.facebook.com/farmaci.kazanxhi", "contact:instagram": "https://www.instagram.com/farmacikazanxhi/", "healthcare": "pharmacy", "name": "Farmaci Kazanxhi"}}, {"type": "node", "id": 11023510039, "lat": 41.2650376, "lon": 19.5199346, "tags": {"amenity": "pharmacy", "healthcare": "pharmacy", "name": "Farmaci NADA"}}, {"type": "way", "id": 166692486, "nodes": [1781442548, 1781442544, 1781442546, 1781442550, 1781442548], "tags": {"amenity": "pharmacy", "dispensing": "no", "healthcare": "pharmacy", "name": "FARMACI\"BEBA\""}}, {"type": "way", "id": 171061752, "nodes": [1821613438, 1821613439, 1821613437, 1821613436, 1821613438], "tags": {"amenity": "pharmacy", "building": "yes", "dispensing": "no", "healthcare": "pharmacy", "name": "FARMACI SH\u00cbNDETI"}}, {"type": "way", "id": 171823374, "nodes": [1827963751, 3703447936, 3703447935, 1827963747, 1827963750, 3703447937, 1827963751], "tags": {"amenity": "pharmacy", "building": "yes", "dispensing": "no", "healthcare": "pharmacy", "name": "FARMACI \"ANGJA\""}}, {"type": "way", "id": 730012772, "nodes": [6838724466, 6838724465, 6838724464, 6838724463, 6838724466], "tags": {"addr:street": "Rruga Bajram Tusha", "amenity": "pharmacy", "building": "commercial", "name": "Natural Pharmacy"}}, {"type": "way", "id": 730036393, "nodes": [6838953017, 6838953016, 6838953015, 6838953014, 6838953017], "tags": {"addr:street": "Rruga e Durr\u00ebsit", "amenity": "pharmacy", "building": "yes", "name": "Agjensi Farmaceutike Rrashbull"}}, {"type": "way", "id": 730261644, "nodes": [6841320719, 6841320716, 6841320717, 6841320718, 6841320719], "tags": {"amenity": "pharmacy", "building": "yes", "name": "Farmaci"}}, {"type": "way", "id": 730262766, "nodes": [6841351611, 6841351610, 6841351609, 6841351608, 6841351611], "tags": {"amenity": "pharmacy", "building": "commercial", "name": "Farmaci"}}, {"type": "way", "id": 733721105, "nodes": [6871922368, 6871922367, 6871922364, 6871922366, 6871922365, 6871922368], "tags": {"addr:street": "SH55", "amenity": "pharmacy", "building": "yes", "name": "Farmaci Laborator Analizash"}}, {"type": "way", "id": 734531771, "nodes": [6879060315, 6879060314, 6879060313, 6879060312, 6879060315], "tags": {"addr:street": "Rruga e Stadiumit", "amenity": "pharmacy", "building": "yes", "name": "Farmaci Gema"}}]}