{"version": 0.6, "generator": "Overpass API 0.7.62.8 e802775f", "osm3s": {"timestamp_osm_base": "2025-10-06T07:48:26Z", "copyright": "The data included in this document is from www.openstreetmap.org. The data is made available under ODbL."}, "elements": [{"type": "node", "id": 2089209654, "lat": 42.0662798, "lon": 19.5110007}, {"type": "node", "id": 2089209660, "lat": 42.0663056, "lon": 19.5110851}, {"type": "node", "id": 2089209668, "lat": 42.0663588, "lon": 19.510957}, {"type": "node", "id": 2089209671, "lat": 42.0663846, "lon": 19.5110414}, {"type": "node", "id": 2106011222, "lat": 42.0751484, "lon": 19.5238646, "tags": {"amenity": "pharmacy", "dispensing": "yes", "name": "Vali"}}, {"type": "node", "id": 2106011732, "lat": 42.0732734, "lon": 19.5210115, "tags": {"addr:country": "AL", "amenity": "pharmacy", "dispensing": "yes", "payment:coins": "yes", "payment:credit_cards": "no", "payment:cryptocurrencies": "no", "payment:debit_cards": "no", "payment:electronic_purses": "no", "payment:notes": "yes", "source": "bing;survey;gps", "source_ref:url": "https://www.flickr.com/photos/134902422@N04/map?&fLat=41.9559&fLon=19.4337&zl=11&order_by=recent", "wheelchair": "limited"}}, {"type": "node", "id": 2106047405, "lat": 42.0644616, "lon": 19.5088019, "tags": {"addr:city": "Shkod\u00ebr", "addr:country": "AL", "addr:postcode": "4001", "amenity": "pharmacy", "dispensing": "yes", "internet_access": "yes", "internet_access:fee": "no", "payment:coins": "yes", "payment:credit_cards": "no", "payment:cryptocurrencies": "no", "payment:debit_cards": "no", "payment:electronic_purses": "no", "payment:notes": "yes", "smoking": "outside", "source": "bing;survey;gps", "source_ref:url": "https://www.flickr.com/photos/134902422@N04/map?&fLat=41.9559&fLon=19.4337&zl=11&order_by=recent", "wheelchair": "limited"}}, {"type": "node", "id": 2106048250, "lat": 42.0647374, "lon": 19.5081711, "tags": {"addr:city": "Shkod\u00ebr", "addr:country": "AL", "addr:postcode": "4001", "amenity": "pharmacy", "internet_access": "yes", "internet_access:fee": "no", "name": "Barnatore Parruca", "payment:coins": "yes", "payment:credit_cards": "no", "payment:cryptocurrencies": "no", "payment:debit_cards": "no", "payment:electronic_purses": "no", "payment:notes": "yes", "smoking": "outside", "source": "bing;survey;gps", "source_ref:url": "https://www.flickr.com/photos/134902422@N04/map?&fLat=41.9559&fLon=19.4337&zl=11&order_by=recent", "wheelchair": "limited"}}, {"type": "node", "id": 2210314957, "lat": 42.0754955, "lon": 19.5154284, "tags": {"amenity": "pharmacy", "dispensing": "yes", "name": "Farmaci \"Temali\""}}, {"type": "node", "id": 3159229731, "lat": 42.0659962, "lon": 19.5145298}, {"type": "node", "id": 3159229741, "lat": 42.0660544, "lon": 19.5146059}, {"type": "node", "id": 3239506819, "lat": 42.0454568, "lon": 19.573213}, {"type": "node", "id": 3239506820, "lat": 42.0454645, "lon": 19.5733562}, {"type": "node", "id": 3239506830, "lat": 42.0455509, "lon": 19.5732047}, {"type": "node", "id": 3239506831, "lat": 42.0455581, "lon": 19.5733498}, {"type": "node", "id": 3306149726, "lat": 42.0633209, "lon": 19.5162273}, {"type": "node", "id": 3306149732, "lat": 42.0633526, "lon": 19.5161925}, {"type": "node", "id": 3306149733, "lat": 42.0633191, "lon": 19.5162782}, {"type": "node", "id": 3306149741, "lat": 42.0633772, "lon": 19.5162298}, {"type": "node", "id": 3322761976, "lat": 42.0744937, "lon": 19.5257715}, {"type": "node", "id": 3322761998, "lat": 42.0745801, "lon": 19.5258797}, {"type": "node", "id": 3322762002, "lat": 42.0745947, "lon": 19.5256564}, {"type": "node", "id": 3322762024, "lat": 42.0746601, "lon": 19.5257605}, {"type": "node", "id": 3322762434, "lat": 42.0751487, "lon": 19.5247064}, {"type": "node", "id": 3322762447, "lat": 42.0751898, "lon": 19.5245738}, {"type": "node", "id": 3323527520, "lat": 42.0714066, "lon": 19.514696}, {"type": "node", "id": 3360291399, "lat": 41.8628743, "lon": 19.4282342, "tags": {"amenity": "pharmacy", "dispensing": "no", "name": "plazhi"}}, {"type": "node", "id": 3361843079, "lat": 41.8641271, "lon": 19.4231192, "tags": {"amenity": "pharmacy", "dispensing": "yes", "name": "Barnatore - Ambulanc\u00eb", "opening_hours": "24/7", "shop": "jewelry", "wheelchair": "limited"}}, {"type": "node", "id": 3361843218, "lat": 41.9091332, "lon": 19.4104719, "tags": {"amenity": "pharmacy", "dispensing": "yes"}}, {"type": "node", "id": 3367268051, "lat": 42.0665696, "lon": 19.520299, "tags": {"amenity": "pharmacy", "dispensing": "yes", "payment:coins": "yes", "payment:credit_cards": "no", "payment:cryptocurrencies": "no", "payment:debit_cards": "no", "payment:electronic_purses": "no", "payment:notes": "yes", "smoking": "outside", "source": "bing;survey;gps", "source_ref:url": "https://www.flickr.com/photos/134902422@N04/map?&fLat=41.9559&fLon=19.4337&zl=11&order_by=recent", "wheelchair": "limited"}}, {"type": "node", "id": 3368091367, "lat": 42.0666005, "lon": 19.5126892, "tags": {"amenity": "pharmacy", "dispensing": "yes", "internet_access": "yes", "internet_access:fee": "yes", "payment:coins": "yes", "payment:credit_cards": "no", "payment:cryptocurrencies": "no", "payment:debit_cards": "no", "payment:electronic_purses": "no", "payment:notes": "yes", "smoking": "outside", "source": "bing;survey;gps", "source_ref:url": "https://www.flickr.com/photos/134902422@N04/map?&fLat=41.9559&fLon=19.4337&zl=11&order_by=recent", "wheelchair": "limited"}}, {"type": "node", "id": 3384062049, "lat": 42.0725375, "lon": 19.5026051}, {"type": "node", "id": 3384062051, "lat": 42.0725409, "lon": 19.5024663}, {"type": "node", "id": 3384062076, "lat": 42.0726394, "lon": 19.5026096}, {"type": "node", "id": 3384062077, "lat": 42.0726428, "lon": 19.5024709}, {"type": "node", "id": 3384159542, "lat": 42.0692398, "lon": 19.5108893}, {"type": "node", "id": 3384159551, "lat": 42.0693044, "lon": 19.5108051}, {"type": "node", "id": 3390958159, "lat": 42.0737387, "lon": 19.5076268}, {"type": "node", "id": 3390958559, "lat": 42.073649, "lon": 19.5076046}, {"type": "node", "id": 3393470415, "lat": 42.0596684, "lon": 19.5088538}, {"type": "node", "id": 3393470526, "lat": 42.059568, "lon": 19.5088504}, {"type": "node", "id": 3393470529, "lat": 42.0595894, "lon": 19.5089076}, {"type": "node", "id": 3393470538, "lat": 42.0596469, "lon": 19.5087966}, {"type": "node", "id": 3691530982, "lat": 42.045117, "lon": 19.5732207, "tags": {"amenity": "pharmacy", "payment:coins": "yes", "payment:credit_cards": "no", "payment:cryptocurrencies": "no", "payment:debit_cards": "no", "payment:electronic_purses": "no", "payment:notes": "yes", "wheelchair": "limited"}}, {"type": "node", "id": 3820716186, "lat": 42.0713655, "lon": 19.5148444}, {"type": "node", "id": 3820716187, "lat": 42.071389, "lon": 19.5147144}, {"type": "node", "id": 3820716189, "lat": 42.0714546, "lon": 19.5148732}, {"type": "node", "id": 3820716190, "lat": 42.0714675, "lon": 19.5147925}, {"type": "node", "id": 3820716197, "lat": 42.072814, "lon": 19.5150427, "tags": {"amenity": "pharmacy", "dispensing": "yes", "name": "FARMACI", "source": "Bing Aerial Imagery; survey", "wheelchair": "limited"}}, {"type": "node", "id": 3820716199, "lat": 42.0754438, "lon": 19.5180105, "tags": {"addr:country": "AL", "amenity": "pharmacy", "dispensing": "yes", "source": "Bing Aerial Imagery; survey"}}, {"type": "node", "id": 3820716214, "lat": 42.0758849, "lon": 19.5158769, "tags": {"amenity": "pharmacy", "dispensing": "yes", "source": "Bing Aerial Imagery; survey"}}, {"type": "node", "id": 3894187051, "lat": 42.0395465, "lon": 19.495982, "tags": {"addr:country": "AL", "amenity": "pharmacy", "dispensing": "yes", "name": "FARMACI", "payment:cash": "yes", "payment:credit_cards": "no", "payment:cryptocurrencies": "no", "payment:debit_cards": "no", "payment:electronic_purses": "no", "source": "bing; survey; gps", "source_ref:url": "https://www.flickr.com/photos/134902422@N04/map?&fLat=41.9559&fLon=19.4337&zl=11&order_by=recent", "wheelchair": "limited"}}, {"type": "node", "id": 3914895658, "lat": 42.0760988, "lon": 19.5029336, "tags": {"addr:city": "Shkoder", "addr:country": "AL", "addr:postcode": "4001", "addr:street": "Rruga Hoxha Tasim", "amenity": "pharmacy", "dispensing": "yes", "source": "bing; survey; gps", "source_ref:url": "https://www.flickr.com/photos/134902422@N04/map?&fLat=41.9559&fLon=19.4337&zl=11&order_by=recent"}}, {"type": "node", "id": 3923382574, "lat": 42.0558237, "lon": 19.5007143, "tags": {"addr:city": "Shkoder", "addr:country": "AL", "addr:postcode": "4001", "amenity": "pharmacy", "dispensing": "yes", "name": "FARMACI ANNA", "source": "bing;survey;gps", "source_ref:url": "https://www.flickr.com/photos/134902422@N04/map?&fLat=41.9559&fLon=19.4337&zl=11&order_by=recent"}}, {"type": "node", "id": 3923474977, "lat": 42.0663264, "lon": 19.5151029, "tags": {"addr:city": "Shkoder", "addr:country": "AL", "addr:postcode": "4001", "amenity": "pharmacy", "dispensing": "yes", "name": "Geci", "source": "bing;survey;gps", "source_ref:url": "https://www.flickr.com/photos/134902422@N04/map?&fLat=41.9559&fLon=19.4337&zl=11&order_by=recent"}}, {"type": "node", "id": 3923474992, "lat": 42.0660193, "lon": 19.5144978}, {"type": "node", "id": 3923474993, "lat": 42.0660775, "lon": 19.5145738}, {"type": "node", "id": 3923566946, "lat": 42.0581599, "lon": 19.5042045, "tags": {"addr:city": "Shkoder", "addr:country": "AL", "addr:postcode": "4001", "amenity": "pharmacy", "dispensing": "yes", "name": "Avicena", "wheelchair": "limited"}}, {"type": "node", "id": 3932017954, "lat": 42.0605816, "lon": 19.5112945, "tags": {"addr:city": "Shkoder", "addr:country": "AL", "addr:postcode": "4001", "amenity": "pharmacy", "dispensing": "yes", "payment:cash": "yes", "payment:credit_cards": "no", "payment:cryptocurrencies": "no", "payment:debit_cards": "no", "smoking": "outside", "source": "bing;survey;gps", "source_ref:url": "https://www.flickr.com/photos/134902422@N04/map?&fLat=41.9559&fLon=19.4337&zl=11&order_by=recent", "wheelchair": "yes"}}, {"type": "node", "id": 3932017955, "lat": 42.070834, "lon": 19.5074617, "tags": {"addr:city": "Shkoder", "addr:country": "AL", "addr:postcode": "4001", "amenity": "pharmacy", "dispensing": "yes"}}, {"type": "node", "id": 3932079202, "lat": 42.068846, "lon": 19.5125402, "tags": {"addr:city": "Shkoder", "addr:country": "AL", "addr:postcode": "4001", "amenity": "pharmacy", "dispensing": "yes", "name": "Zhabjaku", "payment:coins": "yes", "payment:credit_cards": "no", "payment:cryptocurrencies": "no", "payment:debit_cards": "no", "payment:electronic_purses": "no", "payment:notes": "yes", "smoking": "outside", "source": "bing;survey;gps", "source_ref:url": "https://www.flickr.com/photos/134902422@N04/map?&fLat=41.9559&fLon=19.4337&zl=11&order_by=recent", "wheelchair": "limited"}}, {"type": "node", "id": 3932079203, "lat": 42.0688874, "lon": 19.5125945, "tags": {"addr:city": "Shkoder", "addr:country": "AL", "addr:postcode": "4001", "amenity": "pharmacy", "dispensing": "yes", "payment:coins": "yes", "payment:credit_cards": "no", "payment:cryptocurrencies": "no", "payment:debit_cards": "no", "payment:electronic_purses": "no", "payment:notes": "yes", "smoking": "outside", "source": "bing;survey;gps", "source_ref:url": "https://www.flickr.com/photos/134902422@N04/map?&fLat=41.9559&fLon=19.4337&zl=11&order_by=recent", "wheelchair": "limited"}}, {"type": "node", "id": 3932956420, "lat": 42.0641364, "lon": 19.5094028, "tags": {"addr:city": "Shkod\u00ebr", "addr:country": "AL", "addr:postcode": "4001", "amenity": "pharmacy", "dispensing": "yes", "internet_access": "yes", "internet_access:fee": "no", "payment:coins": "yes", "payment:credit_cards": "no", "payment:cryptocurrencies": "no", "payment:debit_cards": "no", "payment:electronic_purses": "no", "payment:notes": "yes", "smoking": "outside", "source": "bing;survey;gps", "source_ref:url": "https://www.flickr.com/photos/134902422@N04/map?&fLat=41.9559&fLon=19.4337&zl=11&order_by=recent", "wheelchair": "limited"}}, {"type": "node", "id": 3933650674, "lat": 42.0641551, "lon": 19.5050239, "tags": {"addr:city": "Shkoder", "addr:country": "AL", "addr:postcode": "4001", "amenity": "pharmacy", "dispensing": "yes", "name": "FARMACI \"Burrja\"", "source": "bing;survey;gps", "source_ref:url": "https://www.flickr.com/photos/134902422@N04/map?&fLat=41.9559&fLon=19.4337&zl=11&order_by=recent", "wheelchair": "limited"}}, {"type": "node", "id": 3947849652, "lat": 42.0617007, "lon": 19.513182, "tags": {"addr:city": "Shkoder", "addr:country": "AL", "addr:postcode": "4001", "amenity": "pharmacy", "dispensing": "yes", "payment:cash": "yes", "payment:credit_cards": "no", "payment:cryptocurrencies": "no", "payment:debit_cards": "no", "payment:electronic_purses": "no", "source": "bing; survey; gps", "source_ref:url": "https://www.flickr.com/photos/134902422@N04/map?&fLat=41.9559&fLon=19.4337&zl=11&order_by=recent", "wheelchair": "limited"}}, {"type": "node", "id": 3951692709, "lat": 42.0683342, "lon": 19.509873, "tags": {"addr:country": "AL", "amenity": "pharmacy", "dispensing": "yes", "payment:cash": "yes", "payment:credit_cards": "no", "payment:cryptocurrencies": "no", "payment:debit_cards": "no", "payment:electronic_purses": "no", "source": "bing;survey;gps", "source_ref:url": "https://www.flickr.com/photos/134902422@N04/map?&fLat=41.9559&fLon=19.4337&zl=11&order_by=recent", "wheelchair": "limited"}}, {"type": "node", "id": 3956339243, "lat": 42.0670424, "lon": 19.507487}, {"type": "node", "id": 3956339244, "lat": 42.0670532, "lon": 19.5075353}, {"type": "node", "id": 3956339245, "lat": 42.0670687, "lon": 19.5076082}, {"type": "node", "id": 3956339246, "lat": 42.0670795, "lon": 19.5074657}, {"type": "node", "id": 3956340136, "lat": 42.0671256, "lon": 19.5076055}, {"type": "node", "id": 3961947640, "lat": 42.0763668, "lon": 19.5157052, "tags": {"addr:country": "AL", "amenity": "pharmacy", "dispensing": "yes", "name": "FARMACI", "payment:coins": "yes", "payment:credit_cards": "no", "payment:cryptocurrencies": "no", "payment:debit_cards": "no", "payment:electronic_purses": "no", "payment:notes": "yes", "smoking": "outside", "source": "bing;survey;gps", "source_ref:url": "https://www.flickr.com/photos/134902422@N04/map?&fLat=41.9559&fLon=19.4337&zl=11&order_by=recent", "wheelchair": "limited"}}, {"type": "node", "id": 3963305004, "lat": 42.0652945, "lon": 19.5184338, "tags": {"addr:country": "AL", "amenity": "pharmacy", "dispensing": "yes", "name": "Farmabiocreme", "payment:coins": "yes", "payment:credit_cards": "no", "payment:cryptocurrencies": "no", "payment:debit_cards": "no", "payment:electronic_purses": "no", "payment:notes": "yes", "smoking": "outside", "source": "bing;survey;gps", "source_ref:url": "https://www.flickr.com/photos/134902422@N04/map?&fLat=41.9559&fLon=19.4337&zl=11&order_by=recent", "wheelchair": "limited"}}, {"type": "node", "id": 3963305005, "lat": 42.064972, "lon": 19.5161332, "tags": {"addr:country": "AL", "amenity": "pharmacy", "dispensing": "yes", "name": "Ujka", "payment:coins": "yes", "payment:credit_cards": "no", "payment:debit_cards": "no", "payment:electronic_purses": "no", "payment:notes": "yes", "smoking": "outside", "source": "bing;survey;gps", "source_ref:url": "https://www.flickr.com/photos/134902422@N04/map?&fLat=41.9559&fLon=19.4337&zl=11&order_by=recent", "wheelchair": "limited"}}, {"type": "node", "id": 3963305006, "lat": 42.0640078, "lon": 19.5174624, "tags": {"addr:country": "AL", "amenity": "pharmacy", "dispensing": "yes", "payment:cash": "yes", "payment:credit_cards": "no", "payment:cryptocurrencies": "no", "payment:debit_cards": "no", "payment:electronic_purses": "no", "smoking": "no", "source": "bing;survey;gps", "source_ref:url": "https://www.flickr.com/photos/134902422@N04/map?&fLat=41.9559&fLon=19.4337&zl=11&order_by=recent", "wheelchair": "limited"}}, {"type": "node", "id": 3963305007, "lat": 42.0643888, "lon": 19.516986, "tags": {"addr:country": "AL", "amenity": "pharmacy", "dispensing": "yes", "payment:cash": "yes", "payment:credit_cards": "no", "payment:debit_cards": "no", "payment:electronic_purses": "no", "smoking": "outside", "source": "bing;survey;gps", "source_ref:url": "https://www.flickr.com/photos/134902422@N04/map?&fLat=41.9559&fLon=19.4337&zl=11&order_by=recent", "wheelchair": "limited"}}, {"type": "node", "id": 3973744766, "lat": 42.0661307, "lon": 19.5196327, "tags": {"addr:country": "AL", "amenity": "pharmacy", "dispensing": "yes", "payment:coins": "yes", "payment:credit_cards": "no", "payment:cryptocurrencies": "no", "payment:debit_cards": "no", "payment:electronic_purses": "no", "payment:notes": "yes", "smoking": "outside", "source": "bing;survey;gps", "source_ref:url": "https://www.flickr.com/photos/134902422@N04/map?&fLat=41.9559&fLon=19.4337&zl=11&order_by=recent", "wheelchair": "limited"}}, {"type": "node", "id": 3975619549, "lat": 42.0693733, "lon": 19.5137046, "tags": {"addr:country": "AL", "amenity": "pharmacy", "dispensing": "yes", "internet_access": "yes", "internet_access:fee": "no", "name": "Rudina", "payment:coins": "yes", "payment:credit_cards": "no", "payment:cryptocurrencies": "no", "payment:debit_cards": "no", "payment:electronic_purses": "no", "payment:notes": "yes", "smoking": "outside", "source": "bing;survey;gps", "source_ref:url": "https://www.flickr.com/photos/134902422@N04/map?&fLat=41.9559&fLon=19.4337&zl=11&order_by=recent", "wheelchair": "limited"}}, {"type": "node", "id": 3975701635, "lat": 42.0682455, "lon": 19.5127005, "tags": {"addr:country": "AL", "amenity": "pharmacy", "dispensing": "yes", "name": "FARMACI \"La\u00e7ej\"", "payment:coins": "yes", "payment:credit_cards": "no", "payment:cryptocurrencies": "no", "payment:debit_cards": "no", "payment:electronic_purses": "no", "payment:notes": "yes", "source": "bing;survey;gps", "source_ref:url": "https://www.flickr.com/photos/134902422@N04/map?&fLat=41.9559&fLon=19.4337&zl=11&order_by=recent", "wheelchair": "limited"}}, {"type": "node", "id": 3983898899, "lat": 42.0692181, "lon": 19.5108585}, {"type": "node", "id": 3983898900, "lat": 42.0692812, "lon": 19.5107768}, {"type": "node", "id": 3985899066, "lat": 42.0703282, "lon": 19.5091665, "tags": {"addr:city": "Shkod\u00ebr", "addr:country": "AL", "addr:postcode": "4001", "amenity": "pharmacy", "dispensing": "yes", "name": "Vali", "payment:coins": "yes", "payment:credit_cards": "no", "payment:cryptocurrencies": "no", "payment:debit_cards": "no", "payment:electronic_purses": "no", "payment:notes": "yes", "smoking": "outside", "source": "bing;survey;gps", "source_ref:url": "https://www.flickr.com/photos/134902422@N04/map?&fLat=41.9559&fLon=19.4337&zl=11&order_by=recent", "wheelchair": "limited"}}, {"type": "node", "id": 3985975757, "lat": 42.0700041, "lon": 19.5086235, "tags": {"addr:city": "Shkod\u00ebr", "addr:country": "AL", "addr:postcode": "4001", "amenity": "pharmacy", "dispensing": "yes", "name": "Meta", "payment:coins": "yes", "payment:credit_cards": "no", "payment:cryptocurrencies": "no", "payment:debit_cards": "no", "payment:electronic_purses": "no", "payment:notes": "yes", "smoking": "outside", "source": "bing;survey;gps", "source_ref:url": "https://www.flickr.com/photos/134902422@N04/map?&fLat=41.9559&fLon=19.4337&zl=11&order_by=recent", "wheelchair": "limited"}}, {"type": "node", "id": 3986083272, "lat": 42.0649182, "lon": 19.5028337, "tags": {"addr:country": "AL", "amenity": "pharmacy", "dispensing": "yes", "payment:coins": "yes", "payment:credit_cards": "no", "payment:cryptocurrencies": "no", "payment:debit_cards": "no", "payment:electronic_purses": "no", "payment:notes": "yes", "smoking": "outside", "source": "bing;survey;gps", "source_ref:url": "https://www.flickr.com/photos/134902422@N04/map?&fLat=41.9559&fLon=19.4337&zl=11&order_by=recent"}}, {"type": "node", "id": 3987564919, "lat": 42.0600094, "lon": 19.5039987, "tags": {"addr:country": "AL", "amenity": "pharmacy", "dispensing": "yes", "name": "FARMACI \"BJONI\"", "payment:coins": "yes", "payment:credit_cards": "no", "payment:cryptocurrencies": "no", "payment:debit_cards": "no", "payment:electronic_purses": "no", "payment:notes": "yes", "smoking": "outside", "source": "bing;survey;gps", "source_ref:url": "https://www.flickr.com/photos/134902422@N04/map?&fLat=41.9559&fLon=19.4337&zl=11&order_by=recent", "wheelchair": "yes"}}, {"type": "node", "id": 3987564920, "lat": 42.0583849, "lon": 19.5025593, "tags": {"addr:country": "AL", "amenity": "pharmacy", "dispensing": "yes", "healthcare": "pharmacy", "name": "Farmaci Xhabijej", "payment:coins": "yes", "payment:credit_cards": "no", "payment:cryptocurrencies": "no", "payment:debit_cards": "no", "payment:electronic_purses": "no", "payment:notes": "yes", "smoking": "outside", "source": "Bing Aerial Imagery;survey", "source_ref:url": "https://www.flickr.com/photos/134902422@N04/map?&fLat=41.9559&fLon=19.4337&zl=11&order_by=recent", "wheelchair": "yes"}}, {"type": "node", "id": 3987564921, "lat": 42.061636, "lon": 19.5026977, "tags": {"addr:country": "AL", "amenity": "pharmacy", "dispensing": "yes", "name": "FARMACI", "payment:coins": "yes", "payment:credit_cards": "no", "payment:cryptocurrencies": "no", "payment:debit_cards": "no", "payment:electronic_purses": "no", "payment:notes": "yes", "smoking": "outside", "source": "bing; survey; gps", "source_ref:url": "https://www.flickr.com/photos/134902422@N04/map?&fLat=41.9559&fLon=19.4337&zl=11&order_by=recent", "wheelchair": "limited"}}, {"type": "node", "id": 3987564937, "lat": 42.0592736, "lon": 19.5037179, "tags": {"amenity": "pharmacy", "payment:coins": "yes", "payment:credit_cards": "no", "payment:cryptocurrencies": "no", "payment:debit_cards": "no", "payment:electronic_purses": "no", "payment:notes": "yes", "shop": "convenience", "smoking": "outside", "source": "Bing Aerial Imagery; survey", "source_ref:url": "https://www.flickr.com/photos/134902422@N04/map?&fLat=41.9559&fLon=19.4337&zl=11&order_by=recent", "wheelchair": "yes"}}, {"type": "node", "id": 3987628942, "lat": 42.0613015, "lon": 19.5054903, "tags": {"amenity": "pharmacy", "internet": "yes", "internet_access": "wlan", "internet_access:fee": "no", "name": "Bar Kafe", "outdoor_seating": "yes", "payment:coins": "yes", "payment:credit_cards": "no", "payment:cryptocurrencies": "no", "payment:debit_cards": "no", "payment:electronic_purses": "no", "payment:notes": "yes", "smoking": "outside", "source": "bing;mapbox-satellite;survey;gps;knowledge;local-info", "source_ref:url": "https://www.flickr.com/photos/openstreetmap-albania", "takeaway": "yes", "wheelchair": "yes"}}, {"type": "node", "id": 3987628947, "lat": 42.0619509, "lon": 19.5064449, "tags": {"addr:country": "AL", "amenity": "pharmacy", "dispensing": "yes", "name": "FARMACI"}}, {"type": "node", "id": 3988565882, "lat": 42.0591316, "lon": 19.5141726, "tags": {"addr:country": "AL", "amenity": "pharmacy", "dispensing": "yes", "name": "FARMACI", "payment:coins": "yes", "payment:credit_cards": "no", "payment:cryptocurrencies": "no", "payment:debit_cards": "no", "payment:notes": "yes", "smoking": "outside", "source": "bing;survey;gps", "source_ref:url": "https://www.flickr.com/photos/134902422@N04/map?&fLat=41.9559&fLon=19.4337&zl=11&order_by=recent", "wheelchair": "yes"}}, {"type": "node", "id": 3997174620, "lat": 42.0620729, "lon": 19.520095, "tags": {"addr:country": "AL", "amenity": "pharmacy", "dispensing": "yes", "name": "Gjonej", "payment:coins": "yes", "payment:credit_cards": "no", "payment:cryptocurrencies": "no", "payment:debit_cards": "no", "payment:electronic_purses": "no", "payment:notes": "yes", "smoking": "outside", "source": "bing;survey;gps", "source_ref:url": "https://www.flickr.com/photos/134902422@N04/map?&fLat=41.9559&fLon=19.4337&zl=11&order_by=recent", "wheelchair": "yes"}}, {"type": "node", "id": 3997174621, "lat": 42.0637438, "lon": 19.5183816, "tags": {"addr:country": "AL", "amenity": "pharmacy", "dispensing": "yes", "payment:coins": "yes", "payment:credit_cards": "no", "payment:cryptocurrencies": "no", "payment:debit_cards": "no", "payment:electronic_purses": "no", "payment:notes": "yes", "smoking": "outside", "source": "bing;survey;gps", "source_ref:url": "https://www.flickr.com/photos/134902422@N04/map?&fLat=41.9559&fLon=19.4337&zl=11&order_by=recent", "wheelchair": "yes"}}, {"type": "node", "id": 4319746091, "lat": 42.0025312, "lon": 19.2987903, "tags": {"amenity": "pharmacy", "name:en": "vitapharm"}}, {"type": "node", "id": 4517170498, "lat": 42.066284, "lon": 19.5116096, "tags": {"addr:city": "Shkod\u00ebr", "addr:country": "AL", "addr:postcode": "4001", "amenity": "pharmacy", "dispensing": "yes", "name": "Farmaci \"EVA\"", "payment:coins": "yes", "payment:credit_cards": "no", "payment:cryptocurrencies": "no", "payment:debit_cards": "no", "payment:electronic_purses": "no", "payment:notes": "yes", "smoking": "outside", "source": "bing;survey;gps", "source_ref:url": "https://www.flickr.com/photos/134902422@N04/map?&fLat=41.9559&fLon=19.4337&zl=11&order_by=recent", "wheelchair": "limited"}}, {"type": "node", "id": 4520851824, "lat": 42.0645198, "lon": 19.5087938, "tags": {"addr:city": "Shkod\u00ebr", "addr:country": "AL", "addr:postcode": "4001", "amenity": "pharmacy", "dispensing": "yes", "internet_access": "yes", "internet_access:fee": "no", "payment:coins": "yes", "payment:credit_cards": "no", "payment:cryptocurrencies": "no", "payment:debit_cards": "no", "payment:electronic_purses": "no", "payment:notes": "yes", "smoking": "outside", "source": "bing;survey;gps", "source_ref:url": "https://www.flickr.com/photos/134902422@N04/map?&fLat=41.9559&fLon=19.4337&zl=11&order_by=recent", "wheelchair": "limited"}}, {"type": "node", "id": 4522981942, "lat": 42.0624407, "lon": 19.5061403, "tags": {"amenity": "pharmacy", "dispensing": "yes"}}, {"type": "node", "id": 4522982492, "lat": 42.0632002, "lon": 19.5071975, "tags": {"addr:city": "Shkod\u00ebr", "addr:country": "AL", "addr:postcode": "4001", "addr:street": "Bulevardi Zogu I", "amenity": "pharmacy", "dispensing": "yes", "internet_access": "yes", "internet_access:fee": "no", "name": "Farmaci \"Kopliku\"", "payment:coins": "yes", "payment:credit_cards": "no", "payment:cryptocurrencies": "no", "payment:debit_cards": "no", "payment:electronic_purses": "no", "payment:notes": "yes", "smoking": "outside", "source": "bing;survey;gps", "source_ref:url": "https://www.flickr.com/photos/134902422@N04/map?&fLat=41.9559&fLon=19.4337&zl=11&order_by=recent", "wheelchair": "yes"}}, {"type": "node", "id": 4526280386, "lat": 42.0737478, "lon": 19.507564}, {"type": "node", "id": 4526280387, "lat": 42.0736578, "lon": 19.5075392}, {"type": "node", "id": 4529929305, "lat": 42.059583, "lon": 19.5088904}, {"type": "node", "id": 4531679684, "lat": 42.0699334, "lon": 19.5166276, "tags": {"amenity": "pharmacy", "dispensing": "yes"}}, {"type": "node", "id": 4534456854, "lat": 42.057969, "lon": 19.525465, "tags": {"amenity": "pharmacy", "dispensing": "yes"}}, {"type": "node", "id": 4535573049, "lat": 42.062985, "lon": 19.5108442, "tags": {"amenity": "pharmacy", "dispensing": "yes", "name": "B&M Pharma"}}, {"type": "node", "id": 4539319958, "lat": 42.0745204, "lon": 19.5230951, "tags": {"amenity": "pharmacy", "dispensing": "yes", "name": "Farmaci \"GERI\""}}, {"type": "node", "id": 4539319987, "lat": 42.0739742, "lon": 19.5223625, "tags": {"amenity": "pharmacy", "dispensing": "yes", "name": "Alda"}}, {"type": "node", "id": 4539321031, "lat": 42.0751773, "lon": 19.5247496}, {"type": "node", "id": 4539321032, "lat": 42.0752345, "lon": 19.5246107}, {"type": "node", "id": 4539321051, "lat": 42.0748424, "lon": 19.5235933, "tags": {"amenity": "pharmacy", "dispensing": "yes", "opening_hours": "24/7"}}, {"type": "node", "id": 4539321052, "lat": 42.0747937, "lon": 19.5235249, "tags": {"amenity": "pharmacy", "dispensing": "yes"}}, {"type": "node", "id": 5130464483, "lat": 42.0751587, "lon": 19.5247215}, {"type": "node", "id": 5806180282, "lat": 42.0671028, "lon": 19.5074989}, {"type": "node", "id": 5806180283, "lat": 42.0670885, "lon": 19.5075053}, {"type": "node", "id": 5827406080, "lat": 42.0737452, "lon": 19.5076289}, {"type": "node", "id": 5837631085, "lat": 42.0632991, "lon": 19.5162432}, {"type": "node", "id": 5922478257, "lat": 42.0745059, "lon": 19.5257909}, {"type": "node", "id": 5922478258, "lat": 42.0745167, "lon": 19.5257787}, {"type": "node", "id": 5922478259, "lat": 42.0746793, "lon": 19.5257667}, {"type": "node", "id": 5922478260, "lat": 42.0746691, "lon": 19.5257503}, {"type": "node", "id": 5938816902, "lat": 42.0719697, "lon": 19.5149717, "tags": {"amenity": "pharmacy", "dispensing": "yes"}}, {"type": "node", "id": 6341914885, "lat": 41.7805455, "lon": 19.6415416, "tags": {"amenity": "pharmacy", "name": "Farmaci Aurora", "name:en": "Pharmaci Aurora"}}, {"type": "node", "id": 8528477774, "lat": 42.0700321, "lon": 19.5019408, "tags": {"amenity": "pharmacy"}}, {"type": "node", "id": 8528477776, "lat": 42.0694636, "lon": 19.5018321, "tags": {"amenity": "pharmacy", "name": "Shkodra Biomedicine"}}, {"type": "node", "id": 9041579851, "lat": 42.0072293, "lon": 19.6375669, "tags": {"amenity": "pharmacy", "healthcare": "pharmacy", "name": "Lleshi"}}, {"type": "node", "id": 9041579879, "lat": 42.0075187, "lon": 19.6392414, "tags": {"amenity": "pharmacy", "healthcare": "pharmacy", "name": "Martini"}}, {"type": "node", "id": 9045298017, "lat": 42.0710971, "lon": 19.5075738, "tags": {"amenity": "pharmacy", "healthcare": "pharmacy", "name": "Te Stadiumi"}}, {"type": "node", "id": 9128749495, "lat": 42.0625864, "lon": 19.5066848, "tags": {"amenity": "pharmacy"}}, {"type": "node", "id": 9128749752, "lat": 42.0679629, "lon": 19.5222819, "tags": {"amenity": "pharmacy"}}, {"type": "node", "id": 9128752031, "lat": 42.0743195, "lon": 19.5228245, "tags": {"amenity": "pharmacy"}}, {"type": "node", "id": 10914763710, "lat": 41.8079205, "lon": 19.5980015, "tags": {"amenity": "pharmacy", "name": "Farmaci Mela"}}, {"type": "node", "id": 11327627311, "lat": 42.0888768, "lon": 19.5070074, "tags": {"amenity": "pharmacy"}}, {"type": "way", "id": 198835383, "nodes": [2089209671, 2089209668, 2089209654, 2089209660, 2089209671], "tags": {"addr:city": "Shkod\u00ebr", "addr:country": "AL", "addr:postcode": "4001", "amenity": "pharmacy", "building": "yes", "building:levels": "1", "dispensing": "yes", "name": "Farmaci 24/7", "opening_hours": "24/7", "source": "bing;mapbox-satellite;digitalglobe;survey;knowledge;local-info", "source_ref:url": "https://www.flickr.com/photos/openstreetmap-albania"}}, {"type": "way", "id": 317664693, "nodes": [3239506830, 3239506831, 3239506820, 3239506819, 3239506830], "tags": {"amenity": "pharmacy", "building": "yes", "opening_hours": "sunrise-sunset", "payment:coins": "yes", "payment:credit_cards": "no", "payment:cryptocurrencies": "no", "payment:debit_cards": "no", "payment:electronic_purses": "no", "payment:notes": "yes", "wheelchair": "yes"}}, {"type": "way", "id": 323844882, "nodes": [3306149732, 3306149741, 3306149733, 5837631085, 3306149726, 3306149732], "tags": {"addr:city": "Shkod\u00ebr", "addr:country": "AL", "addr:postcode": "4001", "amenity": "pharmacy", "building": "yes", "building:levels": "1", "dispensing": "yes", "name": "FARMACI", "payment:cash": "yes", "payment:credit_cards": "no", "payment:cryptocurrencies": "no", "payment:debit_cards": "no", "payment:electronic_purses": "no", "source": "bing;mapbox-satellite;digitalglobe;survey;knowledge;local-info", "source_ref:url": "https://www.flickr.com/photos/openstreetmap-albania", "wheelchair": "limited"}}, {"type": "way", "id": 325650470, "nodes": [3322762024, 5922478260, 5922478259, 3322761998, 5922478258, 5922478257, 3322761976, 3322762002, 3322762024], "tags": {"addr:city": "Shkod\u00ebr", "addr:country": "AL", "addr:housenumber": "61", "addr:postcode": "4001", "amenity": "pharmacy", "building": "yes", "dispensing": "yes", "healthcare": "pharmacy", "source": "bing;mapbox-satellite;digitalglobe;survey;knowledge;local-info", "source_ref:url": "https://www.flickr.com/photos/openstreetmap-albania"}}, {"type": "way", "id": 325651024, "nodes": [4539321031, 5130464483, 3322762434, 3322762447, 4539321032, 4539321031], "tags": {"addr:city": "Shkod\u00ebr", "addr:country": "AL", "addr:postcode": "4001", "amenity": "pharmacy", "building": "yes", "dispensing": "yes", "name": "Farmaci", "source": "bing;mapbox-satellite;digitalglobe;survey;knowledge;local-info", "source_ref:url": "https://www.flickr.com/photos/openstreetmap-albania"}}, {"type": "way", "id": 331344965, "nodes": [3384062077, 3384062051, 3384062049, 3384062076, 3384062077], "tags": {"addr:city": "Shkod\u00ebr", "addr:country": "AL", "addr:housenumber": "10", "addr:postcode": "4001", "amenity": "pharmacy", "building": "yes", "name": "Farmaci", "source": "bing;mapbox-satellite;digitalglobe;survey;knowledge;local-info", "source_ref:url": "https://www.flickr.com/photos/openstreetmap-albania"}}, {"type": "way", "id": 332234823, "nodes": [3393470415, 3393470529, 4529929305, 3393470526, 3393470538, 3393470415], "tags": {"addr:city": "Shkod\u00ebr", "addr:country": "AL", "addr:housenumber": "73", "addr:postcode": "4001", "amenity": "pharmacy", "building": "yes", "building:levels": "1", "dispensing": "yes", "name": "FARMACI \"Bushati\"", "source": "bing;mapbox-satellite;digitalglobe;survey;knowledge;local-info", "source_ref:url": "https://www.flickr.com/photos/openstreetmap-albania", "wheelchair": "limited"}}, {"type": "way", "id": 378657493, "nodes": [3820716189, 3820716186, 3820716187, 3323527520, 3820716190, 3820716189], "tags": {"addr:city": "Shkod\u00ebr", "addr:country": "AL", "addr:housenumber": "5", "addr:postcode": "4001", "amenity": "pharmacy", "building": "yes", "dispensing": "yes", "internet_access": "yes", "internet_access:fee": "no", "name": "FARMACI", "payment:coins": "yes", "payment:credit_cards": "no", "payment:cryptocurrencies": "no", "payment:debit_cards": "no", "payment:electronic_purses": "no", "payment:notes": "yes", "smoking": "outside", "source": "bing;mapbox-satellite;digitalglobe;survey;knowledge;local-info", "source_ref:url": "https://www.flickr.com/photos/openstreetmap-albania", "wheelchair": "yes"}}, {"type": "way", "id": 389191128, "nodes": [3923474993, 3923474992, 3159229731, 3159229741, 3923474993], "tags": {"addr:city": "Shkod\u00ebr", "addr:country": "AL", "addr:postcode": "4001", "addr:street": "Bulevardi Sk\u00ebnderbeu", "amenity": "pharmacy", "building": "yes", "name": "Farmaci Temali", "payment:cash": "yes", "payment:credit_cards": "no", "payment:cryptocurrencies": "no", "payment:debit_cards": "no", "payment:electronic_purses": "no", "source": "bing;mapbox-satellite;digitalglobe;survey;knowledge;local-info", "source_ref:url": "https://www.flickr.com/photos/openstreetmap-albania", "wheelchair": "limited"}}, {"type": "way", "id": 392409169, "nodes": [3956339245, 3956340136, 5806180282, 5806180283, 3956339246, 3956339243, 3956339244, 3956339245], "tags": {"addr:city": "Shkod\u00ebr", "addr:country": "AL", "addr:housenumber": "57", "addr:postcode": "4001", "amenity": "pharmacy", "building": "yes", "building:levels": "1", "dispensing": "yes", "internet_access": "yes", "internet_access:fee": "no", "name": "FARMACI", "payment:coins": "yes", "payment:credit_cards": "no", "payment:cryptocurrencies": "no", "payment:debit_cards": "no", "payment:electronic_purses": "no", "payment:notes": "yes", "smoking": "outside", "source": "bing;mapbox-satellite;digitalglobe;survey;knowledge;local-info", "source_ref:url": "https://www.flickr.com/photos/openstreetmap-albania", "wheelchair": "limited"}}, {"type": "way", "id": 395543737, "nodes": [3983898899, 3384159542, 3384159551, 3983898900, 3983898899], "tags": {"addr:city": "Shkod\u00ebr", "addr:country": "AL", "addr:housenumber": "114", "addr:place": "Lagjja Vojo Kushi", "addr:postcode": "4001", "amenity": "pharmacy", "building": "yes", "building:levels": "1", "name": "FARMACI", "payment:coins": "yes", "payment:credit_cards": "no", "payment:cryptocurrencies": "no", "payment:debit_cards": "no", "payment:electronic_purses": "no", "payment:notes": "yes", "source": "bing;mapbox-satellite;digitalglobe;survey;knowledge;local-info", "source_ref:url": "https://www.flickr.com/photos/openstreetmap-albania", "wheelchair": "limited"}}, {"type": "way", "id": 456366360, "nodes": [3390958559, 4526280387, 4526280386, 5827406080, 3390958159, 3390958559], "tags": {"addr:city": "Shkod\u00ebr", "addr:country": "AL", "addr:postcode": "4001", "amenity": "pharmacy", "building": "yes", "building:levels": "2", "dispensing": "yes", "name": "Farmaci \"BEHRI\"", "source": "bing;mapbox-satellite;digitalglobe;survey;knowledge;local-info", "source_ref:url": "https://www.flickr.com/photos/openstreetmap-albania"}}]}