{"version": 0.6, "generator": "Overpass API 0.7.62.8 e802775f", "osm3s": {"timestamp_osm_base": "2025-10-06T09:01:48Z", "copyright": "The data included in this document is from www.openstreetmap.org. The data is made available under ODbL."}, "elements": [{"type": "node", "id": 11594091470, "lat": 37.0753628, "lon": 29.3438146, "tags": {"amenity": "pharmacy", "name": "Yeni \u00d6zdemir Eczanesi", "phone": "+90 258 571 5451"}}, {"type": "node", "id": 11594091570, "lat": 37.0756575, "lon": 29.3452555, "tags": {"amenity": "pharmacy", "name": "\u00d6zlem Eczanesi", "phone": "+90 258 571 5970"}}, {"type": "node", "id": 11594091670, "lat": 37.0756341, "lon": 29.3446437, "tags": {"amenity": "pharmacy", "name": "Oran Eczanesi", "phone": "+90 258 571 5199"}}, {"type": "node", "id": 11594091671, "lat": 37.2407294, "lon": 29.3038436, "tags": {"amenity": "pharmacy", "name": "Uysal Eczanesi", "phone": "+90 258 546 3092"}}, {"type": "node", "id": 11594091969, "lat": 37.0755299, "lon": 29.3436799, "tags": {"amenity": "pharmacy", "name": "Y\u0131lmaz Eczanesi", "phone": "+90 258 571 5044"}}, {"type": "node", "id": 11594091970, "lat": 37.0770785, "lon": 29.3486143, "tags": {"amenity": "pharmacy", "name": "Kuzgun Eczanesi", "phone": "+90 258 571 6200"}}, {"type": "node", "id": 11594092069, "lat": 37.1659959, "lon": 29.2207202, "tags": {"amenity": "pharmacy", "name": "G\u00f6lc\u00fck Eczanesi", "phone": "+90 258 556 5085"}}, {"type": "node", "id": 11594092070, "lat": 37.2401248, "lon": 29.303988, "tags": {"amenity": "pharmacy", "name": "Sar\u0131ca", "name:tr": "Sar\u0131ca Eczanesi", "phone": "+90 258 546 3211"}}, {"type": "node", "id": 11594160071, "lat": 37.2332988, "lon": 28.8941006, "tags": {"amenity": "pharmacy", "name": "Huzur Eczanesi", "phone": "+90 258 242 7186"}}]}