{"version": 0.6, "generator": "Overpass API 0.7.62.8 e802775f", "osm3s": {"timestamp_osm_base": "2025-10-06T08:20:01Z", "copyright": "The data included in this document is from www.openstreetmap.org. The data is made available under ODbL."}, "elements": [{"type": "node", "id": 599491726, "lat": 46.802622, "lon": 21.6579104, "tags": {"addr:city": "Salonta", "addr:housenumber": "13", "addr:postcode": "415500", "addr:street": "Strada Republicii", "amenity": "pharmacy", "brand": "Catena", "brand:wikidata": "Q24035728", "brand:wikipedia": "ro:Farmacia Catena", "healthcare": "pharmacy", "name": "Catena"}}, {"type": "node", "id": 599492020, "lat": 46.8027455, "lon": 21.6628344, "tags": {"amenity": "pharmacy", "healthcare": "pharmacy"}}, {"type": "node", "id": 599497163, "lat": 46.7869962, "lon": 21.7719799, "tags": {"amenity": "pharmacy"}}, {"type": "node", "id": 599528341, "lat": 46.8089605, "lon": 21.6598715, "tags": {"amenity": "pharmacy"}}, {"type": "node", "id": 599532886, "lat": 46.8041332, "lon": 21.6600328, "tags": {"amenity": "pharmacy", "name": "Farmacia Veterinar\u0103"}}, {"type": "node", "id": 599536173, "lat": 46.7908405, "lon": 21.8572609, "tags": {"amenity": "pharmacy"}}, {"type": "node", "id": 737763722, "lat": 46.8041522, "lon": 21.6684568, "tags": {"amenity": "pharmacy"}}, {"type": "node", "id": 739484419, "lat": 46.8091518, "lon": 21.6430925, "tags": {"amenity": "pharmacy", "name": "Farmacia Flora"}}, {"type": "node", "id": 1492591811, "lat": 46.989095, "lon": 21.9796045, "tags": {"amenity": "pharmacy", "name": "Remedio"}}, {"type": "node", "id": 1734273092, "lat": 46.9973632, "lon": 21.9963552, "tags": {"addr:city": "B\u0103ile 1 Mai", "amenity": "pharmacy", "name": "Remedio"}}, {"type": "node", "id": 3445367988, "lat": 47.020411, "lon": 21.594014, "tags": {"amenity": "pharmacy", "healthcare": "pharmacy", "source": "turistautak.hu", "source:date": "2010-05-16", "url": "http://turistautak.hu/poi.php?id=90773"}}, {"type": "node", "id": 3445368048, "lat": 47.061417, "lon": 21.678386, "tags": {"amenity": "pharmacy", "healthcare": "pharmacy", "source": "turistautak.hu", "source:date": "2011-07-25", "url": "http://turistautak.hu/poi.php?id=122181"}}, {"type": "node", "id": 3941118940, "lat": 47.0439483, "lon": 21.9540685, "tags": {"amenity": "pharmacy", "healthcare": "pharmacy", "name": "Eucalipt"}}, {"type": "node", "id": 4103729846, "lat": 46.7728269, "lon": 21.9354446, "tags": {"amenity": "pharmacy", "healthcare": "pharmacy"}}, {"type": "node", "id": 4103729851, "lat": 46.774945, "lon": 21.9311665, "tags": {"amenity": "pharmacy", "healthcare": "pharmacy", "name": "Farmacia Counter"}}, {"type": "node", "id": 4209129889, "lat": 47.0645726, "lon": 21.9534217, "tags": {"addr:city": "Oradea", "addr:housenumber": "102", "addr:postcode": "410169", "addr:street": "Strada Gheorghe Doja", "amenity": "pharmacy", "dispensing": "yes", "drive_through": "no", "healthcare": "pharmacy", "name": "Farmacia Catena", "operator": "Catena"}}, {"type": "node", "id": 4326588892, "lat": 47.0687344, "lon": 21.9354921, "tags": {"amenity": "pharmacy", "healthcare": "pharmacy"}}, {"type": "node", "id": 4410524593, "lat": 46.9700975, "lon": 21.5972283, "tags": {"addr:city": "Biharugra", "addr:housenumber": "2", "addr:postcode": "5538", "addr:street": "B\u00f6l\u00f6nyi utca", "amenity": "pharmacy", "healthcare": "pharmacy", "name": "Erzs\u00e9bet Gy\u00f3gyszert\u00e1r", "operator": "Mo-Fr 13:30-16:00"}}, {"type": "node", "id": 4541113490, "lat": 47.0736326, "lon": 21.9150115, "tags": {"amenity": "pharmacy"}}, {"type": "node", "id": 4708264390, "lat": 47.0437558, "lon": 21.9550494, "tags": {"amenity": "pharmacy", "healthcare": "pharmacy", "name": "Farmacia Cricopharm", "name:en": "Cricopharm Farmacy", "name:ro": "Farmacia Cricopharm"}}, {"type": "node", "id": 4739611230, "lat": 46.9223867, "lon": 21.4842969, "tags": {"addr:city": "Zsad\u00e1ny", "addr:housenumber": "127", "addr:postcode": "5537", "addr:street": "B\u00e9ke utca", "amenity": "pharmacy", "healthcare": "pharmacy", "name": "Schulek Fi\u00f3kgy\u00f3gyszert\u00e1r", "opening_hours": "Mo-Fr 08:00-13:00", "phone": "+36 66 497 011"}}, {"type": "node", "id": 4825350756, "lat": 47.0686613, "lon": 21.9355024, "tags": {"amenity": "pharmacy", "healthcare": "pharmacy", "name": "Elixir"}}, {"type": "node", "id": 4827011351, "lat": 47.0545787, "lon": 21.9276467, "tags": {"amenity": "pharmacy", "healthcare": "pharmacy", "name": "Delia"}}, {"type": "node", "id": 4947636024, "lat": 47.0657892, "lon": 21.9235795, "tags": {"amenity": "pharmacy", "healthcare": "pharmacy", "name": "Farmacia Bonitas", "name:ro": "Farmacia Bonitas"}}, {"type": "node", "id": 4947636026, "lat": 47.0720501, "lon": 21.9251957, "tags": {"amenity": "pharmacy", "name": "Farmacia 3", "name:ro": "Farmacia 3"}}, {"type": "node", "id": 4947636032, "lat": 47.0749959, "lon": 21.9209545, "tags": {"amenity": "pharmacy", "healthcare": "pharmacy", "name": "Vitalogy", "name:ro": "Vitalogy"}}, {"type": "node", "id": 4947636035, "lat": 47.0765305, "lon": 21.9186019, "tags": {"amenity": "pharmacy", "brand": "Catena", "brand:wikidata": "Q24035728", "brand:wikipedia": "ro:Farmacia Catena", "healthcare": "pharmacy", "name": "Catena", "name:ro": "Catena"}}, {"type": "node", "id": 4947648221, "lat": 47.0741475, "lon": 21.9230868, "tags": {"amenity": "pharmacy", "healthcare": "pharmacy", "name": "Viva Pharm", "name:ro": "Viva Pharm"}}, {"type": "node", "id": 4947648321, "lat": 47.0759142, "lon": 21.9191513, "tags": {"amenity": "pharmacy", "brand": "Catena", "brand:wikidata": "Q24035728", "check_date": "2022-11-07", "healthcare": "pharmacy", "name": "Catena", "name:ro": "Catena"}}, {"type": "node", "id": 6660944065, "lat": 47.0503132, "lon": 21.9379323, "tags": {"amenity": "pharmacy", "brand": "Dr. Max", "brand:wikidata": "Q56317371", "brand:wikipedia": "ro:Sensiblu", "dispensing": "yes", "healthcare": "pharmacy", "name": "Dr. Max"}}, {"type": "node", "id": 6660997054, "lat": 47.061468, "lon": 21.9380961, "tags": {"amenity": "pharmacy", "brand": "Farmacia Dona", "brand:wikidata": "Q12726919", "dispensing": "yes", "healthcare": "pharmacy", "name": "Farmacia Dona"}}, {"type": "node", "id": 6932760148, "lat": 47.0467146, "lon": 21.9097109, "tags": {"addr:city": "Oradea", "amenity": "pharmacy", "brand": "Dr. Max", "brand:wikidata": "Q56317371", "dispensing": "yes", "healthcare": "pharmacy", "name": "Dr. Max"}}, {"type": "node", "id": 7592892317, "lat": 46.8024786, "lon": 21.661164, "tags": {"addr:city": "Salonta", "addr:housenumber": "11", "addr:postcode": "415500", "addr:street": "Strada Republicii", "amenity": "pharmacy", "healthcare": "pharmacy", "name": "Dr. Max"}}, {"type": "node", "id": 8214060165, "lat": 47.0667801, "lon": 21.9267748, "tags": {"amenity": "pharmacy", "healthcare": "pharmacy", "name": "Farmacia Rodia"}}, {"type": "node", "id": 8601933502, "lat": 47.0766407, "lon": 21.9157753, "tags": {"addr:city": "Oradea", "addr:postcode": "410354", "amenity": "pharmacy", "brand": "Dr. Max", "brand:wikidata": "Q56317371", "check_date": "2022-11-07", "dispensing": "yes", "healthcare": "pharmacy", "name": "Dr. Max", "name:ro": "Dr Max"}}, {"type": "node", "id": 9943164650, "lat": 47.0577223, "lon": 21.9328189, "tags": {"amenity": "pharmacy", "healthcare": "pharmacy", "opening_hours": "Mo-Fr 08:00-20:00; Sa 10:00-18:00"}}, {"type": "node", "id": 9943184819, "lat": 47.059281, "lon": 21.9357031, "tags": {"amenity": "pharmacy", "healthcare": "pharmacy"}}, {"type": "node", "id": 9943186221, "lat": 47.0586132, "lon": 21.9341008, "tags": {"amenity": "pharmacy", "brand": "Dr. Max", "brand:wikidata": "Q56317371", "healthcare": "pharmacy", "name": "Dr. Max"}}, {"type": "node", "id": 9943378382, "lat": 47.0564992, "lon": 21.9303248, "tags": {"amenity": "pharmacy"}}, {"type": "node", "id": 9943441644, "lat": 47.0536638, "lon": 21.9317373, "tags": {"amenity": "pharmacy"}}, {"type": "node", "id": 9945480097, "lat": 47.0543547, "lon": 21.9347451, "tags": {"amenity": "pharmacy", "healthcare": "pharmacy", "name": "Adonia"}}, {"type": "node", "id": 9945760780, "lat": 46.7084077, "lon": 21.802487, "tags": {"amenity": "pharmacy"}}, {"type": "node", "id": 9948838177, "lat": 47.0591007, "lon": 21.915247, "tags": {"amenity": "pharmacy", "brand": "Farmacia Dona", "brand:wikidata": "Q12726919", "dispensing": "yes", "healthcare": "pharmacy", "name": "Farmacia Dona"}}, {"type": "node", "id": 9950511122, "lat": 47.0702671, "lon": 21.9347813, "tags": {"amenity": "pharmacy", "check_date": "2022-11-07", "name": "Dr Max", "name:ro": "Dr Max"}}, {"type": "node", "id": 10165806964, "lat": 47.0776461, "lon": 21.9162191, "tags": {"amenity": "pharmacy", "brand": "Catena", "brand:wikidata": "Q24035728", "check_date": "2022-11-07", "healthcare": "pharmacy", "name": "Catena", "name:ro": "Catena", "wheelchair": "limited"}}, {"type": "node", "id": 10165920347, "lat": 47.0777292, "lon": 21.9161636, "tags": {"amenity": "pharmacy", "check_date": "2022-11-07", "healthcare": "pharmacy", "name": "Farmacia Fortuna", "name:ro": "Farmacia Fortuna", "wheelchair": "yes"}}, {"type": "node", "id": 10165976766, "lat": 47.0780265, "lon": 21.9157771, "tags": {"amenity": "pharmacy", "check_date": "2022-11-07", "healthcare": "pharmacy", "name": "Sfanta Maria", "name:ro": "Sfanta Maria", "opening_hours": "24/7", "wheelchair": "yes"}}, {"type": "node", "id": 10166171345, "lat": 47.0811919, "lon": 21.9210599, "tags": {"amenity": "pharmacy", "brand": "Catena", "brand:wikidata": "Q24035728", "check_date": "2022-11-07", "healthcare": "pharmacy", "name": "Catena", "name:ro": "Catena"}}, {"type": "node", "id": 10166302578, "lat": 47.0693156, "lon": 21.934921, "tags": {"amenity": "pharmacy", "check_date": "2022-11-07", "healthcare": "pharmacy", "name": "Farmacia Esculap", "name:ro": "Farmacia Esculap"}}, {"type": "node", "id": 10166375251, "lat": 47.0748203, "lon": 21.9213313, "tags": {"amenity": "pharmacy", "brand": "Farmacia Dona", "brand:wikidata": "Q12726919", "check_date": "2022-11-07", "healthcare": "pharmacy", "name": "Farmacia Dona", "name:ro": "Dona"}}, {"type": "node", "id": 10216055086, "lat": 47.0592271, "lon": 21.9398099, "tags": {"amenity": "pharmacy", "healthcare": "pharmacy", "name": "Farmacia Vitalogy"}}, {"type": "node", "id": 11228495221, "lat": 47.080924, "lon": 21.9210616, "tags": {"amenity": "pharmacy", "healthcare": "pharmacy", "name": "Farmacia Era"}}, {"type": "node", "id": 11819920178, "lat": 47.0030741, "lon": 21.4911712}, {"type": "node", "id": 11819920179, "lat": 47.0030028, "lon": 21.4913769}, {"type": "node", "id": 11819920180, "lat": 47.0031085, "lon": 21.4914557}, {"type": "node", "id": 11819920181, "lat": 47.0031799, "lon": 21.4912501}, {"type": "node", "id": 12492765209, "lat": 47.0659659, "lon": 21.9237327, "tags": {"amenity": "pharmacy", "brand": "Catena", "brand:wikidata": "Q24035728", "healthcare": "pharmacy", "name": "Catena"}}, {"type": "way", "id": 1272870464, "nodes": [11819920178, 11819920179, 11819920180, 11819920181, 11819920178], "tags": {"addr:city": "Kom\u00e1di", "addr:housenumber": "35", "addr:postcode": "4138", "addr:street": "F\u0151 utca", "amenity": "pharmacy", "building": "yes", "contact:email": "info@erzsebetk.paticard.hu", "contact:phone": "+36 54 544 070", "contact:website": "http://www.erzsebetk.paticard.hu", "healthcare": "pharmacy", "name": "Erzs\u00e9bet Gy\u00f3gyszert\u00e1r", "opening_hours": "Mo-Fr 08:00-18:00"}}]}