{"version": 0.6, "generator": "Overpass API 0.7.62.8 e802775f", "osm3s": {"timestamp_osm_base": "2025-10-06T08:41:25Z", "copyright": "The data included in this document is from www.openstreetmap.org. The data is made available under ODbL."}, "elements": [{"type": "node", "id": 737971104, "lat": 38.5782788, "lon": 26.978473, "tags": {"amenity": "pharmacy", "healthcare": "pharmacy"}}, {"type": "node", "id": 1747183257, "lat": 38.4664989, "lon": 27.1153217, "tags": {"addr:postcode": "35600", "amenity": "pharmacy", "healthcare": "pharmacy", "name": "Seda Eczanesi", "phone": "+90 232 365 2040"}}, {"type": "node", "id": 1748479885, "lat": 38.4664829, "lon": 27.1172314, "tags": {"addr:postcode": "35600", "amenity": "pharmacy", "healthcare": "pharmacy", "name": "Barbaros Eczanesi", "phone": "+90 232 366 9997"}}, {"type": "node", "id": 1821585639, "lat": 38.47886, "lon": 27.1189135, "tags": {"addr:postcode": "35520", "amenity": "pharmacy", "dispensing": "no", "healthcare": "pharmacy", "name": "Nazl\u0131deniz Eczanesi", "phone": "+90 232 363 1412"}}, {"type": "node", "id": 1864039266, "lat": 38.4258687, "lon": 27.1706923, "tags": {"amenity": "pharmacy", "healthcare": "pharmacy", "name": "\u00e7ar\u015f\u0131 eczanesi"}}, {"type": "node", "id": 2552818770, "lat": 38.3990001, "lon": 27.0796942, "tags": {"addr:city": "izmir", "addr:housenumber": "1176/a", "addr:postcode": "35290", "addr:street": "Mithatpa\u015fa Caddesi", "amenity": "pharmacy", "healthcare": "pharmacy", "name": "Ata Mert Eczanesi", "phone": "+90 232 285 5143", "wheelchair": "yes"}}, {"type": "node", "id": 3724576224, "lat": 38.3936889, "lon": 27.0365459, "tags": {"addr:postcode": "35330", "amenity": "pharmacy", "healthcare": "pharmacy", "name": "Ba\u015fg\u00f6l Eczanesi", "phone": "+90 232 279 2213"}}, {"type": "node", "id": 3724578225, "lat": 38.3936321, "lon": 27.0362857, "tags": {"addr:postcode": "35330", "amenity": "pharmacy", "healthcare": "pharmacy", "name": "Yeni Umut Eczanesi", "phone": "+90 232 259 8888"}}, {"type": "node", "id": 3794382107, "lat": 38.5182458, "lon": 27.0558783, "tags": {"amenity": "pharmacy", "healthcare": "pharmacy", "name": "Su Eczanesi", "operator": "09:00-19:00 Pzt-Cts Pazar Kapal\u0131 N\u00f6beti yok", "phone": "+90(232)3841515"}}, {"type": "node", "id": 3794390391, "lat": 38.5181702, "lon": 27.0555591, "tags": {"addr:street": "8930. Sokak", "amenity": "pharmacy", "healthcare": "pharmacy", "name": "Eyl\u00fcl Eczanesi", "phone": "+90(232)3841474"}}, {"type": "node", "id": 3796223905, "lat": 38.5063039, "lon": 27.0628253, "tags": {"amenity": "pharmacy", "drive_through": "no", "healthcare": "pharmacy", "name": "Yaparo\u011flu Eczanesi", "opening_hours": "09:00-19:00", "phone": "+90(232)3761024", "wheelchair": "yes"}}, {"type": "node", "id": 3796920434, "lat": 38.4198323, "lon": 27.1635571, "tags": {"addr:city": "\u0130zmir", "addr:postcode": "35180", "amenity": "pharmacy", "healthcare": "pharmacy", "name": "Zeytinlik \u015eifa Eczanesi", "phone": "+90 232 459 5595"}}, {"type": "node", "id": 3796920660, "lat": 38.4232237, "lon": 27.1612535, "tags": {"addr:city": "Konak/\u0130zmir", "addr:postcode": "35180", "addr:street": "Gaziler Caddesi", "amenity": "pharmacy", "healthcare": "pharmacy", "name": "Sarao\u011flu Eczanesi", "phone": "+90 232 449 5923"}}, {"type": "node", "id": 3796929520, "lat": 38.4232527, "lon": 27.1608965, "tags": {"addr:city": "konak/\u0130zmir", "addr:housenumber": "402/B", "addr:postcode": "35180", "addr:street": "Gaziler Caddesi", "amenity": "pharmacy", "healthcare": "pharmacy", "name": "Yasemin Eczanesi", "phone": "+90 232 433 3013"}}, {"type": "node", "id": 3796929530, "lat": 38.4232708, "lon": 27.1604559, "tags": {"addr:city": "Konak/\u0130zmir", "addr:postcode": "35180", "addr:street": "Gaziler Caddesi", "amenity": "pharmacy", "healthcare": "pharmacy", "name": "Yeni T\u00fcrsen Eczanesi", "phone": "+90 232 433 8100"}}, {"type": "node", "id": 3796929531, "lat": 38.423266, "lon": 27.1603434, "tags": {"addr:postcode": "35180", "amenity": "pharmacy", "healthcare": "pharmacy", "name": "Utkan Eczanesi", "phone": "+90 232 457 0081"}}, {"type": "node", "id": 3797239460, "lat": 38.4920708, "lon": 27.0656788, "tags": {"amenity": "pharmacy", "healthcare": "pharmacy", "name": "Kaptano\u011flu Eczanesi", "opening_hours": "Mo-Sa 09:00-19:00", "phone": "+90(232)3298715"}}, {"type": "node", "id": 3797370697, "lat": 38.4919771, "lon": 27.0648535, "tags": {"amenity": "pharmacy", "healthcare": "pharmacy", "name": "Derya Eczanesi", "phone": "+90 232 329 0820"}}, {"type": "node", "id": 3797370715, "lat": 38.49264, "lon": 27.0655322, "tags": {"amenity": "pharmacy", "healthcare": "pharmacy", "name": "G\u00fcm\u00fc\u015fi\u011fne Eczanesi"}}, {"type": "node", "id": 3797370718, "lat": 38.4930662, "lon": 27.0638504, "tags": {"amenity": "pharmacy", "healthcare": "pharmacy", "name": "\u00c7i\u011fli Eczanesi", "phone": "+90 232 376 5163"}}, {"type": "node", "id": 3797370721, "lat": 38.4936849, "lon": 27.0629073, "tags": {"amenity": "pharmacy", "healthcare": "pharmacy", "name": "Ye\u015fim Eczanesi", "phone": "+90 232 329 1731"}}, {"type": "node", "id": 3798564184, "lat": 38.503463, "lon": 27.0583378, "tags": {"amenity": "pharmacy", "healthcare": "pharmacy", "name": "Sevcan Eczanesi", "phone": "+90 232 376 6621"}}, {"type": "node", "id": 3798579839, "lat": 38.4959062, "lon": 27.0559261, "tags": {"amenity": "pharmacy", "healthcare": "pharmacy", "name": "Yenimahalle Eczanesi", "phone": "+90 232 376 6377"}}, {"type": "node", "id": 3798582390, "lat": 38.4958628, "lon": 27.0559292, "tags": {"amenity": "pharmacy", "healthcare": "pharmacy", "name": "Egecan Eczanesi", "phone": "+90 232 376 0806"}}, {"type": "node", "id": 3798583857, "lat": 38.4967456, "lon": 27.0543936, "tags": {"amenity": "pharmacy", "healthcare": "pharmacy", "name": "Cem Eczanesi", "phone": "+90 232 329 43 44"}}, {"type": "node", "id": 3798654489, "lat": 38.4903702, "lon": 27.0743412, "tags": {"amenity": "pharmacy", "healthcare": "pharmacy", "name": "Atadeniz Eczanesi", "phone": "+90(0232)3624818"}}, {"type": "node", "id": 3803681659, "lat": 38.45616, "lon": 27.1219328, "tags": {"amenity": "pharmacy", "healthcare": "pharmacy", "name": "Ufuk Eczanesi"}}, {"type": "node", "id": 3803869001, "lat": 38.4865264, "lon": 27.0532268, "tags": {"amenity": "pharmacy", "drive_through": "no", "healthcare": "pharmacy", "name": "Eczane Demir", "phone": "+90232 3860607"}}, {"type": "node", "id": 3829924331, "lat": 38.48784, "lon": 27.0537248, "tags": {"amenity": "pharmacy", "healthcare": "pharmacy", "name": "Eczane Dilay", "phone": "+90232 3295687"}}, {"type": "node", "id": 3829924332, "lat": 38.4857948, "lon": 27.0537079, "tags": {"amenity": "pharmacy", "healthcare": "pharmacy", "name": "Eczane \u00d6zen", "phone": "+90232 3763236"}}, {"type": "node", "id": 3829925600, "lat": 38.4867659, "lon": 27.0618449, "tags": {"amenity": "pharmacy", "healthcare": "pharmacy", "name": "Eczane Uzman"}}, {"type": "node", "id": 3830211454, "lat": 38.4840687, "lon": 27.057739, "tags": {"amenity": "pharmacy", "healthcare": "pharmacy", "name": "Ecem Eczanesi", "phone": "+90232 3291103"}}, {"type": "node", "id": 3830211455, "lat": 38.4858203, "lon": 27.0638161, "tags": {"amenity": "pharmacy", "healthcare": "pharmacy", "name": "Eczane Erdem", "phone": "+90232 3292947"}}, {"type": "node", "id": 3830223940, "lat": 38.4866432, "lon": 27.0629389, "tags": {"amenity": "pharmacy", "healthcare": "pharmacy", "name": "At\u0131l Eczanesi"}}, {"type": "node", "id": 3830223941, "lat": 38.4861368, "lon": 27.0645033, "tags": {"amenity": "pharmacy", "healthcare": "pharmacy", "name": "Seden Eczanesi", "phone": "+90232 3290902"}}, {"type": "node", "id": 3838158532, "lat": 38.4634858, "lon": 27.1205875, "tags": {"amenity": "pharmacy", "healthcare": "pharmacy", "name": "Tokg\u00f6z Eczanesi"}}, {"type": "node", "id": 3838158533, "lat": 38.4640142, "lon": 27.1206599, "tags": {"amenity": "pharmacy", "healthcare": "pharmacy", "name": "K\u00f6rfez Eczanesi"}}, {"type": "node", "id": 3838158534, "lat": 38.4635663, "lon": 27.1184891, "tags": {"amenity": "pharmacy", "healthcare": "pharmacy", "name": "Melda Eczanesi"}}, {"type": "node", "id": 3838158535, "lat": 38.4636157, "lon": 27.1186471, "tags": {"amenity": "pharmacy", "healthcare": "pharmacy", "name": "S\u00f6nmezer Eczanesi"}}, {"type": "node", "id": 3838158536, "lat": 38.4633925, "lon": 27.1216731, "tags": {"amenity": "pharmacy", "healthcare": "pharmacy", "name": "Boran Eczanesi"}}, {"type": "node", "id": 3838158540, "lat": 38.4624044, "lon": 27.1248722, "tags": {"amenity": "pharmacy", "healthcare": "pharmacy", "name": "Yeni Figen Eczanesi"}}, {"type": "node", "id": 3838158541, "lat": 38.4624601, "lon": 27.1249413, "tags": {"amenity": "pharmacy", "healthcare": "pharmacy", "name": "Ba\u011fdatl\u0131 Eczanesi"}}, {"type": "node", "id": 3838158542, "lat": 38.4620933, "lon": 27.1242892, "tags": {"amenity": "pharmacy", "healthcare": "pharmacy", "name": "Berra Eczanesi"}}, {"type": "node", "id": 3838158543, "lat": 38.4637674, "lon": 27.1204762, "tags": {"amenity": "pharmacy", "healthcare": "pharmacy", "name": "Paksoy Eczanesi"}}, {"type": "node", "id": 3838158544, "lat": 38.4635992, "lon": 27.1183677, "tags": {"amenity": "pharmacy", "healthcare": "pharmacy", "name": "\u00d6vg\u00fc Eczanesi"}}, {"type": "node", "id": 3838158545, "lat": 38.4631461, "lon": 27.1161843, "tags": {"amenity": "pharmacy", "healthcare": "pharmacy", "name": "U\u011furum Eczanesi"}}, {"type": "node", "id": 3838158546, "lat": 38.463371, "lon": 27.116024, "tags": {"amenity": "pharmacy", "healthcare": "pharmacy", "name": "Ge\u00e7er Eczanesi"}}, {"type": "node", "id": 3838158547, "lat": 38.4640499, "lon": 27.1138554, "tags": {"addr:postcode": "35600", "amenity": "pharmacy", "healthcare": "pharmacy", "name": "Yeni Aky\u00fcz Eczanesi", "phone": "+90 232 382 2303"}}, {"type": "node", "id": 3838158548, "lat": 38.4644262, "lon": 27.1122656, "tags": {"amenity": "pharmacy", "healthcare": "pharmacy", "name": "Akut Eczanesi"}}, {"type": "node", "id": 3838158549, "lat": 38.4646723, "lon": 27.1120807, "tags": {"amenity": "pharmacy", "healthcare": "pharmacy", "name": "Arslan Eczanesi"}}, {"type": "node", "id": 3838158550, "lat": 38.4618352, "lon": 27.1189083, "tags": {"amenity": "pharmacy", "healthcare": "pharmacy", "name": "Serdaro\u011flu Eczanesi"}}, {"type": "node", "id": 3843571336, "lat": 38.4613904, "lon": 27.0891206, "tags": {"amenity": "pharmacy", "healthcare": "pharmacy", "name": "\u00dcnal Cerraho\u011flu Eczanesi", "wheelchair": "limited"}}, {"type": "node", "id": 3843571337, "lat": 38.4632673, "lon": 27.0893178, "tags": {"amenity": "pharmacy", "drive_through": "no", "healthcare": "pharmacy", "name": "Alt\u0131n\u0131rmak Eczanesi", "phone": "+90 232 337 3670"}}, {"type": "node", "id": 3843837209, "lat": 38.4695309, "lon": 27.087053, "tags": {"amenity": "pharmacy", "healthcare": "pharmacy", "name": "\u00d6zg\u00f6ren Eczanesi", "phone": "+902323308363"}}, {"type": "node", "id": 3843837210, "lat": 38.4691049, "lon": 27.0873939, "tags": {"amenity": "pharmacy", "healthcare": "pharmacy", "name": "Yeni Akhisar Eczanesi", "phone": "+902323362837"}}, {"type": "node", "id": 3843837211, "lat": 38.4689312, "lon": 27.0877698, "tags": {"amenity": "pharmacy", "healthcare": "pharmacy", "name": "Yeni Atakent Eczanesi"}}, {"type": "node", "id": 3843837212, "lat": 38.4701467, "lon": 27.0894113, "tags": {"amenity": "pharmacy", "healthcare": "pharmacy", "name": "Bengi Eczanesi", "phone": "+902323621815"}}, {"type": "node", "id": 3843837214, "lat": 38.4679658, "lon": 27.0881579, "tags": {"amenity": "pharmacy", "healthcare": "pharmacy", "name": "\u00dcsk\u00fcp Eczanesi", "phone": "+902323308959"}}, {"type": "node", "id": 3843837215, "lat": 38.4674247, "lon": 27.0886255, "tags": {"amenity": "pharmacy", "healthcare": "pharmacy", "name": "Mavi\u015fehir Sa\u011fl\u0131k Eczanesi", "phone": "+902323308992"}}, {"type": "node", "id": 3843837217, "lat": 38.4679117, "lon": 27.0914306, "tags": {"amenity": "pharmacy", "healthcare": "pharmacy", "name": "\u00c7a\u011flar Eczanesi", "phone": "+902323371452"}}, {"type": "node", "id": 3843837218, "lat": 38.4619445, "lon": 27.0884916, "tags": {"amenity": "pharmacy", "healthcare": "pharmacy", "name": "Eraslan Eczanesi", "phone": "+902323620068", "wheelchair": "limited"}}, {"type": "node", "id": 3843837219, "lat": 38.4587655, "lon": 27.0943878, "tags": {"addr:postcode": "35590", "amenity": "pharmacy", "healthcare": "pharmacy", "name": "K\u00f6pr\u00fc Eczanesi", "phone": "+90 232 336 6946"}}, {"type": "node", "id": 3843894889, "lat": 38.4571646, "lon": 27.0979526, "tags": {"addr:postcode": "35590", "amenity": "pharmacy", "healthcare": "pharmacy", "name": "Yosun Eczanesi", "phone": "+90 232 336 1511", "wheelchair": "limited"}}, {"type": "node", "id": 3843894902, "lat": 38.456924, "lon": 27.0995288, "tags": {"amenity": "pharmacy", "healthcare": "pharmacy", "name": "Ye\u015fim Eczanesi", "phone": "+902323309002", "wheelchair": "limited"}}, {"type": "node", "id": 3845117815, "lat": 38.5156848, "lon": 27.0654809, "tags": {"amenity": "pharmacy", "healthcare": "pharmacy", "name": "\u0130zkent Eczanesi", "phone": "+902323780203"}}, {"type": "node", "id": 3878881938, "lat": 38.5116871, "lon": 27.0466963, "tags": {"amenity": "pharmacy", "healthcare": "pharmacy", "name": "Beg\u00fcl Eczanesi", "phone": "+902323762395"}}, {"type": "node", "id": 3878881943, "lat": 38.511687, "lon": 27.0479696, "tags": {"amenity": "pharmacy", "healthcare": "pharmacy", "name": "Uygar Eczanesi"}}, {"type": "node", "id": 3954290682, "lat": 38.4666448, "lon": 27.1188818, "tags": {"addr:postcode": "35600", "amenity": "pharmacy", "healthcare": "pharmacy", "name": "Tanseli Eczanesi", "phone": "+90 232 372 7574"}}, {"type": "node", "id": 3996429376, "lat": 38.491838, "lon": 27.0822804, "tags": {"amenity": "pharmacy", "healthcare": "pharmacy", "name": "Yeni Bilge Eczanesi"}}, {"type": "node", "id": 3996429382, "lat": 38.4909326, "lon": 27.0843396, "tags": {"amenity": "pharmacy", "healthcare": "pharmacy", "name": "Enis Eczanesi"}}, {"type": "node", "id": 3996429390, "lat": 38.4930972, "lon": 27.0687888, "tags": {"amenity": "pharmacy", "healthcare": "pharmacy", "name": "Sezin Eczanesi"}}, {"type": "node", "id": 3996429425, "lat": 38.4926812, "lon": 27.0659695, "tags": {"amenity": "pharmacy", "healthcare": "pharmacy", "name": "Beril Deniz Eczanesi"}}, {"type": "node", "id": 4004007496, "lat": 38.4890745, "lon": 27.0727651, "tags": {"amenity": "pharmacy", "healthcare": "pharmacy", "name": "Maltepe Eczanesi"}}, {"type": "node", "id": 4020061845, "lat": 38.4537564, "lon": 27.1056349, "tags": {"amenity": "pharmacy", "healthcare": "pharmacy", "name": "Yeni Murat Eczanesi", "wheelchair": "limited"}}, {"type": "node", "id": 4061347016, "lat": 38.4722609, "lon": 27.0860572, "tags": {"amenity": "pharmacy", "healthcare": "pharmacy", "name": "Dikmen Eczanesi", "phone": "+902323303776"}}, {"type": "node", "id": 4061347017, "lat": 38.4721545, "lon": 27.086109, "tags": {"amenity": "pharmacy", "healthcare": "pharmacy", "name": "G\u00fcm\u00fc\u015f Eczanesi"}}, {"type": "node", "id": 4104500069, "lat": 38.4773214, "lon": 27.1100961, "tags": {"amenity": "pharmacy", "healthcare": "pharmacy", "name": "Akil Eczanesi"}}, {"type": "node", "id": 4104695521, "lat": 38.4772006, "lon": 27.1100794, "tags": {"amenity": "pharmacy", "healthcare": "pharmacy", "name": "Co\u015fkun Eczanesi"}}, {"type": "node", "id": 4104695526, "lat": 38.4770524, "lon": 27.109952, "tags": {"amenity": "pharmacy", "healthcare": "pharmacy", "name": "Cang\u00fcl Eczanesi"}}, {"type": "node", "id": 4104695527, "lat": 38.4769651, "lon": 27.1100758, "tags": {"amenity": "pharmacy", "healthcare": "pharmacy", "name": "Y\u0131lmaz Songu Eczanesi"}}, {"type": "node", "id": 4318272860, "lat": 38.5005207, "lon": 27.051115, "tags": {"amenity": "pharmacy", "healthcare": "pharmacy"}}, {"type": "node", "id": 4318272861, "lat": 38.5003452, "lon": 27.0512738, "tags": {"amenity": "pharmacy", "healthcare": "pharmacy", "name": "Aslan Eczanesi", "phone": "+90 232 329 0494"}}, {"type": "node", "id": 4318272862, "lat": 38.5000748, "lon": 27.0511524, "tags": {"amenity": "pharmacy", "healthcare": "pharmacy"}}, {"type": "node", "id": 4318272863, "lat": 38.4985836, "lon": 27.0478273, "tags": {"amenity": "pharmacy", "healthcare": "pharmacy"}}, {"type": "node", "id": 4485473693, "lat": 38.406917, "lon": 27.1279879, "tags": {"amenity": "pharmacy", "healthcare": "pharmacy", "name": "E\u015frefpa\u015fa Eczanesi", "phone": "+90 232 228 1837"}}, {"type": "node", "id": 4488561689, "lat": 38.4569929, "lon": 27.1199888, "tags": {"addr:housenumber": "48/A", "addr:postcode": "35600", "addr:street": "1710. Sokak", "amenity": "pharmacy", "email": "ecza.ksksevgi@yahoo.com", "healthcare": "pharmacy", "name": "Kar\u015f\u0131yaka Sevgi Eczanesi", "phone": "+902323814381"}}, {"type": "node", "id": 4522001392, "lat": 38.5043494, "lon": 27.0579234, "tags": {"addr:postcode": "35610", "amenity": "pharmacy", "healthcare": "pharmacy", "name": "Yenikent Eczanesi", "phone": "+90 232 376 3643"}}, {"type": "node", "id": 4571985035, "lat": 38.3964611, "lon": 27.1443809, "tags": {"addr:postcode": "35370", "amenity": "pharmacy", "healthcare": "pharmacy", "name": "\u015eakakl\u0131 Eczanesi", "phone": "+90 232 438 0433"}}, {"type": "node", "id": 4571990770, "lat": 38.3935392, "lon": 27.1428263, "tags": {"addr:housenumber": "108/A", "addr:postcode": "35370", "addr:street": "Mehmet Akif Caddesi", "amenity": "pharmacy", "healthcare": "pharmacy", "name": "\u015eirinyer Elif Eczanesi", "phone": "+90 232 426 0102"}}, {"type": "node", "id": 4571990771, "lat": 38.3933206, "lon": 27.1428692, "tags": {"addr:housenumber": "81", "addr:postcode": "35380", "addr:street": "Mehmet Akif Caddesi", "amenity": "pharmacy", "healthcare": "pharmacy", "name": "\u015eirinyer Yonca Eczanesi", "phone": "+90 232 439 0908"}}, {"type": "node", "id": 4571994051, "lat": 38.3930747, "lon": 27.146563, "tags": {"addr:postcode": "35380", "amenity": "pharmacy", "healthcare": "pharmacy", "name": "Kuz\u0131l\u00e7ullu Eczanesi", "phone": "+90 232 487 1372"}}, {"type": "node", "id": 4572033775, "lat": 38.4650107, "lon": 27.1223413, "tags": {"amenity": "pharmacy", "healthcare": "pharmacy", "name": "Lider Eczanesi"}}, {"type": "node", "id": 4572033776, "lat": 38.4656138, "lon": 27.1223845, "tags": {"amenity": "pharmacy", "healthcare": "pharmacy", "name": "Esma Eczanesi"}}, {"type": "node", "id": 4637133539, "lat": 38.470118, "lon": 27.0991412, "tags": {"amenity": "pharmacy", "healthcare": "pharmacy", "name": "Merto\u011flu Eczanesi"}}, {"type": "node", "id": 4637133540, "lat": 38.4702355, "lon": 27.0983496, "tags": {"amenity": "pharmacy", "healthcare": "pharmacy", "name": "Eczane Erkan"}}, {"type": "node", "id": 4637133541, "lat": 38.470223, "lon": 27.0985753, "tags": {"amenity": "pharmacy", "healthcare": "pharmacy", "name": "Demirk\u00f6pr\u00fc Eczanesi"}}, {"type": "node", "id": 4777863128, "lat": 38.4915738, "lon": 27.03954, "tags": {"amenity": "pharmacy", "drive_through": "no", "healthcare": "pharmacy", "name": "Organize Eczanesi", "opening_hours": "09:00-19:00"}}, {"type": "node", "id": 4816432521, "lat": 38.4748528, "lon": 27.0743757, "tags": {"amenity": "pharmacy", "healthcare": "pharmacy", "name": "Organik Mavibah\u00e7e Eczanesi", "phone": "+902323241656"}}, {"type": "node", "id": 5269559221, "lat": 38.4329914, "lon": 27.1470353, "tags": {"amenity": "pharmacy", "healthcare": "pharmacy"}}, {"type": "node", "id": 5287388975, "lat": 38.435616, "lon": 27.142722, "tags": {"addr:city": "\u0130zmir", "addr:district": "Konak", "addr:housenumber": "16", "addr:neighbourhood": "Alsancak", "addr:postcode": "35220", "addr:street": "K\u0131br\u0131s \u015eehitleri Caddesi", "amenity": "pharmacy", "healthcare": "pharmacy", "name": "\u00c7a\u011fda\u015f Eczanesi", "name:tr": "Eczane \u00c7a\u011fda\u015f", "phone": "+90 232 463 4040", "wheelchair": "yes"}}, {"type": "node", "id": 5287436081, "lat": 38.4364046, "lon": 27.1428677, "tags": {"addr:postcode": "35220", "amenity": "pharmacy", "healthcare": "pharmacy", "name": "\u00d6zlem Eczanesi", "phone": "+90 232 367 2597", "wheelchair": "yes"}}, {"type": "node", "id": 5287436119, "lat": 38.4396548, "lon": 27.143697, "tags": {"addr:postcode": "35220", "amenity": "pharmacy", "healthcare": "pharmacy", "name": "Efes Eczanesi", "phone": "+90 232 464 0454", "wheelchair": "no"}}, {"type": "node", "id": 5460442835, "lat": 38.3928342, "lon": 27.0995354, "tags": {"addr:postcode": "35140", "amenity": "pharmacy", "dispensing": "yes", "healthcare": "pharmacy", "name": "Aysu Eczanesi", "operator": "Aysu Eczanesi", "phone": "+90 232 246 9190"}}, {"type": "node", "id": 5460442836, "lat": 38.3927691, "lon": 27.0994467, "tags": {"addr:postcode": "35140", "amenity": "pharmacy", "dispensing": "yes", "healthcare": "pharmacy", "name": "Yeni Ayd\u0131ner Eczanesi", "operator": "Yeni Ayd\u0131ner Eczanesi", "phone": "+90 232 285 4200"}}, {"type": "node", "id": 5695489499, "lat": 38.4701255, "lon": 27.0988226, "tags": {"amenity": "pharmacy", "dispensing": "yes", "healthcare": "pharmacy", "name": "Yaz\u0131c\u0131o\u011flu Eczanesi"}}, {"type": "node", "id": 5702958928, "lat": 38.4576994, "lon": 27.1155721, "tags": {"addr:housenumber": "169", "amenity": "pharmacy", "healthcare": "pharmacy", "name": "Kar\u015f\u0131yaka \u00c7a\u011fda\u015f Eczanesi"}}, {"type": "node", "id": 5703008500, "lat": 38.4564192, "lon": 27.1179172, "tags": {"amenity": "pharmacy", "healthcare": "pharmacy", "name": "Ferah Eczanesi"}}, {"type": "node", "id": 5838182789, "lat": 38.4257732, "lon": 27.1390403, "tags": {"amenity": "pharmacy", "brand": "Watsons", "brand:wikidata": "Q7974785", "brand:wikipedia": "en:Watsons", "check_date": "2024-05-17", "healthcare": "pharmacy", "name": "Watsons", "shop": "chemist"}}, {"type": "node", "id": 6018441424, "lat": 38.4921425, "lon": 27.0614355, "tags": {"addr:postcode": "35620", "amenity": "pharmacy", "dispensing": "yes", "healthcare": "pharmacy", "name": "G\u00fclgeze Eczanesi", "phone": "+90 232 386 1515"}}, {"type": "node", "id": 6700078387, "lat": 38.3265751, "lon": 27.1377007, "tags": {"addr:postcode": "35410", "amenity": "pharmacy", "healthcare": "pharmacy", "name": "\u0130kizler Eczanesi", "phone": "+90 232 231 2039"}}, {"type": "node", "id": 7467328420, "lat": 38.4587708, "lon": 27.1101954, "tags": {"amenity": "pharmacy", "dispensing": "yes", "healthcare": "pharmacy", "name": "Esin Eczanesi"}}, {"type": "node", "id": 7814449317, "lat": 38.4901192, "lon": 27.2142175, "tags": {"addr:postcode": "35030", "amenity": "pharmacy", "healthcare": "pharmacy", "name": "Filiz Eczanesi", "phone": "+90 232 351 1020"}}, {"type": "node", "id": 7817115566, "lat": 38.4951825, "lon": 27.0874118, "tags": {"amenity": "pharmacy", "healthcare": "pharmacy", "name": "Ozan P\u0131nar Eczanesi"}}, {"type": "node", "id": 7968554599, "lat": 38.6167012, "lon": 27.403038, "tags": {"amenity": "pharmacy", "healthcare": "pharmacy", "name": "\u0130rier Eczanesi"}}, {"type": "node", "id": 8071950966, "lat": 38.368107, "lon": 27.1870274, "tags": {"amenity": "pharmacy", "dispensing": "yes", "healthcare": "pharmacy", "name": "Buca Koop. Eczanesi", "name:en": "Buca Koop. Pharmacy"}}, {"type": "node", "id": 8086301236, "lat": 38.4923381, "lon": 27.2145581, "tags": {"amenity": "pharmacy", "dispensing": "yes", "healthcare": "pharmacy", "name": "Evka-4 Eczanesi"}}, {"type": "node", "id": 8086301237, "lat": 38.4899259, "lon": 27.2137829, "tags": {"addr:housenumber": "29/A", "addr:postcode": "35030", "addr:street": "1027. Sokak", "amenity": "pharmacy", "dispensing": "yes", "healthcare": "pharmacy", "name": "Eda Eczanesi", "phone": "+90 232 351 6016"}}, {"type": "node", "id": 8181673583, "lat": 38.4496975, "lon": 27.2089963, "tags": {"amenity": "pharmacy", "dispensing": "yes", "healthcare": "pharmacy", "name": "Forum Eczanesi", "phone": "+90 232 512 4053"}}, {"type": "node", "id": 8283658139, "lat": 38.370216, "lon": 27.1931039, "tags": {"amenity": "pharmacy", "dispensing": "yes", "healthcare": "pharmacy", "name": "Eczane G\u00fcrkan"}}, {"type": "node", "id": 8394113351, "lat": 38.4712859, "lon": 27.2202797, "tags": {"addr:postcode": "35030", "amenity": "pharmacy", "dispensing": "yes", "healthcare": "pharmacy", "name": "Halil Eczanesi", "phone": "+90 232 373 6074"}}, {"type": "node", "id": 8394113352, "lat": 38.4714244, "lon": 27.2208194, "tags": {"addr:postcode": "35030", "amenity": "pharmacy", "dispensing": "yes", "healthcare": "pharmacy", "name": "M\u00fcrd\u00fcm Eczanesi", "phone": "+90 232 343 1452"}}, {"type": "node", "id": 8710402368, "lat": 38.3702265, "lon": 27.1777175, "tags": {"addr:postcode": "35390", "amenity": "pharmacy", "dispensing": "yes", "healthcare": "pharmacy", "name": "Buca Kardelen Eczanesi", "name:en": "Buca Kardelen Pharmacy", "phone": "+90 232 453 0400"}}, {"type": "node", "id": 9004223130, "lat": 38.4979482, "lon": 27.0883015, "tags": {"amenity": "pharmacy", "healthcare": "pharmacy", "name": "\u00dcmran G\u00f6ksal Eczanesi"}}, {"type": "node", "id": 9004231554, "lat": 38.4982112, "lon": 27.088247, "tags": {"amenity": "pharmacy", "healthcare": "pharmacy", "name": "Nilay Eczanesi"}}, {"type": "node", "id": 9768033839, "lat": 38.4625544, "lon": 27.2140321, "tags": {"addr:postcode": "35100", "amenity": "pharmacy", "healthcare": "pharmacy", "name": "Vitamin Eczanesi", "phone": "+90 232 342 3333"}}, {"type": "node", "id": 9804874999, "lat": 38.4120243, "lon": 27.1220625, "tags": {"amenity": "pharmacy", "check_date": "2024-05-08", "healthcare": "pharmacy", "name": "Zuhal Eczanesi", "phone": "+90 232 425 4024"}}, {"type": "node", "id": 9804905563, "lat": 38.4114649, "lon": 27.1220343, "tags": {"amenity": "pharmacy", "check_date": "2024-05-08", "healthcare": "pharmacy", "name": "Nilge Eczanesi", "phone": "+90 232 484 6272"}}, {"type": "node", "id": 9804930882, "lat": 38.4108997, "lon": 27.1215997, "tags": {"amenity": "pharmacy", "check_date": "2024-05-04", "healthcare": "pharmacy", "name": "Yeni Karata\u015f Eczanesi", "phone": "+90 232 484 2784"}}, {"type": "node", "id": 9827440818, "lat": 38.3987149, "lon": 27.0949866, "tags": {"addr:postcode": "35290", "amenity": "pharmacy", "healthcare": "pharmacy", "name": "Ege Elit Eczanesi", "phone": "+90 232 232 3237"}}, {"type": "node", "id": 9837743482, "lat": 38.3982202, "lon": 27.0981246, "tags": {"addr:postcode": "35150", "amenity": "pharmacy", "check_date": "2023-05-15", "healthcare": "pharmacy", "name": "Ege \u0130nci Eczanesi", "phone": "+90 232 244 8611"}}, {"type": "node", "id": 9843929817, "lat": 38.3998453, "lon": 27.1090878, "tags": {"addr:postcode": "35150", "amenity": "pharmacy", "healthcare": "pharmacy", "name": "Nefes Eczanesi", "phone": "+90 232 245 5511"}}, {"type": "node", "id": 9843963818, "lat": 38.4000728, "lon": 27.1024082, "tags": {"addr:postcode": "35150", "amenity": "pharmacy", "healthcare": "pharmacy", "name": "Renkli Eczanesi", "phone": "+90 232 232 7088"}}, {"type": "node", "id": 9981849802, "lat": 38.4234964, "lon": 27.1322983, "tags": {"addr:postcode": "35210", "amenity": "pharmacy", "healthcare": "pharmacy", "name": "Yeni G\u00fclemre Eczanesi", "phone": "+90 232 425 6006"}}, {"type": "node", "id": 10278342093, "lat": 38.3946789, "lon": 27.0910945, "tags": {"addr:postcode": "35140", "amenity": "pharmacy", "check_date": "2022-12-21", "healthcare": "pharmacy", "name": "Defne Eczanesi", "phone": "+90 232 285 0230"}}, {"type": "node", "id": 10278346169, "lat": 38.3948549, "lon": 27.0916245, "tags": {"addr:postcode": "35140", "amenity": "pharmacy", "check_date": "2022-12-21", "healthcare": "pharmacy", "name": "Eyl\u00fcl Eczanesi", "phone": "+90 232 246 0769"}}, {"type": "node", "id": 10594225112, "lat": 38.3928036, "lon": 27.0874102, "tags": {"addr:postcode": "35140", "amenity": "pharmacy", "check_date": "2023-01-30", "healthcare": "pharmacy", "name": "Poligon Eczanesi", "phone": "+90 232 285 9874"}}, {"type": "node", "id": 10654953403, "lat": 38.3996098, "lon": 27.097618, "tags": {"addr:postcode": "35150", "amenity": "pharmacy", "check_date": "2023-02-13", "healthcare": "pharmacy", "name": "\u00c7avdar Eczanesi", "phone": "+90 232 245 0060"}}, {"type": "node", "id": 10833735726, "lat": 38.4600636, "lon": 27.1142865, "tags": {"amenity": "pharmacy", "healthcare": "pharmacy", "name": "Elit Eczanesi"}}, {"type": "node", "id": 10833735731, "lat": 38.462773, "lon": 27.1105322, "tags": {"addr:postcode": "35580", "amenity": "pharmacy", "healthcare": "pharmacy", "name": "Gizem Eczanesi", "phone": "+90 232 367 6797"}}, {"type": "node", "id": 10860148729, "lat": 38.4264187, "lon": 27.1382327, "tags": {"amenity": "pharmacy", "healthcare": "pharmacy"}}, {"type": "node", "id": 10899387961, "lat": 38.3982693, "lon": 27.0981459, "tags": {"addr:postcode": "35150", "amenity": "pharmacy", "check_date": "2023-05-15", "healthcare": "pharmacy", "name": "Yeni Manzara Eczanesi", "phone": "+90 232 244 5538"}}, {"type": "node", "id": 10899526789, "lat": 38.4011345, "lon": 27.0993925, "tags": {"addr:postcode": "35150", "amenity": "pharmacy", "check_date": "2023-05-15", "healthcare": "pharmacy", "name": "Erken Eczanesi", "phone": "+90 232 231 1161"}}, {"type": "node", "id": 10899526793, "lat": 38.400941, "lon": 27.0990376, "tags": {"addr:postcode": "35150", "amenity": "pharmacy", "check_date": "2023-05-15", "healthcare": "pharmacy", "name": "Yeni Ece Eczanesi", "phone": "+90 232 232 2425"}}, {"type": "node", "id": 10907498060, "lat": 38.4049784, "lon": 27.0989385, "tags": {"amenity": "pharmacy", "check_date": "2024-06-06", "disused:healthcare": "pharmacy", "name": "Nur Eczanesi"}}, {"type": "node", "id": 11001546565, "lat": 38.4016309, "lon": 27.1052692, "tags": {"addr:postcode": "35280", "amenity": "pharmacy", "check_date": "2024-06-04", "healthcare": "pharmacy", "name": "Berk \u00d6ktem Eczanesi", "phone": "+90 232 243 2277"}}, {"type": "node", "id": 11007328445, "lat": 38.3667908, "lon": 27.1687331, "tags": {"addr:postcode": "35390", "amenity": "pharmacy", "name": "Serta\u00e7 Eczanesi", "phone": "+90 232 453 2867"}}, {"type": "node", "id": 11069610790, "lat": 38.4564435, "lon": 27.09786, "tags": {"addr:postcode": "35590", "amenity": "pharmacy", "name": "Bostanl\u0131 Ayfer Eczanesi", "phone": "+90 232 336 8494"}}, {"type": "node", "id": 11069633747, "lat": 38.4604409, "lon": 27.1023181, "tags": {"amenity": "pharmacy", "healthcare": "pharmacy", "name": "Rota Eczanesi"}}, {"type": "node", "id": 11069659303, "lat": 38.4585527, "lon": 27.0992088, "tags": {"addr:postcode": "35590", "amenity": "pharmacy", "healthcare": "pharmacy", "name": "Hande Eczanesi", "phone": "+90 232 362 2646"}}, {"type": "node", "id": 11083525469, "lat": 38.3818304, "lon": 27.1744332, "tags": {"addr:postcode": "35390", "amenity": "pharmacy", "name": "Buca Erdem Eczanesi", "phone": "+90 232 442 1400"}}, {"type": "node", "id": 11123939761, "lat": 38.4030458, "lon": 27.1075308, "tags": {"amenity": "pharmacy", "healthcare": "pharmacy", "name": "Nadide Eczanesi", "phone": "+90 232 232 3630"}}, {"type": "node", "id": 11141613857, "lat": 38.4615439, "lon": 27.2039854, "tags": {"addr:postcode": "35100", "amenity": "pharmacy", "name": "Bet\u00fcl Eczanesi", "phone": "+90 232 388 7677"}}, {"type": "node", "id": 11174528921, "lat": 38.3984955, "lon": 27.1053556, "tags": {"amenity": "pharmacy", "healthcare": "pharmacy", "name": "Caner Eczanesi"}}, {"type": "node", "id": 11174551638, "lat": 38.3982232, "lon": 27.1059966, "tags": {"amenity": "pharmacy", "healthcare": "pharmacy", "name": "\u00d6zg\u00fcvenli Eczanesi"}}, {"type": "node", "id": 11174551646, "lat": 38.385165, "lon": 27.1241257, "tags": {"addr:postcode": "35110", "amenity": "pharmacy", "healthcare": "pharmacy", "name": "R\u00fcya Eczanesi", "phone": "+90 232 237 3756"}}, {"type": "node", "id": 11174551678, "lat": 38.3982211, "lon": 27.1058705, "tags": {"amenity": "pharmacy", "healthcare": "pharmacy", "name": "\u00d6zburcu Eczanesi"}}, {"type": "node", "id": 11189745538, "lat": 38.3706235, "lon": 27.1720479, "tags": {"amenity": "pharmacy", "name": "Ard\u0131\u00e7 Eczanesi", "phone": "+90 232 608 2143"}}, {"type": "node", "id": 11189745539, "lat": 38.3682767, "lon": 27.1733276, "tags": {"amenity": "pharmacy", "name": "\u00c7a\u011f\u0131nda Eczanesi", "phone": "+90 232 347 4682"}}, {"type": "node", "id": 11189748337, "lat": 38.3680374, "lon": 27.1731107, "tags": {"amenity": "pharmacy", "name": "Pamir Eczanesi", "phone": "+90 232 453 0973"}}, {"type": "node", "id": 11189748338, "lat": 38.3791237, "lon": 27.1781446, "tags": {"amenity": "pharmacy", "name": "Okyanus Eczanesi", "phone": "+90 232 420 1615"}}, {"type": "node", "id": 11189748437, "lat": 38.3721802, "lon": 27.1783747, "tags": {"amenity": "pharmacy", "name": "Buca Y\u0131ld\u0131z Eczanesi", "phone": "+90 232 453 5025"}}, {"type": "node", "id": 11189748438, "lat": 38.3757413, "lon": 27.175489, "tags": {"amenity": "pharmacy", "name": "Bodas", "name:tr": "Boras Eczanesi", "phone": "+90 232 454 2303"}}, {"type": "node", "id": 11189748439, "lat": 38.3761905, "lon": 27.1792207, "tags": {"amenity": "pharmacy", "name": "A\u00e7elya Eczanesi", "phone": "+90 232 453 7384"}}, {"type": "node", "id": 11189748537, "lat": 38.3765295, "lon": 27.1779966, "tags": {"amenity": "pharmacy", "name": "\u00c7aya\u011fac\u0131 Eczanesi", "phone": "+90 232 453 4357"}}, {"type": "node", "id": 11244212037, "lat": 38.387877, "lon": 27.1731487, "tags": {"addr:postcode": "35380", "amenity": "pharmacy", "healthcare": "pharmacy", "name": "Buca Eczanesi", "phone": "+90 232 420 0572"}}, {"type": "node", "id": 11294836748, "lat": 38.4978149, "lon": 27.0884991, "tags": {"amenity": "pharmacy", "healthcare": "pharmacy", "name": "Ak\u0131n T\u00fcfek Eczanesi"}}, {"type": "node", "id": 11381087669, "lat": 38.38504, "lon": 27.1178345, "tags": {"amenity": "pharmacy", "healthcare": "pharmacy", "name": "Sevgi Eczanesi", "phone": "+90 232 226 6622"}}, {"type": "node", "id": 11381090069, "lat": 38.3892618, "lon": 27.1186342, "tags": {"amenity": "pharmacy", "healthcare": "pharmacy", "name": "Yeni Sevil Eczanesi", "phone": "+90 232 250 9565"}}, {"type": "node", "id": 11381090070, "lat": 38.3830749, "lon": 27.1133876, "tags": {"amenity": "pharmacy", "name": "G\u00fcnaltay Eczanesi", "phone": "+90 232 265 2299"}}, {"type": "node", "id": 11381095169, "lat": 38.3826222, "lon": 27.1131188, "tags": {"amenity": "pharmacy", "name": "Merve Eczanesi", "phone": "+90 232 226 5222"}}, {"type": "node", "id": 11381104869, "lat": 38.3828962, "lon": 27.1124764, "tags": {"amenity": "pharmacy", "name": "\u00d6zirem Eczanesi", "phone": "+90 232 226 2699"}}, {"type": "node", "id": 11383136469, "lat": 38.3861992, "lon": 27.1451576, "tags": {"amenity": "pharmacy", "healthcare": "pharmacy", "name": "Ada Eczanesi", "phone": "+90 232 452 0054"}}, {"type": "node", "id": 11383136470, "lat": 38.3842891, "lon": 27.1465866, "tags": {"addr:housenumber": "140/C", "addr:street": "Akdo\u011fan Caddesi", "amenity": "pharmacy", "name": "Kad\u0131k\u00f6y Eczanesi", "phone": "+90 232 426 7072"}}, {"type": "node", "id": 11383136471, "lat": 38.3958743, "lon": 27.1484342, "tags": {"addr:housenumber": "307/A", "addr:street": "Menderes Caddesi", "amenity": "pharmacy", "healthcare": "pharmacy", "name": "Eti Eczanesi", "phone": "+90 232 487 0707"}}, {"type": "node", "id": 11383136569, "lat": 38.3864635, "lon": 27.1427873, "tags": {"amenity": "pharmacy", "healthcare": "pharmacy", "name": "Ko\u015fuyolu Eczanesi", "phone": "+90 232 452 3947"}}, {"type": "node", "id": 11383136570, "lat": 38.3843635, "lon": 27.1464162, "tags": {"addr:housenumber": "136/B", "addr:street": "Akdo\u011fan Caddesi", "amenity": "pharmacy", "name": "Elif K\u00fcbra Eczanesi", "phone": "+90 232 452 1111"}}, {"type": "node", "id": 11383136571, "lat": 38.3860131, "lon": 27.1365086, "tags": {"amenity": "pharmacy", "healthcare": "pharmacy", "name": "Sanayi Eczanesi", "phone": "+90 232 210 4242"}}, {"type": "node", "id": 11383136572, "lat": 38.3919342, "lon": 27.1475498, "tags": {"amenity": "pharmacy", "healthcare": "pharmacy", "name": "Kaya Eczanesi", "phone": "+90 501 367 1335"}}, {"type": "node", "id": 11383136573, "lat": 38.3927416, "lon": 27.1493386, "tags": {"amenity": "pharmacy", "healthcare": "pharmacy", "name": "\u00dcmran Civan Eczanesi", "phone": "+90 232 452 6938"}}, {"type": "node", "id": 11383136574, "lat": 38.3939646, "lon": 27.1486492, "tags": {"amenity": "pharmacy", "healthcare": "pharmacy", "name": "Atabey Eczanesi", "phone": "+90 232 487 2823"}}, {"type": "node", "id": 11383136575, "lat": 38.3949104, "lon": 27.1478445, "tags": {"amenity": "pharmacy", "healthcare": "pharmacy", "name": "S\u00fcrmeli Eczanesi", "phone": "+90 232 452 2283"}}, {"type": "node", "id": 11383136576, "lat": 38.4000958, "lon": 27.1487712, "tags": {"amenity": "pharmacy", "healthcare": "pharmacy", "name": "H\u00fcrriyet Eczanesi", "phone": "+90 232 438 3822"}}, {"type": "node", "id": 11383136577, "lat": 38.3997023, "lon": 27.154176, "tags": {"amenity": "pharmacy", "healthcare": "pharmacy", "name": "Ber\u00e7in Eczanesi", "phone": "+90 232 448 9996"}}, {"type": "node", "id": 11383136578, "lat": 38.3998639, "lon": 27.1544706, "tags": {"amenity": "pharmacy", "healthcare": "pharmacy", "name": "Cevahir Eczanesi", "phone": "+90 232 438 8318"}}, {"type": "node", "id": 11383136579, "lat": 38.3997309, "lon": 27.1547859, "tags": {"amenity": "pharmacy", "healthcare": "pharmacy", "name": "Ege Aras Eczanesi", "phone": "+90 232 487 8748"}}, {"type": "node", "id": 11383136580, "lat": 38.3970707, "lon": 27.1556914, "tags": {"amenity": "pharmacy", "healthcare": "pharmacy", "name": "Ar\u0131kan Eczanesi", "phone": "+90 232 487 0055"}}, {"type": "node", "id": 11383136769, "lat": 38.3949372, "lon": 27.1476339, "tags": {"amenity": "pharmacy", "healthcare": "pharmacy", "name": "Buca Irmak Eczanesi", "phone": "+90 232 438 1437"}}, {"type": "node", "id": 11383136770, "lat": 38.4002861, "lon": 27.1497247, "tags": {"amenity": "pharmacy", "healthcare": "pharmacy", "name": "\u0130brim Eczanesi", "phone": "+90 232 487 1016"}}, {"type": "node", "id": 11391626072, "lat": 38.3111167, "lon": 27.1348719, "tags": {"amenity": "pharmacy", "name": "Dolunay Eczanesi", "phone": "+90 232 274 7500"}}, {"type": "node", "id": 11391626073, "lat": 38.3178792, "lon": 27.1331917, "tags": {"amenity": "pharmacy", "name": "Yi\u011fit Eczanesi", "phone": "+90 232 252 3008"}}, {"type": "node", "id": 11391626074, "lat": 38.3216928, "lon": 27.1364161, "tags": {"amenity": "pharmacy", "name": "Ya\u015fdal Eczanesi", "phone": "+90 232 251 3505"}}, {"type": "node", "id": 11391626075, "lat": 38.3228978, "lon": 27.1362368, "tags": {"amenity": "pharmacy", "healthcare": "pharmacy", "name": "Anda\u00e7 Eczanesi", "phone": "+90 232 251 8651"}}, {"type": "node", "id": 11391626076, "lat": 38.3252161, "lon": 27.1357127, "tags": {"amenity": "pharmacy", "healthcare": "pharmacy", "name": "\u00d6zg\u00fcne\u015f Eczanesi", "phone": "+90 232 251 0990"}}, {"type": "node", "id": 11391626077, "lat": 38.3270926, "lon": 27.1390116, "tags": {"amenity": "pharmacy", "healthcare": "pharmacy", "name": "Simge Eczanesi", "phone": "+90 232 251 5478"}}, {"type": "node", "id": 11391626078, "lat": 38.3221869, "lon": 27.128558, "tags": {"amenity": "pharmacy", "name": "\u00dclker Eczanesi", "phone": "+90 232 251 7270"}}, {"type": "node", "id": 11391626079, "lat": 38.320732, "lon": 27.1269469, "tags": {"amenity": "pharmacy", "healthcare": "pharmacy", "name": "Serdar Mu\u00e7ay Eczanesi", "phone": "+90 232 252 3434"}}, {"type": "node", "id": 11391635370, "lat": 38.3129488, "lon": 27.1395134, "tags": {"amenity": "pharmacy", "name": "Yeniege Eczanesi", "phone": "+90 232 274 4536"}}, {"type": "node", "id": 11391635371, "lat": 38.3127749, "lon": 27.1328747, "tags": {"amenity": "pharmacy", "name": "Ayd\u0131nl\u0131 Eczanesi", "phone": "+90 232 290 0079"}}, {"type": "node", "id": 11391635372, "lat": 38.3129648, "lon": 27.1325913, "tags": {"amenity": "pharmacy", "name": "Merve \u00dcnl\u00fc Eczanesi", "phone": "+90 232 274 2356"}}, {"type": "node", "id": 11391635373, "lat": 38.3167463, "lon": 27.130827, "tags": {"amenity": "pharmacy", "name": "\u015eent\u00fcrk Eczanesi", "phone": "+90 232 252 2756"}}, {"type": "node", "id": 11391635374, "lat": 38.3174408, "lon": 27.1331355, "tags": {"amenity": "pharmacy", "name": "Yeni \u00c7etiner Eczanesi", "phone": "+90 232 252 0910"}}, {"type": "node", "id": 11391635375, "lat": 38.317712, "lon": 27.1330291, "tags": {"amenity": "pharmacy", "name": "At\u0131fbey Eczanesi", "phone": "+90 232 260 5151"}}, {"type": "node", "id": 11391635376, "lat": 38.3257777, "lon": 27.1383249, "tags": {"amenity": "pharmacy", "healthcare": "pharmacy", "name": "Ge\u00e7it Eczanesi", "phone": "+90 232 251 0085"}}, {"type": "node", "id": 11391635377, "lat": 38.3249374, "lon": 27.1385997, "tags": {"amenity": "pharmacy", "healthcare": "pharmacy", "name": "Me\u015feka\u015fkan Eczanesi", "phone": "+90 232 999 8500"}}, {"type": "node", "id": 11391635378, "lat": 38.3248281, "lon": 27.1383915, "tags": {"amenity": "pharmacy", "healthcare": "pharmacy", "name": "Mustafa Fidan Eczanesi", "phone": "+90 232 252 0064"}}, {"type": "node", "id": 11391635379, "lat": 38.3256147, "lon": 27.1322916, "tags": {"amenity": "pharmacy", "healthcare": "pharmacy", "name": "Ak\u0131n Eczanesi", "phone": "+90 232 251 0064"}}, {"type": "node", "id": 11391635380, "lat": 38.3267684, "lon": 27.131655, "tags": {"amenity": "pharmacy", "healthcare": "pharmacy", "name": "Ata Eczanesi", "phone": "+90 232 251 5187"}}, {"type": "node", "id": 11391635381, "lat": 38.3294299, "lon": 27.1295147, "tags": {"amenity": "pharmacy", "healthcare": "pharmacy", "name": "Dora Eczanesi", "phone": "+90 232 252 1320"}}, {"type": "node", "id": 11391635382, "lat": 38.3274249, "lon": 27.1282342, "tags": {"amenity": "pharmacy", "name": "Yeni Bilge Eczanesi", "phone": "+90 232 252 4228"}}, {"type": "node", "id": 11391635383, "lat": 38.3223107, "lon": 27.1281042, "tags": {"amenity": "pharmacy", "name": "Aren Eczanesi", "phone": "+90 232 252 2637"}}, {"type": "node", "id": 11391635384, "lat": 38.321656, "lon": 27.1274254, "tags": {"amenity": "pharmacy", "healthcare": "pharmacy", "name": "Murathan Eczanesi", "phone": "+90 232 251 0026"}}, {"type": "node", "id": 11391635385, "lat": 38.3209443, "lon": 27.1296789, "tags": {"amenity": "pharmacy", "name": "Can Eczanesi", "phone": "+90 232 220 2202"}}, {"type": "node", "id": 11391635569, "lat": 38.3238916, "lon": 27.1355725, "tags": {"amenity": "pharmacy", "healthcare": "pharmacy", "name": "Ferah Eczanesi", "phone": "+90 232 252 4519"}}, {"type": "node", "id": 11391635570, "lat": 38.3224088, "lon": 27.1295124, "tags": {"amenity": "pharmacy", "healthcare": "pharmacy", "name": "Gazi Eczanesi", "phone": "+90 232 251 7088"}}, {"type": "node", "id": 11391635571, "lat": 38.320811, "lon": 27.1260984, "tags": {"amenity": "pharmacy", "healthcare": "pharmacy", "name": "\u00d6d\u00fcl Eczanesi", "phone": "+90 232 251 0185"}}, {"type": "node", "id": 11391635572, "lat": 38.3374814, "lon": 27.1342198, "tags": {"amenity": "pharmacy", "name": "Ba\u015fak Uluslu Eczanesi", "phone": "+90 232 273 8292"}}, {"type": "node", "id": 11391635769, "lat": 38.3260882, "lon": 27.1324984, "tags": {"amenity": "pharmacy", "healthcare": "pharmacy", "name": "Tu\u011fba Eczanesi", "phone": "+90 232 252 5264"}}, {"type": "node", "id": 11391635869, "lat": 38.3292688, "lon": 27.1298456, "tags": {"amenity": "pharmacy", "healthcare": "pharmacy", "name": "Kayahan Eczanesi", "phone": "+90 232 251 4426"}}, {"type": "node", "id": 11391635870, "lat": 38.3226346, "lon": 27.1290086, "tags": {"amenity": "pharmacy", "healthcare": "pharmacy", "name": "Yegmen Eczanesi", "phone": "+90 232 251 2277"}}, {"type": "node", "id": 11391635871, "lat": 38.320979, "lon": 27.1254386, "tags": {"amenity": "pharmacy", "healthcare": "pharmacy", "name": "G\u00fczel \u00c7i\u011fdem Eczanesi", "phone": "+90 232 252 6276"}}, {"type": "node", "id": 11391635872, "lat": 38.3213146, "lon": 27.1251703, "tags": {"amenity": "pharmacy", "healthcare": "pharmacy", "name": "Damla Eczanesi", "phone": "+90 232 252 0650"}}, {"type": "node", "id": 11396681874, "lat": 38.4272844, "lon": 27.4282978, "tags": {"amenity": "pharmacy", "name": "\u0130rem Eczanesi", "phone": "+90 232 878 4070"}}, {"type": "node", "id": 11396702574, "lat": 38.4221148, "lon": 27.4318495, "tags": {"amenity": "pharmacy", "name": "\u00d6zen Eczanesi", "phone": "+90 232 878 1001"}}, {"type": "node", "id": 11397371670, "lat": 38.4250515, "lon": 27.4231177, "tags": {"amenity": "pharmacy", "healthcare": "pharmacy", "name": "Yasin Eczanesi", "phone": "+90 232 599 0078"}}, {"type": "node", "id": 11397371671, "lat": 38.4277119, "lon": 27.4166152, "tags": {"amenity": "pharmacy", "healthcare": "pharmacy", "name": "Damla Eczanesi", "phone": "+90 232 878 1473"}}, {"type": "node", "id": 11397371672, "lat": 38.4278169, "lon": 27.4164255, "tags": {"amenity": "pharmacy", "healthcare": "pharmacy", "name": "Kemalpa\u015fa Eczanesi", "phone": "+90 232 878 1060"}}, {"type": "node", "id": 11397374969, "lat": 38.4247051, "lon": 27.4276672, "tags": {"amenity": "pharmacy", "healthcare": "pharmacy", "name": "Kemalpa\u015fa Tuna Eczanesi", "phone": "+90 232 878 2788"}}, {"type": "node", "id": 11397380969, "lat": 38.4269553, "lon": 27.4182998, "tags": {"amenity": "pharmacy", "name": "Yeni Merkez Eczanesi", "phone": "+90 232 878 1890"}}, {"type": "node", "id": 11397414569, "lat": 38.431061, "lon": 27.4176731, "tags": {"amenity": "pharmacy", "name": "Yeni Mercan Eczanesi", "phone": "+90 232 878 5606"}}, {"type": "node", "id": 11397414669, "lat": 38.4312881, "lon": 27.4177381, "tags": {"amenity": "pharmacy", "name": "Kartal Eczanesi", "phone": "+90 232 878 8090"}}, {"type": "node", "id": 11397414670, "lat": 38.4314415, "lon": 27.4178151, "tags": {"amenity": "pharmacy", "name": "\u00c7imen Eczanesi", "phone": "+90 232 878 3274"}}, {"type": "node", "id": 11397414671, "lat": 38.429725, "lon": 27.4136355, "tags": {"amenity": "pharmacy", "healthcare": "pharmacy", "name": "Tezer Eczanesi", "phone": "+90 232 878 7848"}}, {"type": "node", "id": 11397414769, "lat": 38.4288155, "lon": 27.4119948, "tags": {"amenity": "pharmacy", "healthcare": "pharmacy", "name": "G\u00f6kdeniz Eczanesi", "phone": "+90 232 878 4454"}}, {"type": "node", "id": 11397414770, "lat": 38.4299786, "lon": 27.4120819, "tags": {"amenity": "pharmacy", "healthcare": "pharmacy", "name": "Nif Eczanesi", "phone": "+90 232 878 4366"}}, {"type": "node", "id": 11397414869, "lat": 38.4300903, "lon": 27.4121694, "tags": {"amenity": "pharmacy", "healthcare": "pharmacy", "name": "Can Eczanesi", "phone": "+90 232 878 8912"}}, {"type": "node", "id": 11397427669, "lat": 38.4341546, "lon": 27.4089175, "tags": {"amenity": "pharmacy", "name": "Nar Eczanesi", "phone": "+90 232 999 5504"}}, {"type": "node", "id": 11400899870, "lat": 38.4766744, "lon": 27.3557678, "tags": {"addr:housenumber": "11/A", "addr:street": "Ulucak \u0130zmir Caddesi", "amenity": "pharmacy", "name": "Yeni Nil\u00fcfer Eczanesi", "phone": "+90 232 873 4029"}}, {"type": "node", "id": 11400899871, "lat": 38.4774546, "lon": 27.3558092, "tags": {"addr:housenumber": "16/A", "addr:street": "Ulucak \u0130zmir Caddesi", "amenity": "pharmacy", "name": "Z\u00fchal Ercan Eczanesi"}}, {"type": "node", "id": 11400908870, "lat": 38.4791633, "lon": 27.3567759, "tags": {"amenity": "pharmacy", "name": "\u015eeng\u00f6n\u00fcl Eczanesi", "phone": "+90 232 873 4644"}}, {"type": "node", "id": 11400908871, "lat": 38.4794032, "lon": 27.3572523, "tags": {"amenity": "pharmacy", "name": "Ulucak Eczanesi", "phone": "+90 232 873 4414"}}, {"type": "node", "id": 11402652270, "lat": 38.4456963, "lon": 27.2511838, "tags": {"amenity": "pharmacy", "name": "Erman Eczanesi", "phone": "+90 232 479 7007"}}, {"type": "node", "id": 11402652271, "lat": 38.4543628, "lon": 27.2689171, "tags": {"amenity": "pharmacy", "name": "G\u00fcvener Eczanesi", "phone": "+90 232 478 4838"}}, {"type": "node", "id": 11402652272, "lat": 38.4637528, "lon": 27.2431668, "tags": {"amenity": "pharmacy", "name": "Yeni Bayraktar Eczanesi", "phone": "+90 232 375 0309"}}, {"type": "node", "id": 11402672469, "lat": 38.4299236, "lon": 27.2698714, "tags": {"amenity": "pharmacy", "name": "P\u0131narba\u015f\u0131 Eczanesi", "phone": "+90 232 479 1702"}}, {"type": "node", "id": 11402672470, "lat": 38.429003, "lon": 27.2744213, "tags": {"amenity": "pharmacy", "name": "Sima Eczanesi", "phone": "+90 232 479 5435"}}, {"type": "node", "id": 11402672569, "lat": 38.4279443, "lon": 27.2660854, "tags": {"amenity": "pharmacy", "name": "Y\u0131lmaz Eczanesi", "phone": "+90 232 479 0022"}}, {"type": "node", "id": 11402672570, "lat": 38.4298846, "lon": 27.2741758, "tags": {"amenity": "pharmacy", "name": "Pa\u00e7ac\u0131 Eczanesi", "phone": "+90 232 479 0174"}}, {"type": "node", "id": 11402672571, "lat": 38.4416571, "lon": 27.2578243, "tags": {"amenity": "pharmacy", "name": "Hakan Y\u0131lmaz Eczanesi", "phone": "+90 232 478 6463"}}, {"type": "node", "id": 11402672572, "lat": 38.4593561, "lon": 27.2511321, "tags": {"amenity": "pharmacy", "healthcare": "pharmacy", "name": "Alt\u0131nba\u015f Eczanesi", "phone": "+90 232 375 5288"}}, {"type": "node", "id": 11402672669, "lat": 38.4280654, "lon": 27.2659797, "tags": {"amenity": "pharmacy", "name": "Toprak Eczanesi", "phone": "+90 232 479 0609"}}, {"type": "node", "id": 11402672670, "lat": 38.473547, "lon": 27.2544552, "tags": {"amenity": "pharmacy", "healthcare": "pharmacy", "name": "Ey\u00fcpo\u011flu Eczanesi", "phone": "+90 232 375 9317"}}, {"type": "node", "id": 11402672769, "lat": 38.4298625, "lon": 27.2737635, "tags": {"amenity": "pharmacy", "name": "Karadeniz Eczanesi", "phone": "+90 232 478 6606"}}, {"type": "node", "id": 11402672770, "lat": 38.4718627, "lon": 27.2503284, "tags": {"amenity": "pharmacy", "name": "Alt\u0131nayar Eczanesi", "phone": "+90 232 375 8939"}}, {"type": "node", "id": 11402672869, "lat": 38.4409436, "lon": 27.2564272, "tags": {"amenity": "pharmacy", "name": "Ayb\u00fcke Eczanesi", "phone": "+90 232 479 8891"}}, {"type": "node", "id": 11402672870, "lat": 38.4544882, "lon": 27.2679026, "tags": {"amenity": "pharmacy", "name": "Elig\u00fcr Eczanesi", "phone": "+90 232 478 4508"}}, {"type": "node", "id": 11402672872, "lat": 38.464372, "lon": 27.2466104, "tags": {"amenity": "pharmacy", "name": "\u00c7ay\u0131r Eczanesi", "phone": "+90 232 375 1043"}}, {"type": "node", "id": 11402787470, "lat": 38.45375, "lon": 27.2528805, "tags": {"amenity": "pharmacy", "name": "\u00d6kkan Eczanesi", "phone": "+90 232 479 7511"}}, {"type": "node", "id": 11402787471, "lat": 38.4594705, "lon": 27.2511059, "tags": {"amenity": "pharmacy", "healthcare": "pharmacy", "name": "Demirkan Eczanesi", "phone": "+90 232 375 5247"}}, {"type": "node", "id": 11402799769, "lat": 38.4517175, "lon": 27.2482784, "tags": {"amenity": "pharmacy", "name": "Funda Eczanesi", "phone": "+90 232 342 9402"}}, {"type": "node", "id": 11402799869, "lat": 38.4528512, "lon": 27.2502857, "tags": {"amenity": "pharmacy", "name": "Do\u011fanlar Eczanesi", "phone": "+90 232 478 1403"}}, {"type": "node", "id": 11402799969, "lat": 38.4538667, "lon": 27.2530051, "tags": {"amenity": "pharmacy", "name": "Berrak Eczanesi", "phone": "+90 546 420 0135"}}, {"type": "node", "id": 11402800069, "lat": 38.4502679, "lon": 27.2382646, "tags": {"amenity": "pharmacy", "healthcare": "pharmacy", "name": "Bornova Ak\u015fahin Eczanesi", "phone": "+90 232 373 0690"}}, {"type": "node", "id": 11402970969, "lat": 38.4491471, "lon": 27.2345002, "tags": {"amenity": "pharmacy", "name": "Mevl\u00e2na Eczanesi", "name:tr": "Mevlana Eczanesi", "phone": "+90 232 339 9100"}}, {"type": "node", "id": 11402970970, "lat": 38.4486588, "lon": 27.2331322, "tags": {"amenity": "pharmacy", "name": "Mevlana \u015eifa Eczanesi", "phone": "+90 232 374 4411"}}, {"type": "node", "id": 11402970971, "lat": 38.4481371, "lon": 27.2296199, "tags": {"amenity": "pharmacy", "name": "S\u00f6zeri Eczanesi", "phone": "+90 232 502 8612"}}, {"type": "node", "id": 11402970972, "lat": 38.4374855, "lon": 27.2082041, "tags": {"amenity": "pharmacy", "name": "Ba\u015fol Eczanesi", "phone": "+90 232 462 0999"}}, {"type": "node", "id": 11402971069, "lat": 38.4491131, "lon": 27.2306726, "tags": {"amenity": "pharmacy", "name": "Baysal Eczanesi", "phone": "+90 232 339 3321"}}, {"type": "node", "id": 11402971070, "lat": 38.4379293, "lon": 27.2083875, "tags": {"amenity": "pharmacy", "name": "Bar\u0131\u015f Eczanesi", "phone": "+90 232 388 6224"}}, {"type": "node", "id": 11402971169, "lat": 38.447944, "lon": 27.2297288, "tags": {"amenity": "pharmacy", "name": "Bilgili Eczanesi", "phone": "+90 232 373 9585"}}, {"type": "node", "id": 11402971170, "lat": 38.4483491, "lon": 27.2295679, "tags": {"amenity": "pharmacy", "name": "A\u00e7\u0131kyol Eczanesi", "phone": "+90 232 374 6249"}}, {"type": "node", "id": 11402971171, "lat": 38.4395023, "lon": 27.2139343, "tags": {"amenity": "pharmacy", "name": "Nova Eczanesi", "phone": "+90 232 683 5062"}}, {"type": "node", "id": 11403052269, "lat": 38.4306189, "lon": 27.2131638, "tags": {"amenity": "pharmacy", "name": "Garaj Eczanesi", "phone": "+90 232 472 0174"}}, {"type": "node", "id": 11403052270, "lat": 38.4338267, "lon": 27.2031259, "tags": {"amenity": "pharmacy", "name": "Mihriban Eczanesi", "phone": "+90 232 461 0073"}}, {"type": "node", "id": 11403052370, "lat": 38.4302042, "lon": 27.2080717, "tags": {"amenity": "pharmacy", "name": "Baki Eczanesi", "phone": "+90 232 467 1121"}}, {"type": "node", "id": 11403052371, "lat": 38.4346687, "lon": 27.2065044, "tags": {"amenity": "pharmacy", "name": "\u00c7er\u00e7evik Eczanesi", "phone": "+90 232 435 1941"}}, {"type": "node", "id": 11403052372, "lat": 38.4366684, "lon": 27.1990731, "tags": {"amenity": "pharmacy", "name": "Yeni K\u00f6seo\u011flu Eczanesi", "phone": "+90 232 435 7776"}}, {"type": "node", "id": 11403052373, "lat": 38.43888, "lon": 27.201646, "tags": {"amenity": "pharmacy", "healthcare": "pharmacy", "name": "Yeni \u00d6zer Eczanesi", "phone": "+90 232 435 4596"}}, {"type": "node", "id": 11403052669, "lat": 38.4344012, "lon": 27.2031197, "tags": {"amenity": "pharmacy", "name": "Ye\u015filova Hayat Eczanesi", "phone": "+90 232 435 0071"}}, {"type": "node", "id": 11403052670, "lat": 38.4356376, "lon": 27.2001156, "tags": {"amenity": "pharmacy", "healthcare": "pharmacy", "name": "Fidan Eczanesi", "phone": "+90 232 435 0118"}}, {"type": "node", "id": 11403052671, "lat": 38.4472723, "lon": 27.2058342, "tags": {"amenity": "pharmacy", "name": "Platin Eczanesi", "phone": "+90 232 463 3737"}}, {"type": "node", "id": 11403052672, "lat": 38.4331153, "lon": 27.198661, "tags": {"amenity": "pharmacy", "name": "Ayfer Eczanesi", "phone": "+90 232 467 0017"}}, {"type": "node", "id": 11403052769, "lat": 38.4360707, "lon": 27.2023832, "tags": {"amenity": "pharmacy", "name": "Ye\u015filova G\u00fcm\u00fc\u015f Eczanesi", "phone": "+90 232 461 7374"}}, {"type": "node", "id": 11403052770, "lat": 38.4366773, "lon": 27.1995866, "tags": {"amenity": "pharmacy", "name": "Tayfun Eczanesi", "phone": "+90 232 462 1446"}}, {"type": "node", "id": 11403052869, "lat": 38.4368872, "lon": 27.2021941, "tags": {"addr:housenumber": "153/A", "addr:street": "Abdi \u0130pek\u00e7i Caddesi", "amenity": "pharmacy", "name": "Akg\u00fcn Eczanesi", "phone": "+90 232 462 6484"}}, {"type": "node", "id": 11403052870, "lat": 38.4400456, "lon": 27.2014313, "tags": {"amenity": "pharmacy", "name": "Ye\u015filova Cadde Eczanesi", "phone": "+90 232 435 0090"}}, {"type": "node", "id": 11403052871, "lat": 38.4401303, "lon": 27.1999023, "tags": {"amenity": "pharmacy", "name": "Burak Reis Eczanesi", "phone": "+90 232 486 6493"}}, {"type": "node", "id": 11403054769, "lat": 38.4437571, "lon": 27.2004634, "tags": {"amenity": "pharmacy", "name": "Mercan Eczanesi", "phone": "+90 232 520 0162"}}, {"type": "node", "id": 11403054770, "lat": 38.4455939, "lon": 27.201169, "tags": {"amenity": "pharmacy", "name": "\u00dcnl\u00fc Eczanesi", "phone": "+90 232 504 3919"}}, {"type": "node", "id": 11405119769, "lat": 38.3418342, "lon": 27.1402948, "tags": {"amenity": "pharmacy", "healthcare": "pharmacy", "name": "Z\u00fchal Eczanesi", "phone": "+90 232 282 1272"}}, {"type": "node", "id": 11405120569, "lat": 38.3428609, "lon": 27.1398655, "tags": {"amenity": "pharmacy", "name": "Ekim Eczanesi", "phone": "+90 232 282 1059"}}, {"type": "node", "id": 11405449071, "lat": 38.3614307, "lon": 27.1427113, "tags": {"amenity": "pharmacy", "healthcare": "pharmacy", "name": "Serra Eczanesi", "phone": "+90 534 039 9972"}}, {"type": "node", "id": 11405449072, "lat": 38.3606643, "lon": 27.1447925, "tags": {"amenity": "pharmacy", "name": "Gediz Defne Eczanesi", "phone": "+90 232 275 6868"}}, {"type": "node", "id": 11405449073, "lat": 38.3683013, "lon": 27.1458925, "tags": {"amenity": "pharmacy", "name": "Yeni Lokman Hekim Eczanesi", "phone": "+90 232 276 1733"}}, {"type": "node", "id": 11405471071, "lat": 38.3578032, "lon": 27.1471927, "tags": {"amenity": "pharmacy", "name": "Sar\u0131gedik Eczanesi", "phone": "+90 232 275 3111"}}, {"type": "node", "id": 11405471072, "lat": 38.3618839, "lon": 27.1451139, "tags": {"amenity": "pharmacy", "healthcare": "pharmacy", "name": "Yeni G\u00fcltekin Eczanesi", "phone": "+90 232 276 2388"}}, {"type": "node", "id": 11405471073, "lat": 38.3625908, "lon": 27.1486861, "tags": {"addr:street": "\u0130smail Sivri Bulvar\u0131", "amenity": "pharmacy", "name": "\u00dcmran Eczanesi", "phone": "+90 232 275 8600"}}, {"type": "node", "id": 11405471074, "lat": 38.3606179, "lon": 27.1450506, "tags": {"amenity": "pharmacy", "name": "Yereli Eczanesi", "phone": "+90 232 276 0904"}}, {"type": "node", "id": 11405471075, "lat": 38.3682445, "lon": 27.1430552, "tags": {"amenity": "pharmacy", "name": "\u015eener Eczanesi", "phone": "+90 232 276 5700"}}, {"type": "node", "id": 11405471076, "lat": 38.3695813, "lon": 27.1492447, "tags": {"amenity": "pharmacy", "name": "Buca Ada Eczanesi", "phone": "+90 232 276 8676"}}, {"type": "node", "id": 11405471077, "lat": 38.3704617, "lon": 27.1527464, "tags": {"amenity": "pharmacy", "name": "Emre Eczanesi", "phone": "+90 232 999 7752"}}, {"type": "node", "id": 11405471078, "lat": 38.3713192, "lon": 27.154346, "tags": {"amenity": "pharmacy", "name": "G\u00f6ksu Uslu Eczanesi", "phone": "+90 232 275 1111"}}, {"type": "node", "id": 11405471079, "lat": 38.3726702, "lon": 27.1507267, "tags": {"amenity": "pharmacy", "name": "G\u00fcl\u00fcm Eczanesi", "phone": "+90 232 966 0115"}}, {"type": "node", "id": 11405482469, "lat": 38.3561653, "lon": 27.1428726, "tags": {"amenity": "pharmacy", "name": "Nermin Eczanesi", "phone": "+90 232 276 8994"}}, {"type": "node", "id": 11405482569, "lat": 38.3667361, "lon": 27.1468421, "tags": {"amenity": "pharmacy", "name": "Onar Eczanesi", "phone": "+90 232 275 1235"}}, {"type": "node", "id": 11405482570, "lat": 38.3690039, "lon": 27.1538626, "tags": {"amenity": "pharmacy", "name": "Efe Y\u0131ld\u0131z Eczanesi", "phone": "+90 232 275 2629"}}, {"type": "node", "id": 11407347824, "lat": 38.6053049, "lon": 27.0742773, "tags": {"addr:postcode": "35660", "amenity": "pharmacy", "name": "Alt\u0131nbilek Eczanesi", "phone": "+90 232 832 0220"}}, {"type": "node", "id": 11423037069, "lat": 38.537649, "lon": 27.0524304, "tags": {"amenity": "pharmacy", "healthcare": "pharmacy", "name": "Meydan Eczanesi", "phone": "+90 232 833 3454"}}, {"type": "node", "id": 11423038369, "lat": 38.5309606, "lon": 27.0508279, "tags": {"amenity": "pharmacy", "healthcare": "pharmacy", "name": "Harmandal\u0131 Eczanesi", "phone": "+90 232 839 0266"}}, {"type": "node", "id": 11423038370, "lat": 38.5389776, "lon": 27.0394526, "tags": {"amenity": "pharmacy", "name": "\u00dcsk\u00fcp Eczanesi", "phone": "+90 530 993 8979"}}, {"type": "node", "id": 11423048569, "lat": 38.5470962, "lon": 27.0426719, "tags": {"amenity": "pharmacy", "healthcare": "pharmacy", "name": "Saydam Eczanesi", "phone": "+90 530 816 4553"}}, {"type": "node", "id": 11425049493, "lat": 38.4569218, "lon": 27.1172619, "tags": {"amenity": "pharmacy", "name": "Deva Eczanesi"}}, {"type": "node", "id": 11425138570, "lat": 38.4113825, "lon": 27.1235702, "tags": {"amenity": "pharmacy", "healthcare": "pharmacy", "name": "G\u00f6kova Eczanesi", "phone": "+90 232 489 7494"}}, {"type": "node", "id": 11425138571, "lat": 38.4068396, "lon": 27.1206525, "tags": {"amenity": "pharmacy", "healthcare": "pharmacy", "name": "\u00dcst\u00fcn Eczanesi", "phone": "+90 232 263 0130"}}, {"type": "node", "id": 11425138572, "lat": 38.4067114, "lon": 27.1202058, "tags": {"amenity": "pharmacy", "healthcare": "pharmacy", "name": "Yeni Adalio\u011flu", "phone": "+90 232 261 7702"}}, {"type": "node", "id": 11425138573, "lat": 38.4067977, "lon": 27.1194123, "tags": {"amenity": "pharmacy", "healthcare": "pharmacy", "name": "Bade Eczanesi", "phone": "+90 232 261 5557"}}, {"type": "node", "id": 11425138574, "lat": 38.4060774, "lon": 27.1178114, "tags": {"amenity": "pharmacy", "healthcare": "pharmacy", "name": "Yeni Ye\u015fim Eczanesi", "phone": "+90 232 250 7985"}}, {"type": "node", "id": 11425138575, "lat": 38.406151, "lon": 27.1167963, "tags": {"amenity": "pharmacy", "healthcare": "pharmacy", "name": "Sevin\u00e7 Eczanesi", "phone": "+90 232 408 0010"}}, {"type": "node", "id": 11425138576, "lat": 38.4061321, "lon": 27.1154717, "tags": {"amenity": "pharmacy", "check_date": "2024-09-23", "healthcare": "pharmacy", "name": "Ulus Eczanesi", "phone": "+90 232 227 5230"}}, {"type": "node", "id": 11425138577, "lat": 38.4037142, "lon": 27.1172754, "tags": {"amenity": "pharmacy", "healthcare": "pharmacy", "name": "Onan\u00e7 Arslan Eczanesi", "phone": "+90 232 261 0262"}}, {"type": "node", "id": 11425138578, "lat": 38.4032819, "lon": 27.1226522, "tags": {"amenity": "pharmacy", "healthcare": "pharmacy", "name": "\u00dc\u00e7yol Emel Eczanesi", "phone": "+90 232 430 2770"}}, {"type": "node", "id": 11425138579, "lat": 38.401533, "lon": 27.11321, "tags": {"amenity": "pharmacy", "healthcare": "pharmacy", "name": "Zencefil Eczanesi", "phone": "+90 232 261 1730"}}, {"type": "node", "id": 11425138580, "lat": 38.402969, "lon": 27.1053475, "tags": {"amenity": "pharmacy", "healthcare": "pharmacy", "name": "Yeni \u00c7etin Eczanesi", "phone": "+90 232 244 4414"}}, {"type": "node", "id": 11425138581, "lat": 38.4017955, "lon": 27.1051452, "tags": {"amenity": "pharmacy", "check_date": "2024-06-04", "healthcare": "pharmacy", "name": "Yeni Hatay Eczanesi", "phone": "+90 232 489 8678"}}, {"type": "node", "id": 11425138582, "lat": 38.4010068, "lon": 27.1056523, "tags": {"amenity": "pharmacy", "healthcare": "pharmacy", "name": "Kayasan Eczanesi", "phone": "+90 232 388 3353"}}, {"type": "node", "id": 11425138670, "lat": 38.553102, "lon": 27.0496588, "tags": {"amenity": "pharmacy", "name": "Nil Sel Eczanesi", "phone": "+90 232 999 0353"}}, {"type": "node", "id": 11425138671, "lat": 38.4096026, "lon": 27.1178762, "tags": {"addr:street": "Mithatpa\u015fa Caddesi", "amenity": "pharmacy", "healthcare": "pharmacy", "name": "Mimoza Eczanesi", "phone": "+90 232 484 5838"}}, {"type": "node", "id": 11425138672, "lat": 38.4028048, "lon": 27.1218692, "tags": {"amenity": "pharmacy", "healthcare": "pharmacy", "name": "K\u0131l\u0131\u00e7 Eczanesi", "phone": "+90 232 250 6600"}}, {"type": "node", "id": 11425138673, "lat": 38.4026066, "lon": 27.1216364, "tags": {"amenity": "pharmacy", "healthcare": "pharmacy", "name": "Beste Eczanesi", "phone": "+90 232 261 3648"}}, {"type": "node", "id": 11425138674, "lat": 38.4018329, "lon": 27.1118701, "tags": {"amenity": "pharmacy", "healthcare": "pharmacy", "name": "Sevil Ko\u00e7 Eczanesi", "phone": "+90 232 999 3393"}}, {"type": "node", "id": 11425138675, "lat": 38.4029971, "lon": 27.1132938, "tags": {"amenity": "pharmacy", "healthcare": "pharmacy", "name": "\u00d6zgencil Eczanesi", "phone": "+90 232 227 3262"}}, {"type": "node", "id": 11425138676, "lat": 38.4032255, "lon": 27.1134685, "tags": {"amenity": "pharmacy", "healthcare": "pharmacy", "name": "Zeytin Eczanesi", "phone": "+90 232 250 5035"}}, {"type": "node", "id": 11425138677, "lat": 38.4033546, "lon": 27.1133588, "tags": {"amenity": "pharmacy", "healthcare": "pharmacy", "name": "Yeni Gen\u00e7 Cebe Eczanesi", "phone": "+90 232 261 0225"}}, {"type": "node", "id": 11425138678, "lat": 38.3986414, "lon": 27.1111056, "tags": {"amenity": "pharmacy", "healthcare": "pharmacy", "name": "\u00c7\u0131nar Eczanesi", "phone": "+90 232 244 6019"}}, {"type": "node", "id": 11425138679, "lat": 38.4029708, "lon": 27.1060259, "tags": {"amenity": "pharmacy", "healthcare": "pharmacy", "name": "De\u011ferli Eczanesi", "phone": "+90 232 243 0037"}}, {"type": "node", "id": 11425138681, "lat": 38.4016846, "lon": 27.1033881, "tags": {"amenity": "pharmacy", "healthcare": "pharmacy", "name": "Naz Eczanesi", "phone": "+90 232 503 6633"}}, {"type": "node", "id": 11425138870, "lat": 38.5457318, "lon": 27.0377331, "tags": {"amenity": "pharmacy", "name": "Bostanl\u0131 Nar Eczanesi", "phone": "+90 232 833 4277"}}, {"type": "node", "id": 11425138871, "lat": 38.5509743, "lon": 27.0449598, "tags": {"amenity": "pharmacy", "healthcare": "pharmacy", "name": "\u00c7a\u011f\u0131l Eczanesi", "phone": "+90 232 999 9406"}}, {"type": "node", "id": 11425138872, "lat": 38.5525053, "lon": 27.0495864, "tags": {"amenity": "pharmacy", "name": "Ege Seyhan Eczanesi", "phone": "+90 232 838 3676"}}, {"type": "node", "id": 11425138873, "lat": 38.5529781, "lon": 27.0496293, "tags": {"amenity": "pharmacy", "name": "Ulukent Eczanesi", "phone": "+90 232 999 1238"}}, {"type": "node", "id": 11425139669, "lat": 38.5472, "lon": 27.0375669, "tags": {"amenity": "pharmacy", "name": "Yeni \u00d6zt\u00fcrk Eczanesi", "phone": "+90 232 832 1434"}}, {"type": "node", "id": 11425139769, "lat": 38.5522256, "lon": 27.0495077, "tags": {"amenity": "pharmacy", "name": "Selma Y\u0131lmaz Eczanesi", "phone": "+90 545 640 1594"}}, {"type": "node", "id": 11425139969, "lat": 38.4102059, "lon": 27.1277182, "tags": {"amenity": "pharmacy", "healthcare": "pharmacy", "name": "\u00d6demi\u015f Eczanesi", "phone": "+90 232 227 5779"}}, {"type": "node", "id": 11425139970, "lat": 38.4079829, "lon": 27.1172946, "tags": {"amenity": "pharmacy", "healthcare": "pharmacy", "name": "Yeni Asans\u00f6r Eczanesi", "phone": "+90 232 227 0216"}}, {"type": "node", "id": 11425139971, "lat": 38.406862, "lon": 27.1198996, "tags": {"amenity": "pharmacy", "healthcare": "pharmacy", "name": "Din\u00e7er Eczanesi", "phone": "+90 232 227 5408"}}, {"type": "node", "id": 11425139972, "lat": 38.4060605, "lon": 27.1194347, "tags": {"amenity": "pharmacy", "healthcare": "pharmacy", "name": "\u00c7a\u011fla Eczanesi", "phone": "+90 232 228 0283"}}, {"type": "node", "id": 11425139973, "lat": 38.4043481, "lon": 27.117798, "tags": {"amenity": "pharmacy", "healthcare": "pharmacy", "name": "Tonay Eczanesi", "phone": "+90 232 227 1090"}}, {"type": "node", "id": 11425139974, "lat": 38.4045986, "lon": 27.1206636, "tags": {"amenity": "pharmacy", "healthcare": "pharmacy", "name": "Atar Eczanesi", "phone": "+90 232 25511"}}, {"type": "node", "id": 11425139975, "lat": 38.4043695, "lon": 27.1211, "tags": {"amenity": "pharmacy", "healthcare": "pharmacy", "name": "Baykul Eczanesi", "phone": "+90 232 256 1303"}}, {"type": "node", "id": 11425139976, "lat": 38.4025504, "lon": 27.1215838, "tags": {"amenity": "pharmacy", "healthcare": "pharmacy", "name": "\u00c7ilek Eczanesi", "phone": "+90 232 255 0242"}}, {"type": "node", "id": 11425139977, "lat": 38.4018939, "lon": 27.1142893, "tags": {"amenity": "pharmacy", "healthcare": "pharmacy", "name": "Yeni Sa\u011fl\u0131k Eczanesi", "phone": "+90 232 261 1730"}}, {"type": "node", "id": 11425139978, "lat": 38.4028961, "lon": 27.1132527, "tags": {"amenity": "pharmacy", "healthcare": "pharmacy", "name": "Sedef Eczanesi", "phone": "+90 232 250 1314"}}, {"type": "node", "id": 11425139979, "lat": 38.4011202, "lon": 27.1101529, "tags": {"amenity": "pharmacy", "healthcare": "pharmacy", "name": "Atalar Eczanesi", "phone": "+90 232 243 4425"}}, {"type": "node", "id": 11425139980, "lat": 38.4017401, "lon": 27.1089361, "tags": {"amenity": "pharmacy", "check_date": "2024-05-23", "healthcare": "pharmacy", "name": "Lamia Raif Eczanesi", "phone": "+90 232 244 7105"}}, {"type": "node", "id": 11425139981, "lat": 38.4019302, "lon": 27.1049043, "tags": {"amenity": "pharmacy", "check_date": "2024-06-04", "healthcare": "pharmacy", "name": "Sevgi Yolu Eczanesi", "phone": "+90 232 232 4806"}}, {"type": "node", "id": 11425139985, "lat": 38.4016856, "lon": 27.1041609, "tags": {"amenity": "pharmacy", "healthcare": "pharmacy", "name": "G\u00fcle\u00e7 Eczanesi", "phone": "+90 232 231 3493"}}, {"type": "node", "id": 11425139987, "lat": 38.401775, "lon": 27.101709, "tags": {"amenity": "pharmacy", "check_date": "2024-05-19", "healthcare": "pharmacy", "name": "Hakimevleri Eczanesi", "phone": "+90 232 243 7284"}}, {"type": "node", "id": 11425139988, "lat": 38.3991116, "lon": 27.1010319, "tags": {"addr:postcode": "35150", "amenity": "pharmacy", "healthcare": "pharmacy", "name": "Erener Eczanesi", "phone": "+90 232 231 7041"}}, {"type": "node", "id": 11425140569, "lat": 38.4029708, "lon": 27.1205896, "tags": {"amenity": "pharmacy", "healthcare": "pharmacy", "name": "Yeni El\u00e7in Eczanesi", "phone": "+90 232 250 8510"}}, {"type": "node", "id": 11425140669, "lat": 38.4028651, "lon": 27.1219144, "tags": {"amenity": "pharmacy", "healthcare": "pharmacy", "name": "Yeni Beste Eczanesi", "phone": "+90 232 227 5005"}}, {"type": "node", "id": 11425140769, "lat": 38.4016963, "lon": 27.1050763, "tags": {"amenity": "pharmacy", "check_date": "2024-06-04", "healthcare": "pharmacy", "name": "Hatay Banu Eczanesi", "phone": "+90 232 244 8545"}}, {"type": "node", "id": 11425170370, "lat": 38.4019305, "lon": 27.126447, "tags": {"amenity": "pharmacy", "healthcare": "pharmacy", "name": "Yeni Vefa Eczanesi", "phone": "+90 232 255 1990"}}, {"type": "node", "id": 11425170371, "lat": 38.4009515, "lon": 27.1276644, "tags": {"amenity": "pharmacy", "healthcare": "pharmacy", "name": "Yarenler Eczanesi", "phone": "+90 232 262 7777"}}, {"type": "node", "id": 11425170372, "lat": 38.4010849, "lon": 27.128185, "tags": {"amenity": "pharmacy", "healthcare": "pharmacy", "name": "Ayda Eczanesi", "phone": "+90 232 464 0404"}}, {"type": "node", "id": 11425170373, "lat": 38.400872, "lon": 27.1282351, "tags": {"amenity": "pharmacy", "healthcare": "pharmacy", "name": "R\u00fczgar Eczanesi", "phone": "+90 232 250 3762"}}, {"type": "node", "id": 11425170374, "lat": 38.4008896, "lon": 27.1288005, "tags": {"amenity": "pharmacy", "healthcare": "pharmacy", "name": "Zafertepe Eczanesi", "phone": "+90 232 261 5959"}}, {"type": "node", "id": 11425170375, "lat": 38.3959544, "lon": 27.1273315, "tags": {"amenity": "pharmacy", "healthcare": "pharmacy", "name": "Kilimcitepe Eczanesi", "phone": "+90 232 262 7289"}}, {"type": "node", "id": 11425170376, "lat": 38.3936148, "lon": 27.1268063, "tags": {"amenity": "pharmacy", "healthcare": "pharmacy", "name": "Kantarc\u0131o\u011flu Eczanesi", "phone": "+90 232 483 0305"}}, {"type": "node", "id": 11425170377, "lat": 38.3905219, "lon": 27.125753, "tags": {"amenity": "pharmacy", "healthcare": "pharmacy", "name": "Sa\u011fol Eczanesi", "phone": "+90 232 227 4155"}}, {"type": "node", "id": 11425170378, "lat": 38.3904581, "lon": 27.1231882, "tags": {"amenity": "pharmacy", "healthcare": "pharmacy", "name": "Kalender Eczanesi", "phone": "+90 232 262 5932"}}, {"type": "node", "id": 11425170379, "lat": 38.3889234, "lon": 27.1250822, "tags": {"amenity": "pharmacy", "healthcare": "pharmacy", "name": "\u00d6zdeva Eczanesi", "phone": "+90 232 237 4892"}}, {"type": "node", "id": 11425170380, "lat": 38.3914336, "lon": 27.1211397, "tags": {"amenity": "pharmacy", "healthcare": "pharmacy", "name": "Ulu Eczanesi", "phone": "+90 232 261 6151"}}, {"type": "node", "id": 11425170381, "lat": 38.3914554, "lon": 27.1207618, "tags": {"amenity": "pharmacy", "healthcare": "pharmacy", "name": "P\u0131rlanta Eczanesi", "phone": "+90 232 227 0013"}}, {"type": "node", "id": 11425170382, "lat": 38.3938665, "lon": 27.1184868, "tags": {"amenity": "pharmacy", "healthcare": "pharmacy", "name": "Oray Eczanesi", "phone": "+90 232 256 8271"}}, {"type": "node", "id": 11425170383, "lat": 38.3960492, "lon": 27.1183156, "tags": {"amenity": "pharmacy", "healthcare": "pharmacy", "name": "Umut Eczanesi", "phone": "+90 232 256 7074"}}, {"type": "node", "id": 11425170384, "lat": 38.3976796, "lon": 27.1223722, "tags": {"amenity": "pharmacy", "healthcare": "pharmacy", "name": "Beril Eczanesi", "phone": "+90 232 261 7404"}}, {"type": "node", "id": 11425170385, "lat": 38.3980771, "lon": 27.1230096, "tags": {"amenity": "pharmacy", "healthcare": "pharmacy", "name": "B\u00fcy\u00fck \u0130zmir Eczanesi", "phone": "+90 232 262 7757"}}, {"type": "node", "id": 11425170386, "lat": 38.3981461, "lon": 27.1231849, "tags": {"amenity": "pharmacy", "healthcare": "pharmacy", "name": "Bozyaka Serdar Eczanesi", "phone": "+90 232 256 0118"}}, {"type": "node", "id": 11425170387, "lat": 38.3984824, "lon": 27.123341, "tags": {"amenity": "pharmacy", "healthcare": "pharmacy", "name": "E\u011fitim Eczanesi", "phone": "+90 232 261 6150"}}, {"type": "node", "id": 11425170388, "lat": 38.3985323, "lon": 27.1234155, "tags": {"amenity": "pharmacy", "healthcare": "pharmacy", "name": "\u00d6zcanlar Eczanesi", "phone": "+90 232 250 2550"}}, {"type": "node", "id": 11425178569, "lat": 38.4051095, "lon": 27.1286031, "tags": {"amenity": "pharmacy", "healthcare": "pharmacy", "name": "Nazilli Eczanesi", "phone": "+90 232 250 3284"}}, {"type": "node", "id": 11425178570, "lat": 38.4056417, "lon": 27.1287111, "tags": {"amenity": "pharmacy", "healthcare": "pharmacy", "name": "Ece Eren Eczanesi", "phone": "+90 232 261 0620"}}, {"type": "node", "id": 11425178571, "lat": 38.4060464, "lon": 27.1267626, "tags": {"amenity": "pharmacy", "healthcare": "pharmacy", "name": "Burkay Eczanesi", "phone": "+90 232 262 3491"}}, {"type": "node", "id": 11425178669, "lat": 38.4079151, "lon": 27.1266044, "tags": {"amenity": "pharmacy", "healthcare": "pharmacy", "name": "Tun\u00e7soy Eczanesi", "phone": "+90 232 227 1900"}}, {"type": "node", "id": 11425178769, "lat": 38.4081369, "lon": 27.1255989, "tags": {"amenity": "pharmacy", "healthcare": "pharmacy", "name": "Mart\u0131 Eczanesi", "phone": "+90 232 259 3075"}}, {"type": "node", "id": 11425178770, "lat": 38.4073493, "lon": 27.1241011, "tags": {"amenity": "pharmacy", "healthcare": "pharmacy", "name": "Alt\u0131nta\u015f Eczanesi", "phone": "+90 232 228 1751"}}, {"type": "node", "id": 11425178869, "lat": 38.4079941, "lon": 27.125379, "tags": {"amenity": "pharmacy", "healthcare": "pharmacy", "name": "\u00c7abuko\u011flu Eczanesi", "phone": "+90 232 262 0321"}}, {"type": "node", "id": 11425178870, "lat": 38.4071563, "lon": 27.1243889, "tags": {"amenity": "pharmacy", "healthcare": "pharmacy", "name": "Yeni Nur Eczanesi", "phone": "+90 232 250 5624"}}, {"type": "node", "id": 11425178969, "lat": 38.4014585, "lon": 27.1251389, "tags": {"amenity": "pharmacy", "healthcare": "pharmacy", "name": "Mavi Zambak Eczanesi", "phone": "+90 232 261 2434"}}, {"type": "node", "id": 11425179069, "lat": 38.4013882, "lon": 27.1264847, "tags": {"amenity": "pharmacy", "healthcare": "pharmacy", "name": "Dedebal Eczanesi", "phone": "+90 232 256 8887"}}, {"type": "node", "id": 11425179070, "lat": 38.401353, "lon": 27.1269383, "tags": {"amenity": "pharmacy", "healthcare": "pharmacy", "name": "Samanl\u0131o\u011flu Eczanesi", "phone": "+90 232 453 1545"}}, {"type": "node", "id": 11425179071, "lat": 38.4019778, "lon": 27.1266941, "tags": {"amenity": "pharmacy", "healthcare": "pharmacy", "name": "Nihan Eczanesi", "phone": "+90 232 256 0637"}}, {"type": "node", "id": 11425179072, "lat": 38.4006833, "lon": 27.1273204, "tags": {"amenity": "pharmacy", "healthcare": "pharmacy", "name": "Vefa Eczanesi", "phone": "+90 232 275 8288"}}, {"type": "node", "id": 11425179073, "lat": 38.398174, "lon": 27.1280667, "tags": {"amenity": "pharmacy", "healthcare": "pharmacy", "name": "\u00d6zhayat Eczanesi", "phone": "+90 232 250 3988"}}, {"type": "node", "id": 11425179074, "lat": 38.3972191, "lon": 27.1277389, "tags": {"amenity": "pharmacy", "healthcare": "pharmacy", "name": "Bozyaka Ezgi Eczanesi", "phone": "+90 232 262 9922"}}, {"type": "node", "id": 11425179075, "lat": 38.3929632, "lon": 27.1261739, "tags": {"amenity": "pharmacy", "healthcare": "pharmacy", "name": "Uncuo\u011flu Eczanesi", "phone": "+90 232 228 2787"}}, {"type": "node", "id": 11425179076, "lat": 38.3982133, "lon": 27.1232827, "tags": {"amenity": "pharmacy", "healthcare": "pharmacy", "name": "Bozyaka \u00d6zlem Eczanesi", "phone": "+90 232 255 3832"}}, {"type": "node", "id": 11425179169, "lat": 38.3984318, "lon": 27.1273469, "tags": {"amenity": "pharmacy", "healthcare": "pharmacy", "name": "Yumurta\u015f Eczanesi", "phone": "+90 232 228 1771"}}, {"type": "node", "id": 11425179170, "lat": 38.3914098, "lon": 27.1209947, "tags": {"amenity": "pharmacy", "healthcare": "pharmacy", "name": "Feryal Eczanesi", "phone": "+90 232 261 6087"}}, {"type": "node", "id": 11425179171, "lat": 38.3982874, "lon": 27.1233262, "tags": {"amenity": "pharmacy", "healthcare": "pharmacy", "name": "Kardelen Eczanesi", "phone": "+90 232 262 1068"}}, {"type": "node", "id": 11425179172, "lat": 38.3983366, "lon": 27.1233744, "tags": {"amenity": "pharmacy", "healthcare": "pharmacy", "name": "Bur\u00e7ak Eczanesi", "phone": "+90 232 262 1058"}}, {"type": "node", "id": 11425179173, "lat": 38.3986961, "lon": 27.1234769, "tags": {"amenity": "pharmacy", "healthcare": "pharmacy", "name": "Ac\u0131rgan \u015eifa Eczanesi", "phone": "+90 232 228 0204"}}, {"type": "node", "id": 11425179369, "lat": 38.3955804, "lon": 27.1270013, "tags": {"amenity": "pharmacy", "healthcare": "pharmacy", "name": "\u00c7al\u0131ku\u015fu Eczanesi", "phone": "+90 232 256 2622"}}, {"type": "node", "id": 11425179569, "lat": 38.391237, "lon": 27.1249109, "tags": {"amenity": "pharmacy", "healthcare": "pharmacy", "name": "H\u00fcdaverdi Eczanesi", "phone": "+90 232 256 6687"}}, {"type": "node", "id": 11425385671, "lat": 38.3928092, "lon": 27.1134185, "tags": {"amenity": "pharmacy", "healthcare": "pharmacy", "name": "F\u0131rat Eczanesi", "phone": "+90 232 243 9494"}}, {"type": "node", "id": 11425385672, "lat": 38.3958832, "lon": 27.1153523, "tags": {"amenity": "pharmacy", "healthcare": "pharmacy", "name": "Burcu Yakan Eczanesi", "phone": "+90 232 250 3763"}}, {"type": "node", "id": 11425385673, "lat": 38.3963278, "lon": 27.1133119, "tags": {"amenity": "pharmacy", "healthcare": "pharmacy", "name": "Ta\u015f Eczanesi", "phone": "+90 232 262 4757"}}, {"type": "node", "id": 11425397869, "lat": 38.3937625, "lon": 27.1136492, "tags": {"amenity": "pharmacy", "healthcare": "pharmacy", "name": "Ye\u015filyurt Merkez Eczanesi", "phone": "+90 232 231 7096"}}, {"type": "node", "id": 11425397870, "lat": 38.3963187, "lon": 27.1156682, "tags": {"amenity": "pharmacy", "healthcare": "pharmacy", "name": "Murat Eczanesi", "phone": "+90 232 251 1061"}}, {"type": "node", "id": 11425398269, "lat": 38.3964737, "lon": 27.1134164, "tags": {"amenity": "pharmacy", "healthcare": "pharmacy", "name": "Burak Eczanesi", "phone": "+90 232 261 8757"}}, {"type": "node", "id": 11425398270, "lat": 38.3966193, "lon": 27.1133654, "tags": {"amenity": "pharmacy", "healthcare": "pharmacy", "name": "Nihal Eczanesi", "phone": "+90 232 256 4247"}}, {"type": "node", "id": 11426493371, "lat": 38.3891381, "lon": 27.1647283, "tags": {"amenity": "pharmacy", "healthcare": "pharmacy", "name": "\u00d6nc\u00fc Eczanesi", "phone": "+90 232 448 4878"}}, {"type": "node", "id": 11426493372, "lat": 38.3894471, "lon": 27.1653311, "tags": {"amenity": "pharmacy", "healthcare": "pharmacy", "name": "Tiryakio\u011flu Eczanesi", "phone": "+90 232 487 2082"}}, {"type": "node", "id": 11426493373, "lat": 38.3901737, "lon": 27.1656815, "tags": {"amenity": "pharmacy", "healthcare": "pharmacy", "name": "K\u0131l\u0131\u00e7er Eczanesi", "phone": "+90 232 275 7868"}}, {"type": "node", "id": 11426493374, "lat": 38.3917563, "lon": 27.1661949, "tags": {"amenity": "pharmacy", "healthcare": "pharmacy", "name": "Nur Eczanesi", "phone": "+90 232 426 8489"}}, {"type": "node", "id": 11426493375, "lat": 38.3914753, "lon": 27.1564452, "tags": {"amenity": "pharmacy", "healthcare": "pharmacy", "name": "Yeni \u00dcnal Eczanesi", "phone": "+90 232 487 6395"}}, {"type": "node", "id": 11426493376, "lat": 38.3919662, "lon": 27.1529261, "tags": {"amenity": "pharmacy", "healthcare": "pharmacy", "name": "A\u015f\u0131kpa\u015fa Eczanesi", "phone": "+90 232 438 5050"}}, {"type": "node", "id": 11426493377, "lat": 38.3893781, "lon": 27.1555573, "tags": {"amenity": "pharmacy", "healthcare": "pharmacy", "name": "Cinkaya Eczanesi", "phone": "+90 232 487 5606"}}, {"type": "node", "id": 11426493378, "lat": 38.3894805, "lon": 27.1549388, "tags": {"amenity": "pharmacy", "healthcare": "pharmacy", "name": "Yeni D\u00f6rtel Eczanesi", "phone": "+90 232 448 3439"}}, {"type": "node", "id": 11426501670, "lat": 38.3884408, "lon": 27.1514734, "tags": {"amenity": "pharmacy", "healthcare": "pharmacy", "name": "\u00c7are Eczanesi", "phone": "+90 232 487 6270"}}, {"type": "node", "id": 11426636969, "lat": 38.3939893, "lon": 27.1607873, "tags": {"amenity": "pharmacy", "healthcare": "pharmacy", "name": "G\u00fcltekin Eczanesi", "phone": "+90 232 426 5315"}}, {"type": "node", "id": 11426637069, "lat": 38.3962161, "lon": 27.1567621, "tags": {"amenity": "pharmacy", "healthcare": "pharmacy", "name": "Yeni Baysal Eczanesi", "phone": "+90 232 448 8266"}}, {"type": "node", "id": 11426637169, "lat": 38.4022147, "lon": 27.1596809, "tags": {"amenity": "pharmacy", "healthcare": "pharmacy", "name": "Kervan Eczanesi", "phone": "+90 232 487 6626"}}, {"type": "node", "id": 11426637170, "lat": 38.3883257, "lon": 27.1514831, "tags": {"amenity": "pharmacy", "healthcare": "pharmacy", "name": "Melissa Eczanesi", "phone": "+90 232 426 7888"}}, {"type": "node", "id": 11426637269, "lat": 38.3948646, "lon": 27.1691031, "tags": {"amenity": "pharmacy", "healthcare": "pharmacy", "name": "Naz Eczanesi", "phone": "+90 232 452 0149"}}, {"type": "node", "id": 11426637270, "lat": 38.393749, "lon": 27.1700371, "tags": {"amenity": "pharmacy", "healthcare": "pharmacy", "name": "Ihlamur Eczanesi", "phone": "+90 232 420 0484"}}, {"type": "node", "id": 11426637271, "lat": 38.3903059, "lon": 27.1630009, "tags": {"amenity": "pharmacy", "healthcare": "pharmacy", "name": "Pozitif Eczanesi", "phone": "+90 232 448 9656"}}, {"type": "node", "id": 11426637272, "lat": 38.3896714, "lon": 27.1565821, "tags": {"amenity": "pharmacy", "healthcare": "pharmacy", "name": "G\u00f6nen\u00e7 Eczanesi", "phone": "+90 232 448 4484"}}, {"type": "node", "id": 11426637469, "lat": 38.391613, "lon": 27.170927, "tags": {"amenity": "pharmacy", "healthcare": "pharmacy", "name": "Yeni Pelin Eczanesi", "phone": "+90 232 440 1894"}}, {"type": "node", "id": 11426637470, "lat": 38.3835148, "lon": 27.1658284, "tags": {"amenity": "pharmacy", "name": "Anadolu Eczanesi", "phone": "+90 232 227 5349"}}, {"type": "node", "id": 11426637471, "lat": 38.3906056, "lon": 27.1609569, "tags": {"amenity": "pharmacy", "healthcare": "pharmacy", "name": "Yeni Duygum Eczanesi", "phone": "+90 232 487 6157"}}, {"type": "node", "id": 11426637472, "lat": 38.3915378, "lon": 27.1669675, "tags": {"amenity": "pharmacy", "healthcare": "pharmacy", "name": "Helin Eczanesi", "phone": "+90 232 452 5343"}}, {"type": "node", "id": 11426637473, "lat": 38.3912199, "lon": 27.158972, "tags": {"amenity": "pharmacy", "healthcare": "pharmacy", "name": "Hazal Alkan Eczanesi", "phone": "+90 232 487 3246"}}, {"type": "node", "id": 11426637474, "lat": 38.3894774, "lon": 27.1551108, "tags": {"amenity": "pharmacy", "healthcare": "pharmacy", "name": "\u015eirinyer Eczanesi", "phone": "+90 232 487 5765"}}, {"type": "node", "id": 11426637569, "lat": 38.386072, "lon": 27.1709235, "tags": {"amenity": "pharmacy", "healthcare": "pharmacy", "name": "Mat Eczanesi", "phone": "+90 232 420 0131"}}, {"type": "node", "id": 11426637570, "lat": 38.392459, "lon": 27.1662435, "tags": {"amenity": "pharmacy", "healthcare": "pharmacy", "name": "Serhan Eczanesi", "phone": "+90 232 448 0238"}}, {"type": "node", "id": 11426637571, "lat": 38.3916079, "lon": 27.1523224, "tags": {"amenity": "pharmacy", "healthcare": "pharmacy", "name": "Forbes Eczanesi", "phone": "+90 232 452 6896"}}, {"type": "node", "id": 11426637869, "lat": 38.3892174, "lon": 27.1548552, "tags": {"amenity": "pharmacy", "healthcare": "pharmacy", "name": "B\u00fcy\u00fck Eczanesi", "phone": "+90 232 487 7161"}}, {"type": "node", "id": 11426637870, "lat": 38.3894668, "lon": 27.1542411, "tags": {"amenity": "pharmacy", "healthcare": "pharmacy", "name": "Aylin Eczanesi", "phone": "+90 232 438 6090"}}, {"type": "node", "id": 11426638069, "lat": 38.3878042, "lon": 27.1545605, "tags": {"amenity": "pharmacy", "healthcare": "pharmacy", "name": "\u00c7a\u011fatay Eczanesi", "phone": "+90 232 438 2625"}}, {"type": "node", "id": 11426638269, "lat": 38.388314, "lon": 27.1508879, "tags": {"amenity": "pharmacy", "healthcare": "pharmacy", "name": "Damla I\u015f\u0131k Eczanesi", "phone": "+90 232 452 7085"}}, {"type": "node", "id": 11426638270, "lat": 38.3885006, "lon": 27.1505598, "tags": {"amenity": "pharmacy", "healthcare": "pharmacy", "name": "Ekin Eczanesi", "phone": "+90 232 487 5887"}}, {"type": "node", "id": 11428070270, "lat": 38.3815926, "lon": 27.1762234, "tags": {"amenity": "pharmacy", "name": "Millet Eczanesi", "phone": "+90 232 442 0447"}}, {"type": "node", "id": 11430493869, "lat": 38.3816494, "lon": 27.172853, "tags": {"amenity": "pharmacy", "name": "Buca Tunal\u0131 Eczanesi", "phone": "+90 232 482 2878"}}, {"type": "node", "id": 11430493969, "lat": 38.3816609, "lon": 27.1711389, "tags": {"amenity": "pharmacy", "name": "K\u0131smet Eczanesi", "phone": "+90 232 440 8688"}}, {"type": "node", "id": 11430494069, "lat": 38.3817693, "lon": 27.1740792, "tags": {"amenity": "pharmacy", "name": "Buca Park Eczanesi", "phone": "+90 232 442 6088"}}, {"type": "node", "id": 11430494070, "lat": 38.382903, "lon": 27.1729323, "tags": {"amenity": "pharmacy", "name": "Handan Eczanesi", "phone": "+90 232 440 5636"}}, {"type": "node", "id": 11430494169, "lat": 38.3793309, "lon": 27.1702775, "tags": {"amenity": "pharmacy", "name": "Ege I\u015f\u0131k Eczanesi"}}, {"type": "node", "id": 11430494170, "lat": 38.3929851, "lon": 27.180189, "tags": {"addr:housenumber": "173/A", "addr:street": "Gazi Osman Pa\u015fa Caddesi", "amenity": "pharmacy", "healthcare": "pharmacy", "name": "Topra\u011f\u0131n Eczanesi", "phone": "+90 232 420 2821"}}, {"type": "node", "id": 11436601269, "lat": 38.4102216, "lon": 27.1593448, "tags": {"amenity": "pharmacy", "healthcare": "pharmacy", "name": "K\u0131van\u00e7 Eczanesi", "phone": "+90 232 459 7372"}}, {"type": "node", "id": 11436601270, "lat": 38.4191051, "lon": 27.1597825, "tags": {"amenity": "pharmacy", "healthcare": "pharmacy", "name": "Yeni Kartal Eczanesi", "phone": "+90 232 457 0040"}}, {"type": "node", "id": 11436601271, "lat": 38.4220801, "lon": 27.1543623, "tags": {"amenity": "pharmacy", "healthcare": "pharmacy", "name": "Do\u011fa Eczanesi", "phone": "+90 232 469 8585"}}, {"type": "node", "id": 11436601272, "lat": 38.4226289, "lon": 27.140339, "tags": {"amenity": "pharmacy", "healthcare": "pharmacy", "name": "Yeni Serter Eczanesi", "phone": "+90 232 489 8443"}}, {"type": "node", "id": 11436601273, "lat": 38.4298837, "lon": 27.1366593, "tags": {"amenity": "pharmacy", "healthcare": "pharmacy", "name": "Simya Eczanesi", "phone": "+90 232 343 3000"}}, {"type": "node", "id": 11436601369, "lat": 38.4125058, "lon": 27.1663807, "tags": {"amenity": "pharmacy", "healthcare": "pharmacy", "name": "Ferahl\u0131 Eczanesi", "phone": "+90 232 433 2764"}}, {"type": "node", "id": 11436601370, "lat": 38.4193611, "lon": 27.1663575, "tags": {"amenity": "pharmacy", "healthcare": "pharmacy", "name": "Bakiler Eczanesi", "phone": "+90 232 433 9090"}}, {"type": "node", "id": 11436601371, "lat": 38.4187374, "lon": 27.1578833, "tags": {"amenity": "pharmacy", "healthcare": "pharmacy", "name": "Yeni \u00dclk\u00fc Eczanesi"}}, {"type": "node", "id": 11436601372, "lat": 38.4190922, "lon": 27.1566868, "tags": {"amenity": "pharmacy", "healthcare": "pharmacy", "name": "K\u00fc\u00e7\u00fck Ozan Eczanesi", "phone": "+90 232 433 5249"}}, {"type": "node", "id": 11436601373, "lat": 38.4218924, "lon": 27.1517793, "tags": {"amenity": "pharmacy", "healthcare": "pharmacy", "name": "Aziziye Eczanesi", "phone": "+90 232 445 8010"}}, {"type": "node", "id": 11436601374, "lat": 38.4223885, "lon": 27.1473443, "tags": {"amenity": "pharmacy", "healthcare": "pharmacy", "name": "Ozan \u00d6zcan Eczanesi", "phone": "+90 232 483 7664"}}, {"type": "node", "id": 11436601375, "lat": 38.4183355, "lon": 27.1408592, "tags": {"amenity": "pharmacy", "healthcare": "pharmacy", "name": "Agora Eczanesi", "phone": "+90 232 425 0590"}}, {"type": "node", "id": 11436601376, "lat": 38.4183418, "lon": 27.1406178, "tags": {"amenity": "pharmacy", "healthcare": "pharmacy", "name": "Dolu Eczanesi", "phone": "+90 232 489 0092"}}, {"type": "node", "id": 11436601377, "lat": 38.42233, "lon": 27.1422327, "tags": {"amenity": "pharmacy", "healthcare": "pharmacy", "name": "Merkez Eczanesi", "phone": "+90 232 483 2467"}}, {"type": "node", "id": 11436601378, "lat": 38.4224232, "lon": 27.1399225, "tags": {"amenity": "pharmacy", "healthcare": "pharmacy", "name": "Ey\u00fcp Sabri Eczanesi", "phone": "+90 232 441 1612"}}, {"type": "node", "id": 11436601379, "lat": 38.4238511, "lon": 27.1392514, "tags": {"amenity": "pharmacy", "healthcare": "pharmacy", "name": "A\u015f\u0131ko\u011flu Eczanesi", "phone": "+90 232 483 7963"}}, {"type": "node", "id": 11436601380, "lat": 38.423238, "lon": 27.1375033, "tags": {"amenity": "pharmacy", "healthcare": "pharmacy", "name": "Marmara Eczanesi", "phone": "+90 232 483 2510"}}, {"type": "node", "id": 11436601381, "lat": 38.4210231, "lon": 27.1369508, "tags": {"amenity": "pharmacy", "healthcare": "pharmacy", "name": "Elif Eczanesi", "phone": "+90 232 484 5283"}}, {"type": "node", "id": 11436601382, "lat": 38.4223502, "lon": 27.1321954, "tags": {"amenity": "pharmacy", "healthcare": "pharmacy", "name": "Gamze Eczanesi", "phone": "+90 232 441 4636"}}, {"type": "node", "id": 11436601383, "lat": 38.4256518, "lon": 27.133628, "tags": {"amenity": "pharmacy", "healthcare": "pharmacy", "name": "Derin Deniz Eczanesi", "phone": "+90 232 445 2575"}}, {"type": "node", "id": 11436601384, "lat": 38.4270967, "lon": 27.1338217, "tags": {"amenity": "pharmacy", "healthcare": "pharmacy", "name": "Elif \u00d6yk\u00fc Eczanesi", "phone": "+90 232 484 1956"}}, {"type": "node", "id": 11436601469, "lat": 38.4086716, "lon": 27.1725683, "tags": {"amenity": "pharmacy", "name": "\u015een Eczanesi", "phone": "+90 232 433 3352"}}, {"type": "node", "id": 11436601470, "lat": 38.4164531, "lon": 27.1574824, "tags": {"amenity": "pharmacy", "healthcare": "pharmacy", "name": "Yenido\u011fan Eczanesi", "phone": "+90 232 999 6517"}}, {"type": "node", "id": 11436601471, "lat": 38.4279951, "lon": 27.1400137, "tags": {"amenity": "pharmacy", "healthcare": "pharmacy", "name": "Fak\u00fclte Eczanesi", "phone": "+90 232 484 6992"}}, {"type": "node", "id": 11436603469, "lat": 38.4088164, "lon": 27.1725776, "tags": {"amenity": "pharmacy", "name": "\u00d6zoru\u00e7 Eczanesi", "phone": "+90 232 458 0455"}}, {"type": "node", "id": 11436603470, "lat": 38.4146449, "lon": 27.1736472, "tags": {"amenity": "pharmacy", "name": "Ezgi Deniz Eczanesi", "phone": "+90 232 459 7954"}}, {"type": "node", "id": 11436603471, "lat": 38.4147793, "lon": 27.1736568, "tags": {"amenity": "pharmacy", "name": "Do\u011fang\u00fcn Eczanesi", "phone": "+90 232 457 2550"}}, {"type": "node", "id": 11436603472, "lat": 38.4207332, "lon": 27.1647743, "tags": {"amenity": "pharmacy", "healthcare": "pharmacy", "name": "Se\u00e7enek Eczanesi", "phone": "+90 532 285 9583"}}, {"type": "node", "id": 11436603473, "lat": 38.4220109, "lon": 27.1488328, "tags": {"amenity": "pharmacy", "healthcare": "pharmacy", "name": "Halk Eczanesi", "phone": "+90 232 484 9144"}}, {"type": "node", "id": 11436603474, "lat": 38.4177332, "lon": 27.1475008, "tags": {"amenity": "pharmacy", "healthcare": "pharmacy", "name": "G\u00fcnat Eczanesi", "phone": "+90 232 482 0234"}}, {"type": "node", "id": 11436603475, "lat": 38.4205088, "lon": 27.1419828, "tags": {"amenity": "pharmacy", "healthcare": "pharmacy", "name": "Yeni D\u00f6nerta\u015f Eczanesi", "phone": "+90 232 484 2448"}}, {"type": "node", "id": 11436603476, "lat": 38.4226452, "lon": 27.1418257, "tags": {"amenity": "pharmacy", "healthcare": "pharmacy", "name": "Aktu\u011f Eczanesi", "phone": "+90 232 489 9969"}}, {"type": "node", "id": 11436603477, "lat": 38.4227679, "lon": 27.1374387, "tags": {"amenity": "pharmacy", "healthcare": "pharmacy", "name": "Beyaz Eczanesi", "phone": "+90 232 484 7247"}}, {"type": "node", "id": 11436603478, "lat": 38.4240585, "lon": 27.1361094, "tags": {"amenity": "pharmacy", "healthcare": "pharmacy", "name": "\u00d6zg\u00fcr Eczanesi", "phone": "+90 232 484 3355"}}, {"type": "node", "id": 11436603479, "lat": 38.4226281, "lon": 27.1333639, "tags": {"amenity": "pharmacy", "healthcare": "pharmacy", "name": "Yeni\u015fehir Eczanesi", "phone": "+90 232 482 1284"}}, {"type": "node", "id": 11436603480, "lat": 38.4223396, "lon": 27.1315937, "tags": {"amenity": "pharmacy", "healthcare": "pharmacy", "name": "G\u00f6zdem Eczanesi", "phone": "+90 232 445 4386"}}, {"type": "node", "id": 11436603569, "lat": 38.4148154, "lon": 27.173929, "tags": {"amenity": "pharmacy", "name": "G\u00fcltepe Renkli Eczanesi", "phone": "+90 232 457 5774"}}, {"type": "node", "id": 11436603570, "lat": 38.4160928, "lon": 27.1730632, "tags": {"amenity": "pharmacy", "name": "\u00c7arem Eczanesi", "phone": "+90 232 457 0750"}}, {"type": "node", "id": 11436603571, "lat": 38.4195434, "lon": 27.1670401, "tags": {"amenity": "pharmacy", "healthcare": "pharmacy", "name": "Yeni Zeytinlik Eczanesi", "phone": "+90 232 433 0707"}}, {"type": "node", "id": 11436603572, "lat": 38.4192246, "lon": 27.1614426, "tags": {"amenity": "pharmacy", "healthcare": "pharmacy", "name": "Yeni Budak Eczanesi", "phone": "+90 232 433 6975"}}, {"type": "node", "id": 11436603669, "lat": 38.4207104, "lon": 27.1437771, "tags": {"amenity": "pharmacy", "healthcare": "pharmacy", "name": "Yeni Park Eczanesi", "phone": "+90 232 482 2834"}}, {"type": "node", "id": 11436603769, "lat": 38.4224212, "lon": 27.1401274, "tags": {"amenity": "pharmacy", "healthcare": "pharmacy", "name": "Belen Eczanesi", "phone": "+90 232 441 7356"}}, {"type": "node", "id": 11451662772, "lat": 38.4562718, "lon": 27.1821729, "tags": {"amenity": "pharmacy", "healthcare": "pharmacy", "name": "Bornova Ceren Eczanesi", "phone": "+90 232 348 4221"}}, {"type": "node", "id": 11451662773, "lat": 38.4477093, "lon": 27.1789847, "tags": {"amenity": "pharmacy", "healthcare": "pharmacy", "name": "Defne Eczanesi", "phone": "+90 232 290 9010"}}, {"type": "node", "id": 11451662774, "lat": 38.4455704, "lon": 27.181314, "tags": {"amenity": "pharmacy", "healthcare": "pharmacy", "name": "Protein Eczanesi", "phone": "+90 232 461 6538"}}, {"type": "node", "id": 11451662775, "lat": 38.4396121, "lon": 27.1805243, "tags": {"amenity": "pharmacy", "healthcare": "pharmacy", "name": "Kurtulu\u015f Eczanesi", "phone": "+90 232 465 1262"}}, {"type": "node", "id": 11451662776, "lat": 38.4375343, "lon": 27.1741747, "tags": {"addr:street": "2812. Sokak", "amenity": "pharmacy", "healthcare": "pharmacy", "name": "Cihangir Eczanesi", "phone": "+90 232 462 7914"}}, {"type": "node", "id": 11451662777, "lat": 38.4330444, "lon": 27.1906742, "tags": {"amenity": "pharmacy", "name": "Kartal Eczanesi", "phone": "+90 232 461 9047"}}, {"type": "node", "id": 11451662870, "lat": 38.4512603, "lon": 27.1865114, "tags": {"amenity": "pharmacy", "healthcare": "pharmacy", "name": "Bayrakl\u0131 Plaza Eczanesi", "phone": "+90 232 502 9581"}}, {"type": "node", "id": 11451662871, "lat": 38.4552688, "lon": 27.1787688, "tags": {"amenity": "pharmacy", "healthcare": "pharmacy", "name": "Atalay Eczanesi", "phone": "+90 232 462 7226"}}, {"type": "node", "id": 11451662872, "lat": 38.4355962, "lon": 27.195195, "tags": {"amenity": "pharmacy", "name": "\u0130zmirim Eczanesi", "phone": "+90 232 467 4403"}}, {"type": "node", "id": 11451662970, "lat": 38.4534462, "lon": 27.1826731, "tags": {"amenity": "pharmacy", "healthcare": "pharmacy", "name": "Ta\u00e7 Eczanesi", "phone": "+90 232 435 8584"}}, {"type": "node", "id": 11451662971, "lat": 38.451543, "lon": 27.180352, "tags": {"amenity": "pharmacy", "healthcare": "pharmacy", "name": "Do\u011fa Eczanesi", "phone": "+90 232 290 2005"}}, {"type": "node", "id": 11451662972, "lat": 38.4375885, "lon": 27.1915636, "tags": {"amenity": "pharmacy", "name": "Kandemir Eczanesi", "phone": "+90 232 461 2711"}}, {"type": "node", "id": 11451662973, "lat": 38.4368129, "lon": 27.1936811, "tags": {"amenity": "pharmacy", "name": "Banu Eczanesi", "phone": "+90 232 435 0701"}}, {"type": "node", "id": 11451662974, "lat": 38.4337326, "lon": 27.1910953, "tags": {"amenity": "pharmacy", "name": "T\u00fclay Eczanesi", "phone": "+90 232 461 9514"}}, {"type": "node", "id": 11451662975, "lat": 38.4327291, "lon": 27.1892932, "tags": {"amenity": "pharmacy", "name": "Yeni Tuncay Eczanesi", "phone": "+90 232 435 6177"}}, {"type": "node", "id": 11451664369, "lat": 38.4527263, "lon": 27.1882655, "tags": {"amenity": "pharmacy", "healthcare": "pharmacy", "name": "Hekimo\u011flu Eczanesi", "phone": "+90 232 999 1808"}}, {"type": "node", "id": 11451664370, "lat": 38.4542154, "lon": 27.1877383, "tags": {"amenity": "pharmacy", "healthcare": "pharmacy", "name": "Sefa Eczanesi", "phone": "+90 232 999 2824"}}, {"type": "node", "id": 11451664371, "lat": 38.4588371, "lon": 27.1822241, "tags": {"amenity": "pharmacy", "healthcare": "pharmacy", "name": "Yeni Ba\u015far Eczanesi", "phone": "+90 232 348 5151"}}, {"type": "node", "id": 11451664372, "lat": 38.4536117, "lon": 27.1830715, "tags": {"amenity": "pharmacy", "healthcare": "pharmacy", "name": "Botanik Eczanesi", "phone": "+90 232 502 6000"}}, {"type": "node", "id": 11451664373, "lat": 38.4535847, "lon": 27.1826154, "tags": {"amenity": "pharmacy", "healthcare": "pharmacy", "name": "\u00c7ak\u0131ro\u011flu Eczanesi", "phone": "+90 232 435 0283"}}, {"type": "node", "id": 11451664374, "lat": 38.4537135, "lon": 27.1825366, "tags": {"amenity": "pharmacy", "healthcare": "pharmacy", "name": "\u015eirin Eczanesi", "phone": "+90 232 486 1727"}}, {"type": "node", "id": 11451664375, "lat": 38.4575445, "lon": 27.177122, "tags": {"amenity": "pharmacy", "healthcare": "pharmacy", "name": "Yeni Atalay Eczanesi", "phone": "+90 232 341 7788"}}, {"type": "node", "id": 11451664376, "lat": 38.4543955, "lon": 27.1761885, "tags": {"amenity": "pharmacy", "check_date": "2024-05-17", "healthcare": "pharmacy", "name": "Ufuk Eczanesi", "phone": "+90 232 502 0488"}}, {"type": "node", "id": 11451664377, "lat": 38.4527158, "lon": 27.1784951, "tags": {"amenity": "pharmacy", "healthcare": "pharmacy", "name": "Erkut Eczanesi", "phone": "+90 232 462 4862"}}, {"type": "node", "id": 11451664378, "lat": 38.4465115, "lon": 27.1867449, "tags": {"amenity": "pharmacy", "healthcare": "pharmacy", "name": "Mineral Eczanesi", "phone": "+90 232 504 0931"}}, {"type": "node", "id": 11451664379, "lat": 38.4428041, "lon": 27.1827866, "tags": {"amenity": "pharmacy", "healthcare": "pharmacy", "name": "Tezay Eczanesi", "phone": "+90 232 462 8236"}}, {"type": "node", "id": 11451664380, "lat": 38.4396244, "lon": 27.1893625, "tags": {"amenity": "pharmacy", "name": "Eyigele Eczanesi", "phone": "+90 232 435 0891"}}, {"type": "node", "id": 11451664381, "lat": 38.4378552, "lon": 27.1802227, "tags": {"amenity": "pharmacy", "healthcare": "pharmacy", "name": "Melis Eczanesi", "phone": "+90 232 486 2344"}}, {"type": "node", "id": 11451664382, "lat": 38.4354962, "lon": 27.1819044, "tags": {"amenity": "pharmacy", "healthcare": "pharmacy", "name": "Uygar Eczanesi", "phone": "+90 232 520 2898"}}, {"type": "node", "id": 11451664383, "lat": 38.434811, "lon": 27.181092, "tags": {"amenity": "pharmacy", "healthcare": "pharmacy", "name": "Samanyolu Eczanesi", "phone": "+90 232 462 4971"}}, {"type": "node", "id": 11451664384, "lat": 38.4374377, "lon": 27.1889705, "tags": {"addr:housenumber": "106", "addr:street": "Burak Reis Caddesi", "amenity": "pharmacy", "healthcare": "pharmacy", "name": "Nil\u00fcfer Ece Eczanesi", "phone": "+90 232 435 1122"}}, {"type": "node", "id": 11451664385, "lat": 38.4359118, "lon": 27.1877186, "tags": {"amenity": "pharmacy", "healthcare": "pharmacy", "name": "\u00c7amdibi Sa\u011fl\u0131k Eczanesi", "phone": "+90 232 376 0904"}}, {"type": "node", "id": 11451664386, "lat": 38.4373755, "lon": 27.1933955, "tags": {"amenity": "pharmacy", "name": "Yal\u00e7\u0131n Eczanesi", "phone": "+90 232 486 8010"}}, {"type": "node", "id": 11451664387, "lat": 38.4370561, "lon": 27.1936655, "tags": {"amenity": "pharmacy", "name": "G\u00fcng\u00f6r Eczanesi", "phone": "+90 232 461 2616"}}, {"type": "node", "id": 11451664388, "lat": 38.4346119, "lon": 27.1924505, "tags": {"amenity": "pharmacy", "name": "G\u00fcrsoy Eczanesi", "phone": "+90 232 435 5705"}}, {"type": "node", "id": 11451664389, "lat": 38.4335399, "lon": 27.1920689, "tags": {"amenity": "pharmacy", "name": "Ye\u015filova Eczanesi", "phone": "+90 232 461 7474"}}, {"type": "node", "id": 11451664390, "lat": 38.4335103, "lon": 27.1916646, "tags": {"amenity": "pharmacy", "name": "\u00c7amdibi Eczanesi", "phone": "+90 232 462 4041"}}, {"type": "node", "id": 11451664391, "lat": 38.4328781, "lon": 27.1906165, "tags": {"amenity": "pharmacy", "name": "Tuna Eczanesi", "phone": "+90 232 462 6281"}}, {"type": "node", "id": 11451664469, "lat": 38.4552909, "lon": 27.1836569, "tags": {"amenity": "pharmacy", "healthcare": "pharmacy", "name": "\u00d6nem Eczanesi", "phone": "+90 232 347 0939"}}, {"type": "node", "id": 11451664669, "lat": 38.4586628, "lon": 27.175793, "tags": {"amenity": "pharmacy", "healthcare": "pharmacy", "name": "Tan Eczanesi", "phone": "+90 232 371 1819"}}, {"type": "node", "id": 11451664670, "lat": 38.4406752, "lon": 27.1804287, "tags": {"amenity": "pharmacy", "healthcare": "pharmacy", "name": "Fatih Eczanesi", "phone": "+90 232 504 9303"}}, {"type": "node", "id": 11451664671, "lat": 38.435122, "lon": 27.181079, "tags": {"amenity": "pharmacy", "healthcare": "pharmacy", "name": "El\u00e7in Eczanesi", "phone": "+90 232 486 3566"}}, {"type": "node", "id": 11451664672, "lat": 38.4353647, "lon": 27.18785, "tags": {"amenity": "pharmacy", "name": "Bornova Canan Eczanesi", "phone": "+90 232 351 1313"}}, {"type": "node", "id": 11451664673, "lat": 38.4371431, "lon": 27.1937417, "tags": {"amenity": "pharmacy", "name": "Adalar Eczanesi", "phone": "+90 232 461 9290"}}, {"type": "node", "id": 11455791271, "lat": 38.4755257, "lon": 27.1584667, "tags": {"amenity": "pharmacy", "name": "Gizem Eczanesi", "phone": "+90 232 345 4550"}}, {"type": "node", "id": 11455791272, "lat": 38.4713035, "lon": 27.1366973, "tags": {"amenity": "pharmacy", "name": "Z\u00fclkadir Eczanesi", "phone": "+90 232 367 4099"}}, {"type": "node", "id": 11455791273, "lat": 38.4696278, "lon": 27.1295784, "tags": {"amenity": "pharmacy", "name": "Merve Polat Eczanesi", "phone": "+90 545 233 7563"}}, {"type": "node", "id": 11455791274, "lat": 38.4742468, "lon": 27.1283106, "tags": {"amenity": "pharmacy", "name": "\u00d6zer Eczanesi", "phone": "+90 232 366 7326"}}, {"type": "node", "id": 11455791275, "lat": 38.4781067, "lon": 27.1289443, "tags": {"amenity": "pharmacy", "name": "\u0130kbal Eczanesi", "phone": "+90 232 365 7961"}}, {"type": "node", "id": 11455791276, "lat": 38.484071, "lon": 27.1340226, "tags": {"amenity": "pharmacy", "name": "Yeni Ceren Eczanesi", "phone": "+90 232 363 0006"}}, {"type": "node", "id": 11455791277, "lat": 38.4842383, "lon": 27.1332101, "tags": {"amenity": "pharmacy", "name": "Onur Eczanesi", "phone": "+90 232 363 4888"}}, {"type": "node", "id": 11455791278, "lat": 38.4842942, "lon": 27.1330621, "tags": {"amenity": "pharmacy", "name": "Rey Eczanesi", "phone": "+90 232 363 6464"}}, {"type": "node", "id": 11455791279, "lat": 38.4794756, "lon": 27.1193252, "tags": {"amenity": "pharmacy", "name": "Ya\u015faro\u011flu Eczanesi", "phone": "+90 232 363 3904"}}, {"type": "node", "id": 11455791280, "lat": 38.4706785, "lon": 27.113388, "tags": {"amenity": "pharmacy", "name": "Nil Eczanesi", "phone": "+90 232 367 6969"}}, {"type": "node", "id": 11455791281, "lat": 38.4681849, "lon": 27.1158603, "tags": {"amenity": "pharmacy", "name": "Beyza Eczanesi", "phone": "+90 232 461 6148"}}, {"type": "node", "id": 11455791282, "lat": 38.4665358, "lon": 27.1192487, "tags": {"amenity": "pharmacy", "healthcare": "pharmacy", "name": "\u00d6zg\u00fcn Eczanesi", "phone": "+90 232 383 0400"}}, {"type": "node", "id": 11455796369, "lat": 38.4907846, "lon": 27.1325445, "tags": {"amenity": "pharmacy", "healthcare": "pharmacy", "name": "Ege K\u00f6rfez Eczanesi", "phone": "+90 232 290 9490"}}, {"type": "node", "id": 11455796370, "lat": 38.4763019, "lon": 27.1585113, "tags": {"amenity": "pharmacy", "name": "Zirve Eczanesi", "phone": "+90 232 345 6252"}}, {"type": "node", "id": 11455796371, "lat": 38.4787762, "lon": 27.1188314, "tags": {"amenity": "pharmacy", "name": "Yeni Girne Eczanesi", "phone": "+90 232 363 1621"}}, {"type": "node", "id": 11455796372, "lat": 38.4788065, "lon": 27.1186785, "tags": {"amenity": "pharmacy", "name": "Canan A\u00e7\u0131k Eczanesi", "phone": "+90 232 363 0065"}}, {"type": "node", "id": 11455796373, "lat": 38.4743527, "lon": 27.1123257, "tags": {"amenity": "pharmacy", "name": "Ku\u015fdemir Eczanesi", "phone": "+90 232 504 4616"}}, {"type": "node", "id": 11455796374, "lat": 38.4737694, "lon": 27.1111164, "tags": {"amenity": "pharmacy", "name": "Mercan Eczanesi", "phone": "+90 232 366 3819"}}, {"type": "node", "id": 11455796375, "lat": 38.4731769, "lon": 27.1131557, "tags": {"amenity": "pharmacy", "name": "\u00d6rnekk\u00f6y Eczanesi", "phone": "+90 232 365 2106"}}, {"type": "node", "id": 11455796469, "lat": 38.4778711, "lon": 27.1408542, "tags": {"amenity": "pharmacy", "name": "An\u0131t Eczanesi", "phone": "+90 232 363 1445"}}, {"type": "node", "id": 11455796470, "lat": 38.4768132, "lon": 27.1403934, "tags": {"amenity": "pharmacy", "name": "\u00d6zadar Eczanesi", "phone": "+90 232 363 4727"}}, {"type": "node", "id": 11455796471, "lat": 38.4702695, "lon": 27.1296093, "tags": {"amenity": "pharmacy", "name": "G\u00fcm\u00fc\u015fpala Eczanesi"}}, {"type": "node", "id": 11455796472, "lat": 38.4704701, "lon": 27.1296945, "tags": {"amenity": "pharmacy", "name": "Ba\u011fdato\u011flu Eczanesi", "phone": "+90 232 367 1940"}}, {"type": "node", "id": 11455796473, "lat": 38.4738989, "lon": 27.1277916, "tags": {"amenity": "pharmacy", "name": "S\u0131la Eczanesi", "phone": "+90 232 366 7476"}}, {"type": "node", "id": 11455796474, "lat": 38.4779948, "lon": 27.128881, "tags": {"amenity": "pharmacy", "name": "Sibel Eczanesi", "phone": "+90 232 366 0105"}}, {"type": "node", "id": 11455796475, "lat": 38.4796254, "lon": 27.1300585, "tags": {"amenity": "pharmacy", "name": "K\u0131z\u0131l Eczanesi", "phone": "+90 232 367 0001"}}, {"type": "node", "id": 11455796476, "lat": 38.4831419, "lon": 27.124133, "tags": {"amenity": "pharmacy", "name": "Ada Eczanesi", "phone": "+90 232 363 2484"}}, {"type": "node", "id": 11455796477, "lat": 38.4794375, "lon": 27.1190396, "tags": {"amenity": "pharmacy", "name": "K\u00fcbra Eczanesi", "phone": "+90 232 363 6793"}}, {"type": "node", "id": 11455796478, "lat": 38.4789801, "lon": 27.1187976, "tags": {"amenity": "pharmacy", "name": "Merve Eczanesi", "phone": "+90 232 363 6833"}}, {"type": "node", "id": 11455796569, "lat": 38.4730837, "lon": 27.1387249, "tags": {"amenity": "pharmacy", "name": "Kafkas Eczanesi", "phone": "+90 232 367 4367"}}, {"type": "node", "id": 11455796570, "lat": 38.4693226, "lon": 27.136622, "tags": {"amenity": "pharmacy", "name": "\u015eark Eczanesi", "phone": "+90 232 365 1239"}}, {"type": "node", "id": 11455796571, "lat": 38.4689484, "lon": 27.1148148, "tags": {"amenity": "pharmacy", "name": "Zafer Eczanesi", "phone": "+90 232 382 4549"}}, {"type": "node", "id": 11455796669, "lat": 38.4730205, "lon": 27.1385455, "tags": {"amenity": "pharmacy", "name": "Ko\u00e7 Eczanesi", "phone": "+90 232 365 5494"}}, {"type": "node", "id": 11455796769, "lat": 38.4751116, "lon": 27.1128965, "tags": {"amenity": "pharmacy", "healthcare": "pharmacy", "name": "Oksijen Eczanesi", "phone": "+90 232 366 3565"}}, {"type": "node", "id": 11455796770, "lat": 38.4731849, "lon": 27.1117485, "tags": {"amenity": "pharmacy", "name": "Park Eczanesi", "phone": "+90 232 367 2424"}}, {"type": "node", "id": 11455796869, "lat": 38.4731063, "lon": 27.1134144, "tags": {"amenity": "pharmacy", "name": "Akademi Eczanesi", "phone": "+90 232 502 1234"}}, {"type": "node", "id": 11455796969, "lat": 38.4731436, "lon": 27.1132408, "tags": {"amenity": "pharmacy", "name": "Do\u011fa Eczanesi", "phone": "+90 232 290 0866"}}, {"type": "node", "id": 11455797069, "lat": 38.4732236, "lon": 27.1130497, "tags": {"amenity": "pharmacy", "name": "Medig\u00fcl Eczanesi", "phone": "+90 232 343 4294"}}, {"type": "node", "id": 11459030569, "lat": 38.5109403, "lon": 27.0415903, "tags": {"amenity": "pharmacy", "healthcare": "pharmacy", "name": "Elif Eczanesi", "phone": "+90 542 781 8707"}}, {"type": "node", "id": 11459033669, "lat": 38.5131905, "lon": 27.0391049, "tags": {"amenity": "pharmacy", "healthcare": "pharmacy", "name": "Flora Eczanesi", "phone": "+90 533 948 4002"}}, {"type": "node", "id": 11459051669, "lat": 38.5230241, "lon": 27.0438852, "tags": {"amenity": "pharmacy", "healthcare": "pharmacy", "name": "Duru Su Eczanesi", "phone": "+90 232 839 0004"}}, {"type": "node", "id": 11459051670, "lat": 38.4991077, "lon": 27.0528866, "tags": {"amenity": "pharmacy", "healthcare": "pharmacy", "name": "Canan Eczanesi", "phone": "+90 505 021 0940"}}, {"type": "node", "id": 11459051671, "lat": 38.4970851, "lon": 27.0615877, "tags": {"amenity": "pharmacy", "healthcare": "pharmacy", "name": "Soyder Eczanesi", "phone": "+90 232 386 4099"}}, {"type": "node", "id": 11459051769, "lat": 38.5227057, "lon": 27.0433482, "tags": {"amenity": "pharmacy", "healthcare": "pharmacy", "name": "Beg\u00fcm Eczanesi", "phone": "+90 232 839 2233"}}, {"type": "node", "id": 11459051770, "lat": 38.4946243, "lon": 27.063136, "tags": {"amenity": "pharmacy", "healthcare": "pharmacy", "name": "Hikmet Eczanesi", "phone": "+90 232 329 3185"}}, {"type": "node", "id": 11459051771, "lat": 38.489522, "lon": 27.0627675, "tags": {"addr:housenumber": "14/A", "addr:street": "Atat\u00fcrk Caddesi", "amenity": "pharmacy", "healthcare": "pharmacy", "name": "Bulvar Eczanesi", "phone": "+90 232 329 7727"}}, {"type": "node", "id": 11459051869, "lat": 38.5011075, "lon": 27.0541834, "tags": {"amenity": "pharmacy", "name": "K\u00fc\u00e7\u00fck\u00e7i\u011fli Eczanesi", "phone": "+90 232 329 1020"}}, {"type": "node", "id": 11549455775, "lat": 38.4601598, "lon": 27.2129102, "tags": {"addr:postcode": "35100", "amenity": "pharmacy", "healthcare": "pharmacy", "name": "K\u00fc\u00e7\u00fckpark Eczanesi", "phone": "+90 232 343 6352"}}, {"type": "node", "id": 11572661668, "lat": 38.4753017, "lon": 27.1011643, "tags": {"amenity": "pharmacy", "name": "Kale Eczanesi"}}, {"type": "node", "id": 11601292121, "lat": 38.459997, "lon": 27.1961607, "tags": {"addr:postcode": "35535", "amenity": "pharmacy", "name": "Belma Eczanesi", "phone": "+90 232 339 6833"}}, {"type": "node", "id": 11607795477, "lat": 38.7317821, "lon": 27.3611971, "tags": {"amenity": "pharmacy", "name": "K\u0131\u015flal\u0131 Eczanesi", "phone": "+90 236 211 0206"}}, {"type": "node", "id": 11624018853, "lat": 38.3363878, "lon": 27.1348951, "tags": {"amenity": "pharmacy", "brand": "Watsons", "brand:wikidata": "Q7974785", "healthcare": "pharmacy", "name": "Watsons"}}, {"type": "node", "id": 11695830873, "lat": 38.3961316, "lon": 27.1758726, "tags": {"amenity": "pharmacy", "healthcare": "pharmacy", "name": "Eczane Yeni Handan", "phone": "02324400205"}}, {"type": "node", "id": 11699797878, "lat": 38.3883818, "lon": 27.1751648, "tags": {"amenity": "pharmacy", "healthcare": "pharmacy", "name": "Nil\u00fcfer Eczanesi", "phone": "02324421440"}}, {"type": "node", "id": 11809078670, "lat": 38.4744379, "lon": 27.1856975, "tags": {"amenity": "pharmacy", "name": "Atacan Eczanesi", "phone": "+90 232 346 0090"}}, {"type": "node", "id": 11809078671, "lat": 38.4714613, "lon": 27.1875274, "tags": {"amenity": "pharmacy", "name": "\u00d6zepik Eczanesi", "phone": "+90 232 371 3756"}}, {"type": "node", "id": 11809078672, "lat": 38.4665219, "lon": 27.1860254, "tags": {"amenity": "pharmacy", "name": "\u0130lknur Co\u015fkun Eczanesi", "phone": "+90 232 347 0303"}}, {"type": "node", "id": 11809078673, "lat": 38.4616308, "lon": 27.1911231, "tags": {"amenity": "pharmacy", "healthcare": "pharmacy", "name": "T\u00fcl\u00fcn Eczanesi", "phone": "+90 232 343 5012"}}, {"type": "node", "id": 11809081970, "lat": 38.4807526, "lon": 27.1808718, "tags": {"amenity": "pharmacy", "name": "\u015eehir Eczanesi", "phone": "+90 232 502 7833"}}, {"type": "node", "id": 11809081971, "lat": 38.4760165, "lon": 27.1811259, "tags": {"amenity": "pharmacy", "name": "Faik Eczanesi", "phone": "+90 232 371 1525"}}, {"type": "node", "id": 11809081972, "lat": 38.4644617, "lon": 27.194932, "tags": {"amenity": "pharmacy", "name": "Ege Eczanesi", "phone": "+90 232 966 0001"}}, {"type": "node", "id": 11809124269, "lat": 38.4759025, "lon": 27.1810258, "tags": {"amenity": "pharmacy", "name": "Yeni \u0130lkay Eczanesi", "phone": "+90 232 371 0119"}}, {"type": "node", "id": 11809124369, "lat": 38.4732294, "lon": 27.1858477, "tags": {"amenity": "pharmacy", "name": "Osmangazi Eczanesi", "phone": "+90 232 371 0117"}}, {"type": "node", "id": 11809124370, "lat": 38.4722718, "lon": 27.1877473, "tags": {"amenity": "pharmacy", "name": "Nil\u00fcfer Eczanesi", "phone": "+90 232 371 9876"}}, {"type": "node", "id": 11809124469, "lat": 38.4722922, "lon": 27.1860536, "tags": {"amenity": "pharmacy", "name": "Mahur Eczanesi", "phone": "+90 232 341 4441"}}, {"type": "node", "id": 11809124470, "lat": 38.4721419, "lon": 27.1876824, "tags": {"amenity": "pharmacy", "name": "Mavi Eczanesi", "phone": "+90 232 345 6645"}}, {"type": "node", "id": 11809124471, "lat": 38.4715711, "lon": 27.1875478, "tags": {"amenity": "pharmacy", "name": "Hakan Eczanesi", "phone": "+90 232 375 7868"}}, {"type": "node", "id": 11809124472, "lat": 38.4650971, "lon": 27.1926534, "tags": {"amenity": "pharmacy", "name": "Arda Eczanesi", "phone": "+90 232 344 4008"}}, {"type": "node", "id": 11809124473, "lat": 38.4643982, "lon": 27.1953645, "tags": {"amenity": "pharmacy", "name": "Bornova Se\u00e7il Eczanesi", "phone": "+90 232 342 2820"}}, {"type": "node", "id": 11809124569, "lat": 38.4720391, "lon": 27.1876335, "tags": {"amenity": "pharmacy", "name": "Ordu Eczanesi", "phone": "+90 232 341 8487"}}, {"type": "node", "id": 11809124570, "lat": 38.468415, "lon": 27.1899792, "tags": {"amenity": "pharmacy", "name": "Sardunya Eczanesi", "phone": "+90 232 999 0224"}}, {"type": "node", "id": 11809124571, "lat": 38.4645666, "lon": 27.194906, "tags": {"amenity": "pharmacy", "name": "Yeni Arzum Eczanesi", "phone": "+90 232 999 5929"}}, {"type": "node", "id": 11809124572, "lat": 38.4647019, "lon": 27.1989859, "tags": {"amenity": "pharmacy", "name": "Okyanus Eczanesi", "phone": "+90 232 374 7400"}}, {"type": "node", "id": 11809626471, "lat": 38.4650312, "lon": 27.1793161, "tags": {"amenity": "pharmacy", "name": "Menek\u015fe Eczanesi", "phone": "+90 232 371 3133"}}, {"type": "node", "id": 11809626472, "lat": 38.4629614, "lon": 27.1670601, "tags": {"amenity": "pharmacy", "name": "Mine Eczanesi", "phone": "+90 232 341 0409"}}, {"type": "node", "id": 11809626473, "lat": 38.4645536, "lon": 27.1633444, "tags": {"amenity": "pharmacy", "name": "Ko\u00e7er Eczanesi", "phone": "+90 232 345 8955"}}, {"type": "node", "id": 11809628590, "lat": 38.470392, "lon": 27.1666851, "tags": {"amenity": "pharmacy", "name": "G\u00fcndo\u011fdu Eczanesi", "phone": "+90 232 371 7739"}}, {"type": "node", "id": 11809629277, "lat": 38.4697198, "lon": 27.166624, "tags": {"amenity": "pharmacy", "name": "Murat Eczanesi", "phone": "+90 232 345 2069"}}, {"type": "node", "id": 11809629278, "lat": 38.469899, "lon": 27.1666607, "tags": {"amenity": "pharmacy", "name": "\u00d6zyi\u011fit Eczanesi", "phone": "+90 232 345 7436"}}, {"type": "node", "id": 11809629279, "lat": 38.4700063, "lon": 27.1666711, "tags": {"amenity": "pharmacy", "name": "Ceyhan Eczanesi", "phone": "+90 232 345 4523"}}, {"type": "node", "id": 11809629280, "lat": 38.4701011, "lon": 27.1666963, "tags": {"amenity": "pharmacy", "name": "Bar\u0131\u015f \u015eahin Eczanesi", "phone": "+90 232 345 8485"}}, {"type": "node", "id": 11809640669, "lat": 38.4645885, "lon": 27.1766744, "tags": {"amenity": "pharmacy", "name": "Tepekule Eczanesi", "phone": "+90 232 966 0019"}}, {"type": "node", "id": 11809640670, "lat": 38.4630566, "lon": 27.177489, "tags": {"amenity": "pharmacy", "name": "Tutku Eczanesi", "phone": "+90 232 371 1455"}}, {"type": "node", "id": 11809640671, "lat": 38.4640474, "lon": 27.1660809, "tags": {"amenity": "pharmacy", "name": "Bayrakl\u0131 Eczanesi", "phone": "+90 232 371 7140"}}, {"type": "node", "id": 11809640769, "lat": 38.4647705, "lon": 27.178541, "tags": {"amenity": "pharmacy", "name": "P\u0131nar Eczanesi", "phone": "+90 232 373 4030"}}, {"type": "node", "id": 11809640770, "lat": 38.466342, "lon": 27.1646381, "tags": {"amenity": "pharmacy", "name": "Y\u00fccel Eczanesi", "phone": "+90 232 341 0061"}}, {"type": "node", "id": 11809640869, "lat": 38.4680017, "lon": 27.1797658, "tags": {"amenity": "pharmacy", "name": "\u00d6zg\u00fcl Eczanesi", "phone": "+90 232 341 1500"}}, {"type": "node", "id": 11809640870, "lat": 38.4681611, "lon": 27.1797056, "tags": {"amenity": "pharmacy", "name": "Semiha Pa\u00e7ac\u0131 Eczanesi", "phone": "+90 232 371 1919"}}, {"type": "node", "id": 11809640871, "lat": 38.4683117, "lon": 27.1769581, "tags": {"amenity": "pharmacy", "healthcare": "pharmacy", "name": "Kendirci Eczanesi", "phone": "+90 232 345 4637"}}, {"type": "node", "id": 11809640872, "lat": 38.4684323, "lon": 27.1771072, "tags": {"amenity": "pharmacy", "healthcare": "pharmacy", "name": "Zeytin Eczanesi", "phone": "+90 232 341 9933"}}, {"type": "node", "id": 11809640873, "lat": 38.4701415, "lon": 27.1803619, "tags": {"amenity": "pharmacy", "name": "Karada\u011f Eczanesi", "phone": "+90 232 341 9490"}}, {"type": "node", "id": 11809640874, "lat": 38.4739578, "lon": 27.1745863, "tags": {"amenity": "pharmacy", "name": "Dost Eczanesi", "phone": "+90 232 371 2909"}}, {"type": "node", "id": 11809640875, "lat": 38.4666147, "lon": 27.1646195, "tags": {"amenity": "pharmacy", "name": "Nurhayat Eczanesi", "phone": "+90 232 341 1707"}}, {"type": "node", "id": 11809640969, "lat": 38.4678132, "lon": 27.1771607, "tags": {"amenity": "pharmacy", "name": "Sapmaz Eczanesi", "phone": "+90 232 341 8441"}}, {"type": "node", "id": 11809641069, "lat": 38.467732, "lon": 27.1768132, "tags": {"amenity": "pharmacy", "name": "H\u00fclya Eczanesi", "phone": "+90 232 363 2211"}}, {"type": "node", "id": 11809641169, "lat": 38.4686778, "lon": 27.1758959, "tags": {"amenity": "pharmacy", "name": "Eski\u015fehir Eczanesi", "phone": "+90 232 371 1784"}}, {"type": "node", "id": 11809641170, "lat": 38.4742564, "lon": 27.1748076, "tags": {"amenity": "pharmacy", "name": "Yama\u00e7 Eczanesi", "phone": "+90 232 346 1914"}}, {"type": "node", "id": 11809641171, "lat": 38.4612701, "lon": 27.1664645, "tags": {"amenity": "pharmacy", "name": "G\u00fcvercin Eczanesi", "phone": "+90 232 371 3450"}}, {"type": "node", "id": 11809641269, "lat": 38.4610902, "lon": 27.1666731, "tags": {"amenity": "pharmacy", "name": "Biranci Eczanesi", "phone": "+90 232 346 2379"}}, {"type": "node", "id": 11809641369, "lat": 38.4667346, "lon": 27.1648673, "tags": {"amenity": "pharmacy", "name": "\u0130lkege Eczanesi", "phone": "+90 232 345 8270"}}, {"type": "node", "id": 11811175669, "lat": 38.457752, "lon": 27.0989994, "tags": {"amenity": "pharmacy", "healthcare": "pharmacy", "name": "Barlas Eczanesi", "phone": "+90 232 330 1160"}}, {"type": "node", "id": 11811175670, "lat": 38.4588979, "lon": 27.0985306, "tags": {"amenity": "pharmacy", "healthcare": "pharmacy", "name": "G\u00fcne\u015f Eczanesi", "phone": "+90 232 336 9944"}}, {"type": "node", "id": 11811175869, "lat": 38.4584546, "lon": 27.0981642, "tags": {"amenity": "pharmacy", "healthcare": "pharmacy", "name": "Ata\u015fehir Eczanesi", "phone": "+90 232 330 0412"}}, {"type": "node", "id": 11811175870, "lat": 38.4587629, "lon": 27.0978874, "tags": {"amenity": "pharmacy", "healthcare": "pharmacy", "name": "Bahar Eczanesi", "phone": "+90 232 330 3930"}}, {"type": "node", "id": 11811175871, "lat": 38.4592785, "lon": 27.098043, "tags": {"amenity": "pharmacy", "healthcare": "pharmacy", "name": "Erdem Eczanesi", "phone": "+90 232 336 9020"}}, {"type": "node", "id": 11811175872, "lat": 38.4591297, "lon": 27.0984353, "tags": {"amenity": "pharmacy", "healthcare": "pharmacy", "name": "Kumbasar Eczanesi", "phone": "+90 232 273 8372"}}, {"type": "node", "id": 11811175873, "lat": 38.4590049, "lon": 27.0987214, "tags": {"amenity": "pharmacy", "healthcare": "pharmacy", "name": "Aksen Eczanesi", "phone": "+90 232 336 0119"}}, {"type": "node", "id": 11811175969, "lat": 38.4585516, "lon": 27.097598, "tags": {"amenity": "pharmacy", "healthcare": "pharmacy", "name": "Aysan Eczanesi", "phone": "+90 232 336 5194"}}, {"type": "node", "id": 11811175970, "lat": 38.4592823, "lon": 27.0983471, "tags": {"amenity": "pharmacy", "healthcare": "pharmacy", "name": "Deniz Bostanl\u0131 Eczanesi", "phone": "+90 232 416 2735"}}, {"type": "node", "id": 11811176069, "lat": 38.459387, "lon": 27.0977432, "tags": {"amenity": "pharmacy", "healthcare": "pharmacy", "name": "Damla Eczanesi", "phone": "+90 537 274 2730"}}, {"type": "node", "id": 11811176169, "lat": 38.4590597, "lon": 27.0985813, "tags": {"amenity": "pharmacy", "healthcare": "pharmacy", "name": "Umutlu Eczanesi", "phone": "+90 232 464 7508"}}, {"type": "node", "id": 11812524769, "lat": 38.4585269, "lon": 27.208338, "tags": {"amenity": "pharmacy", "name": "\u0130zmir Eczanesi", "phone": "+90 232 388 3286"}}, {"type": "node", "id": 11812524770, "lat": 38.4587141, "lon": 27.2096548, "tags": {"amenity": "pharmacy", "name": "\u00c7evre Eczanesi", "phone": "+90 232 374 6625"}}, {"type": "node", "id": 11812524771, "lat": 38.4610252, "lon": 27.2128125, "tags": {"amenity": "pharmacy", "healthcare": "pharmacy", "name": "Arzum Eczanesi", "phone": "+90 232 342 1432"}}, {"type": "node", "id": 11812524772, "lat": 38.4641126, "lon": 27.2145237, "tags": {"amenity": "pharmacy", "healthcare": "pharmacy", "name": "Bornova Mavi Eczanesi", "phone": "+90 232 339 8280"}}, {"type": "node", "id": 11812524773, "lat": 38.4652136, "lon": 27.2163505, "tags": {"amenity": "pharmacy", "check_date": "2024-06-25", "healthcare": "pharmacy", "name": "Benlio\u011flu Eczanesi", "phone": "+90 232 342 4557"}}, {"type": "node", "id": 11812524869, "lat": 38.4592792, "lon": 27.2073375, "tags": {"amenity": "pharmacy", "name": "Ba\u015faran Eczanesi", "phone": "+90 232 388 4222"}}, {"type": "node", "id": 11812524870, "lat": 38.4589801, "lon": 27.2087312, "tags": {"amenity": "pharmacy", "name": "G\u00f6k\u00e7eli Eczanesi", "phone": "+90 232 374 1687"}}, {"type": "node", "id": 11812524871, "lat": 38.4585721, "lon": 27.2088682, "tags": {"amenity": "pharmacy", "name": "Yeni Filiz Eczanesi", "phone": "+90 232 388 4834"}}, {"type": "node", "id": 11812524872, "lat": 38.4574551, "lon": 27.2083883, "tags": {"amenity": "pharmacy", "name": "Budak Eczanesi", "phone": "+90 232 339 5092"}}, {"type": "node", "id": 11812524873, "lat": 38.4615782, "lon": 27.2114406, "tags": {"amenity": "pharmacy", "name": "Bornova", "name:tr": "Bornova G\u00fcl Eczanesi", "phone": "+90 232 342 6280"}}, {"type": "node", "id": 11812524969, "lat": 38.4585383, "lon": 27.2087622, "tags": {"amenity": "pharmacy", "name": "Kaftan Eczanesi", "phone": "+90 232 348 0869"}}, {"type": "node", "id": 11812524970, "lat": 38.4575045, "lon": 27.2085301, "tags": {"amenity": "pharmacy", "name": "Bornova Ege Eczanesi", "phone": "+90 232 343 5516"}}, {"type": "node", "id": 11812525069, "lat": 38.4590827, "lon": 27.2098919, "tags": {"amenity": "pharmacy", "name": "Erd\u00f6nmez Eczanesi", "phone": "+90 232 374 2281"}}, {"type": "node", "id": 11812525070, "lat": 38.4587856, "lon": 27.2098409, "tags": {"amenity": "pharmacy", "name": "Ye\u015fil Eczanesi", "phone": "+90 232 388 1895"}}, {"type": "node", "id": 11812525071, "lat": 38.4577655, "lon": 27.2090703, "tags": {"amenity": "pharmacy", "name": "Emin Eczanesi", "phone": "+90 232 373 9631"}}, {"type": "node", "id": 11812525072, "lat": 38.4576345, "lon": 27.2088448, "tags": {"amenity": "pharmacy", "name": "Yeni Abidin Eczanesi", "phone": "+90 232 388 1271"}}, {"type": "node", "id": 11812525073, "lat": 38.4575801, "lon": 27.2086439, "tags": {"amenity": "pharmacy", "name": "\u0130lgisu Eczanesi", "phone": "+90 232 339 0545"}}, {"type": "node", "id": 11812525074, "lat": 38.4609979, "lon": 27.2101682, "tags": {"amenity": "pharmacy", "name": "\u015eeng\u00fcl Eczanesi", "phone": "+90 232 339 8154"}}, {"type": "node", "id": 11812525169, "lat": 38.4588674, "lon": 27.2100613, "tags": {"amenity": "pharmacy", "name": "Akhisar Eczanesi", "phone": "+90 232 339 0011"}}, {"type": "node", "id": 11812525170, "lat": 38.4588683, "lon": 27.2120597, "tags": {"amenity": "pharmacy", "name": "Elif Sa\u011fs\u00f6z Eczanesi", "phone": "+90 232 342 1054"}}, {"type": "node", "id": 11812525269, "lat": 38.4580172, "lon": 27.2095939, "tags": {"amenity": "pharmacy", "name": "\u00dcniversite Eczanesi", "phone": "+90 232 374 1111"}}, {"type": "node", "id": 11812525270, "lat": 38.4578896, "lon": 27.2093307, "tags": {"amenity": "pharmacy", "name": "Yavuz Eczanesi", "phone": "+90 232 388 0864"}}, {"type": "node", "id": 11812525271, "lat": 38.4578568, "lon": 27.209135, "tags": {"amenity": "pharmacy", "name": "Tamirci Eczanesi", "phone": "+90 232 342 0504"}}, {"type": "node", "id": 11813123483, "lat": 38.462585, "lon": 27.2246899, "tags": {"amenity": "pharmacy", "healthcare": "pharmacy", "name": "Cadde Eczanesi", "phone": "+90 232 388 9326"}}, {"type": "node", "id": 11813123484, "lat": 38.4641933, "lon": 27.2246437, "tags": {"amenity": "pharmacy", "healthcare": "pharmacy", "name": "Yeni Hayat Eczanesi", "phone": "+90 232 343 2194"}}, {"type": "node", "id": 11813123582, "lat": 38.4627528, "lon": 27.2184502, "tags": {"amenity": "pharmacy", "name": "U\u011fural Eczanesi", "phone": "+90 232 373 4020"}}, {"type": "node", "id": 11813123583, "lat": 38.4643302, "lon": 27.2237607, "tags": {"amenity": "pharmacy", "healthcare": "pharmacy", "name": "Yeni Ata Eczanesi", "phone": "+90 232 343 4384"}}, {"type": "node", "id": 11813123584, "lat": 38.4648936, "lon": 27.2222487, "tags": {"amenity": "pharmacy", "healthcare": "pharmacy", "name": "Adal\u0131 Eczanesi", "phone": "+90 232 373 3235"}}, {"type": "node", "id": 11813123585, "lat": 38.4655701, "lon": 27.2224072, "tags": {"amenity": "pharmacy", "healthcare": "pharmacy", "name": "\u00dcmit Eczanesi", "phone": "+90 232 388 1769"}}, {"type": "node", "id": 11813123586, "lat": 38.4668218, "lon": 27.2193282, "tags": {"amenity": "pharmacy", "healthcare": "pharmacy", "name": "Bilgi Eczanesi i", "name:tr": "Bilgi Eczanesi", "phone": "+90 232 388 1684"}}, {"type": "node", "id": 11813123587, "lat": 38.467658, "lon": 27.2184496, "tags": {"amenity": "pharmacy", "healthcare": "pharmacy", "name": "\u00c7elebi Eczanesi", "phone": "+90 232 388 5991"}}, {"type": "node", "id": 11813123588, "lat": 38.4682729, "lon": 27.2190121, "tags": {"amenity": "pharmacy", "healthcare": "pharmacy", "name": "Pelit Eczanesi", "phone": "+90 232 343 8168"}}, {"type": "node", "id": 11813123673, "lat": 38.4659626, "lon": 27.2229277, "tags": {"amenity": "pharmacy", "healthcare": "pharmacy", "name": "Feride Er Eczanesi", "phone": "+90 232 999 8489"}}, {"type": "node", "id": 11813123674, "lat": 38.4678566, "lon": 27.2199257, "tags": {"amenity": "pharmacy", "healthcare": "pharmacy", "name": "Bornova Emek Eczanesi", "phone": "+90 232 342 2122"}}, {"type": "node", "id": 11813123675, "lat": 38.4682267, "lon": 27.2193816, "tags": {"amenity": "pharmacy", "healthcare": "pharmacy", "name": "Aylin Eczanesi", "phone": "+90 232 339 5008"}}, {"type": "node", "id": 11813123676, "lat": 38.4684057, "lon": 27.2190017, "tags": {"amenity": "pharmacy", "healthcare": "pharmacy", "name": "Nazif Eczanesi", "phone": "+90 232 374 0951"}}, {"type": "node", "id": 11813123677, "lat": 38.4685721, "lon": 27.2191009, "tags": {"amenity": "pharmacy", "healthcare": "pharmacy", "name": "\u00c7\u0131nar Eczanesi", "phone": "+90 232 373 6486"}}, {"type": "node", "id": 11813123678, "lat": 38.4702166, "lon": 27.2204923, "tags": {"amenity": "pharmacy", "healthcare": "pharmacy", "name": "Serpil Eczanesi", "phone": "+90 232 388 4711"}}, {"type": "node", "id": 11813123773, "lat": 38.464754, "lon": 27.2225454, "tags": {"amenity": "pharmacy", "healthcare": "pharmacy", "name": "Melek Eczanesi", "phone": "+90 232 388 2383"}}, {"type": "node", "id": 11813123774, "lat": 38.4657351, "lon": 27.2205662, "tags": {"amenity": "pharmacy", "healthcare": "pharmacy", "name": "Burcu Eczanesi", "phone": "+90 232 373 9150"}}, {"type": "node", "id": 11813123775, "lat": 38.4678333, "lon": 27.2193802, "tags": {"amenity": "pharmacy", "healthcare": "pharmacy", "name": "\u00d6z", "name:tr": "\u00d6z I\u015f\u0131l Eczanesi", "phone": "+90 232 374 2683"}}, {"type": "node", "id": 11813123776, "lat": 38.4678534, "lon": 27.2191825, "tags": {"amenity": "pharmacy", "healthcare": "pharmacy", "name": "Yeni Aras Eczanesi", "phone": "+90 232 373 6524"}}, {"type": "node", "id": 11813124070, "lat": 38.4660357, "lon": 27.2202429, "tags": {"amenity": "pharmacy", "healthcare": "pharmacy", "name": "Natura Eczanesi", "phone": "+90 232 351 3335"}}, {"type": "node", "id": 11813124071, "lat": 38.4700132, "lon": 27.2231407, "tags": {"amenity": "pharmacy", "healthcare": "pharmacy", "name": "Meltem Eczanesi", "phone": "+90 533 593 5277"}}, {"type": "node", "id": 11813146091, "lat": 38.4785807, "lon": 27.2108244, "tags": {"amenity": "pharmacy", "healthcare": "pharmacy", "name": "Yeni \u00d6m\u00fcr Eczanesi", "phone": "+90 232 388 2102"}}, {"type": "node", "id": 11813146092, "lat": 38.4779797, "lon": 27.206353, "tags": {"amenity": "pharmacy", "healthcare": "pharmacy", "name": "Demirkol Eczanesi", "phone": "+90 232 388 7962"}}, {"type": "node", "id": 11813146093, "lat": 38.4766742, "lon": 27.2044661, "tags": {"amenity": "pharmacy", "healthcare": "pharmacy", "name": "Atakent Eczanesi", "phone": "+90 232 388 6042"}}, {"type": "node", "id": 11813146094, "lat": 38.4727992, "lon": 27.2014381, "tags": {"amenity": "pharmacy", "healthcare": "pharmacy", "name": "\u00d6zlemin Eczanesi", "phone": "+90 232 344 1111"}}, {"type": "node", "id": 11813146095, "lat": 38.4647589, "lon": 27.1996155, "tags": {"amenity": "pharmacy", "name": "Sema Eczanesi", "phone": "+90 232 343 4918"}}, {"type": "node", "id": 11813146096, "lat": 38.4622499, "lon": 27.1993852, "tags": {"amenity": "pharmacy", "name": "Yeni \u00d6zt\u00fcrk Eczanesi", "phone": "+90 232 374 7423"}}, {"type": "node", "id": 11813146097, "lat": 38.4621168, "lon": 27.2002911, "tags": {"amenity": "pharmacy", "healthcare": "pharmacy", "name": "Engin Eczanesi", "phone": "+90 232 342 6570"}}, {"type": "node", "id": 11813146419, "lat": 38.4838022, "lon": 27.2097591, "tags": {"amenity": "pharmacy", "healthcare": "pharmacy", "name": "Belgin \u00d6zt\u00fcrk Eczanesi", "phone": "+90 232 339 3920"}}, {"type": "node", "id": 11813146420, "lat": 38.4843375, "lon": 27.2083599, "tags": {"amenity": "pharmacy", "healthcare": "pharmacy", "name": "Aslan Eczanesi", "phone": "+90 232 351 4901"}}, {"type": "node", "id": 11813146421, "lat": 38.4778057, "lon": 27.2121811, "tags": {"amenity": "pharmacy", "healthcare": "pharmacy", "name": "Ardam Eczanesi", "phone": "+90 232 343 6870"}}, {"type": "node", "id": 11813146422, "lat": 38.474445, "lon": 27.1960389, "tags": {"amenity": "pharmacy", "name": "Harika Eczanesi", "phone": "+90 232 342 5500"}}, {"type": "node", "id": 11813146423, "lat": 38.4651404, "lon": 27.2097921, "tags": {"amenity": "pharmacy", "name": "Do\u011fucan Eczanesi", "phone": "+90 232 374 5888"}}, {"type": "node", "id": 11813146424, "lat": 38.4634451, "lon": 27.2087697, "tags": {"amenity": "pharmacy", "name": "Nur Eczanesi", "phone": "+90 232 388 6012"}}, {"type": "node", "id": 11813146425, "lat": 38.4645341, "lon": 27.2073361, "tags": {"amenity": "pharmacy", "name": "Dalg\u0131\u00e7 Eczanesi", "phone": "+90 232 388 6000"}}, {"type": "node", "id": 11813146426, "lat": 38.4640918, "lon": 27.2064404, "tags": {"amenity": "pharmacy", "name": "Bornova Ordu Eczanesi", "phone": "+90 232 342 1363"}}, {"type": "node", "id": 11813146427, "lat": 38.4615097, "lon": 27.207427, "tags": {"addr:housenumber": "17/A", "addr:street": "185. Sokak", "amenity": "pharmacy", "healthcare": "pharmacy", "name": "Nar Eczanesi", "phone": "+90 232 999 9636"}}, {"type": "node", "id": 11813146428, "lat": 38.4618023, "lon": 27.2076404, "tags": {"amenity": "pharmacy", "healthcare": "pharmacy", "name": "Ceren Eczanesi", "phone": "+90 232 339 7007"}}, {"type": "node", "id": 11813146429, "lat": 38.4606343, "lon": 27.2026837, "tags": {"amenity": "pharmacy", "healthcare": "pharmacy", "name": "Akg\u00fcne\u015f Eczanesi", "phone": "+90 232 343 5673"}}, {"type": "node", "id": 11813146430, "lat": 38.4614599, "lon": 27.2035767, "tags": {"amenity": "pharmacy", "name": "Yeni Bulvar Eczanesi", "phone": "+90 232 374 0666"}}, {"type": "node", "id": 11813146431, "lat": 38.4611192, "lon": 27.2040624, "tags": {"amenity": "pharmacy", "healthcare": "pharmacy", "name": "Naturel Eczanesi", "phone": "+90 232 343 6061"}}, {"type": "node", "id": 11813146432, "lat": 38.4611955, "lon": 27.2045255, "tags": {"amenity": "pharmacy", "healthcare": "pharmacy", "name": "Sinem \u00d6zlem Eczanesi", "phone": "+90 232 373 9231"}}, {"type": "node", "id": 11813146477, "lat": 38.4787222, "lon": 27.2101464, "tags": {"amenity": "pharmacy", "healthcare": "pharmacy", "name": "Benay Eczanesi", "phone": "+90 232 374 2848"}}, {"type": "node", "id": 11813146478, "lat": 38.4642091, "lon": 27.2033191, "tags": {"amenity": "pharmacy", "name": "Bornova G\u00fcler Eczanesi", "phone": "+90 232 388 3591"}}, {"type": "node", "id": 11813146479, "lat": 38.4617107, "lon": 27.2050312, "tags": {"amenity": "pharmacy", "name": "Bornova H\u00fclya Eczanesi", "phone": "+90 232 342 6812"}}, {"type": "node", "id": 11816174969, "lat": 38.4555554, "lon": 27.1971658, "tags": {"amenity": "pharmacy", "name": "Duru Eczanesi", "phone": "+90 232 348 0015"}}, {"type": "node", "id": 11816175069, "lat": 38.4556224, "lon": 27.1968184, "tags": {"amenity": "pharmacy", "name": "Yeni I\u015f\u0131l Eczanesi", "phone": "+90 232 347 2517"}}, {"type": "node", "id": 11816175070, "lat": 38.4570773, "lon": 27.1969944, "tags": {"amenity": "pharmacy", "name": "Yeliz Eczanesi", "phone": "+90 232 339 5181"}}, {"type": "node", "id": 11816175071, "lat": 38.4562387, "lon": 27.1995983, "tags": {"amenity": "pharmacy", "name": "K\u00f6se Eczanesi", "phone": "+90 232 347 7802"}}, {"type": "node", "id": 11816175169, "lat": 38.4573673, "lon": 27.1974805, "tags": {"amenity": "pharmacy", "name": "Batuhan Eczanesi", "phone": "+90 232 570 0195"}}, {"type": "node", "id": 11816175170, "lat": 38.4577364, "lon": 27.1993525, "tags": {"amenity": "pharmacy", "name": "Ay\u015fe Eczanesi", "phone": "+90 232 344 2344"}}, {"type": "node", "id": 11816175171, "lat": 38.4608165, "lon": 27.1988232, "tags": {"amenity": "pharmacy", "healthcare": "pharmacy", "name": "Recep Alt\u0131nda\u011f Eczanesi", "phone": "+90 232 343 2149"}}, {"type": "node", "id": 11816175269, "lat": 38.4598575, "lon": 27.1989513, "tags": {"amenity": "pharmacy", "healthcare": "pharmacy", "name": "Yazgan Eczanesi", "phone": "+90 232 344 0003"}}, {"type": "node", "id": 11816602671, "lat": 38.3946352, "lon": 27.0415592, "tags": {"amenity": "pharmacy", "name": "Pera Eczanesi", "phone": "+90 232 278 2640"}}, {"type": "node", "id": 11816602672, "lat": 38.3902089, "lon": 27.0381915, "tags": {"amenity": "pharmacy", "name": "Derin Mavi Eczanesi", "phone": "+90 232 278 2884"}}, {"type": "node", "id": 11816602673, "lat": 38.3924513, "lon": 27.0435937, "tags": {"amenity": "pharmacy", "name": "Gaye Eczanesi", "phone": "+90 232 277 6133"}}, {"type": "node", "id": 11816602674, "lat": 38.3925871, "lon": 27.0428298, "tags": {"amenity": "pharmacy", "name": "T\u00fcrkan Eczanesi", "phone": "+90 232 277 8317"}}, {"type": "node", "id": 11816602675, "lat": 38.3932153, "lon": 27.0346737, "tags": {"amenity": "pharmacy", "name": "G\u00f6ksel Eczanesi", "phone": "+90 232 278 7840"}}, {"type": "node", "id": 11816602676, "lat": 38.3929955, "lon": 27.0337841, "tags": {"amenity": "pharmacy", "name": "Dalg\u0131\u00e7 Eczanesi", "phone": "+90 232 278 4070"}}, {"type": "node", "id": 11816602677, "lat": 38.3929534, "lon": 27.0335275, "tags": {"amenity": "pharmacy", "name": "Aile Eczanesi", "phone": "+90 232 259 0208"}}, {"type": "node", "id": 11816603770, "lat": 38.3907562, "lon": 27.0402362, "tags": {"amenity": "pharmacy", "name": "Termal Eczanesi", "phone": "+90 232 277 5388"}}, {"type": "node", "id": 11816603771, "lat": 38.3924013, "lon": 27.0428495, "tags": {"amenity": "pharmacy", "name": "Sevg\u00fcl Eczanesi", "phone": "+90 232 277 4725"}}, {"type": "node", "id": 11816603772, "lat": 38.3925942, "lon": 27.0430202, "tags": {"amenity": "pharmacy", "name": "Il\u0131ca Eczanesi", "phone": "+90 232 259 5917"}}, {"type": "node", "id": 11816603773, "lat": 38.3933789, "lon": 27.0348386, "tags": {"amenity": "pharmacy", "name": "Tamer Eczanesi", "phone": "+90 232 277 2012"}}, {"type": "node", "id": 11816628201, "lat": 38.3912101, "lon": 27.0246821, "tags": {"amenity": "pharmacy", "name": "Narl\u0131dere \u00d6zg\u00fcr Eczanesi", "phone": "+90 232 239 0631"}}, {"type": "node", "id": 11816628202, "lat": 38.3931607, "lon": 27.0224386, "tags": {"amenity": "pharmacy", "name": "G\u00fczel Yenik\u00f6y Eczanesi", "phone": "+90 232 238 0023"}}, {"type": "node", "id": 11816628203, "lat": 38.3932288, "lon": 27.0219968, "tags": {"amenity": "pharmacy", "name": "Ceyhun Eczanesi", "phone": "+90 232 239 5266"}}, {"type": "node", "id": 11816629285, "lat": 38.3921264, "lon": 27.0249642, "tags": {"amenity": "pharmacy", "name": "\u00c7am Eczanesi", "phone": "+90 232 238 9328"}}, {"type": "node", "id": 11816629286, "lat": 38.3906623, "lon": 27.0225507, "tags": {"amenity": "pharmacy", "name": "\u015eeker Eczanesi", "phone": "+90 232 239 7994"}}, {"type": "node", "id": 11816629287, "lat": 38.3933863, "lon": 27.0206528, "tags": {"amenity": "pharmacy", "name": "Nar Eczanesi", "phone": "+90 232 238 4940"}}, {"type": "node", "id": 11816629377, "lat": 38.3908735, "lon": 27.0254853, "tags": {"amenity": "pharmacy", "name": "Kocab\u0131y\u0131k Eczanesi", "phone": "+90 232 238 4536"}}, {"type": "node", "id": 11816629478, "lat": 38.3909134, "lon": 27.0251882, "tags": {"amenity": "pharmacy", "name": "B\u00fcy\u00fck", "name:tr": "B\u00fcy\u00fckk\u0131l\u0131\u00e7 Eczanesi", "phone": "+90 232 238 8535"}}, {"type": "node", "id": 11816629479, "lat": 38.3933433, "lon": 27.0209523, "tags": {"amenity": "pharmacy", "name": "Ar\u0131 Eczanesi", "phone": "+90 232 239 7777"}}, {"type": "node", "id": 11816629480, "lat": 38.3931616, "lon": 27.0198287, "tags": {"amenity": "pharmacy", "name": "Mavi Yaka Eczanesi", "phone": "+90 232 239 4050"}}, {"type": "node", "id": 11816635669, "lat": 38.3931695, "lon": 27.0344903, "tags": {"amenity": "pharmacy", "name": "\u0130nciralt\u0131 Eczanesi", "phone": "+90 232 259 6363"}}, {"type": "node", "id": 11816635769, "lat": 38.3929191, "lon": 27.0333337, "tags": {"amenity": "pharmacy", "name": "Element Eczanesi", "phone": "+90 232 279 0415"}}, {"type": "node", "id": 11816636069, "lat": 38.392941, "lon": 27.032831, "tags": {"amenity": "pharmacy", "name": "Akarsu Eczanesi", "phone": "+90 232 277 8881"}}, {"type": "node", "id": 11817838970, "lat": 38.3959371, "lon": 26.9981515, "tags": {"amenity": "pharmacy", "healthcare": "pharmacy", "name": "\u015eehitlik Eczanesi", "phone": "+90 232 238 4598"}}, {"type": "node", "id": 11817838971, "lat": 38.3841351, "lon": 27.0580433, "tags": {"amenity": "pharmacy", "name": "Eray Eczanesi", "phone": "+90 232 935 0958"}}, {"type": "node", "id": 11817839070, "lat": 38.3946625, "lon": 26.9911521, "tags": {"amenity": "pharmacy", "name": "Barut Eczanesi", "phone": "+90 232 239 5592"}}, {"type": "node", "id": 11817839071, "lat": 38.3946648, "lon": 27.0030595, "tags": {"amenity": "pharmacy", "name": "\u00d6zel Eczanesi", "phone": "+90 232 238 8306"}}, {"type": "node", "id": 11817839072, "lat": 38.3946228, "lon": 27.0050574, "tags": {"amenity": "pharmacy", "name": "K\u00f6pr\u00fcba\u015f\u0131 Eczanesi", "phone": "+90 232 238 3607"}}, {"type": "node", "id": 11817839073, "lat": 38.3942824, "lon": 27.0063232, "tags": {"amenity": "pharmacy", "name": "Yeni G\u00fcler Eczanesi", "phone": "+90 232 239 2161"}}, {"type": "node", "id": 11817839074, "lat": 38.3942557, "lon": 27.0065173, "tags": {"amenity": "pharmacy", "name": "Eren Eczanesi", "phone": "+90 232 239 7733"}}, {"type": "node", "id": 11817839075, "lat": 38.3942462, "lon": 27.0071246, "tags": {"amenity": "pharmacy", "name": "\u00c7i\u011fdem Eczanesi", "phone": "+90 232 238 5214"}}, {"type": "node", "id": 11817839076, "lat": 38.3942575, "lon": 27.0073102, "tags": {"amenity": "pharmacy", "name": "Uslu Eczanesi", "phone": "+90 232 239 2656"}}, {"type": "node", "id": 11817839077, "lat": 38.3941177, "lon": 27.0140035, "tags": {"amenity": "pharmacy", "name": "T\u00fcz\u00fcn Eczanesi", "phone": "+90 232 238 3021"}}, {"type": "node", "id": 11817839078, "lat": 38.3829254, "lon": 27.0579974, "tags": {"amenity": "pharmacy", "healthcare": "pharmacy", "name": "Serap Eczanesi", "phone": "+90 232 277 5150"}}, {"type": "node", "id": 11817839369, "lat": 38.395356, "lon": 26.9919343, "tags": {"amenity": "pharmacy", "name": "Sezer Eczanesi", "phone": "+90 232 238 6957"}}, {"type": "node", "id": 11817839370, "lat": 38.3958643, "lon": 26.998407, "tags": {"amenity": "pharmacy", "healthcare": "pharmacy", "name": "Narl\u0131dere Eczanesi", "phone": "+90 232 238 2500"}}, {"type": "node", "id": 11817839371, "lat": 38.3943157, "lon": 27.0048136, "tags": {"amenity": "pharmacy", "name": "Narl\u0131 Eczanesi", "phone": "+90 232 238 0417"}}, {"type": "node", "id": 11817839372, "lat": 38.3942305, "lon": 27.0077415, "tags": {"amenity": "pharmacy", "name": "Yeni Erdem Eczanesi", "phone": "+90 232 238 0724"}}, {"type": "node", "id": 11817839373, "lat": 38.3939568, "lon": 27.0119604, "tags": {"amenity": "pharmacy", "name": "Karel Eczanesi", "phone": "+90 232 238 4038"}}, {"type": "node", "id": 11817839374, "lat": 38.3900184, "lon": 27.0140177, "tags": {"amenity": "pharmacy", "name": "K\u0131yak Eczanesi", "phone": "+90 232 238 1498"}}, {"type": "node", "id": 11817839569, "lat": 38.3959022, "lon": 26.9982909, "tags": {"amenity": "pharmacy", "healthcare": "pharmacy", "name": "Topalo\u011flu Eczanesi", "phone": "+90 232 238 8478"}}, {"type": "node", "id": 11817839570, "lat": 38.3897091, "lon": 27.0139411, "tags": {"amenity": "pharmacy", "name": "\u00d6zgem Eczanesi", "phone": "+90 232 238 4776"}}, {"type": "node", "id": 11817839669, "lat": 38.394117, "lon": 27.0093852, "tags": {"amenity": "pharmacy", "name": "Muslular Eczanesi", "phone": "+90 232 238 1923"}}, {"type": "node", "id": 11817839670, "lat": 38.382218, "lon": 27.0565121, "tags": {"amenity": "pharmacy", "healthcare": "pharmacy", "name": "Bal\u00e7ova Eczanesi", "phone": "+90 232 279 0865"}}, {"type": "node", "id": 11817839671, "lat": 38.382878, "lon": 27.0557637, "tags": {"amenity": "pharmacy", "name": "Nesli Eczanesi", "phone": "+90 232 259 0507"}}, {"type": "node", "id": 11817839769, "lat": 38.393997, "lon": 27.0106149, "tags": {"amenity": "pharmacy", "name": "Bayram Eczanesi", "phone": "+90 232 239 4939"}}, {"type": "node", "id": 11819747219, "lat": 38.3847741, "lon": 27.0570351, "tags": {"addr:housenumber": "11/B", "addr:street": "Sakarya Caddesi", "amenity": "pharmacy", "name": "Feyza Eczanesi", "phone": "+90 232 279 1601"}}, {"type": "node", "id": 11819747220, "lat": 38.3853206, "lon": 27.0555921, "tags": {"addr:housenumber": "39/A", "addr:street": "Sakarya Caddesi", "amenity": "pharmacy", "name": "Sakarya Eczanesi", "phone": "+90 232 278 5996"}}, {"type": "node", "id": 11819747221, "lat": 38.3856058, "lon": 27.0573622, "tags": {"amenity": "pharmacy", "name": "Bade I\u015f\u0131k Eczanesi", "phone": "+90 232 999 8380"}}, {"type": "node", "id": 11819747222, "lat": 38.3856525, "lon": 27.0572893, "tags": {"amenity": "pharmacy", "name": "Mert \u0130lker Eczanesi", "phone": "+90 232 345 7745"}}, {"type": "node", "id": 11819747223, "lat": 38.3866983, "lon": 27.05858, "tags": {"amenity": "pharmacy", "name": "Ege", "name:tr": "Egenur Eczanesi", "phone": "+90 232 278 9581"}}, {"type": "node", "id": 11819747224, "lat": 38.3895871, "lon": 27.0579846, "tags": {"amenity": "pharmacy", "name": "Emre Eczanesi", "phone": "+90 232 278 8992"}}, {"type": "node", "id": 11819747225, "lat": 38.3941741, "lon": 27.0578621, "tags": {"amenity": "pharmacy", "name": "Dereli Eczanesi", "phone": "+90 232 259 6697"}}, {"type": "node", "id": 11819747226, "lat": 38.3887085, "lon": 27.0523033, "tags": {"amenity": "pharmacy", "name": "\u00d6zge Eczanesi", "phone": "+90 232 259 1319"}}, {"type": "node", "id": 11819747227, "lat": 38.3912391, "lon": 27.052043, "tags": {"amenity": "pharmacy", "name": "Evin Eczanesi", "phone": "+90 232 279 2095"}}, {"type": "node", "id": 11819772872, "lat": 38.3855327, "lon": 27.0574512, "tags": {"amenity": "pharmacy", "name": "Adalet Eczanesi", "phone": "+90 232 343 0964"}}, {"type": "node", "id": 11819772993, "lat": 38.3898159, "lon": 27.0580777, "tags": {"amenity": "pharmacy", "name": "\u0130lyada Eczanesi", "phone": "+90 232 248 1422"}}, {"type": "node", "id": 11819772994, "lat": 38.3945481, "lon": 27.0585184, "tags": {"amenity": "pharmacy", "name": "\u00dclk\u00fccan Eczanesi", "phone": "+90 232 277 3929"}}, {"type": "node", "id": 11819772995, "lat": 38.385935, "lon": 27.05361, "tags": {"amenity": "pharmacy", "name": "\u0130lter Eczanesi", "phone": "+90 232 277 2333"}}, {"type": "node", "id": 11819772996, "lat": 38.3944828, "lon": 27.0503604, "tags": {"amenity": "pharmacy", "name": "Acar Eczanesi", "phone": "+90 232 238 4874"}}, {"type": "node", "id": 11819772997, "lat": 38.3944554, "lon": 27.0531736, "tags": {"amenity": "pharmacy", "name": "Oksijen Eczanesi", "phone": "+90 232 259 4406"}}, {"type": "node", "id": 11819773611, "lat": 38.3849307, "lon": 27.0565998, "tags": {"addr:housenumber": "17", "addr:street": "Sakarya Caddesi", "amenity": "pharmacy", "name": "Yal\u00e7\u0131nkaya Eczanesi", "phone": "+90 232 278 2291"}}, {"type": "node", "id": 11819773612, "lat": 38.3877145, "lon": 27.0568212, "tags": {"amenity": "pharmacy", "name": "Aky\u00fcrek Eczanesi", "phone": "+90 232 259 1321"}}, {"type": "node", "id": 11819773613, "lat": 38.3918062, "lon": 27.0581321, "tags": {"amenity": "pharmacy", "name": "Alper Ak\u0131n Eczanesi", "phone": "+90 232 278 7035"}}, {"type": "node", "id": 11819773614, "lat": 38.3922541, "lon": 27.0578976, "tags": {"amenity": "pharmacy", "name": "\u015eifa Eczanesi", "phone": "+90 232 259 6379"}}, {"type": "node", "id": 11819773615, "lat": 38.3929256, "lon": 27.056339, "tags": {"amenity": "pharmacy", "name": "\u00dcge Eczanesi", "phone": "+90 232 259 7816"}}, {"type": "node", "id": 11819773616, "lat": 38.3948262, "lon": 27.057481, "tags": {"amenity": "pharmacy", "name": "Lotus Eczanesi", "phone": "+90 232 279 2666"}}, {"type": "node", "id": 11819773617, "lat": 38.3945186, "lon": 27.0573594, "tags": {"amenity": "pharmacy", "name": "B\u00fcy\u00fck Halk Eczanesi", "phone": "+90 232 259 5982"}}, {"type": "node", "id": 11819773618, "lat": 38.3946051, "lon": 27.0580302, "tags": {"amenity": "pharmacy", "name": "Burcu Eczanesi", "phone": "+90 232 279 0779"}}, {"type": "node", "id": 11819773619, "lat": 38.3949712, "lon": 27.0583393, "tags": {"amenity": "pharmacy", "name": "Yeni \u00d6yk\u00fc Eczanesi", "phone": "+90 232 278 7506"}}, {"type": "node", "id": 11819773620, "lat": 38.3947494, "lon": 27.0585273, "tags": {"amenity": "pharmacy", "name": "Ay\u015fe P\u0131nar Eczanesi", "phone": "+90 232 259 2516"}}, {"type": "node", "id": 11819773621, "lat": 38.3948618, "lon": 27.0585399, "tags": {"amenity": "pharmacy", "name": "Yeni Bar\u0131\u015f Eczanesi", "phone": "+90 232 279 0576"}}, {"type": "node", "id": 11819773622, "lat": 38.3895465, "lon": 27.0508787, "tags": {"amenity": "pharmacy", "name": "Yeni G\u00f6ksen Eczanesi", "phone": "+90 232 277 9989"}}, {"type": "node", "id": 11819773623, "lat": 38.3918805, "lon": 27.0520434, "tags": {"amenity": "pharmacy", "name": "Bal\u00e7ova", "name:tr": "Bal\u00e7ova Sa\u011fl\u0131k Eczanesi", "phone": "+90 232 259 2572"}}, {"type": "node", "id": 11819773624, "lat": 38.3938492, "lon": 27.0518943, "tags": {"amenity": "pharmacy", "name": "Sarma\u015f\u0131k Eczanesi", "phone": "+90 232 259 8782"}}, {"type": "node", "id": 11819776673, "lat": 38.3856809, "lon": 27.0571979, "tags": {"amenity": "pharmacy", "name": "Ege \u0130lker Eczanesi", "phone": "+90 232 278 6565"}}, {"type": "node", "id": 11819776674, "lat": 38.3910917, "lon": 27.0561287, "tags": {"amenity": "pharmacy", "name": "Yeni Bahar Eczanesi", "phone": "+90 232 259 6392"}}, {"type": "node", "id": 11819776675, "lat": 38.391557, "lon": 27.0516, "tags": {"amenity": "pharmacy", "name": "Ye\u015fildere Eczanesi", "phone": "+90 232 279 2242"}}, {"type": "node", "id": 11821079196, "lat": 38.394022, "lon": 27.069694, "tags": {"amenity": "pharmacy", "healthcare": "pharmacy", "name": "G\u00fczel Eczanesi", "phone": "+90 232 277 9757"}}, {"type": "node", "id": 11821079197, "lat": 38.3937886, "lon": 27.0693306, "tags": {"amenity": "pharmacy", "healthcare": "pharmacy", "name": "Beyazgil Eczanesi", "phone": "+90 232 277 0307"}}, {"type": "node", "id": 11821079198, "lat": 38.3975242, "lon": 27.0715463, "tags": {"amenity": "pharmacy", "name": "K\u0131v\u0131lc\u0131m Eczanesi", "phone": "+90 232 247 8348"}}, {"type": "node", "id": 11821079199, "lat": 38.396401, "lon": 27.0715741, "tags": {"amenity": "pharmacy", "healthcare": "pharmacy", "name": "Mert Avc\u0131 Eczanesi", "phone": "+90 232 999 9632"}}, {"type": "node", "id": 11821079200, "lat": 38.3960166, "lon": 27.0726525, "tags": {"amenity": "pharmacy", "healthcare": "pharmacy", "name": "G\u00fcrb\u00fcz Eczanesi", "phone": "+90 232 224 6544"}}, {"type": "node", "id": 11821079201, "lat": 38.3981014, "lon": 27.0743703, "tags": {"amenity": "pharmacy", "name": "Mucize Eczanesi", "phone": "+90 232 246 0157"}}, {"type": "node", "id": 11821079202, "lat": 38.3950094, "lon": 27.0753296, "tags": {"amenity": "pharmacy", "healthcare": "pharmacy", "name": "Mavi Eczanesi", "phone": "+90 232 224 2021"}}, {"type": "node", "id": 11821079203, "lat": 38.3943629, "lon": 27.0766243, "tags": {"amenity": "pharmacy", "name": "Nehir Eczanesi", "phone": "+90 232 247 8524"}}, {"type": "node", "id": 11821079204, "lat": 38.3939869, "lon": 27.077902, "tags": {"amenity": "pharmacy", "name": "G\u00fcler Eczanesi", "phone": "+90 232 285 6553"}}, {"type": "node", "id": 11821079205, "lat": 38.3920111, "lon": 27.0726572, "tags": {"amenity": "pharmacy", "healthcare": "pharmacy", "name": "Burcum Eczanesi", "phone": "+90 232 285 4923"}}, {"type": "node", "id": 11821079206, "lat": 38.3888844, "lon": 27.0766179, "tags": {"amenity": "pharmacy", "name": "Bar\u0131\u015f Eczanesi", "phone": "+90 232 247 4807"}}, {"type": "node", "id": 11821095984, "lat": 38.3955748, "lon": 27.0696126, "tags": {"amenity": "pharmacy", "healthcare": "pharmacy", "name": "\u00dc\u00e7kuyular Eczanesi", "phone": "+90 232 248 2031"}}, {"type": "node", "id": 11821095985, "lat": 38.3942315, "lon": 27.0694011, "tags": {"amenity": "pharmacy", "healthcare": "pharmacy", "name": "Ven\u00fcs Eczanesi", "phone": "+90 232 999 4363"}}, {"type": "node", "id": 11821095986, "lat": 38.3937497, "lon": 27.0692868, "tags": {"amenity": "pharmacy", "healthcare": "pharmacy", "name": "Irmak Eczanesi", "phone": "+90 232 277 6190"}}, {"type": "node", "id": 11821095987, "lat": 38.3984063, "lon": 27.0757772, "tags": {"amenity": "pharmacy", "name": "Efeso\u011flu Eczanesi", "phone": "+90 232 224 0450"}}, {"type": "node", "id": 11821095988, "lat": 38.3947825, "lon": 27.074679, "tags": {"amenity": "pharmacy", "healthcare": "pharmacy", "name": "Ta\u00e7 Eczanesi", "phone": "+90 232 285 9985"}}, {"type": "node", "id": 11821095989, "lat": 38.390278, "lon": 27.0732155, "tags": {"amenity": "pharmacy", "name": "Esentepe Eczanesi", "phone": "+90 232 247 4134"}}, {"type": "node", "id": 11821095990, "lat": 38.3932767, "lon": 27.0826672, "tags": {"amenity": "pharmacy", "name": "Beril Sa\u011fl\u0131k Eczanesi", "phone": "+90 232 246 1879"}}, {"type": "node", "id": 11821095991, "lat": 38.3976271, "lon": 27.0794532, "tags": {"amenity": "pharmacy", "name": "\u00c7iler Eczanesi", "phone": "+90 232 285 8390"}}, {"type": "node", "id": 11821096373, "lat": 38.3964196, "lon": 27.0650324, "tags": {"amenity": "pharmacy", "name": "Yeni Tun\u00e7 Eczanesi", "phone": "+90 232 277 8929"}}, {"type": "node", "id": 11821096374, "lat": 38.3964438, "lon": 27.069101, "tags": {"amenity": "pharmacy", "healthcare": "pharmacy", "name": "Do\u011fal \u015eifa Eczanesi", "phone": "+90 232 279 2568"}}, {"type": "node", "id": 11821096375, "lat": 38.3938772, "lon": 27.0694712, "tags": {"amenity": "pharmacy", "healthcare": "pharmacy", "name": "\u00d6zberk Eczanesi", "phone": "+90 232 277 4005"}}, {"type": "node", "id": 11821096376, "lat": 38.3953793, "lon": 27.0744322, "tags": {"amenity": "pharmacy", "healthcare": "pharmacy", "name": "Kaptan Eczanesi", "phone": "+90 232 247 2604"}}, {"type": "node", "id": 11821096377, "lat": 38.3937133, "lon": 27.0817186, "tags": {"amenity": "pharmacy", "name": "Serter Eczanesi", "phone": "+90 232 285 2776"}}, {"type": "node", "id": 11821096378, "lat": 38.3923448, "lon": 27.0844509, "tags": {"amenity": "pharmacy", "name": "\u00d6zsel\u00e7uk Eczanesi", "phone": "+90 232 285 8900"}}, {"type": "node", "id": 11821097572, "lat": 38.3969418, "lon": 27.0684757, "tags": {"amenity": "pharmacy", "name": "Plaza Eczanesi", "phone": "+90 232 277 9644"}}, {"type": "node", "id": 11821097573, "lat": 38.3894217, "lon": 27.0717249, "tags": {"amenity": "pharmacy", "name": "P\u0131nar Eczanesi", "phone": "+90 232 224 0302"}}, {"type": "node", "id": 11821113169, "lat": 38.3933202, "lon": 27.0775, "tags": {"amenity": "pharmacy", "name": "\u00c7a\u011fan Eczanesi", "phone": "+90 232 248 2935"}}, {"type": "node", "id": 11821113170, "lat": 38.3895553, "lon": 27.0717063, "tags": {"amenity": "pharmacy", "name": "Egesu Eczanesi", "phone": "+90 232 224 2433"}}, {"type": "node", "id": 11821113171, "lat": 38.3890563, "lon": 27.0766266, "tags": {"amenity": "pharmacy", "healthcare": "pharmacy", "name": "G\u00f6rkem Eczanesi", "phone": "+90 232 248 2160", "website": "https://eczanelik.com/izmir-karabaglar-gorkem-eczanesi.html"}}, {"type": "node", "id": 11821113172, "lat": 38.3970463, "lon": 27.0798031, "tags": {"amenity": "pharmacy", "name": "Avunduk Eczanesi", "phone": "+90 232 247 9320"}}, {"type": "node", "id": 11822187271, "lat": 38.3980534, "lon": 27.0793164, "tags": {"amenity": "pharmacy", "name": "\u00d6zp\u0131nar Eczanesi", "phone": "+90 232 224 5681"}}, {"type": "node", "id": 11822187272, "lat": 38.3979969, "lon": 27.0794558, "tags": {"amenity": "pharmacy", "name": "Denizmen Eczanesi", "phone": "+90 232 247 7347"}}, {"type": "node", "id": 11822187273, "lat": 38.3975503, "lon": 27.0844165, "tags": {"amenity": "pharmacy", "name": "G\u00fczelyal\u0131 Eczanesi", "phone": "+90 232 285 5639"}}, {"type": "node", "id": 11822187274, "lat": 38.397819, "lon": 27.0882383, "tags": {"amenity": "pharmacy", "name": "Mithatpa\u015fa Eczanesi", "phone": "+90 232 248 3332"}}, {"type": "node", "id": 11822187670, "lat": 38.3978717, "lon": 27.0793506, "tags": {"amenity": "pharmacy", "name": "Tar\u00e7\u0131n Eczanesi", "phone": "+90 232 246 8372"}}, {"type": "node", "id": 11822187671, "lat": 38.3971324, "lon": 27.0857679, "tags": {"addr:housenumber": "3/A", "addr:street": "56. Sokak", "amenity": "pharmacy", "healthcare": "pharmacy", "name": "Lotus Eczanesi"}}, {"type": "node", "id": 11822216469, "lat": 38.3982927, "lon": 27.0793588, "tags": {"addr:housenumber": "3/C-D", "addr:street": "34. Sokak", "amenity": "pharmacy", "name": "May\u0131s Eczanesi", "phone": "+90 232 246 5544"}}, {"type": "node", "id": 11822216470, "lat": 38.3981383, "lon": 27.0792851, "tags": {"addr:housenumber": "10/A", "addr:street": "34. Sokak", "amenity": "pharmacy", "name": "\u00dclk\u00fcm Eczanesi", "phone": "+90 232 246 1246"}}, {"type": "node", "id": 11822216471, "lat": 38.3976889, "lon": 27.0868167, "tags": {"amenity": "pharmacy", "name": "Fulya Eczanesi", "phone": "+90 232 285 4527", "wheelchair": "limited"}}, {"type": "node", "id": 11822216472, "lat": 38.3987657, "lon": 27.0914406, "tags": {"amenity": "pharmacy", "name": "Is\u0131n Eczanesi", "phone": "+90 232 285 9202"}}, {"type": "node", "id": 11822216569, "lat": 38.3979798, "lon": 27.0793363, "tags": {"amenity": "pharmacy", "name": "Bahad\u0131r Eczanesi", "phone": "+90 232 248 0315"}}, {"type": "node", "id": 11822216570, "lat": 38.39809, "lon": 27.0794439, "tags": {"amenity": "pharmacy", "name": "Yeni \u00c7i\u011fdem Eczanesi", "phone": "+90 232 224 8215"}}, {"type": "node", "id": 11822216571, "lat": 38.3986929, "lon": 27.091529, "tags": {"amenity": "pharmacy", "name": "\u0130pek Eczanesi", "phone": "+90 232 285 4225"}}, {"type": "node", "id": 11822216669, "lat": 38.3981429, "lon": 27.083551, "tags": {"amenity": "pharmacy", "healthcare": "pharmacy", "name": "Ba\u015fak Eczanesi", "phone": "+90 232 285 4754"}}, {"type": "node", "id": 11822216670, "lat": 38.3981332, "lon": 27.0896855, "tags": {"amenity": "pharmacy", "name": "Sema Eczanesi", "phone": "+90 232 285 9876"}}, {"type": "node", "id": 11822216769, "lat": 38.3983519, "lon": 27.0903283, "tags": {"amenity": "pharmacy", "name": "\u0130kbal Eczanesi", "phone": "+90 232 285 8775"}}, {"type": "node", "id": 11822216770, "lat": 38.3989321, "lon": 27.0913782, "tags": {"amenity": "pharmacy", "name": "G\u00f6ztepe Eczanesi", "phone": "+90 232 246 4864"}}, {"type": "node", "id": 11823850981, "lat": 38.3934272, "lon": 27.0848379, "tags": {"amenity": "pharmacy", "healthcare": "pharmacy", "name": "Demircigil Eczanesi", "phone": "+90 232 285 4737"}}, {"type": "node", "id": 11823850982, "lat": 38.39283, "lon": 27.0868219, "tags": {"amenity": "pharmacy", "healthcare": "pharmacy", "name": "Tunca Eczanesi", "phone": "+90 232 246 3779"}}, {"type": "node", "id": 11823850983, "lat": 38.3934836, "lon": 27.0876797, "tags": {"amenity": "pharmacy", "healthcare": "pharmacy", "name": "Hazar Eczanesi", "phone": "+90 232 224 7294"}}, {"type": "node", "id": 11823850984, "lat": 38.3919409, "lon": 27.0890308, "tags": {"amenity": "pharmacy", "name": "Fulya \u015eeker Eczanesi", "phone": "+90 232 285 6342"}}, {"type": "node", "id": 11823850985, "lat": 38.3922906, "lon": 27.0899734, "tags": {"amenity": "pharmacy", "name": "Do\u011fanay Eczanesi", "phone": "+90 232 247 3171"}}, {"type": "node", "id": 11823851382, "lat": 38.3930308, "lon": 27.0848795, "tags": {"amenity": "pharmacy", "name": "Bal\u0131n Eczanesi Eczanesi", "phone": "+90 232 248 3435"}}, {"type": "node", "id": 11823851383, "lat": 38.394392, "lon": 27.0868365, "tags": {"amenity": "pharmacy", "name": "Erginler Eczanesi", "phone": "+90 232 246 5487", "wheelchair": "limited"}}, {"type": "node", "id": 11823851384, "lat": 38.3919219, "lon": 27.0883353, "tags": {"amenity": "pharmacy", "name": "Ayar Eczanesi", "phone": "+90 232 285 7644"}}, {"type": "node", "id": 11823851573, "lat": 38.3933184, "lon": 27.0855503, "tags": {"amenity": "pharmacy", "name": "K\u00f6se Eczanesi", "phone": "+90 232 247 5895", "wheelchair": "limited"}}, {"type": "node", "id": 11823851574, "lat": 38.3937532, "lon": 27.0888649, "tags": {"amenity": "pharmacy", "healthcare": "pharmacy", "name": "Bersu Eczanesi", "phone": "+90 232 285 0656"}}, {"type": "node", "id": 11826262078, "lat": 38.3900495, "lon": 27.095964, "tags": {"amenity": "pharmacy", "name": "\u00d6zemek Eczanesi", "phone": "+90 232 246 8972"}}, {"type": "node", "id": 11826262079, "lat": 38.4009757, "lon": 27.0929522, "tags": {"amenity": "pharmacy", "name": "\u00c7ilo\u011flu Eczanesi", "phone": "+90 232 243 2939"}}, {"type": "node", "id": 11826262175, "lat": 38.3845996, "lon": 27.100822, "tags": {"amenity": "pharmacy", "name": "\u0130mren Eczanesi", "phone": "+90 232 267 2010"}}, {"type": "node", "id": 11826262176, "lat": 38.3926451, "lon": 27.0934005, "tags": {"amenity": "pharmacy", "name": "Karag\u00f6z Eczanesi", "phone": "+90 232 224 2460"}}, {"type": "node", "id": 11826262177, "lat": 38.400581, "lon": 27.0975036, "tags": {"amenity": "pharmacy", "name": "Opal Eczanesi", "phone": "+90 232 244 7051"}}, {"type": "node", "id": 11826262372, "lat": 38.3841434, "lon": 27.1016725, "tags": {"amenity": "pharmacy", "name": "Y\u0131ld\u0131z Eczanesi", "phone": "+90 232 267 1015"}}, {"type": "node", "id": 11826262373, "lat": 38.4020952, "lon": 27.0957979, "tags": {"amenity": "pharmacy", "check_date": "2024-05-22", "name": "Funda Eczanesi", "phone": "+90 232 231 3201"}}, {"type": "node", "id": 11826262374, "lat": 38.4016835, "lon": 27.0950092, "tags": {"amenity": "pharmacy", "check_date": "2024-05-22", "name": "Karada\u011f Eczanesi", "phone": "+90 232 231 6846"}}, {"type": "node", "id": 11826262481, "lat": 38.391739, "lon": 27.097019, "tags": {"amenity": "pharmacy", "name": "Deniz Eczanesi", "phone": "+90 232 247 5996"}}, {"type": "node", "id": 11826262482, "lat": 38.3917532, "lon": 27.0934296, "tags": {"amenity": "pharmacy", "name": "\u00dcz\u00fcmc\u00fc Eczanesi", "phone": "+90 232 285 1555"}}, {"type": "node", "id": 11826274069, "lat": 38.4013487, "lon": 27.0936648, "tags": {"amenity": "pharmacy", "check_date": "2024-05-22", "name": "Pakal\u0131n Eczanesi", "phone": "+90 232 244 5777"}}, {"type": "node", "id": 11826835193, "lat": 38.3986082, "lon": 27.1034917, "tags": {"amenity": "pharmacy", "healthcare": "pharmacy", "name": "Soyak Eczanesi", "phone": "+90 232 243 0318"}}, {"type": "node", "id": 11826835414, "lat": 38.3986191, "lon": 27.1022631, "tags": {"amenity": "pharmacy", "healthcare": "pharmacy", "name": "Ecem Eczanesi", "phone": "+90 232 243 8777"}}, {"type": "node", "id": 11826835417, "lat": 38.4016409, "lon": 27.1065081, "tags": {"amenity": "pharmacy", "check_date": "2024-05-19", "healthcare": "pharmacy", "name": "Nokta Eczanesi", "phone": "+90 232 231 0474"}}, {"type": "node", "id": 11826835498, "lat": 38.3985808, "lon": 27.103986, "tags": {"amenity": "pharmacy", "healthcare": "pharmacy", "name": "Kamer Eczanesi", "phone": "+90 232 244 5123"}}, {"type": "node", "id": 11826835677, "lat": 38.4007737, "lon": 27.1065505, "tags": {"amenity": "pharmacy", "healthcare": "pharmacy", "name": "\u00d6z\u00fcnal Eczanesi", "phone": "+90 232 243 5581"}}, {"type": "node", "id": 11826837270, "lat": 38.3993578, "lon": 27.1027587, "tags": {"amenity": "pharmacy", "healthcare": "pharmacy", "name": "Bas\u0131n Sitesi Eczanesi"}}, {"type": "node", "id": 11829738470, "lat": 38.354481, "lon": 27.1287544, "tags": {"amenity": "pharmacy", "name": "Yeni Esra Eczanesi", "phone": "+90 232 265 2371"}}, {"type": "node", "id": 11829738471, "lat": 38.3685622, "lon": 27.1344967, "tags": {"amenity": "pharmacy", "name": "\u00d6zlem Eczanesi", "phone": "+90 232 253 0001"}}, {"type": "node", "id": 11829738472, "lat": 38.3686586, "lon": 27.1256869, "tags": {"amenity": "pharmacy", "name": "Feyza Eczanesi", "phone": "+90 542 242 4011"}}, {"type": "node", "id": 11829738473, "lat": 38.3617023, "lon": 27.08606, "tags": {"amenity": "pharmacy", "name": "Zelal Eczanesi", "phone": "+90 232 271 1177"}}, {"type": "node", "id": 11829738474, "lat": 38.3642506, "lon": 27.1058733, "tags": {"amenity": "pharmacy", "name": "Yeni Dalg\u0131\u00e7 Eczanesi", "phone": "+90 232 271 7054"}}, {"type": "node", "id": 11829738570, "lat": 38.3681703, "lon": 27.1319714, "tags": {"amenity": "pharmacy", "name": "Utku Naz Eczanesi", "phone": "+90 232 207 7701"}}, {"type": "node", "id": 11829741369, "lat": 38.353761, "lon": 27.1357719, "tags": {"amenity": "pharmacy", "name": "Yeni Oya Eczanesi", "phone": "+90 232 275 3951"}}, {"type": "node", "id": 11829741370, "lat": 38.3537948, "lon": 27.1310297, "tags": {"amenity": "pharmacy", "name": "Aktepe Ar\u0131 Eczanesi", "phone": "+90 232 254 9393"}}, {"type": "node", "id": 11829741371, "lat": 38.3547153, "lon": 27.12916, "tags": {"amenity": "pharmacy", "name": "Derman Eczanesi", "phone": "+90 232 254 2811"}}, {"type": "node", "id": 11829741372, "lat": 38.3545682, "lon": 27.1288905, "tags": {"amenity": "pharmacy", "name": "Efi Mavi Eczanesi", "phone": "+90 232 254 9299"}}, {"type": "node", "id": 11829741373, "lat": 38.3704767, "lon": 27.1286149, "tags": {"amenity": "pharmacy", "name": "\u00d6zgen Eczanesi", "phone": "+90 232 342 6027"}}, {"type": "node", "id": 11829741374, "lat": 38.3690923, "lon": 27.1254326, "tags": {"amenity": "pharmacy", "name": "Adar Eczanesi", "phone": "+90 232 265 6168"}}, {"type": "node", "id": 11829741375, "lat": 38.3687271, "lon": 27.1257076, "tags": {"amenity": "pharmacy", "name": "Berfin Eczanesi", "phone": "+90 232 237 1051"}}, {"type": "node", "id": 11829741376, "lat": 38.3688533, "lon": 27.1262439, "tags": {"amenity": "pharmacy", "name": "\u00d6z \u00c7aml\u0131k Eczanesi", "phone": "+90 232 237 0022"}}, {"type": "node", "id": 11829741377, "lat": 38.368975, "lon": 27.1263958, "tags": {"amenity": "pharmacy", "name": "B\u00fc\u015fra Eczanesi", "phone": "+90 232 237 5887"}}, {"type": "node", "id": 11829741378, "lat": 38.368886, "lon": 27.126627, "tags": {"amenity": "pharmacy", "name": "Yeni \u015eeniz Eczanesi", "phone": "+90 232 265 0352"}}, {"type": "node", "id": 11829741379, "lat": 38.3686595, "lon": 27.126755, "tags": {"amenity": "pharmacy", "name": "Efe Sezer Eczanesi", "phone": "+90 232 253 5125"}}, {"type": "node", "id": 11829741380, "lat": 38.3524705, "lon": 27.0988299, "tags": {"amenity": "pharmacy", "name": "Doruk Eczanesi", "phone": "+90 232 272 1676"}}, {"type": "node", "id": 11829741381, "lat": 38.3547631, "lon": 27.0822883, "tags": {"amenity": "pharmacy", "name": "Polat Eczanesi", "phone": "+90 232 267 8807"}}, {"type": "node", "id": 11829741382, "lat": 38.3612841, "lon": 27.1015351, "tags": {"amenity": "pharmacy", "name": "Tayfun Eczanesi", "phone": "+90 232 203 4892"}}, {"type": "node", "id": 11829741383, "lat": 38.3619519, "lon": 27.1011147, "tags": {"amenity": "pharmacy", "name": "Y\u00fckseller Eczanesi", "phone": "+90 232 271 3337"}}, {"type": "node", "id": 11829742769, "lat": 38.3617442, "lon": 27.1248651, "tags": {"amenity": "pharmacy", "name": "\u0130brahim Eczanesi", "phone": "+90 555 028 0483"}}, {"type": "node", "id": 11829742770, "lat": 38.3681537, "lon": 27.1327339, "tags": {"amenity": "pharmacy", "name": "Ihlamur Eczanesi", "phone": "+90 232 210 2060"}}, {"type": "node", "id": 11829742771, "lat": 38.3692769, "lon": 27.0961106, "tags": {"amenity": "pharmacy", "name": "\u015eifaveren Eczanesi", "phone": "+90 232 267 0096"}}, {"type": "node", "id": 11829742772, "lat": 38.3694182, "lon": 27.0957105, "tags": {"amenity": "pharmacy", "name": "Ulukaya Eczanesi", "phone": "+90 232 267 3000"}}, {"type": "node", "id": 11830897269, "lat": 38.3708133, "lon": 27.1076297, "tags": {"amenity": "pharmacy", "name": "Yeni Eczanesi", "phone": "+90 232 271 1099"}}, {"type": "node", "id": 11830897270, "lat": 38.3720951, "lon": 27.1088471, "tags": {"amenity": "pharmacy", "name": "Reyhan Eczanesi", "phone": "+90 232 271 1071"}}, {"type": "node", "id": 11830897271, "lat": 38.3721175, "lon": 27.1086012, "tags": {"amenity": "pharmacy", "name": "Habbal Eczanesi", "phone": "+90 232 272 1704"}}, {"type": "node", "id": 11830897272, "lat": 38.3746904, "lon": 27.1302717, "tags": {"amenity": "pharmacy", "name": "I\u015f\u0131k Eczanesi", "phone": "+90 232 237 1040"}}, {"type": "node", "id": 11830897274, "lat": 38.3841932, "lon": 27.1297265, "tags": {"amenity": "pharmacy", "healthcare": "pharmacy", "name": "Aral\u0131k Eczanesi", "phone": "+90 232 265 3734"}}, {"type": "node", "id": 11830897469, "lat": 38.3718813, "lon": 27.1077852, "tags": {"amenity": "pharmacy", "name": "G\u00fclyaka Eczanesi", "phone": "+90 232 271 7673"}}, {"type": "node", "id": 11830897470, "lat": 38.3722161, "lon": 27.1071396, "tags": {"amenity": "pharmacy", "name": "\u015eahin Eczanesi", "phone": "+90 232 271 6882"}}, {"type": "node", "id": 11830897471, "lat": 38.3772029, "lon": 27.1320691, "tags": {"amenity": "pharmacy", "name": "\u00d6zyeni", "name:tr": "\u00d6zyeni Umut Eczanesi", "phone": "+90 232 237 5737"}}, {"type": "node", "id": 11830897472, "lat": 38.3771234, "lon": 27.1338254, "tags": {"amenity": "pharmacy", "name": "Tuba Eczanesi", "phone": "+90 232 207 0010"}}, {"type": "node", "id": 11830897473, "lat": 38.3760224, "lon": 27.1187329, "tags": {"amenity": "pharmacy", "name": "Lokman Hekim Eczanesi", "phone": "+90 232 265 5533"}}, {"type": "node", "id": 11830897474, "lat": 38.3843989, "lon": 27.1301142, "tags": {"amenity": "pharmacy", "healthcare": "pharmacy", "name": "Salih Eczanesi", "phone": "+90 232 261 8011"}}, {"type": "node", "id": 11830897475, "lat": 38.3842907, "lon": 27.1298365, "tags": {"amenity": "pharmacy", "healthcare": "pharmacy", "name": "Eda Eczanesi", "phone": "+90 232 254 2025"}}, {"type": "node", "id": 11830897569, "lat": 38.3719723, "lon": 27.1070735, "tags": {"amenity": "pharmacy", "name": "Sab\u0131r Eczanesi", "phone": "+90 232 271 3550"}}, {"type": "node", "id": 11830897570, "lat": 38.3759726, "lon": 27.1185239, "tags": {"amenity": "pharmacy", "name": "Portakal Eczanesi", "phone": "+90 232 210 6070"}}, {"type": "node", "id": 11830897571, "lat": 38.3842302, "lon": 27.129777, "tags": {"amenity": "pharmacy", "healthcare": "pharmacy", "name": "Bade Eczanesi", "phone": "+90 232 265 5544"}}, {"type": "node", "id": 11830897669, "lat": 38.3768648, "lon": 27.1083324, "tags": {"amenity": "pharmacy", "name": "Yasemin Bilgin Eczanesi", "phone": "+90 232 265 3332"}}, {"type": "node", "id": 11830897670, "lat": 38.3841298, "lon": 27.1298578, "tags": {"amenity": "pharmacy", "healthcare": "pharmacy", "name": "\u00c7itlenbik Eczanesi", "phone": "+90 232 254 1741"}}, {"type": "node", "id": 11830897769, "lat": 38.3769184, "lon": 27.1078509, "tags": {"amenity": "pharmacy", "name": "Derya Eczanesi", "phone": "+90 232 271 0606"}}, {"type": "node", "id": 11830897770, "lat": 38.3813622, "lon": 27.1215195, "tags": {"amenity": "pharmacy", "name": "Din\u00e7er Eczanesi", "phone": "+90 232 264 0171"}}, {"type": "node", "id": 11830897771, "lat": 38.3757776, "lon": 27.1190627, "tags": {"amenity": "pharmacy", "name": "\u00d6zge Eczanesi", "phone": "+90 232 265 5417"}}, {"type": "node", "id": 11830897869, "lat": 38.3741281, "lon": 27.1315395, "tags": {"amenity": "pharmacy", "name": "Yeni Mert Eczanesi", "phone": "+90 232 237 9542"}}, {"type": "node", "id": 11830897969, "lat": 38.374492, "lon": 27.131079, "tags": {"amenity": "pharmacy", "name": "Ak\u00e7eltik Eczanesi", "phone": "+90 232 237 5169"}}, {"type": "node", "id": 11830898069, "lat": 38.3771167, "lon": 27.1320274, "tags": {"amenity": "pharmacy", "name": "Karaba\u011flar Eczanesi", "phone": "+90 232 237 1163"}}, {"type": "node", "id": 11830898070, "lat": 38.3769547, "lon": 27.1336014, "tags": {"amenity": "pharmacy", "name": "Ay\u00e7a Eczanesi", "phone": "+90 232 253 4253"}}, {"type": "node", "id": 11830898071, "lat": 38.377084, "lon": 27.1339119, "tags": {"amenity": "pharmacy", "name": "G\u00fclfem Eczanesi", "phone": "+90 232 264 6652"}}, {"type": "node", "id": 11830898072, "lat": 38.3813083, "lon": 27.1213811, "tags": {"amenity": "pharmacy", "name": "G\u00fcrses Eczanesi", "phone": "+90 232 255 2554"}}, {"type": "node", "id": 11832963369, "lat": 38.3869496, "lon": 27.1316524, "tags": {"amenity": "pharmacy", "healthcare": "pharmacy", "name": "Kocagil Eczanesi", "phone": "+90 232 253 4660"}}, {"type": "node", "id": 11832963370, "lat": 38.4041725, "lon": 27.133758, "tags": {"amenity": "pharmacy", "healthcare": "pharmacy", "name": "Konyal\u0131 Eczanesi", "phone": "+90 232 228 9647"}}, {"type": "node", "id": 11832963371, "lat": 38.408449, "lon": 27.1358292, "tags": {"amenity": "pharmacy", "healthcare": "pharmacy", "name": "\u00c7ift\u00e7iler Eczanesi", "phone": "+90 232 262 2089"}}, {"type": "node", "id": 11832963372, "lat": 38.3973595, "lon": 27.1327334, "tags": {"amenity": "pharmacy", "healthcare": "pharmacy", "name": "Seral Eczanesi", "phone": "+90 232 256 5339"}}, {"type": "node", "id": 11832963373, "lat": 38.3748014, "lon": 27.1264093, "tags": {"amenity": "pharmacy", "name": "Yeni", "name:tr": "Yeni\u00e7aml\u0131k Eczanesi", "phone": "+90 232 264 8709"}}, {"type": "node", "id": 11832963469, "lat": 38.3871654, "lon": 27.1312851, "tags": {"amenity": "pharmacy", "healthcare": "pharmacy", "name": "S\u00fcer Eczanesi", "phone": "+90 232 237 2075"}}, {"type": "node", "id": 11832963470, "lat": 38.4043162, "lon": 27.1332973, "tags": {"amenity": "pharmacy", "healthcare": "pharmacy", "name": "Tuncay Eczanesi", "phone": "+90 232 227 1787"}}, {"type": "node", "id": 11832963471, "lat": 38.3978584, "lon": 27.1319883, "tags": {"amenity": "pharmacy", "healthcare": "pharmacy", "name": "Alican Eczanesi", "phone": "+90 232 227 5419"}}, {"type": "node", "id": 11832963569, "lat": 38.4042728, "lon": 27.1340712, "tags": {"amenity": "pharmacy", "healthcare": "pharmacy", "name": "\u00c7imentepe Eczanesi", "phone": "+90 232 227 1962"}}, {"type": "node", "id": 11836645098, "lat": 38.6508052, "lon": 26.9029362, "tags": {"amenity": "pharmacy", "name": "Gerenk\u00f6y Eczanesi", "phone": "+90 232 821 8220"}}, {"type": "node", "id": 11836645404, "lat": 38.6132878, "lon": 27.0682323, "tags": {"amenity": "pharmacy", "name": "Ulukaya Eczanesi", "phone": "+90 232 831 6160"}}, {"type": "node", "id": 11836645614, "lat": 38.659176, "lon": 26.8519868, "tags": {"amenity": "pharmacy", "name": "Ya\u011f\u0131z Eczanesi", "phone": "+90 232 812 7707"}}, {"type": "node", "id": 11836645620, "lat": 38.7016464, "lon": 27.0279533, "tags": {"amenity": "pharmacy", "name": "Helvac\u0131 Eczanesi", "phone": "+90 232 627 8687"}}, {"type": "node", "id": 11836645621, "lat": 38.7027328, "lon": 27.0267892, "tags": {"amenity": "pharmacy", "name": "Sinem Eczanesi", "phone": "+90 232 627 8079"}}, {"type": "node", "id": 11836645622, "lat": 38.6237829, "lon": 27.1480384, "tags": {"amenity": "pharmacy", "name": "Asl\u0131 Cankurt Eczanesi", "phone": "+90 533 691 7560"}}, {"type": "node", "id": 11836645623, "lat": 38.6243238, "lon": 27.1482541, "tags": {"amenity": "pharmacy", "name": "Alsen Eczanesi", "phone": "+90 232 843 8646"}}, {"type": "node", "id": 11836645624, "lat": 38.6098172, "lon": 27.0667846, "tags": {"amenity": "pharmacy", "healthcare": "pharmacy", "name": "\u015eifa Eczanesi", "phone": "+90 232 832 1066"}}, {"type": "node", "id": 11836646189, "lat": 38.6855096, "lon": 27.0322368, "tags": {"amenity": "pharmacy", "name": "T\u00fcrkelli Eczanesi", "phone": "+90 232 835 5098"}}, {"type": "node", "id": 11836647169, "lat": 38.6589996, "lon": 26.855168, "tags": {"amenity": "pharmacy", "name": "Reyhan Eczanesi"}}, {"type": "node", "id": 11841861080, "lat": 38.6108881, "lon": 27.0706105, "tags": {"amenity": "pharmacy", "name": "D\u00f6nmez Eczanesi", "phone": "+90 232 831 1522"}}, {"type": "node", "id": 11841861081, "lat": 38.6093026, "lon": 27.0709737, "tags": {"amenity": "pharmacy", "healthcare": "pharmacy", "name": "S\u00fcha Ekler Eczanesi", "phone": "+90 232 832 3763"}}, {"type": "node", "id": 11841861082, "lat": 38.6101714, "lon": 27.0694893, "tags": {"amenity": "pharmacy", "healthcare": "pharmacy", "name": "Tarhan Eczanesi", "phone": "+90 232 832 3074"}}, {"type": "node", "id": 11841861083, "lat": 38.6062815, "lon": 27.0752937, "tags": {"amenity": "pharmacy", "name": "Yavuz Eczanesi", "phone": "+90 507 522 9991"}}, {"type": "node", "id": 11841861084, "lat": 38.6065098, "lon": 27.078374, "tags": {"amenity": "pharmacy", "name": "Tutkun Eczanesi", "phone": "+90 232 831 4001"}}, {"type": "node", "id": 11841861085, "lat": 38.6059151, "lon": 27.078923, "tags": {"amenity": "pharmacy", "name": "Derman Eczanesi", "phone": "+90 232 832 2404"}}, {"type": "node", "id": 11841861086, "lat": 38.6064563, "lon": 27.0789913, "tags": {"amenity": "pharmacy", "name": "Mert Eczanesi", "phone": "+90 232 831 5626"}}, {"type": "node", "id": 11841861087, "lat": 38.6065032, "lon": 27.087677, "tags": {"amenity": "pharmacy", "name": "Ayaz Eczanesi", "phone": "+90 232 831 5656"}}, {"type": "node", "id": 11841864672, "lat": 38.6098781, "lon": 27.0692865, "tags": {"amenity": "pharmacy", "healthcare": "pharmacy", "name": "Emel Eczanesi", "phone": "+90 232 831 0800"}}, {"type": "node", "id": 11841864673, "lat": 38.6066406, "lon": 27.0872066, "tags": {"amenity": "pharmacy", "name": "G\u00f6zde Eczanesi", "phone": "+90 554 118 0023"}}, {"type": "node", "id": 11841864674, "lat": 38.6067514, "lon": 27.0870825, "tags": {"amenity": "pharmacy", "name": "Menemen Dilek Eczanesi", "phone": "+90 232 832 6962"}}, {"type": "node", "id": 11841864675, "lat": 38.606895, "lon": 27.0873592, "tags": {"amenity": "pharmacy", "name": "Acun Eczanesi", "phone": "+90 232 832 8333"}}, {"type": "node", "id": 11841864970, "lat": 38.6102405, "lon": 27.071573, "tags": {"amenity": "pharmacy", "name": "Lale Eczanesi", "phone": "+90 232 832 2038"}}, {"type": "node", "id": 11841864971, "lat": 38.6091824, "lon": 27.0711859, "tags": {"amenity": "pharmacy", "healthcare": "pharmacy", "name": "Menemen Eczanesi", "phone": "+90 232 832 3763"}}, {"type": "node", "id": 11841864972, "lat": 38.6093786, "lon": 27.0707771, "tags": {"amenity": "pharmacy", "healthcare": "pharmacy", "name": "I\u015f\u0131k Eczanesi", "phone": "+90 232 832 0967"}}, {"type": "node", "id": 11841864973, "lat": 38.6063106, "lon": 27.0789813, "tags": {"amenity": "pharmacy", "name": "Bizim Eczanesi", "phone": "+90 232 831 0818"}}, {"type": "node", "id": 11841864974, "lat": 38.6065647, "lon": 27.0877841, "tags": {"amenity": "pharmacy", "name": "Sedef Eczanesi", "phone": "+90 232 832 6168"}}, {"type": "node", "id": 11841864975, "lat": 38.6069535, "lon": 27.0871307, "tags": {"amenity": "pharmacy", "name": "Poyraz Eczanesi", "phone": "+90 232 832 4505"}}, {"type": "node", "id": 11841868371, "lat": 38.6087708, "lon": 27.0721505, "tags": {"addr:housenumber": "19", "addr:street": "Atat\u00fcrk Caddesi", "amenity": "pharmacy", "healthcare": "pharmacy", "name": "Beyhan Eczanesi", "phone": "+90 232 832 2696"}}, {"type": "node", "id": 11841868372, "lat": 38.6090538, "lon": 27.0714719, "tags": {"amenity": "pharmacy", "healthcare": "pharmacy", "name": "Yeni O\u011fuz Eczanesi", "phone": "+90 232 832 7071"}}, {"type": "node", "id": 11841868373, "lat": 38.6091441, "lon": 27.0693341, "tags": {"amenity": "pharmacy", "name": "Nermin Eczanesi", "phone": "+90 232 832 1095"}}, {"type": "node", "id": 11841868374, "lat": 38.6056892, "lon": 27.075427, "tags": {"amenity": "pharmacy", "name": "Can Eczanesi", "phone": "+90 232 832 9797"}}, {"type": "node", "id": 11841868375, "lat": 38.6057723, "lon": 27.0755713, "tags": {"amenity": "pharmacy", "name": "Fatih Eczanesi", "phone": "+90 232 832 3532"}}, {"type": "node", "id": 11841876169, "lat": 38.6026468, "lon": 27.0746808, "tags": {"amenity": "pharmacy", "name": "Emiralem Eczanesi", "phone": "+90 232 832 1433"}}, {"type": "node", "id": 11841876170, "lat": 38.6067325, "lon": 27.0874061, "tags": {"amenity": "pharmacy", "name": "Utku Eczanesi", "phone": "+90 232 832 1905"}}, {"type": "node", "id": 11842978269, "lat": 38.3893412, "lon": 27.1764867, "tags": {"addr:housenumber": "69/B", "addr:street": "Ba\u015far\u0131 Caddesi", "amenity": "pharmacy", "name": "Nevin Eczanesi", "phone": "+90 232 440 7211"}}, {"type": "node", "id": 11842978270, "lat": 38.390081, "lon": 27.1756172, "tags": {"addr:housenumber": "98", "addr:street": "Ba\u015far\u0131 Caddesi", "amenity": "pharmacy", "healthcare": "pharmacy", "name": "Yeni Nevin Eczanesi", "phone": "+90 232 440 4214"}}, {"type": "node", "id": 11842978271, "lat": 38.3903085, "lon": 27.1753038, "tags": {"amenity": "pharmacy", "healthcare": "pharmacy", "name": "Yaylac\u0131k Eczanesi", "phone": "+90 232 440 9600"}}, {"type": "node", "id": 11853803469, "lat": 38.4331301, "lon": 27.1611329, "tags": {"amenity": "pharmacy", "name": "Vega Eczanesi", "phone": "+90 232 502 9848"}}, {"type": "node", "id": 11853803470, "lat": 38.429125, "lon": 27.1570403, "tags": {"amenity": "pharmacy", "healthcare": "pharmacy", "name": "Babadan Eczanesi", "phone": "+90 530 385 1592"}}, {"type": "node", "id": 11853803569, "lat": 38.4405692, "lon": 27.1438666, "tags": {"amenity": "pharmacy", "healthcare": "pharmacy", "name": "Sibel Atlas Eczanesi", "phone": "+90 232 388 1335"}}, {"type": "node", "id": 11853803669, "lat": 38.4398717, "lon": 27.1464911, "tags": {"amenity": "pharmacy", "healthcare": "pharmacy", "name": "Nilg\u00fcn Eczanesi", "phone": "+90 232 464 4880"}}, {"type": "node", "id": 11853803769, "lat": 38.4362887, "lon": 27.1460684, "tags": {"amenity": "pharmacy", "healthcare": "pharmacy", "name": "Okay Eczanesi", "phone": "+90 232 422 6044"}}, {"type": "node", "id": 11860488969, "lat": 38.4232087, "lon": 27.1630518, "tags": {"amenity": "pharmacy", "healthcare": "pharmacy", "name": "Sat\u0131ro\u011flu Eczanesi", "phone": "+90 232 433 5654"}}, {"type": "node", "id": 11860488970, "lat": 38.4231635, "lon": 27.1627206, "tags": {"amenity": "pharmacy", "healthcare": "pharmacy", "name": "Tepecik Eczanesi", "phone": "+90 232 458 1013"}}, {"type": "node", "id": 11860488971, "lat": 38.4231652, "lon": 27.1624947, "tags": {"amenity": "pharmacy", "healthcare": "pharmacy", "name": "Se\u00e7il Eczanesi", "phone": "+90 232 458 3321"}}, {"type": "node", "id": 11860488972, "lat": 38.4232961, "lon": 27.1611346, "tags": {"amenity": "pharmacy", "healthcare": "pharmacy", "name": "\u00c7are  Eczanesi", "phone": "+90 232 469 6419"}}, {"type": "node", "id": 11860488973, "lat": 38.4234292, "lon": 27.1583985, "tags": {"amenity": "pharmacy", "healthcare": "pharmacy", "name": "\u00d6zmeydan Eczanesi", "phone": "+90 232 433 0273"}}, {"type": "node", "id": 11860489069, "lat": 38.4232007, "lon": 27.1629533, "tags": {"amenity": "pharmacy", "healthcare": "pharmacy", "name": "Metropol Eczanesi", "phone": "+90 232 375 8881"}}, {"type": "node", "id": 11860489169, "lat": 38.4232947, "lon": 27.1602216, "tags": {"amenity": "pharmacy", "healthcare": "pharmacy", "name": "Alev Eczanesi", "phone": "+90 232 459 6117"}}, {"type": "node", "id": 11860489369, "lat": 38.423478, "lon": 27.1596471, "tags": {"amenity": "pharmacy", "healthcare": "pharmacy", "name": "Nerden Eczanesi", "phone": "+90 232 458 9061"}}, {"type": "node", "id": 11875780269, "lat": 38.4323858, "lon": 27.1498386, "tags": {"amenity": "pharmacy", "healthcare": "pharmacy", "name": "G\u00f6\u00e7en Eczanesi", "phone": "+90 232 463 0620"}}, {"type": "node", "id": 11875780270, "lat": 38.4322013, "lon": 27.1476593, "tags": {"amenity": "pharmacy", "healthcare": "pharmacy", "name": "Fuar Eczanesi", "phone": "+90 232 463 6115"}}, {"type": "node", "id": 11875780369, "lat": 38.4325725, "lon": 27.1497852, "tags": {"amenity": "pharmacy", "healthcare": "pharmacy", "name": "Fuat Eczanesi", "phone": "+90 232 404 2555"}}, {"type": "node", "id": 11875780370, "lat": 38.4331518, "lon": 27.1496309, "tags": {"amenity": "pharmacy", "healthcare": "pharmacy", "name": "Okuyucu Eczanesi", "phone": "+90 232 422 5547"}}, {"type": "node", "id": 11875780371, "lat": 38.4325782, "lon": 27.1480146, "tags": {"amenity": "pharmacy", "healthcare": "pharmacy", "name": "Al\u0131\u015f Eczanesi", "phone": "+90 232 464 6065"}}, {"type": "node", "id": 11875780372, "lat": 38.4310015, "lon": 27.1496605, "tags": {"amenity": "pharmacy", "healthcare": "pharmacy", "name": "Enis \u00d6zkan Eczanesi", "phone": "+90 232 421 7979"}}, {"type": "node", "id": 11875780373, "lat": 38.4306943, "lon": 27.1492997, "tags": {"amenity": "pharmacy", "healthcare": "pharmacy", "name": "Talay Eczanesi", "phone": "+90 232 422 2424"}}, {"type": "node", "id": 11875780469, "lat": 38.4328166, "lon": 27.1497351, "tags": {"amenity": "pharmacy", "healthcare": "pharmacy", "name": "Yusuf Eczanesi", "phone": "+90 232 463 0894"}}, {"type": "node", "id": 11875780470, "lat": 38.4326329, "lon": 27.1483984, "tags": {"amenity": "pharmacy", "healthcare": "pharmacy", "name": "\u00d6zge Eczanesi", "phone": "+90 232 422 2711"}}, {"type": "node", "id": 11875780471, "lat": 38.4314174, "lon": 27.1510174, "tags": {"amenity": "pharmacy", "healthcare": "pharmacy", "name": "Hazel Eczanesi", "phone": "+90 232 422 6352"}}, {"type": "node", "id": 11875780569, "lat": 38.4330885, "lon": 27.149682, "tags": {"amenity": "pharmacy", "healthcare": "pharmacy", "name": "Diril Eczanesi", "phone": "+90 232 464 0181"}}, {"type": "node", "id": 11875780669, "lat": 38.4329262, "lon": 27.1491655, "tags": {"amenity": "pharmacy", "healthcare": "pharmacy", "name": "Selim Eczanesi", "phone": "+90 232 422 1420"}}, {"type": "node", "id": 11875780769, "lat": 38.4328072, "lon": 27.1469809, "tags": {"amenity": "pharmacy", "healthcare": "pharmacy", "name": "Suba\u015f\u0131 Eczanesi", "phone": "+90 232 463 3271"}}, {"type": "node", "id": 11904325650, "lat": 38.4053816, "lon": 27.0995366, "tags": {"amenity": "pharmacy", "check_date": "2024-05-14", "healthcare": "pharmacy", "name": "Yal\u0131 Eczanesi"}}, {"type": "node", "id": 11958041999, "lat": 38.4503156, "lon": 27.1784332, "tags": {"amenity": "pharmacy", "check_date": "2024-06-05", "healthcare": "pharmacy", "name": "Anka Eczanes\u0131"}}, {"type": "node", "id": 12066200300, "lat": 38.4341672, "lon": 27.1421251, "tags": {"amenity": "pharmacy", "healthcare": "pharmacy", "name": "K\u00fclt\u00fcr Eczanesi"}}, {"type": "node", "id": 12117644003, "lat": 38.4673543, "lon": 27.1127306, "tags": {"amenity": "pharmacy", "name": "Beyaz Eczane"}}, {"type": "node", "id": 12117941968, "lat": 38.4183681, "lon": 27.1295275, "tags": {"amenity": "pharmacy", "healthcare": "pharmacy", "name": "Demird\u00f6ven Eczanesi"}}, {"type": "node", "id": 12117979088, "lat": 38.416903, "lon": 27.1293739, "tags": {"amenity": "pharmacy", "healthcare": "pharmacy", "name": "Say\u0131ner Eczanesi"}}, {"type": "node", "id": 12350529518, "lat": 38.3932913, "lon": 27.0580939, "tags": {"amenity": "pharmacy", "name": "Ay\u015fep\u0131nar Eczanesi"}}, {"type": "node", "id": 12357719413, "lat": 38.6591816, "lon": 27.3376391}, {"type": "node", "id": 12357719414, "lat": 38.6592131, "lon": 27.337788}, {"type": "node", "id": 12357719415, "lat": 38.6591607, "lon": 27.3378041}, {"type": "node", "id": 12357719416, "lat": 38.6591419, "lon": 27.3377518}, {"type": "node", "id": 12357719417, "lat": 38.6590979, "lon": 27.3377665}, {"type": "node", "id": 12357719418, "lat": 38.6590518, "lon": 27.337737}, {"type": "node", "id": 12357719419, "lat": 38.6590759, "lon": 27.3376901}, {"type": "node", "id": 12421267062, "lat": 38.6123145, "lon": 27.3861866, "tags": {"addr:city": "Manisa", "addr:district": "Yunusemre", "addr:housenumber": "53/A", "addr:neighbourhood": "Uncubozk\u00f6y Mahallesi", "addr:postcode": "45030", "addr:street": "5518. Sokak", "amenity": "pharmacy", "healthcare": "pharmacy", "name": "Eczane Elif"}}, {"type": "node", "id": 12518204382, "lat": 38.4675661, "lon": 27.1090971, "tags": {"amenity": "pharmacy", "healthcare": "pharmacy", "name": "Dilek Eczanesi"}}, {"type": "node", "id": 12549060001, "lat": 38.4639912, "lon": 27.0901822, "tags": {"amenity": "pharmacy", "name": "Site eczanesi"}}, {"type": "node", "id": 12612608520, "lat": 38.4745751, "lon": 27.1043414, "tags": {"amenity": "pharmacy", "healthcare": "pharmacy", "name": "\u00d6mero\u011flu Eczanesi"}}, {"type": "node", "id": 12779770029, "lat": 38.3852428, "lon": 27.1663825, "tags": {"addr:city": "\u0130zmir", "addr:district": "Buca", "addr:housenumber": "114/B", "addr:neighbourhood": "Vali Rahmi Bey", "addr:street": "\u00d6zmen Caddesi", "amenity": "pharmacy", "name": "Eczane Buca Can"}}, {"type": "node", "id": 12779770030, "lat": 38.3852901, "lon": 27.1663074, "tags": {"addr:city": "\u0130zmir", "addr:district": "Buca", "addr:housenumber": "114/B", "addr:neighbourhood": "Vali Rahmi Bey", "addr:street": "\u00d6zmen Caddesi", "amenity": "pharmacy", "name": "Eczane Erciyas"}}, {"type": "node", "id": 12779770031, "lat": 38.3853416, "lon": 27.1662457, "tags": {"addr:city": "\u0130zmir", "addr:district": "Buca", "addr:housenumber": "114/B", "addr:neighbourhood": "Vali Rahmi Bey", "addr:street": "\u00d6zmen Caddesi", "amenity": "pharmacy", "name": "Eczane Seram"}}, {"type": "node", "id": 12779770032, "lat": 38.3854152, "lon": 27.1661438, "tags": {"addr:city": "\u0130zmir", "addr:district": "Buca", "addr:housenumber": "114/B", "addr:neighbourhood": "Vali Rahmi Bey", "addr:street": "\u00d6zmen Caddesi", "amenity": "pharmacy", "name": "Eczane Ne\u015fe"}}, {"type": "node", "id": 12779770033, "lat": 38.3851692, "lon": 27.1664757, "tags": {"addr:city": "\u0130zmir", "addr:district": "Buca", "addr:housenumber": "114/B", "addr:neighbourhood": "Vali Rahmi Bey", "addr:street": "\u00d6zmen Caddesi", "amenity": "pharmacy", "name": "Eczane Demirsoy"}}, {"type": "node", "id": 12779770034, "lat": 38.3851219, "lon": 27.1665314, "tags": {"addr:city": "\u0130zmir", "addr:district": "Buca", "addr:housenumber": "114/B", "addr:neighbourhood": "Vali Rahmi Bey", "addr:street": "\u00d6zmen Caddesi", "amenity": "pharmacy", "name": "Eczane Polato\u011flu"}}, {"type": "node", "id": 12779770035, "lat": 38.385062, "lon": 27.1666212, "tags": {"addr:city": "\u0130zmir", "addr:district": "Buca", "addr:housenumber": "114/B", "addr:neighbourhood": "Vali Rahmi Bey", "addr:street": "\u00d6zmen Caddesi", "amenity": "pharmacy", "name": "Eczane Sudem"}}, {"type": "node", "id": 12779770037, "lat": 38.3848465, "lon": 27.1668948, "tags": {"addr:city": "\u0130zmir", "addr:district": "Buca", "addr:housenumber": "114/B", "addr:neighbourhood": "Vali Rahmi Bey", "addr:postcode": "35380", "addr:street": "\u00d6zmen Caddesi", "amenity": "pharmacy", "name": "Eczane Murat"}}, {"type": "node", "id": 12779770038, "lat": 38.3848076, "lon": 27.1669605, "tags": {"addr:city": "\u0130zmir", "addr:district": "Buca", "addr:housenumber": "112", "addr:neighbourhood": "Vali Rahmi Bey", "addr:postcode": "35380", "addr:street": "\u00d6zmen Caddesi", "amenity": "pharmacy", "name": "Eczane Buca It\u0131r", "phone": "+90 232 448 8893"}}, {"type": "node", "id": 12879244611, "lat": 38.473669, "lon": 27.2542004, "tags": {"addr:city": "\u0130zmir", "addr:district": "Bornova", "addr:housenumber": "No : 1", "addr:neighbourhood": "Evka 3 Mahallesi", "addr:postcode": "35050", "addr:street": "127/9 Sokak", "amenity": "pharmacy", "healthcare": "pharmacy", "name": "Ayg\u00fcl Eczanesi", "phone": "+90 (232) 375 79 16"}}, {"type": "node", "id": 12879244612, "lat": 38.4314851, "lon": 27.2086784, "tags": {"addr:city": "\u0130zmir", "addr:district": "Bornova", "addr:housenumber": "No : 111/A", "addr:neighbourhood": "Ye\u015filova Mahallesi", "addr:postcode": "35080", "addr:street": "4174 Sokak", "amenity": "pharmacy", "healthcare": "pharmacy", "name": "Dila Eczanesi", "phone": "+90 (232) 467 49 38"}}, {"type": "node", "id": 13017266993, "lat": 38.6183249, "lon": 27.4033661, "tags": {"amenity": "pharmacy", "healthcare": "pharmacy"}}, {"type": "node", "id": 13077673835, "lat": 38.4594956, "lon": 27.1919793, "tags": {"amenity": "pharmacy", "name": "Irmak Eczanesi"}}, {"type": "node", "id": 13089624630, "lat": 38.4667271, "lon": 27.0892132, "tags": {"amenity": "pharmacy", "name": "Atakent Zirve Eczanesi"}}, {"type": "node", "id": 13089636370, "lat": 38.4639143, "lon": 27.0930541, "tags": {"amenity": "pharmacy", "name": "Bostanl\u0131 - P\u0131nar Eczanesi"}}, {"type": "node", "id": 13100310122, "lat": 38.4770591, "lon": 27.0984822, "tags": {"amenity": "pharmacy", "healthcare": "pharmacy", "name": "Selen Eczanesi"}}, {"type": "way", "id": 1335909148, "nodes": [12357719413, 12357719414, 12357719415, 12357719416, 12357719417, 12357719418, 12357719419, 12357719413], "tags": {"amenity": "pharmacy", "building": "yes", "drive_through": "no", "healthcare": "pharmacy", "name": "\u015eifa Eczanesi"}}]}