{"version": 0.6, "generator": "Overpass API 0.7.62.8 e802775f", "osm3s": {"timestamp_osm_base": "2025-09-24T03:43:00Z", "copyright": "The data included in this document is from www.openstreetmap.org. The data is made available under ODbL."}, "elements": [{"type": "node", "id": 370319221, "lat": 13.0645397, "lon": 80.243327, "tags": {"amenity": "pharmacy", "brand": "Apollo Pharmacy", "brand:wikidata": "Q62562612", "healthcare": "pharmacy", "name": "Apollo Pharmacy"}}, {"type": "node", "id": 378692907, "lat": 13.0402754, "lon": 80.2500307, "tags": {"amenity": "pharmacy", "healthcare": "pharmacy"}}, {"type": "node", "id": 459642871, "lat": 13.0540717, "lon": 80.2040147, "tags": {"amenity": "pharmacy", "healthcare": "pharmacy", "name": "Abhirami Medicals"}}, {"type": "node", "id": 595662363, "lat": 13.0570316, "lon": 80.1939439, "tags": {"amenity": "pharmacy", "healthcare": "pharmacy", "name": "Geetha Pharmacy"}}, {"type": "node", "id": 612527668, "lat": 13.0726659, "lon": 80.2083688, "tags": {"amenity": "pharmacy", "name": "Seven Star Pharmacy"}}, {"type": "node", "id": 928070924, "lat": 13.04426, "lon": 80.2272823, "tags": {"amenity": "pharmacy", "healthcare": "pharmacy"}}, {"type": "node", "id": 934857903, "lat": 13.039837, "lon": 80.1859118, "tags": {"amenity": "pharmacy", "brand": "MedPlus", "brand:wikidata": "Q65684234", "healthcare": "pharmacy", "name": "MedPlus"}}, {"type": "node", "id": 941482690, "lat": 13.0706398, "lon": 80.2081591, "tags": {"amenity": "pharmacy", "name": "Seetha Medicals"}}, {"type": "node", "id": 992584083, "lat": 13.0529181, "lon": 80.2039636, "tags": {"amenity": "pharmacy", "healthcare": "pharmacy"}}, {"type": "node", "id": 1467471239, "lat": 13.1417058, "lon": 80.2371106, "tags": {"amenity": "pharmacy", "healthcare": "pharmacy", "name": "Ganapathy medicals"}}, {"type": "node", "id": 1797128712, "lat": 13.0728115, "lon": 80.2079408, "tags": {"amenity": "pharmacy", "dispensing": "yes", "name": "Siva Medicals"}}, {"type": "node", "id": 1948616269, "lat": 13.0677514, "lon": 80.2050048, "tags": {"amenity": "pharmacy", "brand": "Apollo Pharmacy", "brand:wikidata": "Q62562612", "healthcare": "pharmacy", "name": "Apollo Pharmacy"}}, {"type": "node", "id": 2394694856, "lat": 13.0904821, "lon": 80.215805, "tags": {"amenity": "pharmacy", "brand": "Apollo Pharmacy", "brand:wikidata": "Q62562612", "healthcare": "pharmacy", "name": "Apollo Pharmacy", "name:ta": "\u0b85\u0baa\u0bcd\u0baa\u0bb2\u0bcd\u0bb2\u0bcb \u0bae\u0bb0\u0bc1\u0ba8\u0bcd\u0ba4\u0b95\u0bae\u0bcd"}}, {"type": "node", "id": 3685002782, "lat": 13.0419746, "lon": 80.2249547, "tags": {"amenity": "pharmacy", "healthcare": "pharmacy", "name": "West Mambalam Pharmacy"}}, {"type": "node", "id": 3735409816, "lat": 13.0420421, "lon": 80.2257791, "tags": {"amenity": "pharmacy", "healthcare": "pharmacy", "name": "Jeyalakshmi Medicals"}}, {"type": "node", "id": 3978318677, "lat": 13.0597957, "lon": 80.195286, "tags": {"amenity": "pharmacy"}}, {"type": "node", "id": 4545836849, "lat": 13.1121912, "lon": 80.0955883, "tags": {"amenity": "pharmacy"}}, {"type": "node", "id": 4545836850, "lat": 13.1123466, "lon": 80.0956549, "tags": {"amenity": "pharmacy"}}, {"type": "node", "id": 4545836851, "lat": 13.1126103, "lon": 80.095707, "tags": {"amenity": "pharmacy"}}, {"type": "node", "id": 4545836852, "lat": 13.1128775, "lon": 80.0957348, "tags": {"amenity": "pharmacy"}}, {"type": "node", "id": 4545836853, "lat": 13.1131855, "lon": 80.0957989, "tags": {"amenity": "pharmacy"}}, {"type": "node", "id": 4545836854, "lat": 13.1142375, "lon": 80.0960401, "tags": {"amenity": "pharmacy"}}, {"type": "node", "id": 4545836855, "lat": 13.1164298, "lon": 80.0965513, "tags": {"amenity": "pharmacy"}}, {"type": "node", "id": 4571917396, "lat": 13.090139, "lon": 80.1885088, "tags": {"addr:housenumber": "4C", "addr:postcode": "600101", "addr:street": "TVS AVENUE", "amenity": "pharmacy", "name:en": "Sree Thirumal Pharmacy", "opening_hours": "Mo-Su 09:00-14:00, 17:00-23:00", "operator": "Nakeeran", "phone": "04426544609"}}, {"type": "node", "id": 5305752194, "lat": 13.0856902, "lon": 80.2030609, "tags": {"addr:street": "12th Main Road", "amenity": "pharmacy", "healthcare": "pharmacy", "name": "Sukham Pharmacy"}}, {"type": "node", "id": 5336394298, "lat": 13.1026223, "lon": 80.2090829, "tags": {"addr:housenumber": "167/1", "amenity": "pharmacy", "healthcare": "pharmacy", "name": "S.R. Medicals", "phone": "04426180992"}}, {"type": "node", "id": 5336395126, "lat": 13.1026662, "lon": 80.2089167, "tags": {"amenity": "pharmacy", "brand": "MedPlus", "brand:wikidata": "Q65684234", "healthcare": "pharmacy", "name": "MedPlus"}}, {"type": "node", "id": 5338508433, "lat": 13.105724, "lon": 80.2076852, "tags": {"amenity": "pharmacy", "healthcare": "pharmacy", "name": "Sri Bhagavan Medicals"}}, {"type": "node", "id": 5338512294, "lat": 13.1076791, "lon": 80.2061087, "tags": {"addr:housenumber": "146/3", "addr:street": "Redhills road, Villivakkam", "amenity": "pharmacy", "healthcare": "pharmacy", "name": "Sri Azhagu Medicals"}}, {"type": "node", "id": 5338522331, "lat": 13.1092819, "lon": 80.2062148, "tags": {"amenity": "pharmacy", "healthcare": "pharmacy", "name": "Thai Medical and Generals"}}, {"type": "node", "id": 5338591947, "lat": 13.1036499, "lon": 80.2075899, "tags": {"amenity": "pharmacy", "healthcare": "pharmacy", "name": "Gurudev Pharmacy"}}, {"type": "node", "id": 5338616494, "lat": 13.0847337, "lon": 80.2122632, "tags": {"amenity": "pharmacy", "healthcare": "pharmacy", "name": "Narayanappah Pharmacy"}}, {"type": "node", "id": 5359076843, "lat": 13.0852419, "lon": 80.199355, "tags": {"amenity": "pharmacy", "healthcare": "pharmacy", "name": "Sathya Pharmacy"}}, {"type": "node", "id": 5370532387, "lat": 13.0857391, "lon": 80.1925899, "tags": {"addr:city": "Chennai", "addr:housenumber": "5/2", "addr:street": "Padikuppam Road", "addr:suburb": "Anna Nagar West", "amenity": "pharmacy", "healthcare": "pharmacy", "name": "A.R.R. Pharmacy", "phone": "9444629833"}}, {"type": "node", "id": 5370536481, "lat": 13.085025, "lon": 80.1924583, "tags": {"addr:city": "Chennai", "addr:street": "Padikuppam Road", "addr:suburb": "Anna Nagar West", "amenity": "pharmacy", "brand": "MedPlus", "brand:wikidata": "Q65684234", "healthcare": "pharmacy", "name": "MedPlus"}}, {"type": "node", "id": 5370537739, "lat": 13.0847424, "lon": 80.1924194, "tags": {"addr:housenumber": "100", "addr:street": "Padikuppam Road, Kamarajar Nagar, Anna Nagar West, Chennai", "amenity": "pharmacy", "description": "Free home delivery available", "name": "Madha Medicals", "phone": "9176154429"}}, {"type": "node", "id": 5400380244, "lat": 13.0873798, "lon": 80.1974921, "tags": {"amenity": "pharmacy", "healthcare": "pharmacy", "name": "Coopertive Medicals"}}, {"type": "node", "id": 5409630282, "lat": 13.0833415, "lon": 80.1920654, "tags": {"addr:street": "Padikuppam road, Kamarajar Nagar, Thirumangalam, Anna Nagar West, Chennai", "amenity": "pharmacy", "name": "Anbu Medicals"}}, {"type": "node", "id": 5910074596, "lat": 13.0770009, "lon": 80.2387258, "tags": {"addr:street": "EVR Periyar Salai (Poonamallee High Road)", "amenity": "pharmacy", "dispensing": "yes", "healthcare": "pharmacy", "name": "The Guest Pharmacy"}}, {"type": "node", "id": 6036525834, "lat": 13.105607, "lon": 80.2099301, "tags": {"addr:street": "East Mada Street, Villivakkam", "amenity": "pharmacy", "healthcare": "pharmacy", "name": "VM Medicals"}}, {"type": "node", "id": 6036592551, "lat": 13.108615, "lon": 80.2077057, "tags": {"amenity": "pharmacy", "brand": "MedPlus", "brand:wikidata": "Q65684234", "brand:wikipedia": "en:MedPlus", "healthcare": "pharmacy", "name": "MedPlus"}}, {"type": "node", "id": 6039322857, "lat": 13.0874373, "lon": 80.1970993, "tags": {"addr:housenumber": "1/16", "addr:street": "Welcome colony, Anna nagar west", "amenity": "pharmacy", "name": "Jayalakshmi Medicals"}}, {"type": "node", "id": 6237693085, "lat": 13.0853754, "lon": 80.2520126, "tags": {"amenity": "pharmacy", "healthcare": "pharmacy", "name:en": "Muthu Pharmacy"}}, {"type": "node", "id": 9084538715, "lat": 13.0402219, "lon": 80.1928534}, {"type": "node", "id": 9084538716, "lat": 13.0401862, "lon": 80.193075}, {"type": "node", "id": 9084545717, "lat": 13.0401486, "lon": 80.1930669}, {"type": "node", "id": 9084545718, "lat": 13.0401803, "lon": 80.1928473}, {"type": "node", "id": 9980280808, "lat": 13.1279965, "lon": 80.2015444, "tags": {"amenity": "pharmacy", "brand": "MedPlus", "brand:wikidata": "Q65684234", "dispensing": "yes", "healthcare": "pharmacy", "name": "MedPlus"}}, {"type": "node", "id": 10267991675, "lat": 13.0999545, "lon": 80.1569836, "tags": {"addr:street": "Mahatma Gandhi Road, VGN, Ambattur, Chennai", "amenity": "pharmacy", "name": "Medplus Pharmacy"}}, {"type": "node", "id": 11071527624, "lat": 13.0853533, "lon": 80.2128093, "tags": {"amenity": "pharmacy", "brand": "Apollo Pharmacy", "brand:wikidata": "Q62562612", "healthcare": "pharmacy", "name": "Apollo Pharmacy"}}, {"type": "node", "id": 11162390464, "lat": 13.0850035, "lon": 80.1747522, "tags": {"amenity": "pharmacy", "brand": "Apollo Pharmacy", "brand:wikidata": "Q62562612", "healthcare": "pharmacy", "name": "Apollo Pharmacy"}}, {"type": "node", "id": 11395977107, "lat": 13.0414646, "lon": 80.2217887, "tags": {"amenity": "pharmacy", "healthcare": "pharmacy", "name": "Easwar medicals"}}, {"type": "node", "id": 11395977108, "lat": 13.0439094, "lon": 80.2223127, "tags": {"amenity": "pharmacy", "brand": "Apollo Pharmacy", "brand:wikidata": "Q62562612", "healthcare": "pharmacy", "name": "Apollo Pharmacy"}}, {"type": "node", "id": 11395977109, "lat": 13.0467824, "lon": 80.2263207, "tags": {"amenity": "pharmacy", "brand": "Apollo Pharmacy", "brand:wikidata": "Q62562612", "healthcare": "pharmacy", "name": "Apollo Pharmacy"}}, {"type": "node", "id": 11395977110, "lat": 13.0454549, "lon": 80.2258794, "tags": {"amenity": "pharmacy", "healthcare": "pharmacy", "name": "Jayalaksmi medicals"}}, {"type": "node", "id": 11395977112, "lat": 13.0427579, "lon": 80.2252034, "tags": {"amenity": "pharmacy", "branch": "medical shop", "brand": "MedPlus", "brand:wikidata": "Q65684234", "healthcare": "pharmacy", "name": "MedPlus"}}, {"type": "node", "id": 11395977113, "lat": 13.0426041, "lon": 80.2251597, "tags": {"amenity": "pharmacy", "healthcare": "pharmacy", "name": "Velavan medical shop"}}, {"type": "node", "id": 11508069598, "lat": 13.1317646, "lon": 80.2487015, "tags": {"amenity": "pharmacy", "dispensing": "yes", "healthcare": "pharmacy", "name": "SIVA"}}, {"type": "node", "id": 11924992978, "lat": 13.3883496, "lon": 79.7940744, "tags": {"addr:city": "Nagalapuram", "addr:district": "Tirupathi", "addr:postcode": "517589", "addr:street": "Bazaar Street", "amenity": "pharmacy", "brand": "Apollo Pharmacy", "brand:wikidata": "Q62562612", "dispensing": "no", "drive_through": "no", "healthcare": "pharmacy", "name": "Apollo Pharmacy", "opening_hours": "24/7", "operator": "Apollo"}}, {"type": "node", "id": 12174769279, "lat": 13.1398131, "lon": 79.9072958, "tags": {"amenity": "pharmacy", "healthcare": "pharmacy", "name": "Sri ragava pharmacy"}}, {"type": "node", "id": 12175859469, "lat": 13.1397547, "lon": 79.9073176, "tags": {"amenity": "pharmacy", "healthcare": "pharmacy", "name": "Sri velmurugan medicals"}}, {"type": "node", "id": 12494690201, "lat": 13.070634, "lon": 80.2318455, "tags": {"addr:street": "Vaidhanathan Street", "amenity": "pharmacy", "brand": "MedPlus", "brand:wikidata": "Q65684234", "healthcare": "pharmacy", "name": "MedPlus"}}, {"type": "node", "id": 12497428101, "lat": 13.0720446, "lon": 80.230545, "tags": {"addr:street": "Kanthan Street", "amenity": "pharmacy", "name": "Saffra Medicals"}}, {"type": "node", "id": 12547945101, "lat": 13.0722669, "lon": 80.2303466, "tags": {"addr:street": "Venkatachalabathy Street", "amenity": "pharmacy", "name": "Daksha Pharmacy", "opening_hours": "Mo-Su 09:00-22:00"}}, {"type": "node", "id": 12640732029, "lat": 13.0497595, "lon": 80.2404197, "tags": {"amenity": "pharmacy", "name": "Medplus"}}, {"type": "node", "id": 12640732242, "lat": 13.0506559, "lon": 80.2403622, "tags": {"amenity": "pharmacy", "name": "Muthu Pharmacy"}}, {"type": "node", "id": 13137353953, "lat": 13.0499297, "lon": 80.2397101, "tags": {"amenity": "pharmacy", "name": "Apollo pharmacy"}}, {"type": "way", "id": 982296103, "nodes": [9084538715, 9084538716, 9084545717, 9084545718, 9084538715], "tags": {"amenity": "pharmacy", "brand": "Apollo Pharmacy", "brand:wikidata": "Q62562612", "building": "yes", "dispensing": "yes", "drive_through": "no", "healthcare": "pharmacy", "name": "Apollo Pharmacy", "opening_hours": "24/7"}}]}